{"type":"FeatureCollection","municipality_code":"01230","pref":"北海道","city":"登別市","layer_counts":{"historical_sites_archaeology":2,"historical_temples_shrines":3},"total_features":5,"features":[{"type":"Feature","properties":{"layer_id":"historical_sites_archaeology","name":"登別クマ牧場","address":"北海道 登別市 登別温泉町","source":"Geoshape 日本歴史地名大系 施設・地点項目データセット 2025-05-15","subarea_name":"その他","feature_key":"99_other_poi.geojson:010000268000","subtype":"その他"},"geometry":{"type":"Point","coordinates":[141.160514,42.490529]}},{"type":"Feature","properties":{"layer_id":"historical_sites_archaeology","name":"第一滝本館","address":"北海道 登別市 登別温泉町","source":"Geoshape 日本歴史地名大系 施設・地点項目データセット 2025-05-15","subarea_name":"史跡","feature_key":"09_historic_sites.geojson:010000267600","subtype":"史跡"},"geometry":{"type":"Point","coordinates":[141.144634,42.495022]}},{"type":"Feature","properties":{"layer_id":"historical_temples_shrines","name":"刈田神社","address":"北海道 登別市 中央町六丁目24番地","source":"Geoshape 日本歴史地名大系 施設・地点項目データセット 2025-05-15","subarea_name":"神社","feature_key":"02_shrines.geojson:010000266000","subtype":"神社"},"geometry":{"type":"Point","coordinates":[141.109589,42.415195]}},{"type":"Feature","properties":{"layer_id":"historical_temples_shrines","name":"妙隆寺","address":"北海道 登別市 富岸町61番地2","source":"Geoshape 日本歴史地名大系 施設・地点項目データセット 2025-05-15","subarea_name":"寺院","feature_key":"01_temples.geojson:010000079900","subtype":"寺院"},"geometry":{"type":"Point","coordinates":[141.054108,42.393433]}},{"type":"Feature","properties":{"layer_id":"historical_temples_shrines","name":"湯沢神社","address":"北海道 登別市 登別温泉町106番地","source":"Geoshape 日本歴史地名大系 施設・地点項目データセット 2025-05-15","subarea_name":"神社","feature_key":"02_shrines.geojson:010000267500","subtype":"神社"},"geometry":{"type":"Point","coordinates":[141.144287,42.495853]}}]}