{"type":"FeatureCollection","municipality_code":"01331","pref":"北海道","city":"松前町","layer_counts":{"edo_post_stations":1,"edo_roads":2,"historical_sites_archaeology":11,"historical_temples_shrines":12},"total_features":26,"features":[{"type":"Feature","properties":{"layer_id":"edo_post_stations","name":"松前","address":"","source":"CODH 江戸宿場データセット Version 1 (2026-08)","subarea_name":"松前街道","feature_key":"post:R200-007"},"geometry":{"type":"Point","coordinates":[140.107956,41.429443]}},{"type":"Feature","properties":{"layer_id":"edo_roads","name":"松前街道","address":"松前 → 函館","source":"CODH 江戸主要街道データセット Version 4 (2026-08)","subarea_name":"江戸期の主要街道","feature_key":"road:R200"},"geometry":{"type":"LineString","coordinates":[[140.108209,41.428282],[140.109024,41.42841],[140.109432,41.428578],[140.110638,41.429183],[140.111856,41.428911],[140.112938,41.42805],[140.113578,41.427764],[140.114341,41.427681],[140.115818,41.427921],[140.116568,41.42817],[140.119461,41.4302],[140.12015,41.430634],[140.120753,41.430625],[140.121048,41.430468],[140.121233,41.430182],[140.121664,41.429951],[140.122919,41.42948],[140.123547,41.429388],[140.124359,41.429554],[140.125319,41.429942],[140.126057,41.430366],[140.12714,41.4314],[140.127276,41.432046],[140.127448,41.432285],[140.129676,41.432848],[140.130906,41.431769],[140.131448,41.431418],[140.132088,41.430864],[140.133097,41.429388],[140.133491,41.428779],[140.133983,41.428281],[140.134549,41.427985],[140.135361,41.427746],[140.136149,41.427672],[140.13706,41.427653],[140.137774,41.427782],[140.139497,41.427635],[140.140137,41.427672],[140.141047,41.427912],[140.14218,41.428428],[140.143287,41.429001],[140.143952,41.42924],[140.144813,41.429711],[140.146204,41.429342],[140.146783,41.429047],[140.146586,41.42865],[140.147866,41.427515],[140.148038,41.427183],[140.148419,41.427035],[140.149822,41.425688],[140.150586,41.425448],[140.151447,41.4253],[140.152062,41.425282],[140.153515,41.425503],[140.15413,41.425503],[140.155016,41.425116],[140.15605,41.424451],[140.157453,41.42327],[140.158782,41.422605],[140.159521,41.422126],[140.159914,41.421609]]}},{"type":"Feature","properties":{"layer_id":"edo_roads","name":"松前街道","address":"松前 → 函館","source":"CODH 江戸主要街道データセット Version 4 (2026-08)","subarea_name":"江戸期の主要街道","feature_key":"road:R200"},"geometry":{"type":"LineString","coordinates":[[140.160653,41.420686],[140.161539,41.420446],[140.161883,41.420243],[140.162844,41.41932],[140.163828,41.418416],[140.164542,41.417843],[140.165625,41.417271],[140.166093,41.416828],[140.166486,41.41657],[140.167102,41.41633],[140.168455,41.416145],[140.168923,41.416145],[140.169649,41.41657],[140.169945,41.416773],[140.170191,41.417197],[140.170757,41.417751],[140.171299,41.418471],[140.171865,41.419006],[140.172615,41.419486],[140.173711,41.419948],[140.174917,41.420326],[140.17536,41.420612],[140.175852,41.421203],[140.176874,41.42171],[140.177144,41.422024],[140.177341,41.422153],[140.178301,41.422172],[140.179138,41.422319],[140.179655,41.422559],[140.180295,41.422652],[140.18091,41.422965],[140.181944,41.423279],[140.183261,41.423491],[140.184086,41.423353],[140.184652,41.423464],[140.186399,41.423501],[140.187409,41.423371],[140.188024,41.423168],[140.188442,41.423187],[140.188984,41.423538],[140.189255,41.423888],[140.190239,41.423925],[140.19147,41.424257],[140.192012,41.42435],[140.193119,41.424386],[140.193587,41.424627],[140.194227,41.424645],[140.195261,41.424774],[140.195654,41.424756],[140.196294,41.424737],[140.196565,41.4247],[140.196885,41.424442],[140.197181,41.424331],[140.19755,41.424442],[140.197796,41.424294],[140.199002,41.42483],[140.199396,41.42483],[140.199691,41.42459],[140.199962,41.424627],[140.200134,41.424977],[140.201611,41.425586],[140.202054,41.42566],[140.20363,41.426214],[140.204786,41.42673],[140.20582,41.42662],[140.206337,41.426804],[140.20678,41.426786]]}},{"type":"Feature","properties":{"layer_id":"historical_sites_archaeology","name":"大館跡","address":"北海道 松前郡松前町 字神明","source":"Geoshape 日本歴史地名大系 施設・地点項目データセット 2025-05-15","subarea_name":"史跡","feature_key":"09_historic_sites.geojson:010000064000","subtype":"史跡"},"geometry":{"type":"Point","coordinates":[140.109329,41.434993]}},{"type":"Feature","properties":{"layer_id":"historical_sites_archaeology","name":"寺町貝塚","address":"北海道 松前郡松前町 字江良","source":"Geoshape 日本歴史地名大系 施設・地点項目データセット 2025-05-15","subarea_name":"遺跡","feature_key":"08_archaeological_sites.geojson:010000068900","subtype":"遺跡"},"geometry":{"type":"Point","coordinates":[139.992071,41.544753]}},{"type":"Feature","properties":{"layer_id":"historical_sites_archaeology","name":"小島灯台","address":"北海道 松前郡松前町 字小島","source":"Geoshape 日本歴史地名大系 施設・地点項目データセット 2025-05-15","subarea_name":"史跡","feature_key":"09_historic_sites.geojson:010000067700","subtype":"史跡"},"geometry":{"type":"Point","coordinates":[139.815187,41.363695]}},{"type":"Feature","properties":{"layer_id":"historical_sites_archaeology","name":"徽典館跡","address":"北海道 松前郡松前町 字松城","source":"Geoshape 日本歴史地名大系 施設・地点項目データセット 2025-05-15","subarea_name":"史跡","feature_key":"09_historic_sites.geojson:010000061600","subtype":"史跡"},"geometry":{"type":"Point","coordinates":[140.107683,41.430099]}},{"type":"Feature","properties":{"layer_id":"historical_sites_archaeology","name":"札前遺跡","address":"北海道 松前郡松前町 字札前","source":"Geoshape 日本歴史地名大系 施設・地点項目データセット 2025-05-15","subarea_name":"遺跡","feature_key":"08_archaeological_sites.geojson:010000068000","subtype":"遺跡"},"geometry":{"type":"Point","coordinates":[140.028799,41.465413]}},{"type":"Feature","properties":{"layer_id":"historical_sites_archaeology","name":"松前灯台","address":"北海道 松前郡松前町 字弁天","source":"Geoshape 日本歴史地名大系 施設・地点項目データセット 2025-05-15","subarea_name":"史跡","feature_key":"09_historic_sites.geojson:010000067100","subtype":"史跡"},"geometry":{"type":"Point","coordinates":[140.088623,41.418755]}},{"type":"Feature","properties":{"layer_id":"historical_sites_archaeology","name":"松城学校","address":"北海道 松前郡松前町 字松城","source":"Geoshape 日本歴史地名大系 施設・地点項目データセット 2025-05-15","subarea_name":"その他","feature_key":"99_other_poi.geojson:010000071000","subtype":"その他"},"geometry":{"type":"Point","coordinates":[140.110111,41.427731]}},{"type":"Feature","properties":{"layer_id":"historical_sites_archaeology","name":"済衆館跡","address":"北海道 松前郡松前町 字福山","source":"Geoshape 日本歴史地名大系 施設・地点項目データセット 2025-05-15","subarea_name":"史跡","feature_key":"09_historic_sites.geojson:010000063500","subtype":"史跡"},"geometry":{"type":"Point","coordinates":[140.111395,41.433218]}},{"type":"Feature","properties":{"layer_id":"historical_sites_archaeology","name":"白神灯台","address":"北海道 松前郡松前町 字白神","source":"Geoshape 日本歴史地名大系 施設・地点項目データセット 2025-05-15","subarea_name":"史跡","feature_key":"09_historic_sites.geojson:010000070800","subtype":"史跡"},"geometry":{"type":"Point","coordinates":[140.197332,41.398111]}},{"type":"Feature","properties":{"layer_id":"historical_sites_archaeology","name":"福山城跡","address":"北海道 松前郡松前町 字松城","source":"Geoshape 日本歴史地名大系 施設・地点項目データセット 2025-05-15","subarea_name":"城跡","feature_key":"05_castle_ruins.geojson:010000061100","subtype":"城跡"},"geometry":{"type":"Point","coordinates":[140.107683,41.430099]}},{"type":"Feature","properties":{"layer_id":"historical_sites_archaeology","name":"福山沖之口役所跡","address":"北海道 松前郡松前町 字松城","source":"Geoshape 日本歴史地名大系 施設・地点項目データセット 2025-05-15","subarea_name":"史跡","feature_key":"09_historic_sites.geojson:010000061800","subtype":"史跡"},"geometry":{"type":"Point","coordinates":[140.107683,41.430099]}},{"type":"Feature","properties":{"layer_id":"historical_temples_shrines","name":"光善寺","address":"北海道 松前郡松前町 字松城303番地","source":"Geoshape 日本歴史地名大系 施設・地点項目データセット 2025-05-15","subarea_name":"寺院","feature_key":"01_temples.geojson:010000062600","subtype":"寺院"},"geometry":{"type":"Point","coordinates":[140.105957,41.431587]}},{"type":"Feature","properties":{"layer_id":"historical_temples_shrines","name":"専念寺","address":"北海道 松前郡松前町 字唐津267番地","source":"Geoshape 日本歴史地名大系 施設・地点項目データセット 2025-05-15","subarea_name":"寺院","feature_key":"01_temples.geojson:010000066000","subtype":"寺院"},"geometry":{"type":"Point","coordinates":[140.104355,41.429432]}},{"type":"Feature","properties":{"layer_id":"historical_temples_shrines","name":"弁天神社","address":"北海道 松前郡松前町 字弁天214番地2","source":"Geoshape 日本歴史地名大系 施設・地点項目データセット 2025-05-15","subarea_name":"神社","feature_key":"02_shrines.geojson:010000067000","subtype":"神社"},"geometry":{"type":"Point","coordinates":[140.089096,41.422512]}},{"type":"Feature","properties":{"layer_id":"historical_temples_shrines","name":"徳山大神宮","address":"北海道 松前郡松前町 字神明66番地","source":"Geoshape 日本歴史地名大系 施設・地点項目データセット 2025-05-15","subarea_name":"神社","feature_key":"02_shrines.geojson:010000064100","subtype":"神社"},"geometry":{"type":"Point","coordinates":[140.110764,41.434811]}},{"type":"Feature","properties":{"layer_id":"historical_temples_shrines","name":"松前神社","address":"北海道 松前郡松前町 字松城145番地","source":"Geoshape 日本歴史地名大系 施設・地点項目データセット 2025-05-15","subarea_name":"神社","feature_key":"02_shrines.geojson:010000071100","subtype":"神社"},"geometry":{"type":"Point","coordinates":[140.107986,41.43108]}},{"type":"Feature","properties":{"layer_id":"historical_temples_shrines","name":"正行寺","address":"北海道 松前郡松前町 字豊岡256番地","source":"Geoshape 日本歴史地名大系 施設・地点項目データセット 2025-05-15","subarea_name":"寺院","feature_key":"01_temples.geojson:010000064800","subtype":"寺院"},"geometry":{"type":"Point","coordinates":[140.114093,41.429756]}},{"type":"Feature","properties":{"layer_id":"historical_temples_shrines","name":"法幢寺","address":"北海道 松前郡松前町 字松城307番地","source":"Geoshape 日本歴史地名大系 施設・地点項目データセット 2025-05-15","subarea_name":"寺院","feature_key":"01_temples.geojson:010000062200","subtype":"寺院"},"geometry":{"type":"Point","coordinates":[140.106644,41.431992]}},{"type":"Feature","properties":{"layer_id":"historical_temples_shrines","name":"法源寺","address":"北海道 松前郡松前町 字松城341番地","source":"Geoshape 日本歴史地名大系 施設・地点項目データセット 2025-05-15","subarea_name":"寺院","feature_key":"01_temples.geojson:010000062400","subtype":"寺院"},"geometry":{"type":"Point","coordinates":[140.107727,41.431908]}},{"type":"Feature","properties":{"layer_id":"historical_temples_shrines","name":"法華寺","address":"北海道 松前郡松前町 字豊岡258番地","source":"Geoshape 日本歴史地名大系 施設・地点項目データセット 2025-05-15","subarea_name":"寺院","feature_key":"01_temples.geojson:010000065100","subtype":"寺院"},"geometry":{"type":"Point","coordinates":[140.113495,41.428944]}},{"type":"Feature","properties":{"layer_id":"historical_temples_shrines","name":"熊野神社","address":"北海道 松前郡松前町 字大磯115番地","source":"Geoshape 日本歴史地名大系 施設・地点項目データセット 2025-05-15","subarea_name":"神社","feature_key":"02_shrines.geojson:010000066600","subtype":"神社"},"geometry":{"type":"Point","coordinates":[140.096771,41.425945]}},{"type":"Feature","properties":{"layer_id":"historical_temples_shrines","name":"阿吽寺","address":"北海道 松前郡松前町 字松城371番地","source":"Geoshape 日本歴史地名大系 施設・地点項目データセット 2025-05-15","subarea_name":"寺院","feature_key":"01_temples.geojson:010000062800","subtype":"寺院"},"geometry":{"type":"Point","coordinates":[140.109726,41.431641]}},{"type":"Feature","properties":{"layer_id":"historical_temples_shrines","name":"龍雲院","address":"北海道 松前郡松前町 字松城305番地","source":"Geoshape 日本歴史地名大系 施設・地点項目データセット 2025-05-15","subarea_name":"寺院","feature_key":"01_temples.geojson:010000062500","subtype":"寺院"},"geometry":{"type":"Point","coordinates":[140.107086,41.43129]}}]}