{"type":"FeatureCollection","municipality_code":"01347","pref":"北海道","city":"長万部町","layer_counts":{"historical_sites_archaeology":2,"historical_temples_shrines":1},"total_features":3,"features":[{"type":"Feature","properties":{"layer_id":"historical_sites_archaeology","name":"オバルベツ２遺跡","address":"北海道 山越郡長万部町 字富野","source":"Geoshape 日本歴史地名大系 施設・地点項目データセット 2025-05-15","subarea_name":"遺跡","feature_key":"08_archaeological_sites.geojson:010000102400","subtype":"遺跡"},"geometry":{"type":"Point","coordinates":[140.345997,42.520442]}},{"type":"Feature","properties":{"layer_id":"historical_sites_archaeology","name":"ヲシャマンベ盛岡藩陣屋跡","address":"北海道 山越郡長万部町 字長万部","source":"Geoshape 日本歴史地名大系 施設・地点項目データセット 2025-05-15","subarea_name":"史跡","feature_key":"09_historic_sites.geojson:010000101400","subtype":"史跡"},"geometry":{"type":"Point","coordinates":[140.373736,42.511462]}},{"type":"Feature","properties":{"layer_id":"historical_temples_shrines","name":"飯生神社","address":"北海道 山越郡長万部町 字長万部379番地","source":"Geoshape 日本歴史地名大系 施設・地点項目データセット 2025-05-15","subarea_name":"神社","feature_key":"02_shrines.geojson:010000101300","subtype":"神社"},"geometry":{"type":"Point","coordinates":[140.371796,42.521523]}}]}