{"type":"FeatureCollection","municipality_code":"03441","pref":"岩手県","city":"住田町","layer_counts":{"bakumatsu_villages":3,"historical_sites_archaeology":4,"historical_temples_shrines":3},"total_features":10,"features":[{"type":"Feature","properties":{"layer_id":"bakumatsu_villages","name":"上有住村","address":"陸前 気仙郡","source":"Geoshape 幕末期近世村領域データセット vector tiles (z7 extraction)","subarea_name":"近世村のおおよその範囲","feature_key":"village:K70G14S00019","accuracy_note":"2015年農業集落境界をもとに復元した概略範囲で、江戸時代の正確な村境ではありません"},"geometry":{"type":"MultiPolygon","coordinates":[[[[141.571884,39.260968],[141.573944,39.258841],[141.577377,39.25831],[141.576691,39.256715],[141.578751,39.25512],[141.578751,39.252461],[141.580811,39.250866],[141.585617,39.250866],[141.58493,39.249271],[141.587677,39.247144],[141.589737,39.247144],[141.59317,39.243953],[141.588364,39.241294],[141.583557,39.235444],[141.580124,39.234381],[141.578064,39.232253],[141.571884,39.233849],[141.569138,39.231189],[141.566391,39.230658],[141.563644,39.230658],[141.560898,39.231721],[141.556091,39.230658],[141.550598,39.235444],[141.551971,39.238635],[141.543732,39.241826],[141.540985,39.244485],[141.541672,39.24608],[141.543732,39.246612],[141.545792,39.250334],[141.549911,39.251398],[141.551971,39.250866],[141.556091,39.252461],[141.560211,39.258841],[141.561584,39.259905],[141.564331,39.260436],[141.567078,39.259373],[141.571884,39.260968]]],[[[141.634369,39.252461],[141.637115,39.250866],[141.638489,39.251398],[141.642609,39.249803],[141.645355,39.247144],[141.654282,39.245017],[141.658401,39.243421],[141.656342,39.240763],[141.653595,39.239699],[141.650848,39.232253],[141.648102,39.227998],[141.640549,39.229594],[141.637802,39.231189],[141.636429,39.231189],[141.630936,39.230126],[141.626129,39.227466],[141.620636,39.22587],[141.60965,39.229594],[141.604843,39.233849],[141.60141,39.230126],[141.600037,39.22587],[141.598663,39.22587],[141.59317,39.227466],[141.59111,39.231721],[141.58287,39.234912],[141.58905,39.241826],[141.59111,39.242358],[141.592484,39.243953],[141.59523,39.243953],[141.59729,39.24608],[141.598663,39.246612],[141.602783,39.250334],[141.602783,39.251929],[141.610336,39.251929],[141.612396,39.249803],[141.614456,39.249271],[141.620636,39.251398],[141.622009,39.249271],[141.627502,39.247144],[141.628876,39.247676],[141.629562,39.249271],[141.634369,39.252461]]],[[[141.696854,39.266816],[141.700287,39.265221],[141.70578,39.26469],[141.704407,39.251398],[141.705093,39.243953],[141.711273,39.235444],[141.711273,39.233849],[141.708527,39.231189],[141.705093,39.229062],[141.704407,39.226934],[141.700974,39.220019],[141.70166,39.218423],[141.698914,39.216295],[141.696167,39.215763],[141.69136,39.216827],[141.685867,39.215231],[141.677628,39.215763],[141.675568,39.214167],[141.672134,39.213635],[141.668015,39.212039],[141.658401,39.204591],[141.650848,39.204591],[141.642609,39.207251],[141.639862,39.210443],[141.641235,39.212571],[141.647415,39.216295],[141.648788,39.222679],[141.647415,39.227466],[141.650848,39.232253],[141.653595,39.239699],[141.656342,39.240763],[141.657715,39.243421],[141.661835,39.24608],[141.661835,39.251398],[141.665955,39.253525],[141.672134,39.252993],[141.678314,39.257778],[141.679001,39.260436],[141.683121,39.259905],[141.685867,39.260968],[141.689987,39.266284],[141.692047,39.266816],[141.696854,39.266816]]],[[[141.571884,39.233849],[141.578064,39.232253],[141.578064,39.229062],[141.579437,39.226934],[141.578064,39.22587],[141.579437,39.223211],[141.578751,39.222147],[141.578064,39.218423],[141.574631,39.213635],[141.578751,39.205655],[141.574631,39.204591],[141.569824,39.20193],[141.564331,39.202462],[141.565018,39.209911],[141.561584,39.218955],[141.562958,39.223211],[141.558151,39.226934],[141.556091,39.230658],[141.560898,39.231721],[141.563644,39.230658],[141.566391,39.230658],[141.569138,39.231189],[141.571884,39.233849]]],[[[141.583557,39.211507],[141.58699,39.210443],[141.59111,39.210443],[141.593857,39.208315],[141.600723,39.205123],[141.604843,39.204058],[141.59935,39.20193],[141.59111,39.196077],[141.586304,39.185965],[141.58493,39.189159],[141.584244,39.195545],[141.576691,39.210443],[141.583557,39.211507]]],[[[141.578751,39.205655],[141.584244,39.195013],[141.576004,39.190755],[141.573257,39.192352],[141.565018,39.192352],[141.565018,39.196077],[141.567078,39.199802],[141.564331,39.202462],[141.569824,39.20193],[141.574631,39.204591],[141.578751,39.205655]]],[[[141.584244,39.195013],[141.58493,39.189159],[141.586304,39.185965],[141.58493,39.183304],[141.586304,39.178514],[141.579437,39.175853],[141.567764,39.176917],[141.565018,39.177982],[141.562271,39.183836],[141.565018,39.192352],[141.573257,39.192352],[141.576004,39.190755],[141.584244,39.195013]]],[[[141.596603,39.19927],[141.59111,39.187562],[141.586304,39.185965],[141.589737,39.191287],[141.590424,39.195013],[141.596603,39.19927]]],[[[141.58287,39.234912],[141.59111,39.231721],[141.59317,39.227466],[141.596603,39.22587],[141.600037,39.22587],[141.60141,39.230126],[141.60553,39.233849],[141.60965,39.229594],[141.620636,39.22587],[141.60965,39.220551],[141.60347,39.220551],[141.600037,39.218955],[141.594543,39.218955],[141.59111,39.221083],[141.587677,39.219487],[141.582184,39.221083],[141.578751,39.221083],[141.579437,39.223743],[141.578064,39.22587],[141.579437,39.226934],[141.578064,39.229062],[141.578064,39.232253],[141.580124,39.234381],[141.58287,39.234912]]],[[[141.637802,39.231189],[141.648102,39.227998],[141.647415,39.226402],[141.648788,39.222679],[141.647415,39.216295],[141.641235,39.212571],[141.640549,39.209911],[141.630936,39.209379],[141.626816,39.206719],[141.623383,39.206187],[141.622696,39.204058],[141.617203,39.205655],[141.613083,39.205655],[141.608963,39.203526],[141.602097,39.204591],[141.593857,39.208315],[141.59111,39.210443],[141.58699,39.210443],[141.583557,39.211507],[141.576691,39.210443],[141.574631,39.214167],[141.578064,39.218423],[141.578751,39.221083],[141.582184,39.221083],[141.587677,39.219487],[141.59111,39.221083],[141.594543,39.218955],[141.600037,39.218955],[141.60347,39.220551],[141.60965,39.220551],[141.615143,39.223743],[141.626816,39.227466],[141.630936,39.230126],[141.637802,39.231189]]],[[[141.604843,39.204058],[141.608963,39.203526],[141.600723,39.197141],[141.59729,39.192884],[141.595917,39.188626],[141.59317,39.18703],[141.59111,39.187562],[141.592484,39.19182],[141.597977,39.200866],[141.604843,39.204058]]],[[[141.60553,39.200334],[141.602783,39.195013],[141.59935,39.190755],[141.598663,39.185965],[141.600037,39.18224],[141.602097,39.179578],[141.602097,39.17532],[141.604156,39.172659],[141.600723,39.171594],[141.596603,39.171594],[141.594543,39.173723],[141.59111,39.174256],[141.589737,39.176385],[141.586304,39.178514],[141.58493,39.183304],[141.585617,39.185433],[141.59523,39.188094],[141.59729,39.192884],[141.600723,39.197141],[141.602783,39.19927],[141.60553,39.200334]]],[[[141.630936,39.209379],[141.629562,39.204591],[141.624756,39.203526],[141.617203,39.199802],[141.614456,39.19927],[141.61171,39.195545],[141.606216,39.192352],[141.606216,39.190755],[141.608963,39.18703],[141.614456,39.184369],[141.619263,39.178514],[141.619263,39.176385],[141.613083,39.17532],[141.60965,39.173191],[141.604156,39.172659],[141.602097,39.17532],[141.602097,39.179578],[141.600037,39.18224],[141.598663,39.185965],[141.59935,39.190755],[141.60553,39.198205],[141.60553,39.200334],[141.608963,39.203526],[141.613083,39.205655],[141.619263,39.205655],[141.622696,39.204058],[141.623383,39.206187],[141.630936,39.209379]]],[[[141.640549,39.209911],[141.642609,39.207251],[141.645355,39.206719],[141.644669,39.199802],[141.645355,39.198737],[141.647415,39.198205],[141.649475,39.193416],[141.647415,39.190755],[141.648788,39.186498],[141.647415,39.180643],[141.641235,39.181708],[141.637115,39.184369],[141.630249,39.18703],[141.624069,39.18703],[141.622009,39.190223],[141.619949,39.190223],[141.618576,39.187562],[141.617203,39.189691],[141.617203,39.196077],[141.622696,39.198205],[141.625443,39.202462],[141.629562,39.204591],[141.630936,39.209379],[141.640549,39.209911]]],[[[141.628189,39.204058],[141.625443,39.202462],[141.622696,39.198205],[141.617203,39.196077],[141.617889,39.188094],[141.619949,39.190223],[141.622009,39.190223],[141.624069,39.18703],[141.630249,39.18703],[141.642609,39.181175],[141.646729,39.181175],[141.648788,39.177982],[141.647415,39.176917],[141.647415,39.174788],[141.646729,39.173723],[141.641922,39.172659],[141.639175,39.171594],[141.635742,39.173723],[141.630936,39.173191],[141.619263,39.176385],[141.619263,39.178514],[141.614456,39.184369],[141.611023,39.185965],[141.606216,39.190755],[141.606216,39.192884],[141.610336,39.195013],[141.614456,39.19927],[141.617203,39.199802],[141.624756,39.203526],[141.628189,39.204058]]],[[[141.70372,39.218955],[141.706467,39.217359],[141.71402,39.218423],[141.716766,39.214167],[141.725006,39.206187],[141.728439,39.204058],[141.725693,39.202462],[141.717453,39.200334],[141.709213,39.190755],[141.700287,39.187562],[141.694794,39.183836],[141.689301,39.184901],[141.683121,39.18224],[141.681747,39.179046],[141.679001,39.176917],[141.663895,39.174256],[141.660461,39.177449],[141.653595,39.176917],[141.648788,39.177982],[141.647415,39.180643],[141.648788,39.186498],[141.647415,39.190755],[141.649475,39.193416],[141.647415,39.198205],[141.645355,39.198737],[141.644669,39.199802],[141.645355,39.206719],[141.650848,39.204591],[141.658401,39.204591],[141.668015,39.212039],[141.672134,39.213635],[141.675568,39.214167],[141.677628,39.215763],[141.685867,39.215231],[141.69136,39.216827],[141.696167,39.215763],[141.698914,39.216295],[141.700974,39.218955],[141.70372,39.218955]]]]}},{"type":"Feature","properties":{"layer_id":"bakumatsu_villages","name":"下有住村","address":"陸前 気仙郡","source":"Geoshape 幕末期近世村領域データセット vector tiles (z7 extraction)","subarea_name":"近世村のおおよその範囲","feature_key":"village:K70G14S00020","accuracy_note":"2015年農業集落境界をもとに復元した概略範囲で、江戸時代の正確な村境ではありません"},"geometry":{"type":"MultiPolygon","coordinates":[[[[141.496353,39.240231],[141.502533,39.234381],[141.50322,39.234912],[141.505966,39.229062],[141.504593,39.225339],[141.510086,39.217891],[141.513519,39.216827],[141.514893,39.214167],[141.521072,39.213103],[141.524506,39.212039],[141.525879,39.207251],[141.529312,39.202994],[141.528625,39.200866],[141.523819,39.198205],[141.522446,39.196077],[141.525192,39.185965],[141.522446,39.183304],[141.518326,39.182772],[141.516266,39.181708],[141.510086,39.175853],[141.506653,39.181175],[141.501846,39.183836],[141.499786,39.186498],[141.488113,39.188626],[141.487427,39.19182],[141.481934,39.19927],[141.48262,39.202462],[141.479874,39.206719],[141.4785,39.212571],[141.475754,39.215231],[141.477127,39.218423],[141.48056,39.221083],[141.479874,39.226934],[141.481934,39.227998],[141.477127,39.233849],[141.477127,39.234381],[141.486053,39.236508],[141.487427,39.238103],[141.492233,39.239699],[141.496353,39.240231]]],[[[141.521759,39.248739],[141.523819,39.245549],[141.531372,39.24608],[141.532745,39.244485],[141.536865,39.244485],[141.540985,39.243953],[141.547165,39.239699],[141.551971,39.238635],[141.550598,39.235444],[141.554031,39.232785],[141.558151,39.226934],[141.561584,39.224807],[141.562958,39.222679],[141.561584,39.218955],[141.554031,39.212571],[141.546478,39.210443],[141.539612,39.202462],[141.529312,39.202994],[141.523819,39.212039],[141.514893,39.214167],[141.513519,39.216827],[141.510086,39.217891],[141.504593,39.225339],[141.505966,39.229062],[141.50322,39.234912],[141.505966,39.23704],[141.510086,39.237572],[141.513519,39.240763],[141.515579,39.241294],[141.514893,39.242358],[141.516266,39.24608],[141.519012,39.246612],[141.519012,39.248207],[141.520386,39.248739],[141.521759,39.248739]]],[[[141.529312,39.202994],[141.539612,39.202462],[141.544418,39.191287],[141.543732,39.190223],[141.544418,39.188094],[141.540298,39.184369],[141.541672,39.18224],[141.540985,39.178514],[141.542358,39.175853],[141.538925,39.174256],[141.531372,39.172659],[141.528625,39.174256],[141.523132,39.174256],[141.517639,39.175853],[141.510086,39.175853],[141.516266,39.181708],[141.518326,39.182772],[141.522446,39.183304],[141.525192,39.185965],[141.522446,39.196077],[141.523819,39.198205],[141.528625,39.200866],[141.529312,39.202994]]],[[[141.549225,39.179578],[141.560211,39.173191],[141.560898,39.171594],[141.557465,39.166803],[141.549225,39.167335],[141.543045,39.171594],[141.534805,39.1684],[141.531372,39.172659],[141.538925,39.174256],[141.541672,39.175853],[141.540985,39.179046],[141.543045,39.177982],[141.545105,39.177449],[141.549225,39.179578]]],[[[141.561584,39.218955],[141.565018,39.209911],[141.564331,39.202462],[141.567078,39.199802],[141.565704,39.198205],[141.563644,39.197673],[141.558838,39.198737],[141.549911,39.202994],[141.540298,39.203526],[141.546478,39.210443],[141.554031,39.212571],[141.561584,39.218955]]],[[[141.540298,39.203526],[141.549911,39.202994],[141.557465,39.19927],[141.558838,39.195545],[141.558838,39.190223],[141.560898,39.18703],[141.557465,39.185965],[141.555405,39.189159],[141.551285,39.191287],[141.547165,39.19182],[141.544418,39.191287],[141.539612,39.202462],[141.540298,39.203526]]],[[[141.547165,39.19182],[141.551971,39.191287],[141.555405,39.189159],[141.557465,39.185965],[141.562958,39.187562],[141.562271,39.183836],[141.565018,39.177982],[141.567764,39.176917],[141.565704,39.174256],[141.560211,39.171062],[141.560211,39.173723],[141.549225,39.179578],[141.545105,39.177449],[141.540985,39.179046],[141.541672,39.18224],[141.540298,39.184369],[141.544418,39.188094],[141.543732,39.190223],[141.544418,39.191287],[141.547165,39.19182]]],[[[141.557465,39.19927],[141.562271,39.198205],[141.565704,39.198205],[141.564331,39.195013],[141.565018,39.192352],[141.562958,39.187562],[141.560898,39.18703],[141.558838,39.190223],[141.558838,39.195545],[141.557465,39.19927]]]]}},{"type":"Feature","properties":{"layer_id":"bakumatsu_villages","name":"世田米村","address":"陸前 気仙郡","source":"Geoshape 幕末期近世村領域データセット vector tiles (z7 extraction)","subarea_name":"近世村のおおよその範囲","feature_key":"village:K70G14S00021","accuracy_note":"2015年農業集落境界をもとに復元した概略範囲で、江戸時代の正確な村境ではありません"},"geometry":{"type":"MultiPolygon","coordinates":[[[[141.408463,39.201398],[141.417389,39.197673],[141.424255,39.195545],[141.433182,39.195013],[141.440048,39.192352],[141.440735,39.189691],[141.435242,39.188626],[141.434555,39.18703],[141.437988,39.179578],[141.439362,39.178514],[141.443481,39.177982],[141.444168,39.173723],[141.447601,39.172126],[141.444168,39.167335],[141.434555,39.160414],[141.434555,39.158285],[141.439362,39.15296],[141.433868,39.143908],[141.429062,39.14231],[141.427002,39.138582],[141.420135,39.138582],[141.416016,39.136452],[141.413269,39.136452],[141.408463,39.133789],[141.402283,39.139115],[141.397476,39.138049],[141.395416,39.139115],[141.39267,39.141245],[141.389923,39.144973],[141.389923,39.148168],[141.393356,39.151895],[141.394043,39.155622],[141.39061,39.159882],[141.38443,39.162544],[141.383743,39.164141],[141.38443,39.166271],[141.38649,39.166271],[141.387863,39.172126],[141.383743,39.176917],[141.389236,39.18224],[141.385803,39.185433],[141.38237,39.186498],[141.378937,39.185965],[141.373444,39.187562],[141.372757,39.189159],[141.37825,39.192352],[141.383057,39.193416],[141.387177,39.192884],[141.38855,39.19448],[141.391296,39.19448],[141.39267,39.198205],[141.401596,39.201398],[141.408463,39.201398]]],[[[141.446915,39.19448],[141.454468,39.188626],[141.459274,39.184369],[141.462021,39.177449],[141.468201,39.174788],[141.473007,39.173723],[141.479187,39.177449],[141.48262,39.178514],[141.48674,39.169997],[141.489487,39.166271],[141.49498,39.161479],[141.50322,39.159349],[141.50528,39.15722],[141.503906,39.15296],[141.504593,39.146038],[141.496353,39.147103],[141.487427,39.15083],[141.479187,39.155622],[141.475067,39.156155],[141.471634,39.157752],[141.462021,39.158285],[141.459274,39.159882],[141.457901,39.163076],[141.458588,39.167335],[141.457214,39.170529],[141.452408,39.172126],[141.447601,39.172659],[141.445541,39.173191],[141.443481,39.177982],[141.439362,39.178514],[141.437302,39.180643],[141.434555,39.188094],[141.440735,39.189691],[141.440048,39.19182],[141.441422,39.193416],[141.446915,39.19448]]],[[[141.4785,39.209911],[141.479874,39.206719],[141.48262,39.202462],[141.481934,39.19927],[141.487427,39.19182],[141.488113,39.188626],[141.499786,39.186498],[141.501846,39.183836],[141.506653,39.181175],[141.510086,39.175853],[141.517639,39.175853],[141.523132,39.174256],[141.529312,39.174256],[141.527252,39.170529],[141.527252,39.165738],[141.531372,39.159882],[141.532059,39.15722],[141.527939,39.150298],[141.528625,39.147635],[141.525879,39.147103],[141.520386,39.1487],[141.517639,39.151895],[141.511459,39.145505],[141.507339,39.144973],[141.50528,39.146038],[141.503906,39.151363],[141.50528,39.15722],[141.50322,39.159349],[141.49498,39.161479],[141.489487,39.166271],[141.48674,39.169997],[141.48262,39.178514],[141.479187,39.177449],[141.473007,39.173723],[141.468201,39.174788],[141.462021,39.177449],[141.459274,39.184369],[141.454468,39.188626],[141.446915,39.19448],[141.441422,39.193416],[141.443481,39.201398],[141.447601,39.201398],[141.451721,39.19927],[141.455841,39.200334],[141.461334,39.205655],[141.467514,39.208847],[141.471634,39.209379],[141.472321,39.210975],[141.4785,39.209911]]],[[[141.447601,39.172659],[141.452408,39.172126],[141.456528,39.171062],[141.458588,39.167868],[141.457901,39.163076],[141.459274,39.159882],[141.464767,39.157752],[141.470261,39.157752],[141.473007,39.15722],[141.471634,39.152428],[141.471634,39.144973],[141.475067,39.141777],[141.47644,39.138049],[141.475067,39.134321],[141.472321,39.132191],[141.47438,39.125799],[141.473007,39.126332],[141.466827,39.125799],[141.465454,39.123668],[141.465454,39.120472],[141.468201,39.116743],[141.466827,39.113546],[141.467514,39.108219],[141.464081,39.105554],[141.462021,39.101825],[141.454468,39.103956],[141.450348,39.107153],[141.448975,39.10662],[141.446915,39.10662],[141.442795,39.108219],[141.439362,39.11035],[141.434555,39.111415],[141.424942,39.108751],[141.418762,39.109817],[141.414642,39.107153],[141.409149,39.111948],[141.407776,39.11621],[141.405716,39.117276],[141.405716,39.119939],[141.409149,39.12207],[141.409836,39.12793],[141.406403,39.134854],[141.409149,39.133789],[141.413269,39.136452],[141.416016,39.136452],[141.420135,39.138582],[141.427002,39.138582],[141.429062,39.14231],[141.433868,39.143908],[141.439362,39.15296],[141.434555,39.158285],[141.435242,39.161479],[141.444168,39.167335],[141.446915,39.169997],[141.447601,39.172659]]],[[[141.473007,39.15722],[141.48056,39.15509],[141.487427,39.15083],[141.496353,39.147103],[141.504593,39.146038],[141.507339,39.144973],[141.506653,39.135919],[141.513519,39.122603],[141.510086,39.118874],[141.508713,39.114079],[141.505966,39.114079],[141.503906,39.113014],[141.50116,39.113546],[141.499786,39.111415],[141.49704,39.110883],[141.496353,39.109817],[141.49292,39.11035],[141.488113,39.115145],[141.483307,39.115145],[141.479874,39.119407],[141.479187,39.121537],[141.477127,39.12207],[141.475754,39.124734],[141.47438,39.125799],[141.472321,39.132191],[141.475067,39.134321],[141.47644,39.138049],[141.475067,39.141777],[141.471634,39.144973],[141.471634,39.152428],[141.473007,39.15722]]],[[[141.529312,39.174256],[141.534805,39.1684],[141.543045,39.171594],[141.549225,39.167335],[141.557465,39.166803],[141.551971,39.164673],[141.550598,39.157752],[141.548538,39.155622],[141.545105,39.154557],[141.541672,39.156687],[141.536865,39.155622],[141.532059,39.158285],[141.527252,39.165738],[141.527252,39.170529],[141.529312,39.174256]]],[[[141.557465,39.166803],[141.558838,39.165738],[141.559525,39.163609],[141.556091,39.156155],[141.554718,39.15083],[141.550598,39.148168],[141.545792,39.148168],[141.540985,39.149765],[141.537552,39.1487],[141.530685,39.1487],[141.528625,39.147635],[141.527939,39.150298],[141.532059,39.156155],[141.532059,39.158285],[141.536865,39.155622],[141.541672,39.156687],[141.545105,39.154557],[141.547852,39.15509],[141.550598,39.157752],[141.551971,39.164673],[141.557465,39.166803]]],[[[141.517639,39.151895],[141.520386,39.1487],[141.525879,39.147103],[141.530685,39.1487],[141.534805,39.148168],[141.540298,39.149765],[141.543045,39.149765],[141.545792,39.148168],[141.548538,39.143375],[141.552658,39.14231],[141.558151,39.144973],[141.569138,39.147103],[141.565018,39.143375],[141.562271,39.14231],[141.563644,39.14018],[141.561584,39.137517],[141.562958,39.13006],[141.556778,39.124734],[141.556778,39.122603],[141.558151,39.121005],[141.556778,39.115677],[141.558838,39.113546],[141.558838,39.108219],[141.556778,39.105022],[141.556778,39.10289],[141.554031,39.101292],[141.553345,39.09916],[141.549225,39.098095],[141.547852,39.095963],[141.534805,39.102357],[141.530685,39.105554],[141.527252,39.10289],[141.527939,39.099693],[141.523819,39.095963],[141.519012,39.099693],[141.519012,39.102357],[141.516266,39.10662],[141.516953,39.107153],[141.515579,39.110883],[141.508713,39.114079],[141.510086,39.118874],[141.513519,39.122603],[141.506653,39.135919],[141.507339,39.144973],[141.511459,39.145505],[141.517639,39.151895]]],[[[141.559525,39.163609],[141.565704,39.156687],[141.570511,39.154557],[141.569824,39.147635],[141.558151,39.144973],[141.552658,39.142842],[141.549225,39.143375],[141.547165,39.144973],[141.545792,39.148168],[141.550598,39.148168],[141.554718,39.15083],[141.556091,39.156155],[141.559525,39.163609]]],[[[141.58699,39.178514],[141.59111,39.174256],[141.594543,39.173723],[141.59523,39.172126],[141.59729,39.171062],[141.598663,39.163076],[141.595917,39.157752],[141.592484,39.15509],[141.572571,39.149233],[141.569824,39.150298],[141.570511,39.154557],[141.565704,39.15722],[141.560211,39.162011],[141.557465,39.166803],[141.560211,39.171062],[141.565704,39.174256],[141.567764,39.176917],[141.579437,39.175853],[141.58699,39.178514]]],[[[141.587677,39.153493],[141.58699,39.149233],[141.584244,39.148168],[141.583557,39.144973],[141.578064,39.14444],[141.576691,39.146038],[141.578064,39.1487],[141.577377,39.15083],[141.587677,39.153493]]],[[[141.577377,39.15083],[141.578064,39.1487],[141.576691,39.146038],[141.578064,39.14444],[141.572571,39.140712],[141.561584,39.135386],[141.561584,39.137517],[141.563644,39.14018],[141.562271,39.14231],[141.565018,39.143375],[141.569138,39.147103],[141.569824,39.150298],[141.574631,39.149233],[141.577377,39.15083]]],[[[141.580124,39.141245],[141.58287,39.140712],[141.582184,39.139115],[141.576691,39.139647],[141.576691,39.141245],[141.580124,39.141245]]],[[[141.578751,39.144973],[141.578751,39.141777],[141.576691,39.140712],[141.576004,39.138582],[141.569824,39.135919],[141.566391,39.129528],[141.562958,39.13006],[141.561584,39.135386],[141.578751,39.144973]]],[[[141.576004,39.138582],[141.580124,39.136452],[141.58287,39.136984],[141.582184,39.134321],[141.580124,39.134854],[141.576691,39.132191],[141.580811,39.126332],[141.572571,39.125266],[141.568451,39.126864],[141.566391,39.129528],[141.570511,39.136452],[141.576004,39.138582]]],[[[141.576691,39.139647],[141.582184,39.139115],[141.58287,39.136984],[141.581497,39.136452],[141.576004,39.138582],[141.576691,39.139647]]],[[[141.583557,39.144973],[141.583557,39.14231],[141.58287,39.140712],[141.578751,39.141245],[141.578751,39.144973],[141.583557,39.144973]]],[[[141.562958,39.13006],[141.566391,39.129528],[141.568451,39.126864],[141.571884,39.125266],[141.580811,39.126332],[141.58287,39.121537],[141.59111,39.11621],[141.597977,39.119407],[141.602783,39.117276],[141.604843,39.115145],[141.60965,39.115677],[141.612396,39.114612],[141.617203,39.115145],[141.619949,39.114079],[141.622696,39.114079],[141.625443,39.112481],[141.621323,39.111948],[141.618576,39.109817],[141.614456,39.109817],[141.598663,39.101825],[141.596603,39.101292],[141.592484,39.10289],[141.589737,39.101292],[141.58287,39.107153],[141.582184,39.109817],[141.579437,39.111415],[141.573257,39.11035],[141.558838,39.111948],[141.558838,39.113546],[141.556778,39.115677],[141.558151,39.121005],[141.556778,39.122603],[141.556778,39.124734],[141.562958,39.13006]]],[[[141.59729,39.160414],[141.59935,39.158285],[141.597977,39.15509],[141.60141,39.151363],[141.60141,39.147103],[141.58699,39.141245],[141.58493,39.14018],[141.58287,39.136984],[141.582184,39.139115],[141.583557,39.14231],[141.58287,39.143908],[141.584244,39.148168],[141.58699,39.149233],[141.587677,39.153493],[141.59317,39.15509],[141.59729,39.160414]]],[[[141.600037,39.145505],[141.600723,39.141777],[141.606216,39.138049],[141.60965,39.133789],[141.60965,39.132191],[141.604843,39.134854],[141.597977,39.136452],[141.592484,39.135919],[141.58905,39.133256],[141.582184,39.134321],[141.58493,39.14018],[141.59111,39.143375],[141.597977,39.145505],[141.600037,39.145505]]],[[[141.617889,39.176385],[141.630936,39.173191],[141.636429,39.173191],[141.639175,39.171594],[141.638489,39.166803],[141.641235,39.167335],[141.643982,39.162544],[141.639175,39.15722],[141.632996,39.154557],[141.631622,39.148168],[141.629562,39.148168],[141.630936,39.145505],[141.630936,39.138582],[141.628876,39.136984],[141.624756,39.136452],[141.622696,39.133789],[141.622696,39.132191],[141.619263,39.128995],[141.619263,39.12793],[141.61377,39.128995],[141.60965,39.132191],[141.60965,39.133789],[141.606216,39.138049],[141.600723,39.141777],[141.600037,39.145505],[141.597977,39.145505],[141.600723,39.14657],[141.60141,39.147635],[141.600723,39.151895],[141.597977,39.15509],[141.59935,39.158285],[141.59729,39.160414],[141.598663,39.163076],[141.59729,39.171062],[141.60965,39.173191],[141.617889,39.176385]]],[[[141.59523,39.136984],[141.600723,39.136452],[141.604843,39.134854],[141.61377,39.128995],[141.619263,39.12793],[141.619263,39.125266],[141.616516,39.121005],[141.617203,39.118874],[141.617203,39.115145],[141.612396,39.114612],[141.60965,39.115677],[141.604843,39.115145],[141.602783,39.117276],[141.597977,39.119407],[141.59111,39.11621],[141.58287,39.121537],[141.580124,39.12793],[141.576691,39.132191],[141.580124,39.134854],[141.58905,39.133256],[141.592484,39.135919],[141.59523,39.136984]]]]}},{"type":"Feature","properties":{"layer_id":"historical_sites_archaeology","name":"上有住城跡","address":"岩手県 気仙郡住田町 上有住","source":"Geoshape 日本歴史地名大系 施設・地点項目データセット 2025-05-15","subarea_name":"城跡","feature_key":"05_castle_ruins.geojson:030000013700","subtype":"城跡"},"geometry":{"type":"Point","coordinates":[141.593122,39.18095]}},{"type":"Feature","properties":{"layer_id":"historical_sites_archaeology","name":"世田米城跡","address":"岩手県 気仙郡住田町 世田米","source":"Geoshape 日本歴史地名大系 施設・地点項目データセット 2025-05-15","subarea_name":"城跡","feature_key":"05_castle_ruins.geojson:030000013100","subtype":"城跡"},"geometry":{"type":"Point","coordinates":[141.578513,39.135555]}},{"type":"Feature","properties":{"layer_id":"historical_sites_archaeology","name":"樋ノ口城跡","address":"岩手県 気仙郡住田町 上有住","source":"Geoshape 日本歴史地名大系 施設・地点項目データセット 2025-05-15","subarea_name":"城跡","feature_key":"05_castle_ruins.geojson:030000013800","subtype":"城跡"},"geometry":{"type":"Point","coordinates":[141.608032,39.212493]}},{"type":"Feature","properties":{"layer_id":"historical_sites_archaeology","name":"蛇王洞洞穴遺跡","address":"岩手県 気仙郡住田町 上有住","source":"Geoshape 日本歴史地名大系 施設・地点項目データセット 2025-05-15","subarea_name":"遺跡","feature_key":"08_archaeological_sites.geojson:030000013600","subtype":"遺跡"},"geometry":{"type":"Point","coordinates":[141.581534,39.196934]}},{"type":"Feature","properties":{"layer_id":"historical_temples_shrines","name":"大泉寺跡","address":"岩手県 気仙郡住田町 上有住","source":"Geoshape 日本歴史地名大系 施設・地点項目データセット 2025-05-15","subarea_name":"廃寺・廃社","feature_key":"03_abandoned_temples_shrines.geojson:030000014100","subtype":"廃寺・廃社"},"geometry":{"type":"Point","coordinates":[141.693505,39.205815]}},{"type":"Feature","properties":{"layer_id":"historical_temples_shrines","name":"常光寺跡","address":"岩手県 気仙郡住田町 上有住","source":"Geoshape 日本歴史地名大系 施設・地点項目データセット 2025-05-15","subarea_name":"廃寺・廃社","feature_key":"03_abandoned_temples_shrines.geojson:030000013900","subtype":"廃寺・廃社"},"geometry":{"type":"Point","coordinates":[141.574363,39.200003]}},{"type":"Feature","properties":{"layer_id":"historical_temples_shrines","name":"満蔵寺","address":"岩手県 気仙郡住田町 世田米字本町29番地","source":"Geoshape 日本歴史地名大系 施設・地点項目データセット 2025-05-15","subarea_name":"寺院","feature_key":"01_temples.geojson:030000013300","subtype":"寺院"},"geometry":{"type":"Point","coordinates":[141.57663,39.146893]}}]}