{"type":"FeatureCollection","municipality_code":"03483","pref":"岩手県","city":"岩泉町","layer_counts":{"bakumatsu_villages":19,"edo_post_stations":4,"historical_sites_archaeology":6,"historical_temples_shrines":6},"total_features":35,"features":[{"type":"Feature","properties":{"layer_id":"bakumatsu_villages","name":"上有芸村","address":"陸中 閉伊郡","source":"Geoshape 幕末期近世村領域データセット vector tiles (z7 extraction)","subarea_name":"近世村のおおよその範囲","feature_key":"village:K69G05S00081","accuracy_note":"2015年農業集落境界をもとに復元した概略範囲で、江戸時代の正確な村境ではありません"},"geometry":{"type":"MultiPolygon","coordinates":[[[[141.771698,39.775825],[141.775131,39.772131],[141.776505,39.765797],[141.773071,39.758408],[141.768951,39.756824],[141.767578,39.754185],[141.770325,39.748378],[141.771011,39.736234],[141.756592,39.73201],[141.754532,39.735178],[141.749725,39.736762],[141.747665,39.736762],[141.745605,39.739402],[141.740799,39.740986],[141.738052,39.744154],[141.736679,39.746794],[141.737366,39.75049],[141.735306,39.751545],[141.734619,39.75788],[141.738739,39.761047],[141.748352,39.772131],[141.751099,39.772131],[141.755905,39.771075],[141.771698,39.775825]]],[[[141.806717,39.791655],[141.80603,39.789017],[141.803284,39.787434],[141.80397,39.784796],[141.81015,39.782685],[141.815643,39.778464],[141.819077,39.777936],[141.821136,39.775297],[141.823883,39.774242],[141.82663,39.774242],[141.823883,39.77002],[141.81221,39.765797],[141.81015,39.762631],[141.801224,39.761047],[141.777878,39.759991],[141.773071,39.758408],[141.776505,39.765797],[141.775131,39.772131],[141.771698,39.775825],[141.773758,39.778464],[141.784744,39.784796],[141.794357,39.788489],[141.801224,39.789017],[141.806717,39.791655]]],[[[141.814957,39.766853],[141.81633,39.75788],[141.815643,39.753129],[141.81427,39.75049],[141.807404,39.749962],[141.792297,39.74521],[141.788177,39.74257],[141.780624,39.733066],[141.778564,39.731482],[141.771011,39.736234],[141.770325,39.748378],[141.767578,39.753657],[141.768951,39.756824],[141.777191,39.759991],[141.801224,39.761047],[141.81015,39.762631],[141.811523,39.764742],[141.814957,39.766853]]],[[[141.835556,39.762631],[141.838989,39.761575],[141.838989,39.758936],[141.841736,39.756824],[141.842422,39.753657],[141.845856,39.753129],[141.846542,39.751017],[141.848602,39.749434],[141.849289,39.746794],[141.847229,39.744682],[141.847916,39.74257],[141.849289,39.742042],[141.849289,39.73993],[141.851349,39.738874],[141.850662,39.73729],[141.848602,39.737818],[141.845856,39.735706],[141.842422,39.737818],[141.841736,39.739402],[141.836929,39.739402],[141.834869,39.73729],[141.835556,39.735178],[141.830063,39.734122],[141.827316,39.729898],[141.82045,39.731482],[141.817017,39.73201],[141.80397,39.725145],[141.80191,39.723032],[141.803284,39.719863],[141.801224,39.718279],[141.795044,39.724617],[141.790237,39.725145],[141.785431,39.728313],[141.780624,39.727257],[141.778564,39.731482],[141.780624,39.733066],[141.788177,39.74257],[141.797791,39.747322],[141.825256,39.753657],[141.832123,39.761047],[141.835556,39.762631]]]]}},{"type":"Feature","properties":{"layer_id":"bakumatsu_villages","name":"下有芸村","address":"陸中 閉伊郡","source":"Geoshape 幕末期近世村領域データセット vector tiles (z7 extraction)","subarea_name":"近世村のおおよその範囲","feature_key":"village:K69G05S00080","accuracy_note":"2015年農業集落境界をもとに復元した概略範囲で、江戸時代の正確な村境ではありません"},"geometry":{"type":"MultiPolygon","coordinates":[[[[141.83075,39.813811],[141.831436,39.811701],[141.838989,39.808536],[141.843796,39.807481],[141.841736,39.804844],[141.840363,39.797986],[141.841049,39.795348],[141.843796,39.793765],[141.837616,39.788489],[141.835556,39.784268],[141.836243,39.780047],[141.832809,39.782685],[141.825256,39.791127],[141.82045,39.793238],[141.817703,39.795348],[141.81427,39.796403],[141.811523,39.799041],[141.821136,39.803789],[141.82251,39.806426],[141.82663,39.808009],[141.83075,39.813811]]],[[[141.811523,39.799041],[141.81427,39.796403],[141.817703,39.795348],[141.82045,39.793238],[141.825256,39.791127],[141.832809,39.782685],[141.836243,39.780047],[141.831436,39.777936],[141.82663,39.774242],[141.823883,39.774242],[141.821136,39.775297],[141.819077,39.777936],[141.815643,39.778464],[141.81015,39.782685],[141.80397,39.784796],[141.803284,39.787434],[141.806717,39.789544],[141.809464,39.796403],[141.811523,39.799041]]],[[[141.854095,39.795876],[141.862335,39.795348],[141.865082,39.791127],[141.863708,39.780574],[141.861649,39.781102],[141.860275,39.780047],[141.861649,39.775825],[141.856155,39.771075],[141.843109,39.778991],[141.836243,39.780047],[141.835556,39.78374],[141.837616,39.789017],[141.843796,39.793765],[141.846542,39.793238],[141.854095,39.795876]]],[[[141.836929,39.780047],[141.843109,39.778991],[141.856155,39.771075],[141.860962,39.769492],[141.862335,39.766853],[141.862335,39.76527],[141.858215,39.761047],[141.856842,39.756296],[141.850662,39.753657],[141.847229,39.75049],[141.845856,39.753129],[141.842422,39.753657],[141.841736,39.756824],[141.838989,39.758936],[141.838989,39.761575],[141.835556,39.762631],[141.832123,39.761047],[141.825256,39.753657],[141.81427,39.75049],[141.815643,39.753129],[141.81633,39.75788],[141.814957,39.766853],[141.823883,39.77002],[141.82663,39.774242],[141.831436,39.777936],[141.836929,39.780047]]],[[[141.892548,39.790072],[141.894608,39.789017],[141.897354,39.789544],[141.902161,39.787434],[141.902847,39.785323],[141.905594,39.782685],[141.905594,39.781102],[141.903534,39.778464],[141.904907,39.775825],[141.904221,39.772659],[141.902161,39.771075],[141.899414,39.770548],[141.898727,39.769492],[141.900101,39.768436],[141.898727,39.766853],[141.897354,39.766325],[141.896667,39.764214],[141.893921,39.762631],[141.887054,39.765797],[141.886368,39.767381],[141.880188,39.768436],[141.878128,39.771603],[141.875381,39.772131],[141.874008,39.773186],[141.866455,39.774769],[141.860275,39.774769],[141.861649,39.77688],[141.860275,39.779519],[141.861649,39.781102],[141.869888,39.780047],[141.874695,39.785323],[141.879501,39.786906],[141.884308,39.786906],[141.888428,39.789544],[141.892548,39.790072]]],[[[141.866455,39.774769],[141.874008,39.773186],[141.875381,39.772131],[141.878128,39.771603],[141.880188,39.768436],[141.886368,39.767381],[141.887054,39.765797],[141.893921,39.762631],[141.892548,39.761047],[141.892548,39.759464],[141.889114,39.75788],[141.888428,39.756296],[141.887054,39.755241],[141.886368,39.754185],[141.883621,39.753657],[141.878815,39.75049],[141.871262,39.748906],[141.860275,39.748906],[141.854095,39.747322],[141.849289,39.746794],[141.848602,39.749434],[141.847229,39.75049],[141.850662,39.753657],[141.856842,39.756296],[141.858215,39.761047],[141.862335,39.765797],[141.862335,39.768436],[141.860962,39.769492],[141.856155,39.771075],[141.860275,39.774769],[141.866455,39.774769]]]]}},{"type":"Feature","properties":{"layer_id":"bakumatsu_villages","name":"中島村","address":"陸中 閉伊郡","source":"Geoshape 幕末期近世村領域データセット vector tiles (z7 extraction)","subarea_name":"近世村のおおよその範囲","feature_key":"village:K69G05S00098","accuracy_note":"2015年農業集落境界をもとに復元した概略範囲で、江戸時代の正確な村境ではありません"},"geometry":{"type":"MultiPolygon","coordinates":[[[[141.931,39.855465],[141.941299,39.854411],[141.944733,39.853357],[141.945419,39.851775],[141.944733,39.850721],[141.946106,39.848085],[141.949539,39.846504],[141.950912,39.843868],[141.950226,39.841759],[141.946793,39.841232],[141.93924,39.838595],[141.93512,39.842286],[141.936493,39.843868],[141.936493,39.847558],[141.934433,39.848612],[141.931686,39.851775],[141.929626,39.852302],[141.931,39.855465]]],[[[141.953659,39.834377],[141.959152,39.832796],[141.961899,39.829632],[141.959839,39.828577],[141.955719,39.82805],[141.959839,39.824358],[141.960526,39.822776],[141.956406,39.823304],[141.955032,39.822249],[141.948853,39.821194],[141.946106,39.822249],[141.939926,39.820667],[141.93924,39.819612],[141.939926,39.819085],[141.938553,39.813811],[141.934433,39.810118],[141.93306,39.809064],[141.923447,39.808536],[141.921387,39.807481],[141.917953,39.809064],[141.928253,39.823304],[141.934433,39.831214],[141.942673,39.830159],[141.953659,39.834377]]],[[[141.950226,39.841759],[141.952972,39.837541],[141.959152,39.839123],[141.959839,39.835959],[141.963272,39.834377],[141.961899,39.829632],[141.959152,39.832796],[141.955032,39.834377],[141.950912,39.83385],[141.944046,39.830159],[141.93718,39.830159],[141.934433,39.831214],[141.934433,39.834377],[141.941299,39.839123],[141.946793,39.841232],[141.950226,39.841759]]]]}},{"type":"Feature","properties":{"layer_id":"bakumatsu_villages","name":"中里村","address":"陸中 閉伊郡","source":"Geoshape 幕末期近世村領域データセット vector tiles (z7 extraction)","subarea_name":"近世村のおおよその範囲","feature_key":"village:K69G05S00097","accuracy_note":"2015年農業集落境界をもとに復元した概略範囲で、江戸時代の正確な村境ではありません"},"geometry":{"type":"MultiPolygon","coordinates":[[[[141.924133,39.861263],[141.931,39.855992],[141.929626,39.852302],[141.931686,39.851775],[141.934433,39.848612],[141.936493,39.847558],[141.936493,39.843868],[141.93512,39.842286],[141.93924,39.838595],[141.934433,39.834377],[141.931686,39.836486],[141.932373,39.83965],[141.931686,39.840177],[141.92276,39.841232],[141.920013,39.843868],[141.919327,39.850721],[141.913834,39.851775],[141.909714,39.856519],[141.90834,39.859155],[141.9104,39.861263],[141.915894,39.860209],[141.924133,39.861263]]],[[[141.920013,39.843868],[141.92276,39.841232],[141.92894,39.841232],[141.932373,39.840177],[141.931686,39.836486],[141.934433,39.834377],[141.934433,39.831214],[141.928253,39.823304],[141.917953,39.809064],[141.91452,39.808009],[141.911087,39.809591],[141.909714,39.811701],[141.903534,39.814338],[141.902161,39.813811],[141.892548,39.816975],[141.891861,39.824886],[141.890488,39.82594],[141.890488,39.82805],[141.891174,39.829632],[141.893234,39.830159],[141.892548,39.831741],[141.903534,39.835432],[141.907654,39.83385],[141.91246,39.834905],[141.917953,39.838595],[141.920013,39.843868]]]]}},{"type":"Feature","properties":{"layer_id":"bakumatsu_villages","name":"乙茂村","address":"陸中 閉伊郡","source":"Geoshape 幕末期近世村領域データセット vector tiles (z7 extraction)","subarea_name":"近世村のおおよその範囲","feature_key":"village:K69G05S00100","accuracy_note":"2015年農業集落境界をもとに復元した概略範囲で、江戸時代の正確な村境ではありません"},"geometry":{"type":"Polygon","coordinates":[[[141.880875,39.872858],[141.889801,39.864952],[141.893234,39.862844],[141.893234,39.861263],[141.891861,39.859682],[141.892548,39.855992],[141.891174,39.852829],[141.891174,39.849667],[141.887054,39.845976],[141.879501,39.842813],[141.877441,39.840177],[141.876068,39.835432],[141.876755,39.831741],[141.876068,39.830686],[141.874695,39.830159],[141.871262,39.832268],[141.867142,39.829632],[141.860962,39.830686],[141.856842,39.830159],[141.854782,39.829104],[141.846542,39.816975],[141.844482,39.816448],[141.841049,39.816975],[141.831436,39.814865],[141.829376,39.81592],[141.827316,39.818557],[141.828003,39.821194],[141.825256,39.826995],[141.828003,39.829632],[141.827316,39.832268],[141.83075,39.841759],[141.833496,39.844922],[141.831436,39.847558],[141.832123,39.850721],[141.834869,39.851775],[141.835556,39.853884],[141.837616,39.854938],[141.840363,39.858628],[141.838303,39.862317],[141.840363,39.86548],[141.838989,39.869696],[141.841049,39.872858],[141.845856,39.872331],[141.848602,39.869696],[141.852036,39.870223],[141.856842,39.868642],[141.863022,39.868115],[141.864395,39.867061],[141.867828,39.867061],[141.869888,39.864952],[141.871262,39.862844],[141.874695,39.86179],[141.876068,39.860209],[141.878128,39.861263],[141.876755,39.863371],[141.880188,39.862317],[141.881561,39.863898],[141.882935,39.863371],[141.887054,39.863371],[141.882248,39.86548],[141.880875,39.866534],[141.882935,39.867588],[141.881561,39.869169],[141.880875,39.872858]]]}},{"type":"Feature","properties":{"layer_id":"bakumatsu_villages","name":"二升石村","address":"陸中 閉伊郡","source":"Geoshape 幕末期近世村領域データセット vector tiles (z7 extraction)","subarea_name":"近世村のおおよその範囲","feature_key":"village:K69G05S00134","accuracy_note":"2015年農業集落境界をもとに復元した概略範囲で、江戸時代の正確な村境ではありません"},"geometry":{"type":"Polygon","coordinates":[[[141.742859,39.862844],[141.747665,39.859682],[141.749039,39.855465],[141.753159,39.850194],[141.757278,39.848612],[141.762085,39.842813],[141.763458,39.835432],[141.763458,39.833323],[141.760712,39.830159],[141.755905,39.827522],[141.755219,39.824358],[141.753159,39.822249],[141.753845,39.819085],[141.753159,39.817502],[141.757965,39.811701],[141.757278,39.806954],[141.751099,39.800623],[141.744919,39.803789],[141.744919,39.806426],[141.740799,39.809591],[141.742172,39.811701],[141.739426,39.81592],[141.739426,39.822249],[141.736679,39.82594],[141.734619,39.831214],[141.729126,39.831741],[141.726379,39.839123],[141.728439,39.842813],[141.731186,39.844922],[141.731186,39.849667],[141.733246,39.854938],[141.740799,39.858628],[141.742859,39.862844]]]}},{"type":"Feature","properties":{"layer_id":"bakumatsu_villages","name":"大川村","address":"陸中 閉伊郡","source":"Geoshape 幕末期近世村領域データセット vector tiles (z7 extraction)","subarea_name":"近世村のおおよその範囲","feature_key":"village:K69G05S00090","accuracy_note":"2015年農業集落境界をもとに復元した概略範囲で、江戸時代の正確な村境ではありません"},"geometry":{"type":"MultiPolygon","coordinates":[[[[141.632309,39.820667],[141.639175,39.819085],[141.644669,39.815393],[141.643982,39.807481],[141.645355,39.803789],[141.637802,39.799568],[141.635742,39.800623],[141.635056,39.804844],[141.627502,39.808536],[141.620636,39.809591],[141.620636,39.812756],[141.622696,39.81592],[141.626129,39.81803],[141.628876,39.817502],[141.632309,39.820667]]],[[[141.621323,39.809591],[141.627502,39.808536],[141.635742,39.804316],[141.633682,39.794293],[141.630936,39.790072],[141.643295,39.768964],[141.636429,39.76527],[141.634369,39.761575],[141.630249,39.759464],[141.626816,39.757352],[141.626129,39.755241],[141.621323,39.768436],[141.621323,39.772659],[141.619949,39.774769],[141.619263,39.787434],[141.617889,39.789017],[141.610336,39.791655],[141.608276,39.794293],[141.611023,39.795348],[141.61377,39.800623],[141.617889,39.802206],[141.619949,39.809064],[141.621323,39.809591]]],[[[141.657028,39.828577],[141.659775,39.82594],[141.663208,39.82594],[141.668701,39.823304],[141.677628,39.822776],[141.670761,39.814338],[141.670761,39.807481],[141.667328,39.803261],[141.665955,39.798513],[141.664581,39.799041],[141.664581,39.800623],[141.662521,39.801679],[141.657715,39.802206],[141.653595,39.801151],[141.645355,39.803789],[141.643982,39.807481],[141.644669,39.815393],[141.639175,39.819085],[141.643982,39.825413],[141.647415,39.82594],[141.648102,39.827522],[141.651535,39.827522],[141.652222,39.828577],[141.657028,39.828577]]],[[[141.646042,39.803789],[141.653595,39.801151],[141.657715,39.802206],[141.663208,39.801679],[141.664581,39.800623],[141.664581,39.799041],[141.665955,39.798513],[141.664581,39.796403],[141.666641,39.79271],[141.662521,39.788489],[141.658401,39.787962],[141.650162,39.773714],[141.643295,39.768964],[141.630936,39.790072],[141.633682,39.794293],[141.635742,39.801151],[141.637115,39.799568],[141.638489,39.799568],[141.641235,39.801151],[141.641922,39.802734],[141.646042,39.803789]]],[[[141.670761,39.807481],[141.677628,39.802734],[141.679001,39.799041],[141.679001,39.795876],[141.675568,39.791127],[141.674194,39.771603],[141.668015,39.767381],[141.665268,39.762631],[141.659088,39.759464],[141.655655,39.755769],[141.648102,39.754713],[141.645355,39.756296],[141.641235,39.754713],[141.632309,39.755769],[141.626129,39.755241],[141.626816,39.757352],[141.630249,39.759464],[141.634369,39.761575],[141.636429,39.76527],[141.648788,39.772659],[141.658401,39.787962],[141.661835,39.788489],[141.665955,39.791655],[141.666641,39.79271],[141.664581,39.796931],[141.667328,39.799568],[141.667328,39.803261],[141.670761,39.807481]]],[[[141.59935,39.79482],[141.602097,39.79271],[141.60553,39.79271],[141.606216,39.794293],[141.608276,39.794293],[141.610336,39.791655],[141.617889,39.789017],[141.618576,39.787962],[141.619949,39.774769],[141.621323,39.772659],[141.621323,39.768436],[141.626129,39.755241],[141.625443,39.746794],[141.624069,39.743626],[141.623383,39.738346],[141.622009,39.735178],[141.620636,39.734122],[141.615829,39.73465],[141.61171,39.731482],[141.606216,39.729898],[141.608276,39.727785],[141.606903,39.723032],[141.60759,39.72092],[141.602783,39.716166],[141.604156,39.711941],[141.602783,39.710356],[141.59935,39.708771],[141.59317,39.710884],[141.580811,39.709828],[141.578064,39.71511],[141.574631,39.714582],[141.569138,39.718807],[141.565704,39.719335],[141.562958,39.718279],[141.561584,39.714054],[141.556778,39.711413],[141.555405,39.708771],[141.551285,39.704545],[141.537552,39.704017],[141.533432,39.705602],[141.530685,39.712469],[141.532745,39.72092],[141.536865,39.724617],[141.538239,39.729898],[141.531372,39.740458],[141.540298,39.743626],[141.541672,39.746794],[141.542358,39.755241],[141.545792,39.755769],[141.548538,39.75788],[141.560211,39.759991],[141.564331,39.764742],[141.569824,39.766853],[141.569824,39.768436],[141.572571,39.773186],[141.575317,39.774769],[141.577377,39.777408],[141.579437,39.778464],[141.580811,39.781102],[141.587677,39.788489],[141.59935,39.79482]]],[[[141.679001,39.814338],[141.692047,39.813811],[141.69342,39.809064],[141.69754,39.803261],[141.703033,39.800623],[141.70784,39.800623],[141.706467,39.794293],[141.7099,39.788489],[141.7099,39.784796],[141.710587,39.78163],[141.709213,39.777936],[141.698914,39.778991],[141.688614,39.785323],[141.684494,39.786906],[141.678314,39.783213],[141.674881,39.782685],[141.675568,39.791127],[141.679001,39.795876],[141.679001,39.799041],[141.677628,39.802734],[141.670761,39.807481],[141.670761,39.814338],[141.676941,39.813283],[141.679001,39.814338]]],[[[141.683807,39.786379],[141.688614,39.785323],[141.698914,39.778991],[141.709213,39.777936],[141.710587,39.776353],[141.711273,39.772659],[141.706467,39.768964],[141.70372,39.768436],[141.700287,39.766325],[141.70166,39.761575],[141.698227,39.756296],[141.700974,39.753657],[141.69754,39.752601],[141.689301,39.74785],[141.687241,39.744154],[141.680374,39.74257],[141.674194,39.744682],[141.669388,39.751017],[141.660461,39.752601],[141.655655,39.755769],[141.659088,39.759464],[141.665268,39.762631],[141.668015,39.767381],[141.673508,39.770548],[141.674881,39.782685],[141.679001,39.783213],[141.683807,39.786379]]]]}},{"type":"Feature","properties":{"layer_id":"bakumatsu_villages","name":"安家村","address":"陸中 閉伊郡","source":"Geoshape 幕末期近世村領域データセット vector tiles (z7 extraction)","subarea_name":"近世村のおおよその範囲","feature_key":"village:K69G05S00135","accuracy_note":"2015年農業集落境界をもとに復元した概略範囲で、江戸時代の正確な村境ではありません"},"geometry":{"type":"MultiPolygon","coordinates":[[[[141.539612,40.048643],[141.545792,40.048117],[141.552658,40.045489],[141.556778,40.046015],[141.560898,40.044438],[141.563644,40.04654],[141.567764,40.047066],[141.569824,40.044963],[141.571198,40.044963],[141.578064,40.041284],[141.580811,40.041284],[141.588364,40.032872],[141.58905,40.030243],[141.596603,40.026037],[141.59729,40.024985],[141.604843,40.026037],[141.60965,40.018675],[141.614456,40.017098],[141.615143,40.01552],[141.621323,39.997112],[141.623383,39.99343],[141.626129,39.991851],[141.626816,39.987643],[141.641235,39.976594],[141.643982,39.976594],[141.645355,39.975542],[141.649475,39.971332],[141.647415,39.968701],[141.641922,39.963964],[141.640549,39.959228],[141.639862,39.948174],[141.637115,39.94291],[141.636429,39.939225],[141.631622,39.939751],[141.627502,39.938698],[141.622696,39.939751],[141.619263,39.94291],[141.615829,39.944489],[141.613083,39.944489],[141.610336,39.943436],[141.604843,39.944489],[141.60347,39.943436],[141.59729,39.946069],[141.59523,39.947648],[141.59523,39.95028],[141.592484,39.951333],[141.587677,39.955543],[141.58905,39.956596],[141.58905,39.958175],[141.58493,39.960807],[141.583557,39.966596],[141.58493,39.968175],[141.58287,39.971858],[141.580811,39.973437],[141.578751,39.97712],[141.579437,39.979225],[141.578064,39.981329],[141.576691,39.981329],[141.575317,39.982908],[141.575317,39.985012],[141.571198,39.987117],[141.571198,39.990273],[141.567078,39.997112],[141.561584,40.002898],[141.556778,40.005002],[141.551971,40.009735],[141.551285,40.011313],[141.548538,40.014994],[141.547852,40.01815],[141.549225,40.019727],[141.545792,40.025511],[141.538925,40.029192],[141.537552,40.030769],[141.532059,40.031821],[141.527252,40.040758],[141.532059,40.043912],[141.532059,40.047066],[141.535492,40.047066],[141.539612,40.048643]]],[[[141.61171,40.029192],[141.615829,40.026563],[141.622696,40.027614],[141.622696,40.024985],[141.624756,40.023408],[141.635742,40.018675],[141.643982,40.020253],[141.649475,40.013417],[141.648102,40.011839],[141.657715,40.008158],[141.656342,40.001846],[141.651535,39.994482],[141.650162,39.990799],[141.650848,39.987117],[141.654282,39.983434],[141.655655,39.982382],[141.663208,39.982382],[141.668015,39.982908],[141.673508,39.981856],[141.683807,39.983434],[141.687927,39.980277],[141.692734,39.978699],[141.69548,39.976594],[141.698227,39.970279],[141.694794,39.966596],[141.69548,39.958701],[141.696167,39.957649],[141.702347,39.955543],[141.704407,39.95028],[141.704407,39.940804],[141.700287,39.937645],[141.688614,39.947648],[141.683121,39.948174],[141.681747,39.951859],[141.673508,39.958701],[141.668701,39.964491],[141.665268,39.966069],[141.658401,39.966596],[141.654968,39.969227],[141.648788,39.970279],[141.648788,39.972384],[141.645355,39.975542],[141.643982,39.976594],[141.641235,39.976594],[141.630936,39.98396],[141.629562,39.986065],[141.626816,39.987643],[141.626129,39.991851],[141.623383,39.99343],[141.621323,39.997112],[141.615143,40.01552],[141.614456,40.017098],[141.60965,40.018675],[141.604843,40.026037],[141.608276,40.028666],[141.61171,40.029192]]],[[[141.670761,40.010787],[141.677628,40.002372],[141.680374,40.001846],[141.687927,39.99869],[141.69548,39.993956],[141.703033,39.99343],[141.704407,39.992378],[141.705093,39.988695],[141.70166,39.988169],[141.700974,39.987117],[141.70372,39.97712],[141.698227,39.970279],[141.69548,39.976594],[141.687927,39.980277],[141.683807,39.983434],[141.674194,39.982382],[141.668015,39.982908],[141.663208,39.982382],[141.655655,39.982382],[141.650848,39.987117],[141.651535,39.99343],[141.656342,40.001846],[141.657715,40.008158],[141.661148,40.009209],[141.663208,40.010787],[141.670761,40.010787]]],[[[141.758652,40.031821],[141.758652,40.027089],[141.759338,40.025511],[141.768265,40.023408],[141.768265,40.016572],[141.766891,40.014468],[141.767578,40.009209],[141.766205,40.00658],[141.762085,40.00395],[141.762772,40.00132],[141.761398,39.995008],[141.753845,39.99869],[141.751099,40.002372],[141.740799,40.00658],[141.738739,40.013943],[141.738739,40.023408],[141.742172,40.02446],[141.743546,40.026563],[141.746292,40.029192],[141.749039,40.029192],[141.751785,40.030769],[141.756592,40.031821],[141.758652,40.031821]]],[[[141.689301,40.018675],[141.694107,40.017098],[141.696854,40.012365],[141.703033,40.011839],[141.704407,40.009209],[141.706467,40.009209],[141.71196,40.014994],[141.71402,40.013943],[141.715393,40.014994],[141.716766,40.012365],[141.719513,40.012365],[141.72226,40.010261],[141.725693,40.011839],[141.727753,40.011839],[141.727066,40.014468],[141.728439,40.016046],[141.733246,40.017624],[141.738739,40.016572],[141.738739,40.011839],[141.740799,40.00658],[141.751099,40.002372],[141.753845,39.99869],[141.761398,39.995008],[141.761398,39.991325],[141.764145,39.988169],[141.761398,39.98396],[141.762772,39.979751],[141.756592,39.977646],[141.746979,39.970806],[141.744919,39.970279],[141.741486,39.971332],[141.738052,39.970279],[141.730499,39.963438],[141.725006,39.963438],[141.721573,39.960807],[141.720886,39.953964],[141.71814,39.948701],[141.719513,39.946069],[141.718826,39.941857],[141.71608,39.936066],[141.712646,39.936066],[141.708527,39.937645],[141.704407,39.940804],[141.705093,39.949227],[141.703033,39.955017],[141.696167,39.958175],[141.694794,39.962912],[141.69548,39.967122],[141.70372,39.97712],[141.700974,39.987117],[141.70166,39.988169],[141.705093,39.988695],[141.704407,39.992378],[141.703033,39.99343],[141.69548,39.993956],[141.687927,39.99869],[141.680374,40.001846],[141.677628,40.002372],[141.670761,40.010787],[141.675568,40.014994],[141.681061,40.014994],[141.683807,40.017624],[141.689301,40.018675]]],[[[141.648788,39.970279],[141.654968,39.969227],[141.658401,39.966596],[141.665268,39.966069],[141.668701,39.964491],[141.673508,39.958701],[141.681747,39.951859],[141.683121,39.948174],[141.688614,39.947648],[141.6996,39.937645],[141.704407,39.940804],[141.708527,39.937645],[141.71608,39.936066],[141.716766,39.93396],[141.720886,39.930801],[141.722946,39.925009],[141.723633,39.920796],[141.728439,39.918689],[141.728439,39.91711],[141.721573,39.910263],[141.712646,39.908683],[141.7099,39.910263],[141.700974,39.90921],[141.696167,39.911843],[141.692734,39.911316],[141.689301,39.912896],[141.687927,39.914476],[141.685181,39.91553],[141.681747,39.919216],[141.676254,39.919743],[141.672821,39.921849],[141.669388,39.926062],[141.662521,39.927115],[141.659088,39.928695],[141.658401,39.932907],[141.649475,39.936066],[141.646729,39.936066],[141.645355,39.938172],[141.636429,39.939225],[141.637115,39.94291],[141.639862,39.948174],[141.640549,39.959228],[141.641922,39.963964],[141.648788,39.970279]]],[[[141.762772,39.979751],[141.766205,39.974489],[141.771698,39.969227],[141.775131,39.959228],[141.779938,39.963438],[141.786804,39.965017],[141.793671,39.965017],[141.792297,39.962386],[141.792984,39.958701],[141.790237,39.957122],[141.790924,39.954491],[141.786804,39.949227],[141.783371,39.948701],[141.783371,39.948174],[141.774445,39.952385],[141.773071,39.953964],[141.759338,39.95028],[141.753845,39.950806],[141.752472,39.941857],[141.750412,39.938172],[141.751099,39.936066],[141.746292,39.93238],[141.742172,39.931854],[141.737366,39.929221],[141.730499,39.930274],[141.72226,39.927642],[141.7202,39.931327],[141.716766,39.93396],[141.71608,39.936066],[141.718826,39.942384],[141.719513,39.946069],[141.71814,39.948701],[141.720886,39.953964],[141.721573,39.960807],[141.725006,39.963438],[141.730499,39.963438],[141.737366,39.970279],[141.741486,39.971332],[141.744919,39.970279],[141.746979,39.970806],[141.759338,39.978699],[141.762772,39.979751]]],[[[141.773071,39.953964],[141.774445,39.952385],[141.783371,39.948174],[141.784744,39.946595],[141.781998,39.943436],[141.784744,39.941857],[141.786118,39.938698],[141.784744,39.937119],[141.784744,39.93238],[141.780624,39.928168],[141.779251,39.923956],[141.779251,39.920796],[141.777878,39.918163],[141.774445,39.918163],[141.769638,39.91395],[141.762772,39.91237],[141.758652,39.915003],[141.751785,39.91395],[141.749039,39.91237],[141.745605,39.913423],[141.731873,39.914476],[141.728439,39.916056],[141.728439,39.918689],[141.723633,39.920796],[141.72226,39.927642],[141.730499,39.930274],[141.737366,39.929221],[141.742172,39.931854],[141.746979,39.93238],[141.751099,39.936066],[141.750412,39.938172],[141.752472,39.941857],[141.753845,39.950806],[141.759338,39.95028],[141.773071,39.953964]]],[[[141.768265,40.023408],[141.81015,40.014468],[141.81221,40.012891],[141.809464,40.010261],[141.80191,40.007632],[141.797104,40.005002],[141.795044,40.001846],[141.794357,39.997112],[141.792984,39.99606],[141.792984,39.994482],[141.798477,39.991325],[141.799164,39.989221],[141.801224,39.987643],[141.799164,39.982908],[141.800537,39.980277],[141.798477,39.976594],[141.796417,39.975015],[141.796417,39.971332],[141.793671,39.965017],[141.786804,39.965017],[141.779938,39.963438],[141.775131,39.959228],[141.771698,39.968175],[141.766205,39.974489],[141.761398,39.982382],[141.762085,39.985538],[141.764145,39.988169],[141.761398,39.991325],[141.761398,39.995008],[141.762772,40.00132],[141.762085,40.00395],[141.766205,40.00658],[141.767578,40.009209],[141.766891,40.014468],[141.768265,40.016572],[141.768265,40.023408]]]]}},{"type":"Feature","properties":{"layer_id":"bakumatsu_villages","name":"小本村","address":"陸中 閉伊郡","source":"Geoshape 幕末期近世村領域データセット vector tiles (z7 extraction)","subarea_name":"近世村のおおよその範囲","feature_key":"village:K69G05S00096","accuracy_note":"2015年農業集落境界をもとに復元した概略範囲で、江戸時代の正確な村境ではありません"},"geometry":{"type":"MultiPolygon","coordinates":[[[[141.959152,39.887611],[141.962585,39.885504],[141.957779,39.88445],[141.956406,39.882869],[141.955032,39.883396],[141.955032,39.882343],[141.953659,39.882343],[141.953659,39.881816],[141.951599,39.880762],[141.950912,39.881289],[141.946106,39.876019],[141.946793,39.875492],[141.945419,39.874966],[141.945419,39.873385],[141.931686,39.868115],[141.92688,39.864952],[141.924133,39.861263],[141.915207,39.860209],[141.911087,39.861263],[141.91658,39.86179],[141.920013,39.867061],[141.928253,39.870223],[141.934433,39.876019],[141.943359,39.881289],[141.944046,39.882343],[141.946793,39.883396],[141.948166,39.882869],[141.950912,39.88445],[141.952972,39.88445],[141.953659,39.886031],[141.956406,39.885504],[141.959152,39.887611]]],[[[141.945419,39.873912],[141.954346,39.864425],[141.954346,39.859682],[141.955719,39.859682],[141.957779,39.86179],[141.963959,39.861263],[141.966019,39.860209],[141.968765,39.860736],[141.969452,39.860736],[141.968079,39.858628],[141.970139,39.857046],[141.963272,39.854938],[141.961899,39.853884],[141.950912,39.851775],[141.950226,39.850194],[141.945419,39.850194],[141.945419,39.851775],[141.944733,39.853357],[141.941299,39.854411],[141.931,39.855465],[141.930313,39.857046],[141.924133,39.861263],[141.92688,39.864952],[141.931686,39.868115],[141.945419,39.873912]]],[[[141.969452,39.885504],[141.970825,39.884977],[141.971512,39.883396],[141.970825,39.882343],[141.971512,39.881816],[141.970825,39.881289],[141.973572,39.878654],[141.973572,39.874966],[141.977005,39.871804],[141.976318,39.868115],[141.979065,39.864952],[141.977005,39.863898],[141.977005,39.862317],[141.975632,39.862317],[141.975632,39.860209],[141.974258,39.859682],[141.972885,39.859682],[141.970825,39.86179],[141.970139,39.860736],[141.966019,39.860209],[141.963959,39.861263],[141.957779,39.86179],[141.955719,39.859682],[141.954346,39.859682],[141.954346,39.864425],[141.944733,39.873912],[141.946793,39.875492],[141.946106,39.876019],[141.948166,39.879181],[141.950912,39.881289],[141.951599,39.880762],[141.953659,39.881816],[141.953659,39.882343],[141.955032,39.882343],[141.955032,39.883396],[141.956406,39.882869],[141.957779,39.88445],[141.962585,39.885504],[141.968765,39.884977],[141.969452,39.885504]]],[[[141.974945,39.851775],[141.971512,39.851775],[141.969452,39.851248],[141.964645,39.841759],[141.959152,39.839123],[141.952972,39.837541],[141.950226,39.841759],[141.950912,39.843868],[141.949539,39.846504],[141.946106,39.847558],[141.945419,39.850194],[141.950226,39.850194],[141.950912,39.851775],[141.952972,39.852302],[141.961899,39.853884],[141.963272,39.855465],[141.970139,39.856519],[141.968765,39.859682],[141.970139,39.86179],[141.971512,39.861263],[141.972885,39.859682],[141.976318,39.858628],[141.974945,39.857574],[141.976318,39.857574],[141.975632,39.857046],[141.977692,39.856519],[141.975632,39.856519],[141.975632,39.854411],[141.977005,39.854411],[141.977692,39.853357],[141.974945,39.853357],[141.974945,39.851775]]],[[[141.974945,39.851775],[141.977005,39.852302],[141.978378,39.851775],[141.974945,39.851775]]],[[[141.975632,39.849139],[141.975632,39.848612],[141.974258,39.848612],[141.974258,39.846504],[141.976318,39.845449],[141.978378,39.845449],[141.977005,39.844922],[141.976318,39.842286],[141.980438,39.840704],[141.974945,39.838595],[141.972198,39.83965],[141.971512,39.837541],[141.967392,39.834905],[141.967392,39.833323],[141.963959,39.830159],[141.963959,39.829632],[141.961899,39.829632],[141.963272,39.834377],[141.959839,39.835959],[141.959152,39.839123],[141.964645,39.841759],[141.969452,39.850721],[141.971512,39.851775],[141.974258,39.851775],[141.973572,39.851248],[141.974258,39.849667],[141.975632,39.849139]]],[[[141.975632,39.849139],[141.977005,39.849139],[141.977005,39.848612],[141.975632,39.849139]]],[[[141.979752,39.833323],[141.979065,39.831741],[141.977692,39.831741],[141.978378,39.831214],[141.976318,39.831214],[141.974258,39.832268],[141.963959,39.830159],[141.967392,39.833323],[141.967392,39.834905],[141.971512,39.837541],[141.972198,39.83965],[141.974945,39.838595],[141.980438,39.840704],[141.979065,39.838595],[141.979752,39.837014],[141.978378,39.835432],[141.979752,39.83385],[141.979752,39.833323]]],[[[141.974258,39.832268],[141.976318,39.831214],[141.974945,39.830159],[141.974945,39.82805],[141.973572,39.827522],[141.974258,39.825413],[141.968079,39.825413],[141.961899,39.821194],[141.960526,39.822776],[141.959839,39.824358],[141.955719,39.82805],[141.959839,39.828577],[141.961899,39.829632],[141.963959,39.829632],[141.968079,39.831214],[141.974258,39.832268]]]]}},{"type":"Feature","properties":{"layer_id":"bakumatsu_villages","name":"尼額村","address":"陸中 閉伊郡","source":"Geoshape 幕末期近世村領域データセット vector tiles (z7 extraction)","subarea_name":"近世村のおおよその範囲","feature_key":"village:K69G05S00103","accuracy_note":"2015年農業集落境界をもとに復元した概略範囲で、江戸時代の正確な村境ではありません"},"geometry":{"type":"Polygon","coordinates":[[[141.742172,39.872331],[141.748352,39.871277],[141.753159,39.867061],[141.756592,39.866007],[141.759338,39.862844],[141.764145,39.861263],[141.763458,39.856519],[141.767578,39.847558],[141.779938,39.847031],[141.783371,39.842286],[141.780624,39.82805],[141.788864,39.823831],[141.788864,39.819085],[141.785431,39.817502],[141.785431,39.814338],[141.783371,39.810646],[141.777191,39.808009],[141.770325,39.806426],[141.766205,39.804316],[141.762085,39.804316],[141.760025,39.805899],[141.756592,39.805371],[141.757278,39.806954],[141.757965,39.811701],[141.752472,39.817502],[141.753845,39.819085],[141.753159,39.821194],[141.755219,39.824358],[141.755905,39.826995],[141.760025,39.829632],[141.763458,39.833323],[141.762085,39.842286],[141.757278,39.848612],[141.753845,39.849667],[141.751099,39.853357],[141.749039,39.854411],[141.747665,39.859682],[141.742859,39.862844],[141.742172,39.864952],[141.743546,39.868642],[141.742172,39.872331]]]}},{"type":"Feature","properties":{"layer_id":"bakumatsu_villages","name":"岩泉村","address":"陸中 閉伊郡","source":"Geoshape 幕末期近世村領域データセット vector tiles (z7 extraction)","subarea_name":"近世村のおおよその範囲","feature_key":"village:K69G05S00133","accuracy_note":"2015年農業集落境界をもとに復元した概略範囲で、江戸時代の正確な村境ではありません"},"geometry":{"type":"MultiPolygon","coordinates":[[[[141.777878,39.918163],[141.775818,39.902889],[141.771011,39.899728],[141.770325,39.898148],[141.775818,39.893934],[141.779938,39.89288],[141.777878,39.887611],[141.779251,39.881289],[141.775818,39.870223],[141.764832,39.869696],[141.756592,39.866007],[141.753159,39.867061],[141.747665,39.871277],[141.742172,39.872331],[141.738052,39.874439],[141.738739,39.876019],[141.735992,39.878654],[141.734619,39.882869],[141.733246,39.883923],[141.730499,39.89446],[141.726379,39.904469],[141.722946,39.907103],[141.72226,39.91079],[141.728439,39.916056],[141.731873,39.914476],[141.745605,39.913423],[141.749039,39.91237],[141.751785,39.91395],[141.758652,39.915003],[141.762772,39.91237],[141.769638,39.91395],[141.774445,39.918163],[141.777878,39.918163]]],[[[141.72226,39.91079],[141.722946,39.907103],[141.726379,39.904469],[141.730499,39.89446],[141.733246,39.883923],[141.734619,39.882869],[141.735992,39.878654],[141.738739,39.876019],[141.738052,39.874439],[141.742172,39.872331],[141.743546,39.868642],[141.742172,39.864952],[141.742859,39.862844],[141.740799,39.858628],[141.733246,39.854938],[141.731186,39.849667],[141.731186,39.844922],[141.728439,39.842813],[141.726379,39.839123],[141.718826,39.83965],[141.71608,39.838595],[141.709213,39.831741],[141.70372,39.829632],[141.709213,39.837014],[141.709213,39.83965],[141.70784,39.840704],[141.7099,39.842813],[141.7099,39.850721],[141.713333,39.854411],[141.713333,39.856519],[141.7099,39.859682],[141.709213,39.862844],[141.710587,39.86548],[141.708527,39.866007],[141.707153,39.871804],[141.704407,39.874439],[141.70372,39.8776],[141.705093,39.883396],[141.709213,39.886031],[141.710587,39.889192],[141.709213,39.896041],[141.71196,39.899728],[141.711273,39.902889],[141.713333,39.906049],[141.712646,39.908683],[141.72226,39.91079]]],[[[141.803284,39.898675],[141.80603,39.894987],[141.808777,39.894987],[141.81427,39.890773],[141.81221,39.881816],[141.803284,39.871804],[141.799164,39.873385],[141.798477,39.874966],[141.790924,39.8776],[141.788177,39.881289],[141.777878,39.888665],[141.779938,39.89288],[141.782684,39.894987],[141.786804,39.89446],[141.792297,39.896568],[141.798477,39.896568],[141.803284,39.898675]]],[[[141.777878,39.888665],[141.779251,39.888138],[141.781998,39.885504],[141.788177,39.881289],[141.790924,39.8776],[141.798477,39.874966],[141.799164,39.873385],[141.803284,39.871804],[141.802597,39.87075],[141.804657,39.868115],[141.80397,39.862317],[141.81221,39.857046],[141.811523,39.854411],[141.809464,39.854411],[141.810837,39.852829],[141.806717,39.843868],[141.80397,39.845449],[141.801224,39.845449],[141.80191,39.846504],[141.800537,39.847558],[141.801224,39.848085],[141.798477,39.848612],[141.799164,39.851775],[141.797791,39.852829],[141.797791,39.855992],[141.796417,39.856519],[141.784058,39.858628],[141.778564,39.862317],[141.772385,39.863898],[141.766891,39.860736],[141.763458,39.861263],[141.758652,39.863371],[141.756592,39.866007],[141.764832,39.869696],[141.774445,39.869696],[141.775818,39.87075],[141.779251,39.881289],[141.777878,39.888665]]],[[[141.772385,39.863898],[141.778564,39.862317],[141.784058,39.858628],[141.797791,39.855992],[141.799164,39.849667],[141.797104,39.848085],[141.795731,39.849667],[141.793671,39.849139],[141.792984,39.848085],[141.793671,39.847031],[141.793671,39.845976],[141.789551,39.845449],[141.790237,39.844395],[141.787491,39.84334],[141.786804,39.841232],[141.788177,39.835959],[141.784744,39.832268],[141.781311,39.830159],[141.783371,39.842286],[141.781998,39.844922],[141.779938,39.847031],[141.767578,39.847558],[141.763458,39.856519],[141.764145,39.861263],[141.766891,39.860736],[141.772385,39.863898]]],[[[141.82457,39.902362],[141.827316,39.901835],[141.830063,39.898675],[141.828003,39.896041],[141.829376,39.893934],[141.828003,39.891299],[141.829376,39.890246],[141.83075,39.883396],[141.833496,39.882869],[141.833496,39.881289],[141.83075,39.879708],[141.828003,39.873912],[141.827316,39.871804],[141.828003,39.867061],[141.82457,39.86179],[141.823883,39.858101],[141.819077,39.858101],[141.814957,39.856519],[141.808777,39.859155],[141.803284,39.862844],[141.804657,39.868115],[141.802597,39.87075],[141.803284,39.871804],[141.81221,39.881816],[141.813583,39.886558],[141.81427,39.891299],[141.809464,39.89446],[141.81221,39.897094],[141.813583,39.897621],[141.814957,39.900782],[141.82457,39.902362]]],[[[141.834183,39.881289],[141.836929,39.878654],[141.841049,39.878127],[141.840363,39.876019],[141.841736,39.872858],[141.838989,39.869696],[141.840363,39.86548],[141.838303,39.862317],[141.840363,39.858628],[141.837616,39.854938],[141.835556,39.853884],[141.834869,39.851775],[141.832123,39.850721],[141.831436,39.847558],[141.833496,39.844922],[141.83075,39.840704],[141.827316,39.832268],[141.828003,39.829632],[141.82663,39.82805],[141.825256,39.826995],[141.821136,39.831214],[141.82251,39.834377],[141.821823,39.836486],[141.81839,39.840704],[141.817017,39.847031],[141.811523,39.848085],[141.808777,39.843868],[141.806717,39.843868],[141.810837,39.852829],[141.809464,39.854411],[141.811523,39.854411],[141.81221,39.857046],[141.815643,39.856519],[141.819077,39.858101],[141.823883,39.858101],[141.82457,39.86179],[141.828003,39.867061],[141.827316,39.872331],[141.831436,39.879708],[141.834183,39.881289]]],[[[141.795044,39.849667],[141.797104,39.848085],[141.797791,39.849139],[141.801224,39.848085],[141.800537,39.847558],[141.80191,39.846504],[141.801224,39.845449],[141.80397,39.845449],[141.808777,39.84334],[141.809464,39.842286],[141.808777,39.838068],[141.80603,39.834905],[141.804657,39.829104],[141.801224,39.827522],[141.797791,39.834905],[141.797104,39.840177],[141.793671,39.839123],[141.790237,39.841232],[141.792297,39.844922],[141.792297,39.845976],[141.793671,39.845976],[141.792984,39.849139],[141.795044,39.849667]]],[[[141.792297,39.845976],[141.792297,39.844922],[141.790237,39.842286],[141.790237,39.840704],[141.794357,39.839123],[141.797104,39.840177],[141.797791,39.834905],[141.801224,39.827522],[141.79985,39.824886],[141.79985,39.822249],[141.799164,39.821722],[141.795731,39.820667],[141.789551,39.820667],[141.788177,39.823831],[141.780624,39.82805],[141.781311,39.830159],[141.784744,39.832268],[141.788177,39.835959],[141.787491,39.842286],[141.790237,39.844395],[141.789551,39.845449],[141.792297,39.845976]]],[[[141.804657,39.829104],[141.81221,39.826995],[141.817703,39.826995],[141.823883,39.828577],[141.825256,39.826995],[141.828003,39.821194],[141.827316,39.818557],[141.83075,39.814865],[141.83075,39.813811],[141.82663,39.808009],[141.82251,39.806954],[141.821136,39.803789],[141.817703,39.802734],[141.812897,39.806954],[141.81015,39.811173],[141.803284,39.814338],[141.789551,39.813283],[141.785431,39.814338],[141.785431,39.817502],[141.788864,39.819085],[141.789551,39.820667],[141.795731,39.820667],[141.799164,39.821722],[141.79985,39.822249],[141.79985,39.824886],[141.801224,39.826995],[141.804657,39.829104]]],[[[141.811523,39.848085],[141.817017,39.847031],[141.81839,39.840704],[141.821823,39.836486],[141.82251,39.834377],[141.821136,39.831214],[141.823883,39.828577],[141.817703,39.826995],[141.81221,39.826995],[141.804657,39.829104],[141.80603,39.834905],[141.808777,39.838068],[141.809464,39.841759],[141.80809,39.843868],[141.811523,39.848085]]]]}},{"type":"Feature","properties":{"layer_id":"bakumatsu_villages","name":"浅内村","address":"陸中 閉伊郡","source":"Geoshape 幕末期近世村領域データセット vector tiles (z7 extraction)","subarea_name":"近世村のおおよその範囲","feature_key":"village:K69G05S00091","accuracy_note":"2015年農業集落境界をもとに復元した概略範囲で、江戸時代の正確な村境ではありません"},"geometry":{"type":"MultiPolygon","coordinates":[[[[141.700287,39.826468],[141.703033,39.824358],[141.708527,39.824886],[141.717453,39.823831],[141.719513,39.819612],[141.71814,39.81803],[141.719513,39.816975],[141.713333,39.807481],[141.712646,39.803789],[141.70784,39.800623],[141.703033,39.800623],[141.69754,39.803261],[141.69342,39.809064],[141.692047,39.813811],[141.679001,39.814338],[141.676941,39.813283],[141.670761,39.814338],[141.677628,39.822776],[141.681747,39.822776],[141.687241,39.825413],[141.700287,39.826468]]],[[[141.718826,39.83965],[141.726379,39.839123],[141.729126,39.831741],[141.734619,39.831214],[141.736679,39.82594],[141.730499,39.82805],[141.727753,39.82594],[141.72226,39.823831],[141.71608,39.823831],[141.708527,39.824886],[141.703033,39.824358],[141.700287,39.826468],[141.70372,39.829632],[141.709213,39.831741],[141.71608,39.838595],[141.718826,39.83965]]],[[[141.730499,39.82805],[141.736679,39.82594],[141.739426,39.821722],[141.739426,39.815393],[141.742172,39.811701],[141.740799,39.809591],[141.744919,39.806426],[141.744919,39.803789],[141.746292,39.802734],[141.739426,39.803789],[141.731186,39.805899],[141.725006,39.812228],[141.72226,39.81803],[141.720886,39.818557],[141.7202,39.816975],[141.71814,39.81803],[141.719513,39.819612],[141.717453,39.823831],[141.723633,39.824358],[141.728439,39.82594],[141.730499,39.82805]]],[[[141.720886,39.818557],[141.725006,39.812228],[141.731186,39.805899],[141.739426,39.803789],[141.746292,39.802734],[141.751099,39.800623],[141.751785,39.799041],[141.749039,39.794293],[141.739426,39.789544],[141.735992,39.785851],[141.731186,39.78374],[141.725693,39.778464],[141.717453,39.777408],[141.71402,39.776353],[141.710587,39.776353],[141.709213,39.777936],[141.710587,39.782157],[141.7099,39.784796],[141.7099,39.788489],[141.706467,39.794293],[141.707153,39.800623],[141.712646,39.803789],[141.713333,39.807481],[141.714706,39.808009],[141.719513,39.817502],[141.720886,39.816975],[141.720886,39.818557]]]]}},{"type":"Feature","properties":{"layer_id":"bakumatsu_villages","name":"猿沢村","address":"陸中 閉伊郡","source":"Geoshape 幕末期近世村領域データセット vector tiles (z7 extraction)","subarea_name":"近世村のおおよその範囲","feature_key":"village:K69G05S00101","accuracy_note":"2015年農業集落境界をもとに復元した概略範囲で、江戸時代の正確な村境ではありません"},"geometry":{"type":"MultiPolygon","coordinates":[[[[141.871262,39.832268],[141.874695,39.830159],[141.876755,39.831741],[141.878815,39.830159],[141.879501,39.825413],[141.882935,39.820667],[141.891174,39.819085],[141.892548,39.816975],[141.902161,39.813811],[141.903534,39.814338],[141.911087,39.810118],[141.909027,39.807481],[141.909027,39.800096],[141.907654,39.798513],[141.904907,39.799041],[141.903534,39.797458],[141.900787,39.799041],[141.899414,39.796931],[141.895981,39.796403],[141.893921,39.801151],[141.889801,39.804316],[141.890488,39.808536],[141.884308,39.810118],[141.876068,39.806954],[141.872635,39.806954],[141.869888,39.808009],[141.867828,39.807481],[141.865768,39.806426],[141.861649,39.800096],[141.854782,39.797458],[141.854095,39.795876],[141.844482,39.793238],[141.841049,39.795348],[141.840363,39.797986],[141.841736,39.804844],[141.843796,39.807481],[141.838989,39.808536],[141.831436,39.811701],[141.83075,39.814865],[141.835556,39.815393],[141.841049,39.816975],[141.844482,39.816448],[141.846542,39.816975],[141.854782,39.829104],[141.856842,39.830159],[141.860962,39.830686],[141.867142,39.829632],[141.871262,39.832268]]],[[[141.884308,39.810118],[141.890488,39.808536],[141.889801,39.804316],[141.893921,39.801151],[141.895981,39.796403],[141.894608,39.795348],[141.892548,39.795876],[141.890488,39.795348],[141.888428,39.793238],[141.888428,39.789544],[141.884308,39.786906],[141.879501,39.786906],[141.874695,39.785323],[141.869888,39.780047],[141.863708,39.780574],[141.865082,39.786906],[141.864395,39.79271],[141.861649,39.795876],[141.854095,39.795876],[141.854095,39.796931],[141.854782,39.797986],[141.862335,39.800096],[141.865768,39.806426],[141.867828,39.807481],[141.869888,39.808009],[141.872635,39.806954],[141.876068,39.806954],[141.884308,39.810118]]]]}},{"type":"Feature","properties":{"layer_id":"bakumatsu_villages","name":"穴沢村","address":"陸中 閉伊郡","source":"Geoshape 幕末期近世村領域データセット vector tiles (z7 extraction)","subarea_name":"近世村のおおよその範囲","feature_key":"village:K69G05S00128","accuracy_note":"2015年農業集落境界をもとに復元した概略範囲で、江戸時代の正確な村境ではありません"},"geometry":{"type":"MultiPolygon","coordinates":[[[[141.615143,39.870223],[141.624756,39.86548],[141.624069,39.862317],[141.627502,39.860736],[141.629562,39.858101],[141.622009,39.850721],[141.620636,39.847558],[141.617203,39.845976],[141.615143,39.840704],[141.61171,39.838595],[141.606903,39.83385],[141.60141,39.833323],[141.595917,39.828577],[141.590424,39.826468],[141.582184,39.837014],[141.580811,39.83965],[141.583557,39.846504],[141.581497,39.848085],[141.593857,39.855992],[141.596603,39.855992],[141.602097,39.856519],[141.604156,39.859155],[141.61171,39.86179],[141.613083,39.864425],[141.61377,39.868642],[141.615143,39.870223]]],[[[141.670761,39.871277],[141.670074,39.867061],[141.668701,39.866007],[141.668015,39.866534],[141.656342,39.860209],[141.654968,39.857574],[141.648102,39.857046],[141.646729,39.857574],[141.645355,39.860209],[141.648788,39.862844],[141.654282,39.864425],[141.660461,39.868642],[141.663208,39.868642],[141.663208,39.869696],[141.665268,39.871277],[141.670761,39.871277]]],[[[141.672134,39.872331],[141.677628,39.87075],[141.681747,39.87075],[141.685867,39.867061],[141.686554,39.86548],[141.681061,39.862844],[141.680374,39.858101],[141.673508,39.859155],[141.672134,39.862844],[141.668701,39.866007],[141.670761,39.868115],[141.670761,39.871277],[141.672134,39.872331]]],[[[141.668015,39.866534],[141.672134,39.862844],[141.673508,39.859155],[141.679688,39.858101],[141.676941,39.855465],[141.672821,39.854411],[141.674881,39.851248],[141.674881,39.847031],[141.670761,39.839123],[141.663208,39.837014],[141.658401,39.839123],[141.653595,39.837014],[141.652908,39.835432],[141.653595,39.832796],[141.652222,39.831214],[141.651535,39.827522],[141.648102,39.827522],[141.647415,39.82594],[141.643982,39.825413],[141.639175,39.819085],[141.632309,39.820667],[141.628876,39.817502],[141.625443,39.81803],[141.622696,39.815393],[141.620636,39.809591],[141.613083,39.811701],[141.60965,39.817502],[141.60759,39.818557],[141.602783,39.818557],[141.590424,39.826468],[141.595917,39.828577],[141.60141,39.833323],[141.606903,39.83385],[141.61171,39.838595],[141.615143,39.840177],[141.617203,39.845976],[141.620636,39.847558],[141.622009,39.850721],[141.629562,39.858101],[141.631622,39.857574],[141.635742,39.860209],[141.642609,39.860736],[141.646042,39.860209],[141.646729,39.857574],[141.647415,39.857046],[141.654968,39.857574],[141.656342,39.860209],[141.668015,39.866534]]]]}},{"type":"Feature","properties":{"layer_id":"bakumatsu_villages","name":"袰綿村","address":"陸中 閉伊郡","source":"Geoshape 幕末期近世村領域データセット vector tiles (z7 extraction)","subarea_name":"近世村のおおよその範囲","feature_key":"village:K69G05S00127","accuracy_note":"2015年農業集落境界をもとに復元した概略範囲で、江戸時代の正確な村境ではありません"},"geometry":{"type":"MultiPolygon","coordinates":[[[[141.696167,39.911843],[141.700974,39.90921],[141.709213,39.910263],[141.712646,39.908683],[141.713333,39.906049],[141.711273,39.902889],[141.71196,39.899728],[141.709213,39.896041],[141.710587,39.889192],[141.709213,39.886031],[141.705093,39.883396],[141.70372,39.8776],[141.704407,39.873912],[141.707153,39.871804],[141.708527,39.866534],[141.710587,39.86548],[141.709213,39.862844],[141.7099,39.859682],[141.708527,39.858101],[141.703033,39.857574],[141.694107,39.854411],[141.689987,39.849139],[141.686554,39.849139],[141.685867,39.849667],[141.685181,39.848612],[141.686554,39.847558],[141.683807,39.845449],[141.673508,39.84334],[141.673508,39.844922],[141.674881,39.847031],[141.674881,39.851248],[141.672821,39.854411],[141.675568,39.854938],[141.678314,39.856519],[141.681061,39.860209],[141.681061,39.862844],[141.686554,39.86548],[141.680374,39.873385],[141.681747,39.874966],[141.681747,39.880762],[141.679688,39.883923],[141.675568,39.886031],[141.676254,39.890246],[141.682434,39.900255],[141.687241,39.903416],[141.69136,39.909736],[141.694794,39.911843],[141.696167,39.911843]]],[[[141.7099,39.859682],[141.713333,39.856519],[141.713333,39.854938],[141.7099,39.850721],[141.7099,39.842813],[141.70784,39.840704],[141.709213,39.83965],[141.709213,39.837014],[141.70372,39.829632],[141.6996,39.82594],[141.687241,39.825413],[141.680374,39.822776],[141.668015,39.823304],[141.663208,39.82594],[141.659775,39.82594],[141.657028,39.828577],[141.652222,39.828577],[141.652222,39.830686],[141.653595,39.832796],[141.652908,39.835959],[141.654282,39.837014],[141.658401,39.839123],[141.663208,39.837014],[141.670074,39.839123],[141.673508,39.84334],[141.683807,39.845449],[141.686554,39.847558],[141.685181,39.848612],[141.685867,39.849667],[141.686554,39.849139],[141.689987,39.849139],[141.694794,39.854938],[141.708527,39.858101],[141.7099,39.859682]]]]}},{"type":"Feature","properties":{"layer_id":"bakumatsu_villages","name":"袰野村","address":"陸中 閉伊郡","source":"Geoshape 幕末期近世村領域データセット vector tiles (z7 extraction)","subarea_name":"近世村のおおよその範囲","feature_key":"village:K69G05S00099","accuracy_note":"2015年農業集落境界をもとに復元した概略範囲で、江戸時代の正確な村境ではありません"},"geometry":{"type":"Polygon","coordinates":[[[141.902161,39.860209],[141.904221,39.859155],[141.90834,39.859155],[141.909714,39.856519],[141.913834,39.851775],[141.920013,39.850721],[141.920013,39.84334],[141.917953,39.838595],[141.91246,39.834377],[141.907654,39.83385],[141.903534,39.835432],[141.892548,39.831741],[141.893234,39.830159],[141.891174,39.829632],[141.890488,39.826468],[141.891861,39.824886],[141.891861,39.819085],[141.888428,39.820139],[141.882935,39.820667],[141.879501,39.825413],[141.878815,39.830159],[141.876068,39.832796],[141.876068,39.835432],[141.876755,39.839123],[141.879501,39.842813],[141.886368,39.845449],[141.890488,39.848612],[141.891861,39.858101],[141.896667,39.857046],[141.898041,39.859155],[141.902161,39.860209]]]}},{"type":"Feature","properties":{"layer_id":"bakumatsu_villages","name":"釜津田村","address":"陸中 閉伊郡","source":"Geoshape 幕末期近世村領域データセット vector tiles (z7 extraction)","subarea_name":"近世村のおおよその範囲","feature_key":"village:K69G05S00089","accuracy_note":"2015年農業集落境界をもとに復元した概略範囲で、江戸時代の正確な村境ではありません"},"geometry":{"type":"MultiPolygon","coordinates":[[[[141.4991,39.79482],[141.507339,39.78374],[141.511459,39.781102],[141.517639,39.772659],[141.527252,39.771075],[141.536179,39.765797],[141.540298,39.764742],[141.540985,39.763686],[141.541672,39.759991],[141.540985,39.757352],[141.542358,39.755241],[141.541672,39.746794],[141.539612,39.743626],[141.531372,39.740458],[141.538239,39.729898],[141.536865,39.724617],[141.532745,39.721448],[141.531372,39.715638],[141.530685,39.711413],[141.533432,39.705602],[141.532745,39.704545],[141.526566,39.702961],[141.517639,39.704545],[141.512146,39.704545],[141.495667,39.706658],[141.48674,39.703489],[141.485367,39.698206],[141.479187,39.696621],[141.477127,39.692922],[141.469574,39.686582],[141.469574,39.68394],[141.467514,39.680769],[141.458588,39.681298],[141.453094,39.679184],[141.446915,39.680241],[141.441422,39.679184],[141.435242,39.67707],[141.425629,39.67707],[141.422195,39.679184],[141.421509,39.683411],[141.420135,39.686582],[141.414642,39.687639],[141.411209,39.690809],[141.408463,39.691866],[141.409149,39.702961],[141.405029,39.702961],[141.39473,39.708771],[141.395416,39.716694],[141.399536,39.719863],[141.39679,39.72356],[141.397476,39.726201],[141.39473,39.72937],[141.396103,39.735178],[141.398849,39.736762],[141.400909,39.736762],[141.401596,39.742042],[141.39679,39.74785],[141.409836,39.759991],[141.416016,39.758936],[141.418762,39.757352],[141.420135,39.757352],[141.422195,39.756296],[141.424942,39.75788],[141.430435,39.757352],[141.437302,39.759464],[141.445541,39.76527],[141.451721,39.766853],[141.459274,39.767381],[141.468201,39.763686],[141.473694,39.76527],[141.477127,39.769492],[141.477814,39.775825],[141.483994,39.77688],[141.485367,39.777936],[141.487427,39.782685],[141.487427,39.784268],[141.488113,39.785323],[141.489487,39.791127],[141.4991,39.79482]]],[[[141.510086,39.879181],[141.514206,39.8776],[141.521759,39.878127],[141.526566,39.872331],[141.534805,39.871804],[141.539612,39.87075],[141.543732,39.866534],[141.543732,39.864952],[141.552658,39.86179],[141.554718,39.859155],[141.554718,39.86179],[141.557465,39.86179],[141.558838,39.859682],[141.562271,39.858628],[141.565704,39.859155],[141.570511,39.857046],[141.571198,39.854938],[141.573944,39.853357],[141.576004,39.853357],[141.577377,39.851248],[141.583557,39.847031],[141.581497,39.839123],[141.58287,39.834905],[141.590424,39.826468],[141.583557,39.823304],[141.580811,39.820139],[141.578751,39.81592],[141.573944,39.815393],[141.572571,39.813283],[141.567764,39.813283],[141.562271,39.810118],[141.556778,39.813283],[141.554718,39.816448],[141.552658,39.816448],[141.540985,39.813283],[141.527252,39.812756],[141.525192,39.81592],[141.519699,39.819612],[141.521072,39.822249],[141.518326,39.826468],[141.519012,39.828577],[141.516266,39.835959],[141.513519,39.838068],[141.514206,39.840177],[141.510773,39.847031],[141.507339,39.850194],[141.50528,39.854938],[141.50322,39.855992],[141.503906,39.861263],[141.506653,39.864425],[141.507339,39.871804],[141.505966,39.874966],[141.506653,39.877073],[141.505966,39.879181],[141.510086,39.879181]]],[[[141.503906,39.810646],[141.506653,39.808536],[141.511459,39.808009],[141.516266,39.809064],[141.522446,39.806954],[141.526566,39.802206],[141.529312,39.796931],[141.542358,39.785851],[141.547165,39.78374],[141.549225,39.781102],[141.547852,39.771603],[141.543045,39.768436],[141.540298,39.764742],[141.536179,39.765797],[141.526566,39.771075],[141.517639,39.772659],[141.511459,39.781102],[141.507339,39.78374],[141.4991,39.79482],[141.50116,39.801151],[141.499786,39.803261],[141.499786,39.805899],[141.497726,39.808009],[141.503906,39.810646]]],[[[141.554718,39.816448],[141.556778,39.813283],[141.562271,39.810118],[141.561584,39.803789],[141.558838,39.797986],[141.563644,39.786906],[141.557465,39.775297],[141.562958,39.763686],[141.559525,39.759464],[141.548538,39.75788],[141.544418,39.755769],[141.542358,39.755241],[141.540985,39.756824],[141.541672,39.759991],[141.540298,39.76527],[141.547852,39.771603],[141.549225,39.781102],[141.547165,39.78374],[141.542358,39.785851],[141.529312,39.796931],[141.526566,39.802206],[141.522446,39.806954],[141.525192,39.811173],[141.527252,39.812756],[141.540985,39.813283],[141.552658,39.816448],[141.554718,39.816448]]],[[[141.590424,39.826468],[141.602783,39.818557],[141.60759,39.818557],[141.60965,39.817502],[141.613083,39.811701],[141.620636,39.809591],[141.617889,39.802206],[141.61377,39.800623],[141.611023,39.79482],[141.606216,39.794293],[141.60553,39.79271],[141.60141,39.79271],[141.59935,39.79482],[141.592484,39.791127],[141.591797,39.79271],[141.59317,39.793765],[141.59317,39.79482],[141.589737,39.797458],[141.579437,39.798513],[141.570511,39.803789],[141.561584,39.803789],[141.562271,39.810118],[141.567764,39.813283],[141.572571,39.813283],[141.573944,39.815393],[141.578751,39.81592],[141.580811,39.820139],[141.583557,39.823304],[141.590424,39.826468]]],[[[141.570511,39.803789],[141.579437,39.798513],[141.589737,39.797458],[141.59317,39.793765],[141.591797,39.79271],[141.592484,39.791127],[141.587677,39.788489],[141.580811,39.781102],[141.579437,39.778464],[141.577377,39.777408],[141.575317,39.774769],[141.572571,39.773186],[141.569824,39.768436],[141.569824,39.766853],[141.562958,39.763686],[141.557465,39.773714],[141.558151,39.77688],[141.563644,39.786906],[141.558838,39.797986],[141.561584,39.803789],[141.570511,39.803789]]]]}},{"type":"Feature","properties":{"layer_id":"bakumatsu_villages","name":"門村","address":"陸中 閉伊郡","source":"Geoshape 幕末期近世村領域データセット vector tiles (z7 extraction)","subarea_name":"近世村のおおよその範囲","feature_key":"village:K69G05S00129","accuracy_note":"2015年農業集落境界をもとに復元した概略範囲で、江戸時代の正確な村境ではありません"},"geometry":{"type":"MultiPolygon","coordinates":[[[[141.587677,39.955543],[141.592484,39.951333],[141.59523,39.95028],[141.59523,39.947648],[141.59729,39.945542],[141.60347,39.943436],[141.604843,39.943963],[141.602097,39.938698],[141.60347,39.936592],[141.602783,39.931854],[141.59729,39.925535],[141.591797,39.91079],[141.58699,39.906576],[141.580811,39.907629],[141.573257,39.904996],[141.569138,39.904996],[141.565704,39.902889],[141.562271,39.902362],[141.560211,39.900782],[141.552658,39.901835],[141.551285,39.903416],[141.555405,39.908156],[141.560211,39.910263],[141.563644,39.916056],[141.560898,39.918689],[141.560898,39.921849],[141.558838,39.923956],[141.559525,39.926588],[141.558838,39.928695],[141.563644,39.930274],[141.565018,39.931854],[141.573944,39.936592],[141.576691,39.937119],[141.577377,39.939225],[141.580811,39.941331],[141.582184,39.946069],[141.580811,39.948701],[141.58287,39.95028],[141.583557,39.953438],[141.587677,39.955543]]],[[[141.631622,39.939751],[141.639175,39.939225],[141.645355,39.938172],[141.646729,39.936066],[141.648102,39.936066],[141.644669,39.931854],[141.643982,39.927642],[141.642609,39.907103],[141.644669,39.904996],[141.643295,39.901309],[141.637802,39.900255],[141.637115,39.899202],[141.630936,39.904996],[141.633682,39.910263],[141.631622,39.915003],[141.623383,39.911843],[141.619949,39.908156],[141.620636,39.903942],[141.619949,39.901309],[141.617203,39.900782],[141.614456,39.902362],[141.608276,39.91553],[141.60759,39.920269],[141.608963,39.927115],[141.615143,39.930801],[141.617889,39.936066],[141.622696,39.939751],[141.627502,39.938698],[141.631622,39.939751]]],[[[141.615829,39.944489],[141.619263,39.94291],[141.622696,39.939751],[141.617889,39.936066],[141.615143,39.930801],[141.608963,39.927115],[141.60759,39.919216],[141.611023,39.908683],[141.602783,39.904996],[141.60141,39.902362],[141.60141,39.898148],[141.606216,39.89446],[141.610336,39.893934],[141.612396,39.891826],[141.613083,39.889192],[141.616516,39.887085],[141.614456,39.883923],[141.606216,39.8776],[141.598663,39.880235],[141.594543,39.878127],[141.58493,39.876019],[141.582184,39.876546],[141.579437,39.878127],[141.576691,39.876019],[141.569824,39.874966],[141.562958,39.871804],[141.560898,39.872331],[141.551285,39.869696],[141.540298,39.870223],[141.537552,39.871277],[141.526566,39.872331],[141.521759,39.878127],[141.514206,39.8776],[141.508713,39.879708],[141.4991,39.878127],[141.491547,39.881816],[141.483994,39.882869],[141.487427,39.88445],[141.485367,39.889719],[141.486053,39.891826],[141.481934,39.892353],[141.48262,39.894987],[141.481934,39.896568],[141.483994,39.897621],[141.485367,39.900782],[141.489487,39.904469],[141.4991,39.905523],[141.50322,39.903416],[141.507339,39.906576],[141.510086,39.907103],[141.513519,39.910263],[141.516266,39.91079],[141.519699,39.910263],[141.525879,39.91079],[141.528625,39.908683],[141.531372,39.908156],[141.536179,39.908683],[141.537552,39.906576],[141.542358,39.905523],[141.543732,39.906049],[141.545792,39.904469],[141.548538,39.904469],[141.549225,39.903416],[141.551285,39.903416],[141.552658,39.901835],[141.560211,39.900782],[141.562271,39.902362],[141.565704,39.902889],[141.569138,39.904996],[141.573257,39.904996],[141.580811,39.907629],[141.58699,39.906576],[141.591797,39.91079],[141.59729,39.925535],[141.602783,39.931854],[141.60347,39.936592],[141.602097,39.938698],[141.604843,39.943963],[141.60965,39.943436],[141.613083,39.944489],[141.615829,39.944489]]],[[[141.598663,39.880235],[141.606216,39.8776],[141.61171,39.876546],[141.615829,39.878127],[141.618576,39.878127],[141.626816,39.876546],[141.631622,39.874439],[141.629562,39.870223],[141.625443,39.866007],[141.624756,39.86548],[141.615143,39.870223],[141.61377,39.868642],[141.613083,39.864425],[141.61171,39.86179],[141.604156,39.859155],[141.602097,39.856519],[141.596603,39.855992],[141.593857,39.855992],[141.581497,39.848085],[141.577377,39.851248],[141.576004,39.853357],[141.573944,39.853357],[141.571198,39.854938],[141.570511,39.857046],[141.565704,39.859155],[141.561584,39.858628],[141.558838,39.859682],[141.557465,39.86179],[141.554718,39.86179],[141.554031,39.859155],[141.552658,39.86179],[141.543732,39.864952],[141.543732,39.866534],[141.540298,39.870223],[141.551971,39.869696],[141.556091,39.871277],[141.560898,39.872331],[141.562271,39.871804],[141.569824,39.874966],[141.576691,39.876019],[141.579437,39.878127],[141.582184,39.876546],[141.58493,39.876019],[141.594543,39.878127],[141.598663,39.880235]]],[[[141.631622,39.915003],[141.633682,39.910263],[141.630936,39.904996],[141.637115,39.899202],[141.633682,39.898148],[141.627502,39.893934],[141.622009,39.89288],[141.621323,39.889719],[141.617889,39.889719],[141.616516,39.887611],[141.613083,39.889192],[141.612396,39.891826],[141.610336,39.893934],[141.606216,39.89446],[141.60141,39.898675],[141.600723,39.900255],[141.602097,39.903942],[141.60347,39.905523],[141.611023,39.908683],[141.614456,39.902362],[141.616516,39.900782],[141.618576,39.900782],[141.620636,39.903416],[141.620636,39.908683],[141.623383,39.911843],[141.631622,39.915003]]],[[[141.643295,39.901309],[141.643295,39.898675],[141.646729,39.896041],[141.648788,39.896041],[141.648788,39.893934],[141.642609,39.892353],[141.641235,39.889719],[141.635056,39.885504],[141.630936,39.883923],[141.627502,39.879708],[141.619263,39.878127],[141.615829,39.878127],[141.61171,39.876546],[141.606903,39.877073],[141.606216,39.8776],[141.615829,39.885504],[141.616516,39.887611],[141.617889,39.889719],[141.621323,39.889719],[141.622009,39.89288],[141.628189,39.893934],[141.633682,39.898148],[141.637802,39.900255],[141.643295,39.901309]]],[[[141.648788,39.893934],[141.647415,39.892353],[141.648788,39.889719],[141.648102,39.883923],[141.649475,39.879708],[141.648788,39.878127],[141.646729,39.878127],[141.646729,39.877073],[141.645355,39.876019],[141.648788,39.874966],[141.637115,39.871277],[141.635056,39.864952],[141.636429,39.862317],[141.639175,39.860736],[141.635742,39.860209],[141.632996,39.858101],[141.630249,39.857574],[141.627502,39.860736],[141.624756,39.86179],[141.624069,39.863371],[141.624756,39.86548],[141.629562,39.870223],[141.631622,39.874966],[141.626816,39.876546],[141.619949,39.878127],[141.628189,39.880235],[141.630936,39.883923],[141.635056,39.885504],[141.639862,39.889192],[141.642609,39.892353],[141.648788,39.893934]]],[[[141.649475,39.936066],[141.658401,39.932907],[141.659775,39.928695],[141.662521,39.927115],[141.669388,39.926062],[141.672821,39.921849],[141.676254,39.919743],[141.681747,39.919216],[141.685181,39.91553],[141.687927,39.914476],[141.689301,39.912896],[141.692734,39.911316],[141.686554,39.902889],[141.682434,39.900255],[141.680374,39.895514],[141.677628,39.893407],[141.676254,39.889719],[141.676254,39.885504],[141.674881,39.883396],[141.672821,39.882343],[141.662521,39.881816],[141.657028,39.882869],[141.648102,39.887611],[141.648788,39.896041],[141.646729,39.896041],[141.643295,39.898675],[141.643295,39.901309],[141.644669,39.904996],[141.642609,39.907103],[141.643982,39.927642],[141.644669,39.931854],[141.649475,39.936066]]],[[[141.648102,39.887611],[141.657028,39.882869],[141.662521,39.881816],[141.657715,39.879708],[141.652908,39.873912],[141.635742,39.864425],[141.635056,39.86548],[141.637115,39.871277],[141.648788,39.874966],[141.645355,39.876019],[141.646729,39.877073],[141.646729,39.878127],[141.648788,39.878127],[141.649475,39.879708],[141.648102,39.883923],[141.648102,39.887611]]],[[[141.676254,39.885504],[141.679688,39.883396],[141.681747,39.880235],[141.681747,39.874966],[141.680374,39.873385],[141.681747,39.87075],[141.677628,39.87075],[141.672134,39.872331],[141.665268,39.871277],[141.663208,39.869696],[141.663208,39.868642],[141.660461,39.868642],[141.654968,39.864425],[141.649475,39.862844],[141.644669,39.860209],[141.642609,39.860736],[141.639175,39.860736],[141.636429,39.862317],[141.635742,39.864425],[141.652908,39.873912],[141.658401,39.880235],[141.665955,39.882343],[141.673508,39.882343],[141.676254,39.885504]]]]}},{"type":"Feature","properties":{"layer_id":"bakumatsu_villages","name":"鼠入村","address":"陸中 閉伊郡","source":"Geoshape 幕末期近世村領域データセット vector tiles (z7 extraction)","subarea_name":"近世村のおおよその範囲","feature_key":"village:K69G05S00102","accuracy_note":"2015年農業集落境界をもとに復元した概略範囲で、江戸時代の正確な村境ではありません"},"geometry":{"type":"MultiPolygon","coordinates":[[[[141.783371,39.810646],[141.788177,39.808009],[141.792984,39.806426],[141.795044,39.801151],[141.794357,39.798513],[141.795731,39.792182],[141.794357,39.788489],[141.779938,39.783213],[141.775131,39.779519],[141.771011,39.775297],[141.754532,39.771075],[141.751785,39.772131],[141.754532,39.778464],[141.753845,39.781102],[141.757278,39.785851],[141.755219,39.789544],[141.754532,39.795876],[141.751099,39.800623],[141.756592,39.805371],[141.760025,39.805899],[141.762085,39.804316],[141.766205,39.804316],[141.770325,39.806426],[141.777191,39.808009],[141.783371,39.810646]]],[[[141.803284,39.814338],[141.81015,39.811173],[141.812897,39.806954],[141.817703,39.802734],[141.817017,39.801151],[141.811523,39.799041],[141.807404,39.792182],[141.80191,39.789017],[141.794357,39.788489],[141.795731,39.792182],[141.794357,39.798513],[141.795044,39.802206],[141.792984,39.806954],[141.788177,39.808009],[141.783371,39.810646],[141.785431,39.814338],[141.789551,39.813283],[141.803284,39.814338]]],[[[141.752472,39.799568],[141.754532,39.795876],[141.755219,39.789544],[141.757278,39.785851],[141.753845,39.781102],[141.754532,39.778464],[141.751785,39.772131],[141.748352,39.771603],[141.738739,39.761047],[141.734619,39.75788],[141.733932,39.755241],[141.735306,39.751545],[141.732559,39.75049],[141.727066,39.749434],[141.722946,39.747322],[141.721573,39.745738],[141.716766,39.747322],[141.71402,39.75049],[141.7099,39.75049],[141.706467,39.753657],[141.700974,39.753657],[141.698227,39.756296],[141.70166,39.761575],[141.700287,39.766325],[141.70372,39.768436],[141.706467,39.768964],[141.711273,39.772659],[141.710587,39.776353],[141.725693,39.778464],[141.731186,39.78374],[141.735992,39.785851],[141.739426,39.789544],[141.749039,39.793765],[141.751785,39.799568],[141.752472,39.799568]]]]}},{"type":"Feature","properties":{"layer_id":"edo_post_stations","name":"小本","address":"","source":"CODH 江戸宿場データセット Version 1 (2026-08)","feature_key":"post:R210-006"},"geometry":{"coordinates":[141.9692,39.84384],"type":"Point"}},{"type":"Feature","properties":{"layer_id":"edo_post_stations","name":"岩泉","address":"","source":"CODH 江戸宿場データセット Version 1 (2026-08)","feature_key":"post:R210-005"},"geometry":{"type":"Point","coordinates":[141.790513,39.846556]}},{"type":"Feature","properties":{"layer_id":"edo_post_stations","name":"袰綿","address":"","source":"CODH 江戸宿場データセット Version 1 (2026-08)","feature_key":"post:R210-004"},"geometry":{"type":"Point","coordinates":[141.6873,39.8548]}},{"type":"Feature","properties":{"layer_id":"edo_post_stations","name":"門","address":"","source":"CODH 江戸宿場データセット Version 1 (2026-08)","feature_key":"post:R210-003"},"geometry":{"type":"Point","coordinates":[141.6517,39.87724]}},{"type":"Feature","properties":{"layer_id":"historical_sites_archaeology","name":"小本川塩引御用役所跡","address":"岩手県 下閉伊郡岩泉町 小本","source":"Geoshape 日本歴史地名大系 施設・地点項目データセット 2025-05-15","subarea_name":"史跡","feature_key":"09_historic_sites.geojson:030000171600","subtype":"史跡"},"geometry":{"type":"Point","coordinates":[141.954852,39.866033]}},{"type":"Feature","properties":{"layer_id":"historical_sites_archaeology","name":"岩泉通代官所跡","address":"岩手県 下閉伊郡岩泉町 岩泉","source":"Geoshape 日本歴史地名大系 施設・地点項目データセット 2025-05-15","subarea_name":"史跡","feature_key":"09_historic_sites.geojson:030000169700","subtype":"史跡"},"geometry":{"type":"Point","coordinates":[141.791436,39.844306]}},{"type":"Feature","properties":{"layer_id":"historical_sites_archaeology","name":"森の越遺跡","address":"岩手県 下閉伊郡岩泉町 岩泉","source":"Geoshape 日本歴史地名大系 施設・地点項目データセット 2025-05-15","subarea_name":"遺跡","feature_key":"08_archaeological_sites.geojson:030000169900","subtype":"遺跡"},"geometry":{"type":"Point","coordinates":[141.800432,39.847084]}},{"type":"Feature","properties":{"layer_id":"historical_sites_archaeology","name":"笹平鉄山跡","address":"岩手県 下閉伊郡岩泉町 上有芸","source":"Geoshape 日本歴史地名大系 施設・地点項目データセット 2025-05-15","subarea_name":"史跡","feature_key":"09_historic_sites.geojson:030000171000","subtype":"史跡"},"geometry":{"type":"Point","coordinates":[141.791718,39.746]}},{"type":"Feature","properties":{"layer_id":"historical_sites_archaeology","name":"袰綿館跡","address":"岩手県 下閉伊郡岩泉町 袰綿","source":"Geoshape 日本歴史地名大系 施設・地点項目データセット 2025-05-15","subarea_name":"史跡","feature_key":"09_historic_sites.geojson:030000172300","subtype":"史跡"},"geometry":{"type":"Point","coordinates":[141.696714,39.866262]}},{"type":"Feature","properties":{"layer_id":"historical_sites_archaeology","name":"龍泉新洞遺跡","address":"岩手県 下閉伊郡岩泉町 岩泉","source":"Geoshape 日本歴史地名大系 施設・地点項目データセット 2025-05-15","subarea_name":"遺跡","feature_key":"08_archaeological_sites.geojson:030000170100","subtype":"遺跡"},"geometry":{"type":"Point","coordinates":[141.797757,39.860774]}},{"type":"Feature","properties":{"layer_id":"historical_temples_shrines","name":"大川寺","address":"岩手県 下閉伊郡岩泉町 大川字日蔭道の上114番地","source":"Geoshape 日本歴史地名大系 施設・地点項目データセット 2025-05-15","subarea_name":"寺院","feature_key":"01_temples.geojson:030000172000","subtype":"寺院"},"geometry":{"type":"Point","coordinates":[141.650955,39.800156]}},{"type":"Feature","properties":{"layer_id":"historical_temples_shrines","name":"大神宮","address":"岩手県 下閉伊郡岩泉町 岩泉天間21番地","source":"Geoshape 日本歴史地名大系 施設・地点項目データセット 2025-05-15","subarea_name":"神社","feature_key":"02_shrines.geojson:030000169800","subtype":"神社"},"geometry":{"type":"Point","coordinates":[141.785614,39.847408]}},{"type":"Feature","properties":{"layer_id":"historical_temples_shrines","name":"宗得寺","address":"岩手県 下閉伊郡岩泉町 小本小本21番地","source":"Geoshape 日本歴史地名大系 施設・地点項目データセット 2025-05-15","subarea_name":"寺院","feature_key":"01_temples.geojson:030000171700","subtype":"寺院"},"geometry":{"type":"Point","coordinates":[141.970352,39.842327]}},{"type":"Feature","properties":{"layer_id":"historical_temples_shrines","name":"正徳寺","address":"岩手県 下閉伊郡岩泉町 中里字下中里21番地","source":"Geoshape 日本歴史地名大系 施設・地点項目データセット 2025-05-15","subarea_name":"寺院","feature_key":"01_temples.geojson:030000171300","subtype":"寺院"},"geometry":{"type":"Point","coordinates":[141.917252,39.832153]}},{"type":"Feature","properties":{"layer_id":"historical_temples_shrines","name":"洞岩寺","address":"岩手県 下閉伊郡岩泉町 袰綿字本町63番地","source":"Geoshape 日本歴史地名大系 施設・地点項目データセット 2025-05-15","subarea_name":"寺院","feature_key":"01_temples.geojson:030000172400","subtype":"寺院"},"geometry":{"type":"Point","coordinates":[141.687164,39.854427]}},{"type":"Feature","properties":{"layer_id":"historical_temples_shrines","name":"観音堂","address":"岩手県 下閉伊郡岩泉町 袰綿","source":"Geoshape 日本歴史地名大系 施設・地点項目データセット 2025-05-15","subarea_name":"寺院","feature_key":"01_temples.geojson:030000172600","subtype":"寺院"},"geometry":{"type":"Point","coordinates":[141.696714,39.866262]}}]}