{"type":"FeatureCollection","municipality_code":"05363","pref":"秋田県","city":"八郎潟町","layer_counts":{"bakumatsu_villages":7,"edo_post_stations":1,"edo_roads":1,"historical_sites_archaeology":1,"historical_temples_shrines":1},"total_features":11,"features":[{"type":"Feature","properties":{"layer_id":"bakumatsu_villages","name":"一日市村","address":"羽後 秋田郡","source":"Geoshape 幕末期近世村領域データセット vector tiles (z7 extraction)","subarea_name":"近世村のおおよその範囲","feature_key":"village:K74G02S00249","accuracy_note":"2015年農業集落境界をもとに復元した概略範囲で、江戸時代の正確な村境ではありません"},"geometry":{"type":"Polygon","coordinates":[[[140.056458,39.95607],[140.07019,39.952385],[140.074997,39.952385],[140.074997,39.951859],[140.077057,39.951859],[140.079117,39.946069],[140.08255,39.946595],[140.083237,39.948174],[140.085297,39.948174],[140.085297,39.940278],[140.08049,39.938698],[140.075684,39.940278],[140.066757,39.936592],[140.064011,39.936066],[140.063324,39.936592],[140.061264,39.936592],[140.059891,39.93396],[140.057144,39.932907],[140.055771,39.93396],[140.056458,39.936066],[140.049591,39.936592],[140.044098,39.940278],[140.050964,39.946069],[140.056458,39.95607]]]}},{"type":"Feature","properties":{"layer_id":"bakumatsu_villages","name":"夜叉袋村","address":"羽後 秋田郡","source":"Geoshape 幕末期近世村領域データセット vector tiles (z7 extraction)","subarea_name":"近世村のおおよその範囲","feature_key":"village:K74G02S00250","accuracy_note":"2015年農業集落境界をもとに復元した概略範囲で、江戸時代の正確な村境ではありません"},"geometry":{"type":"MultiPolygon","coordinates":[[[[140.061264,39.963964],[140.07225,39.961333],[140.077057,39.963438],[140.079117,39.961333],[140.08667,39.959754],[140.085983,39.958175],[140.083923,39.958175],[140.083923,39.955017],[140.079803,39.955017],[140.074997,39.953964],[140.074997,39.952385],[140.07019,39.952385],[140.056458,39.95607],[140.061264,39.963964]]],[[[140.083923,39.955017],[140.08461,39.953964],[140.088043,39.951859],[140.083237,39.948174],[140.08255,39.946595],[140.079117,39.946069],[140.077057,39.951859],[140.074997,39.951859],[140.074997,39.953964],[140.079803,39.955017],[140.083923,39.955017]]]]}},{"type":"Feature","properties":{"layer_id":"bakumatsu_villages","name":"小池村","address":"羽後 秋田郡","source":"Geoshape 幕末期近世村領域データセット vector tiles (z7 extraction)","subarea_name":"近世村のおおよその範囲","feature_key":"village:K74G02S00253","accuracy_note":"2015年農業集落境界をもとに復元した概略範囲で、江戸時代の正確な村境ではありません"},"geometry":{"type":"Polygon","coordinates":[[[140.09079,39.961859],[140.090103,39.959228],[140.09697,39.953964],[140.095596,39.953438],[140.096283,39.952912],[140.091476,39.951859],[140.092163,39.949227],[140.08873,39.947121],[140.08461,39.946069],[140.085297,39.946595],[140.085297,39.948174],[140.083237,39.948174],[140.088043,39.951859],[140.08461,39.953964],[140.083923,39.958175],[140.085983,39.958175],[140.08667,39.959754],[140.088043,39.959228],[140.09079,39.961859]]]}},{"type":"Feature","properties":{"layer_id":"bakumatsu_villages","name":"川崎村","address":"羽後 秋田郡","source":"Geoshape 幕末期近世村領域データセット vector tiles (z7 extraction)","subarea_name":"近世村のおおよその範囲","feature_key":"village:K74G02S00254","accuracy_note":"2015年農業集落境界をもとに復元した概略範囲で、江戸時代の正確な村境ではありません"},"geometry":{"type":"Polygon","coordinates":[[[140.106583,39.951859],[140.107956,39.949753],[140.105209,39.946595],[140.108643,39.943963],[140.105209,39.944489],[140.103836,39.942384],[140.103149,39.941857],[140.096283,39.943436],[140.093536,39.94291],[140.08873,39.938698],[140.088043,39.942384],[140.085983,39.943436],[140.08461,39.942384],[140.08461,39.946069],[140.087357,39.946595],[140.092163,39.949227],[140.09285,39.945542],[140.101089,39.945542],[140.105896,39.949227],[140.105896,39.95028],[140.105209,39.951333],[140.106583,39.951859]]]}},{"type":"Feature","properties":{"layer_id":"bakumatsu_villages","name":"泉沢村・浦横町村・小立花村","address":"羽後 秋田郡","source":"Geoshape 幕末期近世村領域データセット vector tiles (z7 extraction)","subarea_name":"近世村のおおよその範囲","feature_key":"village:K74G02S00124,K74G02S00255,K74G02S00257","accuracy_note":"2015年農業集落境界をもとに復元した概略範囲で、江戸時代の正確な村境ではありません"},"geometry":{"type":"MultiPolygon","coordinates":[[[[140.101776,39.969753],[140.101089,39.968175],[140.102463,39.968175],[140.107269,39.961859],[140.101776,39.962386],[140.09285,39.957122],[140.090103,39.959228],[140.092163,39.964491],[140.094223,39.965543],[140.09491,39.967648],[140.094223,39.968175],[140.09491,39.969753],[140.101776,39.969753]]],[[[140.09697,39.953964],[140.09285,39.957122],[140.101776,39.962386],[140.107269,39.961859],[140.111389,39.958175],[140.114136,39.951859],[140.112762,39.949753],[140.110703,39.949753],[140.110703,39.948174],[140.107269,39.949227],[140.107956,39.95028],[140.106583,39.951333],[140.103836,39.950806],[140.101776,39.951333],[140.097656,39.953964],[140.09697,39.953964]]]]}},{"type":"Feature","properties":{"layer_id":"bakumatsu_villages","name":"浦大町村","address":"羽後 秋田郡","source":"Geoshape 幕末期近世村領域データセット vector tiles (z7 extraction)","subarea_name":"近世村のおおよその範囲","feature_key":"village:K74G02S00252","accuracy_note":"2015年農業集落境界をもとに復元した概略範囲で、江戸時代の正確な村境ではありません"},"geometry":{"type":"Polygon","coordinates":[[[140.116882,39.979751],[140.121002,39.978699],[140.118256,39.975542],[140.118942,39.972911],[140.117569,39.971332],[140.119629,39.970279],[140.118942,39.967122],[140.114822,39.964491],[140.114822,39.959754],[140.112762,39.958701],[140.110703,39.958175],[140.106583,39.961859],[140.105896,39.964491],[140.102463,39.968175],[140.101089,39.968175],[140.101776,39.969753],[140.09491,39.969753],[140.094223,39.968175],[140.09491,39.967648],[140.094223,39.965543],[140.092163,39.964491],[140.09079,39.961859],[140.088043,39.959228],[140.079117,39.961333],[140.077057,39.963438],[140.077744,39.965543],[140.081863,39.965017],[140.083923,39.963438],[140.08461,39.964491],[140.081863,39.966069],[140.085297,39.966596],[140.08667,39.972911],[140.08873,39.973963],[140.08873,39.975015],[140.101089,39.97712],[140.103149,39.975015],[140.107956,39.975015],[140.108643,39.978172],[140.113449,39.978172],[140.114136,39.979225],[140.116882,39.979751]]]}},{"type":"Feature","properties":{"layer_id":"bakumatsu_villages","name":"真坂村","address":"羽後 秋田郡","source":"Geoshape 幕末期近世村領域データセット vector tiles (z7 extraction)","subarea_name":"近世村のおおよその範囲","feature_key":"village:K74G02S00251","accuracy_note":"2015年農業集落境界をもとに復元した概略範囲で、江戸時代の正確な村境ではありません"},"geometry":{"type":"Polygon","coordinates":[[[140.06813,39.987117],[140.07843,39.986065],[140.079117,39.98396],[140.077744,39.982908],[140.079803,39.981329],[140.085297,39.976594],[140.08873,39.975015],[140.08873,39.973963],[140.08667,39.972911],[140.085297,39.966596],[140.081863,39.966069],[140.08461,39.964491],[140.083923,39.963438],[140.081863,39.965017],[140.077744,39.965543],[140.07637,39.962386],[140.07225,39.961333],[140.061264,39.963964],[140.06813,39.982382],[140.06813,39.987117]]]}},{"type":"Feature","properties":{"layer_id":"edo_post_stations","name":"一日市宿","address":"","source":"CODH 江戸宿場データセット Version 1 (2026-08)","subarea_name":"羽州街道","feature_key":"post:R201-050"},"geometry":{"type":"Point","coordinates":[140.076758,39.942073]}},{"type":"Feature","properties":{"layer_id":"edo_roads","name":"羽州街道","address":"桑折 → 油川","source":"CODH 江戸主要街道データセット Version 4 (2026-08)","subarea_name":"江戸期の主要街道","feature_key":"road:R201"},"geometry":{"type":"LineString","coordinates":[[140.073916,39.940312],[140.076027,39.942236],[140.076397,39.942728],[140.077139,39.945538],[140.076996,39.947189],[140.076925,39.948971],[140.076597,39.951879],[140.076212,39.953759],[140.075599,39.955694],[140.074101,39.957323],[140.073916,39.957924],[140.073845,39.958558],[140.07393,39.959367],[140.074572,39.961608],[140.076055,39.965554],[140.07741,39.968133],[140.078465,39.970581],[140.078822,39.971904],[140.078736,39.973696],[140.078807,39.975029],[140.077781,39.976024],[140.07634,39.978078],[140.076226,39.979007],[140.076554,39.980133],[140.075128,39.984591],[140.075356,39.985006],[140.076012,39.98482],[140.076369,39.985258],[140.076269,39.986033]]}},{"type":"Feature","properties":{"layer_id":"historical_sites_archaeology","name":"浦城跡","address":"秋田県 南秋田郡八郎潟町 浦大町","source":"Geoshape 日本歴史地名大系 施設・地点項目データセット 2025-05-15","subarea_name":"城跡","feature_key":"05_castle_ruins.geojson:050000166300","subtype":"城跡"},"geometry":{"type":"Point","coordinates":[140.09553,39.969786]}},{"type":"Feature","properties":{"layer_id":"historical_temples_shrines","name":"副川神社","address":"秋田県 南秋田郡八郎潟町 浦大町字小坂浦大町45番地","source":"Geoshape 日本歴史地名大系 施設・地点項目データセット 2025-05-15","subarea_name":"神社","feature_key":"02_shrines.geojson:050000166400","subtype":"神社"},"geometry":{"type":"Point","coordinates":[140.088107,39.973765]}}]}