{"type":"FeatureCollection","municipality_code":"06461","pref":"山形県","city":"遊佐町","layer_counts":{"bakumatsu_villages":54,"edo_post_stations":1,"edo_roads":1,"historical_sites_archaeology":11,"historical_temples_shrines":7},"total_features":74,"features":[{"type":"Feature","properties":{"layer_id":"bakumatsu_villages","name":"三川村","address":"羽後 飽海郡","source":"Geoshape 幕末期近世村領域データセット vector tiles (z7 extraction)","subarea_name":"近世村のおおよその範囲","feature_key":"village:K74G01S00169","accuracy_note":"2015年農業集落境界をもとに復元した概略範囲で、江戸時代の正確な村境ではありません"},"geometry":{"type":"Polygon","coordinates":[[[139.926682,38.99624],[139.934921,38.994639],[139.934235,38.993038],[139.936981,38.992505],[139.936295,38.990904],[139.931488,38.99037],[139.930801,38.992505],[139.923248,38.991437],[139.922562,38.99037],[139.919128,38.99037],[139.921188,38.993038],[139.926682,38.993572],[139.926682,38.99624]]]}},{"type":"Feature","properties":{"layer_id":"bakumatsu_villages","name":"上大内野目村","address":"羽後 飽海郡","source":"Geoshape 幕末期近世村領域データセット vector tiles (z7 extraction)","subarea_name":"近世村のおおよその範囲","feature_key":"village:K74G01S00170","accuracy_note":"2015年農業集落境界をもとに復元した概略範囲で、江戸時代の正確な村境ではありません"},"geometry":{"type":"Polygon","coordinates":[[[139.923935,38.999442],[139.931488,38.998909],[139.931488,38.997308],[139.935608,38.996774],[139.934921,38.994639],[139.926682,38.99624],[139.926682,38.993572],[139.921188,38.993038],[139.918442,38.99037],[139.919128,38.993572],[139.910202,38.991437],[139.910889,38.997841],[139.920502,38.997308],[139.919815,38.998909],[139.923248,38.998375],[139.923935,38.999442]]]}},{"type":"Feature","properties":{"layer_id":"bakumatsu_villages","name":"上小松村","address":"羽後 飽海郡","source":"Geoshape 幕末期近世村領域データセット vector tiles (z7 extraction)","subarea_name":"近世村のおおよその範囲","feature_key":"village:K74G01S00172","accuracy_note":"2015年農業集落境界をもとに復元した概略範囲で、江戸時代の正確な村境ではありません"},"geometry":{"type":"Polygon","coordinates":[[[139.911575,39.005312],[139.928741,39.004245],[139.928055,38.999442],[139.923935,38.999442],[139.923248,38.998375],[139.919815,38.998909],[139.920502,38.997308],[139.910889,38.997841],[139.911575,39.005312]]]}},{"type":"Feature","properties":{"layer_id":"bakumatsu_villages","name":"上楸島村・下楸島村","address":"羽後 飽海郡","source":"Geoshape 幕末期近世村領域データセット vector tiles (z7 extraction)","subarea_name":"近世村のおおよその範囲","feature_key":"village:K74G01S00223,K74G01S00224","accuracy_note":"2015年農業集落境界をもとに復元した概略範囲で、江戸時代の正確な村境ではありません"},"geometry":{"type":"Polygon","coordinates":[[[139.894409,39.029852],[139.898529,39.028786],[139.899216,39.027185],[139.897156,39.022384],[139.891663,39.021851],[139.890289,39.023985],[139.888229,39.024518],[139.889603,39.029319],[139.893036,39.028252],[139.894409,39.029852]]]}},{"type":"Feature","properties":{"layer_id":"bakumatsu_villages","name":"上江地村・下江地村・五歩市村","address":"羽後 飽海郡","source":"Geoshape 幕末期近世村領域データセット vector tiles (z7 extraction)","subarea_name":"近世村のおおよその範囲","feature_key":"village:K74G01S00218,K74G01S00219,K74G01S00227","accuracy_note":"2015年農業集落境界をもとに復元した概略範囲で、江戸時代の正確な村境ではありません"},"geometry":{"type":"Polygon","coordinates":[[[139.882736,39.030919],[139.889603,39.029319],[139.887543,39.024518],[139.890289,39.023985],[139.891663,39.021851],[139.894409,39.020784],[139.894409,39.018117],[139.889603,39.01865],[139.889603,39.022384],[139.882736,39.023985],[139.881363,39.023985],[139.882736,39.030919]]]}},{"type":"Feature","properties":{"layer_id":"bakumatsu_villages","name":"上福山村・下福山村","address":"羽後 飽海郡","source":"Geoshape 幕末期近世村領域データセット vector tiles (z7 extraction)","subarea_name":"近世村のおおよその範囲","feature_key":"village:K74G01S00092,K74G01S00093","accuracy_note":"2015年農業集落境界をもとに復元した概略範囲で、江戸時代の正確な村境ではありません"},"geometry":{"type":"Polygon","coordinates":[[[139.956207,38.995707],[139.958954,38.991437],[139.96376,38.988769],[139.96582,38.985033],[139.962387,38.984499],[139.958954,38.984499],[139.954834,38.982898],[139.945908,38.982364],[139.943161,38.982364],[139.942474,38.983432],[139.940414,38.98183],[139.940414,38.981297],[139.936981,38.979695],[139.935608,38.98183],[139.938354,38.982364],[139.934921,38.987168],[139.943848,38.989303],[139.946594,38.990904],[139.947281,38.993572],[139.952087,38.995173],[139.956207,38.995707]]]}},{"type":"Feature","properties":{"layer_id":"bakumatsu_villages","name":"上野新田村","address":"羽後 飽海郡","source":"Geoshape 幕末期近世村領域データセット vector tiles (z7 extraction)","subarea_name":"近世村のおおよその範囲","feature_key":"village:K74G01S10003","accuracy_note":"2015年農業集落境界をもとに復元した概略範囲で、江戸時代の正確な村境ではありません"},"geometry":{"type":"MultiPolygon","coordinates":[[[[139.958267,39.041586],[139.9617,39.037853],[139.967194,39.035186],[139.96788,39.03412],[139.96582,39.031986],[139.960327,39.028786],[139.958954,39.025585],[139.956894,39.028252],[139.952774,39.026652],[139.947281,39.033053],[139.958267,39.041586]]],[[[140.004959,39.087436],[140.008392,39.084771],[140.009766,39.085304],[140.007706,39.081573],[140.004959,39.08104],[140.004272,39.079441],[140.000839,39.076776],[139.995346,39.07571],[139.987106,39.064515],[139.987793,39.062915],[139.989853,39.061316],[139.99054,39.055984],[139.989853,39.055984],[139.989853,39.054385],[139.98848,39.053851],[139.98642,39.050652],[139.9823,39.049585],[139.981613,39.046386],[139.985046,39.046919],[139.98436,39.044253],[139.9823,39.041586],[139.979553,39.039986],[139.98024,39.042653],[139.97818,39.04212],[139.97406,39.03892],[139.974747,39.041586],[139.972687,39.037853],[139.96788,39.03412],[139.967194,39.035186],[139.9617,39.037853],[139.958267,39.041586],[139.954834,39.044253],[139.958267,39.049585],[139.957581,39.053318],[139.96376,39.056517],[139.96582,39.061849],[139.96788,39.061316],[139.971313,39.062915],[139.97406,39.062382],[139.976807,39.063449],[139.979553,39.067181],[139.983673,39.067714],[139.989166,39.071445],[139.993286,39.076776],[139.998093,39.078375],[140.000839,39.080507],[140.004959,39.087436]]]]}},{"type":"Feature","properties":{"layer_id":"bakumatsu_villages","name":"上野沢村・下野沢新田村","address":"羽後 飽海郡","source":"Geoshape 幕末期近世村領域データセット vector tiles (z7 extraction)","subarea_name":"近世村のおおよその範囲","feature_key":"village:K74G01S00231,K74G01S00232","accuracy_note":"2015年農業集落境界をもとに復元した概略範囲で、江戸時代の正確な村境ではありません"},"geometry":{"type":"MultiPolygon","coordinates":[[[[139.934235,39.048519],[139.935608,39.046386],[139.937668,39.046919],[139.937668,39.043186],[139.935608,39.042653],[139.936981,39.04052],[139.936295,39.036786],[139.940414,39.03572],[139.940414,39.031986],[139.937668,39.031453],[139.936981,39.033586],[139.932175,39.030386],[139.932175,39.023451],[139.925308,39.023451],[139.924622,39.025585],[139.918442,39.025585],[139.919128,39.027719],[139.918442,39.027719],[139.917755,39.025585],[139.916382,39.026119],[139.916382,39.029852],[139.917755,39.033053],[139.921188,39.031986],[139.923248,39.033053],[139.928055,39.039986],[139.927368,39.043186],[139.930801,39.044253],[139.932175,39.047452],[139.934235,39.048519]]],[[[139.936981,39.033586],[139.937668,39.031453],[139.941788,39.031986],[139.942474,39.029852],[139.943848,39.028786],[139.931488,39.022384],[139.931488,39.023451],[139.932175,39.023451],[139.932861,39.030919],[139.936981,39.033586]]]]}},{"type":"Feature","properties":{"layer_id":"bakumatsu_villages","name":"上長橋村","address":"羽後 飽海郡","source":"Geoshape 幕末期近世村領域データセット vector tiles (z7 extraction)","subarea_name":"近世村のおおよその範囲","feature_key":"village:K74G01S00176","accuracy_note":"2015年農業集落境界をもとに復元した概略範囲で、江戸時代の正確な村境ではありません"},"geometry":{"type":"Polygon","coordinates":[[[139.918442,39.009047],[139.919815,39.007446],[139.929428,39.007446],[139.928741,39.004245],[139.911575,39.005312],[139.911575,39.009047],[139.918442,39.009047]]]}},{"type":"Feature","properties":{"layer_id":"bakumatsu_villages","name":"下大内野目村","address":"羽後 飽海郡","source":"Geoshape 幕末期近世村領域データセット vector tiles (z7 extraction)","subarea_name":"近世村のおおよその範囲","feature_key":"village:K74G01S00171","accuracy_note":"2015年農業集落境界をもとに復元した概略範囲で、江戸時代の正確な村境ではありません"},"geometry":{"type":"Polygon","coordinates":[[[139.919128,38.993572],[139.918442,38.99037],[139.917755,38.989303],[139.908142,38.989303],[139.908142,38.990904],[139.919128,38.993572]]]}},{"type":"Feature","properties":{"layer_id":"bakumatsu_villages","name":"下宮田村・向宮田村・万部村・大宮田村・宮田村","address":"羽後 飽海郡","source":"Geoshape 幕末期近世村領域データセット vector tiles (z7 extraction)","subarea_name":"近世村のおおよその範囲","feature_key":"village:K74G01S00220,K74G01S00221,K74G01S00222,K74G01S00225,K74G01S00226","accuracy_note":"2015年農業集落境界をもとに復元した概略範囲で、江戸時代の正確な村境ではありません"},"geometry":{"type":"MultiPolygon","coordinates":[[[[139.88205,39.04052],[139.884796,39.03732],[139.88205,39.026119],[139.877243,39.026652],[139.87999,39.03572],[139.872437,39.03732],[139.873123,39.039453],[139.880676,39.039453],[139.88205,39.04052]]],[[[139.899216,39.031453],[139.898529,39.031453],[139.898529,39.031986],[139.897842,39.032519],[139.898529,39.028786],[139.894409,39.029852],[139.893036,39.028252],[139.882736,39.030919],[139.884796,39.03732],[139.88205,39.04052],[139.884109,39.047452],[139.884796,39.045319],[139.889603,39.04212],[139.891663,39.04212],[139.894409,39.039986],[139.898529,39.03412],[139.899216,39.031453]]]]}},{"type":"Feature","properties":{"layer_id":"bakumatsu_villages","name":"下小松村","address":"羽後 飽海郡","source":"Geoshape 幕末期近世村領域データセット vector tiles (z7 extraction)","subarea_name":"近世村のおおよその範囲","feature_key":"village:K74G01S00174","accuracy_note":"2015年農業集落境界をもとに復元した概略範囲で、江戸時代の正確な村境ではありません"},"geometry":{"type":"Polygon","coordinates":[[[139.910889,38.998375],[139.901276,38.998909],[139.903336,39.003178],[139.905396,39.004778],[139.907455,39.004778],[139.911575,39.005312],[139.910889,38.998375]]]}},{"type":"Feature","properties":{"layer_id":"bakumatsu_villages","name":"下当村","address":"羽後 飽海郡","source":"Geoshape 幕末期近世村領域データセット vector tiles (z7 extraction)","subarea_name":"近世村のおおよその範囲","feature_key":"village:K74G01S00239","accuracy_note":"2015年農業集落境界をもとに復元した概略範囲で、江戸時代の正確な村境ではありません"},"geometry":{"type":"MultiPolygon","coordinates":[[[[139.914322,39.058117],[139.918442,39.055984],[139.922562,39.047452],[139.919815,39.045853],[139.915009,39.043719],[139.915009,39.042653],[139.912262,39.04212],[139.912949,39.041586],[139.909515,39.04052],[139.909515,39.03892],[139.908829,39.03892],[139.906082,39.043719],[139.903336,39.046919],[139.907455,39.049052],[139.904709,39.052785],[139.906769,39.054385],[139.911575,39.052252],[139.912262,39.057051],[139.914322,39.058117]]],[[[139.922562,39.047452],[139.924622,39.045319],[139.924622,39.044253],[139.921875,39.042653],[139.919815,39.043719],[139.918442,39.039453],[139.916382,39.037853],[139.910889,39.03732],[139.909515,39.03892],[139.909515,39.04052],[139.912949,39.041586],[139.912262,39.04212],[139.915009,39.042653],[139.915009,39.043719],[139.919815,39.045853],[139.922562,39.047452]]],[[[139.980927,39.098095],[139.987106,39.093831],[139.98642,39.087969],[139.981613,39.087436],[139.978867,39.085837],[139.977493,39.084238],[139.970627,39.08104],[139.96788,39.078908],[139.962387,39.078375],[139.957581,39.078375],[139.948654,39.076776],[139.945221,39.073578],[139.940414,39.071445],[139.938354,39.069313],[139.938354,39.065581],[139.936981,39.063982],[139.936981,39.060783],[139.936295,39.05865],[139.933548,39.055451],[139.931488,39.055451],[139.932175,39.053318],[139.930115,39.053318],[139.930115,39.051718],[139.927368,39.050119],[139.927368,39.048519],[139.925308,39.046919],[139.926682,39.045853],[139.925308,39.044253],[139.921875,39.048519],[139.918442,39.055984],[139.914322,39.058117],[139.912262,39.057051],[139.913635,39.05865],[139.912262,39.059183],[139.914322,39.062915],[139.923248,39.067714],[139.928741,39.073578],[139.941101,39.078375],[139.944534,39.081573],[139.947968,39.082639],[139.949341,39.084771],[139.954834,39.085304],[139.960327,39.087969],[139.96376,39.087969],[139.969254,39.0917],[139.970627,39.0917],[139.97406,39.094897],[139.97612,39.094897],[139.980927,39.098095]]]]}},{"type":"Feature","properties":{"layer_id":"bakumatsu_villages","name":"下野沢村","address":"羽後 飽海郡","source":"Geoshape 幕末期近世村領域データセット vector tiles (z7 extraction)","subarea_name":"近世村のおおよその範囲","feature_key":"village:K74G01S00230","accuracy_note":"2015年農業集落境界をもとに復元した概略範囲で、江戸時代の正確な村境ではありません"},"geometry":{"type":"Polygon","coordinates":[[[139.912262,39.03572],[139.916382,39.03412],[139.917755,39.033053],[139.916382,39.029852],[139.909515,39.030386],[139.909515,39.031986],[139.908142,39.03412],[139.912262,39.03572]]]}},{"type":"Feature","properties":{"layer_id":"bakumatsu_villages","name":"下長橋村","address":"羽後 飽海郡","source":"Geoshape 幕末期近世村領域データセット vector tiles (z7 extraction)","subarea_name":"近世村のおおよその範囲","feature_key":"village:K74G01S00175","accuracy_note":"2015年農業集落境界をもとに復元した概略範囲で、江戸時代の正確な村境ではありません"},"geometry":{"type":"Polygon","coordinates":[[[139.908142,39.005845],[139.907455,39.006379],[139.900589,39.006379],[139.900589,39.00798],[139.902649,39.00798],[139.903336,39.00958],[139.911575,39.009047],[139.911575,39.004778],[139.907455,39.004778],[139.908142,39.005845]]]}},{"type":"Feature","properties":{"layer_id":"bakumatsu_villages","name":"中山新田村","address":"羽後 飽海郡","source":"Geoshape 幕末期近世村領域データセット vector tiles (z7 extraction)","subarea_name":"近世村のおおよその範囲","feature_key":"village:K74G01S00243","accuracy_note":"2015年農業集落境界をもとに復元した概略範囲で、江戸時代の正確な村境ではありません"},"geometry":{"type":"Polygon","coordinates":[[[139.895096,39.060783],[139.895096,39.061316],[139.908829,39.061316],[139.908829,39.059716],[139.911575,39.059716],[139.911575,39.05865],[139.913635,39.05865],[139.911575,39.054385],[139.904022,39.058117],[139.897156,39.05865],[139.895096,39.060783]]]}},{"type":"Feature","properties":{"layer_id":"bakumatsu_villages","name":"丸子村","address":"羽後 飽海郡","source":"Geoshape 幕末期近世村領域データセット vector tiles (z7 extraction)","subarea_name":"近世村のおおよその範囲","feature_key":"village:K74G01S00237","accuracy_note":"2015年農業集落境界をもとに復元した概略範囲で、江戸時代の正確な村境ではありません"},"geometry":{"type":"MultiPolygon","coordinates":[[[[139.884109,39.068247],[139.886169,39.067181],[139.884109,39.065581],[139.88205,39.067714],[139.884109,39.068247]]],[[[139.886169,39.067181],[139.893036,39.060783],[139.898529,39.057051],[139.897156,39.055984],[139.896469,39.057051],[139.891663,39.054385],[139.890289,39.056517],[139.888916,39.055451],[139.888229,39.062382],[139.884109,39.065581],[139.886169,39.067181]]],[[[139.890289,39.056517],[139.894409,39.051718],[139.893036,39.050652],[139.896469,39.045319],[139.893723,39.043719],[139.893036,39.041053],[139.890976,39.04212],[139.889603,39.04212],[139.884796,39.045319],[139.884109,39.047452],[139.884109,39.050119],[139.886169,39.052785],[139.886856,39.053851],[139.889603,39.053318],[139.888916,39.055451],[139.890289,39.056517]]]]}},{"type":"Feature","properties":{"layer_id":"bakumatsu_villages","name":"京田村","address":"羽後 飽海郡","source":"Geoshape 幕末期近世村領域データセット vector tiles (z7 extraction)","subarea_name":"近世村のおおよその範囲","feature_key":"village:K74G01S00229","accuracy_note":"2015年農業集落境界をもとに復元した概略範囲で、江戸時代の正確な村境ではありません"},"geometry":{"type":"MultiPolygon","coordinates":[[[[139.908142,39.03412],[139.909515,39.031986],[139.909515,39.030386],[139.912949,39.029852],[139.912949,39.026119],[139.914322,39.026119],[139.914322,39.023985],[139.908829,39.024518],[139.907455,39.027185],[139.901962,39.028786],[139.902649,39.030386],[139.904022,39.032519],[139.906769,39.031986],[139.908142,39.03412]]],[[[139.916382,39.029852],[139.916382,39.026119],[139.915695,39.026119],[139.915695,39.023985],[139.914322,39.023985],[139.914322,39.026119],[139.912949,39.026119],[139.912949,39.029852],[139.916382,39.029852]]]]}},{"type":"Feature","properties":{"layer_id":"bakumatsu_villages","name":"仙北新田村・南福升村・北福升村・鵜沼村","address":"羽後 飽海郡","source":"Geoshape 幕末期近世村領域データセット vector tiles (z7 extraction)","subarea_name":"近世村のおおよその範囲","feature_key":"village:K74G01S00205,K74G01S00208,K74G01S00209,K74G01S00210","accuracy_note":"2015年農業集落境界をもとに復元した概略範囲で、江戸時代の正確な村境ではありません"},"geometry":{"type":"MultiPolygon","coordinates":[[[[139.87793,39.027185],[139.88205,39.026119],[139.881363,39.023985],[139.882736,39.023985],[139.87999,39.016516],[139.87587,39.017583],[139.875183,39.016516],[139.87381,39.016516],[139.876556,39.023451],[139.876556,39.025052],[139.87793,39.027185]]],[[[139.882736,39.023985],[139.889603,39.022384],[139.889603,39.020784],[139.890289,39.020251],[139.890289,39.01865],[139.897842,39.017583],[139.899216,39.012782],[139.896469,39.012782],[139.896469,39.011715],[139.888916,39.012782],[139.887543,39.011715],[139.888229,39.013315],[139.883423,39.013849],[139.884109,39.015983],[139.87999,39.016516],[139.882736,39.023985]]]]}},{"type":"Feature","properties":{"layer_id":"bakumatsu_villages","name":"六日町村・八日町村・十日町村","address":"羽後 飽海郡","source":"Geoshape 幕末期近世村領域データセット vector tiles (z7 extraction)","subarea_name":"近世村のおおよその範囲","feature_key":"village:K74G01S00186,K74G01S00187,K74G01S00188","accuracy_note":"2015年農業集落境界をもとに復元した概略範囲で、江戸時代の正確な村境ではありません"},"geometry":{"type":"Polygon","coordinates":[[[139.906082,39.022384],[139.916382,39.01705],[139.923248,39.016516],[139.923248,39.015449],[139.919128,39.014382],[139.917755,39.009047],[139.903336,39.00958],[139.902649,39.00798],[139.900589,39.008513],[139.896469,39.009047],[139.896469,39.010648],[139.899902,39.010114],[139.900589,39.011181],[139.898529,39.013315],[139.897842,39.017583],[139.894409,39.018117],[139.894409,39.019717],[139.901962,39.01865],[139.902649,39.020784],[139.905396,39.020251],[139.906082,39.022384]]]}},{"type":"Feature","properties":{"layer_id":"bakumatsu_villages","name":"北目村・北目新田村","address":"羽後 飽海郡","source":"Geoshape 幕末期近世村領域データセット vector tiles (z7 extraction)","subarea_name":"近世村のおおよその範囲","feature_key":"village:K74G01S00233,K74G01S00234","accuracy_note":"2015年農業集落境界をもとに復元した概略範囲で、江戸時代の正確な村境ではありません"},"geometry":{"type":"MultiPolygon","coordinates":[[[[139.901962,39.045319],[139.904022,39.042653],[139.906082,39.043719],[139.910202,39.03732],[139.912949,39.03732],[139.910889,39.035186],[139.908829,39.034653],[139.906769,39.03732],[139.903336,39.03892],[139.900589,39.03892],[139.893723,39.043719],[139.895096,39.044786],[139.895782,39.043719],[139.899216,39.045319],[139.899902,39.044253],[139.901962,39.045319]]],[[[139.924622,39.044253],[139.927368,39.042653],[139.928055,39.039986],[139.921875,39.031986],[139.917755,39.032519],[139.912949,39.035186],[139.910889,39.035186],[139.913635,39.037853],[139.916382,39.037853],[139.918442,39.039453],[139.919815,39.043719],[139.921875,39.042653],[139.924622,39.044253]]]]}},{"type":"Feature","properties":{"layer_id":"bakumatsu_villages","name":"十里塚村","address":"羽後 飽海郡","source":"Geoshape 幕末期近世村領域データセット vector tiles (z7 extraction)","subarea_name":"近世村のおおよその範囲","feature_key":"village:K74G01S00216","accuracy_note":"2015年農業集落境界をもとに復元した概略範囲で、江戸時代の正確な村境ではありません"},"geometry":{"type":"MultiPolygon","coordinates":[[[[139.866943,39.053851],[139.87793,39.051185],[139.875183,39.041586],[139.874496,39.041586],[139.875183,39.044786],[139.864197,39.046919],[139.866943,39.053851]]],[[[139.864197,39.046919],[139.875183,39.044786],[139.874496,39.041586],[139.875183,39.041586],[139.875183,39.039453],[139.873123,39.039453],[139.872437,39.03732],[139.871063,39.03412],[139.870377,39.034653],[139.864197,39.016516],[139.853897,39.019717],[139.864197,39.046919]]],[[[139.88205,39.067714],[139.880676,39.065048],[139.88205,39.057051],[139.87999,39.056517],[139.878616,39.053851],[139.876556,39.057051],[139.87381,39.058117],[139.875183,39.063982],[139.87587,39.065581],[139.88205,39.067714]]]]}},{"type":"Feature","properties":{"layer_id":"bakumatsu_villages","name":"升川村","address":"羽後 飽海郡","source":"Geoshape 幕末期近世村領域データセット vector tiles (z7 extraction)","subarea_name":"近世村のおおよその範囲","feature_key":"village:K74G01S00241","accuracy_note":"2015年農業集落境界をもとに復元した概略範囲で、江戸時代の正確な村境ではありません"},"geometry":{"type":"Polygon","coordinates":[[[139.97818,39.099693],[139.980927,39.098095],[139.97612,39.094897],[139.97406,39.094897],[139.972,39.092233],[139.969254,39.0917],[139.964447,39.088502],[139.958267,39.087436],[139.954834,39.085304],[139.949341,39.084771],[139.947968,39.082639],[139.944534,39.081573],[139.941101,39.078375],[139.928741,39.073578],[139.923248,39.067714],[139.914322,39.062915],[139.911575,39.05865],[139.911575,39.059716],[139.908829,39.059716],[139.908829,39.061316],[139.895096,39.061316],[139.894409,39.059716],[139.891663,39.061849],[139.893036,39.062915],[139.895782,39.063982],[139.908829,39.064515],[139.909515,39.068247],[139.920502,39.073045],[139.926682,39.078375],[139.926682,39.078908],[139.933548,39.082639],[139.938354,39.083705],[139.945221,39.087969],[139.949341,39.091167],[139.949341,39.094897],[139.952087,39.096496],[139.954147,39.098627],[139.965134,39.09543],[139.97818,39.099693]]]}},{"type":"Feature","properties":{"layer_id":"bakumatsu_villages","name":"吉出村","address":"羽後 飽海郡","source":"Geoshape 幕末期近世村領域データセット vector tiles (z7 extraction)","subarea_name":"近世村のおおよその範囲","feature_key":"village:K74G01S00228","accuracy_note":"2015年農業集落境界をもとに復元した概略範囲で、江戸時代の正確な村境ではありません"},"geometry":{"type":"MultiPolygon","coordinates":[[[[139.906769,39.026119],[139.908829,39.025585],[139.908829,39.024518],[139.911575,39.024518],[139.909515,39.020251],[139.906082,39.022384],[139.906769,39.026119]]],[[[139.911575,39.024518],[139.914322,39.023985],[139.914322,39.017583],[139.909515,39.020251],[139.911575,39.024518]]],[[[139.991226,39.059183],[139.991226,39.056517],[139.992599,39.053318],[139.993973,39.052785],[139.989853,39.045319],[139.989166,39.039986],[139.989853,39.035186],[139.98642,39.031986],[139.985046,39.028252],[139.97818,39.023451],[139.96788,39.022384],[139.959641,39.019717],[139.958267,39.021851],[139.958954,39.025585],[139.960327,39.028786],[139.96582,39.031986],[139.96994,39.03572],[139.972687,39.038386],[139.974747,39.041586],[139.97406,39.03892],[139.98024,39.042653],[139.979553,39.039986],[139.983673,39.042653],[139.985046,39.046919],[139.981613,39.046386],[139.9823,39.049585],[139.987793,39.051185],[139.98848,39.053318],[139.99054,39.054918],[139.99054,39.059183],[139.991226,39.059183]]],[[[140.014572,39.084238],[140.023499,39.082639],[140.017319,39.06878],[140.017319,39.066647],[140.019379,39.061849],[140.017319,39.057051],[140.018005,39.052785],[140.015259,39.050119],[140.013885,39.045853],[140.011826,39.044253],[140.011139,39.04212],[140.011139,39.039986],[140.008392,39.03892],[140.007706,39.036253],[139.996033,39.026119],[139.99054,39.025585],[139.987106,39.026652],[139.985046,39.028252],[139.98642,39.031986],[139.989853,39.035186],[139.989166,39.039986],[139.989853,39.045319],[139.993973,39.052785],[139.992599,39.053318],[139.991226,39.056517],[139.991226,39.059183],[139.987793,39.062915],[139.987106,39.064515],[139.995346,39.07571],[140.000153,39.076243],[140.004272,39.079441],[140.004959,39.08104],[140.007019,39.08104],[140.008392,39.082106],[140.014572,39.084238]]],[[[139.919128,39.027719],[139.918442,39.025585],[139.924622,39.025585],[139.924622,39.021851],[139.926682,39.021318],[139.925308,39.019717],[139.926682,39.019184],[139.926682,39.017583],[139.929428,39.018117],[139.929428,39.01705],[139.923248,39.016516],[139.914322,39.017583],[139.914322,39.023985],[139.915695,39.023985],[139.915695,39.026119],[139.917755,39.025585],[139.918442,39.027719],[139.919128,39.027719]]],[[[139.931488,39.023451],[139.931488,39.022384],[139.933548,39.023451],[139.935608,39.021318],[139.939728,39.020251],[139.940414,39.01705],[139.929428,39.01705],[139.929428,39.018117],[139.926682,39.017583],[139.926682,39.019184],[139.925308,39.019717],[139.926682,39.021318],[139.924622,39.021851],[139.925308,39.023451],[139.931488,39.023451]]],[[[139.942474,39.03732],[139.950027,39.031453],[139.952774,39.026652],[139.948654,39.025052],[139.950714,39.023451],[139.950027,39.020784],[139.950714,39.020251],[139.949341,39.017583],[139.947281,39.01705],[139.940414,39.01705],[139.939728,39.020251],[139.935608,39.021318],[139.933548,39.023451],[139.943848,39.028786],[139.942474,39.029852],[139.942474,39.031453],[139.940414,39.031986],[139.940414,39.03572],[139.942474,39.03732]]],[[[139.956894,39.028252],[139.958954,39.026119],[139.958267,39.021851],[139.959641,39.019717],[139.952774,39.016516],[139.949341,39.016516],[139.947281,39.01705],[139.949341,39.017583],[139.950714,39.020251],[139.950027,39.020784],[139.950714,39.023451],[139.948654,39.025052],[139.956894,39.028252]]]]}},{"type":"Feature","properties":{"layer_id":"bakumatsu_villages","name":"吹浦村","address":"羽後 飽海郡","source":"Geoshape 幕末期近世村領域データセット vector tiles (z7 extraction)","subarea_name":"近世村のおおよその範囲","feature_key":"village:K74G01S00245","accuracy_note":"2015年農業集落境界をもとに復元した概略範囲で、江戸時代の正確な村境ではありません"},"geometry":{"type":"MultiPolygon","coordinates":[[[[139.86969,39.070379],[139.86969,39.070912],[139.86969,39.071978],[139.866943,39.074111],[139.868317,39.074111],[139.872437,39.077842],[139.87175,39.079974],[139.871063,39.080507],[139.87793,39.080507],[139.881363,39.079441],[139.884109,39.081573],[139.888229,39.082106],[139.891663,39.081573],[139.892349,39.079441],[139.893723,39.078908],[139.899216,39.079974],[139.905396,39.078908],[139.897842,39.075177],[139.897156,39.074111],[139.892349,39.072511],[139.891663,39.071445],[139.888916,39.070912],[139.886856,39.068247],[139.881363,39.067714],[139.87587,39.065581],[139.87381,39.058117],[139.876556,39.057051],[139.878616,39.053851],[139.87793,39.051185],[139.866943,39.053851],[139.870377,39.066647],[139.86969,39.066647],[139.86969,39.069313],[139.87175,39.06878],[139.872437,39.070912],[139.86969,39.070379]]],[[[139.86557,39.067714],[139.864883,39.067714],[139.864197,39.069313],[139.86557,39.067714]]],[[[139.86969,39.070379],[139.86969,39.069846],[139.86763,39.068247],[139.86969,39.070379]]],[[[140.061951,39.133789],[140.061264,39.111415],[140.066757,39.098627],[140.061951,39.093298],[140.059891,39.083172],[140.050964,39.076776],[140.014572,39.084238],[140.008392,39.082106],[140.009766,39.085304],[140.008392,39.084771],[140.006332,39.085304],[140.004272,39.087969],[139.998779,39.087436],[139.994659,39.091167],[139.98642,39.087969],[139.987106,39.093831],[139.97818,39.099693],[139.965134,39.09543],[139.954147,39.098627],[139.952087,39.096496],[139.949341,39.094897],[139.949341,39.091167],[139.947968,39.089568],[139.940414,39.084771],[139.933548,39.082639],[139.927368,39.078908],[139.919128,39.081573],[139.915695,39.080507],[139.912262,39.08104],[139.909515,39.078908],[139.899216,39.079974],[139.893723,39.078908],[139.892349,39.079441],[139.891663,39.081573],[139.898529,39.090101],[139.904022,39.090101],[139.945221,39.113014],[139.947968,39.117276],[139.993973,39.105554],[139.997406,39.11621],[140.007706,39.123136],[140.061951,39.133789]]]]}},{"type":"Feature","properties":{"layer_id":"bakumatsu_villages","name":"大井村","address":"羽後 飽海郡","source":"Geoshape 幕末期近世村領域データセット vector tiles (z7 extraction)","subarea_name":"近世村のおおよその範囲","feature_key":"village:K74G01S00204","accuracy_note":"2015年農業集落境界をもとに復元した概略範囲で、江戸時代の正確な村境ではありません"},"geometry":{"type":"Polygon","coordinates":[[[139.883423,39.013849],[139.888229,39.013315],[139.887543,39.011715],[139.888916,39.012782],[139.896469,39.011715],[139.896469,39.012782],[139.899902,39.012248],[139.899902,39.010114],[139.896469,39.010648],[139.895782,39.007446],[139.892349,39.007446],[139.892349,39.006379],[139.890289,39.005845],[139.888916,38.999442],[139.884796,38.999976],[139.886169,39.009047],[139.885483,39.009047],[139.886169,39.011715],[139.88205,39.011715],[139.883423,39.013849]]]}},{"type":"Feature","properties":{"layer_id":"bakumatsu_villages","name":"大服部村","address":"羽後 飽海郡","source":"Geoshape 幕末期近世村領域データセット vector tiles (z7 extraction)","subarea_name":"近世村のおおよその範囲","feature_key":"village:K74G01S00206","accuracy_note":"2015年農業集落境界をもとに復元した概略範囲で、江戸時代の正確な村境ではありません"},"geometry":{"type":"Polygon","coordinates":[[[139.87999,39.016516],[139.884109,39.015983],[139.88205,39.011715],[139.886169,39.011715],[139.885483,39.009047],[139.886169,39.009047],[139.884796,38.999976],[139.880676,39.000509],[139.881363,39.003711],[139.87793,39.004245],[139.879303,39.010648],[139.87793,39.011715],[139.87999,39.016516]]]}},{"type":"Feature","properties":{"layer_id":"bakumatsu_villages","name":"大楯村・大楯新田村","address":"羽後 飽海郡","source":"Geoshape 幕末期近世村領域データセット vector tiles (z7 extraction)","subarea_name":"近世村のおおよその範囲","feature_key":"village:K74G01S00189,K74G01S00190","accuracy_note":"2015年農業集落境界をもとに復元した概略範囲で、江戸時代の正確な村境ではありません"},"geometry":{"type":"Polygon","coordinates":[[[139.934235,39.01705],[139.934921,39.015449],[139.926682,39.013315],[139.925308,39.007446],[139.919815,39.007446],[139.917755,39.009047],[139.919128,39.014382],[139.923248,39.015449],[139.923248,39.016516],[139.934235,39.01705]]]}},{"type":"Feature","properties":{"layer_id":"bakumatsu_villages","name":"大淵村・蕨岡村","address":"羽後 飽海郡","source":"Geoshape 幕末期近世村領域データセット vector tiles (z7 extraction)","subarea_name":"近世村のおおよその範囲","feature_key":"village:K74G01S00178,K74G01S00184","accuracy_note":"2015年農業集落境界をもとに復元した概略範囲で、江戸時代の正確な村境ではありません"},"geometry":{"type":"Polygon","coordinates":[[[139.935608,38.996774],[139.941101,38.99624],[139.942474,38.993572],[139.946594,38.991971],[139.945908,38.99037],[139.942474,38.988769],[139.941788,38.991437],[139.934235,38.993038],[139.935608,38.996774]]]}},{"type":"Feature","properties":{"layer_id":"bakumatsu_villages","name":"女鹿村","address":"羽後 飽海郡","source":"Geoshape 幕末期近世村領域データセット vector tiles (z7 extraction)","subarea_name":"近世村のおおよその範囲","feature_key":"village:K74G01S00248","accuracy_note":"2015年農業集落境界をもとに復元した概略範囲で、江戸時代の正確な村境ではありません"},"geometry":{"type":"Polygon","coordinates":[[[139.905396,39.118874],[139.945221,39.113014],[139.895096,39.102357],[139.878616,39.100759],[139.87793,39.098627],[139.877243,39.099693],[139.878616,39.102357],[139.87793,39.104489],[139.876556,39.105022],[139.877243,39.105554],[139.873123,39.10662],[139.873123,39.11035],[139.86969,39.111415],[139.869003,39.112481],[139.870377,39.115145],[139.868317,39.115677],[139.869003,39.118341],[139.905396,39.118874]]]}},{"type":"Feature","properties":{"layer_id":"bakumatsu_villages","name":"小服部村","address":"羽後 飽海郡","source":"Geoshape 幕末期近世村領域データセット vector tiles (z7 extraction)","subarea_name":"近世村のおおよその範囲","feature_key":"village:K74G01S00207","accuracy_note":"2015年農業集落境界をもとに復元した概略範囲で、江戸時代の正確な村境ではありません"},"geometry":{"type":"MultiPolygon","coordinates":[[[[139.87587,39.017583],[139.87999,39.016516],[139.87793,39.011715],[139.879303,39.010648],[139.872437,39.00798],[139.87381,39.01705],[139.875183,39.016516],[139.87587,39.017583]]],[[[139.879303,39.010648],[139.87793,39.004245],[139.881363,39.003711],[139.880676,39.000509],[139.87587,39.001577],[139.87587,39.001043],[139.871063,38.999976],[139.869003,39.001043],[139.872437,39.00798],[139.879303,39.010648]]]]}},{"type":"Feature","properties":{"layer_id":"bakumatsu_villages","name":"尻引村・岡田村","address":"羽後 飽海郡","source":"Geoshape 幕末期近世村領域データセット vector tiles (z7 extraction)","subarea_name":"近世村のおおよその範囲","feature_key":"village:K74G01S00191,K74G01S00192","accuracy_note":"2015年農業集落境界をもとに復元した概略範囲で、江戸時代の正確な村境ではありません"},"geometry":{"type":"MultiPolygon","coordinates":[[[[139.903336,39.020784],[139.904709,39.022384],[139.906082,39.022384],[139.905396,39.020251],[139.903336,39.020784]]],[[[139.902649,39.020784],[139.901962,39.01865],[139.894409,39.019717],[139.894409,39.020784],[139.893036,39.021851],[139.897842,39.022384],[139.902649,39.020784]]]]}},{"type":"Feature","properties":{"layer_id":"bakumatsu_villages","name":"山崎村","address":"羽後 飽海郡","source":"Geoshape 幕末期近世村領域データセット vector tiles (z7 extraction)","subarea_name":"近世村のおおよその範囲","feature_key":"village:K74G01S00238","accuracy_note":"2015年農業集落境界をもとに復元した概略範囲で、江戸時代の正確な村境ではありません"},"geometry":{"type":"Polygon","coordinates":[[[139.898529,39.057051],[139.899902,39.053318],[139.903336,39.054385],[139.907455,39.049052],[139.903336,39.046919],[139.906082,39.043719],[139.904022,39.042653],[139.902649,39.044786],[139.899902,39.044253],[139.899216,39.045319],[139.895782,39.043719],[139.895096,39.044253],[139.896469,39.045319],[139.893723,39.048519],[139.893036,39.050652],[139.894409,39.051718],[139.891663,39.054385],[139.896469,39.057051],[139.897156,39.055984],[139.898529,39.057051]]]}},{"type":"Feature","properties":{"layer_id":"bakumatsu_villages","name":"岩川村・岩川新田村","address":"羽後 飽海郡","source":"Geoshape 幕末期近世村領域データセット vector tiles (z7 extraction)","subarea_name":"近世村のおおよその範囲","feature_key":"village:K74G01S00202,K74G01S00203","accuracy_note":"2015年農業集落境界をもとに復元した概略範囲で、江戸時代の正確な村境ではありません"},"geometry":{"type":"MultiPolygon","coordinates":[[[[139.896469,39.009047],[139.900589,39.008513],[139.897842,39.001043],[139.889603,39.002644],[139.890289,39.005845],[139.892349,39.006379],[139.892349,39.007446],[139.895782,39.007446],[139.896469,39.009047]]],[[[139.900589,39.00798],[139.900589,39.006379],[139.907455,39.006379],[139.908142,39.005845],[139.907455,39.004778],[139.905396,39.004778],[139.903336,39.003178],[139.902649,39.001577],[139.901962,39.000509],[139.900589,39.000509],[139.897842,38.997308],[139.895782,38.997308],[139.895782,38.998375],[139.888916,38.999442],[139.889603,39.002644],[139.897842,39.001043],[139.900589,39.00798]]],[[[139.900589,39.00798],[139.900589,39.008513],[139.901276,39.00798],[139.900589,39.00798]]]]}},{"type":"Feature","properties":{"layer_id":"bakumatsu_villages","name":"平津新田村","address":"羽後 飽海郡","source":"Geoshape 幕末期近世村領域データセット vector tiles (z7 extraction)","subarea_name":"近世村のおおよその範囲","feature_key":"village:K74G01S00182","accuracy_note":"2015年農業集落境界をもとに復元した概略範囲で、江戸時代の正確な村境ではありません"},"geometry":{"type":"Polygon","coordinates":[[[139.931488,39.013849],[139.930115,39.013315],[139.928055,39.010114],[139.933548,39.009047],[139.933548,39.00798],[139.932861,39.006913],[139.925308,39.007446],[139.926682,39.013315],[139.931488,39.013849]]]}},{"type":"Feature","properties":{"layer_id":"bakumatsu_villages","name":"平津村","address":"羽後 飽海郡","source":"Geoshape 幕末期近世村領域データセット vector tiles (z7 extraction)","subarea_name":"近世村のおおよその範囲","feature_key":"village:K74G01S00181","accuracy_note":"2015年農業集落境界をもとに復元した概略範囲で、江戸時代の正確な村境ではありません"},"geometry":{"type":"Polygon","coordinates":[[[139.943848,39.01705],[139.943848,39.013315],[139.945908,39.00958],[139.940414,39.006913],[139.936295,39.006913],[139.933548,39.00798],[139.933548,39.009047],[139.928055,39.010114],[139.930115,39.013315],[139.934921,39.015449],[139.934235,39.01705],[139.943848,39.01705]]]}},{"type":"Feature","properties":{"layer_id":"bakumatsu_villages","name":"広野新田村","address":"羽後 飽海郡","source":"Geoshape 幕末期近世村領域データセット vector tiles (z7 extraction)","subarea_name":"近世村のおおよその範囲","feature_key":"village:K74G01S10005","accuracy_note":"2015年農業集落境界をもとに復元した概略範囲で、江戸時代の正確な村境ではありません"},"geometry":{"type":"Polygon","coordinates":[[[139.994659,39.091167],[139.998779,39.087436],[140.004272,39.087969],[140.004272,39.086903],[140.002899,39.085304],[140.000839,39.080507],[139.998093,39.078375],[139.993286,39.076776],[139.98642,39.069313],[139.9823,39.067181],[139.979553,39.067181],[139.975433,39.062915],[139.973373,39.061849],[139.971313,39.062915],[139.96788,39.061316],[139.96582,39.061849],[139.96376,39.056517],[139.957581,39.053318],[139.957581,39.049052],[139.941788,39.047452],[139.939728,39.047452],[139.939041,39.049052],[139.934235,39.048519],[139.932175,39.047452],[139.930801,39.044253],[139.927368,39.043186],[139.925308,39.044253],[139.926682,39.045853],[139.925308,39.046919],[139.927368,39.048519],[139.927368,39.050652],[139.930115,39.051718],[139.930115,39.053318],[139.932175,39.053318],[139.932175,39.055451],[139.933548,39.055451],[139.936295,39.05865],[139.936981,39.060783],[139.936981,39.063982],[139.938354,39.065581],[139.938354,39.069313],[139.940414,39.071445],[139.945221,39.073578],[139.948654,39.076776],[139.957581,39.078375],[139.962387,39.078375],[139.96788,39.078908],[139.970627,39.08104],[139.977493,39.084238],[139.978867,39.085837],[139.982986,39.087969],[139.985733,39.087969],[139.994659,39.091167]]]}},{"type":"Feature","properties":{"layer_id":"bakumatsu_villages","name":"服部興野村","address":"羽後 飽海郡","source":"Geoshape 幕末期近世村領域データセット vector tiles (z7 extraction)","subarea_name":"近世村のおおよその範囲","feature_key":"village:K74G01S00215","accuracy_note":"2015年農業集落境界をもとに復元した概略範囲で、江戸時代の正確な村境ではありません"},"geometry":{"type":"MultiPolygon","coordinates":[[[[139.851151,39.012248],[139.862137,39.00958],[139.85939,38.999442],[139.853897,38.999976],[139.854584,39.001577],[139.847031,39.003178],[139.847717,39.005845],[139.847031,39.006379],[139.848404,39.006913],[139.851151,39.012248]]],[[[139.853897,39.019717],[139.864197,39.016516],[139.862137,39.00958],[139.851151,39.012248],[139.853897,39.019717]]]]}},{"type":"Feature","properties":{"layer_id":"bakumatsu_villages","name":"杉沢村","address":"羽後 飽海郡","source":"Geoshape 幕末期近世村領域データセット vector tiles (z7 extraction)","subarea_name":"近世村のおおよその範囲","feature_key":"village:K74G01S00177","accuracy_note":"2015年農業集落境界をもとに復元した概略範囲で、江戸時代の正確な村境ではありません"},"geometry":{"type":"MultiPolygon","coordinates":[[[[139.971313,39.022918],[139.971313,39.020251],[139.973373,39.017583],[139.970627,39.012782],[139.967194,39.011181],[139.9617,39.011715],[139.953461,39.014916],[139.952774,39.016516],[139.959641,39.019717],[139.971313,39.022918]]],[[[139.947281,39.01705],[139.952774,39.016516],[139.954147,39.014916],[139.960327,39.012782],[139.959641,39.010114],[139.962387,39.007446],[139.9617,39.005845],[139.96376,39.005312],[139.960327,39.003178],[139.9617,39.001577],[139.961014,39.001043],[139.955521,39.00211],[139.947281,39.001043],[139.945908,39.00958],[139.943848,39.013315],[139.943848,39.01705],[139.947281,39.01705]]],[[[139.970627,39.012782],[139.968567,39.005845],[139.96376,39.005312],[139.9617,39.005845],[139.962387,39.007446],[139.959641,39.010114],[139.960327,39.012782],[139.967194,39.011181],[139.970627,39.012782]]],[[[139.968567,39.006379],[139.96994,39.002644],[139.96788,38.999976],[139.96376,38.996774],[139.958954,38.996774],[139.956894,38.995707],[139.958954,39.001043],[139.9617,39.001577],[139.960327,39.003178],[139.96376,39.005312],[139.967194,39.005312],[139.968567,39.006379]]],[[[140.006332,39.00798],[140.004959,39.008513],[140.002899,39.007446],[139.997406,39.008513],[139.992599,39.00798],[139.991226,39.008513],[139.97612,39.001577],[139.975433,39.001577],[139.97406,39.003178],[139.96994,39.002644],[139.968567,39.006379],[139.96994,39.009047],[139.969254,39.010114],[139.973373,39.017583],[139.971313,39.020251],[139.971313,39.022918],[139.97818,39.023451],[139.985046,39.028252],[139.987106,39.026652],[139.99054,39.025585],[139.996033,39.026119],[140.007706,39.036253],[140.008392,39.03892],[140.011139,39.039986],[140.011826,39.044253],[140.013885,39.045853],[140.015259,39.050119],[140.018005,39.052785],[140.017319,39.057051],[140.019379,39.061849],[140.017319,39.066647],[140.017319,39.06878],[140.023499,39.082639],[140.050964,39.076776],[140.042725,39.070912],[140.039978,39.069846],[140.037231,39.05865],[140.038605,39.051718],[140.038605,39.046919],[140.030365,39.044786],[140.028305,39.04212],[140.024185,39.03412],[140.022125,39.031986],[140.019379,39.024518],[140.016632,39.021851],[140.015259,39.01705],[140.015945,39.013849],[140.014572,39.010114],[140.012512,39.009047],[140.006332,39.00798]]]]}},{"type":"Feature","properties":{"layer_id":"bakumatsu_villages","name":"樽川新田村","address":"羽後 飽海郡","source":"Geoshape 幕末期近世村領域データセット vector tiles (z7 extraction)","subarea_name":"近世村のおおよその範囲","feature_key":"village:K74G01S00242","accuracy_note":"2015年農業集落境界をもとに復元した概略範囲で、江戸時代の正確な村境ではありません"},"geometry":{"type":"Polygon","coordinates":[[[139.904022,39.058117],[139.911575,39.054385],[139.911575,39.052252],[139.906769,39.054385],[139.904709,39.052785],[139.903336,39.054385],[139.899902,39.053318],[139.897842,39.058117],[139.904022,39.058117]]]}},{"type":"Feature","properties":{"layer_id":"bakumatsu_villages","name":"水上村","address":"羽後 飽海郡","source":"Geoshape 幕末期近世村領域データセット vector tiles (z7 extraction)","subarea_name":"近世村のおおよその範囲","feature_key":"village:K74G01S00173","accuracy_note":"2015年農業集落境界をもとに復元した概略範囲で、江戸時代の正確な村境ではありません"},"geometry":{"type":"Polygon","coordinates":[[[139.900589,39.000509],[139.901276,38.998909],[139.910889,38.998375],[139.910202,38.991437],[139.906082,38.989836],[139.905396,38.991437],[139.899216,38.991971],[139.900589,39.000509]]]}},{"type":"Feature","properties":{"layer_id":"bakumatsu_villages","name":"滝野浦村","address":"羽後 飽海郡","source":"Geoshape 幕末期近世村領域データセット vector tiles (z7 extraction)","subarea_name":"近世村のおおよその範囲","feature_key":"village:K74G01S00247","accuracy_note":"2015年農業集落境界をもとに復元した概略範囲で、江戸時代の正確な村境ではありません"},"geometry":{"type":"Polygon","coordinates":[[[139.945221,39.113014],[139.908142,39.092765],[139.87793,39.093831],[139.879303,39.096496],[139.87793,39.098627],[139.878616,39.100759],[139.895096,39.102357],[139.945221,39.113014]]]}},{"type":"Feature","properties":{"layer_id":"bakumatsu_villages","name":"漆曾根村","address":"羽後 飽海郡","source":"Geoshape 幕末期近世村領域データセット vector tiles (z7 extraction)","subarea_name":"近世村のおおよその範囲","feature_key":"village:K74G01S00185","accuracy_note":"2015年農業集落境界をもとに復元した概略範囲で、江戸時代の正確な村境ではありません"},"geometry":{"type":"Polygon","coordinates":[[[139.897842,39.032519],[139.898529,39.031986],[139.898529,39.031453],[139.902649,39.030386],[139.901962,39.028786],[139.907455,39.027185],[139.906082,39.022384],[139.904709,39.022384],[139.903336,39.020784],[139.897156,39.022384],[139.899216,39.027185],[139.898529,39.028786],[139.897842,39.032519]]]}},{"type":"Feature","properties":{"layer_id":"bakumatsu_villages","name":"白木村","address":"羽後 飽海郡","source":"Geoshape 幕末期近世村領域データセット vector tiles (z7 extraction)","subarea_name":"近世村のおおよその範囲","feature_key":"village:K74G01S00212","accuracy_note":"2015年農業集落境界をもとに復元した概略範囲で、江戸時代の正確な村境ではありません"},"geometry":{"type":"MultiPolygon","coordinates":[[[[139.844284,38.997308],[139.856644,38.995173],[139.855957,38.991971],[139.864197,38.989836],[139.860077,38.978628],[139.856644,38.976492],[139.853897,38.975959],[139.851151,38.977026],[139.848404,38.980763],[139.840164,38.985567],[139.841537,38.988235],[139.840164,38.988769],[139.841537,38.989303],[139.844284,38.997308]]],[[[139.864197,38.989836],[139.86763,38.988769],[139.866943,38.980229],[139.860077,38.978628],[139.864197,38.989836]]]]}},{"type":"Feature","properties":{"layer_id":"bakumatsu_villages","name":"石辻村","address":"羽後 飽海郡","source":"Geoshape 幕末期近世村領域データセット vector tiles (z7 extraction)","subarea_name":"近世村のおおよその範囲","feature_key":"village:K74G01S00168","accuracy_note":"2015年農業集落境界をもとに復元した概略範囲で、江戸時代の正確な村境ではありません"},"geometry":{"type":"Polygon","coordinates":[[[139.936981,38.992505],[139.941788,38.991437],[139.942474,38.988769],[139.932861,38.986634],[139.921875,38.9861],[139.917755,38.985033],[139.917068,38.985033],[139.915009,38.983965],[139.914322,38.986634],[139.917755,38.989303],[139.919815,38.99037],[139.922562,38.99037],[139.923248,38.991437],[139.930801,38.992505],[139.931488,38.99037],[139.936295,38.990904],[139.936981,38.992505]]]}},{"type":"Feature","properties":{"layer_id":"bakumatsu_villages","name":"箕輪新田村","address":"羽後 飽海郡","source":"Geoshape 幕末期近世村領域データセット vector tiles (z7 extraction)","subarea_name":"近世村のおおよその範囲","feature_key":"village:K74G01S00244","accuracy_note":"2015年農業集落境界をもとに復元した概略範囲で、江戸時代の正確な村境ではありません"},"geometry":{"type":"Polygon","coordinates":[[[139.915009,39.08104],[139.915695,39.079974],[139.913635,39.078375],[139.902649,39.074644],[139.899902,39.06878],[139.897842,39.067181],[139.898529,39.066114],[139.897156,39.065048],[139.895096,39.066114],[139.891663,39.062382],[139.886169,39.067181],[139.884109,39.068247],[139.886856,39.068247],[139.888916,39.070912],[139.891663,39.071445],[139.892349,39.072511],[139.897156,39.074111],[139.897842,39.075177],[139.906082,39.079441],[139.910202,39.078908],[139.912262,39.08104],[139.915009,39.08104]]]}},{"type":"Feature","properties":{"layer_id":"bakumatsu_villages","name":"菅野村","address":"羽後 飽海郡","source":"Geoshape 幕末期近世村領域データセット vector tiles (z7 extraction)","subarea_name":"近世村のおおよその範囲","feature_key":"village:K74G01S10002","accuracy_note":"2015年農業集落境界をもとに復元した概略範囲で、江戸時代の正確な村境ではありません"},"geometry":{"type":"MultiPolygon","coordinates":[[[[139.88205,39.067714],[139.888229,39.062382],[139.889603,39.053318],[139.886856,39.053851],[139.878616,39.053851],[139.87999,39.056517],[139.88205,39.057051],[139.880676,39.065048],[139.88205,39.067714]]],[[[139.886856,39.053851],[139.884109,39.050119],[139.884796,39.047986],[139.88205,39.039453],[139.875183,39.039453],[139.878616,39.053851],[139.886856,39.053851]]]]}},{"type":"Feature","properties":{"layer_id":"bakumatsu_villages","name":"落伏村","address":"羽後 飽海郡","source":"Geoshape 幕末期近世村領域データセット vector tiles (z7 extraction)","subarea_name":"近世村のおおよその範囲","feature_key":"village:K74G01S00240","accuracy_note":"2015年農業集落境界をもとに復元した概略範囲で、江戸時代の正確な村境ではありません"},"geometry":{"type":"Polygon","coordinates":[[[139.919128,39.081573],[139.926682,39.078908],[139.926682,39.078375],[139.920502,39.073045],[139.909515,39.068247],[139.908829,39.064515],[139.895782,39.063982],[139.891663,39.061849],[139.895096,39.066114],[139.897156,39.065048],[139.898529,39.066114],[139.897842,39.067181],[139.899216,39.067181],[139.903336,39.075177],[139.912262,39.077309],[139.915009,39.079441],[139.915695,39.080507],[139.919128,39.081573]]]}},{"type":"Feature","properties":{"layer_id":"bakumatsu_villages","name":"蕨岡上寺村","address":"羽後 飽海郡","source":"Geoshape 幕末期近世村領域データセット vector tiles (z7 extraction)","subarea_name":"近世村のおおよその範囲","feature_key":"village:K74G01S00183","accuracy_note":"2015年農業集落境界をもとに復元した概略範囲で、江戸時代の正確な村境ではありません"},"geometry":{"type":"Polygon","coordinates":[[[139.955521,39.00211],[139.958954,39.001577],[139.956894,38.995707],[139.951401,38.995173],[139.947281,38.993572],[139.946594,38.991971],[139.942474,38.993572],[139.941101,38.99624],[139.931488,38.997308],[139.932175,39.001043],[139.937668,39.000509],[139.939728,39.001043],[139.940414,38.999976],[139.950027,39.001577],[139.955521,39.00211]]]}},{"type":"Feature","properties":{"layer_id":"bakumatsu_villages","name":"藤井新田村","address":"羽後 飽海郡","source":"Geoshape 幕末期近世村領域データセット vector tiles (z7 extraction)","subarea_name":"近世村のおおよその範囲","feature_key":"village:K74G01S10004","accuracy_note":"2015年農業集落境界をもとに復元した概略範囲で、江戸時代の正確な村境ではありません"},"geometry":{"type":"Polygon","coordinates":[[[139.956894,39.049585],[139.954834,39.044253],[139.958267,39.041586],[139.947281,39.033053],[139.942474,39.03732],[139.940414,39.03572],[139.936295,39.036786],[139.936981,39.04052],[139.935608,39.042653],[139.937668,39.043186],[139.937668,39.046919],[139.934921,39.046386],[139.934235,39.048519],[139.939041,39.049052],[139.939728,39.047452],[139.941788,39.047452],[139.950027,39.049052],[139.952087,39.047986],[139.956894,39.049585]]]}},{"type":"Feature","properties":{"layer_id":"bakumatsu_villages","name":"青塚村","address":"羽後 飽海郡","source":"Geoshape 幕末期近世村領域データセット vector tiles (z7 extraction)","subarea_name":"近世村のおおよその範囲","feature_key":"village:K74G01S00211","accuracy_note":"2015年農業集落境界をもとに復元した概略範囲で、江戸時代の正確な村境ではありません"},"geometry":{"type":"MultiPolygon","coordinates":[[[[139.847031,39.003178],[139.854584,39.001577],[139.853897,38.999976],[139.858704,38.999442],[139.856644,38.995173],[139.844284,38.997308],[139.843597,38.997841],[139.844971,38.997841],[139.847031,39.003178]]],[[[139.872437,39.03732],[139.87999,39.03572],[139.876556,39.023451],[139.87381,39.017583],[139.872437,39.008513],[139.866943,38.997841],[139.86969,38.995173],[139.87175,38.995173],[139.871063,38.991437],[139.86763,38.991437],[139.86763,38.988769],[139.855957,38.991971],[139.858704,38.999442],[139.85939,38.999442],[139.860077,39.006379],[139.86763,39.027185],[139.870377,39.034653],[139.871063,39.03412],[139.872437,39.03732]]]]}},{"type":"Feature","properties":{"layer_id":"bakumatsu_villages","name":"鳥崎村","address":"羽後 飽海郡","source":"Geoshape 幕末期近世村領域データセット vector tiles (z7 extraction)","subarea_name":"近世村のおおよその範囲","feature_key":"village:K74G01S00246","accuracy_note":"2015年農業集落境界をもとに復元した概略範囲で、江戸時代の正確な村境ではありません"},"geometry":{"type":"Polygon","coordinates":[[[139.87793,39.093831],[139.908142,39.092765],[139.904022,39.090101],[139.898529,39.090101],[139.891663,39.081573],[139.884109,39.082106],[139.881363,39.079441],[139.87793,39.080507],[139.870377,39.080507],[139.870377,39.082639],[139.87175,39.082106],[139.873123,39.088502],[139.877243,39.090101],[139.87793,39.093831]]]}},{"type":"Feature","properties":{"layer_id":"bakumatsu_villages","name":"鷺町村・南目村","address":"羽後 飽海郡","source":"Geoshape 幕末期近世村領域データセット vector tiles (z7 extraction)","subarea_name":"近世村のおおよその範囲","feature_key":"village:K74G01S00235,K74G01S00236","accuracy_note":"2015年農業集落境界をもとに復元した概略範囲で、江戸時代の正確な村境ではありません"},"geometry":{"type":"Polygon","coordinates":[[[139.893723,39.043719],[139.900589,39.03892],[139.903336,39.03892],[139.906769,39.03732],[139.908829,39.034653],[139.906769,39.031986],[139.904022,39.032519],[139.903336,39.030386],[139.899216,39.031453],[139.898529,39.03412],[139.893036,39.041053],[139.893723,39.043719]]]}},{"type":"Feature","properties":{"layer_id":"bakumatsu_villages","name":"鹿野沢村・天神新田村","address":"羽後 飽海郡","source":"Geoshape 幕末期近世村領域データセット vector tiles (z7 extraction)","subarea_name":"近世村のおおよその範囲","feature_key":"village:K74G01S00179,K74G01S00180","accuracy_note":"2015年農業集落境界をもとに復元した概略範囲で、江戸時代の正確な村境ではありません"},"geometry":{"type":"Polygon","coordinates":[[[139.945908,39.00958],[139.947281,39.001043],[139.940414,38.999976],[139.939728,39.001043],[139.937668,39.000509],[139.932175,39.001043],[139.931488,38.998909],[139.928055,38.999442],[139.929428,39.007446],[139.932861,39.006913],[139.933548,39.00798],[139.936295,39.006913],[139.940414,39.006913],[139.945908,39.00958]]]}},{"type":"Feature","properties":{"layer_id":"edo_post_stations","name":"吹浦","address":"","source":"CODH 江戸宿場データセット Version 1 (2026-08)","subarea_name":"羽州浜街道","feature_key":"post:R202-013"},"geometry":{"type":"Point","coordinates":[139.8786,39.07135]}},{"type":"Feature","properties":{"layer_id":"edo_roads","name":"羽州浜街道","address":"久保田 → 村上","source":"CODH 江戸主要街道データセット Version 4 (2026-08)","subarea_name":"江戸期の主要街道","feature_key":"road:R202"},"geometry":{"type":"LineString","coordinates":[[139.843694,38.981232],[139.848226,38.983781],[139.84886,38.984594],[139.850096,38.987649],[139.850825,38.990457],[139.851839,38.994373],[139.849367,38.99792],[139.848448,38.998757],[139.848448,38.999742],[139.848733,39.0009],[139.850096,39.003166],[139.850286,39.004816],[139.856624,39.020082],[139.863849,39.038275],[139.865339,39.041327],[139.872755,39.060327],[139.874498,39.063895],[139.875924,39.065297],[139.87735,39.065888],[139.87811,39.066503],[139.878396,39.067487],[139.878649,39.06884],[139.879077,39.070218],[139.879109,39.071264],[139.878823,39.071719],[139.878697,39.072395],[139.878712,39.073392],[139.877936,39.073121],[139.876938,39.07333],[139.875797,39.074351],[139.875654,39.074905],[139.874767,39.075409],[139.873325,39.077267],[139.873563,39.078128],[139.873167,39.079149],[139.873468,39.079751],[139.873135,39.080477],[139.873515,39.081338],[139.873341,39.082014],[139.873499,39.083146],[139.873737,39.084216],[139.874244,39.084954],[139.873705,39.085667],[139.8738,39.086381],[139.874561,39.087217],[139.874624,39.088152],[139.875258,39.088594],[139.876843,39.089382],[139.877571,39.089972],[139.877952,39.091005],[139.878142,39.092186],[139.878522,39.093046],[139.878554,39.094325],[139.878776,39.094891],[139.879219,39.095211],[139.879631,39.095703],[139.879917,39.096318],[139.879631,39.097129],[139.879124,39.098039],[139.878903,39.098802],[139.878903,39.099441],[139.879346,39.100597],[139.879505,39.101618],[139.878126,39.1057],[139.878253,39.106216],[139.877413,39.106327],[139.877571,39.107077],[139.8751,39.109524],[139.873705,39.109893],[139.873103,39.110581],[139.872945,39.111319],[139.871899,39.112229],[139.871455,39.11336],[139.870251,39.113753],[139.870695,39.11486],[139.871012,39.116458],[139.871976,39.118344]]}},{"type":"Feature","properties":{"layer_id":"historical_sites_archaeology","name":"三崎山遺跡","address":"山形県 飽海郡遊佐町 吹浦","source":"Geoshape 日本歴史地名大系 施設・地点項目データセット 2025-05-15","subarea_name":"遺跡","feature_key":"08_archaeological_sites.geojson:060000260300","subtype":"遺跡"},"geometry":{"type":"Point","coordinates":[140.005583,39.090759]}},{"type":"Feature","properties":{"layer_id":"historical_sites_archaeology","name":"北目館跡","address":"山形県 飽海郡遊佐町 北目","source":"Geoshape 日本歴史地名大系 施設・地点項目データセット 2025-05-15","subarea_name":"史跡","feature_key":"09_historic_sites.geojson:060000255700","subtype":"史跡"},"geometry":{"type":"Point","coordinates":[139.905709,39.039416]}},{"type":"Feature","properties":{"layer_id":"historical_sites_archaeology","name":"吹浦遺跡","address":"山形県 飽海郡遊佐町 吹浦","source":"Geoshape 日本歴史地名大系 施設・地点項目データセット 2025-05-15","subarea_name":"遺跡","feature_key":"08_archaeological_sites.geojson:060000259900","subtype":"遺跡"},"geometry":{"type":"Point","coordinates":[139.883451,39.069076]}},{"type":"Feature","properties":{"layer_id":"historical_sites_archaeology","name":"地正面遺跡","address":"山形県 飽海郡遊佐町 小松","source":"Geoshape 日本歴史地名大系 施設・地点項目データセット 2025-05-15","subarea_name":"遺跡","feature_key":"08_archaeological_sites.geojson:060000252600","subtype":"遺跡"},"geometry":{"type":"Point","coordinates":[139.909009,38.999606]}},{"type":"Feature","properties":{"layer_id":"historical_sites_archaeology","name":"大楯遺跡","address":"山形県 飽海郡遊佐町 小原田","source":"Geoshape 日本歴史地名大系 施設・地点項目データセット 2025-05-15","subarea_name":"遺跡","feature_key":"08_archaeological_sites.geojson:060000253200","subtype":"遺跡"},"geometry":{"type":"Point","coordinates":[139.925444,39.009561]}},{"type":"Feature","properties":{"layer_id":"historical_sites_archaeology","name":"宅田遺跡","address":"山形県 飽海郡遊佐町 野沢","source":"Geoshape 日本歴史地名大系 施設・地点項目データセット 2025-05-15","subarea_name":"遺跡","feature_key":"08_archaeological_sites.geojson:060000255200","subtype":"遺跡"},"geometry":{"type":"Point","coordinates":[139.916462,39.032228]}},{"type":"Feature","properties":{"layer_id":"historical_sites_archaeology","name":"杉沢遺跡","address":"山形県 飽海郡遊佐町 杉沢","source":"Geoshape 日本歴史地名大系 施設・地点項目データセット 2025-05-15","subarea_name":"遺跡","feature_key":"08_archaeological_sites.geojson:060000251700","subtype":"遺跡"},"geometry":{"type":"Point","coordinates":[139.957986,39.006756]}},{"type":"Feature","properties":{"layer_id":"historical_sites_archaeology","name":"神矢田遺跡","address":"山形県 飽海郡遊佐町 北目","source":"Geoshape 日本歴史地名大系 施設・地点項目データセット 2025-05-15","subarea_name":"遺跡","feature_key":"08_archaeological_sites.geojson:060000255800","subtype":"遺跡"},"geometry":{"type":"Point","coordinates":[139.901044,39.041848]}},{"type":"Feature","properties":{"layer_id":"historical_sites_archaeology","name":"神矢道遺跡","address":"山形県 飽海郡遊佐町 藤崎","source":"Geoshape 日本歴史地名大系 施設・地点項目データセット 2025-05-15","subarea_name":"遺跡","feature_key":"08_archaeological_sites.geojson:060000259100","subtype":"遺跡"},"geometry":{"type":"Point","coordinates":[139.86414,39.00653]}},{"type":"Feature","properties":{"layer_id":"historical_sites_archaeology","name":"臂曲遺跡","address":"山形県 飽海郡遊佐町 吉出","source":"Geoshape 日本歴史地名大系 施設・地点項目データセット 2025-05-15","subarea_name":"遺跡","feature_key":"08_archaeological_sites.geojson:060000254300","subtype":"遺跡"},"geometry":{"type":"Point","coordinates":[139.962115,39.043321]}},{"type":"Feature","properties":{"layer_id":"historical_sites_archaeology","name":"金俣Ｂ遺跡","address":"山形県 飽海郡遊佐町 吉出","source":"Geoshape 日本歴史地名大系 施設・地点項目データセット 2025-05-15","subarea_name":"遺跡","feature_key":"08_archaeological_sites.geojson:060000254200","subtype":"遺跡"},"geometry":{"type":"Point","coordinates":[139.98872,39.031789]}},{"type":"Feature","properties":{"layer_id":"historical_temples_shrines","name":"八幡神社","address":"山形県 飽海郡遊佐町 豊岡字松ノ久保43番地","source":"Geoshape 日本歴史地名大系 施設・地点項目データセット 2025-05-15","subarea_name":"神社","feature_key":"02_shrines.geojson:060000251900","subtype":"神社"},"geometry":{"type":"Point","coordinates":[139.922638,38.990704]}},{"type":"Feature","properties":{"layer_id":"historical_temples_shrines","name":"劔龍神社","address":"山形県 飽海郡遊佐町 当山字上戸当山2番地","source":"Geoshape 日本歴史地名大系 施設・地点項目データセット 2025-05-15","subarea_name":"神社","feature_key":"02_shrines.geojson:060000256200","subtype":"神社"},"geometry":{"type":"Point","coordinates":[139.917525,39.043553]}},{"type":"Feature","properties":{"layer_id":"historical_temples_shrines","name":"大物忌神社吹浦口之宮","address":"山形県 飽海郡遊佐町 吹浦","source":"Geoshape 日本歴史地名大系 施設・地点項目データセット 2025-05-15","subarea_name":"神社","feature_key":"02_shrines.geojson:060000259800","subtype":"神社"},"geometry":{"type":"Point","coordinates":[139.879028,39.074139]}},{"type":"Feature","properties":{"layer_id":"historical_temples_shrines","name":"大物忌神社蕨岡口之宮","address":"山形県 飽海郡遊佐町 上蕨岡","source":"Geoshape 日本歴史地名大系 施設・地点項目データセット 2025-05-15","subarea_name":"神社","feature_key":"02_shrines.geojson:060000251200","subtype":"神社"},"geometry":{"type":"Point","coordinates":[139.943989,38.996751]}},{"type":"Feature","properties":{"layer_id":"historical_temples_shrines","name":"御嶽神社","address":"山形県 飽海郡遊佐町 野沢字水上55番地","source":"Geoshape 日本歴史地名大系 施設・地点項目データセット 2025-05-15","subarea_name":"神社","feature_key":"02_shrines.geojson:060000255000","subtype":"神社"},"geometry":{"type":"Point","coordinates":[139.94136,39.03817]}},{"type":"Feature","properties":{"layer_id":"historical_temples_shrines","name":"永泉寺","address":"山形県 飽海郡遊佐町 直世字仲道3番地","source":"Geoshape 日本歴史地名大系 施設・地点項目データセット 2025-05-15","subarea_name":"寺院","feature_key":"01_temples.geojson:060000256900","subtype":"寺院"},"geometry":{"type":"Point","coordinates":[139.907181,39.069874]}},{"type":"Feature","properties":{"layer_id":"historical_temples_shrines","name":"龍頭寺","address":"山形県 飽海郡遊佐町 上蕨岡字松ケ岡45番地","source":"Geoshape 日本歴史地名大系 施設・地点項目データセット 2025-05-15","subarea_name":"寺院","feature_key":"01_temples.geojson:060000251300","subtype":"寺院"},"geometry":{"type":"Point","coordinates":[139.944199,38.996078]}}]}