{"type":"FeatureCollection","municipality_code":"09301","pref":"栃木県","city":"上三川町","layer_counts":{"bakumatsu_villages":29,"edo_roads":2,"historical_sites_archaeology":5,"historical_temples_shrines":8},"total_features":44,"features":[{"type":"Feature","properties":{"layer_id":"bakumatsu_villages","name":"三本木村","address":"下野 河内郡","source":"Geoshape 幕末期近世村領域データセット vector tiles (z7 extraction)","subarea_name":"近世村のおおよその範囲","feature_key":"village:K08G06S00031","accuracy_note":"2015年農業集落境界をもとに復元した概略範囲で、江戸時代の正確な村境ではありません"},"geometry":{"type":"MultiPolygon","coordinates":[[[[139.924622,36.401389],[139.924622,36.404152],[139.923248,36.406915],[139.922562,36.406915],[139.921875,36.409679],[139.919815,36.409126],[139.919128,36.412442],[139.925995,36.414099],[139.926682,36.41631],[139.928055,36.41631],[139.927368,36.415204],[139.932175,36.414652],[139.932175,36.409126],[139.928741,36.404152],[139.929428,36.401942],[139.928741,36.401942],[139.928055,36.404705],[139.924622,36.401389]]],[[[139.924622,36.400836],[139.925308,36.400284],[139.924622,36.399178],[139.922562,36.39752],[139.922562,36.399731],[139.923935,36.399731],[139.924622,36.400836]]]]}},{"type":"Feature","properties":{"layer_id":"bakumatsu_villages","name":"三村","address":"下野 河内郡","source":"Geoshape 幕末期近世村領域データセット vector tiles (z7 extraction)","subarea_name":"近世村のおおよその範囲","feature_key":"village:K08G06S00030","accuracy_note":"2015年農業集落境界をもとに復元した概略範囲で、江戸時代の正確な村境ではありません"},"geometry":{"type":"Polygon","coordinates":[[[139.906769,36.421835],[139.908829,36.42073],[139.908829,36.417415],[139.912262,36.417415],[139.911575,36.411889],[139.910202,36.411336],[139.908829,36.409126],[139.904022,36.410231],[139.904709,36.410784],[139.902649,36.412442],[139.901276,36.411336],[139.899902,36.411889],[139.901276,36.412994],[139.899216,36.41631],[139.899216,36.41852],[139.901276,36.419625],[139.902649,36.419072],[139.901962,36.417967],[139.905396,36.417415],[139.906769,36.421835]]]}},{"type":"Feature","properties":{"layer_id":"bakumatsu_villages","name":"三軒在家村","address":"下野 河内郡","source":"Geoshape 幕末期近世村領域データセット vector tiles (z7 extraction)","subarea_name":"近世村のおおよその範囲","feature_key":"village:K08G06S00040","accuracy_note":"2015年農業集落境界をもとに復元した概略範囲で、江戸時代の正確な村境ではありません"},"geometry":{"type":"Polygon","coordinates":[[[139.936981,36.456636],[139.946594,36.455531],[139.944534,36.452218],[139.943161,36.443933],[139.940414,36.440066],[139.936295,36.441723],[139.934235,36.442828],[139.934921,36.44338],[139.932175,36.443933],[139.934235,36.447247],[139.932861,36.447799],[139.932861,36.450008],[139.934921,36.450008],[139.934921,36.454427],[139.936981,36.454427],[139.936981,36.456636]]]}},{"type":"Feature","properties":{"layer_id":"bakumatsu_villages","name":"上三川村","address":"下野 河内郡","source":"Geoshape 幕末期近世村領域データセット vector tiles (z7 extraction)","subarea_name":"近世村のおおよその範囲","feature_key":"village:K08G06S00033","accuracy_note":"2015年農業集落境界をもとに復元した概略範囲で、江戸時代の正確な村境ではありません"},"geometry":{"type":"MultiPolygon","coordinates":[[[[139.906769,36.448351],[139.911575,36.446694],[139.912262,36.44338],[139.914322,36.44338],[139.913635,36.442276],[139.916382,36.441171],[139.916382,36.438961],[139.915009,36.438409],[139.915695,36.437304],[139.914322,36.436752],[139.913635,36.435094],[139.911575,36.435647],[139.910889,36.440066],[139.907455,36.440618],[139.907455,36.441171],[139.906082,36.441723],[139.906769,36.448351]]],[[[139.906082,36.441723],[139.907455,36.441171],[139.907455,36.440618],[139.910889,36.440066],[139.911575,36.433989],[139.910889,36.433989],[139.910202,36.435094],[139.908829,36.435647],[139.909515,36.436752],[139.906769,36.437304],[139.906082,36.435647],[139.905396,36.435647],[139.906082,36.441723]]],[[[139.906769,36.437304],[139.909515,36.436752],[139.908829,36.435647],[139.910202,36.435094],[139.911575,36.432332],[139.910202,36.432332],[139.909515,36.430122],[139.906769,36.430675],[139.906769,36.42957],[139.901962,36.429017],[139.902649,36.432885],[139.904709,36.432885],[139.905396,36.435647],[139.906082,36.435647],[139.906769,36.437304]]],[[[139.916382,36.437304],[139.917755,36.433989],[139.919128,36.433437],[139.919128,36.432332],[139.915009,36.433989],[139.911575,36.433989],[139.911575,36.435647],[139.913635,36.435094],[139.914322,36.436752],[139.916382,36.437304]]],[[[139.913635,36.433989],[139.912949,36.43178],[139.911575,36.432332],[139.911575,36.433989],[139.913635,36.433989]]],[[[139.915009,36.433989],[139.919128,36.432332],[139.918442,36.431227],[139.921875,36.431227],[139.921188,36.42736],[139.916382,36.427912],[139.915695,36.424598],[139.914322,36.426255],[139.912949,36.423493],[139.912262,36.417415],[139.908829,36.417415],[139.908829,36.42073],[139.906769,36.421835],[139.905396,36.417415],[139.901962,36.417967],[139.902649,36.419072],[139.901276,36.419625],[139.901276,36.421835],[139.901962,36.424598],[139.901962,36.429017],[139.906769,36.42957],[139.906769,36.430675],[139.909515,36.430122],[139.910202,36.432332],[139.912949,36.43178],[139.913635,36.433989],[139.915009,36.433989]]],[[[139.916382,36.427912],[139.921188,36.42736],[139.924622,36.426808],[139.923935,36.424598],[139.921188,36.42515],[139.920502,36.419072],[139.918442,36.41852],[139.919128,36.413547],[139.912262,36.414099],[139.912949,36.423493],[139.914322,36.426255],[139.915695,36.424598],[139.916382,36.427912]]],[[[139.924622,36.440066],[139.928741,36.439514],[139.926682,36.436199],[139.930801,36.436199],[139.932861,36.432332],[139.935608,36.431227],[139.933548,36.422387],[139.923935,36.424598],[139.924622,36.426808],[139.921188,36.42736],[139.921188,36.430675],[139.923935,36.43178],[139.923935,36.432885],[139.924622,36.432885],[139.925308,36.435647],[139.923248,36.435647],[139.924622,36.440066]]],[[[139.921188,36.42515],[139.933548,36.422387],[139.932175,36.414652],[139.927368,36.415204],[139.928055,36.41631],[139.926682,36.41631],[139.925995,36.414099],[139.919128,36.412442],[139.918442,36.41852],[139.920502,36.419072],[139.921188,36.42515]]]]}},{"type":"Feature","properties":{"layer_id":"bakumatsu_villages","name":"上大沼村・大沼村","address":"下野 芳賀郡","source":"Geoshape 幕末期近世村領域データセット vector tiles (z7 extraction)","subarea_name":"近世村のおおよその範囲","feature_key":"village:K08G07S00017,K08G07S00018","accuracy_note":"2015年農業集落境界をもとに復元した概略範囲で、江戸時代の正確な村境ではありません"},"geometry":{"type":"Polygon","coordinates":[[[139.943848,36.446142],[139.952087,36.445037],[139.954147,36.441723],[139.954147,36.437304],[139.957581,36.436752],[139.958267,36.435647],[139.958267,36.435094],[139.956207,36.435094],[139.956207,36.436199],[139.953461,36.435647],[139.953461,36.433437],[139.947968,36.432885],[139.944534,36.435094],[139.939041,36.436752],[139.943848,36.446142]]]}},{"type":"Feature","properties":{"layer_id":"bakumatsu_villages","name":"上文挾村","address":"下野 河内郡","source":"Geoshape 幕末期近世村領域データセット vector tiles (z7 extraction)","subarea_name":"近世村のおおよその範囲","feature_key":"village:K08G06S00046","accuracy_note":"2015年農業集落境界をもとに復元した概略範囲で、江戸時代の正確な村境ではありません"},"geometry":{"type":"Polygon","coordinates":[[[139.947281,36.483693],[139.947968,36.47762],[139.950027,36.47762],[139.950714,36.476515],[139.952087,36.477067],[139.954834,36.475963],[139.954147,36.473202],[139.942474,36.475411],[139.936981,36.475411],[139.936295,36.474307],[139.934921,36.474307],[139.934921,36.47762],[139.938354,36.477067],[139.939041,36.479828],[139.944534,36.478724],[139.945908,36.483693],[139.947281,36.483693]]]}},{"type":"Feature","properties":{"layer_id":"bakumatsu_villages","name":"上神主村","address":"下野 河内郡","source":"Geoshape 幕末期近世村領域データセット vector tiles (z7 extraction)","subarea_name":"近世村のおおよその範囲","feature_key":"village:K08G06S00010","accuracy_note":"2015年農業集落境界をもとに復元した概略範囲で、江戸時代の正確な村境ではありません"},"geometry":{"type":"Polygon","coordinates":[[[139.88205,36.466576],[139.882736,36.464367],[139.884796,36.46492],[139.884796,36.462159],[139.889603,36.462159],[139.889603,36.45995],[139.891663,36.45995],[139.890976,36.456084],[139.884796,36.456084],[139.883423,36.454979],[139.884109,36.457741],[139.88205,36.458293],[139.878616,36.456084],[139.876556,36.456636],[139.87587,36.455531],[139.874496,36.455531],[139.87587,36.456636],[139.87381,36.457741],[139.875183,36.459397],[139.873123,36.460502],[139.87587,36.460502],[139.87587,36.463815],[139.879303,36.466024],[139.881363,36.466024],[139.88205,36.466576]]]}},{"type":"Feature","properties":{"layer_id":"bakumatsu_villages","name":"上蒲生村","address":"下野 河内郡","source":"Geoshape 幕末期近世村領域データセット vector tiles (z7 extraction)","subarea_name":"近世村のおおよその範囲","feature_key":"village:K08G06S00036","accuracy_note":"2015年農業集落境界をもとに復元した概略範囲で、江戸時代の正確な村境ではありません"},"geometry":{"type":"MultiPolygon","coordinates":[[[[139.916382,36.476515],[139.920502,36.471546],[139.920502,36.467129],[139.919128,36.465472],[139.917755,36.457188],[139.920502,36.451665],[139.917068,36.449456],[139.917068,36.447247],[139.915695,36.446142],[139.915009,36.44338],[139.912262,36.44338],[139.911575,36.446694],[139.906769,36.448351],[139.906082,36.440618],[139.903336,36.440066],[139.903336,36.438961],[139.897842,36.439514],[139.897842,36.437856],[139.897156,36.437856],[139.896469,36.439514],[139.893723,36.439514],[139.893723,36.447799],[139.896469,36.447799],[139.896469,36.451113],[139.901276,36.451113],[139.900589,36.452218],[139.903336,36.452218],[139.903336,36.450008],[139.907455,36.450008],[139.908829,36.45995],[139.909515,36.469889],[139.910889,36.471546],[139.910889,36.475963],[139.916382,36.476515]]],[[[139.906082,36.440618],[139.904709,36.432885],[139.893036,36.433437],[139.893723,36.439514],[139.896469,36.439514],[139.897842,36.437856],[139.897842,36.439514],[139.903336,36.438961],[139.903336,36.440066],[139.906082,36.440618]]],[[[139.900589,36.460502],[139.908829,36.45995],[139.907455,36.450008],[139.903336,36.450008],[139.903336,36.452218],[139.900589,36.452218],[139.901276,36.451113],[139.896469,36.451113],[139.896469,36.453875],[139.897842,36.453875],[139.898529,36.458845],[139.900589,36.458845],[139.900589,36.460502]]]]}},{"type":"Feature","properties":{"layer_id":"bakumatsu_villages","name":"上郷村","address":"下野 河内郡","source":"Geoshape 幕末期近世村領域データセット vector tiles (z7 extraction)","subarea_name":"近世村のおおよその範囲","feature_key":"village:K08G06S00037","accuracy_note":"2015年農業集落境界をもとに復元した概略範囲で、江戸時代の正確な村境ではありません"},"geometry":{"type":"Polygon","coordinates":[[[139.934921,36.453875],[139.934921,36.450008],[139.932861,36.450008],[139.932861,36.447799],[139.925995,36.448351],[139.925995,36.450561],[139.921188,36.450008],[139.919815,36.451113],[139.923935,36.452218],[139.923935,36.453875],[139.925995,36.45277],[139.926682,36.453322],[139.929428,36.453322],[139.930115,36.451665],[139.930801,36.453322],[139.934921,36.453875]]]}},{"type":"Feature","properties":{"layer_id":"bakumatsu_villages","name":"下神主村","address":"下野 河内郡","source":"Geoshape 幕末期近世村領域データセット vector tiles (z7 extraction)","subarea_name":"近世村のおおよその範囲","feature_key":"village:K08G06S00011","accuracy_note":"2015年農業集落境界をもとに復元した概略範囲で、江戸時代の正確な村境ではありません"},"geometry":{"type":"Polygon","coordinates":[[[139.88205,36.458293],[139.884109,36.457741],[139.883423,36.454979],[139.884796,36.456084],[139.890976,36.456084],[139.890289,36.454427],[139.890976,36.451665],[139.886856,36.446142],[139.884109,36.446142],[139.882736,36.44338],[139.87999,36.44559],[139.878616,36.451113],[139.875183,36.453875],[139.87381,36.453875],[139.874496,36.455531],[139.87587,36.455531],[139.876556,36.456636],[139.878616,36.456084],[139.88205,36.458293]]]}},{"type":"Feature","properties":{"layer_id":"bakumatsu_villages","name":"下蒲生村","address":"下野 河内郡","source":"Geoshape 幕末期近世村領域データセット vector tiles (z7 extraction)","subarea_name":"近世村のおおよその範囲","feature_key":"village:K08G06S00035","accuracy_note":"2015年農業集落境界をもとに復元した概略範囲で、江戸時代の正確な村境ではありません"},"geometry":{"type":"Polygon","coordinates":[[[139.891663,36.433437],[139.902649,36.432885],[139.901276,36.419625],[139.899216,36.417967],[139.896469,36.41852],[139.894409,36.417415],[139.892349,36.417967],[139.890976,36.419072],[139.890976,36.421282],[139.893036,36.421282],[139.893723,36.42515],[139.893723,36.430122],[139.891663,36.430122],[139.891663,36.433437]]]}},{"type":"Feature","properties":{"layer_id":"bakumatsu_villages","name":"五分一村","address":"下野 河内郡","source":"Geoshape 幕末期近世村領域データセット vector tiles (z7 extraction)","subarea_name":"近世村のおおよその範囲","feature_key":"village:K08G06S00029","accuracy_note":"2015年農業集落境界をもとに復元した概略範囲で、江戸時代の正確な村境ではありません"},"geometry":{"type":"Polygon","coordinates":[[[139.895782,36.41852],[139.899216,36.417967],[139.899216,36.41631],[139.901276,36.412994],[139.899902,36.411889],[139.901276,36.411336],[139.902649,36.412442],[139.904709,36.410784],[139.904709,36.410231],[139.902649,36.410231],[139.901962,36.409126],[139.904022,36.408021],[139.903336,36.406915],[139.901276,36.406915],[139.899902,36.4036],[139.897156,36.4036],[139.897156,36.404152],[139.895782,36.404705],[139.895782,36.405258],[139.898529,36.406363],[139.897156,36.408573],[139.895782,36.409126],[139.894409,36.407468],[139.892349,36.409679],[139.894409,36.417415],[139.895782,36.41852]]]}},{"type":"Feature","properties":{"layer_id":"bakumatsu_villages","name":"坂ノ上村","address":"下野 河内郡","source":"Geoshape 幕末期近世村領域データセット vector tiles (z7 extraction)","subarea_name":"近世村のおおよその範囲","feature_key":"village:K08G06S00028","accuracy_note":"2015年農業集落境界をもとに復元した概略範囲で、江戸時代の正確な村境ではありません"},"geometry":{"type":"MultiPolygon","coordinates":[[[[139.912262,36.414099],[139.919128,36.413547],[139.919815,36.409126],[139.915009,36.405258],[139.916382,36.405258],[139.915009,36.401389],[139.913635,36.401942],[139.912949,36.400836],[139.912262,36.400836],[139.911575,36.399178],[139.912949,36.399178],[139.912949,36.396968],[139.910889,36.39752],[139.910889,36.400836],[139.909515,36.400836],[139.909515,36.404705],[139.907455,36.4036],[139.899902,36.4036],[139.901276,36.406915],[139.903336,36.406915],[139.904022,36.408021],[139.901962,36.409126],[139.903336,36.410784],[139.908829,36.409126],[139.910202,36.411336],[139.911575,36.411889],[139.912262,36.414099]]],[[[139.921875,36.402494],[139.920502,36.402494],[139.919128,36.400836],[139.915009,36.401389],[139.916382,36.405258],[139.915009,36.405258],[139.915695,36.40581],[139.918442,36.409126],[139.921875,36.409679],[139.922562,36.406915],[139.923248,36.406915],[139.924622,36.404152],[139.923935,36.401389],[139.923248,36.402494],[139.921875,36.401942],[139.921875,36.402494]],[[139.921875,36.402494],[139.923935,36.404152],[139.921875,36.404705],[139.921875,36.402494]]]]}},{"type":"Feature","properties":{"layer_id":"bakumatsu_villages","name":"多功宿","address":"下野 河内郡","source":"Geoshape 幕末期近世村領域データセット vector tiles (z7 extraction)","subarea_name":"近世村のおおよその範囲","feature_key":"village:K08G06S00003","accuracy_note":"2015年農業集落境界をもとに復元した概略範囲で、江戸時代の正確な村境ではありません"},"geometry":{"type":"MultiPolygon","coordinates":[[[[139.866943,36.434542],[139.870377,36.433437],[139.86969,36.43178],[139.866943,36.432332],[139.866943,36.434542]]],[[[139.870377,36.433437],[139.87175,36.432885],[139.872437,36.42957],[139.87175,36.426255],[139.870377,36.426255],[139.870377,36.421282],[139.866257,36.421835],[139.866257,36.42073],[139.864883,36.421835],[139.866257,36.426808],[139.866943,36.432332],[139.86969,36.43178],[139.870377,36.433437]]],[[[139.875183,36.435647],[139.876556,36.433989],[139.88205,36.435094],[139.882736,36.431227],[139.881363,36.42515],[139.880676,36.42515],[139.880676,36.426808],[139.877243,36.426808],[139.87793,36.427912],[139.875183,36.427912],[139.87175,36.426255],[139.872437,36.435094],[139.875183,36.435647]]],[[[139.860077,36.415204],[139.85939,36.414099],[139.858704,36.410784],[139.856644,36.410784],[139.858704,36.415204],[139.860077,36.415204]]],[[[139.87793,36.427912],[139.877243,36.426808],[139.880676,36.426808],[139.880676,36.42515],[139.881363,36.42515],[139.881363,36.419072],[139.876556,36.419072],[139.876556,36.419625],[139.874496,36.419072],[139.873123,36.419072],[139.872437,36.416862],[139.871063,36.416862],[139.866257,36.412442],[139.862823,36.415757],[139.862137,36.41631],[139.864883,36.421835],[139.866257,36.42073],[139.866257,36.421835],[139.870377,36.421282],[139.870377,36.426255],[139.875183,36.427912],[139.87793,36.427912]]],[[[139.876556,36.419625],[139.876556,36.419072],[139.882736,36.419072],[139.882736,36.412994],[139.881363,36.412442],[139.878616,36.412994],[139.879303,36.414099],[139.875183,36.412994],[139.869003,36.414099],[139.871063,36.416862],[139.872437,36.416862],[139.873123,36.419072],[139.874496,36.419072],[139.876556,36.419625]]]]}},{"type":"Feature","properties":{"layer_id":"bakumatsu_villages","name":"大山村","address":"下野 河内郡","source":"Geoshape 幕末期近世村領域データセット vector tiles (z7 extraction)","subarea_name":"近世村のおおよその範囲","feature_key":"village:K08G06S00001","accuracy_note":"2015年農業集落境界をもとに復元した概略範囲で、江戸時代の正確な村境ではありません"},"geometry":{"type":"MultiPolygon","coordinates":[[[[139.873123,36.451113],[139.87381,36.442828],[139.87175,36.442276],[139.872437,36.440066],[139.871063,36.438409],[139.872437,36.437856],[139.87381,36.439514],[139.875183,36.439514],[139.874496,36.437856],[139.87793,36.437856],[139.876556,36.437304],[139.877243,36.435647],[139.872437,36.435094],[139.87175,36.433437],[139.86763,36.433989],[139.866943,36.436199],[139.868317,36.438409],[139.866257,36.440066],[139.86557,36.441171],[139.866943,36.44338],[139.868317,36.451113],[139.873123,36.451113]]],[[[139.875183,36.453875],[139.878616,36.451113],[139.879303,36.44559],[139.881363,36.444485],[139.882736,36.44338],[139.884109,36.446142],[139.886856,36.446142],[139.887543,36.443933],[139.888916,36.443933],[139.889603,36.441723],[139.888229,36.438961],[139.883423,36.439514],[139.883423,36.436199],[139.881363,36.436199],[139.874496,36.437856],[139.875183,36.439514],[139.874496,36.439514],[139.872437,36.437856],[139.871063,36.438409],[139.872437,36.440066],[139.87175,36.442276],[139.87381,36.442828],[139.872437,36.449456],[139.87381,36.453875],[139.875183,36.453875]]]]}},{"type":"Feature","properties":{"layer_id":"bakumatsu_villages","name":"小里村","address":"下野 河内郡","source":"Geoshape 幕末期近世村領域データセット vector tiles (z7 extraction)","subarea_name":"近世村のおおよその範囲","feature_key":"village:K08G06S00038","accuracy_note":"2015年農業集落境界をもとに復元した概略範囲で、江戸時代の正確な村境ではありません"},"geometry":{"type":"MultiPolygon","coordinates":[[[[139.919815,36.451113],[139.921188,36.450008],[139.925995,36.450561],[139.925995,36.448351],[139.934235,36.447247],[139.932175,36.443933],[139.930801,36.443933],[139.928741,36.439514],[139.924622,36.440066],[139.925308,36.44338],[139.921875,36.442276],[139.921875,36.444485],[139.916382,36.444485],[139.917068,36.449456],[139.919815,36.451113]]],[[[139.930801,36.443933],[139.934921,36.44338],[139.934235,36.442828],[139.936295,36.441723],[139.940414,36.440066],[139.935608,36.431227],[139.932861,36.432332],[139.930801,36.436199],[139.926682,36.436199],[139.930801,36.443933]]]]}},{"type":"Feature","properties":{"layer_id":"bakumatsu_villages","name":"川中子村","address":"下野 河内郡","source":"Geoshape 幕末期近世村領域データセット vector tiles (z7 extraction)","subarea_name":"近世村のおおよその範囲","feature_key":"village:K08G06S00009","accuracy_note":"2015年農業集落境界をもとに復元した概略範囲で、江戸時代の正確な村境ではありません"},"geometry":{"type":"MultiPolygon","coordinates":[[[[139.900589,36.460502],[139.900589,36.458845],[139.898529,36.458845],[139.897842,36.453875],[139.896469,36.453875],[139.896469,36.451113],[139.891663,36.451113],[139.892349,36.451665],[139.890976,36.451665],[139.890289,36.454427],[139.891663,36.460502],[139.900589,36.460502]]],[[[139.892349,36.451665],[139.891663,36.451113],[139.896469,36.451113],[139.896469,36.447799],[139.893723,36.447799],[139.893723,36.439514],[139.888916,36.440066],[139.889603,36.442276],[139.888916,36.443933],[139.886856,36.444485],[139.888229,36.448904],[139.890976,36.451665],[139.892349,36.451665]]],[[[139.888916,36.440066],[139.893723,36.439514],[139.893036,36.433437],[139.891663,36.433437],[139.891663,36.430122],[139.893723,36.430122],[139.893723,36.428465],[139.893036,36.421835],[139.890289,36.425703],[139.887543,36.435094],[139.888916,36.440066]]]]}},{"type":"Feature","properties":{"layer_id":"bakumatsu_villages","name":"東汗村","address":"下野 河内郡","source":"Geoshape 幕末期近世村領域データセット vector tiles (z7 extraction)","subarea_name":"近世村のおおよその範囲","feature_key":"village:K08G06S00045","accuracy_note":"2015年農業集落境界をもとに復元した概略範囲で、江戸時代の正確な村境ではありません"},"geometry":{"type":"Polygon","coordinates":[[[139.954834,36.475963],[139.958954,36.474307],[139.963074,36.470994],[139.957581,36.463815],[139.959641,36.461606],[139.948654,36.46492],[139.946594,36.467129],[139.944534,36.466576],[139.943848,36.467681],[139.941788,36.467681],[139.941788,36.466576],[139.939041,36.466576],[139.939041,36.467129],[139.934235,36.467129],[139.934921,36.474307],[139.936295,36.474307],[139.936981,36.475411],[139.946594,36.474307],[139.947281,36.474859],[139.954147,36.473202],[139.954834,36.475963]]]}},{"type":"Feature","properties":{"layer_id":"bakumatsu_villages","name":"東蓼沼村","address":"下野 河内郡","source":"Geoshape 幕末期近世村領域データセット vector tiles (z7 extraction)","subarea_name":"近世村のおおよその範囲","feature_key":"village:K08G06S00041","accuracy_note":"2015年農業集落境界をもとに復元した概略範囲で、江戸時代の正確な村境ではありません"},"geometry":{"type":"MultiPolygon","coordinates":[[[[139.943848,36.467681],[139.944534,36.466576],[139.946594,36.467129],[139.948654,36.46492],[139.952087,36.463815],[139.949341,36.460502],[139.945221,36.462159],[139.936981,36.462711],[139.936981,36.467129],[139.941788,36.466576],[139.941788,36.467681],[139.943848,36.467681]]],[[[139.941788,36.462711],[139.945221,36.462159],[139.949341,36.460502],[139.948654,36.457741],[139.946594,36.455531],[139.940414,36.457188],[139.941788,36.458845],[139.940414,36.460502],[139.941788,36.460502],[139.941788,36.462711]]],[[[139.952087,36.463815],[139.959641,36.461606],[139.958267,36.458293],[139.957581,36.457188],[139.956207,36.457741],[139.954834,36.454979],[139.947281,36.455531],[139.949341,36.45995],[139.952087,36.463815]]]]}},{"type":"Feature","properties":{"layer_id":"bakumatsu_villages","name":"東館村","address":"下野 河内郡","source":"Geoshape 幕末期近世村領域データセット vector tiles (z7 extraction)","subarea_name":"近世村のおおよその範囲","feature_key":"village:K08G06S00034","accuracy_note":"2015年農業集落境界をもとに復元した概略範囲で、江戸時代の正確な村境ではありません"},"geometry":{"type":"MultiPolygon","coordinates":[[[[139.916382,36.446142],[139.916382,36.444485],[139.921875,36.444485],[139.921875,36.442276],[139.925308,36.44338],[139.923248,36.436199],[139.919128,36.436199],[139.918442,36.437304],[139.917755,36.436199],[139.915695,36.437304],[139.916382,36.441171],[139.913635,36.442276],[139.915009,36.44338],[139.916382,36.446142]]],[[[139.918442,36.437304],[139.919128,36.436199],[139.923248,36.436199],[139.925308,36.435647],[139.924622,36.432885],[139.923935,36.432885],[139.923935,36.43178],[139.921875,36.430122],[139.921875,36.431227],[139.918442,36.431227],[139.919128,36.433437],[139.917755,36.433989],[139.917068,36.436199],[139.918442,36.437304]]]]}},{"type":"Feature","properties":{"layer_id":"bakumatsu_villages","name":"梁村","address":"下野 河内郡","source":"Geoshape 幕末期近世村領域データセット vector tiles (z7 extraction)","subarea_name":"近世村のおおよその範囲","feature_key":"village:K08G06S00002","accuracy_note":"2015年農業集落境界をもとに復元した概略範囲で、江戸時代の正確な村境ではありません"},"geometry":{"type":"MultiPolygon","coordinates":[[[[139.883423,36.439514],[139.888229,36.438961],[139.887543,36.436199],[139.888229,36.430122],[139.882736,36.431227],[139.88205,36.435094],[139.87587,36.434542],[139.875183,36.435647],[139.877243,36.435647],[139.876556,36.437304],[139.87793,36.437856],[139.881363,36.436199],[139.883423,36.436199],[139.883423,36.439514]]],[[[139.882736,36.431227],[139.888229,36.430122],[139.890289,36.424598],[139.893036,36.421835],[139.893036,36.421282],[139.890976,36.421282],[139.890976,36.419072],[139.884796,36.419625],[139.884796,36.41852],[139.882736,36.419072],[139.881363,36.419072],[139.882736,36.431227]]]]}},{"type":"Feature","properties":{"layer_id":"bakumatsu_villages","name":"橋本村","address":"下野 河内郡","source":"Geoshape 幕末期近世村領域データセット vector tiles (z7 extraction)","subarea_name":"近世村のおおよその範囲","feature_key":"village:K08G06S00039","accuracy_note":"2015年農業集落境界をもとに復元した概略範囲で、江戸時代の正確な村境ではありません"},"geometry":{"type":"Polygon","coordinates":[[[139.918442,36.462711],[139.921188,36.462159],[139.924622,36.458845],[139.925995,36.458845],[139.927368,36.457741],[139.933548,36.457741],[139.933548,36.456636],[139.936981,36.457188],[139.936981,36.454427],[139.930801,36.453322],[139.930115,36.451665],[139.929428,36.453322],[139.926682,36.453322],[139.925995,36.45277],[139.923935,36.453875],[139.923935,36.452218],[139.919815,36.451113],[139.920502,36.45277],[139.917755,36.457188],[139.918442,36.462711]]]}},{"type":"Feature","properties":{"layer_id":"bakumatsu_villages","name":"石田村","address":"下野 河内郡","source":"Geoshape 幕末期近世村領域データセット vector tiles (z7 extraction)","subarea_name":"近世村のおおよその範囲","feature_key":"village:K08G06S00066","accuracy_note":"2015年農業集落境界をもとに復元した概略範囲で、江戸時代の正確な村境ではありません"},"geometry":{"type":"MultiPolygon","coordinates":[[[[139.896469,36.471546],[139.897842,36.470994],[139.897842,36.469889],[139.903336,36.469889],[139.903336,36.468785],[139.900589,36.469337],[139.900589,36.468233],[139.898529,36.468233],[139.897842,36.463815],[139.893723,36.464367],[139.891663,36.45995],[139.889603,36.45995],[139.889603,36.462159],[139.884796,36.462159],[139.884796,36.46492],[139.886169,36.465472],[139.886169,36.467129],[139.888229,36.467129],[139.887543,36.467681],[139.889603,36.468233],[139.889603,36.469337],[139.891663,36.469337],[139.895782,36.468785],[139.895782,36.469337],[139.897156,36.469337],[139.896469,36.471546]]],[[[139.906769,36.48038],[139.906082,36.478724],[139.908829,36.479276],[139.908142,36.475963],[139.907455,36.473755],[139.906082,36.473755],[139.905396,36.469889],[139.901276,36.470442],[139.897842,36.469889],[139.897842,36.470994],[139.896469,36.471546],[139.897156,36.469337],[139.895782,36.469337],[139.895782,36.468785],[139.891663,36.469337],[139.892349,36.47265],[139.893036,36.473202],[139.893036,36.472098],[139.895782,36.472098],[139.895782,36.473755],[139.897156,36.473755],[139.897156,36.475411],[139.896469,36.475963],[139.901276,36.478172],[139.905396,36.478724],[139.906082,36.479828],[139.906769,36.48038]]],[[[139.906769,36.473755],[139.909515,36.471546],[139.908829,36.462711],[139.906082,36.463263],[139.901962,36.462159],[139.897842,36.463815],[139.898529,36.468233],[139.900589,36.468233],[139.899902,36.469337],[139.902649,36.468785],[139.903336,36.469889],[139.905396,36.469889],[139.906769,36.473755]]],[[[139.893723,36.464367],[139.898529,36.463815],[139.901962,36.462159],[139.906082,36.463263],[139.908829,36.462711],[139.908829,36.45995],[139.891663,36.460502],[139.893723,36.464367]]]]}},{"type":"Feature","properties":{"layer_id":"bakumatsu_villages","name":"磯新田","address":"下野 河内郡","source":"Geoshape 幕末期近世村領域データセット vector tiles (z7 extraction)","subarea_name":"近世村のおおよその範囲","feature_key":"village:K08G06S00043","accuracy_note":"2015年農業集落境界をもとに復元した概略範囲で、江戸時代の正確な村境ではありません"},"geometry":{"type":"Polygon","coordinates":[[[139.908142,36.488661],[139.907455,36.489213],[139.907455,36.490317],[139.909515,36.490317],[139.909515,36.488109],[139.909515,36.487557],[139.910889,36.487557],[139.910889,36.490869],[139.912949,36.488109],[139.912949,36.484245],[139.914322,36.484245],[139.914322,36.482589],[139.916382,36.482589],[139.913635,36.476515],[139.910889,36.475963],[139.910889,36.471546],[139.909515,36.469889],[139.909515,36.471546],[139.907455,36.473755],[139.908829,36.479828],[139.906082,36.478724],[139.906769,36.48038],[139.905396,36.48038],[139.904709,36.483693],[139.906769,36.484245],[139.905396,36.486453],[139.906769,36.485901],[139.908142,36.487005],[139.908142,36.488661]]]}},{"type":"Feature","properties":{"layer_id":"bakumatsu_villages","name":"粕田村・寺分村","address":"下野 芳賀郡","source":"Geoshape 幕末期近世村領域データセット vector tiles (z7 extraction)","subarea_name":"近世村のおおよその範囲","feature_key":"village:K08G07S00013,K08G07S00014","accuracy_note":"2015年農業集落境界をもとに復元した概略範囲で、江戸時代の正確な村境ではありません"},"geometry":{"type":"Polygon","coordinates":[[[139.939041,36.436752],[139.944534,36.435094],[139.946594,36.433437],[139.950027,36.432885],[139.952087,36.428465],[139.954147,36.428465],[139.954147,36.42515],[139.948654,36.424598],[139.947968,36.420177],[139.933548,36.422387],[139.934921,36.42957],[139.939041,36.436752]]]}},{"type":"Feature","properties":{"layer_id":"bakumatsu_villages","name":"西木代村","address":"下野 河内郡","source":"Geoshape 幕末期近世村領域データセット vector tiles (z7 extraction)","subarea_name":"近世村のおおよその範囲","feature_key":"village:K08G06S00047","accuracy_note":"2015年農業集落境界をもとに復元した概略範囲で、江戸時代の正確な村境ではありません"},"geometry":{"type":"Polygon","coordinates":[[[139.938354,36.484797],[139.941101,36.483693],[139.945908,36.483693],[139.944534,36.478724],[139.936295,36.479828],[139.936981,36.482036],[139.934921,36.482589],[139.934921,36.483693],[139.933548,36.484245],[139.934235,36.485349],[139.936295,36.485349],[139.937668,36.483693],[139.938354,36.484797]]]}},{"type":"Feature","properties":{"layer_id":"bakumatsu_villages","name":"西汗村","address":"下野 河内郡","source":"Geoshape 幕末期近世村領域データセット vector tiles (z7 extraction)","subarea_name":"近世村のおおよその範囲","feature_key":"village:K08G06S00044","accuracy_note":"2015年農業集落境界をもとに復元した概略範囲で、江戸時代の正確な村境ではありません"},"geometry":{"type":"MultiPolygon","coordinates":[[[[139.910889,36.490869],[139.919128,36.487005],[139.922562,36.486453],[139.929428,36.483141],[139.925308,36.475963],[139.923248,36.475963],[139.923248,36.476515],[139.915009,36.478724],[139.916382,36.482589],[139.914322,36.482589],[139.914322,36.484245],[139.912949,36.484245],[139.912949,36.488109],[139.910889,36.490869]]],[[[139.930115,36.484797],[139.934921,36.483693],[139.934921,36.482589],[139.936981,36.482036],[139.936295,36.479828],[139.939041,36.479828],[139.938354,36.477067],[139.934921,36.47762],[139.934235,36.475963],[139.930115,36.475963],[139.925308,36.478172],[139.930115,36.484797]]],[[[139.915009,36.478724],[139.923248,36.476515],[139.923248,36.475963],[139.925308,36.475963],[139.925308,36.478172],[139.930115,36.475963],[139.935608,36.475411],[139.934235,36.469337],[139.933548,36.469337],[139.933548,36.467129],[139.925995,36.467129],[139.925308,36.466576],[139.920502,36.467129],[139.919815,36.472098],[139.917068,36.475963],[139.913635,36.476515],[139.915009,36.478724]]]]}},{"type":"Feature","properties":{"layer_id":"bakumatsu_villages","name":"西蓼沼村","address":"下野 河内郡","source":"Geoshape 幕末期近世村領域データセット vector tiles (z7 extraction)","subarea_name":"近世村のおおよその範囲","feature_key":"village:K08G06S00042","accuracy_note":"2015年農業集落境界をもとに復元した概略範囲で、江戸時代の正確な村境ではありません"},"geometry":{"type":"MultiPolygon","coordinates":[[[[139.934235,36.469337],[139.934235,36.467129],[139.936981,36.467129],[139.936981,36.462711],[139.934235,36.462711],[139.934921,36.458845],[139.936295,36.458845],[139.935608,36.457188],[139.933548,36.456636],[139.933548,36.457741],[139.927368,36.457741],[139.925995,36.458845],[139.924622,36.458845],[139.921188,36.462159],[139.918442,36.462711],[139.920502,36.467129],[139.925308,36.466576],[139.925995,36.467129],[139.933548,36.467129],[139.933548,36.469337],[139.934235,36.469337]]],[[[139.941788,36.462711],[139.941788,36.460502],[139.940414,36.460502],[139.941788,36.458845],[139.940414,36.457188],[139.941788,36.456636],[139.936981,36.456636],[139.935608,36.457188],[139.936295,36.458845],[139.934921,36.458845],[139.934235,36.462711],[139.941788,36.462711]]]]}},{"type":"Feature","properties":{"layer_id":"bakumatsu_villages","name":"鞘堂新田","address":"下野 河内郡","source":"Geoshape 幕末期近世村領域データセット vector tiles (z7 extraction)","subarea_name":"近世村のおおよその範囲","feature_key":"village:K08G06S00067","accuracy_note":"2015年農業集落境界をもとに復元した概略範囲で、江戸時代の正確な村境ではありません"},"geometry":{"type":"Polygon","coordinates":[[[139.875183,36.467129],[139.876556,36.466576],[139.876556,36.465472],[139.87587,36.463815],[139.87587,36.460502],[139.873123,36.460502],[139.875183,36.459397],[139.87381,36.457741],[139.87587,36.456636],[139.873123,36.454427],[139.873123,36.451113],[139.871063,36.451113],[139.870377,36.457188],[139.86969,36.457188],[139.866257,36.452218],[139.866257,36.457188],[139.86557,36.457188],[139.866943,36.462711],[139.869003,36.462159],[139.869003,36.463263],[139.870377,36.463263],[139.871063,36.46492],[139.873123,36.464367],[139.87381,36.465472],[139.87587,36.466024],[139.875183,36.467129]]]}},{"type":"Feature","properties":{"layer_id":"edo_roads","name":"奥州道中","address":"江戸 → 三厩","source":"CODH 江戸主要街道データセット Version 4 (2026-08)","subarea_name":"江戸期の主要街道","feature_key":"road:R004"},"geometry":{"type":"LineString","coordinates":[[139.86629,36.45139],[139.86789,36.45622],[139.86814,36.458],[139.86897,36.46052]]}},{"type":"Feature","properties":{"layer_id":"edo_roads","name":"日光道中","address":"江戸 → 日光","source":"CODH 江戸主要街道データセット Version 4 (2026-08)","subarea_name":"江戸期の主要街道","feature_key":"road:R005"},"geometry":{"type":"LineString","coordinates":[[139.86629,36.45139],[139.86789,36.45622],[139.86814,36.458],[139.86897,36.46052]]}},{"type":"Feature","properties":{"layer_id":"historical_sites_archaeology","name":"上三川城跡","address":"栃木県 河内郡上三川町 大字上三川","source":"Geoshape 日本歴史地名大系 施設・地点項目データセット 2025-05-15","subarea_name":"城跡","feature_key":"05_castle_ruins.geojson:090000123500","subtype":"城跡"},"geometry":{"type":"Point","coordinates":[139.915473,36.436385]}},{"type":"Feature","properties":{"layer_id":"historical_sites_archaeology","name":"上神主遺跡","address":"栃木県 河内郡上三川町 大字上神主","source":"Geoshape 日本歴史地名大系 施設・地点項目データセット 2025-05-15","subarea_name":"遺跡","feature_key":"08_archaeological_sites.geojson:090000126300","subtype":"遺跡"},"geometry":{"type":"Point","coordinates":[139.881608,36.460621]}},{"type":"Feature","properties":{"layer_id":"historical_sites_archaeology","name":"多功城跡","address":"栃木県 河内郡上三川町 大字多功","source":"Geoshape 日本歴史地名大系 施設・地点項目データセット 2025-05-15","subarea_name":"城跡","feature_key":"05_castle_ruins.geojson:090000127000","subtype":"城跡"},"geometry":{"type":"Point","coordinates":[139.874314,36.430618]}},{"type":"Feature","properties":{"layer_id":"historical_sites_archaeology","name":"多功遺跡","address":"栃木県 河内郡上三川町 天神町","source":"Geoshape 日本歴史地名大系 施設・地点項目データセット 2025-05-15","subarea_name":"遺跡","feature_key":"08_archaeological_sites.geojson:090000127200","subtype":"遺跡"},"geometry":{"type":"Point","coordinates":[139.869446,36.435796]}},{"type":"Feature","properties":{"layer_id":"historical_sites_archaeology","name":"大山古墳群","address":"栃木県 河内郡上三川町 大字大山","source":"Geoshape 日本歴史地名大系 施設・地点項目データセット 2025-05-15","subarea_name":"古墳","feature_key":"06_kofun.geojson:090000126600","subtype":"古墳"},"geometry":{"type":"Point","coordinates":[139.879048,36.443649]}},{"type":"Feature","properties":{"layer_id":"historical_temples_shrines","name":"善応寺","address":"栃木県 河内郡上三川町 大字上三川5099番地","source":"Geoshape 日本歴史地名大系 施設・地点項目データセット 2025-05-15","subarea_name":"寺院","feature_key":"01_temples.geojson:090000123800","subtype":"寺院"},"geometry":{"type":"Point","coordinates":[139.915375,36.437801]}},{"type":"Feature","properties":{"layer_id":"historical_temples_shrines","name":"密興寺跡","address":"栃木県 河内郡上三川町 大字上蒲生","source":"Geoshape 日本歴史地名大系 施設・地点項目データセット 2025-05-15","subarea_name":"廃寺・廃社","feature_key":"03_abandoned_temples_shrines.geojson:090000122300","subtype":"廃寺・廃社"},"geometry":{"type":"Point","coordinates":[139.905941,36.446502]}},{"type":"Feature","properties":{"layer_id":"historical_temples_shrines","name":"普門寺","address":"栃木県 河内郡上三川町 大字上三川5117番地","source":"Geoshape 日本歴史地名大系 施設・地点項目データセット 2025-05-15","subarea_name":"寺院","feature_key":"01_temples.geojson:090000123600","subtype":"寺院"},"geometry":{"type":"Point","coordinates":[139.912445,36.437794]}},{"type":"Feature","properties":{"layer_id":"historical_temples_shrines","name":"満願寺","address":"栃木県 小山市 大字立木956番地","source":"Geoshape 日本歴史地名大系 施設・地点項目データセット 2025-05-15","subarea_name":"寺院","feature_key":"01_temples.geojson:090000125500","subtype":"寺院"},"geometry":{"type":"Point","coordinates":[139.945321,36.471356]}},{"type":"Feature","properties":{"layer_id":"historical_temples_shrines","name":"白鷺神社","address":"栃木県 河内郡上三川町 しらさぎ一丁目41番","source":"Geoshape 日本歴史地名大系 施設・地点項目データセット 2025-05-15","subarea_name":"神社","feature_key":"02_shrines.geojson:090000123700","subtype":"神社"},"geometry":{"type":"Point","coordinates":[139.913284,36.440693]}},{"type":"Feature","properties":{"layer_id":"historical_temples_shrines","name":"西念寺","address":"栃木県 河内郡上三川町 大字多功1841番地","source":"Geoshape 日本歴史地名大系 施設・地点項目データセット 2025-05-15","subarea_name":"寺院","feature_key":"01_temples.geojson:090000117700","subtype":"寺院"},"geometry":{"type":"Point","coordinates":[139.870773,36.432278]}},{"type":"Feature","properties":{"layer_id":"historical_temples_shrines","name":"見性寺","address":"栃木県 河内郡上三川町 大字多功1548番地","source":"Geoshape 日本歴史地名大系 施設・地点項目データセット 2025-05-15","subarea_name":"寺院","feature_key":"01_temples.geojson:090000127100","subtype":"寺院"},"geometry":{"type":"Point","coordinates":[139.874634,36.428749]}},{"type":"Feature","properties":{"layer_id":"historical_temples_shrines","name":"長泉寺","address":"栃木県 河内郡上三川町 しらさぎ一丁目51番","source":"Geoshape 日本歴史地名大系 施設・地点項目データセット 2025-05-15","subarea_name":"寺院","feature_key":"01_temples.geojson:090000123900","subtype":"寺院"},"geometry":{"type":"Point","coordinates":[139.914978,36.440609]}}]}