{"type":"FeatureCollection","municipality_code":"09411","pref":"栃木県","city":"那珂川町","layer_counts":{"bakumatsu_villages":29,"historical_sites_archaeology":13,"historical_temples_shrines":10},"total_features":52,"features":[{"type":"Feature","properties":{"layer_id":"bakumatsu_villages","name":"三輪村","address":"下野 那須郡","source":"Geoshape 幕末期近世村領域データセット vector tiles (z7 extraction)","subarea_name":"近世村のおおよその範囲","feature_key":"village:K08G08S00178","accuracy_note":"2015年農業集落境界をもとに復元した概略範囲で、江戸時代の正確な村境ではありません"},"geometry":{"type":"MultiPolygon","coordinates":[[[[140.091476,36.763092],[140.09079,36.761991],[140.089417,36.75484],[140.088043,36.75539],[140.088043,36.753189],[140.089417,36.748238],[140.08667,36.747138],[140.081177,36.747138],[140.081863,36.749888],[140.079117,36.751539],[140.07843,36.75649],[140.08049,36.759791],[140.08461,36.761441],[140.083923,36.763092],[140.08667,36.762542],[140.091476,36.763092]]],[[[140.115509,36.765842],[140.116882,36.765292],[140.117569,36.760341],[140.119629,36.760891],[140.120316,36.758691],[140.117569,36.759241],[140.116882,36.760341],[140.114136,36.760341],[140.114136,36.759241],[140.111389,36.758691],[140.107269,36.761991],[140.103836,36.757591],[140.101776,36.75704],[140.098343,36.758141],[140.091476,36.763092],[140.107269,36.763092],[140.110016,36.761441],[140.110703,36.763642],[140.113449,36.763642],[140.114136,36.761991],[140.115509,36.761991],[140.114136,36.764742],[140.115509,36.765842]]],[[[140.092163,36.762542],[140.098343,36.758141],[140.101776,36.75704],[140.103836,36.757591],[140.107269,36.761991],[140.111389,36.758691],[140.114136,36.759241],[140.114136,36.760341],[140.116882,36.760341],[140.118256,36.758141],[140.122375,36.75649],[140.121002,36.75594],[140.122375,36.75594],[140.124435,36.751539],[140.120316,36.75539],[140.116882,36.758141],[140.114136,36.757591],[140.112762,36.757591],[140.105896,36.752639],[140.103836,36.752089],[140.098343,36.748788],[140.094223,36.747138],[140.090103,36.747688],[140.088043,36.753189],[140.088043,36.75539],[140.089417,36.75484],[140.09079,36.761991],[140.092163,36.762542]]],[[[140.125122,36.757591],[140.128555,36.75704],[140.128555,36.75539],[140.127182,36.75484],[140.127869,36.751539],[140.125809,36.750989],[140.124435,36.751539],[140.122375,36.75594],[140.121002,36.75594],[140.122375,36.75649],[140.125122,36.75484],[140.125122,36.757591]]],[[[140.122375,36.75649],[140.118256,36.758141],[140.117569,36.759241],[140.121002,36.759241],[140.120316,36.758141],[140.122375,36.75649]]]]}},{"type":"Feature","properties":{"layer_id":"bakumatsu_villages","name":"久那瀬村","address":"下野 那須郡","source":"Geoshape 幕末期近世村領域データセット vector tiles (z7 extraction)","subarea_name":"近世村のおおよその範囲","feature_key":"village:K08G08S00197","accuracy_note":"2015年農業集落境界をもとに復元した概略範囲で、江戸時代の正確な村境ではありません"},"geometry":{"type":"MultiPolygon","coordinates":[[[[140.152588,36.740535],[140.152588,36.73008],[140.147781,36.728429],[140.142975,36.735583],[140.138855,36.738884],[140.152588,36.740535]]],[[[140.152588,36.733932],[140.156021,36.733381],[140.155334,36.73008],[140.161514,36.73063],[140.162201,36.729529],[140.158768,36.728429],[140.156708,36.729529],[140.155334,36.727878],[140.151901,36.728979],[140.153275,36.73118],[140.152588,36.73173],[140.152588,36.733932]]],[[[140.151901,36.729529],[140.154648,36.728429],[140.153275,36.727878],[140.153961,36.726778],[140.153275,36.723475],[140.158081,36.719623],[140.153961,36.716871],[140.151901,36.720173],[140.147781,36.727878],[140.149155,36.728979],[140.151901,36.729529]]],[[[140.164261,36.729529],[140.170441,36.726778],[140.173874,36.725677],[140.175247,36.722375],[140.162888,36.722925],[140.157394,36.719623],[140.153275,36.723475],[140.153961,36.726778],[140.153275,36.727878],[140.156021,36.728429],[140.156708,36.729529],[140.158768,36.728429],[140.164261,36.729529]]]]}},{"type":"Feature","properties":{"layer_id":"bakumatsu_villages","name":"健武村","address":"下野 那須郡","source":"Geoshape 幕末期近世村領域データセット vector tiles (z7 extraction)","subarea_name":"近世村のおおよその範囲","feature_key":"village:K08G08S00200","accuracy_note":"2015年農業集落境界をもとに復元した概略範囲で、江戸時代の正確な村境ではありません"},"geometry":{"type":"MultiPolygon","coordinates":[[[[140.182114,36.758141],[140.183487,36.75429],[140.185547,36.747138],[140.184174,36.746587],[140.18486,36.746037],[140.186234,36.747138],[140.18692,36.745487],[140.18486,36.744937],[140.184174,36.743836],[140.182114,36.742736],[140.18074,36.739985],[140.180054,36.740535],[140.180054,36.741635],[140.17868,36.741635],[140.17662,36.747688],[140.181427,36.753189],[140.181427,36.758141],[140.182114,36.758141]]],[[[140.198593,36.781242],[140.199966,36.780692],[140.202026,36.778492],[140.202026,36.775742],[140.19516,36.772992],[140.20134,36.764192],[140.202026,36.757591],[140.200653,36.75594],[140.196533,36.75594],[140.192413,36.75704],[140.19104,36.758691],[140.188293,36.770792],[140.187607,36.779042],[140.198593,36.781242]]],[[[140.188293,36.768042],[140.19104,36.758691],[140.192413,36.75704],[140.19104,36.75374],[140.19104,36.749888],[140.18898,36.749888],[140.188293,36.747138],[140.186234,36.747138],[140.18486,36.746037],[140.182114,36.758141],[140.181427,36.758141],[140.180054,36.760341],[140.188293,36.768042]]],[[[140.192413,36.75704],[140.199966,36.75594],[140.202026,36.748788],[140.191727,36.747138],[140.188293,36.748238],[140.18898,36.749888],[140.19104,36.749888],[140.19104,36.75374],[140.192413,36.75704]]],[[[140.202026,36.749338],[140.206146,36.748238],[140.209579,36.742736],[140.208893,36.737784],[140.210266,36.733932],[140.208206,36.73173],[140.204773,36.73173],[140.1931,36.736683],[140.18692,36.740535],[140.185547,36.742736],[140.18074,36.739985],[140.181427,36.742186],[140.18486,36.744937],[140.18692,36.745487],[140.186234,36.746587],[140.188293,36.747138],[140.188293,36.748238],[140.191727,36.747138],[140.19928,36.748238],[140.202026,36.749338]]],[[[140.208206,36.758141],[140.212326,36.750439],[140.219193,36.746037],[140.213699,36.735583],[140.210266,36.733932],[140.208893,36.737784],[140.209579,36.743286],[140.206146,36.748238],[140.202026,36.749338],[140.199966,36.75594],[140.200653,36.75594],[140.204086,36.758141],[140.208206,36.758141]]]]}},{"type":"Feature","properties":{"layer_id":"bakumatsu_villages","name":"冨山村","address":"下野 那須郡","source":"Geoshape 幕末期近世村領域データセット vector tiles (z7 extraction)","subarea_name":"近世村のおおよその範囲","feature_key":"village:K08G08S00187","accuracy_note":"2015年農業集落境界をもとに復元した概略範囲で、江戸時代の正確な村境ではありません"},"geometry":{"type":"MultiPolygon","coordinates":[[[[140.173187,36.697604],[140.174561,36.694851],[140.173874,36.690997],[140.171814,36.686592],[140.168381,36.682737],[140.167007,36.684389],[140.169754,36.689345],[140.166321,36.693199],[140.168381,36.6943],[140.168381,36.694851],[140.171127,36.695402],[140.171814,36.697053],[140.173187,36.697604]]],[[[140.182114,36.700907],[140.181427,36.696503],[140.188293,36.684389],[140.19104,36.681636],[140.186234,36.682737],[140.184174,36.680535],[140.181427,36.678883],[140.177994,36.681636],[140.173874,36.682737],[140.168381,36.682737],[140.171814,36.686592],[140.173874,36.690997],[140.174561,36.694851],[140.173187,36.697604],[140.182114,36.700907]]],[[[140.192413,36.702008],[140.193787,36.699255],[140.194473,36.696503],[140.191727,36.696503],[140.195847,36.685491],[140.195847,36.680535],[140.1931,36.680535],[140.19104,36.681636],[140.188293,36.684389],[140.181427,36.696503],[140.182114,36.700907],[140.192413,36.702008]]],[[[140.194473,36.710265],[140.196533,36.708064],[140.199966,36.705862],[140.210953,36.702559],[140.216446,36.697604],[140.217819,36.69375],[140.223312,36.688794],[140.220566,36.687693],[140.200653,36.695402],[140.1931,36.693199],[140.191727,36.696503],[140.194473,36.696503],[140.192413,36.702008],[140.191727,36.705862],[140.194473,36.710265]]],[[[140.200653,36.695402],[140.220566,36.687693],[140.219879,36.68494],[140.220566,36.683839],[140.222626,36.683839],[140.224686,36.677781],[140.223312,36.677231],[140.221252,36.677781],[140.221939,36.676129],[140.220566,36.673926],[140.215073,36.673376],[140.210953,36.675028],[140.210266,36.679433],[140.209579,36.680535],[140.20752,36.680535],[140.206833,36.682737],[140.20546,36.683839],[140.202713,36.682187],[140.20134,36.682737],[140.199966,36.680535],[140.195847,36.680535],[140.195847,36.685491],[140.1931,36.693199],[140.200653,36.695402]]]]}},{"type":"Feature","properties":{"layer_id":"bakumatsu_villages","name":"吉田村","address":"下野 那須郡","source":"Geoshape 幕末期近世村領域データセット vector tiles (z7 extraction)","subarea_name":"近世村のおおよその範囲","feature_key":"village:K08G08S00177","accuracy_note":"2015年農業集落境界をもとに復元した概略範囲で、江戸時代の正確な村境ではありません"},"geometry":{"type":"Polygon","coordinates":[[[140.135422,36.750989],[140.138168,36.750439],[140.136795,36.748238],[140.137482,36.744386],[140.138855,36.742186],[140.134735,36.741085],[140.133362,36.743286],[140.130615,36.742736],[140.130615,36.744937],[140.129929,36.745487],[140.127182,36.749888],[140.135422,36.750989]]]}},{"type":"Feature","properties":{"layer_id":"bakumatsu_villages","name":"向田村・三河又新田","address":"下野 那須郡","source":"Geoshape 幕末期近世村領域データセット vector tiles (z7 extraction)","subarea_name":"近世村のおおよその範囲","feature_key":"village:K08G08S00202,K08G08S00203","accuracy_note":"2015年農業集落境界をもとに復元した概略範囲で、江戸時代の正確な村境ではありません"},"geometry":{"type":"MultiPolygon","coordinates":[[[[140.158768,36.75704],[140.158081,36.75429],[140.156708,36.750989],[140.154648,36.750439],[140.150528,36.750439],[140.149155,36.748238],[140.147781,36.748238],[140.147095,36.746037],[140.147781,36.746037],[140.147781,36.744386],[140.147095,36.745487],[140.137482,36.744386],[140.136795,36.748238],[140.140228,36.753189],[140.142288,36.752089],[140.146408,36.751539],[140.158768,36.75704]]],[[[140.156708,36.750989],[140.155334,36.748238],[140.149155,36.744937],[140.149841,36.742736],[140.146408,36.743286],[140.146408,36.743836],[140.145035,36.743836],[140.145721,36.742736],[140.138168,36.742736],[140.137482,36.744386],[140.147095,36.745487],[140.147781,36.744386],[140.147781,36.746037],[140.147095,36.746037],[140.147781,36.748238],[140.149155,36.748238],[140.150528,36.750439],[140.154648,36.750439],[140.156708,36.750989]]],[[[140.155334,36.748238],[140.155334,36.742736],[140.153961,36.741085],[140.152588,36.740535],[140.138855,36.738884],[140.138168,36.742736],[140.145721,36.742736],[140.145035,36.743836],[140.146408,36.743836],[140.146408,36.743286],[140.149841,36.742736],[140.149155,36.744937],[140.155334,36.748238]]]]}},{"type":"Feature","properties":{"layer_id":"bakumatsu_villages","name":"和見村","address":"下野 那須郡","source":"Geoshape 幕末期近世村領域データセット vector tiles (z7 extraction)","subarea_name":"近世村のおおよその範囲","feature_key":"village:K08G08S00201","accuracy_note":"2015年農業集落境界をもとに復元した概略範囲で、江戸時代の正確な村境ではありません"},"geometry":{"type":"MultiPolygon","coordinates":[[[[140.177307,36.785642],[140.17868,36.785092],[140.17868,36.782892],[140.17662,36.779042],[140.177307,36.777942],[140.172501,36.774092],[140.171127,36.772442],[140.170441,36.773542],[140.167694,36.774642],[140.161514,36.772442],[140.164261,36.781242],[140.171814,36.782892],[140.177307,36.785642]]],[[[140.187607,36.774642],[140.188293,36.768042],[140.184174,36.763092],[140.180054,36.760891],[140.170441,36.763642],[140.167007,36.763642],[140.164261,36.759791],[140.158081,36.758691],[140.158768,36.765842],[140.160828,36.769692],[140.166321,36.767492],[140.167007,36.768042],[140.167694,36.766942],[140.169067,36.766942],[140.172501,36.768592],[140.180054,36.769692],[140.187607,36.774642]]],[[[140.170441,36.763642],[140.180054,36.760891],[140.18074,36.759241],[140.170441,36.75429],[140.165634,36.753189],[140.158081,36.75429],[140.158081,36.758691],[140.164261,36.759791],[140.167007,36.763642],[140.170441,36.763642]]],[[[140.187607,36.779042],[140.187607,36.774642],[140.180054,36.769692],[140.172501,36.768592],[140.169067,36.766942],[140.167694,36.766942],[140.167007,36.768042],[140.166321,36.767492],[140.160828,36.769692],[140.161514,36.772442],[140.167694,36.774642],[140.170441,36.773542],[140.170441,36.772442],[140.177307,36.777942],[140.181427,36.776842],[140.187607,36.779042]]],[[[140.18074,36.759241],[140.181427,36.753189],[140.177307,36.748788],[140.175247,36.749338],[140.166321,36.743286],[140.162201,36.743836],[140.161514,36.741085],[140.159454,36.742186],[140.160828,36.743286],[140.160141,36.743836],[140.158081,36.742186],[140.153961,36.741085],[140.155334,36.742736],[140.155334,36.748788],[140.158081,36.75429],[140.165634,36.753189],[140.172501,36.75484],[140.18074,36.759241]]]]}},{"type":"Feature","properties":{"layer_id":"bakumatsu_villages","name":"大内村","address":"下野 那須郡","source":"Geoshape 幕末期近世村領域データセット vector tiles (z7 extraction)","subarea_name":"近世村のおおよその範囲","feature_key":"village:K08G08S00204","accuracy_note":"2015年農業集落境界をもとに復元した概略範囲で、江戸時代の正確な村境ではありません"},"geometry":{"type":"MultiPolygon","coordinates":[[[[140.220566,36.768592],[140.225372,36.763642],[140.227432,36.763642],[140.223312,36.759241],[140.215073,36.759791],[140.210266,36.75429],[140.208206,36.758141],[140.206833,36.758691],[140.2034,36.757591],[140.206146,36.761991],[140.217133,36.768592],[140.220566,36.768592]]],[[[140.227432,36.763642],[140.230179,36.760341],[140.222626,36.75594],[140.222626,36.75374],[140.217819,36.746587],[140.213013,36.749888],[140.210266,36.75429],[140.215073,36.759791],[140.223312,36.759241],[140.227432,36.763642]]],[[[140.230179,36.760341],[140.234299,36.75539],[140.230865,36.752089],[140.228119,36.751539],[140.226059,36.748788],[140.218506,36.747138],[140.222626,36.75374],[140.222626,36.75594],[140.228119,36.759241],[140.230179,36.760341]]],[[[140.234299,36.75539],[140.239105,36.75484],[140.241852,36.75374],[140.248032,36.75429],[140.243225,36.750989],[140.235672,36.747688],[140.232925,36.747138],[140.231552,36.745487],[140.226746,36.749338],[140.228119,36.751539],[140.230865,36.752089],[140.234299,36.75539]]],[[[140.248032,36.75429],[140.250778,36.753189],[140.258331,36.75374],[140.260391,36.752639],[140.261765,36.748788],[140.263824,36.748238],[140.267258,36.744937],[140.259705,36.743836],[140.254211,36.741085],[140.231552,36.740535],[140.234299,36.743836],[140.231552,36.745487],[140.232239,36.746587],[140.243225,36.750989],[140.248032,36.75429]]],[[[140.226746,36.749338],[140.234299,36.743836],[140.231552,36.739985],[140.238419,36.732831],[140.239105,36.73063],[140.238419,36.728429],[140.233612,36.725677],[140.231552,36.725126],[140.228806,36.725677],[140.223999,36.73008],[140.213699,36.735583],[140.219193,36.746037],[140.217819,36.746587],[140.226746,36.749338]]],[[[140.267258,36.744937],[140.268631,36.742736],[140.270691,36.742736],[140.270004,36.735032],[140.266571,36.733932],[140.265884,36.735583],[140.259705,36.729529],[140.261765,36.722375],[140.255585,36.722925],[140.245972,36.720173],[140.237732,36.71577],[140.232239,36.725126],[140.238419,36.728429],[140.239105,36.73063],[140.238419,36.732831],[140.231552,36.740535],[140.254211,36.741085],[140.259018,36.743836],[140.263824,36.744386],[140.267258,36.744937]]]]}},{"type":"Feature","properties":{"layer_id":"bakumatsu_villages","name":"大山田上郷","address":"下野 那須郡","source":"Geoshape 幕末期近世村領域データセット vector tiles (z7 extraction)","subarea_name":"近世村のおおよその範囲","feature_key":"village:K08G08S00210","accuracy_note":"2015年農業集落境界をもとに復元した概略範囲で、江戸時代の正確な村境ではありません"},"geometry":{"type":"MultiPolygon","coordinates":[[[[140.206833,36.839515],[140.210266,36.838966],[140.210953,36.835668],[140.208206,36.83292],[140.208206,36.826875],[140.208893,36.825775],[140.211639,36.825775],[140.213013,36.819729],[140.208206,36.815332],[140.2034,36.816431],[140.19104,36.814782],[140.189667,36.81918],[140.191727,36.824127],[140.1931,36.826325],[140.194473,36.825226],[140.197906,36.824676],[140.199966,36.829073],[140.204086,36.83402],[140.204773,36.837866],[140.206833,36.839515]]],[[[140.217133,36.843362],[140.221252,36.840065],[140.221939,36.837866],[140.223999,36.839515],[140.230179,36.837866],[140.231552,36.834569],[140.230865,36.829073],[140.231552,36.828524],[140.228806,36.825226],[140.230179,36.821928],[140.227432,36.816981],[140.221252,36.817531],[140.220566,36.820829],[140.219193,36.821378],[140.213013,36.821378],[140.211639,36.825775],[140.208893,36.825775],[140.208206,36.826875],[140.208206,36.83292],[140.210953,36.835668],[140.209579,36.837866],[140.210953,36.840065],[140.214386,36.842263],[140.217133,36.843362]]],[[[140.219193,36.821378],[140.220566,36.820829],[140.221252,36.817531],[140.227432,36.816981],[140.228119,36.815881],[140.224686,36.814232],[140.222626,36.811484],[140.219879,36.811484],[140.217133,36.809834],[140.217133,36.807086],[140.215759,36.807086],[140.215759,36.808735],[140.212326,36.812583],[140.206146,36.813133],[140.2034,36.812583],[140.197906,36.809285],[140.1931,36.808735],[140.1931,36.812033],[140.19104,36.814782],[140.2034,36.816431],[140.208206,36.815332],[140.211639,36.81863],[140.213013,36.821378],[140.219193,36.821378]]],[[[140.228119,36.815881],[140.229492,36.815332],[140.230865,36.810934],[140.230865,36.806536],[140.233612,36.803787],[140.230179,36.798839],[140.228806,36.801038],[140.224686,36.801038],[140.225372,36.802138],[140.223312,36.801038],[140.220566,36.801038],[140.219879,36.802138],[140.215759,36.804337],[140.195847,36.804887],[140.1931,36.808735],[140.197906,36.809285],[140.2034,36.812583],[140.206146,36.813133],[140.212326,36.812583],[140.215759,36.808735],[140.215759,36.807086],[140.217133,36.807086],[140.217133,36.809834],[140.219879,36.811484],[140.222626,36.811484],[140.224686,36.814232],[140.228119,36.815881]]]]}},{"type":"Feature","properties":{"layer_id":"bakumatsu_villages","name":"大山田下郷","address":"下野 那須郡","source":"Geoshape 幕末期近世村領域データセット vector tiles (z7 extraction)","subarea_name":"近世村のおおよその範囲","feature_key":"village:K08G08S00211","accuracy_note":"2015年農業集落境界をもとに復元した概略範囲で、江戸時代の正確な村境ではありません"},"geometry":{"type":"MultiPolygon","coordinates":[[[[140.1931,36.797189],[140.212326,36.79279],[140.214386,36.790591],[140.213699,36.787291],[140.216446,36.786742],[140.215759,36.785092],[140.200653,36.785642],[140.1931,36.797189]]],[[[140.20546,36.784542],[140.210266,36.782342],[140.210953,36.779592],[140.212326,36.777392],[140.210953,36.776842],[140.210266,36.774092],[140.208893,36.772442],[140.195847,36.774092],[140.202026,36.775742],[140.202026,36.778492],[140.199966,36.780692],[140.199966,36.784542],[140.20546,36.784542]]],[[[140.195847,36.804887],[140.213699,36.804337],[140.219879,36.802138],[140.220566,36.801038],[140.223312,36.801038],[140.225372,36.802138],[140.224686,36.801038],[140.228806,36.801038],[140.230179,36.798839],[140.226746,36.79444],[140.219879,36.79499],[140.218506,36.79279],[140.193787,36.801588],[140.195847,36.802687],[140.195847,36.804887]]],[[[140.193787,36.801588],[140.218506,36.79279],[140.219879,36.79499],[140.226746,36.79444],[140.225372,36.784542],[140.225372,36.782892],[140.221939,36.782892],[140.220566,36.783442],[140.219193,36.785092],[140.215759,36.785092],[140.216446,36.786742],[140.213699,36.787291],[140.214386,36.790591],[140.212326,36.79279],[140.1931,36.797189],[140.192413,36.800488],[140.193787,36.801588]]],[[[140.199966,36.785642],[140.219193,36.785092],[140.220566,36.783442],[140.216446,36.778492],[140.213013,36.778492],[140.210953,36.779592],[140.210266,36.782342],[140.208893,36.783442],[140.20546,36.784542],[140.199966,36.783992],[140.199966,36.785642]]],[[[140.195847,36.774092],[140.208893,36.772442],[140.206146,36.771892],[140.208893,36.770792],[140.204773,36.768042],[140.204086,36.765842],[140.210266,36.764192],[140.206146,36.761991],[140.202026,36.75594],[140.200653,36.75649],[140.202026,36.757591],[140.20134,36.764192],[140.19516,36.772992],[140.195847,36.774092]]],[[[140.220566,36.783442],[140.225372,36.782892],[140.224686,36.778492],[140.230179,36.778492],[140.230179,36.776842],[140.229492,36.776292],[140.225372,36.771892],[140.222626,36.767492],[140.220566,36.768592],[140.217819,36.769142],[140.214386,36.767492],[140.210266,36.764192],[140.204086,36.765842],[140.204773,36.768042],[140.208893,36.770792],[140.206146,36.771892],[140.210266,36.774092],[140.210953,36.776842],[140.212326,36.777392],[140.211639,36.778492],[140.216446,36.778492],[140.220566,36.783442]]]]}},{"type":"Feature","properties":{"layer_id":"bakumatsu_villages","name":"大沢村","address":"下野 那須郡","source":"Geoshape 幕末期近世村領域データセット vector tiles (z7 extraction)","subarea_name":"近世村のおおよその範囲","feature_key":"village:K08G08S00167","accuracy_note":"2015年農業集落境界をもとに復元した概略範囲で、江戸時代の正確な村境ではありません"},"geometry":{"type":"Polygon","coordinates":[[[140.048904,36.787841],[140.059204,36.785642],[140.066757,36.785642],[140.067444,36.779592],[140.062637,36.774092],[140.061264,36.770242],[140.053024,36.772992],[140.046844,36.776292],[140.045471,36.779042],[140.044785,36.783442],[140.046158,36.787291],[140.048904,36.787841]]]}},{"type":"Feature","properties":{"layer_id":"bakumatsu_villages","name":"大那地村","address":"下野 那須郡","source":"Geoshape 幕末期近世村領域データセット vector tiles (z7 extraction)","subarea_name":"近世村のおおよその範囲","feature_key":"village:K08G08S00205","accuracy_note":"2015年農業集落境界をもとに復元した概略範囲で、江戸時代の正確な村境ではありません"},"geometry":{"type":"MultiPolygon","coordinates":[[[[140.256958,36.722925],[140.271378,36.719623],[140.278931,36.713018],[140.283051,36.710816],[140.283051,36.709715],[140.281677,36.708064],[140.280304,36.707513],[140.276871,36.707513],[140.274811,36.708614],[140.272064,36.708064],[140.270691,36.706963],[140.270691,36.705311],[140.267944,36.702559],[140.261765,36.702559],[140.259705,36.701458],[140.254898,36.703109],[140.253525,36.702008],[140.246658,36.702559],[140.245285,36.701458],[140.243225,36.708064],[140.240479,36.710816],[140.237732,36.71577],[140.248032,36.720723],[140.256958,36.722925]]],[[[140.271378,36.741635],[140.276871,36.739434],[140.279617,36.736133],[140.280991,36.736133],[140.284424,36.732831],[140.284424,36.73063],[140.28717,36.726778],[140.286484,36.724026],[140.28717,36.723475],[140.287857,36.720173],[140.28717,36.718522],[140.28923,36.717421],[140.291977,36.712467],[140.285797,36.713018],[140.283051,36.710816],[140.278931,36.713018],[140.272064,36.719072],[140.261765,36.722375],[140.259705,36.727328],[140.260391,36.73063],[140.265884,36.735583],[140.266571,36.733932],[140.270004,36.735032],[140.270004,36.739985],[140.271378,36.741635]]]]}},{"type":"Feature","properties":{"layer_id":"bakumatsu_villages","name":"小口村","address":"下野 那須郡","source":"Geoshape 幕末期近世村領域データセット vector tiles (z7 extraction)","subarea_name":"近世村のおおよその範囲","feature_key":"village:K08G08S00208","accuracy_note":"2015年農業集落境界をもとに復元した概略範囲で、江戸時代の正確な村境ではありません"},"geometry":{"type":"MultiPolygon","coordinates":[[[[140.156021,36.784542],[140.157394,36.783992],[140.156708,36.782892],[140.158081,36.782342],[140.164261,36.781242],[140.160141,36.768042],[140.152588,36.768592],[140.153961,36.772992],[140.151901,36.774092],[140.150528,36.772992],[140.147781,36.772992],[140.142975,36.777942],[140.138855,36.778492],[140.134735,36.776842],[140.131989,36.781242],[140.138855,36.779042],[140.140228,36.780692],[140.145035,36.781792],[140.148468,36.782342],[140.153275,36.781792],[140.154648,36.783992],[140.156021,36.784542]]],[[[140.138855,36.778492],[140.140915,36.777942],[140.144348,36.776842],[140.148468,36.772992],[140.150528,36.772992],[140.151901,36.774092],[140.153961,36.772442],[140.153275,36.770242],[140.151901,36.768042],[140.149841,36.767492],[140.149841,36.766942],[140.149155,36.763642],[140.145721,36.764742],[140.138855,36.763092],[140.134735,36.776842],[140.138855,36.778492]]],[[[140.149841,36.766942],[140.150528,36.765842],[140.149841,36.764192],[140.150528,36.761991],[140.147095,36.759791],[140.147095,36.75649],[140.143661,36.75539],[140.140915,36.75594],[140.141602,36.757591],[140.138855,36.763092],[140.145721,36.764742],[140.149155,36.763642],[140.149841,36.766942]]],[[[140.152588,36.768592],[140.160141,36.768042],[140.158081,36.758691],[140.158081,36.75649],[140.147095,36.752089],[140.142288,36.752089],[140.140228,36.753189],[140.140915,36.75594],[140.143661,36.75539],[140.147095,36.75649],[140.147095,36.759791],[140.150528,36.761991],[140.149841,36.764192],[140.150528,36.765842],[140.149841,36.766942],[140.152588,36.768592]]]]}},{"type":"Feature","properties":{"layer_id":"bakumatsu_villages","name":"小川村","address":"下野 那須郡","source":"Geoshape 幕末期近世村領域データセット vector tiles (z7 extraction)","subarea_name":"近世村のおおよその範囲","feature_key":"village:K08G08S00172","accuracy_note":"2015年農業集落境界をもとに復元した概略範囲で、江戸時代の正確な村境ではありません"},"geometry":{"type":"MultiPolygon","coordinates":[[[[140.112076,36.785642],[140.113449,36.785092],[140.126495,36.783442],[140.125809,36.782342],[140.124435,36.782892],[140.124435,36.781242],[140.123749,36.781242],[140.123749,36.781792],[140.122375,36.781792],[140.122375,36.782892],[140.121002,36.782892],[140.120316,36.782342],[140.121689,36.781792],[140.121689,36.781242],[140.116196,36.782342],[140.115509,36.780142],[140.114136,36.780692],[140.108643,36.779042],[140.107956,36.777392],[140.104523,36.779592],[140.103836,36.781242],[140.105896,36.782342],[140.105209,36.782892],[140.108643,36.784542],[140.109329,36.783992],[140.110016,36.785642],[140.110703,36.785092],[140.112076,36.785642]]],[[[140.116196,36.782342],[140.121002,36.781242],[140.120316,36.780692],[140.121689,36.780142],[140.121002,36.776842],[140.121689,36.776292],[140.123749,36.768042],[140.121002,36.769142],[140.116196,36.771342],[140.115509,36.773542],[140.114136,36.774092],[140.112762,36.777942],[140.108643,36.777942],[140.108643,36.779042],[140.114136,36.780692],[140.115509,36.780142],[140.116196,36.782342]]],[[[140.121002,36.781242],[140.122375,36.780692],[140.123749,36.778492],[140.125122,36.778492],[140.125809,36.774642],[140.121002,36.776842],[140.121689,36.780142],[140.120316,36.780692],[140.121002,36.781242]]],[[[140.126495,36.783442],[140.130615,36.782342],[140.134735,36.776842],[140.136108,36.771892],[140.130615,36.771342],[140.127869,36.770242],[140.126495,36.772442],[140.125122,36.771892],[140.125122,36.774092],[140.125809,36.774092],[140.125122,36.778492],[140.123749,36.778492],[140.121689,36.781792],[140.120316,36.782342],[140.121002,36.782892],[140.122375,36.782892],[140.122375,36.781792],[140.123749,36.781792],[140.123749,36.781242],[140.124435,36.781242],[140.124435,36.782892],[140.125809,36.782342],[140.126495,36.783442]]],[[[140.112762,36.777942],[140.114136,36.774092],[140.115509,36.773542],[140.116196,36.771892],[140.114822,36.771342],[140.114822,36.770792],[140.113449,36.770242],[140.112076,36.772442],[140.108643,36.773542],[140.109329,36.775192],[140.106583,36.775192],[140.107956,36.775742],[140.108643,36.777942],[140.112762,36.777942]]],[[[140.114822,36.771342],[140.121002,36.769142],[140.121689,36.765292],[140.122375,36.761991],[140.121002,36.761991],[140.121689,36.759241],[140.120316,36.758691],[140.119629,36.760891],[140.117569,36.760341],[140.116882,36.765292],[140.115509,36.765292],[140.113449,36.769142],[140.113449,36.770242],[140.114822,36.770792],[140.114822,36.771342]]],[[[140.121689,36.776292],[140.125809,36.774642],[140.125122,36.771892],[140.126495,36.772442],[140.127869,36.770242],[140.123062,36.769692],[140.121689,36.776292]]],[[[140.136108,36.771892],[140.137482,36.767492],[140.129929,36.765842],[140.129929,36.765292],[140.125809,36.765842],[140.121689,36.765292],[140.121002,36.769142],[140.123749,36.768042],[140.123062,36.769692],[140.133362,36.771892],[140.134048,36.771342],[140.136108,36.771892]]],[[[140.125122,36.757591],[140.125122,36.75484],[140.120316,36.758141],[140.121689,36.759241],[140.121002,36.761991],[140.125122,36.761441],[140.125809,36.760341],[140.126495,36.760341],[140.128555,36.758141],[140.128555,36.75704],[140.125122,36.757591]]],[[[140.125809,36.765842],[140.125809,36.763092],[140.129242,36.763092],[140.130615,36.760891],[140.128555,36.762542],[140.125122,36.762542],[140.125122,36.761441],[140.122375,36.761991],[140.121689,36.765292],[140.125809,36.765842]]],[[[140.130615,36.766392],[140.130615,36.764192],[140.129929,36.764192],[140.130615,36.763092],[140.125809,36.763092],[140.125809,36.765842],[140.129929,36.765292],[140.130615,36.766392]]],[[[140.128555,36.762542],[140.129242,36.761441],[140.127869,36.760891],[140.127869,36.759241],[140.125809,36.760341],[140.125122,36.762542],[140.128555,36.762542]]],[[[140.129242,36.761441],[140.130615,36.760891],[140.129242,36.757591],[140.127182,36.758691],[140.126495,36.760341],[140.127869,36.759241],[140.127869,36.760891],[140.129242,36.761441]]],[[[140.137482,36.767492],[140.138855,36.763092],[140.137482,36.761991],[140.135422,36.762542],[140.134048,36.762542],[140.134735,36.760341],[140.134048,36.760341],[140.131302,36.758691],[140.129242,36.759241],[140.130615,36.766392],[140.137482,36.767492]]],[[[140.138855,36.763092],[140.141602,36.757591],[140.140228,36.753189],[140.139542,36.752089],[140.136108,36.752639],[140.134735,36.75649],[140.135422,36.75649],[140.133362,36.758141],[140.134735,36.758141],[140.134048,36.760341],[140.134735,36.760341],[140.134048,36.762542],[140.135422,36.762542],[140.137482,36.761991],[140.138855,36.763092]]],[[[140.134048,36.760341],[140.134735,36.758141],[140.133362,36.758141],[140.135422,36.75649],[140.134735,36.75649],[140.136108,36.752639],[140.134735,36.752639],[140.134048,36.75374],[140.134735,36.75484],[140.131989,36.75649],[140.131989,36.757591],[140.129242,36.757591],[140.129929,36.759241],[140.131302,36.758691],[140.134048,36.760341]]],[[[140.128555,36.758141],[140.129929,36.757591],[140.131989,36.757591],[140.131989,36.75649],[140.134735,36.75484],[140.134048,36.75374],[140.134735,36.752639],[140.139542,36.752089],[140.138168,36.750439],[140.135422,36.750989],[140.133362,36.750439],[140.127869,36.750439],[140.127182,36.75484],[140.128555,36.75539],[140.128555,36.758141]]]]}},{"type":"Feature","properties":{"layer_id":"bakumatsu_villages","name":"小砂村","address":"下野 那須郡","source":"Geoshape 幕末期近世村領域データセット vector tiles (z7 extraction)","subarea_name":"近世村のおおよその範囲","feature_key":"village:K08G08S00209","accuracy_note":"2015年農業集落境界をもとに復元した概略範囲で、江戸時代の正確な村境ではありません"},"geometry":{"type":"MultiPolygon","coordinates":[[[[140.174561,36.827974],[140.179367,36.827424],[140.183487,36.824676],[140.1828,36.820829],[140.18692,36.819729],[140.1931,36.812033],[140.1931,36.809285],[140.184174,36.809834],[140.170441,36.802687],[140.167007,36.803787],[140.165634,36.803237],[140.163574,36.803787],[140.162201,36.805986],[140.164948,36.809834],[140.164948,36.814232],[140.168381,36.814782],[140.171127,36.816981],[140.169754,36.821928],[140.173187,36.824127],[140.172501,36.825775],[140.174561,36.827974]]],[[[140.165634,36.796639],[140.162888,36.79499],[140.160141,36.79499],[140.156708,36.791691],[140.157394,36.790041],[140.154648,36.789491],[140.153275,36.787841],[140.145721,36.790591],[140.145035,36.791691],[140.149841,36.796639],[140.151215,36.801038],[140.158768,36.801038],[140.160141,36.804887],[140.162201,36.805986],[140.167007,36.801588],[140.165634,36.796639]]],[[[140.144348,36.791691],[140.153961,36.787291],[140.151901,36.781792],[140.148468,36.782342],[140.140228,36.780692],[140.138855,36.779042],[140.131989,36.781242],[140.135422,36.782892],[140.136108,36.785092],[140.139542,36.788941],[140.142975,36.790591],[140.142975,36.791141],[140.144348,36.791691]]],[[[140.163574,36.79499],[140.164948,36.790041],[140.170441,36.786742],[140.171127,36.785092],[140.171127,36.782892],[140.164261,36.781242],[140.158081,36.782342],[140.156708,36.782892],[140.157394,36.783992],[140.156021,36.784542],[140.154648,36.783992],[140.153275,36.781792],[140.151901,36.781792],[140.151901,36.782342],[140.154648,36.789491],[140.157394,36.790041],[140.158081,36.79279],[140.160828,36.79499],[140.163574,36.79499]]],[[[140.169067,36.799938],[140.174561,36.799389],[140.173187,36.796639],[140.173187,36.79554],[140.175247,36.79499],[140.173874,36.788391],[140.171127,36.785092],[140.170441,36.786742],[140.164948,36.790041],[140.163574,36.79499],[140.169067,36.798839],[140.169067,36.799938]]],[[[140.184174,36.809834],[140.1931,36.808735],[140.195847,36.804337],[140.194473,36.803237],[140.19104,36.802138],[140.18074,36.802138],[140.177994,36.798839],[140.173874,36.799938],[140.169067,36.799938],[140.169067,36.798839],[140.166321,36.797739],[140.167694,36.800488],[140.165634,36.803237],[140.167007,36.803787],[140.170441,36.802687],[140.184174,36.809834]]],[[[140.195847,36.804337],[140.19516,36.802138],[140.192413,36.800488],[140.192413,36.797739],[140.18692,36.79389],[140.181427,36.791691],[140.181427,36.786742],[140.17868,36.785092],[140.177307,36.785642],[140.171127,36.782892],[140.171127,36.785092],[140.173874,36.788391],[140.175247,36.79499],[140.173187,36.79554],[140.173874,36.799389],[140.177994,36.798839],[140.18074,36.802138],[140.19104,36.802138],[140.195847,36.804337]]],[[[140.192413,36.797739],[140.199966,36.785642],[140.199966,36.780692],[140.196533,36.781242],[140.185547,36.777942],[140.184174,36.778492],[140.181427,36.776842],[140.17868,36.776842],[140.17662,36.779042],[140.17868,36.782892],[140.17868,36.785092],[140.181427,36.786742],[140.181427,36.791691],[140.18692,36.79389],[140.192413,36.797739]]]]}},{"type":"Feature","properties":{"layer_id":"bakumatsu_villages","name":"恩田村","address":"下野 那須郡","source":"Geoshape 幕末期近世村領域データセット vector tiles (z7 extraction)","subarea_name":"近世村のおおよその範囲","feature_key":"village:K08G08S00186","accuracy_note":"2015年農業集落境界をもとに復元した概略範囲で、江戸時代の正確な村境ではありません"},"geometry":{"type":"Polygon","coordinates":[[[140.108643,36.773542],[140.113449,36.770792],[140.115509,36.766392],[140.114136,36.764192],[140.115509,36.761991],[140.114136,36.761991],[140.113449,36.763642],[140.110703,36.763642],[140.110016,36.761441],[140.107269,36.763092],[140.095596,36.763642],[140.08667,36.762542],[140.083237,36.764192],[140.08461,36.765292],[140.090103,36.764742],[140.093536,36.769142],[140.096283,36.769142],[140.099716,36.770792],[140.106583,36.769692],[140.108643,36.773542]]]}},{"type":"Feature","properties":{"layer_id":"bakumatsu_villages","name":"東戸田村","address":"下野 那須郡","source":"Geoshape 幕末期近世村領域データセット vector tiles (z7 extraction)","subarea_name":"近世村のおおよその範囲","feature_key":"village:K08G08S00179","accuracy_note":"2015年農業集落境界をもとに復元した概略範囲で、江戸時代の正確な村境ではありません"},"geometry":{"type":"MultiPolygon","coordinates":[[[[140.096283,36.748238],[140.097656,36.747138],[140.094223,36.741085],[140.100403,36.73063],[140.097656,36.73008],[140.093536,36.732831],[140.09079,36.733381],[140.08461,36.739985],[140.085297,36.742186],[140.08255,36.744937],[140.083923,36.746037],[140.08049,36.744937],[140.081177,36.747138],[140.08667,36.747138],[140.089417,36.748238],[140.09079,36.747138],[140.091476,36.748238],[140.094223,36.747138],[140.096283,36.748238]]],[[[140.099716,36.749338],[140.106583,36.742736],[140.100403,36.740535],[140.101089,36.738884],[140.100403,36.738884],[140.100403,36.737233],[140.104523,36.732831],[140.103149,36.732281],[140.103149,36.73173],[140.102463,36.73063],[140.100403,36.73063],[140.093536,36.742186],[140.095596,36.742736],[140.097656,36.747138],[140.096283,36.748238],[140.099716,36.749338]]],[[[140.116882,36.758141],[140.120316,36.75539],[140.116196,36.75374],[140.114136,36.75429],[140.110703,36.750989],[140.113449,36.742736],[140.112762,36.741085],[140.106583,36.742736],[140.099716,36.749338],[140.103836,36.752089],[140.106583,36.753189],[140.112076,36.757591],[140.116882,36.758141]]]]}},{"type":"Feature","properties":{"layer_id":"bakumatsu_villages","name":"松野村","address":"下野 那須郡","source":"Geoshape 幕末期近世村領域データセット vector tiles (z7 extraction)","subarea_name":"近世村のおおよその範囲","feature_key":"village:K08G08S00188","accuracy_note":"2015年農業集落境界をもとに復元した概略範囲で、江戸時代の正確な村境ではありません"},"geometry":{"type":"MultiPolygon","coordinates":[[[[140.166321,36.709164],[140.162888,36.708064],[140.162888,36.709715],[140.161514,36.711366],[140.160141,36.711366],[140.158768,36.714669],[140.153961,36.716871],[140.162888,36.722925],[140.175247,36.722375],[140.17868,36.721274],[140.171127,36.71577],[140.166321,36.709164]]],[[[140.172501,36.716871],[140.175934,36.711917],[140.172501,36.706412],[140.169067,36.70366],[140.169754,36.702008],[140.167694,36.702008],[140.166321,36.702559],[140.160828,36.699806],[140.160141,36.711366],[140.162201,36.711366],[140.162888,36.708064],[140.166321,36.709164],[140.166321,36.708064],[140.172501,36.716871]]],[[[140.183487,36.721274],[140.185547,36.719072],[140.189667,36.717421],[140.194473,36.710265],[140.191727,36.705862],[140.192413,36.702008],[140.186234,36.702008],[140.180054,36.700356],[140.171814,36.697053],[140.171127,36.695402],[140.168381,36.694851],[140.168381,36.6943],[140.166321,36.693199],[140.164948,36.694851],[140.170441,36.698705],[140.169754,36.699806],[140.170441,36.700356],[140.169067,36.70366],[140.172501,36.706412],[140.175934,36.711917],[140.172501,36.716871],[140.17868,36.721274],[140.183487,36.721274]]],[[[140.166321,36.702559],[140.167694,36.702008],[140.169754,36.702008],[140.170441,36.700356],[140.169754,36.699806],[140.170441,36.698705],[140.164948,36.694851],[140.160828,36.699806],[140.166321,36.702559]]]]}},{"type":"Feature","properties":{"layer_id":"bakumatsu_villages","name":"浄法寺村","address":"下野 那須郡","source":"Geoshape 幕末期近世村領域データセット vector tiles (z7 extraction)","subarea_name":"近世村のおおよその範囲","feature_key":"village:K08G08S00182","accuracy_note":"2015年農業集落境界をもとに復元した概略範囲で、江戸時代の正確な村境ではありません"},"geometry":{"type":"MultiPolygon","coordinates":[[[[140.085297,36.799389],[140.09079,36.796639],[140.091476,36.797739],[140.098343,36.79554],[140.09697,36.791691],[140.090103,36.79389],[140.08873,36.791141],[140.087357,36.791141],[140.083237,36.79334],[140.079803,36.79389],[140.079803,36.796639],[140.085297,36.799389]]],[[[140.090103,36.79389],[140.09697,36.791691],[140.09697,36.79224],[140.09903,36.79224],[140.098343,36.791141],[140.101089,36.790041],[140.101089,36.788941],[140.105896,36.784542],[140.104523,36.784542],[140.101776,36.781792],[140.097656,36.780692],[140.09491,36.781792],[140.095596,36.782892],[140.093536,36.783992],[140.08461,36.782892],[140.081177,36.785092],[140.083237,36.788391],[140.077744,36.791141],[140.079803,36.79389],[140.083237,36.79334],[140.087357,36.791141],[140.08873,36.791141],[140.090103,36.79389]]],[[[140.098343,36.79554],[140.109329,36.791141],[140.107269,36.786742],[140.105209,36.785642],[140.101089,36.788941],[140.101089,36.790041],[140.098343,36.791141],[140.09903,36.79224],[140.09697,36.79224],[140.098343,36.79554]]],[[[140.109329,36.791141],[140.112076,36.790591],[140.111389,36.789491],[140.112076,36.788941],[140.111389,36.788391],[140.113449,36.785642],[140.112076,36.785642],[140.110703,36.785092],[140.110016,36.785642],[140.109329,36.783992],[140.107269,36.783992],[140.105209,36.782892],[140.104523,36.780692],[140.101776,36.781792],[140.104523,36.784542],[140.105896,36.784542],[140.105209,36.785642],[140.107269,36.786742],[140.109329,36.791141]]]]}},{"type":"Feature","properties":{"layer_id":"bakumatsu_villages","name":"片平村","address":"下野 那須郡","source":"Geoshape 幕末期近世村領域データセット vector tiles (z7 extraction)","subarea_name":"近世村のおおよその範囲","feature_key":"village:K08G08S00180","accuracy_note":"2015年農業集落境界をもとに復元した概略範囲で、江戸時代の正確な村境ではありません"},"geometry":{"type":"MultiPolygon","coordinates":[[[[140.120316,36.75539],[140.121689,36.75374],[140.125809,36.750989],[140.125809,36.750439],[140.125122,36.748788],[140.126495,36.747688],[140.123749,36.747688],[140.120316,36.746037],[140.120316,36.745487],[140.118942,36.746037],[140.116196,36.744386],[140.114822,36.744937],[140.114136,36.742736],[140.112762,36.741085],[140.113449,36.742736],[140.110703,36.750989],[140.112762,36.753189],[140.114136,36.75429],[140.116196,36.75374],[140.120316,36.75539]]],[[[140.127869,36.751539],[140.128555,36.747138],[140.130615,36.744937],[140.130615,36.742736],[140.128555,36.743836],[140.125809,36.742736],[140.121689,36.742186],[140.118942,36.733932],[140.118942,36.732831],[140.116196,36.728429],[140.113449,36.727328],[140.108643,36.726778],[140.103149,36.73118],[140.103149,36.732281],[140.104523,36.732831],[140.100403,36.737233],[140.100403,36.738884],[140.101089,36.738884],[140.100403,36.740535],[140.105896,36.742736],[140.112762,36.741085],[140.114822,36.744937],[140.116196,36.744386],[140.118942,36.746037],[140.120316,36.745487],[140.120316,36.746037],[140.123749,36.747688],[140.126495,36.747688],[140.125122,36.749338],[140.125809,36.751539],[140.127869,36.751539]]]]}},{"type":"Feature","properties":{"layer_id":"bakumatsu_villages","name":"白久村","address":"下野 那須郡","source":"Geoshape 幕末期近世村領域データセット vector tiles (z7 extraction)","subarea_name":"近世村のおおよその範囲","feature_key":"village:K08G08S00174","accuracy_note":"2015年農業集落境界をもとに復元した概略範囲で、江戸時代の正確な村境ではありません"},"geometry":{"type":"MultiPolygon","coordinates":[[[[140.133362,36.736133],[140.133362,36.732831],[140.134048,36.732281],[140.136108,36.732281],[140.138855,36.727328],[140.140915,36.728429],[140.147095,36.728429],[140.147781,36.727878],[140.145035,36.727328],[140.147781,36.722925],[140.146408,36.722375],[140.141602,36.725126],[140.136108,36.724026],[140.135422,36.722375],[140.129929,36.719623],[140.129929,36.716871],[140.125809,36.714669],[140.121002,36.716871],[140.118942,36.721824],[140.116882,36.721274],[140.116196,36.721824],[140.119629,36.724026],[140.116196,36.725677],[140.116882,36.726778],[140.115509,36.727878],[140.114136,36.727878],[140.116882,36.729529],[140.120316,36.733932],[140.127869,36.734482],[140.128555,36.733932],[140.133362,36.736133]]],[[[140.121002,36.716871],[140.119629,36.718522],[140.116882,36.718522],[140.115509,36.720723],[140.114822,36.720723],[140.113449,36.727328],[140.115509,36.727878],[140.116882,36.726778],[140.116196,36.725677],[140.119629,36.724026],[140.116196,36.721274],[140.118942,36.721824],[140.121002,36.716871]]],[[[140.121002,36.716871],[140.124435,36.714669],[140.126495,36.714669],[140.123062,36.712467],[140.121689,36.711917],[140.121689,36.714669],[140.121002,36.716871]]],[[[140.141602,36.725126],[140.145035,36.722925],[140.136108,36.721274],[140.134048,36.719623],[140.131302,36.715219],[140.126495,36.714669],[140.129929,36.717421],[140.129929,36.719623],[140.135422,36.722375],[140.136108,36.724026],[140.141602,36.725126]]]]}},{"type":"Feature","properties":{"layer_id":"bakumatsu_villages","name":"盛泉村","address":"下野 那須郡","source":"Geoshape 幕末期近世村領域データセット vector tiles (z7 extraction)","subarea_name":"近世村のおおよその範囲","feature_key":"village:K08G08S00207","accuracy_note":"2015年農業集落境界をもとに復元した概略範囲で、江戸時代の正確な村境ではありません"},"geometry":{"type":"MultiPolygon","coordinates":[[[[140.243912,36.788391],[140.250778,36.786192],[140.252838,36.784542],[140.252838,36.782892],[140.254898,36.780692],[140.254898,36.779042],[140.249405,36.777942],[140.250092,36.776842],[140.248718,36.776292],[140.238419,36.773542],[140.239792,36.781242],[140.242538,36.785092],[140.243912,36.788391]]],[[[140.237732,36.771342],[140.239792,36.769692],[140.239792,36.767492],[140.248032,36.75429],[140.241852,36.75374],[140.239105,36.75484],[140.234299,36.75539],[140.227432,36.763642],[140.224686,36.764742],[140.228806,36.765292],[140.229492,36.766392],[140.233612,36.769692],[140.236359,36.769142],[140.235672,36.770792],[140.237732,36.771342]]],[[[140.254898,36.779042],[140.256958,36.776842],[140.256271,36.775742],[140.253525,36.774642],[140.255585,36.772442],[140.258331,36.771342],[140.260391,36.768042],[140.258331,36.766392],[140.256271,36.766392],[140.254898,36.764742],[140.246658,36.771342],[140.241165,36.774092],[140.248718,36.776292],[140.250092,36.776842],[140.249405,36.777942],[140.254898,36.779042]]],[[[140.241165,36.774092],[140.244598,36.772442],[140.254898,36.764742],[140.255585,36.761441],[140.254211,36.760341],[140.259018,36.75484],[140.258331,36.75374],[140.250778,36.753189],[140.248032,36.75429],[140.239792,36.767492],[140.239792,36.769692],[140.237732,36.771342],[140.237045,36.772992],[140.238419,36.773542],[140.241165,36.774092]]]]}},{"type":"Feature","properties":{"layer_id":"bakumatsu_villages","name":"矢又村","address":"下野 那須郡","source":"Geoshape 幕末期近世村領域データセット vector tiles (z7 extraction)","subarea_name":"近世村のおおよその範囲","feature_key":"village:K08G08S00198","accuracy_note":"2015年農業集落境界をもとに復元した概略範囲で、江戸時代の正確な村境ではありません"},"geometry":{"type":"MultiPolygon","coordinates":[[[[140.1931,36.736683],[140.204773,36.73173],[140.198593,36.729529],[140.18898,36.728979],[140.18486,36.725677],[140.181427,36.721824],[140.177307,36.721274],[140.174561,36.723475],[140.173874,36.725677],[140.175934,36.73118],[140.175247,36.73173],[140.177307,36.732281],[140.177307,36.733381],[140.1931,36.736683]]],[[[140.208206,36.73173],[140.20546,36.726778],[140.197906,36.720723],[140.19722,36.718522],[140.198593,36.717421],[140.192413,36.713568],[140.189667,36.717421],[140.181427,36.721824],[140.18486,36.725677],[140.18898,36.728979],[140.198593,36.729529],[140.2034,36.73173],[140.208206,36.73173]]],[[[140.217133,36.717972],[140.211639,36.713568],[140.211639,36.708064],[140.219193,36.699806],[140.219193,36.696503],[140.217819,36.69375],[140.216446,36.697604],[140.210953,36.702559],[140.19722,36.706963],[140.192413,36.713568],[140.19928,36.717972],[140.217133,36.717972]]],[[[140.213699,36.735583],[140.223999,36.73008],[140.228119,36.726227],[140.232239,36.725126],[140.231552,36.724026],[140.228119,36.721274],[140.221252,36.717972],[140.198593,36.717421],[140.19722,36.718522],[140.197906,36.720723],[140.20546,36.726778],[140.208893,36.733381],[140.213699,36.735583]]],[[[140.232239,36.725126],[140.235672,36.720173],[140.240479,36.710816],[140.243225,36.708064],[140.245285,36.700907],[140.243912,36.697604],[140.241165,36.698154],[140.241165,36.698705],[140.239792,36.699255],[140.235672,36.699255],[140.232925,36.700356],[140.229492,36.699255],[140.227432,36.696503],[140.226059,36.692649],[140.223312,36.689345],[140.217819,36.69375],[140.219193,36.696503],[140.219193,36.699806],[140.211639,36.708064],[140.211639,36.713568],[140.217133,36.717972],[140.223312,36.719072],[140.230865,36.722925],[140.232239,36.725126]]]]}},{"type":"Feature","properties":{"layer_id":"bakumatsu_villages","name":"苅田村","address":"下野 那須郡","source":"Geoshape 幕末期近世村領域データセット vector tiles (z7 extraction)","subarea_name":"近世村のおおよその範囲","feature_key":"village:K08G08S00183","accuracy_note":"2015年農業集落境界をもとに復元した概略範囲で、江戸時代の正確な村境ではありません"},"geometry":{"type":"Polygon","coordinates":[[[140.066757,36.785642],[140.073624,36.785092],[140.074997,36.781792],[140.07637,36.781792],[140.081177,36.779042],[140.081177,36.776292],[140.079803,36.775742],[140.079803,36.768592],[140.077744,36.765842],[140.072937,36.769142],[140.069504,36.770242],[140.067444,36.773542],[140.061951,36.771342],[140.062637,36.774092],[140.06813,36.780142],[140.066757,36.780692],[140.067444,36.782342],[140.066757,36.785642]]]}},{"type":"Feature","properties":{"layer_id":"bakumatsu_villages","name":"薬利村","address":"下野 那須郡","source":"Geoshape 幕末期近世村領域データセット vector tiles (z7 extraction)","subarea_name":"近世村のおおよその範囲","feature_key":"village:K08G08S00185","accuracy_note":"2015年農業集落境界をもとに復元した概略範囲で、江戸時代の正確な村境ではありません"},"geometry":{"type":"MultiPolygon","coordinates":[[[[140.081177,36.785092],[140.083237,36.783992],[140.083237,36.782342],[140.08461,36.781242],[140.087357,36.780692],[140.088043,36.779592],[140.090103,36.779042],[140.088043,36.770792],[140.083237,36.764192],[140.079803,36.769142],[140.079803,36.775742],[140.081177,36.776292],[140.081177,36.779042],[140.07637,36.781792],[140.074997,36.781792],[140.073624,36.785092],[140.081177,36.785092]]],[[[140.093536,36.783992],[140.096283,36.780692],[140.101776,36.781792],[140.104523,36.780692],[140.104523,36.779592],[140.105209,36.778492],[140.107956,36.777392],[140.107956,36.775742],[140.106583,36.775192],[140.109329,36.775192],[140.107269,36.770242],[140.105209,36.769692],[140.099716,36.770792],[140.096283,36.769142],[140.093536,36.769142],[140.090103,36.764742],[140.083923,36.765292],[140.088043,36.770792],[140.090103,36.779042],[140.088043,36.779592],[140.087357,36.780692],[140.08461,36.781242],[140.083237,36.782342],[140.083923,36.783442],[140.093536,36.783992]]]]}},{"type":"Feature","properties":{"layer_id":"bakumatsu_villages","name":"谷川村","address":"下野 那須郡","source":"Geoshape 幕末期近世村領域データセット vector tiles (z7 extraction)","subarea_name":"近世村のおおよその範囲","feature_key":"village:K08G08S00206","accuracy_note":"2015年農業集落境界をもとに復元した概略範囲で、江戸時代の正確な村境ではありません"},"geometry":{"type":"MultiPolygon","coordinates":[[[[140.232925,36.802687],[140.234299,36.802138],[140.234299,36.800488],[140.236359,36.798289],[140.238419,36.797739],[140.239792,36.79609],[140.244598,36.791691],[140.242538,36.785092],[140.239792,36.780692],[140.233612,36.780142],[140.225372,36.784542],[140.227432,36.79499],[140.232925,36.802687]]],[[[140.225372,36.784542],[140.233612,36.780142],[140.239792,36.780692],[140.238419,36.773542],[140.237045,36.772442],[140.236359,36.772992],[140.229492,36.772992],[140.230179,36.778492],[140.224686,36.778492],[140.225372,36.784542]]],[[[140.229492,36.776292],[140.230179,36.772992],[140.237045,36.772442],[140.237732,36.771342],[140.235672,36.770792],[140.236359,36.769142],[140.233612,36.769692],[140.229492,36.766392],[140.228806,36.765292],[140.224686,36.764742],[140.222626,36.766942],[140.223999,36.770792],[140.229492,36.776292]]]]}},{"type":"Feature","properties":{"layer_id":"bakumatsu_villages","name":"谷田村","address":"下野 那須郡","source":"Geoshape 幕末期近世村領域データセット vector tiles (z7 extraction)","subarea_name":"近世村のおおよその範囲","feature_key":"village:K08G08S00176","accuracy_note":"2015年農業集落境界をもとに復元した概略範囲で、江戸時代の正確な村境ではありません"},"geometry":{"type":"Polygon","coordinates":[[[140.128555,36.743836],[140.129929,36.742736],[140.133362,36.743286],[140.134735,36.741085],[140.138855,36.742186],[140.138855,36.738884],[140.142975,36.735583],[140.147095,36.728429],[140.140915,36.728429],[140.138855,36.727328],[140.136108,36.732281],[140.134048,36.732281],[140.133362,36.732831],[140.133362,36.736133],[140.132675,36.736683],[140.133362,36.737233],[140.129929,36.742186],[140.127182,36.743286],[140.128555,36.743836]]]}},{"type":"Feature","properties":{"layer_id":"bakumatsu_villages","name":"馬頭村","address":"下野 那須郡","source":"Geoshape 幕末期近世村領域データセット vector tiles (z7 extraction)","subarea_name":"近世村のおおよその範囲","feature_key":"village:K08G08S00199","accuracy_note":"2015年農業集落境界をもとに復元した概略範囲で、江戸時代の正確な村境ではありません"},"geometry":{"type":"MultiPolygon","coordinates":[[[[140.162201,36.743836],[140.165634,36.743286],[140.165634,36.739985],[140.167007,36.736133],[140.166321,36.736133],[140.167007,36.734482],[140.165634,36.734482],[140.165634,36.735583],[140.163574,36.735032],[140.163574,36.736133],[140.162201,36.736133],[140.159454,36.739434],[140.160141,36.741085],[140.162201,36.741635],[140.162201,36.743836]]],[[[140.175247,36.749338],[140.177307,36.748788],[140.17662,36.747688],[140.17868,36.742186],[140.173874,36.736133],[140.171127,36.739985],[140.171814,36.741635],[140.169754,36.744937],[140.175247,36.749338]]],[[[140.160141,36.743836],[140.160828,36.743286],[140.159454,36.742186],[140.161514,36.741085],[140.160141,36.741085],[140.159454,36.739434],[140.163574,36.735032],[140.165634,36.735583],[140.166321,36.732281],[140.163574,36.733381],[140.159454,36.73063],[140.155334,36.73008],[140.156021,36.733381],[140.152588,36.733381],[140.152588,36.740535],[140.158081,36.742186],[140.160141,36.743836]]],[[[140.169754,36.735583],[140.17662,36.732831],[140.175247,36.73173],[140.175934,36.73118],[140.173874,36.725677],[140.170441,36.726778],[140.164261,36.729529],[140.162201,36.729529],[140.161514,36.73063],[140.159454,36.73063],[140.163574,36.733381],[140.167007,36.732281],[140.169067,36.734482],[140.168381,36.735032],[140.169754,36.735583]]],[[[140.169754,36.744937],[140.171814,36.741635],[140.171127,36.739985],[140.173874,36.736133],[140.172501,36.734482],[140.169754,36.735583],[140.168381,36.735032],[140.169067,36.734482],[140.166321,36.732281],[140.165634,36.734482],[140.167007,36.734482],[140.166321,36.736133],[140.167007,36.736133],[140.165634,36.739985],[140.165634,36.743286],[140.169754,36.744937]]],[[[140.185547,36.742736],[140.18692,36.740535],[140.1931,36.736683],[140.177307,36.733381],[140.17662,36.732831],[140.173874,36.733381],[140.173187,36.734482],[140.177307,36.740535],[140.179367,36.741635],[140.18074,36.739985],[140.185547,36.742736]]]]}},{"type":"Feature","properties":{"layer_id":"bakumatsu_villages","name":"高岡村","address":"下野 那須郡","source":"Geoshape 幕末期近世村領域データセット vector tiles (z7 extraction)","subarea_name":"近世村のおおよその範囲","feature_key":"village:K08G08S00175","accuracy_note":"2015年農業集落境界をもとに復元した概略範囲で、江戸時代の正確な村境ではありません"},"geometry":{"type":"Polygon","coordinates":[[[140.128555,36.742736],[140.133362,36.736133],[140.128555,36.733932],[140.127869,36.734482],[140.120316,36.733932],[140.118942,36.732831],[140.118256,36.733381],[140.121689,36.742186],[140.123062,36.742736],[140.128555,36.742736]]]}},{"type":"Feature","properties":{"layer_id":"historical_sites_archaeology","name":"五斗蒔遺跡","address":"栃木県 那須郡那珂川町 馬頭","source":"Geoshape 日本歴史地名大系 施設・地点項目データセット 2025-05-15","subarea_name":"遺跡","feature_key":"08_archaeological_sites.geojson:090000036600","subtype":"遺跡"},"geometry":{"type":"Point","coordinates":[140.167812,36.738216]}},{"type":"Feature","properties":{"layer_id":"historical_sites_archaeology","name":"仲町遺跡","address":"栃木県 那須郡那珂川町 小川","source":"Geoshape 日本歴史地名大系 施設・地点項目データセット 2025-05-15","subarea_name":"遺跡","feature_key":"08_archaeological_sites.geojson:090000034700","subtype":"遺跡"},"geometry":{"type":"Point","coordinates":[140.126659,36.767234]}},{"type":"Feature","properties":{"layer_id":"historical_sites_archaeology","name":"唐御所横穴","address":"栃木県 那須郡那珂川町 和見","source":"Geoshape 日本歴史地名大系 施設・地点項目データセット 2025-05-15","subarea_name":"古墳","feature_key":"06_kofun.geojson:090000037600","subtype":"古墳"},"geometry":{"type":"Point","coordinates":[140.155862,36.744029]}},{"type":"Feature","properties":{"layer_id":"historical_sites_archaeology","name":"小砂古窯跡群","address":"栃木県 那須郡那珂川町 小砂","source":"Geoshape 日本歴史地名大系 施設・地点項目データセット 2025-05-15","subarea_name":"遺跡","feature_key":"08_archaeological_sites.geojson:090000036200","subtype":"遺跡"},"geometry":{"type":"Point","coordinates":[140.147492,36.783726]}},{"type":"Feature","properties":{"layer_id":"historical_sites_archaeology","name":"尾の草遺跡","address":"栃木県 那須郡那珂川町 馬頭","source":"Geoshape 日本歴史地名大系 施設・地点項目データセット 2025-05-15","subarea_name":"遺跡","feature_key":"08_archaeological_sites.geojson:090000037800","subtype":"遺跡"},"geometry":{"type":"Point","coordinates":[140.167812,36.738216]}},{"type":"Feature","properties":{"layer_id":"historical_sites_archaeology","name":"川崎古墳","address":"栃木県 那須郡那珂川町 久那瀬","source":"Geoshape 日本歴史地名大系 施設・地点項目データセット 2025-05-15","subarea_name":"古墳","feature_key":"06_kofun.geojson:090000038200","subtype":"古墳"},"geometry":{"type":"Point","coordinates":[140.150857,36.734026]}},{"type":"Feature","properties":{"layer_id":"historical_sites_archaeology","name":"松野城跡","address":"栃木県 那須郡那珂川町 馬頭","source":"Geoshape 日本歴史地名大系 施設・地点項目データセット 2025-05-15","subarea_name":"城跡","feature_key":"05_castle_ruins.geojson:090000038400","subtype":"城跡"},"geometry":{"type":"Point","coordinates":[140.167812,36.738216]}},{"type":"Feature","properties":{"layer_id":"historical_sites_archaeology","name":"武茂城跡","address":"栃木県 那須郡那珂川町 馬頭","source":"Geoshape 日本歴史地名大系 施設・地点項目データセット 2025-05-15","subarea_name":"城跡","feature_key":"05_castle_ruins.geojson:090000037300","subtype":"城跡"},"geometry":{"type":"Point","coordinates":[140.170416,36.741066]}},{"type":"Feature","properties":{"layer_id":"historical_sites_archaeology","name":"温泉神社古墳","address":"栃木県 那須郡那珂川町 小川","source":"Geoshape 日本歴史地名大系 施設・地点項目データセット 2025-05-15","subarea_name":"古墳","feature_key":"06_kofun.geojson:090000035300","subtype":"古墳"},"geometry":{"type":"Point","coordinates":[140.126659,36.767234]}},{"type":"Feature","properties":{"layer_id":"historical_sites_archaeology","name":"神田城跡","address":"栃木県 那須郡那珂川町 三輪","source":"Geoshape 日本歴史地名大系 施設・地点項目データセット 2025-05-15","subarea_name":"城跡","feature_key":"05_castle_ruins.geojson:090000034600","subtype":"城跡"},"geometry":{"type":"Point","coordinates":[140.126866,36.752515]}},{"type":"Feature","properties":{"layer_id":"historical_sites_archaeology","name":"那須八幡塚古墳","address":"栃木県 那須郡那珂川町 小川","source":"Geoshape 日本歴史地名大系 施設・地点項目データセット 2025-05-15","subarea_name":"古墳","feature_key":"06_kofun.geojson:090000035400","subtype":"古墳"},"geometry":{"type":"Point","coordinates":[140.126659,36.767234]}},{"type":"Feature","properties":{"layer_id":"historical_sites_archaeology","name":"那須郡衙跡","address":"栃木県 那須郡那珂川町 小川","source":"Geoshape 日本歴史地名大系 施設・地点項目データセット 2025-05-15","subarea_name":"史跡","feature_key":"09_historic_sites.geojson:090000033700","subtype":"史跡"},"geometry":{"type":"Point","coordinates":[140.126659,36.767234]}},{"type":"Feature","properties":{"layer_id":"historical_sites_archaeology","name":"駒形大塚古墳","address":"栃木県 那須郡那珂川町 小川","source":"Geoshape 日本歴史地名大系 施設・地点項目データセット 2025-05-15","subarea_name":"古墳","feature_key":"06_kofun.geojson:090000033800","subtype":"古墳"},"geometry":{"type":"Point","coordinates":[140.121103,36.76132]}},{"type":"Feature","properties":{"layer_id":"historical_temples_shrines","name":"三和神社","address":"栃木県 那須郡那珂川町 三輪726番地","source":"Geoshape 日本歴史地名大系 施設・地点項目データセット 2025-05-15","subarea_name":"神社","feature_key":"02_shrines.geojson:090000034500","subtype":"神社"},"geometry":{"type":"Point","coordinates":[140.111603,36.759865]}},{"type":"Feature","properties":{"layer_id":"historical_temples_shrines","name":"健武山神社","address":"栃木県 宇都宮市 芦沼町970番地","source":"Geoshape 日本歴史地名大系 施設・地点項目データセット 2025-05-15","subarea_name":"神社","feature_key":"02_shrines.geojson:090000037100","subtype":"神社"},"geometry":{"type":"Point","coordinates":[140.188399,36.755545]}},{"type":"Feature","properties":{"layer_id":"historical_temples_shrines","name":"常円寺","address":"栃木県 那須郡那珂川町 片平752番地","source":"Geoshape 日本歴史地名大系 施設・地点項目データセット 2025-05-15","subarea_name":"寺院","feature_key":"01_temples.geojson:090000035000","subtype":"寺院"},"geometry":{"type":"Point","coordinates":[140.119449,36.743601]}},{"type":"Feature","properties":{"layer_id":"historical_temples_shrines","name":"御霊神社","address":"栃木県 大田原市 片田大字1358番地","source":"Geoshape 日本歴史地名大系 施設・地点項目データセット 2025-05-15","subarea_name":"神社","feature_key":"02_shrines.geojson:090000034300","subtype":"神社"},"geometry":{"type":"Point","coordinates":[140.126659,36.767234]}},{"type":"Feature","properties":{"layer_id":"historical_temples_shrines","name":"浄法寺廃寺","address":"栃木県 那須郡那珂川町 浄法寺","source":"Geoshape 日本歴史地名大系 施設・地点項目データセット 2025-05-15","subarea_name":"廃寺・廃社","feature_key":"03_abandoned_temples_shrines.geojson:090000033400","subtype":"廃寺・廃社"},"geometry":{"type":"Point","coordinates":[140.109095,36.786013]}},{"type":"Feature","properties":{"layer_id":"historical_temples_shrines","name":"浄法寺遺跡","address":"栃木県 那須郡那珂川町 小川","source":"Geoshape 日本歴史地名大系 施設・地点項目データセット 2025-05-15","subarea_name":"廃寺・廃社","feature_key":"03_abandoned_temples_shrines.geojson:090000033500","subtype":"廃寺・廃社"},"geometry":{"type":"Point","coordinates":[140.126659,36.767234]}},{"type":"Feature","properties":{"layer_id":"historical_temples_shrines","name":"温泉神社","address":"栃木県 那須郡那珂川町 芳井624番地","source":"Geoshape 日本歴史地名大系 施設・地点項目データセット 2025-05-15","subarea_name":"神社","feature_key":"02_shrines.geojson:090000015900","subtype":"神社"},"geometry":{"type":"Point","coordinates":[140.078873,36.779053]}},{"type":"Feature","properties":{"layer_id":"historical_temples_shrines","name":"温泉神社","address":"栃木県 那須郡那珂川町 芳井624番地","source":"Geoshape 日本歴史地名大系 施設・地点項目データセット 2025-05-15","subarea_name":"神社","feature_key":"02_shrines.geojson:090000023200","subtype":"神社"},"geometry":{"type":"Point","coordinates":[140.078873,36.779053]}},{"type":"Feature","properties":{"layer_id":"historical_temples_shrines","name":"馬頭院","address":"栃木県 那須郡那珂川町 馬頭188番地","source":"Geoshape 日本歴史地名大系 施設・地点項目データセット 2025-05-15","subarea_name":"寺院","feature_key":"01_temples.geojson:090000037400","subtype":"寺院"},"geometry":{"type":"Point","coordinates":[140.170883,36.742054]}},{"type":"Feature","properties":{"layer_id":"historical_temples_shrines","name":"鷲子山上神社","address":"栃木県 矢板市 大槻1706番地","source":"Geoshape 日本歴史地名大系 施設・地点項目データセット 2025-05-15","subarea_name":"神社","feature_key":"02_shrines.geojson:090000036900","subtype":"神社"},"geometry":{"type":"Point","coordinates":[140.167812,36.738216]}}]}