{"type":"FeatureCollection","municipality_code":"10345","pref":"群馬県","city":"吉岡町","layer_counts":{"bakumatsu_villages":7,"edo_roads":1,"historical_sites_archaeology":3,"historical_temples_shrines":1},"total_features":12,"features":[{"type":"Feature","properties":{"layer_id":"bakumatsu_villages","name":"上野田村","address":"上野 群馬郡","source":"Geoshape 幕末期近世村領域データセット vector tiles (z7 extraction)","subarea_name":"近世村のおおよその範囲","feature_key":"village:K07G01S00039","accuracy_note":"2015年農業集落境界をもとに復元した概略範囲で、江戸時代の正確な村境ではありません"},"geometry":{"type":"MultiPolygon","coordinates":[[[[138.959885,36.474307],[138.961258,36.473202],[138.964691,36.473202],[138.966751,36.472098],[138.967438,36.470442],[138.970184,36.468233],[138.984604,36.463815],[138.980484,36.458845],[138.979111,36.459397],[138.978424,36.457741],[138.975677,36.459397],[138.970184,36.457741],[138.966064,36.458845],[138.968124,36.454979],[138.964691,36.456636],[138.964005,36.454979],[138.962631,36.457741],[138.952332,36.459397],[138.949585,36.460502],[138.948212,36.462159],[138.936539,36.463815],[138.928986,36.470442],[138.931732,36.472098],[138.939972,36.473202],[138.943405,36.473202],[138.949585,36.471546],[138.951645,36.473755],[138.959885,36.474307]]],[[[138.981857,36.460502],[138.985291,36.45995],[138.98735,36.458293],[138.985977,36.456084],[138.99147,36.455531],[139.00383,36.459397],[139.003143,36.448904],[138.992844,36.451665],[138.98735,36.451665],[138.985291,36.453322],[138.985291,36.455531],[138.979797,36.456636],[138.978424,36.457741],[138.979111,36.459397],[138.980484,36.458845],[138.981857,36.460502]]]]}},{"type":"Feature","properties":{"layer_id":"bakumatsu_villages","name":"下野田村","address":"上野 群馬郡","source":"Geoshape 幕末期近世村領域データセット vector tiles (z7 extraction)","subarea_name":"近世村のおおよその範囲","feature_key":"village:K07G01S00040","accuracy_note":"2015年農業集落境界をもとに復元した概略範囲で、江戸時代の正確な村境ではありません"},"geometry":{"type":"Polygon","coordinates":[[[139.014816,36.461054],[139.01825,36.451113],[139.010696,36.447247],[139.00795,36.446694],[139.004517,36.447799],[139.003143,36.448904],[139.00383,36.459397],[139.014816,36.461054]]]}},{"type":"Feature","properties":{"layer_id":"bakumatsu_villages","name":"北下村","address":"上野 群馬郡","source":"Geoshape 幕末期近世村領域データセット vector tiles (z7 extraction)","subarea_name":"近世村のおおよその範囲","feature_key":"village:K07G01S00036","accuracy_note":"2015年農業集落境界をもとに復元した概略範囲で、江戸時代の正確な村境ではありません"},"geometry":{"type":"Polygon","coordinates":[[[138.99147,36.451665],[139.001083,36.450008],[139.005203,36.447247],[139.008636,36.446694],[139.009323,36.443933],[139.00795,36.443933],[139.006577,36.442828],[139.007263,36.441171],[139.002457,36.442828],[139.00177,36.441723],[139.001083,36.442828],[138.99971,36.442276],[138.99765,36.441171],[138.99765,36.440618],[138.99353,36.439514],[138.99147,36.447247],[138.99353,36.447799],[138.99353,36.448904],[138.992157,36.448904],[138.992844,36.450008],[138.994217,36.450561],[138.99147,36.451665]]]}},{"type":"Feature","properties":{"layer_id":"bakumatsu_villages","name":"南下村","address":"上野 群馬郡","source":"Geoshape 幕末期近世村領域データセット vector tiles (z7 extraction)","subarea_name":"近世村のおおよその範囲","feature_key":"village:K07G01S00037","accuracy_note":"2015年農業集落境界をもとに復元した概略範囲で、江戸時代の正確な村境ではありません"},"geometry":{"type":"Polygon","coordinates":[[[139.009323,36.443933],[139.01001,36.442828],[139.008636,36.442828],[139.01001,36.441171],[139.010696,36.438409],[139.012756,36.438409],[139.01001,36.437304],[139.01207,36.436199],[139.012756,36.432332],[139.008636,36.434542],[139.00383,36.435647],[139.00177,36.435094],[139.000397,36.432885],[138.992157,36.432885],[138.990097,36.433989],[138.99147,36.436752],[138.992157,36.437304],[138.992157,36.438409],[138.992844,36.440066],[138.994217,36.438961],[138.99971,36.442276],[139.001083,36.442828],[139.00177,36.441723],[139.002457,36.442828],[139.00383,36.441723],[139.006577,36.441723],[139.007263,36.441171],[139.006577,36.442828],[139.00795,36.443933],[139.009323,36.443933]]]}},{"type":"Feature","properties":{"layer_id":"bakumatsu_villages","name":"大久保村","address":"上野 群馬郡","source":"Geoshape 幕末期近世村領域データセット vector tiles (z7 extraction)","subarea_name":"近世村のおおよその範囲","feature_key":"village:K07G01S00090","accuracy_note":"2015年農業集落境界をもとに復元した概略範囲で、江戸時代の正確な村境ではありません"},"geometry":{"type":"MultiPolygon","coordinates":[[[[139.019623,36.451113],[139.020309,36.448351],[139.022369,36.44559],[139.01825,36.445037],[139.01825,36.441723],[139.01619,36.440066],[139.01413,36.436752],[139.010696,36.436752],[139.01001,36.437856],[139.012756,36.438409],[139.010696,36.438409],[139.01001,36.441171],[139.008636,36.442828],[139.01001,36.442828],[139.008636,36.446694],[139.015503,36.449456],[139.01825,36.451113],[139.019623,36.451113]]],[[[139.01825,36.440066],[139.024429,36.437856],[139.023743,36.436752],[139.027863,36.434542],[139.028549,36.432332],[139.030609,36.432885],[139.031982,36.43178],[139.031982,36.428465],[139.029922,36.430675],[139.029922,36.427912],[139.017563,36.428465],[139.01619,36.42736],[139.013443,36.431227],[139.011383,36.436199],[139.01413,36.436752],[139.014816,36.438409],[139.01825,36.440066]]],[[[139.022369,36.44559],[139.025803,36.441723],[139.024429,36.440066],[139.026489,36.440066],[139.027863,36.436752],[139.029922,36.437304],[139.034042,36.433437],[139.033356,36.42957],[139.035416,36.42294],[139.031982,36.428465],[139.031982,36.43178],[139.030609,36.432885],[139.028549,36.432332],[139.027863,36.434542],[139.023743,36.436752],[139.024429,36.437856],[139.018936,36.439514],[139.015503,36.438961],[139.01619,36.440066],[139.01825,36.441723],[139.01825,36.445037],[139.019623,36.44559],[139.022369,36.44559]]],[[[139.029922,36.427912],[139.030609,36.42073],[139.027176,36.417415],[139.023056,36.417415],[139.022369,36.422387],[139.01825,36.424045],[139.01619,36.427912],[139.029922,36.427912]]]]}},{"type":"Feature","properties":{"layer_id":"bakumatsu_villages","name":"小倉村","address":"上野 群馬郡","source":"Geoshape 幕末期近世村領域データセット vector tiles (z7 extraction)","subarea_name":"近世村のおおよその範囲","feature_key":"village:K07G01S00041","accuracy_note":"2015年農業集落境界をもとに復元した概略範囲で、江戸時代の正確な村境ではありません"},"geometry":{"type":"Polygon","coordinates":[[[139.007263,36.463815],[139.006577,36.461054],[139.00795,36.460502],[139.003143,36.45995],[139.003143,36.458845],[139.00177,36.459397],[139.001083,36.458293],[138.99353,36.455531],[138.985977,36.456084],[138.98735,36.458845],[138.985291,36.45995],[138.981857,36.460502],[138.984604,36.463815],[138.994904,36.461054],[138.998337,36.461606],[139.005203,36.463815],[139.007263,36.463815]]]}},{"type":"Feature","properties":{"layer_id":"bakumatsu_villages","name":"漆原村","address":"上野 群馬郡","source":"Geoshape 幕末期近世村領域データセット vector tiles (z7 extraction)","subarea_name":"近世村のおおよその範囲","feature_key":"village:K07G01S00091","accuracy_note":"2015年農業集落境界をもとに復元した概略範囲で、江戸時代の正確な村境ではありません"},"geometry":{"type":"MultiPolygon","coordinates":[[[[139.020309,36.450008],[139.022369,36.450561],[139.023743,36.448904],[139.027863,36.447247],[139.029236,36.447247],[139.029922,36.44559],[139.028549,36.444485],[139.030609,36.44338],[139.031296,36.437856],[139.035416,36.439514],[139.036789,36.436752],[139.034042,36.433437],[139.029922,36.437304],[139.027863,36.436752],[139.026489,36.440066],[139.024429,36.440066],[139.025803,36.441723],[139.020309,36.448351],[139.020309,36.450008]]],[[[139.026489,36.460502],[139.040222,36.455531],[139.040909,36.452218],[139.038162,36.447247],[139.038849,36.444485],[139.036789,36.436752],[139.035416,36.439514],[139.031296,36.437856],[139.030609,36.44338],[139.028549,36.444485],[139.029922,36.44559],[139.029236,36.447247],[139.027863,36.447247],[139.025116,36.448904],[139.027176,36.450561],[139.028549,36.450561],[139.028549,36.451665],[139.026489,36.457188],[139.026489,36.460502]]],[[[139.037476,36.438961],[139.038849,36.433989],[139.042969,36.429017],[139.045715,36.426808],[139.049835,36.420177],[139.051208,36.421835],[139.052582,36.41852],[139.054642,36.416862],[139.055328,36.414652],[139.053955,36.414099],[139.053955,36.411336],[139.051208,36.408573],[139.050522,36.410784],[139.047089,36.414099],[139.042969,36.417415],[139.039536,36.417967],[139.035416,36.42294],[139.033356,36.432885],[139.037476,36.438961]]]]}},{"type":"Feature","properties":{"layer_id":"edo_roads","name":"三国街道","address":"高崎 → 寺泊","source":"CODH 江戸主要街道データセット Version 4 (2026-08)","subarea_name":"江戸期の主要街道","feature_key":"road:R304"},"geometry":{"type":"LineString","coordinates":[[139.00558,36.46353],[139.00686,36.46062],[139.00702,36.45929],[139.00748,36.45853],[139.00786,36.45549],[139.00754,36.45242],[139.00762,36.44917],[139.00749,36.44741],[139.00422,36.44199],[139.00337,36.43969],[139.00317,36.43835],[139.00328,36.43649],[139.00364,36.43571],[139.00277,36.43367],[139.00247,36.42853],[139.00293,36.42716]]}},{"type":"Feature","properties":{"layer_id":"historical_sites_archaeology","name":"三津屋古墳","address":"群馬県 北群馬郡吉岡町 大字大久保","source":"Geoshape 日本歴史地名大系 施設・地点項目データセット 2025-05-15","subarea_name":"古墳","feature_key":"06_kofun.geojson:100000140300","subtype":"古墳"},"geometry":{"type":"Point","coordinates":[139.025703,36.435043]}},{"type":"Feature","properties":{"layer_id":"historical_sites_archaeology","name":"南下古墳群","address":"群馬県 北群馬郡吉岡町 大字南下","source":"Geoshape 日本歴史地名大系 施設・地点項目データセット 2025-05-15","subarea_name":"古墳","feature_key":"06_kofun.geojson:100000139900","subtype":"古墳"},"geometry":{"type":"Point","coordinates":[139.008556,36.439797]}},{"type":"Feature","properties":{"layer_id":"historical_sites_archaeology","name":"桃井城跡","address":"群馬県 北群馬郡吉岡町 大字南下","source":"Geoshape 日本歴史地名大系 施設・地点項目データセット 2025-05-15","subarea_name":"城跡","feature_key":"05_castle_ruins.geojson:100000140000","subtype":"城跡"},"geometry":{"type":"Point","coordinates":[138.995962,36.439421]}},{"type":"Feature","properties":{"layer_id":"historical_temples_shrines","name":"三宮神社","address":"群馬県 北群馬郡吉岡町 大字大久保1番地","source":"Geoshape 日本歴史地名大系 施設・地点項目データセット 2025-05-15","subarea_name":"神社","feature_key":"02_shrines.geojson:100000140200","subtype":"神社"},"geometry":{"type":"Point","coordinates":[139.013138,36.439674]}}]}