{"type":"FeatureCollection","municipality_code":"11215","pref":"埼玉県","city":"狭山市","layer_counts":{"bakumatsu_villages":18,"historical_sites_archaeology":3,"historical_temples_shrines":4},"total_features":25,"features":[{"type":"Feature","properties":{"layer_id":"bakumatsu_villages","name":"三ツ木村","address":"武蔵 入間郡","source":"Geoshape 幕末期近世村領域データセット vector tiles (z7 extraction)","subarea_name":"近世村のおおよその範囲","feature_key":"village:K09G13S00182","accuracy_note":"2015年農業集落境界をもとに復元した概略範囲で、江戸時代の正確な村境ではありません"},"geometry":{"type":"Polygon","coordinates":[[[139.43161,35.877367],[139.43367,35.875698],[139.432983,35.874585],[139.43573,35.876254],[139.439163,35.872916],[139.43985,35.873472],[139.440536,35.869021],[139.42749,35.867908],[139.426117,35.868465],[139.426804,35.869578],[139.426804,35.87236],[139.430923,35.875142],[139.430237,35.876254],[139.43161,35.877367]]]}},{"type":"Feature","properties":{"layer_id":"bakumatsu_villages","name":"上奥富村","address":"武蔵 入間郡","source":"Geoshape 幕末期近世村領域データセット vector tiles (z7 extraction)","subarea_name":"近世村のおおよその範囲","feature_key":"village:K09G13S00211","accuracy_note":"2015年農業集落境界をもとに復元した概略範囲で、江戸時代の正確な村境ではありません"},"geometry":{"type":"MultiPolygon","coordinates":[[[[139.417877,35.879593],[139.420624,35.879036],[139.417877,35.874029],[139.418564,35.87236],[139.414444,35.871247],[139.411697,35.868465],[139.405518,35.864013],[139.406891,35.87069],[139.411697,35.877924],[139.415817,35.877924],[139.417877,35.879593]]],[[[139.41925,35.876811],[139.421997,35.875698],[139.41925,35.87069],[139.415817,35.87069],[139.415131,35.869578],[139.414444,35.87069],[139.418564,35.87236],[139.417877,35.874029],[139.41925,35.876811]]],[[[139.428177,35.875142],[139.42749,35.874585],[139.428864,35.873472],[139.426804,35.87236],[139.426117,35.868465],[139.422684,35.869021],[139.41925,35.87069],[139.42131,35.874585],[139.422684,35.875142],[139.42337,35.874029],[139.42543,35.875142],[139.428177,35.875142]]]]}},{"type":"Feature","properties":{"layer_id":"bakumatsu_villages","name":"上広瀬村","address":"武蔵 高麗郡","source":"Geoshape 幕末期近世村領域データセット vector tiles (z7 extraction)","subarea_name":"近世村のおおよその範囲","feature_key":"village:K09G11S00047","accuracy_note":"2015年農業集落境界をもとに復元した概略範囲で、江戸時代の正確な村境ではありません"},"geometry":{"type":"MultiPolygon","coordinates":[[[[139.386978,35.860118],[139.387665,35.859561],[139.389038,35.857892],[139.388351,35.856779],[139.386978,35.857892],[139.384918,35.856222],[139.385605,35.852327],[139.384918,35.85177],[139.383545,35.855109],[139.384232,35.857335],[139.386978,35.860118]]],[[[139.395905,35.863457],[139.395218,35.859005],[139.390411,35.858448],[139.388351,35.861231],[139.395905,35.863457]]],[[[139.400024,35.866239],[139.403458,35.8629],[139.403458,35.860674],[139.399338,35.856222],[139.395905,35.853996],[139.393845,35.858448],[139.395218,35.859561],[139.395905,35.863457],[139.400024,35.866239]]]]}},{"type":"Feature","properties":{"layer_id":"bakumatsu_villages","name":"上赤坂村","address":"武蔵 入間郡","source":"Geoshape 幕末期近世村領域データセット vector tiles (z7 extraction)","subarea_name":"近世村のおおよその範囲","feature_key":"village:K09G13S00018","accuracy_note":"2015年農業集落境界をもとに復元した概略範囲で、江戸時代の正確な村境ではありません"},"geometry":{"type":"MultiPolygon","coordinates":[[[[139.459763,35.861787],[139.458389,35.859561],[139.465942,35.85177],[139.463882,35.850657],[139.465942,35.847874],[139.460449,35.845091],[139.457016,35.849544],[139.452209,35.846204],[139.45015,35.848987],[139.448776,35.848987],[139.454269,35.853996],[139.451523,35.855109],[139.459763,35.861787]]],[[[139.465942,35.837855],[139.463196,35.843978],[139.459076,35.840638],[139.457016,35.843978],[139.468689,35.848431],[139.475555,35.840082],[139.474182,35.839525],[139.478302,35.835072],[139.473495,35.832845],[139.470749,35.837855],[139.465942,35.837855]]]]}},{"type":"Feature","properties":{"layer_id":"bakumatsu_villages","name":"下奥富村","address":"武蔵 入間郡","source":"Geoshape 幕末期近世村領域データセット vector tiles (z7 extraction)","subarea_name":"近世村のおおよその範囲","feature_key":"village:K09G13S00215","accuracy_note":"2015年農業集落境界をもとに復元した概略範囲で、江戸時代の正確な村境ではありません"},"geometry":{"type":"MultiPolygon","coordinates":[[[[139.419937,35.886269],[139.422684,35.885156],[139.424744,35.880705],[139.424057,35.879593],[139.418564,35.880149],[139.416504,35.879593],[139.415817,35.877924],[139.411697,35.877924],[139.413757,35.885712],[139.419937,35.886269]]],[[[139.418564,35.880149],[139.42749,35.879036],[139.42749,35.877924],[139.430237,35.876811],[139.430923,35.875142],[139.428864,35.873472],[139.42749,35.874585],[139.428177,35.875698],[139.42337,35.874029],[139.422684,35.875142],[139.42131,35.874585],[139.421997,35.875698],[139.41925,35.876811],[139.420624,35.879036],[139.418564,35.880149]]],[[[139.432297,35.885712],[139.43367,35.885156],[139.432983,35.883487],[139.432983,35.8846],[139.432297,35.884043],[139.432297,35.882374],[139.434357,35.884043],[139.436417,35.882931],[139.437103,35.883487],[139.437103,35.882374],[139.441223,35.885156],[139.44397,35.882374],[139.43985,35.879036],[139.435043,35.881262],[139.434357,35.880705],[139.43367,35.881818],[139.430923,35.881262],[139.430237,35.882931],[139.424744,35.882374],[139.422684,35.885156],[139.419937,35.886269],[139.42131,35.88905],[139.422684,35.889606],[139.422684,35.890163],[139.426117,35.892388],[139.42749,35.891831],[139.428864,35.888494],[139.43161,35.888494],[139.43161,35.886269],[139.432297,35.885712]]],[[[139.428864,35.880149],[139.43161,35.877924],[139.430237,35.876254],[139.42749,35.877924],[139.42749,35.879593],[139.428864,35.880149]]],[[[139.430237,35.882931],[139.430923,35.881262],[139.43367,35.881818],[139.434357,35.880705],[139.435043,35.881262],[139.43985,35.879036],[139.43367,35.874585],[139.428864,35.880149],[139.426804,35.879036],[139.424057,35.879593],[139.424744,35.880705],[139.424744,35.882374],[139.430237,35.882931]]]]}},{"type":"Feature","properties":{"layer_id":"bakumatsu_villages","name":"下広瀬村","address":"武蔵 高麗郡","source":"Geoshape 幕末期近世村領域データセット vector tiles (z7 extraction)","subarea_name":"近世村のおおよその範囲","feature_key":"village:K09G11S00048","accuracy_note":"2015年農業集落境界をもとに復元した概略範囲で、江戸時代の正確な村境ではありません"},"geometry":{"type":"MultiPolygon","coordinates":[[[[139.370499,35.863457],[139.373245,35.865683],[139.371872,35.866795],[139.373932,35.868465],[139.378052,35.870134],[139.389038,35.876254],[139.390411,35.874585],[139.380112,35.869021],[139.379425,35.861231],[139.375305,35.865683],[139.370499,35.863457]]],[[[139.370499,35.863457],[139.365005,35.857335],[139.365005,35.859561],[139.370499,35.863457]]],[[[139.390411,35.874585],[139.393845,35.871247],[139.400024,35.866239],[139.391785,35.861787],[139.388351,35.861231],[139.389038,35.860118],[139.383545,35.857335],[139.381485,35.862344],[139.379425,35.861231],[139.380112,35.869021],[139.390411,35.874585]]],[[[139.389038,35.860118],[139.390411,35.858448],[139.393845,35.858448],[139.395905,35.853996],[139.389038,35.852327],[139.385605,35.852327],[139.384918,35.856222],[139.386978,35.857892],[139.388351,35.856779],[139.387665,35.859561],[139.389038,35.860118]]]]}},{"type":"Feature","properties":{"layer_id":"bakumatsu_villages","name":"中新田村","address":"武蔵 入間郡","source":"Geoshape 幕末期近世村領域データセット vector tiles (z7 extraction)","subarea_name":"近世村のおおよその範囲","feature_key":"village:K09G13S00017","accuracy_note":"2015年農業集落境界をもとに復元した概略範囲で、江戸時代の正確な村境ではありません"},"geometry":{"type":"Polygon","coordinates":[[[139.461823,35.877924],[139.461823,35.873472],[139.465256,35.867908],[139.461136,35.863457],[139.454956,35.866795],[139.452896,35.869021],[139.453583,35.871803],[139.454269,35.871247],[139.461823,35.877924]]]}},{"type":"Feature","properties":{"layer_id":"bakumatsu_villages","name":"入間川村","address":"武蔵 入間郡","source":"Geoshape 幕末期近世村領域データセット vector tiles (z7 extraction)","subarea_name":"近世村のおおよその範囲","feature_key":"village:K09G13S00216","accuracy_note":"2015年農業集落境界をもとに復元した概略範囲で、江戸時代の正確な村境ではありません"},"geometry":{"type":"MultiPolygon","coordinates":[[[[139.402771,35.859005],[139.407578,35.855666],[139.406204,35.853996],[139.404144,35.85344],[139.404831,35.8501],[139.400711,35.848987],[139.399338,35.85177],[139.400024,35.85344],[139.398651,35.852883],[139.397964,35.855109],[139.402771,35.859005]]],[[[139.408264,35.865683],[139.409637,35.865126],[139.408951,35.864013],[139.410324,35.862344],[139.412384,35.8629],[139.415817,35.859561],[139.413071,35.860118],[139.410324,35.858448],[139.407578,35.860118],[139.405518,35.859005],[139.403458,35.860674],[139.403458,35.8629],[139.404831,35.862344],[139.408264,35.865683]]],[[[139.403458,35.860674],[139.405518,35.859005],[139.407578,35.860118],[139.410324,35.858448],[139.411011,35.857335],[139.408951,35.854553],[139.411011,35.852327],[139.407578,35.851213],[139.406204,35.854553],[139.407578,35.855666],[139.402771,35.859005],[139.403458,35.860674]]],[[[139.410324,35.867352],[139.415131,35.863457],[139.417191,35.862344],[139.418564,35.862344],[139.419937,35.860118],[139.422684,35.860118],[139.42337,35.858448],[139.418564,35.857335],[139.412384,35.8629],[139.410324,35.862344],[139.408951,35.864013],[139.409637,35.865126],[139.408264,35.865683],[139.410324,35.867352]]],[[[139.41925,35.87069],[139.422684,35.869021],[139.42749,35.867908],[139.424744,35.865683],[139.42337,35.866795],[139.42131,35.865126],[139.416504,35.867908],[139.414444,35.866239],[139.411697,35.868465],[139.414444,35.87069],[139.415131,35.869578],[139.41925,35.87069]]],[[[139.411697,35.868465],[139.414444,35.866239],[139.416504,35.867908],[139.42131,35.865126],[139.42337,35.866795],[139.424057,35.865683],[139.42543,35.859561],[139.426804,35.859005],[139.432983,35.847317],[139.428177,35.847317],[139.424744,35.856222],[139.42337,35.857892],[139.422684,35.860118],[139.419937,35.860118],[139.418564,35.862344],[139.417191,35.862344],[139.415131,35.863457],[139.410324,35.866795],[139.410324,35.867352],[139.411697,35.868465]]],[[[139.430923,35.867908],[139.432297,35.865683],[139.430923,35.86457],[139.432297,35.8629],[139.42955,35.861231],[139.435043,35.854553],[139.43367,35.853996],[139.434357,35.852327],[139.432983,35.85177],[139.435043,35.848431],[139.432983,35.847317],[139.426804,35.859005],[139.42543,35.859561],[139.424057,35.865683],[139.42749,35.867908],[139.430923,35.867908]]],[[[139.397964,35.855109],[139.398651,35.852883],[139.400024,35.85344],[139.399338,35.851213],[139.391785,35.846204],[139.389038,35.8501],[139.389038,35.852327],[139.394531,35.85344],[139.397964,35.855109]]],[[[139.411697,35.859561],[139.416504,35.859005],[139.417877,35.857892],[139.413071,35.857335],[139.412384,35.855666],[139.417191,35.846761],[139.415131,35.847317],[139.414444,35.8501],[139.408951,35.854553],[139.411011,35.856222],[139.410324,35.856779],[139.411697,35.857335],[139.410324,35.858448],[139.411697,35.859561]]],[[[139.406204,35.853996],[139.407578,35.851213],[139.411011,35.852327],[139.414444,35.8501],[139.415131,35.847317],[139.417191,35.846761],[139.420624,35.840638],[139.415817,35.836742],[139.417191,35.833958],[139.412384,35.831732],[139.406891,35.840638],[139.401398,35.838968],[139.393158,35.840082],[139.393845,35.841751],[139.391785,35.844535],[139.393845,35.845091],[139.392471,35.845091],[139.392471,35.846761],[139.399338,35.851213],[139.400711,35.848987],[139.404831,35.8501],[139.404144,35.85344],[139.406204,35.853996]]],[[[139.42337,35.857892],[139.428177,35.847317],[139.42543,35.843978],[139.424057,35.848987],[139.419937,35.853996],[139.413757,35.852327],[139.413071,35.857335],[139.42337,35.857892]]],[[[139.41925,35.854553],[139.42337,35.849544],[139.42543,35.843978],[139.420624,35.840638],[139.414444,35.850657],[139.413757,35.852327],[139.41925,35.854553]]]]}},{"type":"Feature","properties":{"layer_id":"bakumatsu_villages","name":"加佐志村","address":"武蔵 入間郡","source":"Geoshape 幕末期近世村領域データセット vector tiles (z7 extraction)","subarea_name":"近世村のおおよその範囲","feature_key":"village:K09G13S00181","accuracy_note":"2015年農業集落境界をもとに復元した概略範囲で、江戸時代の正確な村境ではありません"},"geometry":{"type":"Polygon","coordinates":[[[139.440536,35.869021],[139.442596,35.8629],[139.437103,35.860674],[139.435043,35.860674],[139.432983,35.862344],[139.430923,35.862344],[139.432297,35.8629],[139.430923,35.86457],[139.432297,35.865683],[139.430923,35.867908],[139.440536,35.869021]]]}},{"type":"Feature","properties":{"layer_id":"bakumatsu_villages","name":"北入曾村","address":"武蔵 入間郡","source":"Geoshape 幕末期近世村領域データセット vector tiles (z7 extraction)","subarea_name":"近世村のおおよその範囲","feature_key":"village:K09G13S00180","accuracy_note":"2015年農業集落境界をもとに復元した概略範囲で、江戸時代の正確な村境ではありません"},"geometry":{"type":"MultiPolygon","coordinates":[[[[139.421997,35.841195],[139.426117,35.836742],[139.417191,35.835072],[139.415817,35.836742],[139.421997,35.841195]]],[[[139.439163,35.8501],[139.444656,35.846761],[139.438477,35.841751],[139.434357,35.841195],[139.432297,35.844535],[139.42955,35.846204],[139.42955,35.847317],[139.435043,35.848431],[139.439163,35.8501]]],[[[139.42955,35.847317],[139.42955,35.846204],[139.432297,35.844535],[139.434357,35.841195],[139.426117,35.836742],[139.421997,35.841195],[139.428177,35.847317],[139.42955,35.847317]]]]}},{"type":"Feature","properties":{"layer_id":"bakumatsu_villages","name":"南入曾村","address":"武蔵 入間郡","source":"Geoshape 幕末期近世村領域データセット vector tiles (z7 extraction)","subarea_name":"近世村のおおよその範囲","feature_key":"village:K09G13S00179","accuracy_note":"2015年農業集落境界をもとに復元した概略範囲で、江戸時代の正確な村境ではありません"},"geometry":{"type":"MultiPolygon","coordinates":[[[[139.437103,35.841751],[139.432297,35.833402],[139.43161,35.835072],[139.42955,35.834515],[139.42749,35.835628],[139.426117,35.835072],[139.42543,35.836742],[139.434357,35.841195],[139.437103,35.841751]]],[[[139.412384,35.831732],[139.415131,35.832845],[139.417191,35.835072],[139.42543,35.836742],[139.424057,35.835628],[139.426804,35.832288],[139.422684,35.832288],[139.413757,35.827278],[139.412384,35.831732]]],[[[139.42543,35.836185],[139.426117,35.835072],[139.42749,35.835628],[139.42955,35.834515],[139.43161,35.835072],[139.432297,35.833402],[139.430923,35.832288],[139.426804,35.832288],[139.424057,35.835628],[139.42543,35.836185]]]]}},{"type":"Feature","properties":{"layer_id":"bakumatsu_villages","name":"堀兼村","address":"武蔵 入間郡","source":"Geoshape 幕末期近世村領域データセット vector tiles (z7 extraction)","subarea_name":"近世村のおおよその範囲","feature_key":"village:K09G13S00016","accuracy_note":"2015年農業集落境界をもとに復元した概略範囲で、江戸時代の正確な村境ではありません"},"geometry":{"type":"MultiPolygon","coordinates":[[[[139.432983,35.862344],[139.435043,35.860674],[139.437103,35.860674],[139.440536,35.861787],[139.441223,35.859005],[139.450836,35.854553],[139.445343,35.849544],[139.444656,35.846761],[139.439163,35.8501],[139.435043,35.847874],[139.432983,35.85177],[139.434357,35.852327],[139.43367,35.853996],[139.435043,35.854553],[139.42955,35.861231],[139.430923,35.862344],[139.432983,35.862344]]],[[[139.447403,35.866239],[139.447403,35.863457],[139.454269,35.859561],[139.454956,35.858448],[139.450836,35.854553],[139.441223,35.859005],[139.440536,35.861787],[139.447403,35.866239]]],[[[139.452896,35.869021],[139.454956,35.866795],[139.461136,35.863457],[139.454956,35.858448],[139.454269,35.859561],[139.447403,35.863457],[139.447403,35.866239],[139.452896,35.869021]]],[[[139.451523,35.855109],[139.454269,35.853996],[139.448776,35.848987],[139.45015,35.848987],[139.452209,35.846204],[139.457016,35.849544],[139.460449,35.845091],[139.457016,35.843978],[139.459076,35.840638],[139.452896,35.836185],[139.453583,35.834515],[139.449463,35.832845],[139.44809,35.838968],[139.448776,35.830618],[139.440536,35.842308],[139.44603,35.846204],[139.444656,35.846761],[139.445343,35.849544],[139.451523,35.855109]]]]}},{"type":"Feature","properties":{"layer_id":"bakumatsu_villages","name":"柏原新田","address":"武蔵 入間郡","source":"Geoshape 幕末期近世村領域データセット vector tiles (z7 extraction)","subarea_name":"近世村のおおよその範囲","feature_key":"village:K09G13S00209","accuracy_note":"2015年農業集落境界をもとに復元した概略範囲で、江戸時代の正確な村境ではありません"},"geometry":{"type":"Polygon","coordinates":[[[139.418564,35.895169],[139.421997,35.892944],[139.42337,35.8935],[139.426117,35.892388],[139.422684,35.890163],[139.422684,35.889606],[139.42131,35.88905],[139.420624,35.886825],[139.413757,35.885712],[139.418564,35.895169]]]}},{"type":"Feature","properties":{"layer_id":"bakumatsu_villages","name":"柏原村","address":"武蔵 高麗郡","source":"Geoshape 幕末期近世村領域データセット vector tiles (z7 extraction)","subarea_name":"近世村のおおよその範囲","feature_key":"village:K09G11S00001","accuracy_note":"2015年農業集落境界をもとに復元した概略範囲で、江戸時代の正確な村境ではありません"},"geometry":{"type":"MultiPolygon","coordinates":[[[[139.389038,35.881262],[139.387665,35.882931],[139.397278,35.890719],[139.399338,35.888494],[139.397278,35.885712],[139.397964,35.882374],[139.395218,35.880149],[139.389038,35.880705],[139.389038,35.881262]]],[[[139.400024,35.8935],[139.400024,35.894057],[139.401398,35.895725],[139.407578,35.899619],[139.407578,35.895169],[139.404831,35.895169],[139.405518,35.894613],[139.404831,35.892944],[139.408264,35.8935],[139.404144,35.888494],[139.405518,35.887381],[139.404831,35.885156],[139.403458,35.885156],[139.397278,35.890719],[139.400024,35.8935]]],[[[139.411697,35.901287],[139.413071,35.89795],[139.415817,35.898506],[139.415817,35.896838],[139.417877,35.896838],[139.416504,35.894613],[139.417877,35.894613],[139.416504,35.891275],[139.415131,35.891275],[139.407578,35.884043],[139.404831,35.885156],[139.405518,35.887381],[139.404144,35.888494],[139.408264,35.8935],[139.404831,35.892944],[139.405518,35.894613],[139.404831,35.895169],[139.407578,35.895169],[139.407578,35.899619],[139.411697,35.901287]]],[[[139.406204,35.885156],[139.407578,35.884043],[139.405518,35.882374],[139.401398,35.881818],[139.401398,35.882931],[139.404144,35.882931],[139.403458,35.885156],[139.406204,35.885156]]],[[[139.399338,35.888494],[139.403458,35.885156],[139.404144,35.882931],[139.401398,35.882931],[139.401398,35.87848],[139.397964,35.876811],[139.393845,35.871247],[139.387665,35.87848],[139.386978,35.880705],[139.388351,35.881262],[139.395218,35.880149],[139.397964,35.882374],[139.397278,35.885712],[139.399338,35.888494]]],[[[139.398651,35.877367],[139.402084,35.875698],[139.408264,35.876254],[139.406891,35.874585],[139.403458,35.872916],[139.402084,35.874029],[139.401398,35.87236],[139.397278,35.875698],[139.398651,35.877367]]],[[[139.417191,35.892388],[139.414444,35.885156],[139.408951,35.882374],[139.406891,35.880149],[139.401398,35.87848],[139.401398,35.881818],[139.406204,35.882931],[139.417191,35.892388]]],[[[139.414444,35.885156],[139.411697,35.877924],[139.410324,35.876254],[139.406204,35.876811],[139.404831,35.875698],[139.401398,35.876254],[139.398651,35.877367],[139.406891,35.880149],[139.408951,35.882374],[139.414444,35.885156]]],[[[139.411697,35.877367],[139.407578,35.871803],[139.403458,35.868465],[139.402084,35.869021],[139.402771,35.87236],[139.405518,35.874585],[139.406891,35.874585],[139.406891,35.875698],[139.410324,35.876254],[139.411697,35.877367]]],[[[139.397278,35.875698],[139.401398,35.87236],[139.402084,35.874029],[139.402771,35.873472],[139.402084,35.866795],[139.400024,35.865126],[139.393845,35.871247],[139.397278,35.875698]]],[[[139.407578,35.871803],[139.405518,35.864013],[139.404831,35.862344],[139.403458,35.8629],[139.400024,35.865126],[139.402084,35.866795],[139.402084,35.869021],[139.403458,35.868465],[139.407578,35.871803]]]]}},{"type":"Feature","properties":{"layer_id":"bakumatsu_villages","name":"根岸村","address":"武蔵 高麗郡","source":"Geoshape 幕末期近世村領域データセット vector tiles (z7 extraction)","subarea_name":"近世村のおおよその範囲","feature_key":"village:K09G11S00046","accuracy_note":"2015年農業集落境界をもとに復元した概略範囲で、江戸時代の正確な村境ではありません"},"geometry":{"type":"Polygon","coordinates":[[[139.381485,35.862344],[139.383545,35.857335],[139.384918,35.857892],[139.383545,35.855109],[139.384918,35.85177],[139.382858,35.85177],[139.379425,35.861231],[139.381485,35.862344]]]}},{"type":"Feature","properties":{"layer_id":"bakumatsu_villages","name":"水野村","address":"武蔵 入間郡","source":"Geoshape 幕末期近世村領域データセット vector tiles (z7 extraction)","subarea_name":"近世村のおおよその範囲","feature_key":"village:K09G13S00015","accuracy_note":"2015年農業集落境界をもとに復元した概略範囲で、江戸時代の正確な村境ではありません"},"geometry":{"type":"MultiPolygon","coordinates":[[[[139.42131,35.831732],[139.42749,35.822267],[139.426804,35.819484],[139.424057,35.819484],[139.424057,35.821154],[139.41925,35.81837],[139.413757,35.827278],[139.42131,35.831732]]],[[[139.432297,35.832845],[139.436417,35.827835],[139.435043,35.827278],[139.440536,35.820597],[139.432297,35.821711],[139.432297,35.819484],[139.430923,35.819484],[139.430923,35.81837],[139.428177,35.817813],[139.428177,35.818927],[139.426804,35.819484],[139.42749,35.822267],[139.42131,35.831732],[139.432297,35.832845]]],[[[139.444656,35.846761],[139.44603,35.846204],[139.440536,35.842308],[139.448776,35.830618],[139.43779,35.824494],[139.435043,35.827278],[139.436417,35.827835],[139.432297,35.832845],[139.434357,35.835628],[139.437103,35.841751],[139.439163,35.841751],[139.444656,35.846761]]]]}},{"type":"Feature","properties":{"layer_id":"bakumatsu_villages","name":"篠井村","address":"武蔵 高麗郡","source":"Geoshape 幕末期近世村領域データセット vector tiles (z7 extraction)","subarea_name":"近世村のおおよその範囲","feature_key":"village:K09G11S00049","accuracy_note":"2015年農業集落境界をもとに復元した概略範囲で、江戸時代の正確な村境ではありません"},"geometry":{"type":"MultiPolygon","coordinates":[[[[139.375305,35.865683],[139.378738,35.862344],[139.382858,35.85177],[139.373932,35.849544],[139.373932,35.850657],[139.369812,35.852883],[139.366379,35.857892],[139.367065,35.860674],[139.370499,35.863457],[139.375305,35.865683]]],[[[139.364319,35.860674],[139.365005,35.859561],[139.365005,35.857335],[139.366379,35.857892],[139.369812,35.852883],[139.373932,35.850657],[139.373932,35.849544],[139.370499,35.847874],[139.372559,35.843421],[139.371185,35.841751],[139.363632,35.842308],[139.360886,35.853996],[139.361572,35.855666],[139.360199,35.859561],[139.364319,35.860674]]]]}},{"type":"Feature","properties":{"layer_id":"bakumatsu_villages","name":"青柳村","address":"武蔵 入間郡","source":"Geoshape 幕末期近世村領域データセット vector tiles (z7 extraction)","subarea_name":"近世村のおおよその範囲","feature_key":"village:K09G13S00183","accuracy_note":"2015年農業集落境界をもとに復元した概略範囲で、江戸時代の正確な村境ではありません"},"geometry":{"type":"MultiPolygon","coordinates":[[[[139.43985,35.879036],[139.44397,35.877367],[139.447403,35.871247],[139.447403,35.870134],[139.440536,35.870134],[139.43985,35.873472],[139.439163,35.872916],[139.43573,35.876254],[139.43985,35.879036]]],[[[139.44397,35.882374],[139.449463,35.877367],[139.454956,35.874585],[139.453583,35.871803],[139.452896,35.869021],[139.451523,35.87069],[139.44809,35.871803],[139.447403,35.871247],[139.44397,35.877367],[139.43985,35.879036],[139.44397,35.882374]]],[[[139.459763,35.887937],[139.460449,35.886825],[139.457016,35.880705],[139.455643,35.881262],[139.453583,35.876254],[139.455643,35.875142],[139.454956,35.874585],[139.447403,35.879593],[139.457016,35.887381],[139.459763,35.887937]]],[[[139.44809,35.871803],[139.451523,35.87069],[139.452209,35.868465],[139.451523,35.868465],[139.447403,35.866239],[139.442596,35.8629],[139.440536,35.870134],[139.447403,35.870134],[139.44809,35.871803]]]]}},{"type":"Feature","properties":{"layer_id":"historical_sites_archaeology","name":"今宿遺跡","address":"埼玉県 狭山市 広瀬台一丁目","source":"Geoshape 日本歴史地名大系 施設・地点項目データセット 2025-05-15","subarea_name":"遺跡","feature_key":"08_archaeological_sites.geojson:110000141200","subtype":"遺跡"},"geometry":{"type":"Point","coordinates":[139.394943,35.8677]}},{"type":"Feature","properties":{"layer_id":"historical_sites_archaeology","name":"宮地遺跡","address":"埼玉県 狭山市 大字笹井","source":"Geoshape 日本歴史地名大系 施設・地点項目データセット 2025-05-15","subarea_name":"遺跡","feature_key":"08_archaeological_sites.geojson:110000141800","subtype":"遺跡"},"geometry":{"type":"Point","coordinates":[139.370176,35.853217]}},{"type":"Feature","properties":{"layer_id":"historical_sites_archaeology","name":"揚櫨木遺跡","address":"埼玉県 狭山市 大字上奥富","source":"Geoshape 日本歴史地名大系 施設・地点項目データセット 2025-05-15","subarea_name":"遺跡","feature_key":"08_archaeological_sites.geojson:110000140600","subtype":"遺跡"},"geometry":{"type":"Point","coordinates":[139.417375,35.873694]}},{"type":"Feature","properties":{"layer_id":"historical_temples_shrines","name":"信立寺","address":"埼玉県 狭山市 広瀬三丁目5番1号","source":"Geoshape 日本歴史地名大系 施設・地点項目データセット 2025-05-15","subarea_name":"寺院","feature_key":"01_temples.geojson:110000141400","subtype":"寺院"},"geometry":{"type":"Point","coordinates":[139.389923,35.860207]}},{"type":"Feature","properties":{"layer_id":"historical_temples_shrines","name":"広瀬神社","address":"埼玉県 狭山市 広瀬二丁目23番1号","source":"Geoshape 日本歴史地名大系 施設・地点項目データセット 2025-05-15","subarea_name":"神社","feature_key":"02_shrines.geojson:110000141300","subtype":"神社"},"geometry":{"type":"Point","coordinates":[139.389404,35.85891]}},{"type":"Feature","properties":{"layer_id":"historical_temples_shrines","name":"慈眼寺","address":"埼玉県 狭山市 入間川一丁目9番37号","source":"Geoshape 日本歴史地名大系 施設・地点項目データセット 2025-05-15","subarea_name":"寺院","feature_key":"01_temples.geojson:110000062200","subtype":"寺院"},"geometry":{"type":"Point","coordinates":[139.409027,35.854649]}},{"type":"Feature","properties":{"layer_id":"historical_temples_shrines","name":"梅宮神社","address":"埼玉県 狭山市 大字上奥富508番地","source":"Geoshape 日本歴史地名大系 施設・地点項目データセット 2025-05-15","subarea_name":"神社","feature_key":"02_shrines.geojson:110000140700","subtype":"神社"},"geometry":{"type":"Point","coordinates":[139.419159,35.873802]}}]}