{"type":"FeatureCollection","municipality_code":"11240","pref":"埼玉県","city":"幸手市","layer_counts":{"bakumatsu_villages":32,"civil_engineering_heritage":1,"edo_post_stations":3,"edo_roads":2,"historical_temples_shrines":2},"total_features":40,"features":[{"type":"Feature","properties":{"layer_id":"bakumatsu_villages","name":"上吉羽村","address":"武蔵 葛飾郡","source":"Geoshape 幕末期近世村領域データセット vector tiles (z7 extraction)","subarea_name":"近世村のおおよその範囲","feature_key":"village:K09G04S00151","accuracy_note":"2015年農業集落境界をもとに復元した概略範囲で、江戸時代の正確な村境ではありません"},"geometry":{"type":"MultiPolygon","coordinates":[[[[139.739227,36.082402],[139.742661,36.081847],[139.741287,36.077962],[139.735794,36.079072],[139.737854,36.081847],[139.738541,36.081292],[139.739227,36.082402]]],[[[139.743347,36.087396],[139.748154,36.086841],[139.747467,36.082957],[139.746094,36.082957],[139.745407,36.081292],[139.739227,36.082402],[139.737167,36.080737],[139.736481,36.080737],[139.735794,36.079072],[139.733047,36.080182],[139.734421,36.082957],[139.732361,36.084621],[139.733734,36.086841],[139.743347,36.087396]]],[[[139.735107,36.079072],[139.743347,36.077407],[139.737167,36.067972],[139.735107,36.069082],[139.738541,36.072412],[139.736481,36.072967],[139.735794,36.071857],[139.734421,36.072412],[139.735107,36.074077],[139.735794,36.074077],[139.735794,36.076297],[139.734421,36.076297],[139.735107,36.079072]]]]}},{"type":"Feature","properties":{"layer_id":"bakumatsu_villages","name":"上宇和田村","address":"武蔵 葛飾郡","source":"Geoshape 幕末期近世村領域データセット vector tiles (z7 extraction)","subarea_name":"近世村のおおよその範囲","feature_key":"village:K09G04S00155","accuracy_note":"2015年農業集落境界をもとに復元した概略範囲で、江戸時代の正確な村境ではありません"},"geometry":{"type":"Polygon","coordinates":[[[139.76944,36.081292],[139.770813,36.079627],[139.76944,36.078517],[139.770126,36.077962],[139.768753,36.077407],[139.770126,36.075742],[139.76944,36.075187],[139.768066,36.076297],[139.768066,36.073522],[139.766006,36.070747],[139.76532,36.071857],[139.764633,36.071857],[139.764633,36.072967],[139.76326,36.073522],[139.762573,36.072967],[139.75914,36.073522],[139.7612,36.079072],[139.762573,36.079072],[139.76326,36.081292],[139.76944,36.081292]]]}},{"type":"Feature","properties":{"layer_id":"bakumatsu_villages","name":"上川崎村","address":"武蔵 葛飾郡","source":"Geoshape 幕末期近世村領域データセット vector tiles (z7 extraction)","subarea_name":"近世村のおおよその範囲","feature_key":"village:K09G04S00139","accuracy_note":"2015年農業集落境界をもとに復元した概略範囲で、江戸時代の正確な村境ではありません"},"geometry":{"type":"Polygon","coordinates":[[[139.706955,36.086841],[139.706955,36.085731],[139.709702,36.082957],[139.710388,36.076852],[139.702148,36.078517],[139.703522,36.079627],[139.702835,36.081292],[139.701462,36.082402],[139.702148,36.084621],[139.700089,36.084621],[139.700089,36.086841],[139.706955,36.086841]]]}},{"type":"Feature","properties":{"layer_id":"bakumatsu_villages","name":"上戸村","address":"武蔵 葛飾郡","source":"Geoshape 幕末期近世村領域データセット vector tiles (z7 extraction)","subarea_name":"近世村のおおよその範囲","feature_key":"village:K09G04S00281","accuracy_note":"2015年農業集落境界をもとに復元した概略範囲で、江戸時代の正確な村境ではありません"},"geometry":{"type":"Polygon","coordinates":[[[139.729614,36.05243],[139.734421,36.051875],[139.734421,36.050764],[139.737167,36.050209],[139.737167,36.048544],[139.735107,36.048544],[139.735107,36.047433],[139.728928,36.047989],[139.730988,36.046323],[139.729614,36.045213],[139.727554,36.045213],[139.726868,36.047433],[139.728241,36.047989],[139.727554,36.049654],[139.729614,36.05243]]]}},{"type":"Feature","properties":{"layer_id":"bakumatsu_villages","name":"上高野村","address":"武蔵 葛飾郡","source":"Geoshape 幕末期近世村領域データセット vector tiles (z7 extraction)","subarea_name":"近世村のおおよその範囲","feature_key":"village:K09G04S00137","accuracy_note":"2015年農業集落境界をもとに復元した概略範囲で、江戸時代の正確な村境ではありません"},"geometry":{"type":"MultiPolygon","coordinates":[[[[139.704895,36.078517],[139.711761,36.076297],[139.713135,36.073522],[139.713821,36.072412],[139.712448,36.070747],[139.711075,36.071302],[139.711075,36.070192],[139.709015,36.070747],[139.708328,36.074632],[139.704895,36.078517]]],[[[139.707642,36.067417],[139.709015,36.070192],[139.713135,36.067972],[139.711761,36.067417],[139.709702,36.068527],[139.707642,36.067417]]],[[[139.707642,36.067417],[139.707642,36.065752],[139.706268,36.065752],[139.707642,36.067417]]],[[[139.713821,36.071302],[139.713821,36.066307],[139.712448,36.067417],[139.713135,36.067972],[139.711075,36.070192],[139.711761,36.071302],[139.712448,36.070747],[139.713821,36.071302]]],[[[139.719315,36.067972],[139.718628,36.067972],[139.716568,36.067417],[139.714508,36.072967],[139.717255,36.072412],[139.717941,36.070192],[139.718628,36.070747],[139.721375,36.068527],[139.719315,36.067972]]],[[[139.714508,36.072412],[139.716568,36.067417],[139.718628,36.067972],[139.719315,36.066862],[139.715881,36.066307],[139.714508,36.065197],[139.713821,36.070192],[139.712448,36.071857],[139.714508,36.072412]]],[[[139.710388,36.068527],[139.713135,36.067417],[139.714508,36.065197],[139.713135,36.060756],[139.712448,36.061867],[139.707642,36.066307],[139.707642,36.067417],[139.710388,36.068527]]],[[[139.706268,36.065752],[139.707642,36.066307],[139.709702,36.064642],[139.712448,36.061867],[139.711761,36.060756],[139.713135,36.059646],[139.711075,36.056871],[139.708328,36.058536],[139.709015,36.059646],[139.702835,36.062422],[139.706268,36.065752]]],[[[139.715881,36.064642],[139.714508,36.065197],[139.715881,36.066307],[139.720001,36.066862],[139.721375,36.064087],[139.720688,36.062977],[139.715881,36.064642]]],[[[139.715881,36.064642],[139.720688,36.062977],[139.719315,36.057426],[139.717941,36.057981],[139.717941,36.059091],[139.714508,36.059646],[139.715195,36.060756],[139.713135,36.060756],[139.714508,36.065197],[139.715881,36.064642]]],[[[139.712448,36.061867],[139.713821,36.060201],[139.715195,36.060756],[139.714508,36.059646],[139.717941,36.059091],[139.717941,36.057981],[139.719315,36.057426],[139.718628,36.055206],[139.719315,36.054095],[139.715881,36.051875],[139.711075,36.056871],[139.713135,36.059646],[139.711761,36.060756],[139.712448,36.061867]]]]}},{"type":"Feature","properties":{"layer_id":"bakumatsu_villages","name":"下吉羽村","address":"武蔵 葛飾郡","source":"Geoshape 幕末期近世村領域データセット vector tiles (z7 extraction)","subarea_name":"近世村のおおよその範囲","feature_key":"village:K09G04S00156","accuracy_note":"2015年農業集落境界をもとに復元した概略範囲で、江戸時代の正確な村境ではありません"},"geometry":{"type":"MultiPolygon","coordinates":[[[[139.75708,36.074077],[139.762573,36.072967],[139.76326,36.073522],[139.766006,36.070747],[139.766006,36.068527],[139.761887,36.070192],[139.754333,36.067417],[139.753647,36.068527],[139.752274,36.068527],[139.75296,36.070747],[139.756393,36.072412],[139.75708,36.074077]]],[[[139.761887,36.070192],[139.766006,36.068527],[139.766006,36.065752],[139.762573,36.062422],[139.757767,36.064642],[139.75708,36.064087],[139.755707,36.064642],[139.754333,36.067417],[139.761887,36.070192]]]]}},{"type":"Feature","properties":{"layer_id":"bakumatsu_villages","name":"下宇和田村","address":"武蔵 葛飾郡","source":"Geoshape 幕末期近世村領域データセット vector tiles (z7 extraction)","subarea_name":"近世村のおおよその範囲","feature_key":"village:K09G04S00158","accuracy_note":"2015年農業集落境界をもとに復元した概略範囲で、江戸時代の正確な村境ではありません"},"geometry":{"type":"Polygon","coordinates":[[[139.772186,36.076297],[139.772186,36.074077],[139.770126,36.074632],[139.76944,36.073522],[139.770126,36.073522],[139.770126,36.072412],[139.768753,36.072412],[139.76738,36.069082],[139.768753,36.066862],[139.768066,36.064642],[139.766006,36.064087],[139.76532,36.064642],[139.766693,36.066862],[139.766006,36.071302],[139.768066,36.073522],[139.768066,36.076297],[139.76944,36.075187],[139.772186,36.076297]]]}},{"type":"Feature","properties":{"layer_id":"bakumatsu_villages","name":"中島村","address":"下総 葛飾郡","source":"Geoshape 幕末期近世村領域データセット vector tiles (z7 extraction)","subarea_name":"近世村のおおよその範囲","feature_key":"village:K05G01S00032","accuracy_note":"2015年農業集落境界をもとに復元した概略範囲で、江戸時代の正確な村境ではありません"},"geometry":{"type":"Polygon","coordinates":[[[139.779739,36.081847],[139.779739,36.079072],[139.781799,36.074632],[139.779053,36.074077],[139.776306,36.078517],[139.776993,36.081847],[139.779739,36.081847]]]}},{"type":"Feature","properties":{"layer_id":"bakumatsu_villages","name":"中川崎村","address":"武蔵 葛飾郡","source":"Geoshape 幕末期近世村領域データセット vector tiles (z7 extraction)","subarea_name":"近世村のおおよその範囲","feature_key":"village:K09G04S00138","accuracy_note":"2015年農業集落境界をもとに復元した概略範囲で、江戸時代の正確な村境ではありません"},"geometry":{"type":"Polygon","coordinates":[[[139.696655,36.087396],[139.700089,36.086841],[139.700089,36.084621],[139.702148,36.084621],[139.701462,36.082402],[139.702835,36.081292],[139.703522,36.079627],[139.702835,36.078517],[139.699402,36.077962],[139.696655,36.077407],[139.695282,36.077962],[139.693909,36.077962],[139.693909,36.079627],[139.691162,36.084621],[139.691849,36.086841],[139.696655,36.086286],[139.696655,36.087396]]]}},{"type":"Feature","properties":{"layer_id":"bakumatsu_villages","name":"中野村","address":"武蔵 葛飾郡","source":"Geoshape 幕末期近世村領域データセット vector tiles (z7 extraction)","subarea_name":"近世村のおおよその範囲","feature_key":"village:K09G04S00160","accuracy_note":"2015年農業集落境界をもとに復元した概略範囲で、江戸時代の正確な村境ではありません"},"geometry":{"type":"Polygon","coordinates":[[[139.7612,36.059646],[139.7612,36.057981],[139.763947,36.055761],[139.75708,36.05243],[139.75296,36.055206],[139.75296,36.057981],[139.756393,36.057426],[139.756393,36.058536],[139.7612,36.059646]]]}},{"type":"Feature","properties":{"layer_id":"bakumatsu_villages","name":"内国府間村","address":"武蔵 葛飾郡","source":"Geoshape 幕末期近世村領域データセット vector tiles (z7 extraction)","subarea_name":"近世村のおおよその範囲","feature_key":"village:K09G04S00149","accuracy_note":"2015年農業集落境界をもとに復元した概略範囲で、江戸時代の正確な村境ではありません"},"geometry":{"type":"Polygon","coordinates":[[[139.720688,36.094609],[139.724808,36.090725],[139.723434,36.087396],[139.722061,36.087396],[139.722061,36.086286],[139.718628,36.089615],[139.718628,36.095164],[139.720688,36.094609]]]}},{"type":"Feature","properties":{"layer_id":"bakumatsu_villages","name":"円藤内村","address":"武蔵 葛飾郡","source":"Geoshape 幕末期近世村領域データセット vector tiles (z7 extraction)","subarea_name":"近世村のおおよその範囲","feature_key":"village:K09G04S00145","accuracy_note":"2015年農業集落境界をもとに復元した概略範囲で、江戸時代の正確な村境ではありません"},"geometry":{"type":"Polygon","coordinates":[[[139.705582,36.097383],[139.710388,36.095719],[139.711761,36.096828],[139.713821,36.096274],[139.713135,36.086286],[139.710388,36.086286],[139.710388,36.09239],[139.709702,36.094054],[139.706268,36.094054],[139.704895,36.095164],[139.704895,36.097383],[139.705582,36.097383]]]}},{"type":"Feature","properties":{"layer_id":"bakumatsu_villages","name":"千塚村","address":"武蔵 葛飾郡","source":"Geoshape 幕末期近世村領域データセット vector tiles (z7 extraction)","subarea_name":"近世村のおおよその範囲","feature_key":"village:K09G04S00144","accuracy_note":"2015年農業集落境界をもとに復元した概略範囲で、江戸時代の正確な村境ではありません"},"geometry":{"type":"MultiPolygon","coordinates":[[[[139.700089,36.098493],[139.702835,36.097383],[139.702148,36.095719],[139.701462,36.095719],[139.701462,36.09239],[139.699402,36.09239],[139.702148,36.08906],[139.702148,36.086841],[139.696655,36.087396],[139.696655,36.086286],[139.694595,36.086286],[139.692535,36.09128],[139.698029,36.094054],[139.700089,36.098493]]],[[[139.704895,36.097383],[139.706268,36.094054],[139.709702,36.094054],[139.710388,36.09239],[139.710388,36.086286],[139.707642,36.085176],[139.706955,36.086841],[139.702148,36.086841],[139.702148,36.08906],[139.699402,36.09239],[139.701462,36.09239],[139.701462,36.095719],[139.702148,36.095719],[139.702835,36.097383],[139.704895,36.097383]]]]}},{"type":"Feature","properties":{"layer_id":"bakumatsu_villages","name":"吉野村","address":"武蔵 葛飾郡","source":"Geoshape 幕末期近世村領域データセット vector tiles (z7 extraction)","subarea_name":"近世村のおおよその範囲","feature_key":"village:K09G04S00279","accuracy_note":"2015年農業集落境界をもとに復元した概略範囲で、江戸時代の正確な村境ではありません"},"geometry":{"type":"Polygon","coordinates":[[[139.720001,36.05354],[139.722748,36.05465],[139.723434,36.057426],[139.722748,36.057981],[139.723434,36.060201],[139.722748,36.061867],[139.728241,36.060756],[139.726868,36.056871],[139.729614,36.05243],[139.727554,36.049654],[139.728241,36.047989],[139.726868,36.047433],[139.724808,36.048544],[139.725494,36.050764],[139.724808,36.05132],[139.725494,36.05243],[139.724121,36.054095],[139.722061,36.05243],[139.720001,36.05354]]]}},{"type":"Feature","properties":{"layer_id":"bakumatsu_villages","name":"外国府間村","address":"武蔵 葛飾郡","source":"Geoshape 幕末期近世村領域データセット vector tiles (z7 extraction)","subarea_name":"近世村のおおよその範囲","feature_key":"village:K09G04S00148","accuracy_note":"2015年農業集落境界をもとに復元した概略範囲で、江戸時代の正確な村境ではありません"},"geometry":{"type":"Polygon","coordinates":[[[139.723434,36.109588],[139.722748,36.108479],[139.726868,36.107924],[139.727554,36.097938],[139.725494,36.098493],[139.724121,36.096828],[139.723434,36.097938],[139.723434,36.099048],[139.721375,36.099602],[139.722061,36.100157],[139.720001,36.100712],[139.720001,36.108479],[139.723434,36.109588]]]}},{"type":"Feature","properties":{"layer_id":"bakumatsu_villages","name":"天神島村","address":"武蔵 葛飾郡","source":"Geoshape 幕末期近世村領域データセット vector tiles (z7 extraction)","subarea_name":"近世村のおおよその範囲","feature_key":"village:K09G04S00163","accuracy_note":"2015年農業集落境界をもとに復元した概略範囲で、江戸時代の正確な村境ではありません"},"geometry":{"type":"MultiPolygon","coordinates":[[[[139.736481,36.072967],[139.738541,36.072412],[139.733047,36.065752],[139.729614,36.069082],[139.730301,36.071302],[139.731674,36.072967],[139.735794,36.071857],[139.736481,36.072967]]],[[[139.726181,36.070747],[139.729614,36.069082],[139.733047,36.065752],[139.731674,36.064642],[139.730988,36.065197],[139.729614,36.060756],[139.722748,36.061867],[139.724808,36.062422],[139.724808,36.065197],[139.726868,36.065197],[139.725494,36.066862],[139.726868,36.067417],[139.724808,36.069082],[139.726181,36.070747]]]]}},{"type":"Feature","properties":{"layer_id":"bakumatsu_villages","name":"安戸村","address":"武蔵 葛飾郡","source":"Geoshape 幕末期近世村領域データセット vector tiles (z7 extraction)","subarea_name":"近世村のおおよその範囲","feature_key":"village:K09G04S00280","accuracy_note":"2015年農業集落境界をもとに復元した概略範囲で、江戸時代の正確な村境ではありません"},"geometry":{"type":"MultiPolygon","coordinates":[[[[139.74472,36.05354],[139.74472,36.052985],[139.742661,36.047989],[139.738541,36.049099],[139.736481,36.046878],[139.735107,36.047433],[139.735107,36.048544],[139.737167,36.048544],[139.737167,36.050209],[139.734421,36.050764],[139.734421,36.051875],[139.74472,36.05354]]],[[[139.74472,36.05243],[139.747467,36.050209],[139.74472,36.045213],[139.740601,36.045213],[139.736481,36.046878],[139.738541,36.049099],[139.742661,36.047989],[139.74472,36.05243]]],[[[139.74472,36.052985],[139.74472,36.05354],[139.745407,36.054095],[139.748154,36.052985],[139.74472,36.052985]]],[[[139.728928,36.047989],[139.735107,36.047433],[139.741287,36.045213],[139.739227,36.040771],[139.733047,36.043547],[139.734421,36.044658],[139.728928,36.047989]]]]}},{"type":"Feature","properties":{"layer_id":"bakumatsu_villages","name":"平野村","address":"武蔵 葛飾郡","source":"Geoshape 幕末期近世村領域データセット vector tiles (z7 extraction)","subarea_name":"近世村のおおよその範囲","feature_key":"village:K09G04S00159","accuracy_note":"2015年農業集落境界をもとに復元した概略範囲で、江戸時代の正確な村境ではありません"},"geometry":{"type":"Polygon","coordinates":[[[139.754333,36.067417],[139.755707,36.064642],[139.75708,36.064087],[139.757767,36.064642],[139.762573,36.062422],[139.7612,36.059091],[139.756393,36.058536],[139.756393,36.057426],[139.75296,36.057981],[139.752274,36.055761],[139.7509,36.059091],[139.753647,36.061867],[139.750214,36.065197],[139.754333,36.067417]]]}},{"type":"Feature","properties":{"layer_id":"bakumatsu_villages","name":"平須加村","address":"武蔵 葛飾郡","source":"Geoshape 幕末期近世村領域データセット vector tiles (z7 extraction)","subarea_name":"近世村のおおよその範囲","feature_key":"village:K09G04S00162","accuracy_note":"2015年農業集落境界をもとに復元した概略範囲で、江戸時代の正確な村境ではありません"},"geometry":{"type":"MultiPolygon","coordinates":[[[[139.733047,36.065752],[139.737854,36.062977],[139.737167,36.061312],[139.735107,36.061867],[139.734421,36.060756],[139.731674,36.061867],[139.731674,36.060756],[139.729614,36.060756],[139.730988,36.065197],[139.731674,36.064642],[139.733047,36.065752]]],[[[139.735107,36.061867],[139.737167,36.061312],[139.735794,36.060756],[139.736481,36.059091],[139.734421,36.059091],[139.735107,36.056871],[139.733734,36.056871],[139.731674,36.057426],[139.731674,36.057981],[139.726868,36.058536],[139.728241,36.060756],[139.731674,36.060756],[139.731674,36.061867],[139.734421,36.060756],[139.735107,36.061867]]],[[[139.726868,36.058536],[139.731674,36.057981],[139.731674,36.057426],[139.733734,36.056871],[139.733047,36.055761],[139.733734,36.055206],[139.733734,36.052985],[139.735107,36.052985],[139.734421,36.051875],[139.729614,36.05243],[139.726868,36.056316],[139.726868,36.058536]]],[[[139.735794,36.068527],[139.737167,36.067972],[139.739914,36.067417],[139.741287,36.067972],[139.743347,36.064642],[139.738541,36.064087],[139.737854,36.062977],[139.733047,36.065752],[139.735794,36.068527]]],[[[139.737167,36.059091],[139.741974,36.056316],[139.746094,36.055761],[139.74472,36.05354],[139.741974,36.05243],[139.734421,36.051875],[139.733734,36.055206],[139.733047,36.055761],[139.733734,36.056871],[139.735107,36.056871],[139.734421,36.059091],[139.737167,36.059091]]],[[[139.749527,36.072412],[139.752274,36.070747],[139.752274,36.068527],[139.753647,36.067972],[139.74884,36.067417],[139.74884,36.066307],[139.743347,36.064642],[139.742661,36.066307],[139.746094,36.067417],[139.746094,36.067972],[139.748154,36.069082],[139.74678,36.070747],[139.747467,36.071302],[139.749527,36.072412]]]]}},{"type":"Feature","properties":{"layer_id":"bakumatsu_villages","name":"幸手宿","address":"武蔵 葛飾郡","source":"Geoshape 幕末期近世村領域データセット vector tiles (z7 extraction)","subarea_name":"近世村のおおよその範囲","feature_key":"village:K09G04S00136","accuracy_note":"2015年農業集落境界をもとに復元した概略範囲で、江戸時代の正確な村境ではありません"},"geometry":{"type":"MultiPolygon","coordinates":[[[[139.719315,36.08906],[139.721375,36.086841],[139.722748,36.082957],[139.720001,36.081292],[139.720001,36.083511],[139.717255,36.083511],[139.717941,36.08906],[139.719315,36.08906]]],[[[139.724121,36.08906],[139.725494,36.085731],[139.723434,36.081292],[139.722061,36.081847],[139.722748,36.082957],[139.721375,36.086841],[139.723434,36.087396],[139.724121,36.08906]]],[[[139.709702,36.086286],[139.711761,36.082402],[139.715195,36.082402],[139.714508,36.076852],[139.711075,36.075742],[139.709702,36.079627],[139.709702,36.082957],[139.707642,36.085176],[139.708328,36.086286],[139.709702,36.086286]]],[[[139.715195,36.090725],[139.719315,36.08906],[139.717941,36.08906],[139.717255,36.086841],[139.717941,36.081847],[139.718628,36.082402],[139.718628,36.080737],[139.717941,36.077962],[139.715195,36.078517],[139.715195,36.082402],[139.711761,36.082402],[139.711761,36.083511],[139.709015,36.086286],[139.713135,36.086286],[139.713821,36.09017],[139.715195,36.089615],[139.715195,36.090725]]],[[[139.722061,36.080182],[139.727554,36.079072],[139.726181,36.076297],[139.723434,36.077407],[139.722748,36.075187],[139.721375,36.075742],[139.720688,36.076852],[139.717941,36.077962],[139.718628,36.080182],[139.722061,36.079072],[139.722061,36.080182]]],[[[139.715195,36.078517],[139.719315,36.077407],[139.717941,36.076852],[139.716568,36.072967],[139.714508,36.072967],[139.713821,36.072412],[139.713135,36.073522],[139.711761,36.076297],[139.714508,36.076852],[139.715195,36.078517]]],[[[139.717941,36.076297],[139.718628,36.075187],[139.726181,36.070747],[139.724808,36.069082],[139.720688,36.070747],[139.720001,36.069637],[139.718628,36.070747],[139.717941,36.070192],[139.717941,36.072412],[139.716568,36.072967],[139.717941,36.076297]]],[[[139.725494,36.085731],[139.726181,36.085176],[139.725494,36.084066],[139.728928,36.081292],[139.733047,36.080182],[139.733047,36.077962],[139.731674,36.078517],[139.731674,36.079627],[139.730301,36.079627],[139.729614,36.078517],[139.722061,36.080182],[139.722061,36.079072],[139.718628,36.080182],[139.717941,36.083511],[139.720001,36.083511],[139.720001,36.081292],[139.722061,36.081847],[139.723434,36.081292],[139.725494,36.085731]]],[[[139.719315,36.077407],[139.720688,36.076852],[139.721375,36.075742],[139.722748,36.075187],[139.730988,36.070747],[139.729614,36.069082],[139.718628,36.075187],[139.717941,36.076852],[139.719315,36.077407]]],[[[139.727554,36.079072],[139.733734,36.076852],[139.733047,36.074632],[139.730301,36.075187],[139.729614,36.073522],[139.731674,36.072967],[139.730301,36.071302],[139.722748,36.075187],[139.723434,36.077407],[139.726181,36.076297],[139.727554,36.079072]]],[[[139.720688,36.070747],[139.724808,36.069082],[139.726868,36.067417],[139.725494,36.066862],[139.726868,36.065197],[139.724808,36.065197],[139.724808,36.062422],[139.722061,36.062422],[139.723434,36.060201],[139.722748,36.057981],[139.723434,36.057426],[139.722748,36.05465],[139.719315,36.054095],[139.718628,36.055206],[139.720001,36.062422],[139.721375,36.064087],[139.719315,36.067972],[139.721375,36.068527],[139.720688,36.070747]]]]}},{"type":"Feature","properties":{"layer_id":"bakumatsu_villages","name":"惣新田村","address":"武蔵 葛飾郡","source":"Geoshape 幕末期近世村領域データセット vector tiles (z7 extraction)","subarea_name":"近世村のおおよその範囲","feature_key":"village:K09G04S00157","accuracy_note":"2015年農業集落境界をもとに復元した概略範囲で、江戸時代の正確な村境ではありません"},"geometry":{"type":"MultiPolygon","coordinates":[[[[139.772186,36.082957],[139.776306,36.082402],[139.776306,36.078517],[139.778366,36.075187],[139.779739,36.072412],[139.776993,36.071857],[139.776993,36.072967],[139.772186,36.074077],[139.772186,36.076297],[139.770813,36.076852],[139.770813,36.075742],[139.768753,36.077407],[139.770126,36.077962],[139.76944,36.078517],[139.770813,36.079627],[139.76944,36.081292],[139.772186,36.082957]]],[[[139.770813,36.069082],[139.770813,36.067972],[139.772873,36.067417],[139.772186,36.064642],[139.768753,36.066862],[139.768066,36.068527],[139.770126,36.067972],[139.770126,36.069082],[139.770813,36.069082]]],[[[139.770126,36.074632],[139.776993,36.072967],[139.776306,36.069637],[139.7715,36.070747],[139.770126,36.067972],[139.768066,36.068527],[139.768066,36.069637],[139.770126,36.074632]]],[[[139.7715,36.070747],[139.777679,36.070192],[139.774933,36.064642],[139.772186,36.064642],[139.772873,36.067417],[139.770813,36.067972],[139.7715,36.070747]]],[[[139.779739,36.072412],[139.779739,36.066307],[139.777679,36.066307],[139.776306,36.064087],[139.774933,36.064642],[139.77562,36.066862],[139.776306,36.066862],[139.776993,36.071857],[139.779739,36.072412]]],[[[139.76532,36.064642],[139.76532,36.063532],[139.768753,36.062977],[139.768753,36.061867],[139.772186,36.060756],[139.772186,36.059646],[139.770126,36.060201],[139.768753,36.055761],[139.763947,36.057426],[139.762573,36.056316],[139.7612,36.058536],[139.761887,36.061867],[139.76532,36.064642]]],[[[139.768753,36.066862],[139.770813,36.065197],[139.776306,36.064087],[139.774246,36.060201],[139.772186,36.060756],[139.768753,36.061867],[139.768753,36.062977],[139.76532,36.063532],[139.768066,36.064642],[139.768753,36.066862]]],[[[139.779739,36.066307],[139.779053,36.062977],[139.780426,36.060756],[139.779053,36.060756],[139.778366,36.059091],[139.774246,36.060201],[139.777679,36.066307],[139.779739,36.066307]]],[[[139.770126,36.060201],[139.772186,36.059646],[139.7715,36.054095],[139.774246,36.047989],[139.772186,36.047433],[139.76944,36.050764],[139.768753,36.054095],[139.762573,36.056316],[139.763947,36.057426],[139.768753,36.055761],[139.770126,36.060201]]],[[[139.776306,36.05132],[139.776306,36.050764],[139.77356,36.049654],[139.770813,36.055206],[139.772186,36.060756],[139.778366,36.059091],[139.776993,36.055206],[139.778366,36.055206],[139.778366,36.05354],[139.776306,36.05132]]],[[[139.776306,36.05132],[139.776306,36.05243],[139.777679,36.05243],[139.779053,36.049654],[139.778366,36.046323],[139.777679,36.046323],[139.777679,36.044658],[139.77562,36.045213],[139.774246,36.047989],[139.77356,36.049654],[139.776306,36.050764],[139.776306,36.05132]]],[[[139.774246,36.047989],[139.77562,36.045213],[139.777679,36.044658],[139.778366,36.046323],[139.779739,36.045213],[139.779739,36.042437],[139.777679,36.042437],[139.77562,36.040771],[139.776306,36.039105],[139.774246,36.037995],[139.7715,36.043547],[139.772186,36.047433],[139.774246,36.047989]]]]}},{"type":"Feature","properties":{"layer_id":"bakumatsu_villages","name":"木立村","address":"武蔵 葛飾郡","source":"Geoshape 幕末期近世村領域データセット vector tiles (z7 extraction)","subarea_name":"近世村のおおよその範囲","feature_key":"village:K09G04S00154","accuracy_note":"2015年農業集落境界をもとに復元した概略範囲で、江戸時代の正確な村境ではありません"},"geometry":{"type":"MultiPolygon","coordinates":[[[[139.748154,36.086841],[139.756393,36.082402],[139.75296,36.075187],[139.7509,36.073522],[139.75296,36.070747],[139.749527,36.072412],[139.747467,36.071302],[139.746094,36.071857],[139.748154,36.075187],[139.74678,36.075742],[139.748154,36.078517],[139.747467,36.080737],[139.74884,36.080737],[139.749527,36.082957],[139.747467,36.082957],[139.748154,36.086841]]],[[[139.756393,36.082402],[139.76326,36.080737],[139.762573,36.079072],[139.7612,36.079072],[139.75914,36.073522],[139.75708,36.074077],[139.756393,36.072412],[139.75296,36.070747],[139.7509,36.073522],[139.75296,36.075187],[139.756393,36.082402]]]]}},{"type":"Feature","properties":{"layer_id":"bakumatsu_villages","name":"松石村","address":"武蔵 葛飾郡","source":"Geoshape 幕末期近世村領域データセット vector tiles (z7 extraction)","subarea_name":"近世村のおおよその範囲","feature_key":"village:K09G04S00146","accuracy_note":"2015年農業集落境界をもとに復元した概略範囲で、江戸時代の正確な村境ではありません"},"geometry":{"type":"Polygon","coordinates":[[[139.713135,36.101822],[139.714508,36.100712],[139.713821,36.097383],[139.715881,36.096274],[139.715195,36.09239],[139.716568,36.09239],[139.715195,36.089615],[139.713135,36.09017],[139.713821,36.096274],[139.711761,36.096828],[139.710388,36.095719],[139.705582,36.097938],[139.711075,36.101267],[139.713135,36.101822]]]}},{"type":"Feature","properties":{"layer_id":"bakumatsu_villages","name":"槙野地村","address":"下総 葛飾郡","source":"Geoshape 幕末期近世村領域データセット vector tiles (z7 extraction)","subarea_name":"近世村のおおよその範囲","feature_key":"village:K05G01S00036","accuracy_note":"2015年農業集落境界をもとに復元した概略範囲で、江戸時代の正確な村境ではありません"},"geometry":{"type":"Polygon","coordinates":[[[139.787979,36.060756],[139.787979,36.057981],[139.785233,36.055761],[139.781799,36.056871],[139.780426,36.056316],[139.780426,36.060756],[139.779053,36.065752],[139.779739,36.066862],[139.783173,36.065197],[139.783859,36.067417],[139.784546,36.067972],[139.789352,36.061867],[139.787979,36.060756]],[[139.785233,36.060201],[139.783859,36.060756],[139.783859,36.059646],[139.784546,36.059091],[139.785233,36.060201]],[[139.787979,36.060756],[139.785919,36.060201],[139.786606,36.059646],[139.787979,36.060756]]]}},{"type":"Feature","properties":{"layer_id":"bakumatsu_villages","name":"権現堂村","address":"武蔵 葛飾郡","source":"Geoshape 幕末期近世村領域データセット vector tiles (z7 extraction)","subarea_name":"近世村のおおよその範囲","feature_key":"village:K09G04S00150","accuracy_note":"2015年農業集落境界をもとに復元した概略範囲で、江戸時代の正確な村境ではありません"},"geometry":{"type":"MultiPolygon","coordinates":[[[[139.726868,36.086841],[139.725494,36.089615],[139.724121,36.09017],[139.723434,36.091835],[139.722748,36.092945],[139.724121,36.094054],[139.724121,36.096828],[139.725494,36.098493],[139.727554,36.097938],[139.728241,36.09017],[139.729614,36.087396],[139.732361,36.086841],[139.730301,36.084621],[139.726868,36.086286],[139.726868,36.086841]]],[[[139.726868,36.086841],[139.726868,36.086286],[139.730301,36.084621],[139.728241,36.082402],[139.725494,36.084066],[139.726181,36.085176],[139.724121,36.086286],[139.724121,36.09017],[139.725494,36.089615],[139.726868,36.086841]]],[[[139.733047,36.080182],[139.735107,36.079072],[139.734421,36.076297],[139.735794,36.076297],[139.735794,36.074077],[139.735107,36.074077],[139.734421,36.072412],[139.729614,36.073522],[139.730301,36.075187],[139.733047,36.074632],[139.733734,36.076852],[139.729614,36.077407],[139.729614,36.078517],[139.730301,36.079627],[139.731674,36.079627],[139.731674,36.078517],[139.733047,36.077962],[139.733047,36.080182]]],[[[139.733047,36.080182],[139.728241,36.082402],[139.732361,36.086841],[139.733734,36.086841],[139.732361,36.084621],[139.734421,36.082957],[139.733047,36.080182]]]]}},{"type":"Feature","properties":{"layer_id":"bakumatsu_villages","name":"神扇村","address":"武蔵 葛飾郡","source":"Geoshape 幕末期近世村領域データセット vector tiles (z7 extraction)","subarea_name":"近世村のおおよその範囲","feature_key":"village:K09G04S00153","accuracy_note":"2015年農業集落境界をもとに復元した概略範囲で、江戸時代の正確な村境ではありません"},"geometry":{"type":"MultiPolygon","coordinates":[[[[139.753647,36.067972],[139.754333,36.067417],[139.750214,36.065197],[139.751587,36.063532],[139.74884,36.061867],[139.749527,36.061312],[139.748154,36.060201],[139.743347,36.055761],[139.736481,36.059091],[139.735794,36.060756],[139.738541,36.064087],[139.74884,36.066307],[139.74884,36.067417],[139.750214,36.067972],[139.753647,36.067972]]],[[[139.751587,36.063532],[139.753647,36.061867],[139.7509,36.059091],[139.752274,36.056316],[139.752274,36.055206],[139.74884,36.05465],[139.743347,36.055761],[139.748154,36.060201],[139.749527,36.061312],[139.74884,36.061867],[139.751587,36.063532]]]]}},{"type":"Feature","properties":{"layer_id":"bakumatsu_villages","name":"神明内村","address":"武蔵 葛飾郡","source":"Geoshape 幕末期近世村領域データセット vector tiles (z7 extraction)","subarea_name":"近世村のおおよその範囲","feature_key":"village:K09G04S00152","accuracy_note":"2015年農業集落境界をもとに復元した概略範囲で、江戸時代の正確な村境ではありません"},"geometry":{"type":"MultiPolygon","coordinates":[[[[139.749527,36.082957],[139.74884,36.080737],[139.747467,36.080737],[139.748154,36.078517],[139.74678,36.075742],[139.741287,36.077962],[139.742661,36.081847],[139.745407,36.081292],[139.746094,36.082957],[139.749527,36.082957]]],[[[139.743347,36.077407],[139.748154,36.075187],[139.746094,36.071857],[139.747467,36.071302],[139.74678,36.070747],[139.748154,36.069082],[139.746094,36.067972],[139.746094,36.067417],[139.742661,36.066307],[139.741287,36.067972],[139.739914,36.067417],[139.737167,36.067972],[139.743347,36.077407]]]]}},{"type":"Feature","properties":{"layer_id":"bakumatsu_villages","name":"細野村","address":"下総 葛飾郡","source":"Geoshape 幕末期近世村領域データセット vector tiles (z7 extraction)","subarea_name":"近世村のおおよその範囲","feature_key":"village:K05G01S00035","accuracy_note":"2015年農業集落境界をもとに復元した概略範囲で、江戸時代の正確な村境ではありません"},"geometry":{"type":"Polygon","coordinates":[[[139.780426,36.060756],[139.780426,36.05132],[139.779053,36.050209],[139.777679,36.05243],[139.778366,36.055206],[139.776993,36.055206],[139.776993,36.056316],[139.779053,36.060756],[139.780426,36.060756]]]}},{"type":"Feature","properties":{"layer_id":"bakumatsu_villages","name":"花島村","address":"下総 葛飾郡","source":"Geoshape 幕末期近世村領域データセット vector tiles (z7 extraction)","subarea_name":"近世村のおおよその範囲","feature_key":"village:K05G01S00033","accuracy_note":"2015年農業集落境界をもとに復元した概略範囲で、江戸時代の正確な村境ではありません"},"geometry":{"type":"Polygon","coordinates":[[[139.781799,36.074632],[139.782486,36.070747],[139.784546,36.067972],[139.783859,36.067417],[139.783173,36.065197],[139.779739,36.066862],[139.779739,36.072412],[139.779053,36.074077],[139.781799,36.074632]]]}},{"type":"Feature","properties":{"layer_id":"bakumatsu_villages","name":"長間村","address":"武蔵 葛飾郡","source":"Geoshape 幕末期近世村領域データセット vector tiles (z7 extraction)","subarea_name":"近世村のおおよその範囲","feature_key":"village:K09G04S00161","accuracy_note":"2015年農業集落境界をもとに復元した概略範囲で、江戸時代の正確な村境ではありません"},"geometry":{"type":"Polygon","coordinates":[[[139.763947,36.055761],[139.768753,36.054095],[139.76944,36.050764],[139.772186,36.047433],[139.7715,36.042992],[139.76944,36.042437],[139.768066,36.043547],[139.766693,36.042437],[139.760513,36.050764],[139.759827,36.049654],[139.758453,36.050764],[139.75914,36.05243],[139.7612,36.05132],[139.759827,36.052985],[139.76326,36.055206],[139.763947,36.055761]]]}},{"type":"Feature","properties":{"layer_id":"bakumatsu_villages","name":"関宿向下河岸","address":"下総 葛飾郡","source":"Geoshape 幕末期近世村領域データセット vector tiles (z7 extraction)","subarea_name":"近世村のおおよその範囲","feature_key":"village:K05G01S00048","accuracy_note":"2015年農業集落境界をもとに復元した概略範囲で、江戸時代の正確な村境ではありません"},"geometry":{"type":"Polygon","coordinates":[[[139.77562,36.09128],[139.779739,36.081847],[139.772186,36.082957],[139.772186,36.088506],[139.77562,36.09128]]]}},{"type":"Feature","properties":{"layer_id":"bakumatsu_villages","name":"高須賀村","address":"武蔵 葛飾郡","source":"Geoshape 幕末期近世村領域データセット vector tiles (z7 extraction)","subarea_name":"近世村のおおよその範囲","feature_key":"village:K09G04S00147","accuracy_note":"2015年農業集落境界をもとに復元した概略範囲で、江戸時代の正確な村境ではありません"},"geometry":{"type":"Polygon","coordinates":[[[139.720001,36.102376],[139.720001,36.100712],[139.722061,36.100157],[139.721375,36.099602],[139.723434,36.099048],[139.723434,36.097938],[139.724808,36.096274],[139.723434,36.092945],[139.720688,36.095164],[139.720688,36.094609],[139.718628,36.095164],[139.719315,36.08906],[139.715881,36.090725],[139.715881,36.096274],[139.713821,36.097938],[139.714508,36.100712],[139.717255,36.099048],[139.720001,36.102376]]]}},{"type":"Feature","properties":{"layer_id":"civil_engineering_heritage","name":"権現堂川用水樋管群","address":"埼玉県／幸手市","source":"土木学会 選奨土木遺産","subarea_name":"権現堂川用水新圦(しんいり)は煉瓦造り樋管で保存状態が良い。巡礼樋管は高欄に装飾が施されており、取り付く堤防は桜の名所である。","feature_key":"civil:136:権現堂川用水樋管群","source_url":"https://committees.jsce.or.jp/heritage/node/578","accuracy_note":"公式地図の位置を優先して収録しています"},"geometry":{"type":"Point","coordinates":[139.723474,36.09286]}},{"type":"Feature","properties":{"layer_id":"edo_post_stations","name":"幸手","address":"","source":"CODH 江戸宿場データセット Version 1 (2026-08)","subarea_name":"日光道中","feature_key":"post:R005-007"},"geometry":{"type":"Point","coordinates":[139.719174,36.076373]}},{"type":"Feature","properties":{"layer_id":"edo_post_stations","name":"幸手","address":"","source":"CODH 江戸宿場データセット Version 1 (2026-08)","feature_key":"post:R302-007"},"geometry":{"type":"Point","coordinates":[139.719174,36.076373]}},{"type":"Feature","properties":{"layer_id":"edo_post_stations","name":"幸手宿","address":"","source":"CODH 江戸宿場データセット Version 1 (2026-08)","subarea_name":"奥州道中","feature_key":"post:R004-007"},"geometry":{"coordinates":[139.71917,36.07637],"type":"Point"}},{"type":"Feature","properties":{"layer_id":"edo_roads","name":"奥州道中","address":"江戸 → 三厩","source":"CODH 江戸主要街道データセット Version 4 (2026-08)","subarea_name":"江戸期の主要街道","feature_key":"road:R004"},"geometry":{"type":"LineString","coordinates":[[139.7106,36.06743],[139.71047,36.06847],[139.71234,36.06916],[139.71737,36.07143],[139.71812,36.07203],[139.72052,36.081],[139.72168,36.08147],[139.7208,36.09411],[139.72208,36.09826],[139.72284,36.10006],[139.72377,36.11049]]}},{"type":"Feature","properties":{"layer_id":"edo_roads","name":"日光道中","address":"江戸 → 日光","source":"CODH 江戸主要街道データセット Version 4 (2026-08)","subarea_name":"江戸期の主要街道","feature_key":"road:R005"},"geometry":{"type":"LineString","coordinates":[[139.7106,36.06743],[139.71047,36.06847],[139.71234,36.06916],[139.71737,36.07143],[139.71812,36.07203],[139.72052,36.081],[139.72168,36.08147],[139.7208,36.09411],[139.72208,36.09826],[139.72284,36.10006],[139.72377,36.11049]]}},{"type":"Feature","properties":{"layer_id":"historical_temples_shrines","name":"宝聖寺","address":"埼玉県 幸手市 大字平須賀二丁目458番地","source":"Geoshape 日本歴史地名大系 施設・地点項目データセット 2025-05-15","subarea_name":"寺院","feature_key":"01_temples.geojson:110000349100","subtype":"寺院"},"geometry":{"type":"Point","coordinates":[139.731369,36.057095]}},{"type":"Feature","properties":{"layer_id":"historical_temples_shrines","name":"満福寺","address":"埼玉県 幸手市 中四丁目14番34号","source":"Geoshape 日本歴史地名大系 施設・地点項目データセット 2025-05-15","subarea_name":"寺院","feature_key":"01_temples.geojson:110000233600","subtype":"寺院"},"geometry":{"type":"Point","coordinates":[139.717484,36.076931]}}]}