{"type":"FeatureCollection","municipality_code":"11327","pref":"埼玉県","city":"越生町","layer_counts":{"bakumatsu_villages":17,"historical_temples_shrines":4},"total_features":21,"features":[{"type":"Feature","properties":{"layer_id":"bakumatsu_villages","name":"上谷村","address":"武蔵 入間郡","source":"Geoshape 幕末期近世村領域データセット vector tiles (z7 extraction)","subarea_name":"近世村のおおよその範囲","feature_key":"village:K09G13S00165","accuracy_note":"2015年農業集落境界をもとに復元した概略範囲で、江戸時代の正確な村境ではありません"},"geometry":{"type":"Polygon","coordinates":[[[139.266129,35.986896],[139.266129,35.985785],[139.268875,35.985785],[139.268188,35.983007],[139.270935,35.978562],[139.270935,35.976339],[139.272995,35.975228],[139.268875,35.973561],[139.264755,35.974672],[139.260635,35.974672],[139.258575,35.975783],[139.257889,35.972449],[139.259262,35.971338],[139.255142,35.971894],[139.253082,35.969115],[139.244156,35.974116],[139.243469,35.976339],[139.244156,35.979117],[139.244843,35.979117],[139.246216,35.981896],[139.250336,35.983007],[139.251709,35.986341],[139.255142,35.985229],[139.259262,35.985785],[139.260635,35.986896],[139.266129,35.986896]]]}},{"type":"Feature","properties":{"layer_id":"bakumatsu_villages","name":"上野村","address":"武蔵 入間郡","source":"Geoshape 幕末期近世村領域データセット vector tiles (z7 extraction)","subarea_name":"近世村のおおよその範囲","feature_key":"village:K09G13S00156","accuracy_note":"2015年農業集落境界をもとに復元した概略範囲で、江戸時代の正確な村境ではありません"},"geometry":{"type":"MultiPolygon","coordinates":[[[[139.280548,35.961335],[139.288788,35.960779],[139.290161,35.958556],[139.299088,35.957444],[139.301834,35.958],[139.304581,35.955777],[139.301147,35.956332],[139.299774,35.951886],[139.297028,35.95133],[139.290848,35.948551],[139.286041,35.949106],[139.282608,35.950774],[139.275742,35.95133],[139.275742,35.957444],[139.278488,35.960779],[139.280548,35.961335]]],[[[139.306641,35.959111],[139.308701,35.958],[139.311447,35.958],[139.312134,35.956888],[139.313507,35.956888],[139.311447,35.952442],[139.310074,35.950218],[139.305267,35.949662],[139.303207,35.947995],[139.303207,35.945771],[139.301147,35.946883],[139.299088,35.944659],[139.289474,35.947439],[139.288101,35.949106],[139.290848,35.948551],[139.297028,35.95133],[139.299774,35.951886],[139.301147,35.956332],[139.304581,35.955777],[139.303207,35.956888],[139.306641,35.959111]]]]}},{"type":"Feature","properties":{"layer_id":"bakumatsu_villages","name":"古池村","address":"武蔵 比企郡","source":"Geoshape 幕末期近世村領域データセット vector tiles (z7 extraction)","subarea_name":"近世村のおおよその範囲","feature_key":"village:K09G10S00101","accuracy_note":"2015年農業集落境界をもとに復元した概略範囲で、江戸時代の正確な村境ではありません"},"geometry":{"type":"Polygon","coordinates":[[[139.279861,35.994119],[139.282608,35.991897],[139.282608,35.989119],[139.280548,35.985229],[139.281921,35.983563],[139.278488,35.983007],[139.279175,35.980229],[139.277802,35.979673],[139.277802,35.976895],[139.274368,35.974116],[139.274368,35.974672],[139.271622,35.975228],[139.272308,35.976339],[139.270248,35.977451],[139.270935,35.978562],[139.268188,35.983007],[139.268875,35.985229],[139.272308,35.985785],[139.274368,35.988563],[139.278488,35.989119],[139.279861,35.994119]]]}},{"type":"Feature","properties":{"layer_id":"bakumatsu_villages","name":"和田村","address":"武蔵 入間郡","source":"Geoshape 幕末期近世村領域データセット vector tiles (z7 extraction)","subarea_name":"近世村のおおよその範囲","feature_key":"village:K09G13S00155","accuracy_note":"2015年農業集落境界をもとに復元した概略範囲で、江戸時代の正確な村境ではありません"},"geometry":{"type":"Polygon","coordinates":[[[139.303207,35.978006],[139.305954,35.975783],[139.305267,35.975783],[139.306641,35.973561],[139.305954,35.969115],[139.304581,35.966892],[139.305267,35.963002],[139.297714,35.965225],[139.294281,35.968559],[139.295654,35.971338],[139.292221,35.971894],[139.291534,35.973561],[139.296341,35.973005],[139.298401,35.973561],[139.300461,35.977451],[139.303207,35.978006]]]}},{"type":"Feature","properties":{"layer_id":"bakumatsu_villages","name":"堂山村","address":"武蔵 入間郡","source":"Geoshape 幕末期近世村領域データセット vector tiles (z7 extraction)","subarea_name":"近世村のおおよその範囲","feature_key":"village:K09G13S00161","accuracy_note":"2015年農業集落境界をもとに復元した概略範囲で、江戸時代の正確な村境ではありません"},"geometry":{"type":"Polygon","coordinates":[[[139.258575,35.975783],[139.260635,35.974672],[139.264755,35.974672],[139.268875,35.973561],[139.272995,35.975228],[139.274368,35.974116],[139.273682,35.971894],[139.262695,35.968559],[139.253769,35.969115],[139.255142,35.971894],[139.259262,35.971338],[139.257889,35.972449],[139.258575,35.975783]]]}},{"type":"Feature","properties":{"layer_id":"bakumatsu_villages","name":"大満村","address":"武蔵 入間郡","source":"Geoshape 幕末期近世村領域データセット vector tiles (z7 extraction)","subarea_name":"近世村のおおよその範囲","feature_key":"village:K09G13S00163","accuracy_note":"2015年農業集落境界をもとに復元した概略範囲で、江戸時代の正確な村境ではありません"},"geometry":{"type":"Polygon","coordinates":[[[139.262009,35.965225],[139.266815,35.963002],[139.267502,35.96189],[139.271622,35.960779],[139.272995,35.958],[139.275742,35.956888],[139.275742,35.95133],[139.273682,35.948551],[139.274368,35.945771],[139.270248,35.944103],[139.268875,35.941324],[139.264755,35.940212],[139.261322,35.934097],[139.259949,35.940212],[139.261322,35.945771],[139.259262,35.947995],[139.262695,35.949662],[139.262695,35.95133],[139.257889,35.951886],[139.255829,35.956332],[139.257889,35.958556],[139.256516,35.961335],[139.258575,35.963558],[139.262009,35.965225]]]}},{"type":"Feature","properties":{"layer_id":"bakumatsu_villages","name":"大谷村","address":"武蔵 入間郡","source":"Geoshape 幕末期近世村領域データセット vector tiles (z7 extraction)","subarea_name":"近世村のおおよその範囲","feature_key":"village:K09G13S00154","accuracy_note":"2015年農業集落境界をもとに復元した概略範囲で、江戸時代の正確な村境ではありません"},"geometry":{"type":"Polygon","coordinates":[[[139.288101,35.991341],[139.294281,35.987452],[139.301147,35.985785],[139.304581,35.982451],[139.308014,35.978562],[139.308701,35.976895],[139.305954,35.975783],[139.303207,35.978006],[139.300461,35.977451],[139.298401,35.973561],[139.296341,35.973005],[139.291534,35.973561],[139.288788,35.980784],[139.290848,35.98134],[139.291534,35.984674],[139.289474,35.988007],[139.286728,35.989674],[139.288101,35.991341]]]}},{"type":"Feature","properties":{"layer_id":"bakumatsu_villages","name":"如意村","address":"武蔵 入間郡","source":"Geoshape 幕末期近世村領域データセット vector tiles (z7 extraction)","subarea_name":"近世村のおおよその範囲","feature_key":"village:K09G13S00150","accuracy_note":"2015年農業集落境界をもとに復元した概略範囲で、江戸時代の正確な村境ではありません"},"geometry":{"type":"Polygon","coordinates":[[[139.308014,35.976895],[139.312134,35.974672],[139.31282,35.972449],[139.31694,35.970227],[139.31694,35.968559],[139.32106,35.965781],[139.315567,35.964113],[139.316254,35.960223],[139.315567,35.959667],[139.31694,35.957444],[139.313507,35.956888],[139.312134,35.956888],[139.311447,35.958],[139.308701,35.958],[139.306641,35.959111],[139.303894,35.963002],[139.305267,35.963002],[139.304581,35.966892],[139.305954,35.970227],[139.306641,35.973561],[139.305267,35.975783],[139.308014,35.976895]]]}},{"type":"Feature","properties":{"layer_id":"bakumatsu_villages","name":"小杉村","address":"武蔵 入間郡","source":"Geoshape 幕末期近世村領域データセット vector tiles (z7 extraction)","subarea_name":"近世村のおおよその範囲","feature_key":"village:K09G13S00162","accuracy_note":"2015年農業集落境界をもとに復元した概略範囲で、江戸時代の正確な村境ではありません"},"geometry":{"type":"Polygon","coordinates":[[[139.275055,35.973005],[139.275742,35.970227],[139.272995,35.966892],[139.272995,35.960223],[139.270248,35.961335],[139.267502,35.96189],[139.266815,35.963002],[139.262009,35.965225],[139.259262,35.963558],[139.251709,35.964669],[139.249649,35.96189],[139.246902,35.96189],[139.244156,35.958556],[139.240036,35.958556],[139.238663,35.959667],[139.232483,35.959111],[139.22905,35.960223],[139.235229,35.96189],[139.235916,35.963558],[139.243469,35.965781],[139.249649,35.966336],[139.251709,35.968559],[139.251709,35.969671],[139.253082,35.969115],[139.262695,35.968559],[139.275055,35.973005]]]}},{"type":"Feature","properties":{"layer_id":"bakumatsu_villages","name":"成瀬村","address":"武蔵 入間郡","source":"Geoshape 幕末期近世村領域データセット vector tiles (z7 extraction)","subarea_name":"近世村のおおよその範囲","feature_key":"village:K09G13S00159","accuracy_note":"2015年農業集落境界をもとに復元した概略範囲で、江戸時代の正確な村境ではありません"},"geometry":{"type":"Polygon","coordinates":[[[139.279175,35.980229],[139.281235,35.979117],[139.289474,35.978006],[139.292221,35.971894],[139.295654,35.971338],[139.295654,35.970227],[139.294281,35.969671],[139.293594,35.970782],[139.287415,35.971338],[139.284668,35.974116],[139.281235,35.973005],[139.277802,35.974116],[139.276428,35.975228],[139.277802,35.976895],[139.277802,35.979673],[139.279175,35.980229]]]}},{"type":"Feature","properties":{"layer_id":"bakumatsu_villages","name":"津久根村","address":"武蔵 入間郡","source":"Geoshape 幕末期近世村領域データセット vector tiles (z7 extraction)","subarea_name":"近世村のおおよその範囲","feature_key":"village:K09G13S00160","accuracy_note":"2015年農業集落境界をもとに復元した概略範囲で、江戸時代の正確な村境ではありません"},"geometry":{"type":"Polygon","coordinates":[[[139.276428,35.975228],[139.280548,35.973005],[139.284668,35.974116],[139.287415,35.971894],[139.288101,35.968004],[139.287415,35.964669],[139.285355,35.961335],[139.279175,35.961335],[139.275742,35.957444],[139.272995,35.958],[139.272308,35.959667],[139.272995,35.966892],[139.275742,35.970227],[139.275055,35.974116],[139.276428,35.975228]]]}},{"type":"Feature","properties":{"layer_id":"bakumatsu_villages","name":"竜ヶ谷村","address":"武蔵 入間郡","source":"Geoshape 幕末期近世村領域データセット vector tiles (z7 extraction)","subarea_name":"近世村のおおよその範囲","feature_key":"village:K09G13S00167","accuracy_note":"2015年農業集落境界をもとに復元した概略範囲で、江戸時代の正確な村境ではありません"},"geometry":{"type":"MultiPolygon","coordinates":[[[[139.246216,35.960779],[139.251022,35.956332],[139.255829,35.955777],[139.257889,35.951886],[139.255142,35.950774],[139.255142,35.948551],[139.251022,35.947439],[139.246902,35.947995],[139.244843,35.946883],[139.240036,35.946883],[139.237976,35.948551],[139.234543,35.949106],[139.231796,35.948551],[139.228363,35.949106],[139.221497,35.946883],[139.220123,35.949106],[139.218063,35.949662],[139.21669,35.952442],[139.213943,35.954109],[139.21257,35.955221],[139.21257,35.956332],[139.21669,35.959111],[139.22905,35.960223],[139.232483,35.959111],[139.238663,35.959667],[139.240036,35.958556],[139.244156,35.958556],[139.246216,35.960779]]],[[[139.255829,35.955777],[139.249649,35.957444],[139.246216,35.961335],[139.247589,35.962446],[139.249649,35.96189],[139.251709,35.964669],[139.258575,35.963558],[139.256516,35.961335],[139.257889,35.958556],[139.255829,35.956332],[139.255829,35.955777]]]]}},{"type":"Feature","properties":{"layer_id":"bakumatsu_villages","name":"越生村","address":"武蔵 入間郡","source":"Geoshape 幕末期近世村領域データセット vector tiles (z7 extraction)","subarea_name":"近世村のおおよその範囲","feature_key":"village:K09G13S00157","accuracy_note":"2015年農業集落境界をもとに復元した概略範囲で、江戸時代の正確な村境ではありません"},"geometry":{"type":"MultiPolygon","coordinates":[[[[139.295654,35.966892],[139.297714,35.965225],[139.297028,35.964113],[139.292908,35.964669],[139.290161,35.965781],[139.295654,35.966892]]],[[[139.290161,35.965781],[139.292908,35.964669],[139.296341,35.964113],[139.296341,35.963002],[139.294968,35.963002],[139.294281,35.961335],[139.294968,35.959667],[139.292908,35.959667],[139.292908,35.958556],[139.290161,35.958556],[139.288788,35.960779],[139.286041,35.961335],[139.290161,35.965781]]],[[[139.297714,35.965225],[139.303207,35.963558],[139.297714,35.962446],[139.296341,35.963558],[139.297714,35.965225]]],[[[139.296341,35.963002],[139.297714,35.962446],[139.303894,35.963002],[139.306641,35.959111],[139.303207,35.956888],[139.301834,35.958],[139.299088,35.957444],[139.292908,35.958556],[139.292908,35.959667],[139.294968,35.959667],[139.294968,35.963002],[139.296341,35.963002]]]]}},{"type":"Feature","properties":{"layer_id":"bakumatsu_villages","name":"鹿下村","address":"武蔵 入間郡","source":"Geoshape 幕末期近世村領域データセット vector tiles (z7 extraction)","subarea_name":"近世村のおおよその範囲","feature_key":"village:K09G13S00166","accuracy_note":"2015年農業集落境界をもとに復元した概略範囲で、江戸時代の正確な村境ではありません"},"geometry":{"type":"Polygon","coordinates":[[[139.282608,35.991897],[139.288101,35.991341],[139.286728,35.989674],[139.289474,35.988007],[139.291534,35.984674],[139.290848,35.98134],[139.288788,35.980784],[139.290161,35.979117],[139.289474,35.978006],[139.282608,35.978562],[139.279175,35.980229],[139.278488,35.983007],[139.281921,35.983563],[139.280548,35.984674],[139.282608,35.989119],[139.282608,35.991897]]]}},{"type":"Feature","properties":{"layer_id":"bakumatsu_villages","name":"麦原村","address":"武蔵 比企郡","source":"Geoshape 幕末期近世村領域データセット vector tiles (z7 extraction)","subarea_name":"近世村のおおよその範囲","feature_key":"village:K09G10S00113","accuracy_note":"2015年農業集落境界をもとに復元した概略範囲で、江戸時代の正確な村境ではありません"},"geometry":{"type":"Polygon","coordinates":[[[139.244156,35.979117],[139.243469,35.976339],[139.244156,35.974116],[139.251022,35.970227],[139.251709,35.968559],[139.249649,35.966336],[139.243469,35.965781],[139.235916,35.963558],[139.235229,35.96189],[139.228363,35.959667],[139.21875,35.959111],[139.218063,35.96189],[139.220123,35.966336],[139.230423,35.974672],[139.234543,35.974672],[139.237976,35.976895],[139.244156,35.979117]]]}},{"type":"Feature","properties":{"layer_id":"bakumatsu_villages","name":"黒山村","address":"武蔵 入間郡","source":"Geoshape 幕末期近世村領域データセット vector tiles (z7 extraction)","subarea_name":"近世村のおおよその範囲","feature_key":"village:K09G13S00164","accuracy_note":"2015年農業集落境界をもとに復元した概略範囲で、江戸時代の正確な村境ではありません"},"geometry":{"type":"Polygon","coordinates":[[[139.258575,35.951886],[139.262695,35.95133],[139.262695,35.949662],[139.259262,35.947995],[139.261322,35.945771],[139.259949,35.940212],[139.261322,35.935765],[139.260635,35.932429],[139.262009,35.930761],[139.265442,35.929649],[139.264755,35.926869],[139.263382,35.926313],[139.262695,35.924645],[139.259949,35.923532],[139.254456,35.925201],[139.254456,35.923532],[139.253082,35.92242],[139.247589,35.922976],[139.247589,35.925757],[139.242096,35.929093],[139.236603,35.930205],[139.236603,35.934653],[139.23317,35.937432],[139.234543,35.940212],[139.23111,35.941324],[139.23111,35.942436],[139.228363,35.944103],[139.227676,35.945771],[139.221497,35.946327],[139.221497,35.946883],[139.228363,35.949106],[139.231796,35.948551],[139.234543,35.949106],[139.237976,35.948551],[139.240036,35.946883],[139.244843,35.946883],[139.246902,35.947995],[139.251022,35.947439],[139.255142,35.949106],[139.255829,35.95133],[139.258575,35.951886]]]}},{"type":"Feature","properties":{"layer_id":"bakumatsu_villages","name":"黒岩村","address":"武蔵 入間郡","source":"Geoshape 幕末期近世村領域データセット vector tiles (z7 extraction)","subarea_name":"近世村のおおよその範囲","feature_key":"village:K09G13S00158","accuracy_note":"2015年農業集落境界をもとに復元した概略範囲で、江戸時代の正確な村境ではありません"},"geometry":{"type":"Polygon","coordinates":[[[139.287415,35.971894],[139.294281,35.970782],[139.295654,35.966892],[139.290161,35.965781],[139.285355,35.961335],[139.288101,35.968004],[139.287415,35.971894]]]}},{"type":"Feature","properties":{"layer_id":"historical_temples_shrines","name":"大宮神社","address":"埼玉県 入間郡越生町 大字上野1732番地","source":"Geoshape 日本歴史地名大系 施設・地点項目データセット 2025-05-15","subarea_name":"神社","feature_key":"02_shrines.geojson:110000098000","subtype":"神社"},"geometry":{"type":"Point","coordinates":[139.297455,35.954556]}},{"type":"Feature","properties":{"layer_id":"historical_temples_shrines","name":"正法寺","address":"埼玉県 入間郡越生町 大字越生960番地","source":"Geoshape 日本歴史地名大系 施設・地点項目データセット 2025-05-15","subarea_name":"寺院","feature_key":"01_temples.geojson:110000186100","subtype":"寺院"},"geometry":{"type":"Point","coordinates":[139.292236,35.963703]}},{"type":"Feature","properties":{"layer_id":"historical_temples_shrines","name":"法恩寺","address":"埼玉県 入間郡越生町 大字越生704番地","source":"Geoshape 日本歴史地名大系 施設・地点項目データセット 2025-05-15","subarea_name":"寺院","feature_key":"01_temples.geojson:110000097800","subtype":"寺院"},"geometry":{"type":"Point","coordinates":[139.296371,35.961468]}},{"type":"Feature","properties":{"layer_id":"historical_temples_shrines","name":"龍穏寺","address":"埼玉県 入間郡越生町 大字龍ケ谷452番地1","source":"Geoshape 日本歴史地名大系 施設・地点項目データセット 2025-05-15","subarea_name":"寺院","feature_key":"01_temples.geojson:110000099700","subtype":"寺院"},"geometry":{"type":"Point","coordinates":[139.245331,35.954254]}}]}