{"type":"FeatureCollection","municipality_code":"11383","pref":"埼玉県","city":"神川町","layer_counts":{"bakumatsu_villages":19,"historical_sites_archaeology":2,"historical_temples_shrines":3},"total_features":24,"features":[{"type":"Feature","properties":{"layer_id":"bakumatsu_villages","name":"上阿久原村","address":"武蔵 児玉郡","source":"Geoshape 幕末期近世村領域データセット vector tiles (z7 extraction)","subarea_name":"近世村のおおよその範囲","feature_key":"village:K09G15S00025","accuracy_note":"2015年農業集落境界をもとに復元した概略範囲で、江戸時代の正確な村境ではありません"},"geometry":{"type":"MultiPolygon","coordinates":[[[[139.041595,36.128447],[139.046402,36.126229],[139.051895,36.122346],[139.044342,36.11569],[139.044342,36.110698],[139.040909,36.104596],[139.038162,36.104596],[139.037476,36.102931],[139.034042,36.100712],[139.028549,36.102376],[139.026489,36.107924],[139.026489,36.115135],[139.031296,36.121237],[139.035416,36.121792],[139.034042,36.123455],[139.036789,36.126229],[139.041595,36.128447]]],[[[139.051208,36.152846],[139.053268,36.147301],[139.060822,36.143974],[139.064255,36.140647],[139.060822,36.133993],[139.057388,36.133438],[139.058075,36.130665],[139.049835,36.132884],[139.040909,36.13732],[139.042282,36.14841],[139.046402,36.149519],[139.047775,36.152291],[139.051208,36.152846]]],[[[139.040909,36.13732],[139.049835,36.132884],[139.058075,36.130665],[139.056702,36.126229],[139.055328,36.125119],[139.053268,36.125119],[139.051895,36.122346],[139.046402,36.126229],[139.042282,36.127892],[139.042969,36.13122],[139.040909,36.134547],[139.040909,36.13732]]]]}},{"type":"Feature","properties":{"layer_id":"bakumatsu_villages","name":"下阿久原村","address":"武蔵 児玉郡","source":"Geoshape 幕末期近世村領域データセット vector tiles (z7 extraction)","subarea_name":"近世村のおおよその範囲","feature_key":"village:K09G15S00026","accuracy_note":"2015年農業集落境界をもとに復元した概略範囲で、江戸時代の正確な村境ではありません"},"geometry":{"type":"Polygon","coordinates":[[[139.067001,36.159499],[139.069061,36.157281],[139.068375,36.1534],[139.069748,36.150074],[139.075241,36.148965],[139.075241,36.14841],[139.071808,36.142865],[139.067688,36.143974],[139.064255,36.140647],[139.060822,36.143974],[139.053268,36.147301],[139.051208,36.152846],[139.061508,36.152846],[139.060822,36.155618],[139.062195,36.157835],[139.063568,36.158944],[139.067001,36.159499]]]}},{"type":"Feature","properties":{"layer_id":"bakumatsu_villages","name":"中新里村","address":"武蔵 児玉郡","source":"Geoshape 幕末期近世村領域データセット vector tiles (z7 extraction)","subarea_name":"近世村のおおよその範囲","feature_key":"village:K09G15S00058","accuracy_note":"2015年農業集落境界をもとに復元した概略範囲で、江戸時代の正確な村境ではありません"},"geometry":{"type":"Polygon","coordinates":[[[139.107513,36.207715],[139.103394,36.207161],[139.088974,36.207161],[139.088974,36.209931],[139.091034,36.211593],[139.095154,36.212701],[139.0979,36.210485],[139.102707,36.209931],[139.107513,36.207715]]]}},{"type":"Feature","properties":{"layer_id":"bakumatsu_villages","name":"二ノ宮村","address":"武蔵 児玉郡","source":"Geoshape 幕末期近世村領域データセット vector tiles (z7 extraction)","subarea_name":"近世村のおおよその範囲","feature_key":"village:K09G15S00056","accuracy_note":"2015年農業集落境界をもとに復元した概略範囲で、江戸時代の正確な村境ではありません"},"geometry":{"type":"MultiPolygon","coordinates":[[[[139.086227,36.204391],[139.086914,36.201066],[139.088287,36.200512],[139.086914,36.199404],[139.086914,36.195525],[139.082794,36.193863],[139.081421,36.200512],[139.086227,36.204391]]],[[[139.086227,36.194971],[139.086914,36.191646],[139.085541,36.192754],[139.084167,36.190538],[139.084854,36.187767],[139.083481,36.189984],[139.083481,36.187213],[139.082108,36.187767],[139.081421,36.186659],[139.082108,36.186659],[139.082108,36.184442],[139.078674,36.183888],[139.079361,36.182225],[139.076614,36.180008],[139.075241,36.177237],[139.075928,36.176683],[139.073868,36.177237],[139.073181,36.179454],[139.068375,36.179454],[139.071121,36.182779],[139.070435,36.18555],[139.073181,36.18555],[139.073868,36.186659],[139.076614,36.186659],[139.082794,36.193863],[139.086227,36.194971]]]]}},{"type":"Feature","properties":{"layer_id":"bakumatsu_villages","name":"元安保村","address":"武蔵 賀美郡","source":"Geoshape 幕末期近世村領域データセット vector tiles (z7 extraction)","subarea_name":"近世村のおおよその範囲","feature_key":"village:K09G20S00005","accuracy_note":"2015年農業集落境界をもとに復元した概略範囲で、江戸時代の正確な村境ではありません"},"geometry":{"type":"Polygon","coordinates":[[[139.115753,36.217133],[139.113007,36.216579],[139.110947,36.218241],[139.11026,36.217133],[139.1082,36.219349],[139.10614,36.219903],[139.105453,36.221011],[139.10408,36.219903],[139.101334,36.222673],[139.10202,36.224334],[139.099274,36.22655],[139.097214,36.227104],[139.09584,36.228212],[139.0979,36.229874],[139.101334,36.228766],[139.111633,36.232089],[139.113007,36.227658],[139.111633,36.227104],[139.111633,36.22655],[139.11438,36.22655],[139.115753,36.223781],[139.117126,36.224334],[139.117126,36.223227],[139.1185,36.222673],[139.1185,36.220457],[139.119873,36.218795],[139.115753,36.217133]],[[139.115753,36.217133],[139.11644,36.218795],[139.11438,36.219349],[139.115753,36.217133]]]}},{"type":"Feature","properties":{"layer_id":"bakumatsu_villages","name":"八日市村","address":"武蔵 賀美郡","source":"Geoshape 幕末期近世村領域データセット vector tiles (z7 extraction)","subarea_name":"近世村のおおよその範囲","feature_key":"village:K09G20S00009","accuracy_note":"2015年農業集落境界をもとに復元した概略範囲で、江戸時代の正確な村境ではありません"},"geometry":{"type":"MultiPolygon","coordinates":[[[[139.11026,36.218241],[139.113693,36.216579],[139.117126,36.217133],[139.12056,36.214363],[139.119186,36.213255],[139.12262,36.211593],[139.123306,36.212147],[139.125366,36.211039],[139.12674,36.211593],[139.126053,36.209377],[139.12056,36.208823],[139.117126,36.205499],[139.113007,36.207715],[139.1082,36.207715],[139.10408,36.209377],[139.109573,36.216025],[139.11026,36.218241]]],[[[139.128113,36.210485],[139.127426,36.207161],[139.126053,36.206053],[139.129486,36.204391],[139.128799,36.201066],[139.127426,36.20162],[139.123993,36.19885],[139.12262,36.199404],[139.119186,36.202174],[139.12056,36.203837],[139.117126,36.205499],[139.12056,36.208823],[139.126053,36.209377],[139.12674,36.210485],[139.128113,36.210485]]]]}},{"type":"Feature","properties":{"layer_id":"bakumatsu_villages","name":"原新田村","address":"武蔵 賀美郡","source":"Geoshape 幕末期近世村領域データセット vector tiles (z7 extraction)","subarea_name":"近世村のおおよその範囲","feature_key":"village:K09G20S00013","accuracy_note":"2015年農業集落境界をもとに復元した概略範囲で、江戸時代の正確な村境ではありません"},"geometry":{"type":"MultiPolygon","coordinates":[[[[139.121933,36.219349],[139.121933,36.218795],[139.123993,36.218241],[139.115753,36.217133],[139.119873,36.218795],[139.121933,36.219349]]],[[[139.115753,36.217133],[139.11438,36.219349],[139.11644,36.218795],[139.115753,36.217133]]],[[[139.121933,36.219349],[139.121246,36.219903],[139.12262,36.221011],[139.123306,36.220457],[139.121933,36.219349]]],[[[139.129486,36.223781],[139.133606,36.221011],[139.134979,36.222119],[139.135666,36.221565],[139.131546,36.216579],[139.129486,36.217687],[139.127426,36.216025],[139.121933,36.218795],[139.126053,36.223227],[139.128113,36.222119],[139.129486,36.223781]]]]}},{"type":"Feature","properties":{"layer_id":"bakumatsu_villages","name":"四軒在家村","address":"武蔵 賀美郡","source":"Geoshape 幕末期近世村領域データセット vector tiles (z7 extraction)","subarea_name":"近世村のおおよその範囲","feature_key":"village:K09G20S00008","accuracy_note":"2015年農業集落境界をもとに復元した概略範囲で、江戸時代の正確な村境ではありません"},"geometry":{"type":"Polygon","coordinates":[[[139.11026,36.235966],[139.111633,36.232089],[139.101334,36.228766],[139.0979,36.229874],[139.096527,36.228766],[139.094467,36.230427],[139.096527,36.234304],[139.099274,36.233751],[139.101334,36.232089],[139.10614,36.232643],[139.11026,36.235966]]]}},{"type":"Feature","properties":{"layer_id":"bakumatsu_villages","name":"小浜村","address":"武蔵 賀美郡","source":"Geoshape 幕末期近世村領域データセット vector tiles (z7 extraction)","subarea_name":"近世村のおおよその範囲","feature_key":"village:K09G20S00003","accuracy_note":"2015年農業集落境界をもとに復元した概略範囲で、江戸時代の正確な村境ではありません"},"geometry":{"type":"Polygon","coordinates":[[[139.083481,36.214917],[139.084167,36.213255],[139.083481,36.211593],[139.084167,36.211593],[139.085541,36.209931],[139.084854,36.206053],[139.088287,36.206053],[139.082108,36.201066],[139.073868,36.200512],[139.069748,36.202728],[139.080734,36.214363],[139.083481,36.214917]]]}},{"type":"Feature","properties":{"layer_id":"bakumatsu_villages","name":"新宿村","address":"武蔵 児玉郡","source":"Geoshape 幕末期近世村領域データセット vector tiles (z7 extraction)","subarea_name":"近世村のおおよその範囲","feature_key":"village:K09G15S00053","accuracy_note":"2015年農業集落境界をもとに復元した概略範囲で、江戸時代の正確な村境ではありません"},"geometry":{"type":"MultiPolygon","coordinates":[[[[139.070435,36.202728],[139.072495,36.201066],[139.076614,36.196633],[139.075928,36.194417],[139.073868,36.192754],[139.071808,36.193309],[139.069748,36.1922],[139.065628,36.188321],[139.064255,36.188875],[139.063568,36.197188],[139.070435,36.202728]]],[[[139.064255,36.188875],[139.065628,36.188321],[139.071121,36.184996],[139.070435,36.181671],[139.068375,36.180008],[139.066315,36.180562],[139.063568,36.183333],[139.061508,36.183333],[139.062195,36.184996],[139.061508,36.18555],[139.063568,36.186659],[139.064255,36.188875]]],[[[139.074554,36.193309],[139.075241,36.191646],[139.071808,36.186104],[139.069748,36.18555],[139.067688,36.187767],[139.065628,36.188321],[139.069748,36.1922],[139.071808,36.193309],[139.072495,36.192754],[139.074554,36.193309]]]]}},{"type":"Feature","properties":{"layer_id":"bakumatsu_villages","name":"新里村","address":"武蔵 児玉郡","source":"Geoshape 幕末期近世村領域データセット vector tiles (z7 extraction)","subarea_name":"近世村のおおよその範囲","feature_key":"village:K09G15S00057","accuracy_note":"2015年農業集落境界をもとに復元した概略範囲で、江戸時代の正確な村境ではありません"},"geometry":{"type":"MultiPolygon","coordinates":[[[[139.10614,36.201066],[139.108887,36.19885],[139.105453,36.194971],[139.103394,36.194971],[139.10202,36.193309],[139.0979,36.191646],[139.097214,36.1922],[139.09996,36.193863],[139.097214,36.193309],[139.09584,36.193863],[139.093781,36.1922],[139.093094,36.189984],[139.090347,36.188875],[139.084854,36.188875],[139.084167,36.191092],[139.085541,36.192754],[139.086914,36.191646],[139.086227,36.193309],[139.086914,36.194417],[139.086227,36.194971],[139.086914,36.197188],[139.091034,36.196079],[139.093781,36.199958],[139.097214,36.198296],[139.10202,36.197742],[139.10614,36.201066]]],[[[139.107513,36.207715],[139.108887,36.206607],[139.108887,36.20162],[139.110947,36.202174],[139.11232,36.200512],[139.108887,36.19885],[139.10614,36.201066],[139.10202,36.197742],[139.097214,36.198296],[139.093781,36.199958],[139.092407,36.197188],[139.090347,36.196079],[139.086914,36.197188],[139.086914,36.199404],[139.088287,36.200512],[139.086914,36.201066],[139.086227,36.204391],[139.088974,36.207161],[139.090347,36.207715],[139.10202,36.207161],[139.107513,36.207715]]]]}},{"type":"Feature","properties":{"layer_id":"bakumatsu_villages","name":"植竹村","address":"武蔵 賀美郡","source":"Geoshape 幕末期近世村領域データセット vector tiles (z7 extraction)","subarea_name":"近世村のおおよその範囲","feature_key":"village:K09G20S00002","accuracy_note":"2015年農業集落境界をもとに復元した概略範囲で、江戸時代の正確な村境ではありません"},"geometry":{"type":"Polygon","coordinates":[[[139.105453,36.221011],[139.10614,36.219903],[139.1082,36.219349],[139.11026,36.217133],[139.10408,36.209377],[139.0979,36.210485],[139.095154,36.212701],[139.089661,36.211593],[139.089661,36.214363],[139.093781,36.216579],[139.094467,36.218241],[139.092407,36.218795],[139.093094,36.220457],[139.094467,36.221011],[139.096527,36.219903],[139.0979,36.221011],[139.098587,36.219349],[139.097214,36.217687],[139.099274,36.217687],[139.105453,36.221011]]]}},{"type":"Feature","properties":{"layer_id":"bakumatsu_villages","name":"池田村","address":"武蔵 児玉郡","source":"Geoshape 幕末期近世村領域データセット vector tiles (z7 extraction)","subarea_name":"近世村のおおよその範囲","feature_key":"village:K09G15S00055","accuracy_note":"2015年農業集落境界をもとに復元した概略範囲で、江戸時代の正確な村境ではありません"},"geometry":{"type":"Polygon","coordinates":[[[139.082108,36.201066],[139.081421,36.200512],[139.083481,36.193309],[139.077988,36.187767],[139.076614,36.186659],[139.073868,36.186659],[139.073181,36.18555],[139.071808,36.186659],[139.075241,36.191646],[139.073868,36.193309],[139.075928,36.194417],[139.076614,36.196633],[139.072495,36.201066],[139.073868,36.200512],[139.082108,36.201066]]]}},{"type":"Feature","properties":{"layer_id":"bakumatsu_villages","name":"渡瀬村","address":"武蔵 児玉郡","source":"Geoshape 幕末期近世村領域データセット vector tiles (z7 extraction)","subarea_name":"近世村のおおよその範囲","feature_key":"village:K09G15S00052","accuracy_note":"2015年農業集落境界をもとに復元した概略範囲で、江戸時代の正確な村境ではありません"},"geometry":{"type":"Polygon","coordinates":[[[139.061508,36.18555],[139.062195,36.184996],[139.061508,36.183333],[139.063568,36.183333],[139.067001,36.180008],[139.069061,36.1789],[139.073181,36.179454],[139.073868,36.177237],[139.077301,36.176128],[139.075241,36.17502],[139.075241,36.171694],[139.077988,36.168368],[139.076614,36.16726],[139.075928,36.161716],[139.073181,36.161716],[139.069061,36.163379],[139.067001,36.16227],[139.067001,36.159499],[139.063568,36.158944],[139.061508,36.162825],[139.058075,36.165042],[139.058762,36.166705],[139.057388,36.170031],[139.057388,36.173911],[139.056015,36.180562],[139.057388,36.183888],[139.061508,36.18555]]]}},{"type":"Feature","properties":{"layer_id":"bakumatsu_villages","name":"熊野堂村","address":"武蔵 児玉郡","source":"Geoshape 幕末期近世村領域データセット vector tiles (z7 extraction)","subarea_name":"近世村のおおよその範囲","feature_key":"village:K09G15S00036","accuracy_note":"2015年農業集落境界をもとに復元した概略範囲で、江戸時代の正確な村境ではありません"},"geometry":{"type":"Polygon","coordinates":[[[139.123993,36.218241],[139.127426,36.215471],[139.129486,36.212147],[139.127426,36.209931],[139.12674,36.211593],[139.125366,36.211039],[139.123306,36.212147],[139.12262,36.211593],[139.119186,36.213255],[139.12056,36.214363],[139.117126,36.217133],[139.123993,36.218241]]]}},{"type":"Feature","properties":{"layer_id":"bakumatsu_villages","name":"矢納村","address":"武蔵 秩父郡","source":"Geoshape 幕末期近世村領域データセット vector tiles (z7 extraction)","subarea_name":"近世村のおおよその範囲","feature_key":"village:K09G16S00043","accuracy_note":"2015年農業集落境界をもとに復元した概略範囲で、江戸時代の正確な村境ではありません"},"geometry":{"type":"MultiPolygon","coordinates":[[[[139.014816,36.134547],[139.018936,36.13122],[139.022369,36.132884],[139.023743,36.132329],[139.022369,36.129556],[139.022369,36.120128],[139.026489,36.115135],[139.027176,36.104041],[139.028549,36.102376],[139.032669,36.100712],[139.028549,36.101267],[139.022369,36.100712],[139.01825,36.099602],[139.017563,36.098493],[139.009323,36.098493],[139.007263,36.097938],[139.005203,36.098493],[139.00383,36.097938],[138.996964,36.097383],[138.99353,36.095719],[138.992157,36.095164],[138.98941,36.097383],[138.990097,36.099048],[138.988037,36.100712],[138.984604,36.107369],[138.980484,36.109034],[138.976364,36.110143],[138.976364,36.117354],[138.978424,36.116245],[138.981171,36.117354],[138.985291,36.11569],[138.986664,36.117909],[138.988724,36.118464],[138.99353,36.125119],[138.996277,36.125674],[139.001083,36.125119],[139.00589,36.129556],[139.00589,36.130665],[139.003143,36.132329],[139.004517,36.133438],[139.01001,36.132329],[139.014816,36.134547]]],[[[139.024429,36.134547],[139.026489,36.133438],[139.025803,36.130665],[139.027863,36.130111],[139.031982,36.127338],[139.036789,36.126229],[139.034042,36.123455],[139.035416,36.121792],[139.031296,36.121237],[139.026489,36.115135],[139.022369,36.120128],[139.022369,36.129556],[139.023743,36.132329],[139.022369,36.132884],[139.024429,36.134547]]]]}},{"type":"Feature","properties":{"layer_id":"bakumatsu_villages","name":"肥土村","address":"武蔵 賀美郡","source":"Geoshape 幕末期近世村領域データセット vector tiles (z7 extraction)","subarea_name":"近世村のおおよその範囲","feature_key":"village:K09G20S00014","accuracy_note":"2015年農業集落境界をもとに復元した概略範囲で、江戸時代の正確な村境ではありません"},"geometry":{"type":"Polygon","coordinates":[[[139.084854,36.215471],[139.080734,36.213809],[139.088974,36.228766],[139.09584,36.238735],[139.097214,36.238181],[139.09584,36.234858],[139.096527,36.234304],[139.094467,36.230427],[139.097214,36.228212],[139.096527,36.225442],[139.092407,36.218795],[139.094467,36.218241],[139.093781,36.216579],[139.089661,36.214363],[139.090347,36.216579],[139.088287,36.217133],[139.086914,36.214917],[139.084854,36.215471]]]}},{"type":"Feature","properties":{"layer_id":"bakumatsu_villages","name":"貫井村","address":"武蔵 賀美郡","source":"Geoshape 幕末期近世村領域データセット vector tiles (z7 extraction)","subarea_name":"近世村のおおよその範囲","feature_key":"village:K09G20S00007","accuracy_note":"2015年農業集落境界をもとに復元した概略範囲で、江戸時代の正確な村境ではありません"},"geometry":{"type":"Polygon","coordinates":[[[139.084854,36.215471],[139.086914,36.214917],[139.088287,36.217133],[139.090347,36.216579],[139.089661,36.214363],[139.088974,36.212701],[139.090347,36.211039],[139.088974,36.209931],[139.088974,36.206607],[139.088287,36.206053],[139.084854,36.206053],[139.085541,36.209931],[139.084167,36.211593],[139.083481,36.211593],[139.084167,36.213255],[139.083481,36.214917],[139.084854,36.215471]]]}},{"type":"Feature","properties":{"layer_id":"bakumatsu_villages","name":"関口村","address":"武蔵 賀美郡","source":"Geoshape 幕末期近世村領域データセット vector tiles (z7 extraction)","subarea_name":"近世村のおおよその範囲","feature_key":"village:K09G20S00010","accuracy_note":"2015年農業集落境界をもとに復元した概略範囲で、江戸時代の正確な村境ではありません"},"geometry":{"type":"Polygon","coordinates":[[[139.097214,36.227104],[139.0979,36.22655],[139.10202,36.224334],[139.101334,36.222673],[139.10408,36.219903],[139.100647,36.217687],[139.097214,36.217687],[139.098587,36.219349],[139.0979,36.221011],[139.096527,36.219903],[139.093781,36.221011],[139.095154,36.222119],[139.093781,36.222673],[139.097214,36.227104]]]}},{"type":"Feature","properties":{"layer_id":"historical_sites_archaeology","name":"御嶽城跡","address":"埼玉県 児玉郡神川町 大字渡瀬","source":"Geoshape 日本歴史地名大系 施設・地点項目データセット 2025-05-15","subarea_name":"城跡","feature_key":"05_castle_ruins.geojson:110000215900","subtype":"城跡"},"geometry":{"type":"Point","coordinates":[139.066349,36.178749]}},{"type":"Feature","properties":{"layer_id":"historical_sites_archaeology","name":"青柳古墳群","address":"埼玉県 児玉郡神川町 大字二ノ宮","source":"Geoshape 日本歴史地名大系 施設・地点項目データセット 2025-05-15","subarea_name":"古墳","feature_key":"06_kofun.geojson:110000215700","subtype":"古墳"},"geometry":{"type":"Point","coordinates":[139.084687,36.200702]}},{"type":"Feature","properties":{"layer_id":"historical_temples_shrines","name":"大光普照寺","address":"埼玉県 児玉郡神川町 大字二ノ宮667番地1","source":"Geoshape 日本歴史地名大系 施設・地点項目データセット 2025-05-15","subarea_name":"寺院","feature_key":"01_temples.geojson:110000216300","subtype":"寺院"},"geometry":{"type":"Point","coordinates":[139.075607,36.183914]}},{"type":"Feature","properties":{"layer_id":"historical_temples_shrines","name":"小松神社","address":"埼玉県 児玉郡神川町 大字小浜640番地","source":"Geoshape 日本歴史地名大系 施設・地点項目データセット 2025-05-15","subarea_name":"神社","feature_key":"02_shrines.geojson:110000283700","subtype":"神社"},"geometry":{"type":"Point","coordinates":[139.079727,36.20649]}},{"type":"Feature","properties":{"layer_id":"historical_temples_shrines","name":"有氏神社","address":"埼玉県 児玉郡神川町 大字下阿久原","source":"Geoshape 日本歴史地名大系 施設・地点項目データセット 2025-05-15","subarea_name":"神社","feature_key":"02_shrines.geojson:110000215300","subtype":"神社"},"geometry":{"type":"Point","coordinates":[139.063423,36.156958]}}]}