{"type":"FeatureCollection","municipality_code":"12101","pref":"千葉県","city":"千葉市中央区","layer_counts":{"bakumatsu_villages":17,"civil_engineering_heritage":2,"historical_sites_archaeology":18,"historical_temples_shrines":8},"total_features":45,"features":[{"type":"Feature","properties":{"layer_id":"bakumatsu_villages","name":"仁戸名","address":"下総 千葉郡","source":"Geoshape 幕末期近世村領域データセット vector tiles (z7 extraction)","subarea_name":"近世村のおおよその範囲","feature_key":"village:K05G06S00102","accuracy_note":"2015年農業集落境界をもとに復元した概略範囲で、江戸時代の正確な村境ではありません"},"geometry":{"type":"Polygon","coordinates":[[[140.158768,35.598694],[140.165634,35.593111],[140.164261,35.593111],[140.164261,35.592552],[140.162888,35.582501],[140.167007,35.578592],[140.169754,35.578592],[140.169067,35.576917],[140.167007,35.5758],[140.164948,35.576358],[140.164261,35.578033],[140.162201,35.578033],[140.161514,35.579709],[140.162201,35.580826],[140.160141,35.581384],[140.159454,35.579709],[140.157394,35.581943],[140.155334,35.581384],[140.153961,35.582501],[140.153961,35.583618],[140.151901,35.584735],[140.156021,35.586968],[140.152588,35.589202],[140.153275,35.590877],[140.156708,35.595344],[140.156708,35.597577],[140.158768,35.598694]]]}},{"type":"Feature","properties":{"layer_id":"bakumatsu_villages","name":"今井・泉水","address":"下総 千葉郡","source":"Geoshape 幕末期近世村領域データセット vector tiles (z7 extraction)","subarea_name":"近世村のおおよその範囲","feature_key":"village:K05G06S00078,K05G06S00079","accuracy_note":"2015年農業集落境界をもとに復元した概略範囲で、江戸時代の正確な村境ではありません"},"geometry":{"type":"MultiPolygon","coordinates":[[[[140.117569,35.594786],[140.118256,35.593111],[140.118942,35.593669],[140.121689,35.590877],[140.124435,35.585293],[140.132675,35.587527],[140.136108,35.580826],[140.138168,35.581384],[140.138168,35.583618],[140.139542,35.584176],[140.140228,35.581943],[140.142975,35.581384],[140.143661,35.580826],[140.140915,35.57915],[140.142288,35.578033],[140.141602,35.576358],[140.142975,35.573007],[140.139542,35.570773],[140.137482,35.574683],[140.134048,35.577475],[140.127869,35.5758],[140.129242,35.569656],[140.115509,35.569656],[140.112076,35.570773],[140.111389,35.572449],[140.114136,35.573007],[140.110016,35.58976],[140.114822,35.591994],[140.114822,35.593669],[140.116196,35.591994],[140.117569,35.591994],[140.116196,35.593669],[140.117569,35.594786]]],[[[140.081177,35.588644],[140.091476,35.588085],[140.102463,35.587527],[140.104523,35.578033],[140.109329,35.576917],[140.111389,35.570773],[140.085983,35.569656],[140.081177,35.588644]]]]}},{"type":"Feature","properties":{"layer_id":"bakumatsu_villages","name":"北生実","address":"下総 千葉郡","source":"Geoshape 幕末期近世村領域データセット vector tiles (z7 extraction)","subarea_name":"近世村のおおよその範囲","feature_key":"village:K05G06S00090","accuracy_note":"2015年農業集落境界をもとに復元した概略範囲で、江戸時代の正確な村境ではありません"},"geometry":{"type":"MultiPolygon","coordinates":[[[[140.131302,35.565746],[140.132675,35.564629],[140.136108,35.565188],[140.136795,35.559602],[140.131302,35.558485],[140.128555,35.559602],[140.126495,35.559602],[140.123749,35.560161],[140.115509,35.552899],[140.103149,35.557926],[140.09079,35.561278],[140.09079,35.562395],[140.09285,35.562395],[140.112076,35.563512],[140.117569,35.562953],[140.126495,35.564071],[140.127869,35.565746],[140.131302,35.565746]]],[[[140.141602,35.57189],[140.144348,35.568539],[140.147095,35.569656],[140.150528,35.569098],[140.160141,35.569656],[140.160828,35.569098],[140.163574,35.569098],[140.169067,35.56798],[140.168381,35.565188],[140.160141,35.565188],[140.158081,35.562953],[140.153961,35.562953],[140.152588,35.560719],[140.149841,35.560719],[140.150528,35.559043],[140.147781,35.55625],[140.145721,35.558485],[140.142975,35.558485],[140.141602,35.559043],[140.140915,35.560161],[140.137482,35.560161],[140.136108,35.564071],[140.137482,35.565746],[140.136795,35.568539],[140.140228,35.569098],[140.139542,35.570773],[140.141602,35.57189]]],[[[140.169067,35.565188],[140.169067,35.562953],[140.167007,35.562395],[140.164261,35.562395],[140.164261,35.563512],[140.161514,35.564071],[140.161514,35.565188],[140.169067,35.565188]]]]}},{"type":"Feature","properties":{"layer_id":"bakumatsu_villages","name":"千葉寺","address":"下総 千葉郡","source":"Geoshape 幕末期近世村領域データセット vector tiles (z7 extraction)","subarea_name":"近世村のおおよその範囲","feature_key":"village:K05G06S00095","accuracy_note":"2015年農業集落境界をもとに復元した概略範囲で、江戸時代の正確な村境ではありません"},"geometry":{"type":"MultiPolygon","coordinates":[[[[140.125122,35.592552],[140.128555,35.58641],[140.124435,35.585293],[140.121689,35.590877],[140.125122,35.592552]]],[[[140.133362,35.602602],[140.134735,35.602044],[140.135422,35.598694],[140.134735,35.597019],[140.136108,35.596461],[140.136795,35.595344],[140.140915,35.594227],[140.141602,35.592552],[140.142975,35.592552],[140.139542,35.588644],[140.135422,35.589202],[140.135422,35.588085],[140.133362,35.58976],[140.132675,35.587527],[140.125809,35.600927],[140.127869,35.602044],[140.129929,35.601486],[140.130615,35.602602],[140.131989,35.601486],[140.133362,35.602602]]]]}},{"type":"Feature","properties":{"layer_id":"bakumatsu_villages","name":"南生実","address":"下総 千葉郡","source":"Geoshape 幕末期近世村領域データセット vector tiles (z7 extraction)","subarea_name":"近世村のおおよその範囲","feature_key":"village:K05G06S00089","accuracy_note":"2015年農業集落境界をもとに復元した概略範囲で、江戸時代の正確な村境ではありません"},"geometry":{"type":"MultiPolygon","coordinates":[[[[140.158081,35.562953],[140.156708,35.560719],[140.157394,35.560161],[140.156021,35.558485],[140.157394,35.557368],[140.158081,35.554016],[140.149841,35.550664],[140.146408,35.550664],[140.145035,35.551223],[140.143661,35.553457],[140.140915,35.553457],[140.138168,35.55625],[140.135422,35.55625],[140.133362,35.557926],[140.141602,35.559043],[140.145721,35.558485],[140.148468,35.55625],[140.150528,35.559043],[140.149841,35.560719],[140.152588,35.560719],[140.153961,35.562953],[140.158081,35.562953]]],[[[140.158768,35.564071],[140.159454,35.561836],[140.161514,35.561836],[140.160828,35.559602],[140.162201,35.55625],[140.164948,35.556809],[140.164948,35.554016],[140.158081,35.554016],[140.157394,35.557368],[140.156021,35.558485],[140.158768,35.564071]]],[[[140.167007,35.557368],[140.167007,35.556809],[140.167007,35.55625],[140.165634,35.55625],[140.165634,35.557368],[140.167007,35.557368]]],[[[140.169754,35.557368],[140.168381,35.55625],[140.167007,35.556809],[140.169754,35.557368]]],[[[140.167007,35.561836],[140.167007,35.560719],[140.165634,35.560719],[140.165634,35.561836],[140.167007,35.561836]]]]}},{"type":"Feature","properties":{"layer_id":"bakumatsu_villages","name":"大森","address":"下総 千葉郡","source":"Geoshape 幕末期近世村領域データセット vector tiles (z7 extraction)","subarea_name":"近世村のおおよその範囲","feature_key":"village:K05G06S00092","accuracy_note":"2015年農業集落境界をもとに復元した概略範囲で、江戸時代の正確な村境ではありません"},"geometry":{"type":"Polygon","coordinates":[[[140.149841,35.58641],[140.153961,35.583618],[140.153961,35.582501],[140.151901,35.579709],[140.152588,35.578592],[140.151215,35.578033],[140.151901,35.576358],[140.150528,35.574124],[140.143661,35.576917],[140.140915,35.57915],[140.147095,35.582501],[140.149841,35.58641]]]}},{"type":"Feature","properties":{"layer_id":"bakumatsu_villages","name":"宮崎","address":"下総 千葉郡","source":"Geoshape 幕末期近世村領域データセット vector tiles (z7 extraction)","subarea_name":"近世村のおおよその範囲","feature_key":"village:K05G06S00094","accuracy_note":"2015年農業集落境界をもとに復元した概略範囲で、江戸時代の正確な村境ではありません"},"geometry":{"type":"Polygon","coordinates":[[[140.144348,35.594786],[140.153275,35.58976],[140.156021,35.586968],[140.151901,35.584735],[140.149841,35.58641],[140.147095,35.582501],[140.143661,35.580826],[140.140228,35.582501],[140.139542,35.584176],[140.138168,35.583618],[140.138168,35.581384],[140.136108,35.580826],[140.132675,35.587527],[140.133362,35.58976],[140.135422,35.588085],[140.135422,35.589202],[140.139542,35.588644],[140.144348,35.594786]]]}},{"type":"Feature","properties":{"layer_id":"bakumatsu_villages","name":"小花輪","address":"下総 千葉郡","source":"Geoshape 幕末期近世村領域データセット vector tiles (z7 extraction)","subarea_name":"近世村のおおよその範囲","feature_key":"village:K05G06S00093","accuracy_note":"2015年農業集落境界をもとに復元した概略範囲で、江戸時代の正確な村境ではありません"},"geometry":{"type":"Polygon","coordinates":[[[140.153961,35.582501],[140.155334,35.581384],[140.157394,35.581943],[140.159454,35.579709],[140.160141,35.581384],[140.162201,35.580826],[140.161514,35.578592],[140.164261,35.578033],[140.164948,35.576358],[140.161514,35.574124],[140.154648,35.575241],[140.151215,35.575241],[140.151215,35.578033],[140.152588,35.578592],[140.151901,35.579709],[140.153961,35.582501]]]}},{"type":"Feature","properties":{"layer_id":"bakumatsu_villages","name":"川戸","address":"下総 千葉郡","source":"Geoshape 幕末期近世村領域データセット vector tiles (z7 extraction)","subarea_name":"近世村のおおよその範囲","feature_key":"village:K05G06S00103","accuracy_note":"2015年農業集落境界をもとに復元した概略範囲で、江戸時代の正確な村境ではありません"},"geometry":{"type":"Polygon","coordinates":[[[140.165634,35.593111],[140.167007,35.591994],[140.168381,35.587527],[140.175247,35.581384],[140.169067,35.576917],[140.169754,35.578592],[140.167007,35.578592],[140.162888,35.581943],[140.164261,35.592552],[140.164261,35.593111],[140.165634,35.593111]]]}},{"type":"Feature","properties":{"layer_id":"bakumatsu_villages","name":"星久喜","address":"下総 千葉郡","source":"Geoshape 幕末期近世村領域データセット vector tiles (z7 extraction)","subarea_name":"近世村のおおよその範囲","feature_key":"village:K05G06S00101","accuracy_note":"2015年農業集落境界をもとに復元した概略範囲で、江戸時代の正確な村境ではありません"},"geometry":{"type":"Polygon","coordinates":[[[140.147781,35.607627],[140.150528,35.605952],[140.153961,35.605394],[140.152588,35.604277],[140.158768,35.598694],[140.156708,35.597577],[140.156708,35.595344],[140.154648,35.593111],[140.153275,35.58976],[140.145721,35.593669],[140.147095,35.594786],[140.142975,35.598694],[140.142288,35.600927],[140.145035,35.602044],[140.144348,35.60316],[140.147781,35.607627]]]}},{"type":"Feature","properties":{"layer_id":"bakumatsu_villages","name":"曾我野","address":"下総 千葉郡","source":"Geoshape 幕末期近世村領域データセット vector tiles (z7 extraction)","subarea_name":"近世村のおおよその範囲","feature_key":"village:K05G06S00080","accuracy_note":"2015年農業集落境界をもとに復元した概略範囲で、江戸時代の正確な村境ではありません"},"geometry":{"type":"MultiPolygon","coordinates":[[[[140.134048,35.577475],[140.138168,35.573566],[140.135422,35.572449],[140.129929,35.57189],[140.128555,35.572449],[140.127869,35.5758],[140.134048,35.577475]]],[[[140.138168,35.573566],[140.139542,35.570773],[140.140228,35.569098],[140.136795,35.568539],[140.137482,35.565746],[140.132675,35.564629],[140.131302,35.565746],[140.127869,35.565746],[140.126495,35.564071],[140.117569,35.562953],[140.112076,35.563512],[140.09079,35.562395],[140.09079,35.564629],[140.096283,35.566863],[140.126495,35.56798],[140.126495,35.569656],[140.129242,35.569656],[140.128555,35.572449],[140.135422,35.572449],[140.138168,35.573566]]]]}},{"type":"Feature","properties":{"layer_id":"bakumatsu_villages","name":"村田","address":"下総 千葉郡","source":"Geoshape 幕末期近世村領域データセット vector tiles (z7 extraction)","subarea_name":"近世村のおおよその範囲","feature_key":"village:K05G06S00082","accuracy_note":"2015年農業集落境界をもとに復元した概略範囲で、江戸時代の正確な村境ではありません"},"geometry":{"type":"Polygon","coordinates":[[[140.119629,35.556809],[140.121689,35.555692],[140.121689,35.554574],[140.123749,35.55234],[140.131302,35.55234],[140.131302,35.551223],[140.133362,35.551223],[140.135422,35.55234],[140.137482,35.551223],[140.134735,35.548988],[140.138168,35.546753],[140.134735,35.542842],[140.134048,35.542842],[140.131989,35.544519],[140.132675,35.545077],[140.133362,35.545077],[140.133362,35.545636],[140.130615,35.545636],[140.129929,35.547312],[140.127182,35.546195],[140.127869,35.547871],[140.126495,35.548988],[140.123749,35.547871],[140.122375,35.548988],[140.123062,35.550664],[140.121689,35.549547],[140.121002,35.550664],[140.121002,35.55234],[140.114822,35.550664],[140.114822,35.552899],[140.119629,35.556809]]]}},{"type":"Feature","properties":{"layer_id":"bakumatsu_villages","name":"浜野","address":"下総 千葉郡","source":"Geoshape 幕末期近世村領域データセット vector tiles (z7 extraction)","subarea_name":"近世村のおおよその範囲","feature_key":"village:K05G06S00081","accuracy_note":"2015年農業集落境界をもとに復元した概略範囲で、江戸時代の正確な村境ではありません"},"geometry":{"type":"Polygon","coordinates":[[[140.136795,35.560719],[140.139542,35.559602],[140.140915,35.560161],[140.141602,35.559043],[140.136795,35.559043],[140.133362,35.557926],[140.135422,35.55625],[140.138168,35.55625],[140.140915,35.553457],[140.143661,35.553457],[140.145721,35.551781],[140.142288,35.548429],[140.137482,35.551223],[140.135422,35.55234],[140.133362,35.551223],[140.131302,35.551223],[140.131302,35.55234],[140.123749,35.55234],[140.121689,35.554574],[140.121689,35.555692],[140.119629,35.556809],[140.123749,35.560161],[140.126495,35.559602],[140.128555,35.559602],[140.131302,35.558485],[140.136795,35.559602],[140.136795,35.560719]]]}},{"type":"Feature","properties":{"layer_id":"bakumatsu_villages","name":"生実郷","address":"下総 千葉郡","source":"Geoshape 幕末期近世村領域データセット vector tiles (z7 extraction)","subarea_name":"近世村のおおよその範囲","feature_key":"village:K05G06S00091","accuracy_note":"2015年農業集落境界をもとに復元した概略範囲で、江戸時代の正確な村境ではありません"},"geometry":{"type":"Polygon","coordinates":[[[140.142288,35.578033],[140.143661,35.576917],[140.149841,35.574124],[140.150528,35.573007],[140.149155,35.571332],[140.147095,35.569098],[140.144348,35.568539],[140.141602,35.57189],[140.142975,35.573007],[140.141602,35.576358],[140.142288,35.578033]]]}},{"type":"Feature","properties":{"layer_id":"bakumatsu_villages","name":"矢作","address":"下総 千葉郡","source":"Geoshape 幕末期近世村領域データセット vector tiles (z7 extraction)","subarea_name":"近世村のおおよその範囲","feature_key":"village:K05G06S00096","accuracy_note":"2015年農業集落境界をもとに復元した概略範囲で、江戸時代の正確な村境ではありません"},"geometry":{"type":"Polygon","coordinates":[[[140.141602,35.609301],[140.146408,35.608185],[140.147781,35.607627],[140.144348,35.60316],[140.145035,35.602044],[140.142288,35.600927],[140.142975,35.598694],[140.147095,35.594786],[140.145721,35.593669],[140.144348,35.594786],[140.142975,35.592552],[140.141602,35.592552],[140.140915,35.594227],[140.136795,35.595344],[140.136108,35.596461],[140.134735,35.597019],[140.135422,35.598694],[140.134048,35.602602],[140.134735,35.604277],[140.134048,35.605952],[140.141602,35.609301]]]}},{"type":"Feature","properties":{"layer_id":"bakumatsu_villages","name":"赤井","address":"下総 千葉郡","source":"Geoshape 幕末期近世村領域データセット vector tiles (z7 extraction)","subarea_name":"近世村のおおよその範囲","feature_key":"village:K05G06S00104","accuracy_note":"2015年農業集落境界をもとに復元した概略範囲で、江戸時代の正確な村境ではありません"},"geometry":{"type":"Polygon","coordinates":[[[140.168381,35.576358],[140.173187,35.570215],[140.171814,35.567422],[140.169067,35.567422],[140.168381,35.568539],[140.167007,35.56798],[140.167007,35.568539],[140.164261,35.569098],[140.160828,35.569098],[140.160141,35.569656],[140.150528,35.569098],[140.147095,35.569656],[140.150528,35.573007],[140.149841,35.573566],[140.151215,35.575241],[140.154648,35.575241],[140.161514,35.574124],[140.164261,35.576358],[140.168381,35.576358]]]}},{"type":"Feature","properties":{"layer_id":"bakumatsu_villages","name":"辺田","address":"下総 千葉郡","source":"Geoshape 幕末期近世村領域データセット vector tiles (z7 extraction)","subarea_name":"近世村のおおよその範囲","feature_key":"village:K05G06S00097","accuracy_note":"2015年農業集落境界をもとに復元した概略範囲で、江戸時代の正確な村境ではありません"},"geometry":{"type":"Polygon","coordinates":[[[140.150528,35.619349],[140.151901,35.618791],[140.151901,35.617675],[140.153275,35.617675],[140.150528,35.612093],[140.150528,35.60986],[140.147781,35.609301],[140.147781,35.607627],[140.141602,35.609301],[140.137482,35.607627],[140.136795,35.607627],[140.136108,35.610976],[140.133362,35.615442],[140.144348,35.617675],[140.147095,35.617675],[140.150528,35.619349]]]}},{"type":"Feature","properties":{"layer_id":"civil_engineering_heritage","name":"千葉分場1号配水池","address":"千葉県／千葉市中央区","source":"土木学会 選奨土木遺産","subarea_name":"県営水道創設当時から市内の配水を担う貴重な施設である。構造は、今では珍しい鉄筋コンクリート製の梁・柱式円形配水池である。","feature_key":"civil:139:千葉分場1号配水池","source_url":"https://committees.jsce.or.jp/heritage/node/587","accuracy_note":"公式地図の位置を優先して収録しています"},"geometry":{"type":"Point","coordinates":[140.137808,35.607707]}},{"type":"Feature","properties":{"layer_id":"civil_engineering_heritage","name":"千葉県水道局千葉高架水槽","address":"千葉県/千葉市","source":"土木学会 選奨土木遺産","subarea_name":"多角形（正12角形）の配水塔は稀であり、屋根は円錐、踊り場がコーニス風に突出したデザイン","feature_key":"civil:103:千葉県水道局千葉高架水槽","source_url":"https://committees.jsce.or.jp/heritage/node/266","accuracy_note":"公式地図の位置を優先して収録しています"},"geometry":{"type":"Point","coordinates":[140.137758,35.606295]}},{"type":"Feature","properties":{"layer_id":"historical_sites_archaeology","name":"七廻塚古墳","address":"千葉県 千葉市中央区 生実町","source":"Geoshape 日本歴史地名大系 施設・地点項目データセット 2025-05-15","subarea_name":"古墳","feature_key":"06_kofun.geojson:120000026700","subtype":"古墳"},"geometry":{"type":"Point","coordinates":[140.149804,35.564812]}},{"type":"Feature","properties":{"layer_id":"historical_sites_archaeology","name":"上赤塚一号墳","address":"千葉県 千葉市中央区 南生実町","source":"Geoshape 日本歴史地名大系 施設・地点項目データセット 2025-05-15","subarea_name":"古墳","feature_key":"06_kofun.geojson:120000027100","subtype":"古墳"},"geometry":{"type":"Point","coordinates":[140.15109,35.554938]}},{"type":"Feature","properties":{"layer_id":"historical_sites_archaeology","name":"亥鼻城跡","address":"千葉県 千葉市中央区 亥鼻一丁目","source":"Geoshape 日本歴史地名大系 施設・地点項目データセット 2025-05-15","subarea_name":"城跡","feature_key":"05_castle_ruins.geojson:120000021900","subtype":"城跡"},"geometry":{"type":"Point","coordinates":[140.126052,35.604946]}},{"type":"Feature","properties":{"layer_id":"historical_sites_archaeology","name":"大北遺跡","address":"千葉県 千葉市中央区 宮崎町","source":"Geoshape 日本歴史地名大系 施設・地点項目データセット 2025-05-15","subarea_name":"遺跡","feature_key":"08_archaeological_sites.geojson:120000025300","subtype":"遺跡"},"geometry":{"type":"Point","coordinates":[140.143374,35.586491]}},{"type":"Feature","properties":{"layer_id":"historical_sites_archaeology","name":"大覚寺山古墳","address":"千葉県 千葉市中央区 生実町","source":"Geoshape 日本歴史地名大系 施設・地点項目データセット 2025-05-15","subarea_name":"古墳","feature_key":"06_kofun.geojson:120000026600","subtype":"古墳"},"geometry":{"type":"Point","coordinates":[140.150022,35.558621]}},{"type":"Feature","properties":{"layer_id":"historical_sites_archaeology","name":"宝導寺台貝塚","address":"千葉県 千葉市中央区 都町一丁目","source":"Geoshape 日本歴史地名大系 施設・地点項目データセット 2025-05-15","subarea_name":"遺跡","feature_key":"08_archaeological_sites.geojson:120000024100","subtype":"遺跡"},"geometry":{"type":"Point","coordinates":[140.137408,35.614335]}},{"type":"Feature","properties":{"layer_id":"historical_sites_archaeology","name":"小弓城跡","address":"千葉県 千葉市中央区 南生実町","source":"Geoshape 日本歴史地名大系 施設・地点項目データセット 2025-05-15","subarea_name":"城跡","feature_key":"05_castle_ruins.geojson:120000027000","subtype":"城跡"},"geometry":{"type":"Point","coordinates":[140.150489,35.554063]}},{"type":"Feature","properties":{"layer_id":"historical_sites_archaeology","name":"星久喜遺跡","address":"千葉県 千葉市中央区 星久喜町","source":"Geoshape 日本歴史地名大系 施設・地点項目データセット 2025-05-15","subarea_name":"遺跡","feature_key":"08_archaeological_sites.geojson:120000024300","subtype":"遺跡"},"geometry":{"type":"Point","coordinates":[140.157503,35.597374]}},{"type":"Feature","properties":{"layer_id":"historical_sites_archaeology","name":"月ノ木貝塚","address":"千葉県 千葉市中央区 仁戸名町","source":"Geoshape 日本歴史地名大系 施設・地点項目データセット 2025-05-15","subarea_name":"遺跡","feature_key":"08_archaeological_sites.geojson:120000024500","subtype":"遺跡"},"geometry":{"type":"Point","coordinates":[140.157672,35.595349]}},{"type":"Feature","properties":{"layer_id":"historical_sites_archaeology","name":"生実城跡","address":"千葉県 千葉市中央区 生実町","source":"Geoshape 日本歴史地名大系 施設・地点項目データセット 2025-05-15","subarea_name":"城跡","feature_key":"05_castle_ruins.geojson:120000026400","subtype":"城跡"},"geometry":{"type":"Point","coordinates":[140.14595,35.566469]}},{"type":"Feature","properties":{"layer_id":"historical_sites_archaeology","name":"生実藩陣屋跡","address":"千葉県 千葉市中央区 生実町","source":"Geoshape 日本歴史地名大系 施設・地点項目データセット 2025-05-15","subarea_name":"史跡","feature_key":"09_historic_sites.geojson:120000026500","subtype":"史跡"},"geometry":{"type":"Point","coordinates":[140.147786,35.565256]}},{"type":"Feature","properties":{"layer_id":"historical_sites_archaeology","name":"矢作貝塚","address":"千葉県 千葉市中央区 矢作町","source":"Geoshape 日本歴史地名大系 施設・地点項目データセット 2025-05-15","subarea_name":"遺跡","feature_key":"08_archaeological_sites.geojson:120000023900","subtype":"遺跡"},"geometry":{"type":"Point","coordinates":[140.141036,35.607855]}},{"type":"Feature","properties":{"layer_id":"historical_sites_archaeology","name":"荒久古墳","address":"千葉県 千葉市中央区 青葉町","source":"Geoshape 日本歴史地名大系 施設・地点項目データセット 2025-05-15","subarea_name":"古墳","feature_key":"06_kofun.geojson:120000023500","subtype":"古墳"},"geometry":{"type":"Point","coordinates":[140.137814,35.595693]}},{"type":"Feature","properties":{"layer_id":"historical_sites_archaeology","name":"荒久遺跡","address":"千葉県 千葉市中央区 青葉町","source":"Geoshape 日本歴史地名大系 施設・地点項目データセット 2025-05-15","subarea_name":"遺跡","feature_key":"08_archaeological_sites.geojson:120000023400","subtype":"遺跡"},"geometry":{"type":"Point","coordinates":[140.137814,35.595693]}},{"type":"Feature","properties":{"layer_id":"historical_sites_archaeology","name":"西の花遺跡","address":"千葉県 千葉市中央区 大森町","source":"Geoshape 日本歴史地名大系 施設・地点項目データセット 2025-05-15","subarea_name":"遺跡","feature_key":"08_archaeological_sites.geojson:120000025100","subtype":"遺跡"},"geometry":{"type":"Point","coordinates":[140.148518,35.579298]}},{"type":"Feature","properties":{"layer_id":"historical_sites_archaeology","name":"谷津遺跡","address":"千葉県 千葉市中央区 花輪町","source":"Geoshape 日本歴史地名大系 施設・地点項目データセット 2025-05-15","subarea_name":"遺跡","feature_key":"08_archaeological_sites.geojson:120000024800","subtype":"遺跡"},"geometry":{"type":"Point","coordinates":[140.156235,35.577732]}},{"type":"Feature","properties":{"layer_id":"historical_sites_archaeology","name":"高沢遺跡","address":"千葉県 千葉市中央区 生実町","source":"Geoshape 日本歴史地名大系 施設・地点項目データセット 2025-05-15","subarea_name":"遺跡","feature_key":"08_archaeological_sites.geojson:120000026800","subtype":"遺跡"},"geometry":{"type":"Point","coordinates":[140.149804,35.564812]}},{"type":"Feature","properties":{"layer_id":"historical_sites_archaeology","name":"鷲塚古墳","address":"千葉県 千葉市中央区 新千葉三丁目","source":"Geoshape 日本歴史地名大系 施設・地点項目データセット 2025-05-15","subarea_name":"古墳","feature_key":"06_kofun.geojson:120000022600","subtype":"古墳"},"geometry":{"type":"Point","coordinates":[140.108021,35.614587]}},{"type":"Feature","properties":{"layer_id":"historical_temples_shrines","name":"千葉寺","address":"千葉県 千葉市 中央区千葉寺町161番地","source":"Geoshape 日本歴史地名大系 施設・地点項目データセット 2025-05-15","subarea_name":"寺院","feature_key":"01_temples.geojson:120000023200","subtype":"寺院"},"geometry":{"type":"Point","coordinates":[140.13176,35.595333]}},{"type":"Feature","properties":{"layer_id":"historical_temples_shrines","name":"千葉寺廃寺","address":"千葉県 千葉市中央区 千葉寺町","source":"Geoshape 日本歴史地名大系 施設・地点項目データセット 2025-05-15","subarea_name":"廃寺・廃社","feature_key":"03_abandoned_temples_shrines.geojson:120000023300","subtype":"廃寺・廃社"},"geometry":{"type":"Point","coordinates":[140.13112,35.594832]}},{"type":"Feature","properties":{"layer_id":"historical_temples_shrines","name":"千葉神社","address":"千葉県 千葉市 中央区院内一丁目16番","source":"Geoshape 日本歴史地名大系 施設・地点項目データセット 2025-05-15","subarea_name":"神社","feature_key":"02_shrines.geojson:120000022000","subtype":"神社"},"geometry":{"type":"Point","coordinates":[140.123795,35.611858]}},{"type":"Feature","properties":{"layer_id":"historical_temples_shrines","name":"大巌寺","address":"千葉県 千葉市 中央区大巌寺町180番地","source":"Geoshape 日本歴史地名大系 施設・地点項目データセット 2025-05-15","subarea_name":"寺院","feature_key":"01_temples.geojson:120000026200","subtype":"寺院"},"geometry":{"type":"Point","coordinates":[140.146378,35.573971]}},{"type":"Feature","properties":{"layer_id":"historical_temples_shrines","name":"寒川神社","address":"千葉県 千葉市 中央区寒川町一丁目123番地","source":"Geoshape 日本歴史地名大系 施設・地点項目データセット 2025-05-15","subarea_name":"神社","feature_key":"02_shrines.geojson:120000023000","subtype":"神社"},"geometry":{"type":"Point","coordinates":[140.120377,35.597519]}},{"type":"Feature","properties":{"layer_id":"historical_temples_shrines","name":"本行寺","address":"千葉県 千葉市 中央区浜野町1252番地","source":"Geoshape 日本歴史地名大系 施設・地点項目データセット 2025-05-15","subarea_name":"寺院","feature_key":"01_temples.geojson:120000027600","subtype":"寺院"},"geometry":{"type":"Point","coordinates":[140.129593,35.556965]}},{"type":"Feature","properties":{"layer_id":"historical_temples_shrines","name":"登渡神社","address":"千葉県 千葉市 中央区登戸三丁目3番8号","source":"Geoshape 日本歴史地名大系 施設・地点項目データセット 2025-05-15","subarea_name":"神社","feature_key":"02_shrines.geojson:120000022500","subtype":"神社"},"geometry":{"type":"Point","coordinates":[140.106674,35.611534]}},{"type":"Feature","properties":{"layer_id":"historical_temples_shrines","name":"蘇我比咩神社","address":"千葉県 千葉市 中央区蘇我二丁目2番","source":"Geoshape 日本歴史地名大系 施設・地点項目データセット 2025-05-15","subarea_name":"神社","feature_key":"02_shrines.geojson:120000025700","subtype":"神社"},"geometry":{"type":"Point","coordinates":[140.129791,35.572609]}}]}