{"type":"FeatureCollection","municipality_code":"12218","pref":"千葉県","city":"勝浦市","layer_counts":{"bakumatsu_villages":39,"historical_sites_archaeology":5,"historical_temples_shrines":5},"total_features":49,"features":[{"type":"Feature","properties":{"layer_id":"bakumatsu_villages","name":"中倉","address":"上総 夷隅郡","source":"Geoshape 幕末期近世村領域データセット vector tiles (z7 extraction)","subarea_name":"近世村のおおよその範囲","feature_key":"village:K04G05S00027","accuracy_note":"2015年農業集落境界をもとに復元した概略範囲で、江戸時代の正確な村境ではありません"},"geometry":{"type":"Polygon","coordinates":[[[140.279617,35.213649],[140.282364,35.212527],[140.28717,35.213088],[140.289917,35.211405],[140.289917,35.209161],[140.285797,35.206355],[140.287857,35.204111],[140.28511,35.204672],[140.280304,35.205794],[140.278931,35.204672],[140.278931,35.206355],[140.274811,35.206916],[140.272751,35.210283],[140.269318,35.209722],[140.267944,35.210283],[140.270691,35.212527],[140.274124,35.213649],[140.279617,35.213649]]]}},{"type":"Feature","properties":{"layer_id":"bakumatsu_villages","name":"中島","address":"上総 夷隅郡","source":"Geoshape 幕末期近世村領域データセット vector tiles (z7 extraction)","subarea_name":"近世村のおおよその範囲","feature_key":"village:K04G05S00090","accuracy_note":"2015年農業集落境界をもとに復元した概略範囲で、江戸時代の正確な村境ではありません"},"geometry":{"type":"Polygon","coordinates":[[[140.266571,35.164266],[140.266571,35.160337],[140.267944,35.160337],[140.269318,35.158653],[140.266571,35.158653],[140.266571,35.155846],[140.267944,35.153039],[140.265884,35.152477],[140.264511,35.153039],[140.263824,35.154723],[140.265198,35.158653],[140.263824,35.160337],[140.260391,35.159775],[140.262451,35.159214],[140.262451,35.15753],[140.258331,35.156407],[140.256271,35.154723],[140.253525,35.154723],[140.258331,35.15753],[140.257645,35.160898],[140.256271,35.162582],[140.256958,35.164266],[140.259018,35.160898],[140.261078,35.162582],[140.263824,35.162582],[140.265198,35.164266],[140.266571,35.164266]]]}},{"type":"Feature","properties":{"layer_id":"bakumatsu_villages","name":"中谷","address":"上総 夷隅郡","source":"Geoshape 幕末期近世村領域データセット vector tiles (z7 extraction)","subarea_name":"近世村のおおよその範囲","feature_key":"village:K04G05S00101","accuracy_note":"2015年農業集落境界をもとに復元した概略範囲で、江戸時代の正確な村境ではありません"},"geometry":{"type":"Polygon","coordinates":[[[140.30365,35.169879],[140.302277,35.169318],[140.300903,35.171002],[140.296783,35.168195],[140.294724,35.167634],[140.294037,35.166511],[140.292664,35.167634],[140.29129,35.166511],[140.290604,35.167634],[140.291977,35.172124],[140.29335,35.173247],[140.29747,35.174931],[140.298157,35.173808],[140.298843,35.174931],[140.302277,35.173808],[140.30365,35.169879]]]}},{"type":"Feature","properties":{"layer_id":"bakumatsu_villages","name":"中里","address":"上総 夷隅郡","source":"Geoshape 幕末期近世村領域データセット vector tiles (z7 extraction)","subarea_name":"近世村のおおよその範囲","feature_key":"village:K04G05S00088","accuracy_note":"2015年農業集落境界をもとに復元した概略範囲で、江戸時代の正確な村境ではありません"},"geometry":{"type":"Polygon","coordinates":[[[140.237732,35.165389],[140.239792,35.163705],[140.245972,35.163705],[140.248718,35.158653],[140.250092,35.158653],[140.250778,35.156407],[140.241165,35.156407],[140.238419,35.158091],[140.236359,35.160898],[140.235672,35.163143],[140.237732,35.165389]]]}},{"type":"Feature","properties":{"layer_id":"bakumatsu_villages","name":"串浜","address":"上総 夷隅郡","source":"Geoshape 幕末期近世村領域データセット vector tiles (z7 extraction)","subarea_name":"近世村のおおよその範囲","feature_key":"village:K04G05S00083","accuracy_note":"2015年農業集落境界をもとに復元した概略範囲で、江戸時代の正確な村境ではありません"},"geometry":{"type":"Polygon","coordinates":[[[140.30159,35.171002],[140.302963,35.167634],[140.30777,35.165389],[140.309143,35.162582],[140.30777,35.160898],[140.308456,35.160337],[140.307083,35.160337],[140.306396,35.159214],[140.308456,35.153039],[140.30777,35.150232],[140.304337,35.151354],[140.302277,35.150232],[140.30159,35.151354],[140.298843,35.151354],[140.296783,35.150793],[140.296783,35.14967],[140.296097,35.150232],[140.29541,35.149109],[140.296097,35.147986],[140.294724,35.148547],[140.292664,35.152477],[140.28923,35.154723],[140.287857,35.15753],[140.288544,35.160337],[140.284424,35.167073],[140.285797,35.167073],[140.286484,35.168757],[140.290604,35.167634],[140.29129,35.166511],[140.292664,35.167634],[140.294037,35.166511],[140.294724,35.167634],[140.30159,35.171002]]]}},{"type":"Feature","properties":{"layer_id":"bakumatsu_villages","name":"佐野","address":"上総 夷隅郡","source":"Geoshape 幕末期近世村領域データセット vector tiles (z7 extraction)","subarea_name":"近世村のおおよその範囲","feature_key":"village:K04G05S00022","accuracy_note":"2015年農業集落境界をもとに復元した概略範囲で、江戸時代の正確な村境ではありません"},"geometry":{"type":"Polygon","coordinates":[[[140.256271,35.235525],[140.259705,35.234964],[140.260391,35.233842],[140.263824,35.234964],[140.265884,35.233842],[140.270004,35.234403],[140.269318,35.230477],[140.266571,35.227672],[140.272064,35.222624],[140.270004,35.223185],[140.267944,35.221502],[140.259705,35.224868],[140.258331,35.22599],[140.259018,35.228233],[140.255585,35.228233],[140.254898,35.229916],[140.251465,35.233842],[140.256271,35.235525]]]}},{"type":"Feature","properties":{"layer_id":"bakumatsu_villages","name":"勝浦","address":"上総 夷隅郡","source":"Geoshape 幕末期近世村領域データセット vector tiles (z7 extraction)","subarea_name":"近世村のおおよその範囲","feature_key":"village:K04G05S00082","accuracy_note":"2015年農業集落境界をもとに復元した概略範囲で、江戸時代の正確な村境ではありません"},"geometry":{"type":"MultiPolygon","coordinates":[[[[140.319443,35.156968],[140.319443,35.154162],[140.318069,35.152477],[140.319443,35.151916],[140.318069,35.150232],[140.318756,35.148547],[140.31395,35.14967],[140.31601,35.151916],[140.31601,35.154162],[140.317383,35.155284],[140.317383,35.156968],[140.319443,35.156968]]],[[[140.31395,35.14967],[140.318069,35.149109],[140.31395,35.147986],[140.31395,35.147424],[140.31189,35.148547],[140.31395,35.14967]]],[[[140.310516,35.148547],[140.31189,35.148547],[140.31395,35.147424],[140.31395,35.147986],[140.318069,35.149109],[140.31601,35.147986],[140.318069,35.147424],[140.318069,35.144056],[140.317383,35.142933],[140.31601,35.144617],[140.31395,35.140125],[140.314636,35.138441],[140.311203,35.13451],[140.30983,35.135071],[140.311203,35.137879],[140.30983,35.138441],[140.310516,35.139002],[140.31189,35.139002],[140.31189,35.140687],[140.312576,35.142371],[140.312576,35.142933],[140.313263,35.144056],[140.310516,35.148547]]],[[[140.310516,35.148547],[140.30983,35.148547],[140.30983,35.144617],[140.309143,35.149109],[140.310516,35.148547]]],[[[140.312576,35.142933],[140.311203,35.143494],[140.309143,35.144056],[140.311203,35.144056],[140.312576,35.142933]]]]}},{"type":"Feature","properties":{"layer_id":"bakumatsu_villages","name":"台宿","address":"上総 夷隅郡","source":"Geoshape 幕末期近世村領域データセット vector tiles (z7 extraction)","subarea_name":"近世村のおおよその範囲","feature_key":"village:K04G05S00086","accuracy_note":"2015年農業集落境界をもとに復元した概略範囲で、江戸時代の正確な村境ではありません"},"geometry":{"type":"Polygon","coordinates":[[[140.211639,35.1536],[140.213699,35.151354],[140.217133,35.149109],[140.218506,35.146863],[140.217133,35.14574],[140.217819,35.142371],[140.220566,35.14181],[140.222626,35.138441],[140.221252,35.136756],[140.219193,35.136195],[140.219193,35.13451],[140.217133,35.130017],[140.215073,35.129456],[140.215073,35.131141],[140.213699,35.135633],[140.210953,35.13451],[140.210266,35.135071],[140.215073,35.139564],[140.215759,35.141248],[140.215073,35.144617],[140.211639,35.148547],[140.212326,35.14967],[140.213013,35.14967],[140.211639,35.1536]]]}},{"type":"Feature","properties":{"layer_id":"bakumatsu_villages","name":"名木","address":"上総 夷隅郡","source":"Geoshape 幕末期近世村領域データセット vector tiles (z7 extraction)","subarea_name":"近世村のおおよその範囲","feature_key":"village:K04G05S00087","accuracy_note":"2015年農業集落境界をもとに復元した概略範囲で、江戸時代の正確な村境ではありません"},"geometry":{"type":"Polygon","coordinates":[[[140.231552,35.158653],[140.235672,35.154162],[140.236359,35.152477],[140.232925,35.151354],[140.232925,35.153039],[140.230179,35.153039],[140.228806,35.154162],[140.232239,35.154723],[140.231552,35.156968],[140.230865,35.158091],[140.231552,35.158653]]]}},{"type":"Feature","properties":{"layer_id":"bakumatsu_villages","name":"墨名","address":"上総 夷隅郡","source":"Geoshape 幕末期近世村領域データセット vector tiles (z7 extraction)","subarea_name":"近世村のおおよその範囲","feature_key":"village:K04G05S00081","accuracy_note":"2015年農業集落境界をもとに復元した概略範囲で、江戸時代の正確な村境ではありません"},"geometry":{"type":"Polygon","coordinates":[[[140.309143,35.162582],[140.312576,35.161459],[140.314636,35.158653],[140.316696,35.159214],[140.317383,35.156968],[140.317383,35.155284],[140.31601,35.154162],[140.315323,35.150793],[140.31189,35.148547],[140.30777,35.150232],[140.308456,35.153039],[140.306396,35.159214],[140.307083,35.160337],[140.308456,35.160337],[140.30777,35.160898],[140.309143,35.162582]]]}},{"type":"Feature","properties":{"layer_id":"bakumatsu_villages","name":"大森","address":"上総 夷隅郡","source":"Geoshape 幕末期近世村領域データセット vector tiles (z7 extraction)","subarea_name":"近世村のおおよその範囲","feature_key":"village:K04G05S00159","accuracy_note":"2015年農業集落境界をもとに復元した概略範囲で、江戸時代の正確な村境ではありません"},"geometry":{"type":"Polygon","coordinates":[[[140.225372,35.155284],[140.224686,35.154723],[140.221252,35.155284],[140.223999,35.159775],[140.219193,35.163705],[140.219193,35.169879],[140.217133,35.173808],[140.212326,35.179421],[140.216446,35.183349],[140.219879,35.182788],[140.221252,35.186716],[140.224686,35.187839],[140.226746,35.186716],[140.230865,35.181104],[140.234299,35.179982],[140.235672,35.181104],[140.237045,35.179982],[140.237045,35.175492],[140.240479,35.170441],[140.240479,35.168757],[140.237732,35.16595],[140.235672,35.163143],[140.236359,35.161459],[140.234299,35.159775],[140.233612,35.15753],[140.231552,35.158653],[140.230865,35.158091],[140.231552,35.156968],[140.232239,35.154723],[140.228119,35.154162],[140.227432,35.155284],[140.225372,35.155284]]]}},{"type":"Feature","properties":{"layer_id":"bakumatsu_villages","name":"大楠","address":"上総 夷隅郡","source":"Geoshape 幕末期近世村領域データセット vector tiles (z7 extraction)","subarea_name":"近世村のおおよその範囲","feature_key":"village:K04G05S00095","accuracy_note":"2015年農業集落境界をもとに復元した概略範囲で、江戸時代の正確な村境ではありません"},"geometry":{"type":"MultiPolygon","coordinates":[[[[140.259018,35.202989],[140.261078,35.201867],[140.262451,35.197939],[140.264511,35.197378],[140.265884,35.196256],[140.270691,35.196256],[140.272064,35.194573],[140.271378,35.191767],[140.274124,35.189522],[140.269318,35.185594],[140.268631,35.183911],[140.268631,35.185594],[140.265884,35.187839],[140.265884,35.189522],[140.259705,35.192889],[140.245285,35.192889],[140.244598,35.196817],[140.245285,35.197378],[140.245285,35.1985],[140.246658,35.199062],[140.247345,35.197939],[140.249405,35.197939],[140.251465,35.200184],[140.254898,35.200184],[140.256271,35.202428],[140.259018,35.202989]]],[[[140.276184,35.196256],[140.280991,35.194573],[140.282364,35.190084],[140.285797,35.1884],[140.28717,35.186716],[140.286484,35.185594],[140.282364,35.187278],[140.281677,35.186716],[140.278244,35.189522],[140.277557,35.192328],[140.272064,35.19345],[140.270004,35.195695],[140.276184,35.196256]]],[[[140.272064,35.19345],[140.277557,35.192328],[140.278244,35.189522],[140.281677,35.186716],[140.282364,35.187278],[140.286484,35.185594],[140.283737,35.183349],[140.282364,35.17437],[140.278931,35.175492],[140.276871,35.177176],[140.273438,35.171563],[140.269318,35.172124],[140.269318,35.177176],[140.265884,35.182227],[140.265884,35.185033],[140.269318,35.183911],[140.269318,35.185594],[140.272064,35.187278],[140.272751,35.188961],[140.274124,35.189522],[140.271378,35.191767],[140.272064,35.19345]]]]}},{"type":"Feature","properties":{"layer_id":"bakumatsu_villages","name":"大沢","address":"上総 夷隅郡","source":"Geoshape 幕末期近世村領域データセット vector tiles (z7 extraction)","subarea_name":"近世村のおおよその範囲","feature_key":"village:K04G05S00161","accuracy_note":"2015年農業集落境界をもとに復元した概略範囲で、江戸時代の正確な村境ではありません"},"geometry":{"type":"Polygon","coordinates":[[[140.219193,35.116539],[140.211639,35.114854],[140.210953,35.117662],[140.213013,35.121032],[140.211639,35.123278],[140.212326,35.125525],[140.215073,35.126648],[140.217133,35.126648],[140.218506,35.125525],[140.217819,35.123278],[140.219879,35.126648],[140.221939,35.122155],[140.221252,35.121593],[140.224686,35.117662],[140.223999,35.115977],[140.219879,35.1171],[140.219879,35.116539],[140.219193,35.116539]]]}},{"type":"Feature","properties":{"layer_id":"bakumatsu_villages","name":"守谷","address":"上総 夷隅郡","source":"Geoshape 幕末期近世村領域データセット vector tiles (z7 extraction)","subarea_name":"近世村のおおよその範囲","feature_key":"village:K04G05S00033","accuracy_note":"2015年農業集落境界をもとに復元した概略範囲で、江戸時代の正確な村境ではありません"},"geometry":{"type":"Polygon","coordinates":[[[140.270004,35.152477],[140.270691,35.151916],[140.268631,35.147424],[140.267944,35.13451],[140.266571,35.136195],[140.265198,35.13451],[140.263824,35.13451],[140.263824,35.135071],[140.261765,35.133948],[140.261765,35.135071],[140.263138,35.136195],[140.263138,35.136756],[140.260391,35.138441],[140.256958,35.137879],[140.256958,35.136756],[140.255585,35.136756],[140.257645,35.135633],[140.256271,35.13451],[140.254211,35.135071],[140.254898,35.148547],[140.260391,35.150793],[140.265198,35.150793],[140.267944,35.151916],[140.270004,35.152477]]]}},{"type":"Feature","properties":{"layer_id":"bakumatsu_villages","name":"宿戸","address":"上総 夷隅郡","source":"Geoshape 幕末期近世村領域データセット vector tiles (z7 extraction)","subarea_name":"近世村のおおよその範囲","feature_key":"village:K04G05S00099","accuracy_note":"2015年農業集落境界をもとに復元した概略範囲で、江戸時代の正確な村境ではありません"},"geometry":{"type":"Polygon","coordinates":[[[140.292664,35.190084],[140.296097,35.188961],[140.29747,35.189522],[140.29953,35.187839],[140.30365,35.1884],[140.302963,35.182788],[140.300903,35.182788],[140.300217,35.183911],[140.294037,35.183349],[140.291977,35.182788],[140.291977,35.180543],[140.289917,35.17886],[140.28717,35.178298],[140.285797,35.175492],[140.288544,35.168195],[140.286484,35.168757],[140.285797,35.167073],[140.284424,35.167073],[140.282364,35.171563],[140.282364,35.17437],[140.283737,35.183349],[140.28717,35.186716],[140.285797,35.1884],[140.289917,35.1884],[140.289917,35.190084],[140.290604,35.188961],[140.292664,35.190084]]]}},{"type":"Feature","properties":{"layer_id":"bakumatsu_villages","name":"小松野","address":"上総 夷隅郡","source":"Geoshape 幕末期近世村領域データセット vector tiles (z7 extraction)","subarea_name":"近世村のおおよその範囲","feature_key":"village:K04G05S00029","accuracy_note":"2015年農業集落境界をもとに復元した概略範囲で、江戸時代の正確な村境ではありません"},"geometry":{"type":"Polygon","coordinates":[[[140.274124,35.200745],[140.274124,35.1985],[140.276184,35.196256],[140.265884,35.196256],[140.264511,35.197378],[140.261765,35.1985],[140.261765,35.200745],[140.274124,35.200745]]]}},{"type":"Feature","properties":{"layer_id":"bakumatsu_villages","name":"小湊・市川","address":"安房 長狭郡","source":"Geoshape 幕末期近世村領域データセット vector tiles (z7 extraction)","subarea_name":"近世村のおおよその範囲","feature_key":"village:K06G01S00002,K06G01S00003","accuracy_note":"2015年農業集落境界をもとに復元した概略範囲で、江戸時代の正確な村境ではありません"},"geometry":{"type":"Polygon","coordinates":[[[140.212326,35.135633],[140.215073,35.131702],[140.215073,35.129456],[140.210953,35.126648],[140.212326,35.125525],[140.211639,35.122717],[140.213013,35.121593],[140.210953,35.117662],[140.211639,35.114854],[140.206833,35.11373],[140.202713,35.11036],[140.202713,35.109798],[140.199966,35.11036],[140.199966,35.113169],[140.197906,35.113169],[140.1931,35.12047],[140.19516,35.118785],[140.196533,35.118785],[140.196533,35.121032],[140.194473,35.12047],[140.193787,35.121593],[140.197906,35.122717],[140.196533,35.123278],[140.19516,35.122717],[140.1931,35.124963],[140.193787,35.125525],[140.193787,35.126648],[140.196533,35.128333],[140.199966,35.131141],[140.204086,35.130017],[140.206833,35.130579],[140.212326,35.135633]]]}},{"type":"Feature","properties":{"layer_id":"bakumatsu_villages","name":"小羽戸","address":"上総 夷隅郡","source":"Geoshape 幕末期近世村領域データセット vector tiles (z7 extraction)","subarea_name":"近世村のおおよその範囲","feature_key":"village:K04G05S00094","accuracy_note":"2015年農業集落境界をもとに復元した概略範囲で、江戸時代の正確な村境ではありません"},"geometry":{"type":"Polygon","coordinates":[[[140.259705,35.192889],[140.265884,35.190084],[140.265884,35.187839],[140.268631,35.185594],[140.267944,35.183911],[140.265884,35.185594],[140.265198,35.183349],[140.269318,35.177737],[140.269318,35.173808],[140.266571,35.173808],[140.265884,35.176615],[140.266571,35.178298],[140.265198,35.177737],[140.263138,35.179982],[140.257645,35.181104],[140.252838,35.178298],[140.249405,35.182227],[140.248718,35.184472],[140.241852,35.186716],[140.242538,35.191767],[140.243912,35.192328],[140.245285,35.191767],[140.245285,35.192889],[140.259705,35.192889]]]}},{"type":"Feature","properties":{"layer_id":"bakumatsu_villages","name":"山田","address":"上総 夷隅郡","source":"Geoshape 幕末期近世村領域データセット vector tiles (z7 extraction)","subarea_name":"近世村のおおよその範囲","feature_key":"village:K04G05S00093","accuracy_note":"2015年農業集落境界をもとに復元した概略範囲で、江戸時代の正確な村境ではありません"},"geometry":{"type":"Polygon","coordinates":[[[140.276871,35.177176],[140.278931,35.175492],[140.282364,35.17437],[140.283051,35.170441],[140.280304,35.168757],[140.280304,35.167073],[140.282364,35.165389],[140.282364,35.160337],[140.280304,35.160337],[140.277557,35.158653],[140.277557,35.159775],[140.279617,35.160898],[140.279617,35.162021],[140.278931,35.163705],[140.276871,35.161459],[140.276871,35.163143],[140.274124,35.16595],[140.268631,35.168195],[140.266571,35.172124],[140.273438,35.171563],[140.276871,35.177176]]]}},{"type":"Feature","properties":{"layer_id":"bakumatsu_villages","name":"川津","address":"上総 夷隅郡","source":"Geoshape 幕末期近世村領域データセット vector tiles (z7 extraction)","subarea_name":"近世村のおおよその範囲","feature_key":"village:K04G05S00163","accuracy_note":"2015年農業集落境界をもとに復元した概略範囲で、江戸時代の正確な村境ではありません"},"geometry":{"type":"MultiPolygon","coordinates":[[[[140.320816,35.137879],[140.320816,35.136756],[140.319443,35.136756],[140.319443,35.137879],[140.320816,35.137879]]],[[[140.326309,35.142933],[140.326309,35.14181],[140.325623,35.140687],[140.326309,35.139564],[140.325623,35.139002],[140.322876,35.140125],[140.323563,35.138441],[140.321503,35.140125],[140.319443,35.137879],[140.318756,35.137318],[140.31601,35.139002],[140.314636,35.138441],[140.31395,35.140125],[140.31601,35.144617],[140.318069,35.142933],[140.318069,35.147424],[140.31601,35.147986],[140.318756,35.148547],[140.318069,35.150232],[140.319443,35.151916],[140.322189,35.153039],[140.322876,35.159775],[140.323563,35.159214],[140.324249,35.155284],[140.327682,35.1536],[140.328369,35.152477],[140.326996,35.151354],[140.326996,35.14967],[140.326309,35.150232],[140.326309,35.14967],[140.327682,35.146863],[140.326309,35.147424],[140.326309,35.14574],[140.325623,35.142933],[140.326309,35.142933]]],[[[140.326309,35.142933],[140.326309,35.14574],[140.327682,35.146301],[140.326309,35.142933]]]]}},{"type":"Feature","properties":{"layer_id":"bakumatsu_villages","name":"市野川","address":"上総 夷隅郡","source":"Geoshape 幕末期近世村領域データセット vector tiles (z7 extraction)","subarea_name":"近世村のおおよその範囲","feature_key":"village:K04G05S00025","accuracy_note":"2015年農業集落境界をもとに復元した概略範囲で、江戸時代の正確な村境ではありません"},"geometry":{"type":"MultiPolygon","coordinates":[[[[140.29541,35.240011],[140.296783,35.234964],[140.296097,35.233281],[140.29335,35.231038],[140.29541,35.229916],[140.29129,35.224868],[140.286484,35.222624],[140.287857,35.218697],[140.290604,35.215893],[140.29129,35.211966],[140.289917,35.210844],[140.28717,35.213088],[140.28511,35.213649],[140.280304,35.218697],[140.280304,35.22599],[140.285797,35.229355],[140.286484,35.23272],[140.288544,35.231599],[140.28923,35.232159],[140.289917,35.230477],[140.29129,35.230477],[140.29335,35.23889],[140.29541,35.240011]]],[[[140.296097,35.230477],[140.29953,35.229355],[140.300903,35.226551],[140.302963,35.227111],[140.306396,35.22599],[140.307083,35.223185],[140.30983,35.222063],[140.310516,35.219819],[140.312576,35.219819],[140.313263,35.218137],[140.314636,35.218137],[140.317383,35.215893],[140.313263,35.214771],[140.310516,35.215332],[140.311203,35.213088],[140.308456,35.212527],[140.30777,35.213649],[140.306396,35.213649],[140.302277,35.211405],[140.29335,35.211405],[140.289917,35.210283],[140.29129,35.214771],[140.289917,35.217015],[140.287857,35.218697],[140.286484,35.222624],[140.29129,35.224868],[140.296097,35.230477]]]]}},{"type":"Feature","properties":{"layer_id":"bakumatsu_villages","name":"平田","address":"上総 夷隅郡","source":"Geoshape 幕末期近世村領域データセット vector tiles (z7 extraction)","subarea_name":"近世村のおおよその範囲","feature_key":"village:K04G05S00102","accuracy_note":"2015年農業集落境界をもとに復元した概略範囲で、江戸時代の正確な村境ではありません"},"geometry":{"type":"Polygon","coordinates":[[[140.308456,35.190645],[140.31189,35.1884],[140.308456,35.179982],[140.30365,35.177176],[140.302963,35.172686],[140.302277,35.17437],[140.298843,35.174931],[140.298843,35.177176],[140.300903,35.17886],[140.304337,35.17886],[140.302277,35.181666],[140.30365,35.187839],[140.308456,35.190645]]]}},{"type":"Feature","properties":{"layer_id":"bakumatsu_villages","name":"新官郷","address":"上総 夷隅郡","source":"Geoshape 幕末期近世村領域データセット vector tiles (z7 extraction)","subarea_name":"近世村のおおよその範囲","feature_key":"village:K04G05S00078","accuracy_note":"2015年農業集落境界をもとに復元した概略範囲で、江戸時代の正確な村境ではありません"},"geometry":{"type":"MultiPolygon","coordinates":[[[[140.326309,35.164266],[140.329742,35.159775],[140.331802,35.159214],[140.332489,35.156407],[140.331802,35.155284],[140.331802,35.156968],[140.331116,35.155846],[140.329742,35.155846],[140.330429,35.155284],[140.328369,35.154162],[140.329056,35.1536],[140.331802,35.154723],[140.328369,35.151916],[140.327682,35.1536],[140.324249,35.155284],[140.323563,35.159214],[140.322876,35.159775],[140.322189,35.153039],[140.318756,35.151916],[140.318069,35.152477],[140.319443,35.154162],[140.319443,35.156968],[140.317383,35.156968],[140.316696,35.159214],[140.314636,35.158653],[140.312576,35.161459],[140.30983,35.162582],[140.31189,35.163705],[140.314636,35.163143],[140.320129,35.164266],[140.324936,35.162582],[140.326309,35.164266]]],[[[140.331802,35.159214],[140.329742,35.159775],[140.326309,35.164266],[140.324936,35.162582],[140.324249,35.162021],[140.320129,35.164266],[140.31395,35.163143],[140.313263,35.16595],[140.31395,35.169318],[140.316696,35.17437],[140.318069,35.17437],[140.320129,35.176053],[140.324249,35.175492],[140.322189,35.17437],[140.324936,35.174931],[140.325623,35.173808],[140.326996,35.175492],[140.331116,35.175492],[140.335236,35.177737],[140.338669,35.176053],[140.346222,35.176615],[140.344849,35.173808],[140.339355,35.170441],[140.332489,35.164266],[140.331802,35.162021],[140.333176,35.159775],[140.331802,35.160337],[140.331802,35.159214]]],[[[140.331802,35.159214],[140.333176,35.159775],[140.333176,35.158653],[140.331802,35.159214]]]]}},{"type":"Feature","properties":{"layer_id":"bakumatsu_villages","name":"新戸","address":"上総 夷隅郡","source":"Geoshape 幕末期近世村領域データセット vector tiles (z7 extraction)","subarea_name":"近世村のおおよその範囲","feature_key":"village:K04G05S00098","accuracy_note":"2015年農業集落境界をもとに復元した概略範囲で、江戸時代の正確な村境ではありません"},"geometry":{"type":"Polygon","coordinates":[[[140.300217,35.183911],[140.300903,35.182788],[140.302963,35.182788],[140.302277,35.181666],[140.304337,35.17886],[140.29953,35.178298],[140.298843,35.173808],[140.296097,35.174931],[140.291977,35.172124],[140.290604,35.167634],[140.288544,35.168195],[140.28717,35.172124],[140.285797,35.175492],[140.28717,35.178298],[140.289917,35.17886],[140.291977,35.180543],[140.291977,35.182788],[140.294037,35.183349],[140.300217,35.183911]]]}},{"type":"Feature","properties":{"layer_id":"bakumatsu_villages","name":"杉戸","address":"上総 夷隅郡","source":"Geoshape 幕末期近世村領域データセット vector tiles (z7 extraction)","subarea_name":"近世村のおおよその範囲","feature_key":"village:K04G05S00026","accuracy_note":"2015年農業集落境界をもとに復元した概略範囲で、江戸時代の正確な村境ではありません"},"geometry":{"type":"MultiPolygon","coordinates":[[[[140.260391,35.224307],[140.262451,35.223746],[140.268631,35.221502],[140.272064,35.217576],[140.269318,35.216454],[140.265884,35.216454],[140.263824,35.218697],[140.262451,35.219258],[140.261078,35.217576],[140.262451,35.216454],[140.260391,35.212527],[140.261078,35.211405],[140.258331,35.213088],[140.256958,35.212527],[140.258331,35.211966],[140.255585,35.211966],[140.254211,35.211405],[140.255585,35.210844],[140.254898,35.207478],[140.244598,35.202428],[140.243912,35.206916],[140.243912,35.209722],[140.245285,35.210844],[140.245285,35.21421],[140.249405,35.215893],[140.251465,35.218697],[140.250778,35.221502],[140.252151,35.221502],[140.254211,35.223185],[140.258331,35.222624],[140.260391,35.224307]]],[[[140.262451,35.219258],[140.263824,35.218697],[140.268631,35.211966],[140.266571,35.207478],[140.263824,35.207478],[140.259705,35.2086],[140.258331,35.206916],[140.258331,35.202428],[140.256271,35.202428],[140.254898,35.200184],[140.251465,35.200184],[140.248718,35.197939],[140.246658,35.199062],[140.245285,35.1985],[140.243912,35.201306],[140.244598,35.202428],[140.254898,35.207478],[140.255585,35.210844],[140.254211,35.211405],[140.255585,35.211966],[140.258331,35.211966],[140.256958,35.212527],[140.258331,35.213088],[140.261078,35.211405],[140.260391,35.212527],[140.262451,35.216454],[140.261078,35.217576],[140.262451,35.219258]]],[[[140.271378,35.224307],[140.276871,35.223185],[140.280304,35.220941],[140.280304,35.218697],[140.28511,35.213649],[140.282364,35.212527],[140.280304,35.213649],[140.274811,35.213649],[140.268631,35.211966],[140.265884,35.216454],[140.269318,35.216454],[140.272064,35.217576],[140.267944,35.221502],[140.270004,35.223185],[140.272064,35.222624],[140.271378,35.224307]]]]}},{"type":"Feature","properties":{"layer_id":"bakumatsu_villages","name":"松部","address":"上総 夷隅郡","source":"Geoshape 幕末期近世村領域データセット vector tiles (z7 extraction)","subarea_name":"近世村のおおよその範囲","feature_key":"village:K04G05S00084","accuracy_note":"2015年農業集落境界をもとに復元した概略範囲で、江戸時代の正確な村境ではありません"},"geometry":{"type":"MultiPolygon","coordinates":[[[[140.290604,35.144617],[140.289917,35.142933],[140.290604,35.14181],[140.29129,35.142371],[140.291977,35.142371],[140.28923,35.140125],[140.290604,35.140125],[140.289917,35.138441],[140.292664,35.138441],[140.289917,35.136756],[140.283051,35.142933],[140.283737,35.145179],[140.282364,35.14967],[140.280304,35.149109],[140.278931,35.151916],[140.275497,35.1536],[140.278244,35.154723],[140.278244,35.158653],[140.280304,35.160337],[140.282364,35.160898],[140.282364,35.165389],[140.280304,35.167073],[140.280304,35.168757],[140.283051,35.170441],[140.288544,35.160337],[140.287857,35.15753],[140.28923,35.154723],[140.292664,35.152477],[140.29541,35.147986],[140.294724,35.14574],[140.29335,35.14574],[140.29335,35.146863],[140.292664,35.14574],[140.28923,35.145179],[140.290604,35.144617]]],[[[140.290604,35.144617],[140.29129,35.144617],[140.29129,35.142371],[140.290604,35.144617]]]]}},{"type":"Feature","properties":{"layer_id":"bakumatsu_villages","name":"松野","address":"上総 夷隅郡","source":"Geoshape 幕末期近世村領域データセット vector tiles (z7 extraction)","subarea_name":"近世村のおおよその範囲","feature_key":"village:K04G05S00028","accuracy_note":"2015年農業集落境界をもとに復元した概略範囲で、江戸時代の正確な村境ではありません"},"geometry":{"type":"Polygon","coordinates":[[[140.269318,35.211966],[140.268631,35.209722],[140.272751,35.210283],[140.273438,35.207478],[140.276871,35.206355],[140.280304,35.202989],[140.278931,35.202428],[140.274124,35.202428],[140.274124,35.200745],[140.261765,35.200745],[140.260391,35.201867],[140.258331,35.202428],[140.258331,35.206916],[140.260391,35.2086],[140.263824,35.207478],[140.266571,35.207478],[140.268631,35.211966],[140.269318,35.211966]]]}},{"type":"Feature","properties":{"layer_id":"bakumatsu_villages","name":"法華","address":"上総 夷隅郡","source":"Geoshape 幕末期近世村領域データセット vector tiles (z7 extraction)","subarea_name":"近世村のおおよその範囲","feature_key":"village:K04G05S00091","accuracy_note":"2015年農業集落境界をもとに復元した概略範囲で、江戸時代の正確な村境ではありません"},"geometry":{"type":"Polygon","coordinates":[[[140.241165,35.186716],[140.246658,35.185594],[140.248032,35.183911],[140.248718,35.184472],[140.249405,35.182227],[140.252838,35.178298],[140.260391,35.173808],[140.263138,35.170441],[140.265198,35.169879],[140.265198,35.167634],[140.262451,35.168195],[140.261078,35.167634],[140.261765,35.164266],[140.261078,35.161459],[140.259018,35.160898],[140.256958,35.164266],[140.259018,35.168757],[140.255585,35.169318],[140.256271,35.171563],[140.252838,35.169879],[140.250778,35.170441],[140.245285,35.174931],[140.243225,35.178298],[140.238419,35.181104],[140.238419,35.183349],[140.239792,35.183911],[140.241165,35.186716]]]}},{"type":"Feature","properties":{"layer_id":"bakumatsu_villages","name":"浜行川","address":"上総 夷隅郡","source":"Geoshape 幕末期近世村領域データセット vector tiles (z7 extraction)","subarea_name":"近世村のおおよその範囲","feature_key":"village:K04G05S00160","accuracy_note":"2015年農業集落境界をもとに復元した概略範囲で、江戸時代の正確な村境ではありません"},"geometry":{"type":"MultiPolygon","coordinates":[[[[140.236359,35.122155],[140.234299,35.122155],[140.234985,35.121593],[140.233612,35.121593],[140.234299,35.12047],[140.237045,35.118785],[140.236359,35.1171],[140.232239,35.115415],[140.227432,35.116539],[140.225372,35.114854],[140.221252,35.121593],[140.221939,35.122155],[140.219879,35.126648],[140.217819,35.123278],[140.218506,35.125525],[140.217133,35.126648],[140.215073,35.126648],[140.212326,35.125525],[140.210953,35.126086],[140.215073,35.129456],[140.217133,35.130017],[140.219193,35.13451],[140.219193,35.136195],[140.219879,35.136756],[140.223312,35.131702],[140.224686,35.131702],[140.229492,35.130017],[140.236359,35.129456],[140.241852,35.126648],[140.236359,35.122717],[140.236359,35.122155]]],[[[140.236359,35.122155],[140.236359,35.121593],[140.234985,35.121593],[140.236359,35.122155]]]]}},{"type":"Feature","properties":{"layer_id":"bakumatsu_villages","name":"白井久保","address":"上総 夷隅郡","source":"Geoshape 幕末期近世村領域データセット vector tiles (z7 extraction)","subarea_name":"近世村のおおよその範囲","feature_key":"village:K04G05S00097","accuracy_note":"2015年農業集落境界をもとに復元した概略範囲で、江戸時代の正確な村境ではありません"},"geometry":{"type":"Polygon","coordinates":[[[140.286484,35.1985],[140.29335,35.197939],[140.29335,35.196817],[140.291977,35.196817],[140.292664,35.195695],[140.290604,35.195695],[140.290604,35.194573],[140.291977,35.19345],[140.289917,35.191206],[140.289917,35.1884],[140.285797,35.1884],[140.28511,35.189522],[140.285797,35.191767],[140.284424,35.192889],[140.286484,35.1985]]]}},{"type":"Feature","properties":{"layer_id":"bakumatsu_villages","name":"白木","address":"上総 夷隅郡","source":"Geoshape 幕末期近世村領域データセット vector tiles (z7 extraction)","subarea_name":"近世村のおおよその範囲","feature_key":"village:K04G05S00100","accuracy_note":"2015年農業集落境界をもとに復元した概略範囲で、江戸時代の正確な村境ではありません"},"geometry":{"type":"Polygon","coordinates":[[[140.30571,35.210283],[140.30777,35.2086],[140.307083,35.204111],[140.30983,35.200184],[140.30571,35.201306],[140.30365,35.200184],[140.30365,35.194573],[140.305023,35.192889],[140.305023,35.190645],[140.306396,35.190084],[140.30365,35.1884],[140.29953,35.187839],[140.29747,35.189522],[140.296097,35.188961],[140.292664,35.190084],[140.290604,35.188961],[140.289917,35.191206],[140.291977,35.19345],[140.290604,35.194573],[140.290604,35.195695],[140.292664,35.195695],[140.291977,35.196817],[140.29335,35.196817],[140.294037,35.197939],[140.290604,35.199062],[140.292664,35.199062],[140.29541,35.202989],[140.29953,35.204111],[140.30571,35.210283]]]}},{"type":"Feature","properties":{"layer_id":"bakumatsu_villages","name":"興津","address":"上総 夷隅郡","source":"Geoshape 幕末期近世村領域データセット vector tiles (z7 extraction)","subarea_name":"近世村のおおよその範囲","feature_key":"village:K04G05S00032","accuracy_note":"2015年農業集落境界をもとに復元した概略範囲で、江戸時代の正確な村境ではありません"},"geometry":{"type":"Polygon","coordinates":[[[140.247345,35.130579],[140.248718,35.129456],[140.248718,35.128894],[140.246658,35.128333],[140.245285,35.126086],[140.242538,35.124402],[140.241852,35.126648],[140.237732,35.129456],[140.229492,35.130017],[140.224686,35.131702],[140.223312,35.131702],[140.220566,35.135633],[140.222626,35.138441],[140.221939,35.140125],[140.222626,35.141248],[140.224686,35.140687],[140.225372,35.142371],[140.231552,35.144617],[140.237732,35.145179],[140.238419,35.147424],[140.244598,35.148547],[140.245285,35.14967],[140.246658,35.148547],[140.247345,35.150232],[140.249405,35.149109],[140.251465,35.14967],[140.252151,35.147986],[140.249405,35.146301],[140.250092,35.145179],[140.254898,35.148547],[140.254211,35.135071],[140.251465,35.133387],[140.251465,35.135633],[140.250778,35.13451],[140.250778,35.135633],[140.248032,35.135071],[140.247345,35.133387],[140.247345,35.130579]]]}},{"type":"Feature","properties":{"layer_id":"bakumatsu_villages","name":"芳賀","address":"上総 夷隅郡","source":"Geoshape 幕末期近世村領域データセット vector tiles (z7 extraction)","subarea_name":"近世村のおおよその範囲","feature_key":"village:K04G05S00096","accuracy_note":"2015年農業集落境界をもとに復元した概略範囲で、江戸時代の正確な村境ではありません"},"geometry":{"type":"Polygon","coordinates":[[[140.278244,35.199623],[140.280991,35.200184],[140.280304,35.201306],[140.283051,35.202428],[140.28511,35.204672],[140.287857,35.204111],[140.285797,35.206355],[140.292664,35.211405],[140.302277,35.211405],[140.30571,35.213088],[140.311203,35.213088],[140.310516,35.215332],[140.315323,35.215332],[140.315323,35.212527],[140.313263,35.212527],[140.312576,35.211405],[140.311203,35.211966],[140.30777,35.2086],[140.30571,35.210283],[140.305023,35.2086],[140.29953,35.204111],[140.29541,35.202989],[140.292664,35.199062],[140.29129,35.199062],[140.29129,35.1985],[140.286484,35.1985],[140.284424,35.192889],[140.285797,35.191767],[140.28511,35.189522],[140.283737,35.189522],[140.281677,35.192328],[140.280991,35.194573],[140.283737,35.191206],[140.281677,35.195134],[140.278244,35.196256],[140.278244,35.199623]]]}},{"type":"Feature","properties":{"layer_id":"bakumatsu_villages","name":"荒川","address":"上総 夷隅郡","source":"Geoshape 幕末期近世村領域データセット vector tiles (z7 extraction)","subarea_name":"近世村のおおよその範囲","feature_key":"village:K04G05S00092","accuracy_note":"2015年農業集落境界をもとに復元した概略範囲で、江戸時代の正確な村境ではありません"},"geometry":{"type":"Polygon","coordinates":[[[140.267944,35.168757],[140.268631,35.167634],[140.274124,35.16595],[140.276871,35.163143],[140.270004,35.160898],[140.270691,35.162021],[140.270004,35.163143],[140.270691,35.163143],[140.268631,35.167073],[140.266571,35.164266],[140.265198,35.164266],[140.263824,35.162582],[140.261078,35.162582],[140.262451,35.164828],[140.265884,35.165389],[140.267944,35.168757]]]}},{"type":"Feature","properties":{"layer_id":"bakumatsu_villages","name":"蟹田","address":"上総 夷隅郡","source":"Geoshape 幕末期近世村領域データセット vector tiles (z7 extraction)","subarea_name":"近世村のおおよその範囲","feature_key":"village:K04G05S00030","accuracy_note":"2015年農業集落境界をもとに復元した概略範囲で、江戸時代の正確な村境ではありません"},"geometry":{"type":"MultiPolygon","coordinates":[[[[140.278931,35.204672],[140.280304,35.205794],[140.28511,35.204672],[140.283051,35.202428],[140.280304,35.201306],[140.280991,35.200184],[140.278244,35.199623],[140.278244,35.196256],[140.281677,35.195695],[140.283051,35.191206],[140.280991,35.194573],[140.276184,35.196256],[140.274124,35.199062],[140.274124,35.202428],[140.280304,35.202989],[140.278931,35.204672]]],[[[140.278931,35.204672],[140.276871,35.206355],[140.278931,35.206355],[140.278931,35.204672]]]]}},{"type":"Feature","properties":{"layer_id":"bakumatsu_villages","name":"貝掛","address":"上総 夷隅郡","source":"Geoshape 幕末期近世村領域データセット vector tiles (z7 extraction)","subarea_name":"近世村のおおよその範囲","feature_key":"village:K04G05S00031","accuracy_note":"2015年農業集落境界をもとに復元した概略範囲で、江戸時代の正確な村境ではありません"},"geometry":{"type":"Polygon","coordinates":[[[140.257645,35.181104],[140.263138,35.179982],[140.265198,35.177737],[140.266571,35.178298],[140.265884,35.176615],[140.266571,35.173808],[140.269318,35.173808],[140.269318,35.172124],[140.266571,35.172124],[140.267944,35.169318],[140.267258,35.166511],[140.261765,35.164266],[140.261078,35.167634],[140.262451,35.168195],[140.265198,35.167634],[140.265198,35.169879],[140.263138,35.170441],[140.260391,35.173808],[140.252838,35.178298],[140.257645,35.181104]]]}},{"type":"Feature","properties":{"layer_id":"bakumatsu_villages","name":"赤羽根","address":"上総 夷隅郡","source":"Geoshape 幕末期近世村領域データセット vector tiles (z7 extraction)","subarea_name":"近世村のおおよその範囲","feature_key":"village:K04G05S00133","accuracy_note":"2015年農業集落境界をもとに復元した概略範囲で、江戸時代の正確な村境ではありません"},"geometry":{"type":"Polygon","coordinates":[[[140.237732,35.165389],[140.238419,35.167073],[140.240479,35.168757],[140.237045,35.175492],[140.237045,35.179982],[140.238419,35.181104],[140.239792,35.180543],[140.250778,35.170441],[140.252838,35.169879],[140.256271,35.171563],[140.255585,35.169318],[140.259018,35.168757],[140.259018,35.166511],[140.256271,35.163705],[140.256271,35.162582],[140.258331,35.159775],[140.257645,35.158091],[140.256271,35.159214],[140.253525,35.159775],[140.251465,35.163143],[140.252838,35.158653],[140.248718,35.158653],[140.245972,35.163705],[140.239792,35.163705],[140.237732,35.165389]]]}},{"type":"Feature","properties":{"layer_id":"bakumatsu_villages","name":"関谷","address":"上総 夷隅郡","source":"Geoshape 幕末期近世村領域データセット vector tiles (z7 extraction)","subarea_name":"近世村のおおよその範囲","feature_key":"village:K04G05S00080","accuracy_note":"2015年農業集落境界をもとに復元した概略範囲で、江戸時代の正確な村境ではありません"},"geometry":{"type":"Polygon","coordinates":[[[140.30365,35.169879],[140.302963,35.172686],[140.30365,35.176615],[140.308456,35.179421],[140.310516,35.186155],[140.31189,35.188961],[140.314636,35.184472],[140.313263,35.183349],[140.313263,35.181104],[140.314636,35.179982],[140.316696,35.17437],[140.31395,35.169318],[140.313263,35.16595],[140.31395,35.163143],[140.31189,35.163705],[140.309143,35.162582],[140.306396,35.166511],[140.305023,35.16595],[140.302963,35.167634],[140.302963,35.169318],[140.30365,35.169879]]]}},{"type":"Feature","properties":{"layer_id":"bakumatsu_villages","name":"鵜原","address":"上総 夷隅郡","source":"Geoshape 幕末期近世村領域データセット vector tiles (z7 extraction)","subarea_name":"近世村のおおよその範囲","feature_key":"village:K04G05S00085","accuracy_note":"2015年農業集落境界をもとに復元した概略範囲で、江戸時代の正確な村境ではありません"},"geometry":{"type":"MultiPolygon","coordinates":[[[[140.278244,35.133387],[140.278931,35.132264],[140.276871,35.131141],[140.275497,35.131702],[140.274811,35.130579],[140.273438,35.132264],[140.276184,35.13451],[140.274124,35.137318],[140.270691,35.137318],[140.270691,35.138441],[140.270004,35.137318],[140.268631,35.137318],[140.267944,35.13451],[140.268631,35.147424],[140.270691,35.151916],[140.270004,35.152477],[140.267944,35.151916],[140.267944,35.153039],[140.270004,35.1536],[140.272064,35.156407],[140.270691,35.15753],[140.274124,35.158091],[140.273438,35.154723],[140.275497,35.1536],[140.278931,35.151916],[140.280304,35.149109],[140.281677,35.14967],[140.283737,35.144617],[140.280991,35.139564],[140.280991,35.137879],[140.279617,35.133948],[140.278931,35.133387],[140.278244,35.13451],[140.278244,35.133387]]],[[[140.287857,35.137318],[140.28717,35.137879],[140.286484,35.137318],[140.285797,35.13451],[140.28511,35.13451],[140.284424,35.135071],[140.283051,35.133387],[140.281677,35.13451],[140.282364,35.133387],[140.280304,35.133387],[140.280991,35.139564],[140.283051,35.142933],[140.289917,35.136756],[140.287857,35.137318]]]]}},{"type":"Feature","properties":{"layer_id":"historical_sites_archaeology","name":"上長者台遺跡","address":"千葉県 勝浦市 松部","source":"Geoshape 日本歴史地名大系 施設・地点項目データセット 2025-05-15","subarea_name":"遺跡","feature_key":"08_archaeological_sites.geojson:120000320500","subtype":"遺跡"},"geometry":{"type":"Point","coordinates":[140.283704,35.154698]}},{"type":"Feature","properties":{"layer_id":"historical_sites_archaeology","name":"勝浦城跡","address":"千葉県 勝浦市 浜勝浦","source":"Geoshape 日本歴史地名大系 施設・地点項目データセット 2025-05-15","subarea_name":"城跡","feature_key":"05_castle_ruins.geojson:120000319600","subtype":"城跡"},"geometry":{"type":"Point","coordinates":[140.311383,35.136368]}},{"type":"Feature","properties":{"layer_id":"historical_sites_archaeology","name":"勝浦藩大岡氏陣屋跡","address":"千葉県 勝浦市 墨名","source":"Geoshape 日本歴史地名大系 施設・地点項目データセット 2025-05-15","subarea_name":"史跡","feature_key":"09_historic_sites.geojson:120000320100","subtype":"史跡"},"geometry":{"type":"Point","coordinates":[140.311936,35.152563]}},{"type":"Feature","properties":{"layer_id":"historical_sites_archaeology","name":"勝浦藩植村氏陣屋跡","address":"千葉県 勝浦市 串浜","source":"Geoshape 日本歴史地名大系 施設・地点項目データセット 2025-05-15","subarea_name":"史跡","feature_key":"09_historic_sites.geojson:120000320300","subtype":"史跡"},"geometry":{"type":"Point","coordinates":[140.300954,35.158989]}},{"type":"Feature","properties":{"layer_id":"historical_sites_archaeology","name":"興津城跡","address":"千葉県 勝浦市 植野","source":"Geoshape 日本歴史地名大系 施設・地点項目データセット 2025-05-15","subarea_name":"城跡","feature_key":"05_castle_ruins.geojson:120000321500","subtype":"城跡"},"geometry":{"type":"Point","coordinates":[140.250972,35.14584]}},{"type":"Feature","properties":{"layer_id":"historical_temples_shrines","name":"妙覚寺","address":"千葉県 勝浦市 興津1195番地","source":"Geoshape 日本歴史地名大系 施設・地点項目データセット 2025-05-15","subarea_name":"寺院","feature_key":"01_temples.geojson:120000321700","subtype":"寺院"},"geometry":{"type":"Point","coordinates":[140.244781,35.136051]}},{"type":"Feature","properties":{"layer_id":"historical_temples_shrines","name":"本寿寺","address":"千葉県 勝浦市 守谷772番地","source":"Geoshape 日本歴史地名大系 施設・地点項目データセット 2025-05-15","subarea_name":"寺院","feature_key":"01_temples.geojson:120000039500","subtype":"寺院"},"geometry":{"type":"Point","coordinates":[140.25853,35.139771]}},{"type":"Feature","properties":{"layer_id":"historical_temples_shrines","name":"本行寺","address":"千葉県 勝浦市 浜勝浦8番地","source":"Geoshape 日本歴史地名大系 施設・地点項目データセット 2025-05-15","subarea_name":"寺院","feature_key":"01_temples.geojson:120000319900","subtype":"寺院"},"geometry":{"type":"Point","coordinates":[140.315536,35.146687]}},{"type":"Feature","properties":{"layer_id":"historical_temples_shrines","name":"覚翁寺","address":"千葉県 勝浦市 出水1297番地","source":"Geoshape 日本歴史地名大系 施設・地点項目データセット 2025-05-15","subarea_name":"寺院","feature_key":"01_temples.geojson:120000320800","subtype":"寺院"},"geometry":{"type":"Point","coordinates":[140.31813,35.149799]}},{"type":"Feature","properties":{"layer_id":"historical_temples_shrines","name":"遠見岬神社","address":"千葉県 勝浦市 浜勝浦1番地","source":"Geoshape 日本歴史地名大系 施設・地点項目データセット 2025-05-15","subarea_name":"神社","feature_key":"02_shrines.geojson:120000319800","subtype":"神社"},"geometry":{"type":"Point","coordinates":[140.315536,35.146687]}}]}