{"type":"FeatureCollection","municipality_code":"12215","pref":"千葉県","city":"旭市","layer_counts":{"bakumatsu_villages":54,"historical_sites_archaeology":6,"historical_temples_shrines":10},"total_features":70,"features":[{"type":"Feature","properties":{"layer_id":"bakumatsu_villages","name":"万力","address":"下総 香取郡","source":"Geoshape 幕末期近世村領域データセット vector tiles (z7 extraction)","subarea_name":"近世村のおおよその範囲","feature_key":"village:K05G09S00277","accuracy_note":"2015年農業集落境界をもとに復元した概略範囲で、江戸時代の正確な村境ではありません"},"geometry":{"type":"MultiPolygon","coordinates":[[[[140.581741,35.756543],[140.583115,35.755986],[140.582428,35.754314],[140.583801,35.753757],[140.588608,35.748741],[140.582428,35.745398],[140.578308,35.749856],[140.578995,35.750413],[140.578308,35.751528],[140.579681,35.752085],[140.578995,35.753199],[140.581741,35.756543]]],[[[140.589981,35.758772],[140.589981,35.7571],[140.587234,35.755428],[140.592728,35.749299],[140.590668,35.747627],[140.589294,35.749299],[140.588608,35.748741],[140.583801,35.753757],[140.582428,35.754314],[140.583115,35.755986],[140.584488,35.755428],[140.589981,35.758772]]],[[[140.603714,35.765458],[140.605087,35.762672],[140.600967,35.761],[140.600967,35.760443],[140.603027,35.753757],[140.599594,35.753199],[140.592728,35.762672],[140.593414,35.763786],[140.598907,35.765458],[140.603714,35.765458]]],[[[140.594101,35.761],[140.599594,35.753199],[140.592728,35.749299],[140.587234,35.755428],[140.589981,35.7571],[140.589981,35.758772],[140.594101,35.761]]],[[[140.598907,35.752642],[140.599594,35.75097],[140.600967,35.751528],[140.600967,35.748184],[140.603714,35.742611],[140.600281,35.742054],[140.594788,35.749856],[140.598907,35.752642]]],[[[140.605087,35.766015],[140.609894,35.754871],[140.603027,35.753757],[140.600967,35.761],[140.605087,35.762672],[140.603714,35.765458],[140.605087,35.766015]]],[[[140.605774,35.754314],[140.605774,35.749856],[140.607834,35.743168],[140.603714,35.742611],[140.600967,35.748184],[140.600967,35.751528],[140.599594,35.75097],[140.598907,35.752642],[140.605774,35.754314]]],[[[140.609894,35.754871],[140.611267,35.749856],[140.61058,35.743726],[140.607834,35.743168],[140.607147,35.743726],[140.605087,35.752085],[140.605774,35.752085],[140.605774,35.754314],[140.609894,35.754871]]],[[[140.589294,35.749299],[140.596848,35.740939],[140.600281,35.73871],[140.589981,35.742054],[140.585175,35.74707],[140.589294,35.749299]]],[[[140.594788,35.749856],[140.600281,35.742054],[140.596848,35.740939],[140.590668,35.747627],[140.594788,35.749856]]],[[[140.581741,35.756543],[140.583115,35.755986],[140.582428,35.754314],[140.583801,35.753757],[140.588608,35.748741],[140.582428,35.745398],[140.578308,35.749856],[140.578995,35.750413],[140.578308,35.751528],[140.579681,35.752085],[140.578995,35.753199],[140.581741,35.756543]]],[[[140.589981,35.758772],[140.589981,35.7571],[140.587234,35.755428],[140.592728,35.749299],[140.590668,35.747627],[140.589294,35.749299],[140.588608,35.748741],[140.583801,35.753757],[140.582428,35.754314],[140.583115,35.755986],[140.584488,35.755428],[140.589981,35.758772]]],[[[140.603714,35.765458],[140.605087,35.762672],[140.600967,35.761],[140.600967,35.760443],[140.603027,35.753757],[140.599594,35.753199],[140.592728,35.762672],[140.593414,35.763786],[140.598907,35.765458],[140.603714,35.765458]]],[[[140.594101,35.761],[140.599594,35.753199],[140.592728,35.749299],[140.587234,35.755428],[140.589981,35.7571],[140.589981,35.758772],[140.594101,35.761]]],[[[140.598907,35.752642],[140.599594,35.75097],[140.600967,35.751528],[140.600967,35.748184],[140.603714,35.742611],[140.600281,35.742054],[140.594788,35.749856],[140.598907,35.752642]]],[[[140.605087,35.766015],[140.609894,35.754871],[140.603027,35.753757],[140.600967,35.761],[140.605087,35.762672],[140.603714,35.765458],[140.605087,35.766015]]],[[[140.605774,35.754314],[140.605774,35.749856],[140.607834,35.743168],[140.603714,35.742611],[140.600967,35.748184],[140.600967,35.751528],[140.599594,35.75097],[140.598907,35.752642],[140.605774,35.754314]]],[[[140.609894,35.754871],[140.611267,35.749856],[140.61058,35.743726],[140.607834,35.743168],[140.607147,35.743726],[140.605087,35.752085],[140.605774,35.752085],[140.605774,35.754314],[140.609894,35.754871]]],[[[140.589294,35.749299],[140.596848,35.740939],[140.600281,35.73871],[140.589981,35.742054],[140.585175,35.74707],[140.589294,35.749299]]],[[[140.594788,35.749856],[140.600281,35.742054],[140.596848,35.740939],[140.590668,35.747627],[140.594788,35.749856]]]]}},{"type":"Feature","properties":{"layer_id":"bakumatsu_villages","name":"万歳","address":"下総 香取郡","source":"Geoshape 幕末期近世村領域データセット vector tiles (z7 extraction)","subarea_name":"近世村のおおよその範囲","feature_key":"village:K05G09S00281","accuracy_note":"2015年農業集落境界をもとに復元した概略範囲で、江戸時代の正確な村境ではありません"},"geometry":{"type":"MultiPolygon","coordinates":[[[[140.653839,35.791083],[140.659332,35.779943],[140.648346,35.7805],[140.651093,35.785513],[140.653152,35.786627],[140.651093,35.788855],[140.651779,35.791083],[140.653839,35.791083]]],[[[140.653152,35.800551],[140.653839,35.802222],[140.651779,35.802222],[140.651093,35.802778],[140.653839,35.803335],[140.653152,35.805563],[140.655212,35.80612],[140.656586,35.803335],[140.655899,35.801108],[140.653152,35.800551]]],[[[140.653152,35.800551],[140.652466,35.799994],[140.653152,35.798323],[140.651779,35.798323],[140.650406,35.796652],[140.646973,35.797209],[140.646973,35.798323],[140.649033,35.797766],[140.649719,35.799994],[140.653152,35.800551]]],[[[140.646973,35.777157],[140.648346,35.773815],[140.646973,35.773815],[140.651779,35.765458],[140.650406,35.764343],[140.653839,35.761],[140.649033,35.759886],[140.647659,35.760443],[140.645599,35.758772],[140.644913,35.760443],[140.645599,35.761558],[140.63942,35.7727],[140.646973,35.777157]]],[[[140.649719,35.7805],[140.652466,35.779943],[140.659332,35.779943],[140.662766,35.774372],[140.651779,35.773815],[140.651779,35.777157],[140.647659,35.778271],[140.649719,35.7805]]],[[[140.647659,35.778271],[140.651779,35.777157],[140.651779,35.773815],[140.662766,35.774929],[140.671005,35.764901],[140.662079,35.762115],[140.661392,35.7571],[140.650406,35.758772],[140.651093,35.761],[140.653839,35.761],[140.650406,35.764343],[140.651779,35.765458],[140.646973,35.773815],[140.648346,35.773815],[140.646973,35.777157],[140.647659,35.778271]]],[[[140.653839,35.791083],[140.659332,35.779943],[140.648346,35.7805],[140.651093,35.785513],[140.653152,35.786627],[140.651093,35.788855],[140.651779,35.791083],[140.653839,35.791083]]],[[[140.653152,35.800551],[140.653839,35.802222],[140.651779,35.802222],[140.651093,35.802778],[140.653839,35.803335],[140.653152,35.805563],[140.655212,35.80612],[140.656586,35.803335],[140.655899,35.801108],[140.653152,35.800551]]],[[[140.653152,35.800551],[140.652466,35.799994],[140.653152,35.798323],[140.651779,35.798323],[140.650406,35.796652],[140.646973,35.797209],[140.646973,35.798323],[140.649033,35.797766],[140.649719,35.799994],[140.653152,35.800551]]],[[[140.646973,35.777157],[140.648346,35.773815],[140.646973,35.773815],[140.651779,35.765458],[140.650406,35.764343],[140.653839,35.761],[140.649033,35.759886],[140.647659,35.760443],[140.645599,35.758772],[140.644913,35.760443],[140.645599,35.761558],[140.63942,35.7727],[140.646973,35.777157]]],[[[140.649719,35.7805],[140.652466,35.779943],[140.659332,35.779943],[140.662766,35.774372],[140.651779,35.773815],[140.651779,35.777157],[140.647659,35.778271],[140.649719,35.7805]]],[[[140.647659,35.778271],[140.651779,35.777157],[140.651779,35.773815],[140.662766,35.774929],[140.671005,35.764901],[140.662079,35.762115],[140.661392,35.7571],[140.650406,35.758772],[140.651093,35.761],[140.653839,35.761],[140.650406,35.764343],[140.651779,35.765458],[140.646973,35.773815],[140.648346,35.773815],[140.646973,35.777157],[140.647659,35.778271]]]]}},{"type":"Feature","properties":{"layer_id":"bakumatsu_villages","name":"三川","address":"下総 海上郡","source":"Geoshape 幕末期近世村領域データセット vector tiles (z7 extraction)","subarea_name":"近世村のおおよその範囲","feature_key":"village:K05G11S00027","accuracy_note":"2015年農業集落境界をもとに復元した概略範囲で、江戸時代の正確な村境ではありません"},"geometry":{"type":"MultiPolygon","coordinates":[[[[140.691605,35.722545],[140.699844,35.720315],[140.702591,35.718085],[140.699844,35.713625],[140.700531,35.71251],[140.700531,35.711395],[140.691605,35.714741],[140.693665,35.717528],[140.688858,35.719758],[140.691605,35.722545]]],[[[140.703278,35.718643],[140.706711,35.717528],[140.703278,35.713068],[140.704651,35.71251],[140.703278,35.70582],[140.699844,35.705262],[140.701218,35.709165],[140.698471,35.711395],[140.699158,35.711953],[140.700531,35.711395],[140.700531,35.71251],[140.699844,35.713625],[140.703278,35.718643]]],[[[140.711517,35.726447],[140.717697,35.727005],[140.718384,35.72589],[140.717697,35.72589],[140.71907,35.723103],[140.717697,35.720873],[140.714951,35.72143],[140.712204,35.717528],[140.712891,35.715298],[140.710144,35.711395],[140.710831,35.710838],[140.708771,35.709165],[140.707397,35.700802],[140.706024,35.700802],[140.706711,35.705262],[140.702591,35.705262],[140.703964,35.706935],[140.704651,35.71251],[140.703278,35.713068],[140.706711,35.717528],[140.703278,35.718643],[140.705338,35.719758],[140.702591,35.723103],[140.710831,35.732021],[140.712204,35.728677],[140.711517,35.726447]],[[140.711517,35.726447],[140.710831,35.724775],[140.711517,35.724775],[140.711517,35.726447]]],[[[140.683365,35.715298],[140.696411,35.709723],[140.694351,35.70359],[140.685425,35.703032],[140.686798,35.709723],[140.682678,35.71251],[140.683365,35.715298]]],[[[140.698471,35.710838],[140.701218,35.709723],[140.699844,35.705262],[140.695038,35.704705],[140.696411,35.709723],[140.698471,35.709723],[140.698471,35.710838]]],[[[140.706711,35.705262],[140.706024,35.700802],[140.692978,35.700244],[140.684738,35.698013],[140.685425,35.703032],[140.699844,35.705262],[140.706711,35.705262]]],[[[140.730057,35.731464],[140.734177,35.735923],[140.738297,35.73648],[140.73967,35.73871],[140.741043,35.737595],[140.738297,35.733136],[140.736237,35.734808],[140.73555,35.733694],[140.730743,35.730907],[140.730057,35.731464]]]]}},{"type":"Feature","properties":{"layer_id":"bakumatsu_villages","name":"上永井","address":"下総 海上郡","source":"Geoshape 幕末期近世村領域データセット vector tiles (z7 extraction)","subarea_name":"近世村のおおよその範囲","feature_key":"village:K05G11S00035","accuracy_note":"2015年農業集落境界をもとに復元した概略範囲で、江戸時代の正確な村境ではありません"},"geometry":{"type":"Polygon","coordinates":[[[140.746536,35.704147],[140.746536,35.704705],[140.747223,35.704705],[140.74791,35.703032],[140.749969,35.703032],[140.748596,35.702474],[140.748596,35.701917],[140.751343,35.701917],[140.751343,35.70359],[140.754776,35.703032],[140.755463,35.701917],[140.758209,35.701917],[140.760956,35.698013],[140.758896,35.696341],[140.749969,35.693552],[140.738297,35.692437],[140.736923,35.699686],[140.738297,35.700802],[140.738983,35.698571],[140.738983,35.700802],[140.740356,35.700244],[140.741043,35.698013],[140.741043,35.700244],[140.741043,35.700802],[140.74173,35.700244],[140.743103,35.700802],[140.743103,35.699686],[140.744476,35.701359],[140.745163,35.699129],[140.745163,35.700802],[140.747223,35.701917],[140.745163,35.704147],[140.746536,35.704147]]]}},{"type":"Feature","properties":{"layer_id":"bakumatsu_villages","name":"下永井","address":"下総 海上郡","source":"Geoshape 幕末期近世村領域データセット vector tiles (z7 extraction)","subarea_name":"近世村のおおよその範囲","feature_key":"village:K05G11S00036","accuracy_note":"2015年農業集落境界をもとに復元した概略範囲で、江戸時代の正確な村境ではありません"},"geometry":{"type":"MultiPolygon","coordinates":[[[[140.734863,35.690764],[140.736923,35.692437],[140.736923,35.69411],[140.734863,35.695783],[140.734177,35.695225],[140.736237,35.692995],[140.73349,35.692995],[140.73349,35.691879],[140.732803,35.691879],[140.732803,35.692995],[140.730743,35.692995],[140.730743,35.691879],[140.72937,35.692437],[140.72937,35.691322],[140.727997,35.691322],[140.726624,35.693552],[140.722504,35.69411],[140.722504,35.694668],[140.72731,35.696341],[140.728683,35.698571],[140.730743,35.696898],[140.736923,35.699686],[140.738297,35.692437],[140.734863,35.690764]]],[[[140.727997,35.690764],[140.72937,35.689649],[140.728683,35.689649],[140.727997,35.690764]]],[[[140.734863,35.690764],[140.72937,35.687976],[140.730743,35.690764],[140.734863,35.690764]]]]}},{"type":"Feature","properties":{"layer_id":"bakumatsu_villages","name":"中谷里","address":"下総 海上郡","source":"Geoshape 幕末期近世村領域データセット vector tiles (z7 extraction)","subarea_name":"近世村のおおよその範囲","feature_key":"village:K05G11S00003","accuracy_note":"2015年農業集落境界をもとに復元した概略範囲で、江戸時代の正確な村境ではありません"},"geometry":{"type":"MultiPolygon","coordinates":[[[[140.644226,35.706935],[140.650406,35.704705],[140.651779,35.70359],[140.63324,35.698571],[140.632553,35.700244],[140.634613,35.701359],[140.638733,35.701917],[140.638733,35.703032],[140.63736,35.704147],[140.644226,35.706935]]],[[[140.651093,35.70359],[140.652466,35.700244],[140.644913,35.700244],[140.634613,35.696341],[140.63324,35.698571],[140.651093,35.70359]]],[[[140.645599,35.700244],[140.647659,35.690206],[140.644913,35.689649],[140.63324,35.684072],[140.627747,35.698013],[140.632553,35.700244],[140.634613,35.696341],[140.645599,35.700244]]],[[[140.644913,35.689649],[140.646973,35.684629],[140.644913,35.684072],[140.642853,35.688533],[140.644913,35.689649]]],[[[140.652466,35.700244],[140.653152,35.693552],[140.655899,35.69411],[140.655899,35.692995],[140.647659,35.690206],[140.645599,35.700244],[140.652466,35.700244]]],[[[140.649033,35.690764],[140.651093,35.686302],[140.646973,35.684629],[140.644913,35.689649],[140.649033,35.690764]]],[[[140.644226,35.706935],[140.650406,35.704705],[140.651779,35.70359],[140.63324,35.698571],[140.632553,35.700244],[140.634613,35.701359],[140.638733,35.701917],[140.638733,35.703032],[140.63736,35.704147],[140.644226,35.706935]]],[[[140.651093,35.70359],[140.652466,35.700244],[140.644913,35.700244],[140.634613,35.696341],[140.63324,35.698571],[140.651093,35.70359]]],[[[140.645599,35.700244],[140.647659,35.690206],[140.644913,35.689649],[140.63324,35.684072],[140.627747,35.698013],[140.632553,35.700244],[140.634613,35.696341],[140.645599,35.700244]]],[[[140.644913,35.689649],[140.646973,35.684629],[140.644913,35.684072],[140.642853,35.688533],[140.644913,35.689649]]],[[[140.652466,35.700244],[140.653152,35.693552],[140.655899,35.69411],[140.655899,35.692995],[140.647659,35.690206],[140.645599,35.700244],[140.652466,35.700244]]],[[[140.649033,35.690764],[140.651093,35.686302],[140.646973,35.684629],[140.644913,35.689649],[140.649033,35.690764]]]]}},{"type":"Feature","properties":{"layer_id":"bakumatsu_villages","name":"井戸野","address":"下総 匝瑳郡","source":"Geoshape 幕末期近世村領域データセット vector tiles (z7 extraction)","subarea_name":"近世村のおおよその範囲","feature_key":"village:K05G10S00063","accuracy_note":"2015年農業集落境界をもとに復元した概略範囲で、江戸時代の正確な村境ではありません"},"geometry":{"type":"MultiPolygon","coordinates":[[[[140.62294,35.717528],[140.625,35.71028],[140.625,35.709165],[140.614014,35.707493],[140.608521,35.71251],[140.607834,35.714741],[140.611954,35.716413],[140.611267,35.717528],[140.616074,35.716971],[140.62294,35.717528]]],[[[140.618134,35.70805],[140.619507,35.706377],[140.621567,35.706377],[140.62088,35.704705],[140.615387,35.704147],[140.614014,35.707493],[140.618134,35.70805]]],[[[140.625,35.709165],[140.625687,35.70805],[140.628433,35.708608],[140.62912,35.70805],[140.626373,35.706377],[140.626373,35.707493],[140.625,35.706935],[140.619507,35.706377],[140.618134,35.70805],[140.625,35.709165]]],[[[140.628433,35.707493],[140.62706,35.704705],[140.625,35.704147],[140.624313,35.70359],[140.61882,35.699686],[140.615387,35.704147],[140.62088,35.704705],[140.621567,35.706377],[140.625,35.706935],[140.626373,35.707493],[140.626373,35.706377],[140.628433,35.707493]]],[[[140.62294,35.717528],[140.625,35.716971],[140.625687,35.714741],[140.63118,35.714741],[140.631866,35.713068],[140.6353,35.713068],[140.6353,35.710838],[140.63736,35.711395],[140.63736,35.71028],[140.632553,35.709723],[140.62912,35.70805],[140.628433,35.708608],[140.625687,35.70805],[140.625,35.71028],[140.62294,35.717528]]],[[[140.642853,35.682956],[140.642166,35.682956],[140.633926,35.678494],[140.63118,35.682956],[140.642853,35.688533],[140.644913,35.684072],[140.642853,35.682956]]],[[[140.62294,35.717528],[140.625,35.71028],[140.625,35.709165],[140.614014,35.707493],[140.608521,35.71251],[140.607834,35.714741],[140.611954,35.716413],[140.611267,35.717528],[140.616074,35.716971],[140.62294,35.717528]]],[[[140.618134,35.70805],[140.619507,35.706377],[140.621567,35.706377],[140.62088,35.704705],[140.615387,35.704147],[140.614014,35.707493],[140.618134,35.70805]]],[[[140.625,35.709165],[140.625687,35.70805],[140.628433,35.708608],[140.62912,35.70805],[140.626373,35.706377],[140.626373,35.707493],[140.625,35.706935],[140.619507,35.706377],[140.618134,35.70805],[140.625,35.709165]]],[[[140.628433,35.707493],[140.62706,35.704705],[140.625,35.704147],[140.624313,35.70359],[140.61882,35.699686],[140.615387,35.704147],[140.62088,35.704705],[140.621567,35.706377],[140.625,35.706935],[140.626373,35.707493],[140.626373,35.706377],[140.628433,35.707493]]],[[[140.62294,35.717528],[140.625,35.716971],[140.625687,35.714741],[140.63118,35.714741],[140.631866,35.713068],[140.6353,35.713068],[140.6353,35.710838],[140.63736,35.711395],[140.63736,35.71028],[140.632553,35.709723],[140.62912,35.70805],[140.628433,35.708608],[140.625687,35.70805],[140.625,35.71028],[140.62294,35.717528]]],[[[140.642853,35.682956],[140.642166,35.682956],[140.633926,35.678494],[140.63118,35.682956],[140.642853,35.688533],[140.644913,35.684072],[140.642853,35.682956]]]]}},{"type":"Feature","properties":{"layer_id":"bakumatsu_villages","name":"仁玉","address":"下総 海上郡","source":"Geoshape 幕末期近世村領域データセット vector tiles (z7 extraction)","subarea_name":"近世村のおおよその範囲","feature_key":"village:K05G11S00002","accuracy_note":"2015年農業集落境界をもとに復元した概略範囲で、江戸時代の正確な村境ではありません"},"geometry":{"type":"MultiPolygon","coordinates":[[[[140.640793,35.711395],[140.642166,35.709723],[140.643539,35.71028],[140.644226,35.706935],[140.63736,35.704147],[140.638733,35.703032],[140.638733,35.701917],[140.634613,35.701359],[140.630493,35.699686],[140.625,35.703032],[140.625,35.704147],[140.62706,35.704705],[140.628433,35.707493],[140.632553,35.709723],[140.636673,35.709723],[140.640793,35.711395]]],[[[140.655899,35.692995],[140.656586,35.689091],[140.654526,35.687976],[140.655212,35.686302],[140.653839,35.687418],[140.651093,35.686302],[140.649033,35.690764],[140.655899,35.692995]]],[[[140.640793,35.711395],[140.642166,35.709723],[140.643539,35.71028],[140.644226,35.706935],[140.63736,35.704147],[140.638733,35.703032],[140.638733,35.701917],[140.634613,35.701359],[140.630493,35.699686],[140.625,35.703032],[140.625,35.704147],[140.62706,35.704705],[140.628433,35.707493],[140.632553,35.709723],[140.636673,35.709723],[140.640793,35.711395]]],[[[140.655899,35.692995],[140.656586,35.689091],[140.654526,35.687976],[140.655212,35.686302],[140.653839,35.687418],[140.651093,35.686302],[140.649033,35.690764],[140.655899,35.692995]]]]}},{"type":"Feature","properties":{"layer_id":"bakumatsu_villages","name":"倉橋","address":"下総 海上郡","source":"Geoshape 幕末期近世村領域データセット vector tiles (z7 extraction)","subarea_name":"近世村のおおよその範囲","feature_key":"village:K05G11S00024","accuracy_note":"2015年農業集落境界をもとに復元した概略範囲で、江戸時代の正確な村境ではありません"},"geometry":{"type":"MultiPolygon","coordinates":[[[[140.718384,35.724218],[140.719757,35.724218],[140.71907,35.723103],[140.718384,35.724218]]],[[[140.718384,35.72589],[140.718384,35.724775],[140.717697,35.72589],[140.718384,35.72589]]],[[[140.717697,35.757657],[140.71907,35.758214],[140.720444,35.757657],[140.72113,35.759329],[140.723877,35.759329],[140.725937,35.756543],[140.72731,35.756543],[140.72731,35.754314],[140.72525,35.752642],[140.72731,35.752642],[140.725937,35.748741],[140.724564,35.74707],[140.723877,35.745955],[140.726624,35.745398],[140.724564,35.744283],[140.723877,35.740382],[140.723877,35.73871],[140.725937,35.73648],[140.723877,35.735366],[140.72525,35.731464],[140.721817,35.731464],[140.717697,35.728677],[140.717697,35.727005],[140.711517,35.726447],[140.712204,35.728677],[140.710831,35.732021],[140.709457,35.730349],[140.705338,35.732021],[140.705338,35.734808],[140.707397,35.741497],[140.703964,35.745398],[140.708771,35.745955],[140.712891,35.749299],[140.712891,35.7571],[140.714951,35.759329],[140.717697,35.758214],[140.717697,35.757657]],[[140.717697,35.757657],[140.71701,35.755428],[140.717697,35.752642],[140.718384,35.753199],[140.717697,35.757657]]],[[[140.711517,35.726447],[140.711517,35.724775],[140.710831,35.725332],[140.711517,35.726447]]]]}},{"type":"Feature","properties":{"layer_id":"bakumatsu_villages","name":"入野","address":"下総 香取郡","source":"Geoshape 幕末期近世村領域データセット vector tiles (z7 extraction)","subarea_name":"近世村のおおよその範囲","feature_key":"village:K05G09S00279","accuracy_note":"2015年農業集落境界をもとに復元した概略範囲で、江戸時代の正確な村境ではありません"},"geometry":{"type":"MultiPolygon","coordinates":[[[[140.626373,35.764901],[140.627747,35.761],[140.627747,35.759329],[140.625687,35.758214],[140.62706,35.753199],[140.625,35.752085],[140.625,35.752642],[140.623627,35.753757],[140.62294,35.752642],[140.61882,35.761558],[140.620193,35.761558],[140.619507,35.763786],[140.625,35.764343],[140.626373,35.764901]]],[[[140.6353,35.765458],[140.63942,35.755986],[140.6353,35.753199],[140.632553,35.7571],[140.63118,35.7571],[140.631866,35.759329],[140.629807,35.759886],[140.62912,35.759329],[140.62706,35.763229],[140.6353,35.765458]]],[[[140.626373,35.764901],[140.627747,35.761],[140.627747,35.759329],[140.625687,35.758214],[140.62706,35.753199],[140.625,35.752085],[140.625,35.752642],[140.623627,35.753757],[140.62294,35.752642],[140.61882,35.761558],[140.620193,35.761558],[140.619507,35.763786],[140.625,35.764343],[140.626373,35.764901]]],[[[140.6353,35.765458],[140.63942,35.755986],[140.6353,35.753199],[140.632553,35.7571],[140.63118,35.7571],[140.631866,35.759329],[140.629807,35.759886],[140.62912,35.759329],[140.62706,35.763229],[140.6353,35.765458]]]]}},{"type":"Feature","properties":{"layer_id":"bakumatsu_villages","name":"十日市場","address":"下総 海上郡","source":"Geoshape 幕末期近世村領域データセット vector tiles (z7 extraction)","subarea_name":"近世村のおおよその範囲","feature_key":"village:K05G11S00004","accuracy_note":"2015年農業集落境界をもとに復元した概略範囲で、江戸時代の正確な村境ではありません"},"geometry":{"type":"MultiPolygon","coordinates":[[[[140.651779,35.718643],[140.657959,35.715856],[140.660019,35.710838],[140.649719,35.711395],[140.645599,35.713625],[140.649033,35.716413],[140.649719,35.718643],[140.651779,35.718643]]],[[[140.645599,35.713625],[140.649719,35.711395],[140.660019,35.710838],[140.660706,35.707493],[140.651093,35.707493],[140.650406,35.704705],[140.645599,35.70582],[140.642853,35.708608],[140.643539,35.71028],[140.642166,35.709723],[140.640793,35.711395],[140.645599,35.713625]]],[[[140.657959,35.693552],[140.658646,35.691322],[140.659332,35.690206],[140.656586,35.689091],[140.656586,35.691322],[140.655899,35.692995],[140.657959,35.693552]]],[[[140.651779,35.718643],[140.657959,35.715856],[140.660019,35.710838],[140.649719,35.711395],[140.645599,35.713625],[140.649033,35.716413],[140.649719,35.718643],[140.651779,35.718643]]],[[[140.645599,35.713625],[140.649719,35.711395],[140.660019,35.710838],[140.660706,35.707493],[140.651093,35.707493],[140.650406,35.704705],[140.645599,35.70582],[140.642853,35.708608],[140.643539,35.71028],[140.642166,35.709723],[140.640793,35.711395],[140.645599,35.713625]]],[[[140.657959,35.693552],[140.658646,35.691322],[140.659332,35.690206],[140.656586,35.689091],[140.656586,35.691322],[140.655899,35.692995],[140.657959,35.693552]]]]}},{"type":"Feature","properties":{"layer_id":"bakumatsu_villages","name":"南堀ノ内","address":"下総 香取郡","source":"Geoshape 幕末期近世村領域データセット vector tiles (z7 extraction)","subarea_name":"近世村のおおよその範囲","feature_key":"village:K05G09S00269","accuracy_note":"2015年農業集落境界をもとに復元した概略範囲で、江戸時代の正確な村境ではありません"},"geometry":{"type":"MultiPolygon","coordinates":[[[[140.600967,35.773258],[140.606461,35.771029],[140.608521,35.770472],[140.611267,35.771586],[140.61882,35.769358],[140.61882,35.766572],[140.61264,35.763786],[140.611267,35.765458],[140.61058,35.764901],[140.611267,35.763229],[140.607147,35.762115],[140.605087,35.766015],[140.600967,35.773258]]],[[[140.600967,35.773258],[140.606461,35.771029],[140.608521,35.770472],[140.611267,35.771586],[140.61882,35.769358],[140.61882,35.766572],[140.61264,35.763786],[140.611267,35.765458],[140.61058,35.764901],[140.611267,35.763229],[140.607147,35.762115],[140.605087,35.766015],[140.600967,35.773258]]]]}},{"type":"Feature","properties":{"layer_id":"bakumatsu_villages","name":"塙","address":"下総 海上郡","source":"Geoshape 幕末期近世村領域データセット vector tiles (z7 extraction)","subarea_name":"近世村のおおよその範囲","feature_key":"village:K05G11S00032","accuracy_note":"2015年農業集落境界をもとに復元した概略範囲で、江戸時代の正確な村境ではありません"},"geometry":{"type":"MultiPolygon","coordinates":[[[[140.744476,35.738153],[140.744476,35.734808],[140.74379,35.733136],[140.745163,35.734251],[140.745163,35.732021],[140.747223,35.730349],[140.74791,35.72812],[140.747223,35.725332],[140.748596,35.724218],[140.74379,35.723103],[140.742416,35.722545],[140.74379,35.720873],[140.741043,35.721988],[140.73967,35.720873],[140.738983,35.7192],[140.73967,35.718085],[140.738297,35.716413],[140.736923,35.716971],[140.73555,35.719758],[140.734177,35.7192],[140.726624,35.72143],[140.726624,35.721988],[140.717697,35.721988],[140.719757,35.724218],[140.718384,35.724218],[140.717697,35.72812],[140.721817,35.731464],[140.72525,35.731464],[140.724564,35.733694],[140.728683,35.732021],[140.73143,35.733694],[140.732117,35.732579],[140.72937,35.731464],[140.730743,35.730907],[140.73555,35.733694],[140.736237,35.734808],[140.738297,35.733136],[140.741043,35.737595],[140.73967,35.73871],[140.744476,35.74484],[140.744476,35.745955],[140.74585,35.745398],[140.744476,35.742611],[140.74585,35.740939],[140.744476,35.739825],[140.745163,35.73871],[140.744476,35.738153]],[[140.744476,35.738153],[140.743103,35.738153],[140.740356,35.735366],[140.744476,35.738153]]],[[[140.726624,35.721988],[140.726624,35.72143],[140.732803,35.719758],[140.725937,35.7192],[140.72731,35.715856],[140.72937,35.715298],[140.727997,35.714183],[140.72731,35.711395],[140.727997,35.707493],[140.722504,35.71028],[140.722504,35.711395],[140.71907,35.713068],[140.719757,35.713625],[140.717697,35.715856],[140.714951,35.714183],[140.712204,35.715856],[140.712204,35.717528],[140.714951,35.72143],[140.717697,35.720873],[140.717697,35.721988],[140.726624,35.721988]]],[[[140.732803,35.719758],[140.734863,35.7192],[140.73555,35.719758],[140.736923,35.716971],[140.738297,35.716413],[140.736923,35.713068],[140.73555,35.713625],[140.732117,35.705262],[140.727997,35.707493],[140.72731,35.711395],[140.727997,35.714183],[140.72937,35.715298],[140.72731,35.715856],[140.725937,35.719758],[140.732803,35.719758]]]]}},{"type":"Feature","properties":{"layer_id":"bakumatsu_villages","name":"大塚原","address":"下総 匝瑳郡","source":"Geoshape 幕末期近世村領域データセット vector tiles (z7 extraction)","subarea_name":"近世村のおおよその範囲","feature_key":"village:K05G10S00061","accuracy_note":"2015年農業集落境界をもとに復元した概略範囲で、江戸時代の正確な村境ではありません"},"geometry":{"type":"MultiPolygon","coordinates":[[[[140.609207,35.689649],[140.603027,35.692437],[140.601654,35.693552],[140.602341,35.696898],[140.605087,35.697456],[140.605774,35.699686],[140.607834,35.700244],[140.607147,35.701359],[140.609894,35.701917],[140.61058,35.699686],[140.607834,35.699129],[140.608521,35.697456],[140.611267,35.698571],[140.611954,35.697456],[140.614014,35.697456],[140.61058,35.688533],[140.609894,35.689649],[140.609207,35.689649]]],[[[140.609207,35.689649],[140.603027,35.692437],[140.601654,35.693552],[140.602341,35.696898],[140.605087,35.697456],[140.605774,35.699686],[140.607834,35.700244],[140.607147,35.701359],[140.609894,35.701917],[140.61058,35.699686],[140.607834,35.699129],[140.608521,35.697456],[140.611267,35.698571],[140.611954,35.697456],[140.614014,35.697456],[140.61058,35.688533],[140.609894,35.689649],[140.609207,35.689649]]]]}},{"type":"Feature","properties":{"layer_id":"bakumatsu_villages","name":"大間手","address":"下総 海上郡","source":"Geoshape 幕末期近世村領域データセット vector tiles (z7 extraction)","subarea_name":"近世村のおおよその範囲","feature_key":"village:K05G11S00016","accuracy_note":"2015年農業集落境界をもとに復元した概略範囲で、江戸時代の正確な村境ではありません"},"geometry":{"type":"Polygon","coordinates":[[[140.688171,35.750413],[140.690918,35.749299],[140.690231,35.748741],[140.693665,35.745398],[140.695724,35.737038],[140.695038,35.737595],[140.687485,35.735366],[140.685425,35.742611],[140.687485,35.743168],[140.681305,35.748184],[140.688171,35.750413]]]}},{"type":"Feature","properties":{"layer_id":"bakumatsu_villages","name":"太田","address":"下総 匝瑳郡","source":"Geoshape 幕末期近世村領域データセット vector tiles (z7 extraction)","subarea_name":"近世村のおおよその範囲","feature_key":"village:K05G10S00066","accuracy_note":"2015年農業集落境界をもとに復元した概略範囲で、江戸時代の正確な村境ではありません"},"geometry":{"type":"MultiPolygon","coordinates":[[[[140.597534,35.722545],[140.603027,35.720873],[140.604401,35.7192],[140.598907,35.717528],[140.597534,35.722545]]],[[[140.62294,35.724218],[140.62294,35.720873],[140.624313,35.716971],[140.62294,35.717528],[140.616074,35.716971],[140.61264,35.717528],[140.600281,35.714741],[140.598907,35.716971],[140.598907,35.717528],[140.604401,35.7192],[140.61058,35.7192],[140.613327,35.721988],[140.617447,35.722545],[140.620193,35.724218],[140.62294,35.724218]]],[[[140.633926,35.727562],[140.634613,35.726447],[140.641479,35.727005],[140.643539,35.72589],[140.644913,35.72366],[140.635986,35.722545],[140.636673,35.72143],[140.625,35.720873],[140.62294,35.720873],[140.62294,35.724218],[140.625,35.724218],[140.625,35.724775],[140.62706,35.724218],[140.628433,35.72589],[140.630493,35.726447],[140.633926,35.726447],[140.633926,35.727562]]],[[[140.636673,35.72143],[140.63736,35.720315],[140.63942,35.720315],[140.640106,35.716413],[140.642166,35.716413],[140.642166,35.711953],[140.640793,35.711395],[140.63736,35.71028],[140.63736,35.711395],[140.6353,35.710838],[140.6353,35.713068],[140.631866,35.713068],[140.63118,35.714741],[140.625687,35.714741],[140.625,35.716971],[140.62294,35.720315],[140.625,35.720873],[140.636673,35.72143]]],[[[140.640793,35.723103],[140.640793,35.720315],[140.642166,35.719758],[140.640106,35.7192],[140.63942,35.718643],[140.63942,35.720315],[140.63736,35.720315],[140.635986,35.722545],[140.640793,35.723103]]],[[[140.644913,35.72366],[140.646973,35.720315],[140.649719,35.7192],[140.649719,35.717528],[140.642166,35.711953],[140.642166,35.716413],[140.640106,35.716971],[140.640106,35.7192],[140.642166,35.719758],[140.640793,35.720315],[140.640793,35.723103],[140.644913,35.72366]]],[[[140.646973,35.730349],[140.651779,35.727562],[140.653152,35.727562],[140.651779,35.726447],[140.651093,35.724775],[140.646973,35.72366],[140.646286,35.722545],[140.644913,35.722545],[140.643539,35.72589],[140.641479,35.727005],[140.645599,35.728677],[140.646973,35.730349]]],[[[140.649033,35.731464],[140.657272,35.729234],[140.658646,35.730349],[140.662079,35.72812],[140.664139,35.727005],[140.657959,35.72589],[140.657272,35.726447],[140.655899,35.726447],[140.655899,35.725332],[140.651093,35.724775],[140.651779,35.726447],[140.653152,35.727562],[140.651779,35.727562],[140.646973,35.730349],[140.649033,35.731464]]],[[[140.597534,35.722545],[140.603027,35.720873],[140.604401,35.7192],[140.598907,35.717528],[140.597534,35.722545]]],[[[140.62294,35.724218],[140.62294,35.720873],[140.624313,35.716971],[140.62294,35.717528],[140.616074,35.716971],[140.61264,35.717528],[140.600281,35.714741],[140.598907,35.716971],[140.598907,35.717528],[140.604401,35.7192],[140.61058,35.7192],[140.613327,35.721988],[140.617447,35.722545],[140.620193,35.724218],[140.62294,35.724218]]],[[[140.633926,35.727562],[140.634613,35.726447],[140.641479,35.727005],[140.643539,35.72589],[140.644913,35.72366],[140.635986,35.722545],[140.636673,35.72143],[140.625,35.720873],[140.62294,35.720873],[140.62294,35.724218],[140.62706,35.724218],[140.628433,35.72589],[140.630493,35.726447],[140.633926,35.726447],[140.633926,35.727562]]],[[[140.636673,35.72143],[140.63736,35.720315],[140.63942,35.720315],[140.640106,35.716413],[140.642166,35.716413],[140.642166,35.711953],[140.640793,35.711395],[140.63736,35.71028],[140.63736,35.711395],[140.6353,35.710838],[140.6353,35.713068],[140.631866,35.713068],[140.63118,35.714741],[140.625687,35.714741],[140.625,35.716971],[140.62294,35.720315],[140.625,35.720873],[140.636673,35.72143]]],[[[140.640793,35.723103],[140.640793,35.720315],[140.642166,35.719758],[140.640106,35.7192],[140.63942,35.718643],[140.63942,35.720315],[140.63736,35.720315],[140.635986,35.722545],[140.640793,35.723103]]],[[[140.644913,35.72366],[140.646973,35.720315],[140.649719,35.7192],[140.649719,35.717528],[140.642166,35.711953],[140.642166,35.716413],[140.640106,35.716971],[140.640106,35.7192],[140.642166,35.719758],[140.640793,35.720315],[140.640793,35.723103],[140.644913,35.72366]]],[[[140.646973,35.730349],[140.651779,35.727562],[140.653152,35.727562],[140.651779,35.726447],[140.651093,35.724775],[140.646973,35.72366],[140.646286,35.722545],[140.644913,35.722545],[140.643539,35.72589],[140.641479,35.727005],[140.645599,35.728677],[140.646973,35.730349]]],[[[140.649033,35.731464],[140.657272,35.729234],[140.658646,35.730349],[140.662079,35.72812],[140.664139,35.727005],[140.657959,35.72589],[140.657272,35.726447],[140.655899,35.726447],[140.655899,35.725332],[140.651093,35.724775],[140.651779,35.726447],[140.653152,35.727562],[140.651779,35.727562],[140.646973,35.730349],[140.649033,35.731464]]]]}},{"type":"Feature","properties":{"layer_id":"bakumatsu_villages","name":"岩井","address":"下総 海上郡","source":"Geoshape 幕末期近世村領域データセット vector tiles (z7 extraction)","subarea_name":"近世村のおおよその範囲","feature_key":"village:K05G11S00021","accuracy_note":"2015年農業集落境界をもとに復元した概略範囲で、江戸時代の正確な村境ではありません"},"geometry":{"type":"MultiPolygon","coordinates":[[[[140.715637,35.759329],[140.714951,35.759329],[140.713577,35.7571],[140.710831,35.756543],[140.710831,35.7571],[140.707397,35.755986],[140.705338,35.753199],[140.706024,35.749299],[140.704651,35.753199],[140.700531,35.749856],[140.697784,35.75097],[140.692291,35.749299],[140.688858,35.75097],[140.688171,35.750413],[140.686111,35.752642],[140.685425,35.754871],[140.687485,35.7571],[140.687485,35.763786],[140.690918,35.762672],[140.693665,35.763229],[140.692978,35.764901],[140.695038,35.764343],[140.694351,35.764901],[140.695724,35.765458],[140.695038,35.766572],[140.697098,35.768801],[140.696411,35.769915],[140.699158,35.771029],[140.701218,35.770472],[140.706024,35.772143],[140.706711,35.771029],[140.706711,35.768801],[140.705338,35.766572],[140.706711,35.765458],[140.707397,35.761558],[140.712891,35.761558],[140.715637,35.759329]]],[[[140.715637,35.759329],[140.71701,35.760443],[140.718384,35.758772],[140.719757,35.759329],[140.720444,35.758772],[140.720444,35.757657],[140.71907,35.758214],[140.717697,35.757657],[140.717697,35.758214],[140.716324,35.758214],[140.71701,35.758772],[140.715637,35.759329]]],[[[140.717697,35.757657],[140.717697,35.752642],[140.71701,35.755428],[140.717697,35.757657]]]]}},{"type":"Feature","properties":{"layer_id":"bakumatsu_villages","name":"岩崎・横根","address":"下総 海上郡","source":"Geoshape 幕末期近世村領域データセット vector tiles (z7 extraction)","subarea_name":"近世村のおおよその範囲","feature_key":"village:K05G11S00026,K05G11S00030","accuracy_note":"2015年農業集落境界をもとに復元した概略範囲で、江戸時代の正確な村境ではありません"},"geometry":{"type":"Polygon","coordinates":[[[140.717697,35.715856],[140.719757,35.713625],[140.71907,35.713068],[140.722504,35.711395],[140.720444,35.711395],[140.717697,35.707493],[140.715637,35.70805],[140.714951,35.707493],[140.716324,35.70359],[140.714951,35.700244],[140.711517,35.700244],[140.712204,35.700802],[140.711517,35.700802],[140.712891,35.704705],[140.714264,35.706377],[140.710831,35.70805],[140.714951,35.714183],[140.717697,35.715856]]]}},{"type":"Feature","properties":{"layer_id":"bakumatsu_villages","name":"川口","address":"下総 匝瑳郡","source":"Geoshape 幕末期近世村領域データセット vector tiles (z7 extraction)","subarea_name":"近世村のおおよその範囲","feature_key":"village:K05G10S00065","accuracy_note":"2015年農業集落境界をもとに復元した概略範囲で、江戸時代の正確な村境ではありません"},"geometry":{"type":"MultiPolygon","coordinates":[[[[140.599594,35.714741],[140.598907,35.715298],[140.596161,35.714183],[140.593414,35.71251],[140.594101,35.711953],[140.581055,35.708608],[140.578308,35.713068],[140.585175,35.716971],[140.589981,35.718643],[140.595474,35.716971],[140.598907,35.717528],[140.599594,35.714741]]],[[[140.599594,35.714741],[140.603027,35.715856],[140.604401,35.713068],[140.603027,35.71251],[140.601654,35.714183],[140.600281,35.713625],[140.599594,35.714741]]],[[[140.599594,35.714741],[140.600281,35.713625],[140.600967,35.713068],[140.596161,35.714183],[140.599594,35.714741]]],[[[140.611267,35.717528],[140.611954,35.716413],[140.608521,35.715298],[140.605087,35.714741],[140.603027,35.715856],[140.607834,35.716971],[140.611267,35.717528]]],[[[140.603714,35.715298],[140.607834,35.714741],[140.609207,35.711953],[140.605087,35.711395],[140.605774,35.71028],[140.603714,35.709723],[140.602341,35.710838],[140.602341,35.71251],[140.604401,35.713068],[140.603714,35.715298]]],[[[140.596161,35.714183],[140.600967,35.713068],[140.600281,35.713625],[140.602341,35.713625],[140.602341,35.710838],[140.603714,35.709723],[140.605774,35.71028],[140.605087,35.711395],[140.609207,35.711953],[140.613327,35.709165],[140.607147,35.70582],[140.606461,35.70805],[140.604401,35.707493],[140.603714,35.709165],[140.600281,35.70805],[140.598907,35.711953],[140.597534,35.711395],[140.597534,35.709723],[140.596161,35.709723],[140.596161,35.70805],[140.592728,35.70805],[140.591354,35.711395],[140.594101,35.711953],[140.593414,35.71251],[140.596161,35.714183]]],[[[140.599594,35.714741],[140.598907,35.715298],[140.596161,35.714183],[140.593414,35.71251],[140.594101,35.711953],[140.581055,35.708608],[140.578308,35.713068],[140.585175,35.716971],[140.589981,35.718643],[140.595474,35.716971],[140.598907,35.717528],[140.599594,35.714741]]],[[[140.599594,35.714741],[140.603027,35.715856],[140.604401,35.713068],[140.603027,35.71251],[140.601654,35.714183],[140.600281,35.713625],[140.599594,35.714741]]],[[[140.599594,35.714741],[140.600281,35.713625],[140.600967,35.713068],[140.596161,35.714183],[140.599594,35.714741]]],[[[140.611267,35.717528],[140.611954,35.716413],[140.608521,35.715298],[140.605087,35.714741],[140.603027,35.715856],[140.607834,35.716971],[140.611267,35.717528]]],[[[140.603714,35.715298],[140.607834,35.714741],[140.609207,35.711953],[140.605087,35.711395],[140.605774,35.71028],[140.603714,35.709723],[140.602341,35.710838],[140.602341,35.71251],[140.604401,35.713068],[140.603714,35.715298]]],[[[140.596161,35.714183],[140.600967,35.713068],[140.600281,35.713625],[140.602341,35.713625],[140.602341,35.710838],[140.603714,35.709723],[140.605774,35.71028],[140.605087,35.711395],[140.609207,35.711953],[140.613327,35.709165],[140.607147,35.70582],[140.606461,35.70805],[140.604401,35.707493],[140.603714,35.709165],[140.600281,35.70805],[140.598907,35.711953],[140.597534,35.711395],[140.597534,35.709723],[140.596161,35.709723],[140.596161,35.70805],[140.592728,35.70805],[140.591354,35.711395],[140.594101,35.711953],[140.593414,35.71251],[140.596161,35.714183]]]]}},{"type":"Feature","properties":{"layer_id":"bakumatsu_villages","name":"平松","address":"下総 海上郡","source":"Geoshape 幕末期近世村領域データセット vector tiles (z7 extraction)","subarea_name":"近世村のおおよその範囲","feature_key":"village:K05G11S00031","accuracy_note":"2015年農業集落境界をもとに復元した概略範囲で、江戸時代の正確な村境ではありません"},"geometry":{"type":"Polygon","coordinates":[[[140.720444,35.711395],[140.725937,35.709165],[140.725937,35.70805],[140.724564,35.708608],[140.72113,35.70359],[140.720444,35.702474],[140.721817,35.701917],[140.719757,35.699129],[140.714951,35.700244],[140.716324,35.70359],[140.714951,35.707493],[140.715637,35.70805],[140.717697,35.707493],[140.720444,35.711395]]]}},{"type":"Feature","properties":{"layer_id":"bakumatsu_villages","name":"幾世","address":"下総 海上郡","source":"Geoshape 幕末期近世村領域データセット vector tiles (z7 extraction)","subarea_name":"近世村のおおよその範囲","feature_key":"village:K05G11S00019","accuracy_note":"2015年農業集落境界をもとに復元した概略範囲で、江戸時代の正確な村境ではありません"},"geometry":{"type":"MultiPolygon","coordinates":[[[[140.679932,35.776043],[140.679932,35.764901],[140.670319,35.765458],[140.673752,35.7727],[140.677872,35.773815],[140.677185,35.774372],[140.679932,35.776043]]],[[[140.681305,35.781057],[140.682678,35.779385],[140.683365,35.779943],[140.685425,35.778271],[140.689545,35.7727],[140.689545,35.769358],[140.687485,35.763786],[140.670319,35.765458],[140.673752,35.7727],[140.677872,35.773815],[140.677185,35.774372],[140.682678,35.777714],[140.681305,35.781057]]]]}},{"type":"Feature","properties":{"layer_id":"bakumatsu_villages","name":"後草","address":"下総 海上郡","source":"Geoshape 幕末期近世村領域データセット vector tiles (z7 extraction)","subarea_name":"近世村のおおよその範囲","feature_key":"village:K05G11S00012","accuracy_note":"2015年農業集落境界をもとに復元した概略範囲で、江戸時代の正確な村境ではありません"},"geometry":{"type":"MultiPolygon","coordinates":[[[[140.675812,35.735366],[140.679932,35.734808],[140.679932,35.72143],[140.675812,35.72812],[140.672379,35.730349],[140.669632,35.730907],[140.670319,35.734808],[140.674438,35.734251],[140.673752,35.734808],[140.675812,35.735366]]],[[[140.675812,35.735366],[140.684052,35.733694],[140.687485,35.732021],[140.692978,35.733694],[140.692978,35.732579],[140.680618,35.729234],[140.681992,35.72812],[140.680618,35.72366],[140.682678,35.724775],[140.684738,35.72366],[140.682678,35.719758],[140.679932,35.720873],[140.675812,35.72812],[140.672379,35.730349],[140.669632,35.730907],[140.670319,35.734808],[140.674438,35.734251],[140.673752,35.734808],[140.675812,35.735366]]],[[[140.690918,35.731464],[140.688858,35.729792],[140.686111,35.72366],[140.684052,35.722545],[140.684738,35.72366],[140.682678,35.724775],[140.680618,35.72366],[140.681992,35.72812],[140.680618,35.729234],[140.690918,35.731464]]]]}},{"type":"Feature","properties":{"layer_id":"bakumatsu_villages","name":"成田","address":"下総 海上郡","source":"Geoshape 幕末期近世村領域データセット vector tiles (z7 extraction)","subarea_name":"近世村のおおよその範囲","feature_key":"village:K05G11S00005","accuracy_note":"2015年農業集落境界をもとに復元した概略範囲で、江戸時代の正確な村境ではありません"},"geometry":{"type":"MultiPolygon","coordinates":[[[[140.656586,35.725332],[140.657959,35.724775],[140.658646,35.723103],[140.648346,35.72143],[140.646286,35.72143],[140.646286,35.722545],[140.647659,35.72366],[140.656586,35.725332]]],[[[140.658646,35.723103],[140.658646,35.719758],[140.660019,35.719758],[140.660019,35.716413],[140.659332,35.715856],[140.651779,35.718643],[140.649719,35.718643],[140.646286,35.72143],[140.658646,35.723103]]],[[[140.656586,35.725332],[140.657959,35.724775],[140.658646,35.723103],[140.648346,35.72143],[140.646286,35.72143],[140.646286,35.722545],[140.647659,35.72366],[140.656586,35.725332]]],[[[140.658646,35.723103],[140.658646,35.719758],[140.660019,35.719758],[140.660019,35.716413],[140.659332,35.715856],[140.651779,35.718643],[140.649719,35.718643],[140.646286,35.72143],[140.658646,35.723103]]]]}},{"type":"Feature","properties":{"layer_id":"bakumatsu_villages","name":"新町","address":"下総 匝瑳郡","source":"Geoshape 幕末期近世村領域データセット vector tiles (z7 extraction)","subarea_name":"近世村のおおよその範囲","feature_key":"village:K05G10S00069","accuracy_note":"2015年農業集落境界をもとに復元した概略範囲で、江戸時代の正確な村境ではありません"},"geometry":{"type":"MultiPolygon","coordinates":[[[[140.628433,35.761],[140.62912,35.759329],[140.629807,35.759886],[140.631866,35.759329],[140.63118,35.7571],[140.632553,35.7571],[140.633926,35.754871],[140.626373,35.750413],[140.625,35.752085],[140.62706,35.753199],[140.625687,35.758772],[140.627747,35.759329],[140.62706,35.760443],[140.628433,35.761]]],[[[140.633926,35.754871],[140.6353,35.752642],[140.628433,35.748184],[140.626373,35.750413],[140.633926,35.754871]]],[[[140.6353,35.752642],[140.640793,35.746512],[140.640106,35.745398],[140.634613,35.743168],[140.631866,35.746512],[140.632553,35.749856],[140.629807,35.748741],[140.6353,35.752642]]],[[[140.640106,35.745398],[140.642166,35.74484],[140.641479,35.743168],[140.643539,35.743168],[140.643539,35.740939],[140.640793,35.739825],[140.641479,35.73648],[140.638046,35.735923],[140.63736,35.738153],[140.63942,35.73871],[140.638733,35.740382],[140.63736,35.740382],[140.63736,35.741497],[140.635986,35.740939],[140.634613,35.743168],[140.640106,35.745398]]],[[[140.628433,35.761],[140.62912,35.759329],[140.629807,35.759886],[140.631866,35.759329],[140.63118,35.7571],[140.632553,35.7571],[140.633926,35.754871],[140.626373,35.750413],[140.625,35.752085],[140.62706,35.753199],[140.625687,35.758772],[140.627747,35.759329],[140.62706,35.760443],[140.628433,35.761]]],[[[140.633926,35.754871],[140.6353,35.752642],[140.628433,35.748184],[140.626373,35.750413],[140.633926,35.754871]]],[[[140.6353,35.752642],[140.640793,35.746512],[140.640106,35.745398],[140.634613,35.743168],[140.631866,35.746512],[140.632553,35.749856],[140.629807,35.748741],[140.6353,35.752642]]],[[[140.640106,35.745398],[140.642166,35.74484],[140.641479,35.743168],[140.643539,35.743168],[140.643539,35.740939],[140.640793,35.739825],[140.641479,35.73648],[140.638046,35.735923],[140.63736,35.738153],[140.63942,35.73871],[140.638733,35.740382],[140.63736,35.740382],[140.63736,35.741497],[140.635986,35.740939],[140.634613,35.743168],[140.640106,35.745398]]]]}},{"type":"Feature","properties":{"layer_id":"bakumatsu_villages","name":"東足洗","address":"下総 海上郡","source":"Geoshape 幕末期近世村領域データセット vector tiles (z7 extraction)","subarea_name":"近世村のおおよその範囲","feature_key":"village:K05G11S00009","accuracy_note":"2015年農業集落境界をもとに復元した概略範囲で、江戸時代の正確な村境ではありません"},"geometry":{"type":"MultiPolygon","coordinates":[[[[140.679932,35.717528],[140.679932,35.70805],[140.673065,35.707493],[140.673065,35.711953],[140.670319,35.716413],[140.673752,35.715856],[140.675125,35.717528],[140.679932,35.717528]]],[[[140.681992,35.718643],[140.682678,35.718085],[140.682678,35.71251],[140.684052,35.711395],[140.679932,35.710838],[140.679932,35.70805],[140.673065,35.707493],[140.673065,35.711953],[140.670319,35.716413],[140.673752,35.715856],[140.675125,35.717528],[140.678558,35.717528],[140.681992,35.718643]]]]}},{"type":"Feature","properties":{"layer_id":"bakumatsu_villages","name":"松ヶ谷","address":"下総 海上郡","source":"Geoshape 幕末期近世村領域データセット vector tiles (z7 extraction)","subarea_name":"近世村のおおよその範囲","feature_key":"village:K05G11S00020","accuracy_note":"2015年農業集落境界をもとに復元した概略範囲で、江戸時代の正確な村境ではありません"},"geometry":{"type":"Polygon","coordinates":[[[140.687485,35.783285],[140.689545,35.781057],[140.691605,35.781614],[140.697784,35.7766],[140.696411,35.774929],[140.699844,35.774372],[140.701904,35.771029],[140.699158,35.771029],[140.696411,35.769915],[140.697098,35.768801],[140.695038,35.766572],[140.695724,35.765458],[140.694351,35.764901],[140.695038,35.764343],[140.692978,35.764901],[140.693665,35.763229],[140.690918,35.762672],[140.687485,35.763786],[140.689545,35.769358],[140.689545,35.772143],[140.683365,35.779943],[140.684052,35.781057],[140.687485,35.783285]]]}},{"type":"Feature","properties":{"layer_id":"bakumatsu_villages","name":"松沢","address":"下総 香取郡","source":"Geoshape 幕末期近世村領域データセット vector tiles (z7 extraction)","subarea_name":"近世村のおおよその範囲","feature_key":"village:K05G09S00270","accuracy_note":"2015年農業集落境界をもとに復元した概略範囲で、江戸時代の正確な村境ではありません"},"geometry":{"type":"MultiPolygon","coordinates":[[[[140.608521,35.781057],[140.61058,35.7766],[140.616074,35.777157],[140.620193,35.772143],[140.61882,35.771029],[140.620193,35.769915],[140.61882,35.769358],[140.611267,35.771586],[140.608521,35.770472],[140.606461,35.771029],[140.600281,35.773258],[140.600281,35.774372],[140.603027,35.773815],[140.601654,35.774929],[140.604401,35.777714],[140.607147,35.778271],[140.608521,35.781057]]],[[[140.62294,35.772143],[140.623627,35.769915],[140.625,35.769358],[140.626373,35.764901],[140.625,35.764343],[140.619507,35.763786],[140.618134,35.767686],[140.61882,35.769358],[140.620193,35.769915],[140.61882,35.771029],[140.62294,35.772143]]],[[[140.608521,35.781057],[140.61058,35.7766],[140.616074,35.777157],[140.620193,35.772143],[140.61882,35.771029],[140.620193,35.769915],[140.61882,35.769358],[140.611267,35.771586],[140.608521,35.770472],[140.606461,35.771029],[140.600281,35.773258],[140.600281,35.774372],[140.603027,35.773815],[140.601654,35.774929],[140.604401,35.777714],[140.607147,35.778271],[140.608521,35.781057]]],[[[140.62294,35.772143],[140.623627,35.769915],[140.625,35.769358],[140.626373,35.764901],[140.625,35.764343],[140.619507,35.763786],[140.618134,35.767686],[140.61882,35.769358],[140.620193,35.769915],[140.61882,35.771029],[140.62294,35.772143]]]]}},{"type":"Feature","properties":{"layer_id":"bakumatsu_villages","name":"桜井","address":"下総 香取郡","source":"Geoshape 幕末期近世村領域データセット vector tiles (z7 extraction)","subarea_name":"近世村のおおよその範囲","feature_key":"village:K05G09S00196","accuracy_note":"2015年農業集落境界をもとに復元した概略範囲で、江戸時代の正確な村境ではありません"},"geometry":{"type":"MultiPolygon","coordinates":[[[[140.645599,35.788298],[140.651093,35.787741],[140.651093,35.785513],[140.646286,35.7766],[140.640106,35.7727],[140.638733,35.774929],[140.638046,35.773815],[140.636673,35.774372],[140.635986,35.778828],[140.638733,35.779385],[140.638046,35.786627],[140.645599,35.788298]]],[[[140.645599,35.788298],[140.651093,35.787741],[140.651093,35.785513],[140.646286,35.7766],[140.640106,35.7727],[140.638733,35.774929],[140.638046,35.773815],[140.636673,35.774372],[140.635986,35.778828],[140.638733,35.779385],[140.638046,35.786627],[140.645599,35.788298]]]]}},{"type":"Feature","properties":{"layer_id":"bakumatsu_villages","name":"椎名内","address":"下総 海上郡","source":"Geoshape 幕末期近世村領域データセット vector tiles (z7 extraction)","subarea_name":"近世村のおおよその範囲","feature_key":"village:K05G11S00007","accuracy_note":"2015年農業集落境界をもとに復元した概略範囲で、江戸時代の正確な村境ではありません"},"geometry":{"type":"MultiPolygon","coordinates":[[[[140.671005,35.707493],[140.671005,35.705262],[140.672379,35.70359],[140.671005,35.703032],[140.671692,35.700802],[140.670319,35.700802],[140.671005,35.698571],[140.666199,35.696898],[140.664825,35.694668],[140.662079,35.699129],[140.662766,35.706935],[140.671005,35.707493]]],[[[140.671005,35.698571],[140.672379,35.693552],[140.666199,35.690764],[140.664825,35.694668],[140.666199,35.696898],[140.671005,35.698571]]],[[[140.671005,35.707493],[140.671005,35.705262],[140.672379,35.70359],[140.671005,35.703032],[140.671692,35.700802],[140.670319,35.700802],[140.671005,35.698571],[140.666199,35.696898],[140.664825,35.694668],[140.662079,35.699129],[140.662766,35.706935],[140.671005,35.707493]]],[[[140.671005,35.698571],[140.672379,35.693552],[140.666199,35.690764],[140.664825,35.694668],[140.666199,35.696898],[140.671005,35.698571]]]]}},{"type":"Feature","properties":{"layer_id":"bakumatsu_villages","name":"権田沼新田","address":"下総 海上郡","source":"Geoshape 幕末期近世村領域データセット vector tiles (z7 extraction)","subarea_name":"近世村のおおよその範囲","feature_key":"village:K05G11S00028","accuracy_note":"2015年農業集落境界をもとに復元した概略範囲で、江戸時代の正確な村境ではありません"},"geometry":{"type":"Polygon","coordinates":[[[140.688171,35.72366],[140.690918,35.722545],[140.688858,35.719758],[140.693665,35.717528],[140.691605,35.714741],[140.698471,35.711395],[140.698471,35.709723],[140.685425,35.713625],[140.683365,35.715298],[140.682678,35.718085],[140.684052,35.722545],[140.686111,35.72366],[140.688171,35.72366]]]}},{"type":"Feature","properties":{"layer_id":"bakumatsu_villages","name":"江ヶ崎","address":"下総 海上郡","source":"Geoshape 幕末期近世村領域データセット vector tiles (z7 extraction)","subarea_name":"近世村のおおよその範囲","feature_key":"village:K05G11S00013","accuracy_note":"2015年農業集落境界をもとに復元した概略範囲で、江戸時代の正確な村境ではありません"},"geometry":{"type":"MultiPolygon","coordinates":[[[[140.643539,35.740939],[140.659332,35.737038],[140.670319,35.735366],[140.669632,35.730907],[140.662766,35.731464],[140.661392,35.728677],[140.660706,35.729792],[140.657272,35.730349],[140.657272,35.732579],[140.642166,35.735366],[140.640793,35.739825],[140.643539,35.740939]]],[[[140.643539,35.740939],[140.659332,35.737038],[140.670319,35.735366],[140.669632,35.730907],[140.662766,35.731464],[140.661392,35.728677],[140.660706,35.729792],[140.657272,35.730349],[140.657272,35.732579],[140.642166,35.735366],[140.640793,35.739825],[140.643539,35.740939]]]]}},{"type":"Feature","properties":{"layer_id":"bakumatsu_villages","name":"泉川","address":"下総 匝瑳郡","source":"Geoshape 幕末期近世村領域データセット vector tiles (z7 extraction)","subarea_name":"近世村のおおよその範囲","feature_key":"village:K05G10S00064","accuracy_note":"2015年農業集落境界をもとに復元した概略範囲で、江戸時代の正確な村境ではありません"},"geometry":{"type":"MultiPolygon","coordinates":[[[[140.606461,35.70805],[140.607147,35.70582],[140.608521,35.706377],[140.609894,35.701917],[140.607147,35.701359],[140.607834,35.700244],[140.605774,35.699686],[140.605087,35.697456],[140.602341,35.696341],[140.601654,35.698571],[140.603714,35.699686],[140.605087,35.700244],[140.606461,35.701917],[140.604401,35.707493],[140.606461,35.70805]]],[[[140.613327,35.709165],[140.6147,35.703032],[140.61058,35.701917],[140.608521,35.706377],[140.613327,35.709165]]],[[[140.606461,35.70805],[140.607147,35.70582],[140.608521,35.706377],[140.609894,35.701917],[140.607147,35.701359],[140.607834,35.700244],[140.605774,35.699686],[140.605087,35.697456],[140.602341,35.696341],[140.601654,35.698571],[140.603714,35.699686],[140.605087,35.700244],[140.606461,35.701917],[140.604401,35.707493],[140.606461,35.70805]]],[[[140.613327,35.709165],[140.6147,35.703032],[140.61058,35.701917],[140.608521,35.706377],[140.613327,35.709165]]]]}},{"type":"Feature","properties":{"layer_id":"bakumatsu_villages","name":"清滝","address":"下総 海上郡","source":"Geoshape 幕末期近世村領域データセット vector tiles (z7 extraction)","subarea_name":"近世村のおおよその範囲","feature_key":"village:K05G11S00018","accuracy_note":"2015年農業集落境界をもとに復元した概略範囲で、江戸時代の正確な村境ではありません"},"geometry":{"type":"MultiPolygon","coordinates":[[[[140.670319,35.765458],[140.679932,35.764901],[140.679932,35.748184],[140.676498,35.75097],[140.673752,35.750413],[140.668259,35.751528],[140.668259,35.752642],[140.666885,35.753199],[140.666885,35.755986],[140.661392,35.7571],[140.662079,35.762115],[140.670319,35.765458]]],[[[140.670319,35.765458],[140.687485,35.763786],[140.687485,35.7571],[140.685425,35.754871],[140.686111,35.752642],[140.687485,35.749856],[140.679245,35.748184],[140.676498,35.75097],[140.673752,35.750413],[140.668259,35.751528],[140.668259,35.752642],[140.666885,35.753199],[140.666885,35.755986],[140.661392,35.7571],[140.662079,35.762115],[140.670319,35.765458]]]]}},{"type":"Feature","properties":{"layer_id":"bakumatsu_villages","name":"溝原","address":"下総 香取郡","source":"Geoshape 幕末期近世村領域データセット vector tiles (z7 extraction)","subarea_name":"近世村のおおよその範囲","feature_key":"village:K05G09S00272","accuracy_note":"2015年農業集落境界をもとに復元した概略範囲で、江戸時代の正確な村境ではありません"},"geometry":{"type":"MultiPolygon","coordinates":[[[[140.63118,35.796095],[140.630493,35.793311],[140.632553,35.793868],[140.63324,35.793311],[140.632553,35.792754],[140.63324,35.792197],[140.63324,35.791083],[140.633926,35.788855],[140.6353,35.788855],[140.6353,35.787741],[140.638046,35.787184],[140.638733,35.783842],[140.63736,35.783842],[140.638733,35.782171],[140.638733,35.779385],[140.635986,35.778828],[140.63736,35.776043],[140.636673,35.774372],[140.638046,35.773815],[140.638733,35.774929],[140.640106,35.7727],[140.635986,35.770472],[140.6353,35.770472],[140.6353,35.774372],[140.631866,35.7727],[140.630493,35.773815],[140.631866,35.776043],[140.628433,35.7805],[140.62912,35.783285],[140.626373,35.787741],[140.626373,35.79164],[140.625,35.793311],[140.625,35.793868],[140.62912,35.794425],[140.629807,35.796095],[140.63118,35.796095]]],[[[140.63118,35.796095],[140.630493,35.793311],[140.632553,35.793868],[140.63324,35.793311],[140.632553,35.792754],[140.63324,35.792197],[140.63324,35.791083],[140.633926,35.788855],[140.6353,35.788855],[140.6353,35.787741],[140.638046,35.787184],[140.638733,35.783842],[140.63736,35.783842],[140.638733,35.782171],[140.638733,35.779385],[140.635986,35.778828],[140.63736,35.776043],[140.636673,35.774372],[140.638046,35.773815],[140.638733,35.774929],[140.640106,35.7727],[140.635986,35.770472],[140.6353,35.770472],[140.6353,35.774372],[140.631866,35.7727],[140.630493,35.773815],[140.631866,35.776043],[140.628433,35.7805],[140.62912,35.783285],[140.626373,35.787741],[140.626373,35.79164],[140.625,35.793311],[140.625,35.793868],[140.62912,35.794425],[140.629807,35.796095],[140.63118,35.796095]]]]}},{"type":"Feature","properties":{"layer_id":"bakumatsu_villages","name":"琴田","address":"下総 海上郡","source":"Geoshape 幕末期近世村領域データセット vector tiles (z7 extraction)","subarea_name":"近世村のおおよその範囲","feature_key":"village:K05G11S00014","accuracy_note":"2015年農業集落境界をもとに復元した概略範囲で、江戸時代の正確な村境ではありません"},"geometry":{"type":"MultiPolygon","coordinates":[[[[140.651093,35.761],[140.649719,35.7571],[140.651093,35.7571],[140.649719,35.75097],[140.646973,35.75097],[140.643539,35.743168],[140.641479,35.743168],[140.642166,35.74484],[140.640106,35.74484],[140.640793,35.746512],[140.6353,35.752642],[140.644913,35.760443],[140.645599,35.758772],[140.647659,35.760443],[140.649033,35.759886],[140.651093,35.761]]],[[[140.650406,35.758772],[140.657959,35.757657],[140.658646,35.758214],[140.666885,35.755986],[140.666885,35.753199],[140.668259,35.752642],[140.668259,35.751528],[140.674438,35.750413],[140.673065,35.746512],[140.669632,35.74707],[140.672379,35.743726],[140.670319,35.735366],[140.659332,35.737038],[140.661392,35.745398],[140.659332,35.748184],[140.660019,35.749299],[140.649719,35.751528],[140.651093,35.7571],[140.649719,35.7571],[140.650406,35.758772]]],[[[140.649719,35.751528],[140.660019,35.749299],[140.659332,35.748184],[140.661392,35.745398],[140.659332,35.737038],[140.643539,35.740939],[140.644226,35.745398],[140.644913,35.745398],[140.646973,35.75097],[140.649719,35.751528]]],[[[140.651093,35.761],[140.649719,35.7571],[140.651093,35.7571],[140.649719,35.75097],[140.646973,35.75097],[140.643539,35.743168],[140.641479,35.743168],[140.642166,35.74484],[140.640106,35.74484],[140.640793,35.746512],[140.6353,35.752642],[140.644913,35.760443],[140.645599,35.758772],[140.647659,35.760443],[140.649033,35.759886],[140.651093,35.761]]],[[[140.650406,35.758772],[140.657959,35.757657],[140.658646,35.758214],[140.666885,35.755986],[140.666885,35.753199],[140.668259,35.752642],[140.668259,35.751528],[140.674438,35.750413],[140.673065,35.746512],[140.669632,35.74707],[140.672379,35.743726],[140.670319,35.735366],[140.659332,35.737038],[140.661392,35.745398],[140.659332,35.748184],[140.660019,35.749299],[140.649719,35.751528],[140.651093,35.7571],[140.649719,35.7571],[140.650406,35.758772]]],[[[140.649719,35.751528],[140.660019,35.749299],[140.659332,35.748184],[140.661392,35.745398],[140.659332,35.737038],[140.643539,35.740939],[140.644226,35.745398],[140.644913,35.745398],[140.646973,35.75097],[140.649719,35.751528]]]]}},{"type":"Feature","properties":{"layer_id":"bakumatsu_villages","name":"神宮寺","address":"下総 海上郡","source":"Geoshape 幕末期近世村領域データセット vector tiles (z7 extraction)","subarea_name":"近世村のおおよその範囲","feature_key":"village:K05G11S00001","accuracy_note":"2015年農業集落境界をもとに復元した概略範囲で、江戸時代の正確な村境ではありません"},"geometry":{"type":"MultiPolygon","coordinates":[[[[140.615387,35.698013],[140.61882,35.689649],[140.611954,35.687418],[140.609207,35.684629],[140.613327,35.695783],[140.615387,35.698013]]],[[[140.625,35.703032],[140.62706,35.700802],[140.629807,35.700244],[140.630493,35.699686],[140.627747,35.697456],[140.62912,35.69411],[140.625,35.691879],[140.62088,35.690206],[140.622253,35.687418],[140.622253,35.685745],[140.620193,35.685187],[140.62088,35.684629],[140.616074,35.683514],[140.61058,35.679052],[140.609207,35.681283],[140.609207,35.684629],[140.611954,35.687418],[140.61882,35.689649],[140.616074,35.698013],[140.621567,35.702474],[140.625,35.703032]]],[[[140.625687,35.688533],[140.627747,35.68686],[140.625,35.686302],[140.621567,35.685187],[140.621567,35.68686],[140.622253,35.687418],[140.625,35.688533],[140.625687,35.688533]]],[[[140.627747,35.68686],[140.628433,35.685745],[140.625,35.684072],[140.625,35.682956],[140.625687,35.680725],[140.625,35.680167],[140.628433,35.675147],[140.625,35.673474],[140.622253,35.677379],[140.61676,35.676263],[140.615387,35.677379],[140.611267,35.675705],[140.61058,35.679052],[140.616074,35.683514],[140.62088,35.684629],[140.620193,35.685187],[140.621567,35.685745],[140.625,35.686302],[140.627747,35.68686]]],[[[140.62912,35.69411],[140.631866,35.687976],[140.63324,35.684072],[140.63118,35.682956],[140.630493,35.685745],[140.628433,35.685187],[140.625687,35.688533],[140.625,35.688533],[140.622253,35.687418],[140.62088,35.690206],[140.625,35.691879],[140.62912,35.69411]]],[[[140.630493,35.685745],[140.63118,35.683514],[140.63118,35.682956],[140.633926,35.678494],[140.631866,35.676821],[140.627747,35.681841],[140.625687,35.680725],[140.625,35.682956],[140.625,35.684072],[140.630493,35.685745]]],[[[140.615387,35.698013],[140.61882,35.689649],[140.611954,35.687418],[140.609207,35.684629],[140.613327,35.695783],[140.615387,35.698013]]],[[[140.625,35.703032],[140.62706,35.700802],[140.629807,35.700244],[140.630493,35.699686],[140.627747,35.697456],[140.62912,35.69411],[140.625,35.691879],[140.62088,35.690206],[140.622253,35.687418],[140.622253,35.685745],[140.620193,35.685187],[140.62088,35.684629],[140.616074,35.683514],[140.61058,35.679052],[140.609207,35.681283],[140.609207,35.684629],[140.611954,35.687418],[140.61882,35.689649],[140.616074,35.698013],[140.621567,35.702474],[140.625,35.703032]]],[[[140.625687,35.688533],[140.627747,35.68686],[140.625,35.686302],[140.621567,35.685187],[140.621567,35.68686],[140.622253,35.687418],[140.625,35.688533],[140.625687,35.688533]]],[[[140.627747,35.68686],[140.628433,35.685745],[140.625,35.684072],[140.625,35.682956],[140.625687,35.680725],[140.625,35.680167],[140.628433,35.675147],[140.625,35.673474],[140.622253,35.677379],[140.61676,35.676263],[140.615387,35.677379],[140.611267,35.675705],[140.61058,35.679052],[140.616074,35.683514],[140.62088,35.684629],[140.620193,35.685187],[140.621567,35.685745],[140.625,35.686302],[140.627747,35.68686]]],[[[140.62912,35.69411],[140.631866,35.687976],[140.63324,35.684072],[140.63118,35.682956],[140.630493,35.685745],[140.628433,35.685187],[140.625687,35.688533],[140.625,35.688533],[140.622253,35.687418],[140.62088,35.690206],[140.625,35.691879],[140.62912,35.69411]]],[[[140.630493,35.685745],[140.63118,35.683514],[140.63118,35.682956],[140.633926,35.678494],[140.631866,35.676821],[140.627747,35.681841],[140.625687,35.680725],[140.625,35.682956],[140.625,35.684072],[140.630493,35.685745]]]]}},{"type":"Feature","properties":{"layer_id":"bakumatsu_villages","name":"秋田","address":"下総 香取郡","source":"Geoshape 幕末期近世村領域データセット vector tiles (z7 extraction)","subarea_name":"近世村のおおよその範囲","feature_key":"village:K05G09S00276","accuracy_note":"2015年農業集落境界をもとに復元した概略範囲で、江戸時代の正確な村境ではありません"},"geometry":{"type":"MultiPolygon","coordinates":[[[[140.585175,35.74707],[140.589981,35.742054],[140.592728,35.741497],[140.592041,35.738153],[140.589981,35.73648],[140.589981,35.737595],[140.587234,35.739267],[140.586548,35.738153],[140.585175,35.738153],[140.583801,35.739825],[140.582428,35.735923],[140.577621,35.737595],[140.576248,35.73871],[140.574875,35.737038],[140.573502,35.737595],[140.566635,35.735923],[140.566635,35.737038],[140.565262,35.737038],[140.565262,35.73871],[140.566635,35.739267],[140.565948,35.739825],[140.564575,35.741497],[140.565948,35.742611],[140.565948,35.743726],[140.571442,35.74707],[140.577621,35.742611],[140.582428,35.745398],[140.585175,35.74707]]],[[[140.585175,35.74707],[140.589981,35.742054],[140.592728,35.741497],[140.592041,35.738153],[140.589981,35.73648],[140.589981,35.737595],[140.587234,35.739267],[140.586548,35.738153],[140.585175,35.738153],[140.583801,35.739825],[140.582428,35.735923],[140.577621,35.737595],[140.576248,35.73871],[140.574875,35.737038],[140.573502,35.737595],[140.570068,35.737595],[140.570068,35.746512],[140.571442,35.74707],[140.577621,35.742611],[140.582428,35.745398],[140.585175,35.74707]]]]}},{"type":"Feature","properties":{"layer_id":"bakumatsu_villages","name":"米込","address":"下総 香取郡","source":"Geoshape 幕末期近世村領域データセット vector tiles (z7 extraction)","subarea_name":"近世村のおおよその範囲","feature_key":"village:K05G09S00278","accuracy_note":"2015年農業集落境界をもとに復元した概略範囲で、江戸時代の正確な村境ではありません"},"geometry":{"type":"MultiPolygon","coordinates":[[[[140.61882,35.766572],[140.620193,35.761558],[140.611267,35.760443],[140.611954,35.759329],[140.608521,35.758772],[140.607147,35.762115],[140.611267,35.763229],[140.61058,35.764901],[140.611267,35.765458],[140.61264,35.763786],[140.61882,35.766572]]],[[[140.619507,35.762115],[140.619507,35.759329],[140.62294,35.752642],[140.62088,35.750413],[140.621567,35.748741],[140.618134,35.749856],[140.618134,35.753757],[140.61676,35.753199],[140.616074,35.754871],[140.609894,35.753757],[140.608521,35.758772],[140.611954,35.759329],[140.611267,35.760443],[140.619507,35.762115]]],[[[140.616074,35.754871],[140.61676,35.753199],[140.618134,35.753757],[140.618134,35.749856],[140.623627,35.746512],[140.624313,35.745398],[140.624313,35.743726],[140.61058,35.743726],[140.611267,35.749856],[140.609894,35.753757],[140.616074,35.754871]]],[[[140.623627,35.753757],[140.625,35.752642],[140.625687,35.751528],[140.626373,35.75097],[140.626373,35.750413],[140.628433,35.748184],[140.625,35.745398],[140.62088,35.748184],[140.62088,35.750413],[140.623627,35.753757]]],[[[140.61882,35.766572],[140.620193,35.761558],[140.611267,35.760443],[140.611954,35.759329],[140.608521,35.758772],[140.607147,35.762115],[140.611267,35.763229],[140.61058,35.764901],[140.611267,35.765458],[140.61264,35.763786],[140.61882,35.766572]]],[[[140.619507,35.762115],[140.619507,35.759329],[140.62294,35.752642],[140.62088,35.750413],[140.621567,35.748741],[140.618134,35.749856],[140.618134,35.753757],[140.61676,35.753199],[140.616074,35.754871],[140.609894,35.753757],[140.608521,35.758772],[140.611954,35.759329],[140.611267,35.760443],[140.619507,35.762115]]],[[[140.616074,35.754871],[140.61676,35.753199],[140.618134,35.753757],[140.618134,35.749856],[140.623627,35.746512],[140.624313,35.745398],[140.624313,35.743726],[140.61058,35.743726],[140.611267,35.749856],[140.609894,35.753757],[140.616074,35.754871]]],[[[140.623627,35.753757],[140.625,35.752642],[140.625687,35.751528],[140.626373,35.75097],[140.626373,35.750413],[140.628433,35.748184],[140.625,35.745398],[140.62088,35.748184],[140.62088,35.750413],[140.623627,35.753757]]]]}},{"type":"Feature","properties":{"layer_id":"bakumatsu_villages","name":"網戸","address":"下総 海上郡","source":"Geoshape 幕末期近世村領域データセット vector tiles (z7 extraction)","subarea_name":"近世村のおおよその範囲","feature_key":"village:K05G11S00011","accuracy_note":"2015年農業集落境界をもとに復元した概略範囲で、江戸時代の正確な村境ではありません"},"geometry":{"type":"MultiPolygon","coordinates":[[[[140.664139,35.727005],[140.662079,35.724775],[140.664139,35.724218],[140.664139,35.721988],[140.658646,35.720315],[140.658646,35.72366],[140.657959,35.724775],[140.655899,35.725332],[140.655899,35.726447],[140.657272,35.726447],[140.657959,35.72589],[140.664139,35.727005]]],[[[140.662766,35.731464],[140.669632,35.730907],[140.667572,35.716413],[140.660019,35.716413],[140.660019,35.719758],[140.658646,35.720315],[140.663452,35.72143],[140.664139,35.722545],[140.664139,35.724218],[140.662079,35.724775],[140.664139,35.727562],[140.662079,35.72812],[140.662766,35.731464]]],[[[140.669632,35.730907],[140.672379,35.730349],[140.675812,35.72812],[140.670319,35.726447],[140.671692,35.72366],[140.671692,35.723103],[140.673065,35.722545],[140.675125,35.7192],[140.677185,35.719758],[140.678558,35.717528],[140.675125,35.717528],[140.673752,35.715856],[140.667572,35.716413],[140.669632,35.730907]]],[[[140.676498,35.727562],[140.677185,35.724775],[140.679245,35.722545],[140.679932,35.717528],[140.678558,35.717528],[140.677185,35.719758],[140.675125,35.7192],[140.673065,35.722545],[140.671692,35.723103],[140.671692,35.72366],[140.670319,35.726447],[140.676498,35.727562]]],[[[140.664139,35.727005],[140.662079,35.724775],[140.664139,35.724218],[140.664139,35.721988],[140.658646,35.720315],[140.658646,35.72366],[140.657959,35.724775],[140.655899,35.725332],[140.655899,35.726447],[140.657272,35.726447],[140.657959,35.72589],[140.664139,35.727005]]],[[[140.662766,35.731464],[140.669632,35.730907],[140.667572,35.716413],[140.660019,35.716413],[140.660019,35.719758],[140.658646,35.720315],[140.663452,35.72143],[140.664139,35.722545],[140.664139,35.724218],[140.662079,35.724775],[140.664139,35.727562],[140.662079,35.72812],[140.662766,35.731464]]],[[[140.669632,35.730907],[140.672379,35.730349],[140.675812,35.72812],[140.670319,35.726447],[140.671692,35.72366],[140.671692,35.723103],[140.673065,35.722545],[140.675125,35.7192],[140.677185,35.719758],[140.678558,35.717528],[140.675125,35.717528],[140.673752,35.715856],[140.667572,35.716413],[140.669632,35.730907]]],[[[140.676498,35.72812],[140.679932,35.720873],[140.682678,35.719758],[140.682678,35.718085],[140.678558,35.717528],[140.677185,35.719758],[140.675125,35.7192],[140.673065,35.722545],[140.671692,35.723103],[140.671692,35.72366],[140.670319,35.726447],[140.676498,35.72812]]]]}},{"type":"Feature","properties":{"layer_id":"bakumatsu_villages","name":"萩園","address":"下総 海上郡","source":"Geoshape 幕末期近世村領域データセット vector tiles (z7 extraction)","subarea_name":"近世村のおおよその範囲","feature_key":"village:K05G11S00029","accuracy_note":"2015年農業集落境界をもとに復元した概略範囲で、江戸時代の正確な村境ではありません"},"geometry":{"type":"Polygon","coordinates":[[[140.712891,35.715298],[140.714951,35.714183],[140.710831,35.70805],[140.714264,35.706377],[140.713577,35.705262],[140.711517,35.700802],[140.707397,35.700802],[140.708771,35.709165],[140.710831,35.710838],[140.710144,35.711395],[140.712891,35.715298]]]}},{"type":"Feature","properties":{"layer_id":"bakumatsu_villages","name":"蛇園","address":"下総 海上郡","source":"Geoshape 幕末期近世村領域データセット vector tiles (z7 extraction)","subarea_name":"近世村のおおよその範囲","feature_key":"village:K05G11S00023","accuracy_note":"2015年農業集落境界をもとに復元した概略範囲で、江戸時代の正確な村境ではありません"},"geometry":{"type":"Polygon","coordinates":[[[140.706711,35.739825],[140.705338,35.732021],[140.709457,35.730349],[140.702591,35.723103],[140.705338,35.7192],[140.702591,35.718085],[140.699844,35.720315],[140.696411,35.720873],[140.688171,35.72366],[140.686111,35.72366],[140.688858,35.729792],[140.692978,35.732579],[140.693665,35.734251],[140.694351,35.733136],[140.697784,35.735366],[140.697784,35.734808],[140.699158,35.735923],[140.700531,35.734808],[140.699844,35.738153],[140.701218,35.738153],[140.705338,35.739825],[140.706711,35.739825]]]}},{"type":"Feature","properties":{"layer_id":"bakumatsu_villages","name":"行内","address":"下総 海上郡","source":"Geoshape 幕末期近世村領域データセット vector tiles (z7 extraction)","subarea_name":"近世村のおおよその範囲","feature_key":"village:K05G11S00033","accuracy_note":"2015年農業集落境界をもとに復元した概略範囲で、江戸時代の正確な村境ではありません"},"geometry":{"type":"Polygon","coordinates":[[[140.726624,35.708608],[140.72731,35.70805],[140.721817,35.701917],[140.720444,35.702474],[140.72113,35.70359],[140.724564,35.708608],[140.726624,35.708608]]]}},{"type":"Feature","properties":{"layer_id":"bakumatsu_villages","name":"西足洗","address":"下総 海上郡","source":"Geoshape 幕末期近世村領域データセット vector tiles (z7 extraction)","subarea_name":"近世村のおおよその範囲","feature_key":"village:K05G11S00010","accuracy_note":"2015年農業集落境界をもとに復元した概略範囲で、江戸時代の正確な村境ではありません"},"geometry":{"type":"MultiPolygon","coordinates":[[[[140.670319,35.716413],[140.673065,35.711953],[140.673065,35.707493],[140.660019,35.706935],[140.660019,35.711953],[140.657959,35.715856],[140.670319,35.716413]]],[[[140.670319,35.716413],[140.673065,35.711953],[140.673065,35.707493],[140.660019,35.706935],[140.660019,35.711953],[140.657959,35.715856],[140.670319,35.716413]]]]}},{"type":"Feature","properties":{"layer_id":"bakumatsu_villages","name":"諸徳寺","address":"下総 香取郡","source":"Geoshape 幕末期近世村領域データセット vector tiles (z7 extraction)","subarea_name":"近世村のおおよその範囲","feature_key":"village:K05G09S00271","accuracy_note":"2015年農業集落境界をもとに復元した概略範囲で、江戸時代の正確な村境ではありません"},"geometry":{"type":"MultiPolygon","coordinates":[[[[140.617447,35.781614],[140.617447,35.7805],[140.619507,35.779943],[140.620193,35.7766],[140.624313,35.777157],[140.625,35.778271],[140.62912,35.782728],[140.628433,35.7805],[140.631866,35.776043],[140.630493,35.773815],[140.630493,35.7727],[140.63118,35.771586],[140.630493,35.770472],[140.626373,35.770472],[140.625,35.769358],[140.623627,35.769915],[140.62294,35.771586],[140.620193,35.771586],[140.616074,35.777157],[140.61058,35.7766],[140.608521,35.781057],[140.61264,35.782171],[140.617447,35.781614]]],[[[140.6353,35.774372],[140.6353,35.770472],[140.632553,35.770472],[140.6353,35.765458],[140.62706,35.763229],[140.625,35.769358],[140.626373,35.770472],[140.630493,35.770472],[140.63118,35.773258],[140.632553,35.7727],[140.6353,35.774372]]],[[[140.617447,35.781614],[140.617447,35.7805],[140.619507,35.779943],[140.620193,35.7766],[140.624313,35.777157],[140.625,35.778271],[140.62912,35.782728],[140.628433,35.7805],[140.631866,35.776043],[140.630493,35.773815],[140.630493,35.7727],[140.63118,35.771586],[140.630493,35.770472],[140.626373,35.770472],[140.625,35.769358],[140.623627,35.769915],[140.62294,35.771586],[140.620193,35.771586],[140.616074,35.777157],[140.61058,35.7766],[140.608521,35.781057],[140.61264,35.782171],[140.617447,35.781614]]],[[[140.6353,35.774372],[140.6353,35.770472],[140.632553,35.770472],[140.6353,35.765458],[140.62706,35.763229],[140.625,35.769358],[140.626373,35.770472],[140.630493,35.770472],[140.63118,35.773258],[140.632553,35.7727],[140.6353,35.774372]]]]}},{"type":"Feature","properties":{"layer_id":"bakumatsu_villages","name":"足川","address":"下総 海上郡","source":"Geoshape 幕末期近世村領域データセット vector tiles (z7 extraction)","subarea_name":"近世村のおおよその範囲","feature_key":"village:K05G11S00006","accuracy_note":"2015年農業集落境界をもとに復元した概略範囲で、江戸時代の正確な村境ではありません"},"geometry":{"type":"MultiPolygon","coordinates":[[[[140.660019,35.707493],[140.660019,35.706935],[140.662766,35.706935],[140.662079,35.699129],[140.664139,35.696898],[140.655899,35.696341],[140.655899,35.69411],[140.653152,35.693552],[140.651779,35.696898],[140.652466,35.699129],[140.650406,35.704705],[140.651093,35.707493],[140.660019,35.707493]]],[[[140.664139,35.696898],[140.664825,35.695225],[140.665512,35.691879],[140.659332,35.690206],[140.657959,35.693552],[140.655899,35.692995],[140.655899,35.696341],[140.664139,35.696898]]],[[[140.660019,35.707493],[140.660019,35.706935],[140.662766,35.706935],[140.662079,35.699129],[140.664139,35.696898],[140.655899,35.696341],[140.655899,35.69411],[140.653152,35.693552],[140.651779,35.696898],[140.652466,35.699129],[140.650406,35.704705],[140.651093,35.707493],[140.660019,35.707493]]],[[[140.664139,35.696898],[140.664825,35.695225],[140.665512,35.691879],[140.659332,35.690206],[140.657959,35.693552],[140.655899,35.692995],[140.655899,35.696341],[140.664139,35.696898]]]]}},{"type":"Feature","properties":{"layer_id":"bakumatsu_villages","name":"野中","address":"下総 海上郡","source":"Geoshape 幕末期近世村領域データセット vector tiles (z7 extraction)","subarea_name":"近世村のおおよその範囲","feature_key":"village:K05G11S00008","accuracy_note":"2015年農業集落境界をもとに復元した概略範囲で、江戸時代の正確な村境ではありません"},"geometry":{"type":"MultiPolygon","coordinates":[[[[140.679932,35.70805],[140.679932,35.696341],[140.673752,35.694668],[140.672379,35.693552],[140.670319,35.700802],[140.671692,35.700802],[140.671005,35.703032],[140.672379,35.70359],[140.671005,35.705262],[140.671005,35.707493],[140.679932,35.70805]]],[[[140.684052,35.711395],[140.686798,35.709723],[140.685425,35.698013],[140.680618,35.696898],[140.673752,35.694668],[140.672379,35.693552],[140.670319,35.700802],[140.671692,35.700802],[140.671005,35.703032],[140.672379,35.70359],[140.671005,35.705262],[140.671005,35.707493],[140.679932,35.70805],[140.679932,35.710838],[140.684052,35.711395]]]]}},{"type":"Feature","properties":{"layer_id":"bakumatsu_villages","name":"鎌数","address":"下総 匝瑳郡","source":"Geoshape 幕末期近世村領域データセット vector tiles (z7 extraction)","subarea_name":"近世村のおおよその範囲","feature_key":"village:K05G10S00068","accuracy_note":"2015年農業集落境界をもとに復元した概略範囲で、江戸時代の正確な村境ではありません"},"geometry":{"type":"MultiPolygon","coordinates":[[[[140.625,35.743726],[140.625,35.739267],[140.624313,35.73871],[140.624313,35.738153],[140.622253,35.738153],[140.622253,35.737038],[140.61882,35.735923],[140.61058,35.735923],[140.61058,35.734808],[140.604401,35.734251],[140.603714,35.737595],[140.600281,35.73871],[140.596848,35.740939],[140.61058,35.743726],[140.625,35.743726]]],[[[140.62912,35.73871],[140.62912,35.737038],[140.630493,35.737038],[140.631866,35.730907],[140.631866,35.728677],[140.62706,35.730349],[140.626373,35.729234],[140.61676,35.729234],[140.616074,35.735923],[140.622253,35.737038],[140.622253,35.738153],[140.624313,35.738153],[140.625,35.73871],[140.62912,35.73871]]],[[[140.616074,35.735923],[140.617447,35.72589],[140.61882,35.72589],[140.618134,35.725332],[140.619507,35.72366],[140.613327,35.721988],[140.61058,35.7192],[140.604401,35.7192],[140.598221,35.723103],[140.598907,35.733694],[140.61058,35.734808],[140.61058,35.735923],[140.616074,35.735923]]],[[[140.632553,35.749856],[140.631866,35.746512],[140.635986,35.740939],[140.63736,35.741497],[140.63736,35.740382],[140.638733,35.740382],[140.63942,35.73871],[140.63736,35.738153],[140.63942,35.729792],[140.631866,35.728677],[140.630493,35.737038],[140.62912,35.737038],[140.62912,35.73871],[140.625,35.73871],[140.625,35.746512],[140.625687,35.746512],[140.629807,35.748741],[140.632553,35.749856]]],[[[140.626373,35.730349],[140.630493,35.729792],[140.63118,35.728677],[140.638046,35.729792],[140.638733,35.727005],[140.634613,35.726447],[140.633926,35.727562],[140.633926,35.726447],[140.630493,35.726447],[140.628433,35.72589],[140.62706,35.724218],[140.625,35.724775],[140.625,35.724218],[140.62294,35.724775],[140.62294,35.724218],[140.61882,35.724218],[140.61882,35.72589],[140.617447,35.72589],[140.61676,35.729234],[140.626373,35.729234],[140.626373,35.730349]]],[[[140.641479,35.73648],[140.644913,35.734808],[140.655212,35.733136],[140.657272,35.732579],[140.656586,35.730907],[140.657959,35.729792],[140.657272,35.729234],[140.649033,35.731464],[140.641479,35.726447],[140.638733,35.727005],[140.638046,35.729792],[140.63942,35.729792],[140.638046,35.735923],[140.641479,35.73648]]],[[[140.625,35.743726],[140.625,35.739267],[140.624313,35.73871],[140.624313,35.738153],[140.622253,35.738153],[140.622253,35.737038],[140.61882,35.735923],[140.61058,35.735923],[140.61058,35.734808],[140.604401,35.734251],[140.603714,35.737595],[140.600281,35.73871],[140.596848,35.740939],[140.61058,35.743726],[140.625,35.743726]]],[[[140.62912,35.73871],[140.62912,35.737038],[140.630493,35.737038],[140.631866,35.730907],[140.631866,35.728677],[140.62706,35.730349],[140.626373,35.729234],[140.61676,35.729234],[140.616074,35.735923],[140.622253,35.737038],[140.622253,35.738153],[140.624313,35.738153],[140.625,35.73871],[140.62912,35.73871]]],[[[140.616074,35.735923],[140.617447,35.72589],[140.61882,35.72589],[140.618134,35.725332],[140.619507,35.72366],[140.613327,35.721988],[140.61058,35.7192],[140.604401,35.7192],[140.598221,35.723103],[140.598907,35.733694],[140.61058,35.734808],[140.61058,35.735923],[140.616074,35.735923]]],[[[140.632553,35.749856],[140.631866,35.746512],[140.635986,35.740939],[140.63736,35.741497],[140.63736,35.740382],[140.638733,35.740382],[140.63942,35.73871],[140.63736,35.738153],[140.63942,35.729792],[140.631866,35.728677],[140.630493,35.737038],[140.62912,35.737038],[140.62912,35.73871],[140.625,35.73871],[140.625,35.746512],[140.625687,35.746512],[140.629807,35.748741],[140.632553,35.749856]]],[[[140.626373,35.730349],[140.630493,35.729792],[140.63118,35.728677],[140.638046,35.729792],[140.638733,35.727005],[140.634613,35.726447],[140.633926,35.727562],[140.633926,35.726447],[140.630493,35.726447],[140.628433,35.72589],[140.62706,35.724218],[140.625,35.724218],[140.62294,35.724775],[140.62294,35.724218],[140.61882,35.724218],[140.61882,35.72589],[140.617447,35.72589],[140.61676,35.729234],[140.626373,35.729234],[140.626373,35.730349]]],[[[140.641479,35.73648],[140.644913,35.734808],[140.655212,35.733136],[140.657272,35.732579],[140.656586,35.730907],[140.657959,35.729792],[140.657272,35.729234],[140.649033,35.731464],[140.641479,35.726447],[140.638733,35.727005],[140.638046,35.729792],[140.63942,35.729792],[140.638046,35.735923],[140.641479,35.73648]]]]}},{"type":"Feature","properties":{"layer_id":"bakumatsu_villages","name":"鏑木","address":"下総 香取郡","source":"Geoshape 幕末期近世村領域データセット vector tiles (z7 extraction)","subarea_name":"近世村のおおよその範囲","feature_key":"village:K05G09S00268","accuracy_note":"2015年農業集落境界をもとに復元した概略範囲で、江戸時代の正確な村境ではありません"},"geometry":{"type":"MultiPolygon","coordinates":[[[[140.589981,35.7727],[140.590668,35.772143],[140.589981,35.771586],[140.587234,35.768801],[140.587234,35.766015],[140.584488,35.765458],[140.583801,35.762115],[140.581741,35.762115],[140.580368,35.761],[140.570755,35.763229],[140.570068,35.766015],[140.572128,35.768244],[140.576248,35.765458],[140.576248,35.767129],[140.578995,35.767129],[140.580368,35.769358],[140.584488,35.7727],[140.589981,35.7727]]],[[[140.570755,35.763229],[140.580368,35.761],[140.579681,35.758214],[140.581055,35.757657],[140.578995,35.753199],[140.576248,35.754871],[140.574188,35.754871],[140.573502,35.756543],[140.570068,35.7571],[140.566635,35.754871],[140.565262,35.755428],[140.566635,35.7571],[140.565948,35.758214],[140.568695,35.760443],[140.568695,35.762115],[140.570755,35.763229]]],[[[140.569382,35.7571],[140.573502,35.756543],[140.574188,35.754871],[140.576248,35.754871],[140.579681,35.752642],[140.578308,35.751528],[140.578995,35.750413],[140.578308,35.749856],[140.582428,35.745398],[140.577621,35.742611],[140.576935,35.742611],[140.571442,35.74707],[140.570068,35.749856],[140.568695,35.749299],[140.568695,35.752642],[140.566635,35.754871],[140.569382,35.7571]]],[[[140.595474,35.781614],[140.600281,35.774372],[140.600281,35.773258],[140.605087,35.766015],[140.599594,35.765458],[140.593414,35.763786],[140.593414,35.767129],[140.589981,35.768244],[140.592041,35.769358],[140.589981,35.771586],[140.590668,35.772143],[140.589981,35.7727],[140.586548,35.7727],[140.589981,35.773815],[140.589981,35.7766],[140.593414,35.778828],[140.592728,35.779943],[140.594788,35.7805],[140.595474,35.781614]]],[[[140.582428,35.762672],[140.583801,35.762115],[140.581055,35.760443],[140.583115,35.757657],[140.586548,35.759329],[140.586548,35.758772],[140.588608,35.757657],[140.584488,35.755428],[140.581741,35.756543],[140.580368,35.754871],[140.581055,35.757657],[140.579681,35.758214],[140.579681,35.760443],[140.582428,35.762672]]],[[[140.589981,35.771586],[140.592041,35.769358],[140.589981,35.768244],[140.593414,35.767129],[140.593414,35.763786],[140.592728,35.762115],[140.593414,35.761],[140.592728,35.759329],[140.588608,35.757657],[140.586548,35.758772],[140.586548,35.759329],[140.583801,35.757657],[140.583115,35.757657],[140.581055,35.761],[140.583801,35.762115],[140.584488,35.765458],[140.587234,35.766015],[140.587234,35.768801],[140.589981,35.771586]]],[[[140.589981,35.7727],[140.590668,35.772143],[140.589981,35.771586],[140.587234,35.768801],[140.587234,35.766015],[140.584488,35.765458],[140.583801,35.762115],[140.581741,35.762115],[140.580368,35.761],[140.570755,35.763229],[140.570068,35.766015],[140.572128,35.768244],[140.576248,35.765458],[140.576248,35.767129],[140.578995,35.767129],[140.580368,35.769358],[140.584488,35.7727],[140.589981,35.7727]]],[[[140.570755,35.763229],[140.580368,35.761],[140.579681,35.758214],[140.581055,35.757657],[140.578995,35.753199],[140.576248,35.754871],[140.574188,35.754871],[140.573502,35.756543],[140.570068,35.7571],[140.570068,35.762672],[140.570755,35.763229]]],[[[140.570068,35.7571],[140.573502,35.756543],[140.574188,35.754871],[140.576248,35.754871],[140.579681,35.752642],[140.578308,35.751528],[140.578995,35.750413],[140.578308,35.749856],[140.582428,35.745398],[140.577621,35.742611],[140.571442,35.74707],[140.570068,35.749299],[140.570068,35.7571]]],[[[140.595474,35.781614],[140.600281,35.774372],[140.600281,35.773258],[140.605087,35.766015],[140.599594,35.765458],[140.593414,35.763786],[140.593414,35.767129],[140.589981,35.768244],[140.592041,35.769358],[140.589981,35.771586],[140.590668,35.772143],[140.589981,35.7727],[140.586548,35.7727],[140.589981,35.773815],[140.589981,35.7766],[140.593414,35.778828],[140.592728,35.779943],[140.594788,35.7805],[140.595474,35.781614]]],[[[140.582428,35.762672],[140.583801,35.762115],[140.581055,35.760443],[140.583115,35.757657],[140.586548,35.759329],[140.586548,35.758772],[140.588608,35.757657],[140.584488,35.755428],[140.581741,35.756543],[140.580368,35.754871],[140.581055,35.757657],[140.579681,35.758214],[140.579681,35.760443],[140.582428,35.762672]]],[[[140.589981,35.771586],[140.592041,35.769358],[140.589981,35.768244],[140.593414,35.767129],[140.593414,35.763786],[140.592728,35.762115],[140.593414,35.761],[140.592728,35.759329],[140.588608,35.757657],[140.586548,35.758772],[140.586548,35.759329],[140.583801,35.757657],[140.583115,35.757657],[140.581055,35.761],[140.583801,35.762115],[140.584488,35.765458],[140.587234,35.766015],[140.587234,35.768801],[140.589981,35.771586]]]]}},{"type":"Feature","properties":{"layer_id":"bakumatsu_villages","name":"長尾・見広","address":"下総 海上郡","source":"Geoshape 幕末期近世村領域データセット vector tiles (z7 extraction)","subarea_name":"近世村のおおよその範囲","feature_key":"village:K05G11S00017,K05G11S00022","accuracy_note":"2015年農業集落境界をもとに復元した概略範囲で、江戸時代の正確な村境ではありません"},"geometry":{"type":"Polygon","coordinates":[[[140.710831,35.756543],[140.712891,35.7571],[140.712891,35.749299],[140.708771,35.745955],[140.703964,35.745398],[140.707397,35.741497],[140.706711,35.739825],[140.705338,35.739825],[140.701218,35.738153],[140.699844,35.738153],[140.700531,35.734808],[140.699158,35.735923],[140.697784,35.734808],[140.697784,35.735366],[140.694351,35.733136],[140.693665,35.734808],[140.690918,35.734251],[140.690231,35.73648],[140.695038,35.737595],[140.695724,35.737038],[140.695038,35.740939],[140.690918,35.749299],[140.688171,35.750413],[140.692291,35.749299],[140.697784,35.75097],[140.700531,35.749856],[140.704651,35.753199],[140.706024,35.749299],[140.705338,35.753199],[140.707397,35.755986],[140.710831,35.7571],[140.710831,35.756543]]]}},{"type":"Feature","properties":{"layer_id":"bakumatsu_villages","name":"長部","address":"下総 香取郡","source":"Geoshape 幕末期近世村領域データセット vector tiles (z7 extraction)","subarea_name":"近世村のおおよその範囲","feature_key":"village:K05G09S00273","accuracy_note":"2015年農業集落境界をもとに復元した概略範囲で、江戸時代の正確な村境ではありません"},"geometry":{"type":"MultiPolygon","coordinates":[[[[140.626373,35.787741],[140.62912,35.782728],[140.625,35.778271],[140.624313,35.777157],[140.620193,35.7766],[140.619507,35.779943],[140.617447,35.7805],[140.618134,35.782728],[140.622253,35.786627],[140.625,35.786627],[140.626373,35.787741]]],[[[140.626373,35.787741],[140.62912,35.782728],[140.625,35.778271],[140.624313,35.777157],[140.620193,35.7766],[140.619507,35.779943],[140.617447,35.7805],[140.618134,35.782728],[140.622253,35.786627],[140.625,35.786627],[140.626373,35.787741]]]]}},{"type":"Feature","properties":{"layer_id":"bakumatsu_villages","name":"関戸","address":"下総 香取郡","source":"Geoshape 幕末期近世村領域データセット vector tiles (z7 extraction)","subarea_name":"近世村のおおよその範囲","feature_key":"village:K05G09S00280","accuracy_note":"2015年農業集落境界をもとに復元した概略範囲で、江戸時代の正確な村境ではありません"},"geometry":{"type":"MultiPolygon","coordinates":[[[[140.640106,35.7727],[140.645599,35.761],[140.63942,35.755986],[140.632553,35.770472],[140.635986,35.770472],[140.640106,35.7727]]],[[[140.640106,35.7727],[140.645599,35.761],[140.63942,35.755986],[140.632553,35.770472],[140.635986,35.770472],[140.640106,35.7727]]]]}},{"type":"Feature","properties":{"layer_id":"bakumatsu_villages","name":"飯岡","address":"下総 海上郡","source":"Geoshape 幕末期近世村領域データセット vector tiles (z7 extraction)","subarea_name":"近世村のおおよその範囲","feature_key":"village:K05G11S00034","accuracy_note":"2015年農業集落境界をもとに復元した概略範囲で、江戸時代の正確な村境ではありません"},"geometry":{"type":"Polygon","coordinates":[[[140.721817,35.695783],[140.72113,35.696341],[140.719757,35.699129],[140.72731,35.70805],[140.732803,35.704705],[140.732803,35.704147],[140.736923,35.699686],[140.730743,35.696898],[140.728683,35.698571],[140.72731,35.696341],[140.722504,35.694668],[140.721817,35.695783]]]}},{"type":"Feature","properties":{"layer_id":"bakumatsu_villages","name":"駒込","address":"下総 匝瑳郡","source":"Geoshape 幕末期近世村領域データセット vector tiles (z7 extraction)","subarea_name":"近世村のおおよその範囲","feature_key":"village:K05G10S00062","accuracy_note":"2015年農業集落境界をもとに復元した概略範囲で、江戸時代の正確な村境ではありません"},"geometry":{"type":"MultiPolygon","coordinates":[[[[140.6147,35.705262],[140.61882,35.699686],[140.616074,35.698013],[140.614014,35.696341],[140.614014,35.697456],[140.611954,35.697456],[140.611267,35.698571],[140.608521,35.697456],[140.607834,35.699129],[140.61058,35.699686],[140.609894,35.703032],[140.61058,35.701917],[140.6147,35.703032],[140.6147,35.705262]]],[[[140.627747,35.681841],[140.631866,35.676821],[140.630493,35.675705],[140.63118,35.675147],[140.630493,35.674032],[140.62912,35.675147],[140.627747,35.675147],[140.625,35.680167],[140.625687,35.680725],[140.627747,35.681841]]],[[[140.6147,35.705262],[140.61882,35.699686],[140.616074,35.698013],[140.614014,35.696341],[140.614014,35.697456],[140.611954,35.697456],[140.611267,35.698571],[140.608521,35.697456],[140.607834,35.699129],[140.61058,35.699686],[140.609894,35.703032],[140.61058,35.701917],[140.6147,35.703032],[140.6147,35.705262]]],[[[140.627747,35.681841],[140.631866,35.676821],[140.630493,35.675705],[140.63118,35.675147],[140.630493,35.674032],[140.62912,35.675147],[140.627747,35.675147],[140.625,35.680167],[140.625687,35.680725],[140.627747,35.681841]]]]}},{"type":"Feature","properties":{"layer_id":"bakumatsu_villages","name":"高生","address":"下総 海上郡","source":"Geoshape 幕末期近世村領域データセット vector tiles (z7 extraction)","subarea_name":"近世村のおおよその範囲","feature_key":"village:K05G11S00015","accuracy_note":"2015年農業集落境界をもとに復元した概略範囲で、江戸時代の正確な村境ではありません"},"geometry":{"type":"MultiPolygon","coordinates":[[[[140.676498,35.75097],[140.679932,35.748184],[140.679932,35.734808],[140.675125,35.735366],[140.673752,35.734808],[140.674438,35.734251],[140.673065,35.734251],[140.670319,35.734808],[140.670319,35.735366],[140.672379,35.743726],[140.669632,35.74707],[140.673065,35.746512],[140.674438,35.750413],[140.676498,35.75097]]],[[[140.676498,35.75097],[140.679245,35.748184],[140.681305,35.748184],[140.687485,35.743168],[140.685425,35.742611],[140.687485,35.735366],[140.690231,35.73648],[140.690918,35.734251],[140.693665,35.734251],[140.692291,35.733136],[140.687485,35.732021],[140.677872,35.734808],[140.675125,35.735366],[140.673752,35.734808],[140.674438,35.734251],[140.673065,35.734251],[140.670319,35.734808],[140.670319,35.735366],[140.672379,35.743726],[140.669632,35.74707],[140.673065,35.746512],[140.674438,35.750413],[140.676498,35.75097]]]]}},{"type":"Feature","properties":{"layer_id":"historical_sites_archaeology","name":"大原幽学遺跡","address":"千葉県 旭市 長部","source":"Geoshape 日本歴史地名大系 施設・地点項目データセット 2025-05-15","subarea_name":"遺跡","feature_key":"08_archaeological_sites.geojson:120000185200","subtype":"遺跡"},"geometry":{"type":"Point","coordinates":[140.62077,35.780633]}},{"type":"Feature","properties":{"layer_id":"historical_sites_archaeology","name":"安中藩太田陣屋跡","address":"千葉県 旭市 ニ","source":"Geoshape 日本歴史地名大系 施設・地点項目データセット 2025-05-15","subarea_name":"史跡","feature_key":"09_historic_sites.geojson:120000213200","subtype":"史跡"},"geometry":{"type":"Point","coordinates":[140.64802,35.718372]}},{"type":"Feature","properties":{"layer_id":"historical_sites_archaeology","name":"旧林家住宅","address":"千葉県 旭市 長部","source":"Geoshape 日本歴史地名大系 施設・地点項目データセット 2025-05-15","subarea_name":"史跡","feature_key":"09_historic_sites.geojson:120000185300","subtype":"史跡"},"geometry":{"type":"Point","coordinates":[140.621492,35.78124]}},{"type":"Feature","properties":{"layer_id":"historical_sites_archaeology","name":"網戸城跡","address":"千葉県 旭市 イ","source":"Geoshape 日本歴史地名大系 施設・地点項目データセット 2025-05-15","subarea_name":"城跡","feature_key":"05_castle_ruins.geojson:120000213700","subtype":"城跡"},"geometry":{"type":"Point","coordinates":[140.667699,35.723644]}},{"type":"Feature","properties":{"layer_id":"historical_sites_archaeology","name":"鏑木城跡","address":"千葉県 旭市 鏑木","source":"Geoshape 日本歴史地名大系 施設・地点項目データセット 2025-05-15","subarea_name":"城跡","feature_key":"05_castle_ruins.geojson:120000184000","subtype":"城跡"},"geometry":{"type":"Point","coordinates":[140.585161,35.755895]}},{"type":"Feature","properties":{"layer_id":"historical_sites_archaeology","name":"高力氏陣屋跡","address":"千葉県 旭市 三川","source":"Geoshape 日本歴史地名大系 施設・地点項目データセット 2025-05-15","subarea_name":"史跡","feature_key":"09_historic_sites.geojson:120000205400","subtype":"史跡"},"geometry":{"type":"Point","coordinates":[140.70093,35.708983]}},{"type":"Feature","properties":{"layer_id":"historical_temples_shrines","name":"内裏神社","address":"千葉県 旭市 泉川1502番地","source":"Geoshape 日本歴史地名大系 施設・地点項目データセット 2025-05-15","subarea_name":"神社","feature_key":"02_shrines.geojson:120000215200","subtype":"神社"},"geometry":{"type":"Point","coordinates":[140.611053,35.706417]}},{"type":"Feature","properties":{"layer_id":"historical_temples_shrines","name":"幸蔵寺","address":"千葉県 旭市 ニ2265番地","source":"Geoshape 日本歴史地名大系 施設・地点項目データセット 2025-05-15","subarea_name":"寺院","feature_key":"01_temples.geojson:120000213300","subtype":"寺院"},"geometry":{"type":"Point","coordinates":[140.645966,35.715847]}},{"type":"Feature","properties":{"layer_id":"historical_temples_shrines","name":"東漸寺","address":"千葉県 旭市 イ2337番地","source":"Geoshape 日本歴史地名大系 施設・地点項目データセット 2025-05-15","subarea_name":"寺院","feature_key":"01_temples.geojson:120000213800","subtype":"寺院"},"geometry":{"type":"Point","coordinates":[140.668228,35.72308]}},{"type":"Feature","properties":{"layer_id":"historical_temples_shrines","name":"熊野神社","address":"千葉県 千葉市 緑区古市場町380番地","source":"Geoshape 日本歴史地名大系 施設・地点項目データセット 2025-05-15","subarea_name":"神社","feature_key":"02_shrines.geojson:120000185000","subtype":"神社"},"geometry":{"type":"Point","coordinates":[140.615847,35.774117]}},{"type":"Feature","properties":{"layer_id":"historical_temples_shrines","name":"福蔵寺","address":"千葉県 旭市 三川3825番地","source":"Geoshape 日本歴史地名大系 施設・地点項目データセット 2025-05-15","subarea_name":"寺院","feature_key":"01_temples.geojson:120000205500","subtype":"寺院"},"geometry":{"type":"Point","coordinates":[140.697779,35.709692]}},{"type":"Feature","properties":{"layer_id":"historical_temples_shrines","name":"竜福寺","address":"千葉県 旭市 岩井120番地","source":"Geoshape 日本歴史地名大系 施設・地点項目データセット 2025-05-15","subarea_name":"寺院","feature_key":"01_temples.geojson:120000203800","subtype":"寺院"},"geometry":{"type":"Point","coordinates":[140.691387,35.753714]}},{"type":"Feature","properties":{"layer_id":"historical_temples_shrines","name":"還来寺","address":"千葉県 旭市 蛇園612番地","source":"Geoshape 日本歴史地名大系 施設・地点項目データセット 2025-05-15","subarea_name":"寺院","feature_key":"01_temples.geojson:120000202700","subtype":"寺院"},"geometry":{"type":"Point","coordinates":[140.700841,35.725021]}},{"type":"Feature","properties":{"layer_id":"historical_temples_shrines","name":"鎌数伊勢大神宮","address":"千葉県 旭市 鎌数4314番地","source":"Geoshape 日本歴史地名大系 施設・地点項目データセット 2025-05-15","subarea_name":"神社","feature_key":"02_shrines.geojson:120000215600","subtype":"神社"},"geometry":{"type":"Point","coordinates":[140.621109,35.725067]}},{"type":"Feature","properties":{"layer_id":"historical_temples_shrines","name":"長禅寺","address":"千葉県 旭市 野中2042番地","source":"Geoshape 日本歴史地名大系 施設・地点項目データセット 2025-05-15","subarea_name":"寺院","feature_key":"01_temples.geojson:120000214200","subtype":"寺院"},"geometry":{"type":"Point","coordinates":[140.67276,35.704578]}},{"type":"Feature","properties":{"layer_id":"historical_temples_shrines","name":"雷神社","address":"千葉県 山武郡九十九里町 西野1157番地－2","source":"Geoshape 日本歴史地名大系 施設・地点項目データセット 2025-05-15","subarea_name":"神社","feature_key":"02_shrines.geojson:120000203100","subtype":"神社"},"geometry":{"type":"Point","coordinates":[140.696813,35.740904]}}]}