{"type":"FeatureCollection","municipality_code":"12227","pref":"千葉県","city":"浦安市","layer_counts":{"bakumatsu_villages":1,"civil_engineering_heritage":1},"total_features":2,"features":[{"type":"Feature","properties":{"layer_id":"bakumatsu_villages","name":"当代島・猫実・堀江","address":"下総 葛飾郡","source":"Geoshape 幕末期近世村領域データセット vector tiles (z7 extraction)","subarea_name":"近世村のおおよその範囲","feature_key":"village:K05G01S00296,K05G01S00297,K05G01S00298","accuracy_note":"2015年農業集落境界をもとに復元した概略範囲で、江戸時代の正確な村境ではありません"},"geometry":{"type":"Polygon","coordinates":[[[139.897842,35.629954],[139.898529,35.628838],[139.898529,35.629954],[139.906769,35.623256],[139.904709,35.62214],[139.905396,35.621582],[139.897156,35.617116],[139.895782,35.617675],[139.892349,35.626047],[139.888229,35.62214],[139.872437,35.626047],[139.872437,35.633302],[139.874496,35.637767],[139.871063,35.638883],[139.883423,35.646137],[139.886856,35.65618],[139.886856,35.668454],[139.885483,35.671243],[139.887543,35.671801],[139.888229,35.672916],[139.893036,35.672916],[139.894409,35.671243],[139.898529,35.669569],[139.901962,35.668454],[139.901962,35.666222],[139.939041,35.641115],[139.909515,35.624373],[139.904709,35.628838],[139.906769,35.631628],[139.904709,35.633302],[139.901276,35.629954],[139.899902,35.632186],[139.897842,35.629954]]]}},{"type":"Feature","properties":{"layer_id":"civil_engineering_heritage","name":"堀江水準標石","address":"千葉県/浦安市","source":"土木学会 選奨土木遺産","subarea_name":"オランダ技師リンドが明治5年に設置した近代日本の最初の水準測量の標石のひとつ。Y.P（江戸川工事用基準面）の原点。","feature_key":"civil:125:堀江水準標石","source_url":"https://committees.jsce.or.jp/heritage/node/37","accuracy_note":"公式地図の位置を優先して収録しています"},"geometry":{"type":"Point","coordinates":[139.891129,35.662045]}}]}