{"type":"FeatureCollection","municipality_code":"12230","pref":"千葉県","city":"八街市","layer_counts":{"bakumatsu_villages":15,"civil_engineering_heritage":1,"historical_sites_archaeology":1,"historical_temples_shrines":2},"total_features":19,"features":[{"type":"Feature","properties":{"layer_id":"bakumatsu_villages","name":"上砂","address":"下総 印旛郡","source":"Geoshape 幕末期近世村領域データセット vector tiles (z7 extraction)","subarea_name":"近世村のおおよその範囲","feature_key":"village:K05G07S00271","accuracy_note":"2015年農業集落境界をもとに復元した概略範囲で、江戸時代の正確な村境ではありません"},"geometry":{"type":"MultiPolygon","coordinates":[[[[140.289917,35.581384],[140.288544,35.581943],[140.287857,35.586968],[140.28511,35.587527],[140.284424,35.590877],[140.28511,35.593111],[140.283051,35.595344],[140.281677,35.594227],[140.283051,35.598694],[140.283051,35.600369],[140.28511,35.602602],[140.286484,35.607068],[140.286484,35.603719],[140.289917,35.601486],[140.290604,35.604277],[140.29129,35.605952],[140.29335,35.603719],[140.29541,35.604277],[140.298843,35.599811],[140.29953,35.596461],[140.298157,35.595344],[140.298157,35.593669],[140.300217,35.593669],[140.29747,35.593111],[140.296783,35.590877],[140.29953,35.588085],[140.29953,35.580267],[140.298157,35.581384],[140.296783,35.580267],[140.29747,35.582501],[140.291977,35.582501],[140.289917,35.581384]]],[[[140.29541,35.578592],[140.296097,35.578033],[140.292664,35.575241],[140.29541,35.578592]]]]}},{"type":"Feature","properties":{"layer_id":"bakumatsu_villages","name":"下総御料牧場","address":"下総 印旛郡","source":"Geoshape 幕末期近世村領域データセット vector tiles (z7 extraction)","subarea_name":"近世村のおおよその範囲","feature_key":"village:K05G07S10001","accuracy_note":"2015年農業集落境界をもとに復元した概略範囲で、江戸時代の正確な村境ではありません"},"geometry":{"type":"MultiPolygon","coordinates":[[[[140.088043,35.813359],[140.08873,35.812245],[140.09285,35.810018],[140.099716,35.809461],[140.09903,35.808347],[140.09903,35.80779],[140.102463,35.80612],[140.100403,35.804449],[140.102463,35.803892],[140.106583,35.805563],[140.110016,35.800551],[140.103836,35.79888],[140.101089,35.801665],[140.09903,35.800551],[140.097656,35.801665],[140.098343,35.802778],[140.096283,35.803892],[140.090103,35.804449],[140.089417,35.809461],[140.085983,35.812245],[140.088043,35.813359]]],[[[140.31395,35.7571],[140.321503,35.754314],[140.316696,35.749856],[140.320129,35.748184],[140.319443,35.747627],[140.314636,35.746512],[140.31395,35.745398],[140.314636,35.74484],[140.309143,35.740382],[140.305023,35.739267],[140.30571,35.741497],[140.300903,35.74707],[140.30983,35.751528],[140.31395,35.755986],[140.31395,35.7571]]],[[[140.309143,35.732579],[140.307083,35.732579],[140.30777,35.732021],[140.306396,35.729792],[140.30365,35.730349],[140.300217,35.72812],[140.29747,35.730907],[140.298157,35.732021],[140.29747,35.732579],[140.296097,35.730349],[140.29541,35.732021],[140.294724,35.729792],[140.287857,35.730907],[140.290604,35.735366],[140.294037,35.737595],[140.298843,35.740382],[140.300217,35.739825],[140.300903,35.739267],[140.300903,35.737595],[140.302277,35.739267],[140.30571,35.73871],[140.308456,35.740382],[140.31189,35.739267],[140.318756,35.740382],[140.317383,35.734808],[140.316696,35.735923],[140.31189,35.734808],[140.309143,35.732579]]],[[[140.309143,35.732579],[140.310516,35.732021],[140.30983,35.729792],[140.30777,35.728677],[140.307083,35.729792],[140.309143,35.732579]]],[[[140.302963,35.711953],[140.305023,35.709165],[140.304337,35.711953],[140.307083,35.713625],[140.307083,35.711953],[140.30777,35.713625],[140.309143,35.713068],[140.310516,35.70582],[140.312576,35.704705],[140.31189,35.706377],[140.315323,35.706935],[140.316696,35.70359],[140.31601,35.706935],[140.320129,35.708608],[140.320129,35.707493],[140.321503,35.706935],[140.320816,35.70359],[140.319443,35.699686],[140.318069,35.699686],[140.317383,35.696341],[140.31601,35.696341],[140.318756,35.693552],[140.318756,35.692437],[140.318756,35.691322],[140.316696,35.690206],[140.316696,35.688533],[140.315323,35.689649],[140.312576,35.687418],[140.307083,35.689091],[140.306396,35.690206],[140.305023,35.687976],[140.30365,35.687418],[140.302277,35.689091],[140.302277,35.690206],[140.30159,35.689091],[140.300217,35.689649],[140.29541,35.693552],[140.291977,35.694668],[140.288544,35.694668],[140.288544,35.697456],[140.286484,35.698571],[140.287857,35.700244],[140.291977,35.700244],[140.294724,35.696341],[140.29335,35.700244],[140.29747,35.700244],[140.298157,35.701359],[140.29129,35.701359],[140.294724,35.704147],[140.29129,35.701917],[140.289917,35.701917],[140.288544,35.704147],[140.29129,35.706935],[140.290604,35.70805],[140.29335,35.709165],[140.29541,35.71251],[140.300903,35.716413],[140.304337,35.713068],[140.302963,35.711953]],[[140.298157,35.701359],[140.300903,35.699686],[140.29953,35.701359],[140.298157,35.701359]],[[140.302963,35.711953],[140.302277,35.711953],[140.30159,35.71028],[140.302963,35.711953]]],[[[140.319443,35.752085],[140.324936,35.75097],[140.325623,35.749299],[140.324249,35.748184],[140.327682,35.74707],[140.327682,35.744283],[140.321503,35.739825],[140.319443,35.739825],[140.318756,35.740939],[140.30983,35.739267],[140.309143,35.740939],[140.314636,35.74484],[140.31395,35.745398],[140.319443,35.747627],[140.320129,35.748184],[140.316696,35.749856],[140.318069,35.751528],[140.319443,35.752085]]],[[[140.327682,35.744283],[140.328369,35.740382],[140.324249,35.738153],[140.324249,35.735923],[140.325623,35.734808],[140.322876,35.732579],[140.323563,35.732021],[140.322189,35.730349],[140.320816,35.732021],[140.315323,35.730907],[140.313263,35.731464],[140.312576,35.730907],[140.311203,35.728677],[140.310516,35.728677],[140.309143,35.732579],[140.31189,35.734808],[140.316696,35.735923],[140.317383,35.734808],[140.318756,35.740382],[140.321503,35.739825],[140.327682,35.744283]]],[[[140.340729,35.735366],[140.341415,35.732579],[140.345535,35.730349],[140.342102,35.729234],[140.337296,35.732021],[140.337982,35.733694],[140.334549,35.731464],[140.329056,35.735366],[140.327682,35.74707],[140.331116,35.748184],[140.336609,35.74484],[140.337982,35.743168],[140.346222,35.745398],[140.348969,35.742054],[140.340729,35.735366]],[[140.340729,35.735366],[140.339355,35.735366],[140.337296,35.73648],[140.338669,35.734808],[140.340729,35.735366]]],[[[140.328369,35.740382],[140.329056,35.735366],[140.333176,35.732021],[140.334549,35.731464],[140.335922,35.732579],[140.336609,35.732021],[140.337982,35.733694],[140.337296,35.732021],[140.342102,35.729234],[140.345535,35.730349],[140.346909,35.72812],[140.346909,35.725332],[140.337296,35.723103],[140.336609,35.725332],[140.333862,35.722545],[140.332489,35.723103],[140.331802,35.722545],[140.326996,35.721988],[140.324936,35.724218],[140.325623,35.727562],[140.329056,35.72812],[140.325623,35.72812],[140.322876,35.729234],[140.323563,35.732021],[140.322876,35.732579],[140.325623,35.734808],[140.324249,35.735923],[140.324249,35.738153],[140.328369,35.740382]]],[[[140.348282,35.725332],[140.351028,35.723103],[140.355148,35.722545],[140.355148,35.720315],[140.351715,35.721988],[140.350342,35.721988],[140.349655,35.718643],[140.352402,35.716413],[140.350342,35.714741],[140.348282,35.718085],[140.345535,35.717528],[140.342102,35.7192],[140.343475,35.72143],[140.340729,35.72143],[140.342789,35.724218],[140.347595,35.725332],[140.346909,35.723103],[140.349655,35.722545],[140.348282,35.725332]]],[[[140.362015,35.732579],[140.367508,35.731464],[140.365448,35.726447],[140.370255,35.72366],[140.367508,35.720873],[140.366821,35.720873],[140.360641,35.724218],[140.357208,35.723103],[140.351715,35.723103],[140.348282,35.725332],[140.349655,35.722545],[140.346909,35.723103],[140.346222,35.727562],[140.347595,35.727005],[140.347595,35.72589],[140.349655,35.727562],[140.348282,35.727005],[140.347595,35.728677],[140.345535,35.729792],[140.349655,35.732021],[140.359955,35.729234],[140.361328,35.725332],[140.360641,35.729792],[140.364075,35.730907],[140.362015,35.730907],[140.362015,35.732579]]],[[[140.360641,35.724218],[140.363388,35.722545],[140.360641,35.719758],[140.361328,35.7192],[140.360641,35.718085],[140.358582,35.717528],[140.355148,35.720315],[140.355148,35.722545],[140.352402,35.723103],[140.357208,35.723103],[140.360641,35.724218]]],[[[140.363388,35.722545],[140.366821,35.720873],[140.366821,35.718643],[140.364761,35.718085],[140.362701,35.715298],[140.363388,35.714741],[140.361328,35.711395],[140.357208,35.706377],[140.357895,35.704705],[140.353775,35.70359],[140.350342,35.706377],[140.352402,35.709165],[140.350342,35.71251],[140.351028,35.713625],[140.349655,35.714183],[140.352402,35.716413],[140.349655,35.718643],[140.350342,35.721988],[140.351715,35.721988],[140.356522,35.719758],[140.358582,35.717528],[140.360641,35.718085],[140.361328,35.7192],[140.360641,35.719758],[140.363388,35.722545]]],[[[140.334549,35.711953],[140.337982,35.71028],[140.342789,35.709723],[140.344162,35.70582],[140.343475,35.70582],[140.342789,35.705262],[140.340042,35.704147],[140.340042,35.700802],[140.335922,35.700802],[140.335236,35.706377],[140.331802,35.709723],[140.333176,35.71028],[140.333176,35.711953],[140.334549,35.711953]]],[[[140.324936,35.696341],[140.328369,35.69411],[140.331116,35.69411],[140.333862,35.695783],[140.336609,35.693552],[140.334549,35.691879],[140.334549,35.689649],[140.329056,35.689091],[140.329056,35.682956],[140.326309,35.684072],[140.324936,35.686302],[140.322189,35.687418],[140.319443,35.691879],[140.320816,35.69411],[140.322876,35.69411],[140.324936,35.696341]]],[[[140.344162,35.689649],[140.344162,35.685187],[140.342102,35.683514],[140.342102,35.678494],[140.329056,35.682956],[140.329056,35.689649],[140.344162,35.689649]]],[[[140.329056,35.682956],[140.342102,35.678494],[140.342102,35.676821],[140.343475,35.676263],[140.346909,35.675705],[140.346909,35.672358],[140.346222,35.671801],[140.331802,35.671243],[140.329056,35.667896],[140.325623,35.670127],[140.325623,35.672916],[140.324936,35.675705],[140.323563,35.675705],[140.324249,35.680725],[140.328369,35.681841],[140.329056,35.682956]]],[[[140.344162,35.70582],[140.346222,35.702474],[140.344162,35.695225],[140.337296,35.693552],[140.335236,35.694668],[140.333862,35.695783],[140.335922,35.699129],[140.335922,35.700802],[140.340042,35.700802],[140.340042,35.704147],[140.342789,35.705262],[140.343475,35.70582],[140.344162,35.70582]]],[[[140.348282,35.704147],[140.351028,35.701917],[140.353088,35.699129],[140.351715,35.696341],[140.353775,35.691879],[140.359955,35.68686],[140.351028,35.682956],[140.346222,35.676821],[140.342102,35.678494],[140.342102,35.683514],[140.344162,35.685187],[140.344162,35.689649],[140.334549,35.689649],[140.334549,35.691879],[140.335922,35.692995],[140.336609,35.692437],[140.337296,35.693552],[140.336609,35.69411],[140.343475,35.695225],[140.344162,35.695225],[140.345535,35.692995],[140.346222,35.692995],[140.344849,35.695783],[140.345535,35.698571],[140.347595,35.699686],[140.348282,35.704147]]],[[[140.278244,35.673474],[140.280304,35.672358],[140.280991,35.672916],[140.278931,35.674032],[140.278931,35.676821],[140.275497,35.680167],[140.278244,35.681841],[140.279617,35.67961],[140.282364,35.67961],[140.284424,35.675147],[140.284424,35.669569],[140.287857,35.667338],[140.290604,35.667896],[140.29747,35.655622],[140.280304,35.660086],[140.256271,35.664549],[140.259018,35.667896],[140.266571,35.66678],[140.269318,35.671243],[140.269318,35.673474],[140.267944,35.67459],[140.270004,35.675147],[140.267258,35.677379],[140.270691,35.67961],[140.272064,35.682398],[140.278244,35.676263],[140.278244,35.674032],[140.278244,35.673474]],[[140.277557,35.669012],[140.276871,35.667338],[140.278244,35.668454],[140.277557,35.669012]],[[140.276871,35.669569],[140.276871,35.671243],[140.276184,35.669569],[140.276871,35.669569]]],[[[140.263138,35.660086],[140.261765,35.661202],[140.262451,35.662317],[140.258331,35.662875],[140.256271,35.664549],[140.289917,35.657854],[140.29747,35.655622],[140.300903,35.650043],[140.294724,35.648927],[140.29335,35.646137],[140.29129,35.645021],[140.28923,35.641115],[140.286484,35.642231],[140.283737,35.645579],[140.281677,35.645579],[140.278931,35.643347],[140.276871,35.644463],[140.276184,35.643905],[140.276184,35.648369],[140.272751,35.648927],[140.269318,35.646695],[140.263824,35.647253],[140.262451,35.649485],[140.261078,35.649485],[140.256271,35.647253],[140.254898,35.648927],[140.255585,35.646137],[140.251465,35.647253],[140.248032,35.646137],[140.249405,35.652275],[140.252838,35.653949],[140.254211,35.653391],[140.254211,35.655065],[140.258331,35.658412],[140.258331,35.661759],[140.262451,35.659528],[140.262451,35.655065],[140.263138,35.660086]],[[140.277557,35.655622],[140.274811,35.654507],[140.277557,35.650601],[140.280991,35.649485],[140.278244,35.651159],[140.276184,35.654507],[140.277557,35.655622]],[[140.270691,35.656738],[140.271378,35.65618],[140.272064,35.655622],[140.273438,35.655622],[140.274811,35.654507],[140.274124,35.65618],[140.270691,35.656738]],[[140.270691,35.656738],[140.270691,35.657854],[140.270004,35.657296],[140.266571,35.658412],[140.270691,35.656738]],[[140.277557,35.655622],[140.278244,35.655622],[140.278244,35.656738],[140.277557,35.655622]]],[[[140.298843,35.665664],[140.300903,35.663991],[140.300903,35.662875],[140.30159,35.663433],[140.305023,35.660086],[140.306396,35.661759],[140.311203,35.653949],[140.311203,35.652833],[140.30777,35.650601],[140.300903,35.650043],[140.298843,35.652833],[140.294037,35.661202],[140.298157,35.663433],[140.298843,35.665664]]],[[[140.321503,35.674032],[140.320816,35.672358],[140.321503,35.671801],[140.325623,35.672916],[140.325623,35.664549],[140.320129,35.667338],[140.320129,35.665664],[140.31189,35.664549],[140.306396,35.665664],[140.30571,35.667338],[140.305023,35.666222],[140.306396,35.674032],[140.319443,35.672358],[140.321503,35.674032]]],[[[140.30571,35.667338],[140.306396,35.665664],[140.312576,35.665107],[140.311203,35.662875],[140.312576,35.660644],[140.315323,35.65897],[140.313263,35.658412],[140.31395,35.657854],[140.31395,35.651717],[140.31601,35.650043],[140.31395,35.648927],[140.30777,35.650601],[140.311203,35.652833],[140.311203,35.653949],[140.306396,35.661759],[140.305023,35.660086],[140.30159,35.663433],[140.300903,35.662875],[140.300903,35.663991],[140.298843,35.665664],[140.304337,35.665107],[140.30571,35.664549],[140.304337,35.665664],[140.30571,35.667338]]],[[[140.320129,35.665664],[140.319443,35.652275],[140.318756,35.651159],[140.31601,35.650043],[140.31395,35.651717],[140.31395,35.657854],[140.313263,35.658412],[140.315323,35.65897],[140.312576,35.660644],[140.311203,35.662875],[140.312576,35.665107],[140.320129,35.665664]]],[[[140.318756,35.651159],[140.318756,35.646695],[140.323563,35.643905],[140.325623,35.644463],[140.324936,35.643347],[140.322876,35.642789],[140.322876,35.640557],[140.320816,35.639999],[140.323563,35.636651],[140.329056,35.633302],[140.329056,35.631628],[140.325623,35.626605],[140.322876,35.62828],[140.322189,35.62828],[140.318756,35.630512],[140.316696,35.63107],[140.30777,35.624931],[140.304337,35.62828],[140.302963,35.633861],[140.305023,35.638325],[140.311203,35.636651],[140.31601,35.638325],[140.318069,35.637767],[140.31601,35.647811],[140.31395,35.648927],[140.318756,35.651159]]],[[[140.302277,35.618791],[140.30365,35.621024],[140.302277,35.62214],[140.30571,35.626047],[140.30777,35.624373],[140.307083,35.623815],[140.312576,35.62214],[140.313263,35.618791],[140.315323,35.618233],[140.308456,35.613767],[140.310516,35.611534],[140.311203,35.612651],[140.31189,35.60986],[140.315323,35.608185],[140.31189,35.60651],[140.313263,35.60651],[140.314636,35.604277],[140.323563,35.609301],[140.323563,35.607627],[140.329056,35.607068],[140.329742,35.60651],[140.322189,35.604277],[140.320816,35.60316],[140.320816,35.601486],[140.318069,35.602044],[140.31395,35.600927],[140.311203,35.602044],[140.31189,35.600927],[140.30777,35.595902],[140.305023,35.594227],[140.302963,35.595902],[140.30365,35.594227],[140.298157,35.593669],[140.298843,35.599811],[140.294724,35.605952],[140.296783,35.608743],[140.300217,35.608743],[140.29953,35.610976],[140.302277,35.616],[140.30159,35.618791],[140.302277,35.618791]]],[[[140.331802,35.671243],[140.333176,35.669012],[140.335922,35.669569],[140.335922,35.669012],[140.333862,35.667896],[140.334549,35.66678],[140.333176,35.665664],[140.335922,35.663433],[140.345535,35.665664],[140.348282,35.665664],[140.348969,35.663991],[140.353088,35.663433],[140.353775,35.656738],[140.351028,35.657296],[140.350342,35.65897],[140.346909,35.660644],[140.344849,35.659528],[140.344162,35.660644],[140.342102,35.660644],[140.337982,35.661202],[140.338669,35.660086],[140.335922,35.660086],[140.335236,35.659528],[140.332489,35.660086],[140.332489,35.660644],[140.333176,35.661202],[140.319443,35.658412],[140.320129,35.667338],[140.325623,35.664549],[140.325623,35.669569],[140.329056,35.667896],[140.331802,35.671243]]],[[[140.346222,35.671801],[140.340042,35.668454],[140.340042,35.665107],[140.335922,35.663433],[140.333176,35.665664],[140.334549,35.66678],[140.333862,35.667896],[140.335922,35.669012],[140.335922,35.669569],[140.333176,35.669012],[140.331802,35.671243],[140.346222,35.671801]]],[[[140.342102,35.678494],[140.347595,35.676263],[140.348969,35.671801],[140.347595,35.672916],[140.346909,35.672358],[140.346909,35.675705],[140.343475,35.676263],[140.342102,35.676821],[140.342102,35.678494]]],[[[140.377121,35.724775],[140.377121,35.722545],[140.375061,35.720315],[140.377121,35.716413],[140.366821,35.714183],[140.366821,35.720873],[140.370255,35.72366],[140.377121,35.724775]]],[[[140.366821,35.718643],[140.366821,35.714183],[140.368881,35.70359],[140.357895,35.704705],[140.357208,35.706377],[140.361328,35.711395],[140.363388,35.714741],[140.362701,35.715298],[140.364761,35.718085],[140.366821,35.718643]]],[[[140.377121,35.716413],[140.378494,35.714741],[140.383301,35.714741],[140.386047,35.713625],[140.383987,35.709723],[140.381927,35.709165],[140.380554,35.707493],[140.382614,35.708608],[140.381927,35.704147],[140.368881,35.705262],[140.366821,35.714183],[140.377121,35.716413]]],[[[140.373001,35.700802],[140.373001,35.700244],[140.373001,35.699686],[140.373001,35.699129],[140.379181,35.69411],[140.376434,35.691322],[140.373688,35.686302],[140.376434,35.685187],[140.375061,35.684072],[140.377121,35.682956],[140.370941,35.679052],[140.373001,35.681283],[140.368195,35.685745],[140.368881,35.686302],[140.367508,35.686302],[140.367508,35.685745],[140.365448,35.684072],[140.353775,35.691879],[140.351715,35.696341],[140.353088,35.698571],[140.352402,35.700244],[140.355148,35.70359],[140.357895,35.704705],[140.368881,35.70359],[140.368881,35.705262],[140.381927,35.704147],[140.379868,35.702474],[140.373001,35.700802]],[[140.371628,35.698013],[140.369568,35.697456],[140.371628,35.697456],[140.371628,35.698013]],[[140.367508,35.686302],[140.367508,35.688533],[140.366821,35.687418],[140.367508,35.686302]]],[[[140.392227,35.690206],[140.394287,35.691879],[140.399094,35.690206],[140.39978,35.691322],[140.401154,35.690764],[140.4039,35.691879],[140.404587,35.689091],[140.401154,35.688533],[140.400467,35.682398],[140.398407,35.679052],[140.392227,35.677379],[140.390167,35.676263],[140.383301,35.681283],[140.381241,35.67961],[140.379868,35.681841],[140.375061,35.684072],[140.376434,35.685187],[140.373688,35.686302],[140.374374,35.68686],[140.376434,35.691322],[140.379181,35.69411],[140.378494,35.691322],[140.381927,35.69411],[140.383301,35.691322],[140.385361,35.690764],[140.384674,35.689649],[140.392227,35.690206]],[[140.392227,35.690206],[140.392914,35.689091],[140.392914,35.687418],[140.3936,35.689091],[140.392227,35.690206]]],[[[140.268631,35.607627],[140.278244,35.614325],[140.282364,35.612093],[140.283737,35.610976],[140.282364,35.610976],[140.283051,35.60986],[140.286484,35.60986],[140.286484,35.608743],[140.28511,35.602602],[140.283051,35.600369],[140.283051,35.598694],[140.282364,35.595344],[140.28511,35.593669],[140.284424,35.589202],[140.276871,35.58641],[140.275497,35.587527],[140.276184,35.588644],[140.274811,35.588085],[140.272064,35.590877],[140.268631,35.593669],[140.264511,35.595902],[140.263138,35.598136],[140.263824,35.598694],[140.262451,35.598694],[140.261078,35.599811],[140.260391,35.60316],[140.262451,35.60651],[140.267258,35.608185],[140.268631,35.607627]]],[[[140.289917,35.581384],[140.291977,35.582501],[140.29747,35.582501],[140.296783,35.580267],[140.298157,35.581384],[140.302963,35.578592],[140.291977,35.573007],[140.283737,35.573566],[140.280991,35.578592],[140.280304,35.578592],[140.280991,35.580267],[140.278931,35.581384],[140.274811,35.581943],[140.274124,35.583618],[140.274811,35.587527],[140.276871,35.58641],[140.280304,35.587527],[140.284424,35.589202],[140.28511,35.587527],[140.287857,35.586968],[140.288544,35.581943],[140.289917,35.581384]],[[140.29541,35.578592],[140.292664,35.575241],[140.296097,35.578033],[140.29541,35.578592]]],[[[140.322876,35.601486],[140.321503,35.596461],[140.323563,35.594227],[140.323563,35.592552],[140.326996,35.591994],[140.329056,35.591994],[140.329056,35.58976],[140.331116,35.588644],[140.331802,35.589202],[140.335922,35.590877],[140.337982,35.586968],[140.337296,35.585852],[140.316696,35.585852],[140.302963,35.578592],[140.29953,35.580826],[140.29953,35.588085],[140.296783,35.590877],[140.29747,35.592552],[140.298157,35.593669],[140.30365,35.594227],[140.302963,35.595902],[140.306396,35.594786],[140.310516,35.598136],[140.311203,35.598136],[140.31189,35.600369],[140.322876,35.601486]]]]}},{"type":"Feature","properties":{"layer_id":"bakumatsu_villages","name":"勢田","address":"下総 印旛郡","source":"Geoshape 幕末期近世村領域データセット vector tiles (z7 extraction)","subarea_name":"近世村のおおよその範囲","feature_key":"village:K05G07S00267","accuracy_note":"2015年農業集落境界をもとに復元した概略範囲で、江戸時代の正確な村境ではありません"},"geometry":{"type":"Polygon","coordinates":[[[140.283737,35.645579],[140.286484,35.642231],[140.28923,35.641115],[140.28923,35.638325],[140.28717,35.638325],[140.288544,35.637767],[140.28717,35.631628],[140.28511,35.629954],[140.290604,35.62828],[140.288544,35.625489],[140.28923,35.627163],[140.288544,35.627163],[140.287857,35.626605],[140.282364,35.629396],[140.280991,35.628838],[140.280991,35.630512],[140.276184,35.632186],[140.277557,35.637767],[140.279617,35.638325],[140.278244,35.640557],[140.278931,35.643347],[140.281677,35.645579],[140.283737,35.645579]]]}},{"type":"Feature","properties":{"layer_id":"bakumatsu_villages","name":"吉倉","address":"下総 印旛郡","source":"Geoshape 幕末期近世村領域データセット vector tiles (z7 extraction)","subarea_name":"近世村のおおよその範囲","feature_key":"village:K05G07S00269","accuracy_note":"2015年農業集落境界をもとに復元した概略範囲で、江戸時代の正確な村境ではありません"},"geometry":{"type":"Polygon","coordinates":[[[140.302277,35.618791],[140.30159,35.618791],[140.302277,35.616558],[140.30159,35.614884],[140.294037,35.619907],[140.294724,35.620466],[140.288544,35.625489],[140.290604,35.62828],[140.28511,35.629954],[140.28717,35.631628],[140.288544,35.637767],[140.28717,35.638325],[140.28923,35.638325],[140.294724,35.637767],[140.296097,35.637209],[140.296097,35.636651],[140.29747,35.636651],[140.302963,35.633861],[140.304337,35.62828],[140.30571,35.626047],[140.302277,35.62214],[140.30365,35.621024],[140.302277,35.618791]]]}},{"type":"Feature","properties":{"layer_id":"bakumatsu_villages","name":"塩子岡田","address":"下総 印旛郡","source":"Geoshape 幕末期近世村領域データセット vector tiles (z7 extraction)","subarea_name":"近世村のおおよその範囲","feature_key":"village:K05G07S00260","accuracy_note":"2015年農業集落境界をもとに復元した概略範囲で、江戸時代の正確な村境ではありません"},"geometry":{"type":"Polygon","coordinates":[[[140.263138,35.647811],[140.269318,35.646695],[140.265884,35.643905],[140.265198,35.641673],[140.266571,35.640557],[140.259705,35.641115],[140.259018,35.641673],[140.261078,35.645021],[140.260391,35.646137],[140.263138,35.647811]]]}},{"type":"Feature","properties":{"layer_id":"bakumatsu_villages","name":"大谷流","address":"下総 印旛郡","source":"Geoshape 幕末期近世村領域データセット vector tiles (z7 extraction)","subarea_name":"近世村のおおよその範囲","feature_key":"village:K05G07S00263","accuracy_note":"2015年農業集落境界をもとに復元した概略範囲で、江戸時代の正確な村境ではありません"},"geometry":{"type":"Polygon","coordinates":[[[140.276184,35.632186],[140.280991,35.630512],[140.280991,35.628838],[140.282364,35.629396],[140.287857,35.626605],[140.288544,35.627163],[140.28923,35.627163],[140.288544,35.626047],[140.290604,35.623815],[140.287857,35.62214],[140.288544,35.621024],[140.286484,35.621024],[140.285797,35.619907],[140.280991,35.621582],[140.283051,35.619907],[140.28511,35.618791],[140.282364,35.618791],[140.278931,35.621582],[140.276871,35.624373],[140.272751,35.623256],[140.272064,35.624373],[140.274124,35.625489],[140.271378,35.626047],[140.270004,35.629396],[140.276184,35.632186]]]}},{"type":"Feature","properties":{"layer_id":"bakumatsu_villages","name":"戸山新田","address":"下総 印旛郡","source":"Geoshape 幕末期近世村領域データセット vector tiles (z7 extraction)","subarea_name":"近世村のおおよその範囲","feature_key":"village:K05G07S00213","accuracy_note":"2015年農業集落境界をもとに復元した概略範囲で、江戸時代の正確な村境ではありません"},"geometry":{"type":"Polygon","coordinates":[[[140.302963,35.677379],[140.306396,35.672916],[140.305023,35.666222],[140.300217,35.66678],[140.29953,35.669012],[140.296783,35.671801],[140.292664,35.672916],[140.291977,35.67459],[140.292664,35.677379],[140.29541,35.676821],[140.296783,35.675147],[140.302963,35.677379]]]}},{"type":"Feature","properties":{"layer_id":"bakumatsu_villages","name":"文違・雁丸新田","address":"下総 印旛郡","source":"Geoshape 幕末期近世村領域データセット vector tiles (z7 extraction)","subarea_name":"近世村のおおよその範囲","feature_key":"village:K05G07S00215,K05G07S00216","accuracy_note":"2015年農業集落境界をもとに復元した概略範囲で、江戸時代の正確な村境ではありません"},"geometry":{"type":"Polygon","coordinates":[[[140.318756,35.691879],[140.321503,35.687418],[140.324936,35.686302],[140.326309,35.684072],[140.329056,35.682956],[140.328369,35.681841],[140.324249,35.680725],[140.323563,35.675705],[140.324936,35.675705],[140.325623,35.672916],[140.321503,35.671801],[140.320816,35.672358],[140.321503,35.674032],[140.319443,35.672358],[140.306396,35.674032],[140.302963,35.678494],[140.305023,35.684629],[140.304337,35.68686],[140.30571,35.687976],[140.30571,35.689091],[140.306396,35.689649],[140.312576,35.687418],[140.315323,35.689649],[140.316696,35.688533],[140.316696,35.690206],[140.318756,35.691879]]]}},{"type":"Feature","properties":{"layer_id":"bakumatsu_villages","name":"東吉田","address":"下総 印旛郡","source":"Geoshape 幕末期近世村領域データセット vector tiles (z7 extraction)","subarea_name":"近世村のおおよその範囲","feature_key":"village:K05G07S00268","accuracy_note":"2015年農業集落境界をもとに復元した概略範囲で、江戸時代の正確な村境ではありません"},"geometry":{"type":"Polygon","coordinates":[[[140.30777,35.650601],[140.31601,35.647811],[140.318069,35.637767],[140.31601,35.638325],[140.311203,35.636651],[140.305023,35.638325],[140.302963,35.633861],[140.29747,35.636651],[140.296097,35.636651],[140.296097,35.637209],[140.294724,35.637767],[140.28923,35.638325],[140.28923,35.641115],[140.29129,35.645021],[140.29335,35.646137],[140.294724,35.648927],[140.30777,35.650601]]]}},{"type":"Feature","properties":{"layer_id":"bakumatsu_villages","name":"根古屋","address":"下総 印旛郡","source":"Geoshape 幕末期近世村領域データセット vector tiles (z7 extraction)","subarea_name":"近世村のおおよその範囲","feature_key":"village:K05G07S00262","accuracy_note":"2015年農業集落境界をもとに復元した概略範囲で、江戸時代の正確な村境ではありません"},"geometry":{"type":"MultiPolygon","coordinates":[[[[140.255585,35.645579],[140.255585,35.646137],[140.254898,35.648927],[140.256271,35.647253],[140.261078,35.649485],[140.262451,35.649485],[140.263138,35.647811],[140.260391,35.646137],[140.261078,35.645021],[140.259018,35.641673],[140.263824,35.640557],[140.259705,35.639999],[140.262451,35.636651],[140.264511,35.636093],[140.264511,35.634977],[140.265884,35.631628],[140.265884,35.630512],[140.264511,35.630512],[140.264511,35.629396],[140.263138,35.629954],[140.261078,35.628838],[140.261078,35.626605],[140.256958,35.625489],[140.255585,35.629396],[140.256271,35.636651],[140.254211,35.636093],[140.253525,35.637209],[140.256958,35.638325],[140.254898,35.639441],[140.254898,35.641673],[140.258331,35.645021],[140.255585,35.645579]]],[[[140.255585,35.645579],[140.254211,35.643905],[140.254898,35.643347],[140.251465,35.642789],[140.255585,35.645579]]]]}},{"type":"Feature","properties":{"layer_id":"bakumatsu_villages","name":"榎戸新田","address":"下総 印旛郡","source":"Geoshape 幕末期近世村領域データセット vector tiles (z7 extraction)","subarea_name":"近世村のおおよその範囲","feature_key":"village:K05G07S00212","accuracy_note":"2015年農業集落境界をもとに復元した概略範囲で、江戸時代の正確な村境ではありません"},"geometry":{"type":"MultiPolygon","coordinates":[[[[140.30571,35.689091],[140.30571,35.687976],[140.304337,35.68686],[140.305023,35.684629],[140.302963,35.679052],[140.304337,35.675147],[140.302963,35.677379],[140.296783,35.675147],[140.294724,35.677379],[140.291977,35.677379],[140.292664,35.67961],[140.287857,35.682956],[140.283737,35.690206],[140.28717,35.690764],[140.286484,35.692995],[140.288544,35.695783],[140.28923,35.69411],[140.291977,35.694668],[140.29541,35.693552],[140.300217,35.689649],[140.30159,35.689091],[140.302277,35.690206],[140.302277,35.689091],[140.30365,35.687418],[140.305023,35.687976],[140.30571,35.689091]]],[[[140.30571,35.689091],[140.306396,35.690206],[140.307083,35.689091],[140.30571,35.689091]]],[[[140.304337,35.675147],[140.306396,35.674032],[140.304337,35.67459],[140.304337,35.675147]]]]}},{"type":"Feature","properties":{"layer_id":"bakumatsu_villages","name":"用草","address":"下総 印旛郡","source":"Geoshape 幕末期近世村領域データセット vector tiles (z7 extraction)","subarea_name":"近世村のおおよその範囲","feature_key":"village:K05G07S00266","accuracy_note":"2015年農業集落境界をもとに復元した概略範囲で、江戸時代の正確な村境ではありません"},"geometry":{"type":"Polygon","coordinates":[[[140.272751,35.648927],[140.276184,35.648369],[140.275497,35.645021],[140.278931,35.643347],[140.278244,35.640557],[140.279617,35.638325],[140.277557,35.637767],[140.276184,35.632186],[140.270004,35.628838],[140.265198,35.631628],[140.264511,35.636093],[140.262451,35.636651],[140.259705,35.639999],[140.263824,35.640557],[140.266571,35.640557],[140.265198,35.641673],[140.265884,35.643905],[140.267944,35.646137],[140.272751,35.648927]]]}},{"type":"Feature","properties":{"layer_id":"bakumatsu_villages","name":"砂","address":"下総 印旛郡","source":"Geoshape 幕末期近世村領域データセット vector tiles (z7 extraction)","subarea_name":"近世村のおおよその範囲","feature_key":"village:K05G07S00270","accuracy_note":"2015年農業集落境界をもとに復元した概略範囲で、江戸時代の正確な村境ではありません"},"geometry":{"type":"Polygon","coordinates":[[[140.290604,35.623815],[140.294724,35.620466],[140.294037,35.619907],[140.30159,35.614884],[140.29953,35.610976],[140.300217,35.608743],[140.296783,35.608743],[140.294724,35.605952],[140.29541,35.604277],[140.29335,35.603719],[140.29129,35.605952],[140.290604,35.604277],[140.289917,35.601486],[140.286484,35.603719],[140.28717,35.60651],[140.286484,35.60986],[140.283051,35.60986],[140.282364,35.610976],[140.283737,35.610976],[140.282364,35.612093],[140.278244,35.614325],[140.280304,35.619907],[140.283051,35.618233],[140.28511,35.618791],[140.283051,35.619907],[140.280991,35.621582],[140.285797,35.619907],[140.290604,35.623815]]]}},{"type":"Feature","properties":{"layer_id":"bakumatsu_villages","name":"稲葉・小谷流","address":"下総 印旛郡","source":"Geoshape 幕末期近世村領域データセット vector tiles (z7 extraction)","subarea_name":"近世村のおおよその範囲","feature_key":"village:K05G07S00264,K05G07S00265","accuracy_note":"2015年農業集落境界をもとに復元した概略範囲で、江戸時代の正確な村境ではありません"},"geometry":{"type":"Polygon","coordinates":[[[140.268631,35.607627],[140.267258,35.608743],[140.267258,35.617675],[140.264511,35.621024],[140.265884,35.626605],[140.265198,35.627721],[140.261078,35.626605],[140.261078,35.628838],[140.263138,35.629954],[140.264511,35.629396],[140.264511,35.630512],[140.265884,35.630512],[140.265884,35.631628],[140.270004,35.629396],[140.271378,35.626047],[140.273438,35.626047],[140.272064,35.624373],[140.272751,35.623256],[140.276871,35.624373],[140.280304,35.620466],[140.278931,35.614884],[140.268631,35.607627]]]}},{"type":"Feature","properties":{"layer_id":"bakumatsu_villages","name":"米戸・坪山新田","address":"下総 印旛郡","source":"Geoshape 幕末期近世村領域データセット vector tiles (z7 extraction)","subarea_name":"近世村のおおよその範囲","feature_key":"village:K05G07S00211,K05G07S00220","accuracy_note":"2015年農業集落境界をもとに復元した概略範囲で、江戸時代の正確な村境ではありません"},"geometry":{"type":"MultiPolygon","coordinates":[[[[140.277557,35.669012],[140.278244,35.668454],[140.276871,35.667338],[140.277557,35.669012]]],[[[140.278244,35.673474],[140.278244,35.674032],[140.277557,35.677379],[140.272064,35.682398],[140.270004,35.679052],[140.267258,35.677379],[140.265884,35.677936],[140.265884,35.680725],[140.265198,35.680725],[140.264511,35.682956],[140.263138,35.683514],[140.263138,35.686302],[140.258331,35.687418],[140.256958,35.689091],[140.259705,35.689649],[140.260391,35.690764],[140.265198,35.687976],[140.269318,35.688533],[140.274124,35.687418],[140.277557,35.684072],[140.278244,35.681841],[140.275497,35.680167],[140.278931,35.676821],[140.278931,35.674032],[140.280991,35.672916],[140.280304,35.672358],[140.278244,35.673474]]],[[[140.276871,35.669569],[140.276184,35.669569],[140.276871,35.671243],[140.276871,35.669569]]]]}},{"type":"Feature","properties":{"layer_id":"civil_engineering_heritage","name":"榎戸新田橋りょう","address":"千葉県八街市","source":"土木学会 選奨土木遺産","subarea_name":"明治初年から進められた新開地への鉄道の開設に伴い建造された県下最初期の煉瓦造アーチ橋で、地域開発の記念碑となる土木遺産である。","feature_key":"civil:189:榎戸新田橋りょう","source_url":"https://committees.jsce.or.jp/heritage/node/917","accuracy_note":"公式地図の位置を優先して収録しています"},"geometry":{"type":"Point","coordinates":[140.293162,35.678501]}},{"type":"Feature","properties":{"layer_id":"historical_sites_archaeology","name":"根古谷城跡","address":"千葉県 八街市 根古谷","source":"Geoshape 日本歴史地名大系 施設・地点項目データセット 2025-05-15","subarea_name":"城跡","feature_key":"05_castle_ruins.geojson:120000146900","subtype":"城跡"},"geometry":{"type":"Point","coordinates":[140.259469,35.637869]}},{"type":"Feature","properties":{"layer_id":"historical_temples_shrines","name":"永福寺","address":"千葉県 八街市 小谷流154番地","source":"Geoshape 日本歴史地名大系 施設・地点項目データセット 2025-05-15","subarea_name":"寺院","feature_key":"01_temples.geojson:120000147200","subtype":"寺院"},"geometry":{"type":"Point","coordinates":[140.267456,35.622189]}},{"type":"Feature","properties":{"layer_id":"historical_temples_shrines","name":"法宣寺","address":"千葉県 八街市 根古谷827番地","source":"Geoshape 日本歴史地名大系 施設・地点項目データセット 2025-05-15","subarea_name":"寺院","feature_key":"01_temples.geojson:120000146800","subtype":"寺院"},"geometry":{"type":"Point","coordinates":[140.257462,35.641506]}}]}