{"type":"FeatureCollection","municipality_code":"12232","pref":"千葉県","city":"白井市","layer_counts":{"bakumatsu_villages":15,"historical_temples_shrines":1},"total_features":16,"features":[{"type":"Feature","properties":{"layer_id":"bakumatsu_villages","name":"七沢","address":"下総 印旛郡","source":"Geoshape 幕末期近世村領域データセット vector tiles (z7 extraction)","subarea_name":"近世村のおおよその範囲","feature_key":"village:K05G07S00005","accuracy_note":"2015年農業集落境界をもとに復元した概略範囲で、江戸時代の正確な村境ではありません"},"geometry":{"type":"Polygon","coordinates":[[[140.039978,35.796095],[140.048218,35.794425],[140.047531,35.793311],[140.051651,35.79164],[140.046844,35.788298],[140.045471,35.784956],[140.042038,35.784956],[140.042038,35.784399],[140.034485,35.782728],[140.033112,35.7805],[140.027618,35.781057],[140.030365,35.783285],[140.030365,35.788298],[140.035172,35.79164],[140.039978,35.796095]]]}},{"type":"Feature","properties":{"layer_id":"bakumatsu_villages","name":"中木戸新田","address":"下総 印旛郡","source":"Geoshape 幕末期近世村領域データセット vector tiles (z7 extraction)","subarea_name":"近世村のおおよその範囲","feature_key":"village:K05G07S00007","accuracy_note":"2015年農業集落境界をもとに復元した概略範囲で、江戸時代の正確な村境ではありません"},"geometry":{"type":"Polygon","coordinates":[[[140.037231,35.805006],[140.041351,35.802222],[140.039291,35.797209],[140.040665,35.796095],[140.035172,35.79164],[140.030365,35.788298],[140.030365,35.782728],[140.026932,35.7805],[140.022125,35.781057],[140.018692,35.784399],[140.020065,35.787741],[140.028305,35.797766],[140.030365,35.802222],[140.033798,35.801108],[140.035172,35.804449],[140.037231,35.805006]]]}},{"type":"Feature","properties":{"layer_id":"bakumatsu_villages","name":"中村新田","address":"下総 印旛郡","source":"Geoshape 幕末期近世村領域データセット vector tiles (z7 extraction)","subarea_name":"近世村のおおよその範囲","feature_key":"village:K05G07S00016","accuracy_note":"2015年農業集落境界をもとに復元した概略範囲で、江戸時代の正確な村境ではありません"},"geometry":{"type":"MultiPolygon","coordinates":[[[[140.048904,35.824494],[140.048904,35.826165],[140.051651,35.827278],[140.052338,35.829505],[140.055084,35.830618],[140.058517,35.818927],[140.055771,35.81837],[140.054398,35.813916],[140.055084,35.810018],[140.051651,35.810018],[140.048218,35.811688],[140.047531,35.813359],[140.044098,35.815029],[140.046844,35.822824],[140.048218,35.822824],[140.048904,35.823938],[140.048904,35.824494]]],[[[140.059204,35.818927],[140.07225,35.8167],[140.07225,35.815586],[140.064697,35.813359],[140.066757,35.812245],[140.065384,35.810575],[140.063324,35.811688],[140.058517,35.810018],[140.057831,35.811131],[140.054398,35.810575],[140.055771,35.81837],[140.059204,35.818927]]]]}},{"type":"Feature","properties":{"layer_id":"bakumatsu_villages","name":"今井新田","address":"下総 印旛郡","source":"Geoshape 幕末期近世村領域データセット vector tiles (z7 extraction)","subarea_name":"近世村のおおよその範囲","feature_key":"village:K05G07S00030","accuracy_note":"2015年農業集落境界をもとに復元した概略範囲で、江戸時代の正確な村境ではありません"},"geometry":{"type":"Polygon","coordinates":[[[140.055771,35.836185],[140.066757,35.834515],[140.07637,35.831175],[140.079803,35.831732],[140.079117,35.830618],[140.07637,35.829505],[140.075684,35.828391],[140.07225,35.830062],[140.070877,35.827835],[140.069504,35.829505],[140.066071,35.830618],[140.064011,35.832288],[140.060577,35.832288],[140.059891,35.831175],[140.055084,35.830618],[140.054398,35.831732],[140.055771,35.836185]]]}},{"type":"Feature","properties":{"layer_id":"bakumatsu_villages","name":"冨ヶ沢・冨ヶ谷・法目","address":"下総 印旛郡","source":"Geoshape 幕末期近世村領域データセット vector tiles (z7 extraction)","subarea_name":"近世村のおおよその範囲","feature_key":"village:K05G07S00009,K05G07S00010,K05G07S00011","accuracy_note":"2015年農業集落境界をもとに復元した概略範囲で、江戸時代の正確な村境ではありません"},"geometry":{"type":"Polygon","coordinates":[[[140.050964,35.78607],[140.052338,35.786627],[140.050964,35.787741],[140.051651,35.788298],[140.051651,35.789412],[140.053024,35.788298],[140.053711,35.789412],[140.054398,35.792197],[140.057144,35.793311],[140.063324,35.789412],[140.067444,35.789412],[140.065384,35.782171],[140.061264,35.7766],[140.057144,35.774929],[140.055084,35.774929],[140.048904,35.771586],[140.044785,35.771029],[140.039291,35.767129],[140.038605,35.768801],[140.040665,35.7727],[140.044785,35.774372],[140.046158,35.777714],[140.044785,35.778271],[140.045471,35.781614],[140.049591,35.781614],[140.050278,35.783285],[140.048218,35.784399],[140.052338,35.784399],[140.050964,35.78607]]]}},{"type":"Feature","properties":{"layer_id":"bakumatsu_villages","name":"冨塚","address":"下総 印旛郡","source":"Geoshape 幕末期近世村領域データセット vector tiles (z7 extraction)","subarea_name":"近世村のおおよその範囲","feature_key":"village:K05G07S00001","accuracy_note":"2015年農業集落境界をもとに復元した概略範囲で、江戸時代の正確な村境ではありません"},"geometry":{"type":"Polygon","coordinates":[[[140.041351,35.824494],[140.043411,35.823381],[140.046844,35.822824],[140.044098,35.815029],[140.037231,35.80779],[140.038605,35.80612],[140.037231,35.805006],[140.035172,35.804449],[140.033798,35.801108],[140.030365,35.802222],[140.031738,35.812245],[140.033798,35.8167],[140.036545,35.817813],[140.039291,35.821154],[140.041351,35.824494]]]}},{"type":"Feature","properties":{"layer_id":"bakumatsu_villages","name":"名内","address":"下総 印旛郡","source":"Geoshape 幕末期近世村領域データセット vector tiles (z7 extraction)","subarea_name":"近世村のおおよその範囲","feature_key":"village:K05G07S00014","accuracy_note":"2015年農業集落境界をもとに復元した概略範囲で、江戸時代の正確な村境ではありません"},"geometry":{"type":"MultiPolygon","coordinates":[[[[140.055084,35.834515],[140.055084,35.833402],[140.054398,35.831732],[140.055084,35.830618],[140.052338,35.829505],[140.051651,35.827278],[140.048904,35.826165],[140.048904,35.824494],[140.048218,35.824494],[140.048218,35.822824],[140.043411,35.823381],[140.042038,35.825051],[140.049591,35.832288],[140.055084,35.834515]]],[[[140.064011,35.832288],[140.066071,35.830618],[140.069504,35.829505],[140.070877,35.827278],[140.066757,35.824494],[140.063324,35.820597],[140.06813,35.817813],[140.058517,35.818927],[140.055084,35.830618],[140.059891,35.831175],[140.060577,35.832288],[140.064011,35.832288]]]]}},{"type":"Feature","properties":{"layer_id":"bakumatsu_villages","name":"所沢・野口","address":"下総 印旛郡","source":"Geoshape 幕末期近世村領域データセット vector tiles (z7 extraction)","subarea_name":"近世村のおおよその範囲","feature_key":"village:K05G07S00003,K05G07S00004","accuracy_note":"2015年農業集落境界をもとに復元した概略範囲で、江戸時代の正確な村境ではありません"},"geometry":{"type":"Polygon","coordinates":[[[140.054398,35.80779],[140.055771,35.807233],[140.054398,35.802222],[140.057144,35.79888],[140.055084,35.797209],[140.055771,35.796652],[140.055084,35.795538],[140.052338,35.793868],[140.049591,35.793868],[140.048904,35.792754],[140.047531,35.793311],[140.048218,35.794425],[140.042725,35.795538],[140.039291,35.797209],[140.041351,35.801108],[140.044098,35.803335],[140.049591,35.807233],[140.054398,35.80779]]]}},{"type":"Feature","properties":{"layer_id":"bakumatsu_villages","name":"折立","address":"下総 印旛郡","source":"Geoshape 幕末期近世村領域データセット vector tiles (z7 extraction)","subarea_name":"近世村のおおよその範囲","feature_key":"village:K05G07S00002","accuracy_note":"2015年農業集落境界をもとに復元した概略範囲で、江戸時代の正確な村境ではありません"},"geometry":{"type":"Polygon","coordinates":[[[140.044098,35.815029],[140.047531,35.813359],[140.048218,35.811688],[140.051651,35.810018],[140.057831,35.811131],[140.058517,35.810018],[140.055771,35.807233],[140.049591,35.807233],[140.041351,35.801108],[140.041351,35.802222],[140.037231,35.804449],[140.038605,35.80612],[140.037231,35.80779],[140.044098,35.815029]]]}},{"type":"Feature","properties":{"layer_id":"bakumatsu_villages","name":"橋本","address":"下総 印旛郡","source":"Geoshape 幕末期近世村領域データセット vector tiles (z7 extraction)","subarea_name":"近世村のおおよその範囲","feature_key":"village:K05G07S00013","accuracy_note":"2015年農業集落境界をもとに復元した概略範囲で、江戸時代の正確な村境ではありません"},"geometry":{"type":"Polygon","coordinates":[[[140.064011,35.811131],[140.066071,35.810018],[140.06813,35.802222],[140.070877,35.799994],[140.068817,35.799437],[140.067444,35.799994],[140.066757,35.801108],[140.055771,35.793868],[140.057144,35.793311],[140.051651,35.79164],[140.048904,35.792754],[140.049591,35.793868],[140.053024,35.794425],[140.055771,35.796652],[140.055084,35.797209],[140.057144,35.79888],[140.054398,35.802222],[140.055084,35.80612],[140.057144,35.809461],[140.061951,35.811131],[140.064011,35.811131]]]}},{"type":"Feature","properties":{"layer_id":"bakumatsu_villages","name":"清戸","address":"下総 印旛郡","source":"Geoshape 幕末期近世村領域データセット vector tiles (z7 extraction)","subarea_name":"近世村のおおよその範囲","feature_key":"village:K05G07S00018","accuracy_note":"2015年農業集落境界をもとに復元した概略範囲で、江戸時代の正確な村境ではありません"},"geometry":{"type":"Polygon","coordinates":[[[140.092163,35.804449],[140.097656,35.803335],[140.098343,35.802778],[140.097656,35.801665],[140.09903,35.800551],[140.101089,35.801665],[140.103149,35.79888],[140.099716,35.797766],[140.096283,35.799437],[140.09491,35.798323],[140.09285,35.796095],[140.092163,35.796095],[140.09079,35.793311],[140.08873,35.792754],[140.090103,35.791083],[140.089417,35.790526],[140.089417,35.789969],[140.087357,35.790526],[140.08667,35.788855],[140.087357,35.788298],[140.085983,35.786627],[140.081177,35.792754],[140.083923,35.795538],[140.083923,35.797209],[140.08667,35.798323],[140.08667,35.801665],[140.092163,35.804449]]]}},{"type":"Feature","properties":{"layer_id":"bakumatsu_villages","name":"白井木戸新田","address":"下総 印旛郡","source":"Geoshape 幕末期近世村領域データセット vector tiles (z7 extraction)","subarea_name":"近世村のおおよその範囲","feature_key":"village:K05G07S00008","accuracy_note":"2015年農業集落境界をもとに復元した概略範囲で、江戸時代の正確な村境ではありません"},"geometry":{"type":"MultiPolygon","coordinates":[[[[140.033112,35.7805],[140.028305,35.7766],[140.026932,35.777714],[140.024872,35.776043],[140.026245,35.774929],[140.022812,35.771586],[140.019379,35.774372],[140.026932,35.7805],[140.033112,35.7805]]],[[[140.029678,35.777714],[140.028305,35.773258],[140.029678,35.771586],[140.020752,35.766015],[140.015945,35.767129],[140.014572,35.768244],[140.018005,35.774372],[140.020065,35.774372],[140.022812,35.771586],[140.026245,35.774929],[140.024872,35.776043],[140.026932,35.777714],[140.028305,35.7766],[140.029678,35.777714]]],[[[140.050964,35.78607],[140.052338,35.784399],[140.048218,35.784399],[140.050278,35.783285],[140.049591,35.781614],[140.045471,35.781614],[140.044785,35.778271],[140.046158,35.777714],[140.044785,35.774372],[140.040665,35.7727],[140.038605,35.768801],[140.039291,35.767129],[140.037918,35.767129],[140.037231,35.768801],[140.033798,35.769358],[140.029678,35.771586],[140.028305,35.773258],[140.028305,35.775486],[140.034485,35.782728],[140.042038,35.784399],[140.042038,35.784956],[140.045471,35.784956],[140.046844,35.788298],[140.050278,35.791083],[140.054398,35.792197],[140.053711,35.789412],[140.053024,35.788298],[140.051651,35.789412],[140.051651,35.788298],[140.050964,35.787741],[140.052338,35.786627],[140.050964,35.78607]]]]}},{"type":"Feature","properties":{"layer_id":"bakumatsu_villages","name":"神々廻","address":"下総 印旛郡","source":"Geoshape 幕末期近世村領域データセット vector tiles (z7 extraction)","subarea_name":"近世村のおおよその範囲","feature_key":"village:K05G07S00017","accuracy_note":"2015年農業集落境界をもとに復元した概略範囲で、江戸時代の正確な村境ではありません"},"geometry":{"type":"Polygon","coordinates":[[[140.071564,35.815586],[140.073624,35.813916],[140.077744,35.815029],[140.08255,35.815029],[140.089417,35.809461],[140.090103,35.804449],[140.094223,35.804449],[140.090103,35.803892],[140.08667,35.801665],[140.08667,35.798323],[140.083923,35.797209],[140.083923,35.795538],[140.081177,35.792754],[140.070877,35.799994],[140.06813,35.802222],[140.065384,35.810575],[140.066757,35.812245],[140.064697,35.813359],[140.071564,35.815586]]]}},{"type":"Feature","properties":{"layer_id":"bakumatsu_villages","name":"谷田","address":"下総 印旛郡","source":"Geoshape 幕末期近世村領域データセット vector tiles (z7 extraction)","subarea_name":"近世村のおおよその範囲","feature_key":"village:K05G07S00019","accuracy_note":"2015年農業集落境界をもとに復元した概略範囲で、江戸時代の正確な村境ではありません"},"geometry":{"type":"Polygon","coordinates":[[[140.110016,35.800551],[140.110703,35.799994],[140.103836,35.796652],[140.104523,35.795538],[140.102463,35.794425],[140.103149,35.792197],[140.096283,35.783285],[140.089417,35.784399],[140.085983,35.786627],[140.087357,35.788298],[140.08667,35.788855],[140.087357,35.790526],[140.089417,35.789969],[140.089417,35.790526],[140.090103,35.791083],[140.08873,35.792754],[140.09079,35.793311],[140.092163,35.796095],[140.09285,35.796095],[140.09285,35.797209],[140.096283,35.799437],[140.101776,35.798323],[140.110016,35.800551]]]}},{"type":"Feature","properties":{"layer_id":"bakumatsu_villages","name":"長殿","address":"下総 印旛郡","source":"Geoshape 幕末期近世村領域データセット vector tiles (z7 extraction)","subarea_name":"近世村のおおよその範囲","feature_key":"village:K05G07S00012","accuracy_note":"2015年農業集落境界をもとに復元した概略範囲で、江戸時代の正確な村境ではありません"},"geometry":{"type":"Polygon","coordinates":[[[140.067444,35.801108],[140.067444,35.799994],[140.068817,35.799437],[140.066757,35.793311],[140.067444,35.789412],[140.063324,35.789412],[140.055771,35.793868],[140.067444,35.801108]]]}},{"type":"Feature","properties":{"layer_id":"historical_temples_shrines","name":"鳥見神社","address":"千葉県 白井市 富塚694番地","source":"Geoshape 日本歴史地名大系 施設・地点項目データセット 2025-05-15","subarea_name":"神社","feature_key":"02_shrines.geojson:120000107300","subtype":"神社"},"geometry":{"type":"Point","coordinates":[140.034363,35.803658]}}]}