{"type":"FeatureCollection","municipality_code":"13305","pref":"東京都","city":"日の出町","layer_counts":{"bakumatsu_villages":4,"historical_sites_archaeology":2,"historical_temples_shrines":1},"total_features":7,"features":[{"type":"Feature","properties":{"layer_id":"bakumatsu_villages","name":"中平井村・上平井村・下平井村","address":"武蔵 多摩郡","source":"Geoshape 幕末期近世村領域データセット vector tiles (z7 extraction)","subarea_name":"近世村のおおよその範囲","feature_key":"village:K09G05S00327,K09G05S00328,K09G05S00329","accuracy_note":"2015年農業集落境界をもとに復元した概略範囲で、江戸時代の正確な村境ではありません"},"geometry":{"type":"Polygon","coordinates":[[[139.255142,35.760443],[139.261322,35.755986],[139.267502,35.754871],[139.269562,35.753757],[139.275055,35.753757],[139.277115,35.752642],[139.280548,35.747627],[139.279175,35.742611],[139.282608,35.740939],[139.283981,35.740939],[139.283295,35.738153],[139.283981,35.734808],[139.283295,35.731464],[139.277802,35.733694],[139.262695,35.732579],[139.261322,35.734251],[139.257889,35.734808],[139.257202,35.735923],[139.244843,35.737038],[139.243469,35.739267],[139.247589,35.740939],[139.251709,35.740382],[139.252396,35.742611],[139.253769,35.743168],[139.252396,35.744283],[139.253082,35.745398],[139.253082,35.74707],[139.255142,35.748184],[139.255829,35.749299],[139.252396,35.753757],[139.253769,35.755428],[139.253082,35.757657],[139.255142,35.760443]]]}},{"type":"Feature","properties":{"layer_id":"bakumatsu_villages","name":"伊奈村・横沢村・三内村・網代村・山田村","address":"武蔵 多摩郡","source":"Geoshape 幕末期近世村領域データセット vector tiles (z7 extraction)","subarea_name":"近世村のおおよその範囲","feature_key":"village:K09G05S00323,K09G05S00324,K09G05S00325,K09G05S00326,K09G05S00336","accuracy_note":"2015年農業集落境界をもとに復元した概略範囲で、江戸時代の正確な村境ではありません"},"geometry":{"type":"Polygon","coordinates":[[[139.216003,35.74484],[139.221497,35.743726],[139.226303,35.740382],[139.234543,35.739267],[139.239349,35.739825],[139.243469,35.739267],[139.244843,35.737038],[139.254456,35.73648],[139.261322,35.734251],[139.262695,35.732579],[139.266129,35.733136],[139.266815,35.730907],[139.265442,35.725332],[139.260635,35.72143],[139.260635,35.718643],[139.257202,35.71251],[139.254456,35.713068],[139.251709,35.71251],[139.248962,35.710838],[139.246216,35.711395],[139.244843,35.713625],[139.242783,35.71251],[139.240036,35.714741],[139.240723,35.7192],[139.244156,35.722545],[139.244843,35.726447],[139.242783,35.727562],[139.242783,35.730349],[139.235916,35.729792],[139.23111,35.731464],[139.23111,35.733694],[139.230423,35.733136],[139.229736,35.734808],[139.226303,35.73648],[139.225616,35.737595],[139.219437,35.741497],[139.216003,35.74484]]]}},{"type":"Feature","properties":{"layer_id":"bakumatsu_villages","name":"油平村・牛沼村・下代継村・上代継村・淵上村・引田村","address":"武蔵 多摩郡","source":"Geoshape 幕末期近世村領域データセット vector tiles (z7 extraction)","subarea_name":"近世村のおおよその範囲","feature_key":"village:K09G05S00317,K09G05S00318,K09G05S00319,K09G05S00320,K09G05S00321,K09G05S00322","accuracy_note":"2015年農業集落境界をもとに復元した概略範囲で、江戸時代の正確な村境ではありません"},"geometry":{"type":"Polygon","coordinates":[[[139.277802,35.733694],[139.283295,35.731464],[139.283295,35.72812],[139.286041,35.728677],[139.284668,35.729234],[139.288788,35.729234],[139.289474,35.724218],[139.291534,35.724218],[139.291534,35.721988],[139.289474,35.719758],[139.290848,35.716971],[139.290161,35.714741],[139.292221,35.713625],[139.283295,35.713068],[139.273682,35.715298],[139.271622,35.714741],[139.271622,35.713068],[139.270935,35.711395],[139.265442,35.71028],[139.260635,35.710838],[139.257202,35.71251],[139.260635,35.718643],[139.260635,35.72143],[139.265442,35.725332],[139.266815,35.730907],[139.266129,35.733136],[139.277802,35.733694]]]}},{"type":"Feature","properties":{"layer_id":"bakumatsu_villages","name":"留原村・五日市村・入野村・深沢村・小中野村・小和田村・舘屋村・高尾村","address":"武蔵 多摩郡","source":"Geoshape 幕末期近世村領域データセット vector tiles (z7 extraction)","subarea_name":"近世村のおおよその範囲","feature_key":"village:K09G05S00333,K09G05S00334,K09G05S00335,K09G05S00337,K09G05S00338,K09G05S00339,K09G05S00343,K09G05S00344","accuracy_note":"2015年農業集落境界をもとに復元した概略範囲で、江戸時代の正確な村境ではありません"},"geometry":{"type":"Polygon","coordinates":[[[139.188538,35.762672],[139.194031,35.761],[139.197464,35.758214],[139.200897,35.757657],[139.203644,35.755986],[139.205017,35.754314],[139.207764,35.752642],[139.21257,35.752085],[139.211884,35.748741],[139.21463,35.74707],[139.21463,35.74484],[139.220123,35.740939],[139.222183,35.740382],[139.222183,35.739267],[139.225616,35.737595],[139.226303,35.73648],[139.22905,35.735366],[139.230423,35.733136],[139.23111,35.733694],[139.23111,35.731464],[139.235916,35.729792],[139.238663,35.730349],[139.242783,35.729792],[139.242783,35.727562],[139.244843,35.726447],[139.244156,35.722545],[139.240723,35.7192],[139.240036,35.714741],[139.241409,35.714183],[139.239349,35.714183],[139.237289,35.713625],[139.235229,35.715298],[139.229736,35.715856],[139.228363,35.716413],[139.221497,35.716413],[139.21875,35.716971],[139.213257,35.72143],[139.21257,35.723103],[139.209824,35.72366],[139.20639,35.729792],[139.207764,35.733694],[139.207077,35.737038],[139.205017,35.73871],[139.197464,35.740939],[139.196777,35.745398],[139.191284,35.75097],[139.190598,35.755428],[139.188538,35.757657],[139.187851,35.761558],[139.188538,35.762672]]]}},{"type":"Feature","properties":{"layer_id":"historical_sites_archaeology","name":"三吉野遺跡群","address":"東京都 西多摩郡日の出町 大字平井","source":"Geoshape 日本歴史地名大系 施設・地点項目データセット 2025-05-15","subarea_name":"遺跡","feature_key":"08_archaeological_sites.geojson:130000446300","subtype":"遺跡"},"geometry":{"type":"Point","coordinates":[139.277098,35.741311]}},{"type":"Feature","properties":{"layer_id":"historical_sites_archaeology","name":"岳の上遺跡","address":"東京都 西多摩郡日の出町 大字平井","source":"Geoshape 日本歴史地名大系 施設・地点項目データセット 2025-05-15","subarea_name":"遺跡","feature_key":"08_archaeological_sites.geojson:130000446200","subtype":"遺跡"},"geometry":{"type":"Point","coordinates":[139.25715,35.738074]}},{"type":"Feature","properties":{"layer_id":"historical_temples_shrines","name":"勝峰神社","address":"東京都 西多摩郡日の出町 大字大久野3039番地2","source":"Geoshape 日本歴史地名大系 施設・地点項目データセット 2025-05-15","subarea_name":"神社","feature_key":"02_shrines.geojson:130000446600","subtype":"神社"},"geometry":{"type":"Point","coordinates":[139.22702,35.753826]}}]}