{"type":"FeatureCollection","municipality_code":"14103","pref":"神奈川県","city":"横浜市西区","layer_counts":{"bakumatsu_villages":1,"edo_roads":1,"historical_sites_archaeology":3,"historical_temples_shrines":3},"total_features":8,"features":[{"type":"Feature","properties":{"layer_id":"bakumatsu_villages","name":"中村・弘明寺村・蒔田村・堀之内村・井土ヶ谷村","address":"武蔵 久良岐郡","source":"Geoshape 幕末期近世村領域データセット vector tiles (z7 extraction)","subarea_name":"近世村のおおよその範囲","feature_key":"village:K09G06S00008,K09G06S00014,K09G06S00019,K09G06S00020,K09G06S00023","accuracy_note":"2015年農業集落境界をもとに復元した概略範囲で、江戸時代の正確な村境ではありません"},"geometry":{"type":"Polygon","coordinates":[[[139.621124,35.442212],[139.623184,35.439974],[139.621124,35.438855],[139.622498,35.436617],[139.630051,35.440533],[139.632797,35.436617],[139.63623,35.437177],[139.635544,35.43326],[139.638977,35.43382],[139.638977,35.432701],[139.636917,35.430463],[139.634171,35.429904],[139.634171,35.428785],[139.630051,35.427666],[139.627304,35.428225],[139.623184,35.426546],[139.619751,35.427106],[139.618378,35.425427],[139.616318,35.425427],[139.614944,35.423749],[139.612885,35.42263],[139.608765,35.424868],[139.608765,35.426546],[139.606705,35.427106],[139.604645,35.426546],[139.603958,35.423749],[139.599838,35.423749],[139.598465,35.419832],[139.596405,35.420392],[139.597778,35.42207],[139.595718,35.42263],[139.594345,35.424868],[139.596405,35.424868],[139.598465,35.427666],[139.597092,35.427666],[139.597092,35.430463],[139.595718,35.431023],[139.596405,35.432701],[139.602585,35.434939],[139.603958,35.43326],[139.606705,35.434379],[139.607391,35.43326],[139.608765,35.432701],[139.612885,35.435498],[139.614258,35.435498],[139.617004,35.437736],[139.615631,35.439414],[139.619064,35.439974],[139.621124,35.442212]]]}},{"type":"Feature","properties":{"layer_id":"edo_roads","name":"東海道","address":"江戸 → 京都","source":"CODH 江戸主要街道データセット Version 4 (2026-08)","subarea_name":"江戸期の主要街道","feature_key":"road:R001"},"geometry":{"type":"LineString","coordinates":[[139.6065,35.45955],[139.60756,35.46083],[139.60884,35.46308],[139.61042,35.46459],[139.61246,35.4657],[139.61407,35.46804],[139.61477,35.46859],[139.61638,35.46925]]}},{"type":"Feature","properties":{"layer_id":"historical_sites_archaeology","name":"神奈川奉行所跡","address":"神奈川県 横浜市西区 紅葉ケ丘","source":"Geoshape 日本歴史地名大系 施設・地点項目データセット 2025-05-15","subarea_name":"史跡","feature_key":"09_historic_sites.geojson:140000027600","subtype":"史跡"},"geometry":{"type":"Point","coordinates":[139.62661,35.451678]}},{"type":"Feature","properties":{"layer_id":"historical_sites_archaeology","name":"軽井沢古墳","address":"神奈川県 横浜市西区 南軽井沢","source":"Geoshape 日本歴史地名大系 施設・地点項目データセット 2025-05-15","subarea_name":"古墳","feature_key":"06_kofun.geojson:140000026700","subtype":"古墳"},"geometry":{"type":"Point","coordinates":[139.610442,35.467351]}},{"type":"Feature","properties":{"layer_id":"historical_sites_archaeology","name":"金星太陽面経過観測地","address":"神奈川県 横浜市西区 宮崎町","source":"Geoshape 日本歴史地名大系 施設・地点項目データセット 2025-05-15","subarea_name":"史跡","feature_key":"09_historic_sites.geojson:140000027700","subtype":"史跡"},"geometry":{"type":"Point","coordinates":[139.627039,35.45072]}},{"type":"Feature","properties":{"layer_id":"historical_temples_shrines","name":"東福寺","address":"神奈川県 横浜市 西区赤門町二丁目17番地","source":"Geoshape 日本歴史地名大系 施設・地点項目データセット 2025-05-15","subarea_name":"寺院","feature_key":"01_temples.geojson:140000028000","subtype":"寺院"},"geometry":{"type":"Point","coordinates":[139.62175,35.443329]}},{"type":"Feature","properties":{"layer_id":"historical_temples_shrines","name":"森山神社","address":"神奈川県 横浜市 西区浅間町一丁目19番地","source":"Geoshape 日本歴史地名大系 施設・地点項目データセット 2025-05-15","subarea_name":"神社","feature_key":"02_shrines.geojson:140000111200","subtype":"神社"},"geometry":{"type":"Point","coordinates":[139.610901,35.465446]}},{"type":"Feature","properties":{"layer_id":"historical_temples_shrines","name":"白山神社","address":"神奈川県 横浜市 西区浅間町一丁目19番地","source":"Geoshape 日本歴史地名大系 施設・地点項目データセット 2025-05-15","subarea_name":"神社","feature_key":"02_shrines.geojson:140000104000","subtype":"神社"},"geometry":{"type":"Point","coordinates":[139.610901,35.465446]}}]}