{"type":"FeatureCollection","municipality_code":"14110","pref":"神奈川県","city":"横浜市戸塚区","layer_counts":{"bakumatsu_villages":23,"civil_engineering_heritage":1,"edo_post_stations":1,"edo_roads":2,"historical_sites_archaeology":2},"total_features":29,"features":[{"type":"Feature","properties":{"layer_id":"bakumatsu_villages","name":"上俣野村","address":"相模 鎌倉郡","source":"Geoshape 幕末期近世村領域データセット vector tiles (z7 extraction)","subarea_name":"近世村のおおよその範囲","feature_key":"village:K10G02S00003","accuracy_note":"2015年農業集落境界をもとに復元した概略範囲で、江戸時代の正確な村境ではありません"},"geometry":{"type":"Polygon","coordinates":[[[139.492722,35.391289],[139.494095,35.390729],[139.494781,35.387371],[139.494095,35.386811],[139.494095,35.386251],[139.498901,35.382332],[139.496155,35.377294],[139.498901,35.377294],[139.498901,35.374494],[139.495468,35.376174],[139.494781,35.377294],[139.493408,35.375614],[139.492035,35.379533],[139.489288,35.381773],[139.485168,35.382892],[139.483795,35.39017],[139.487915,35.38849],[139.492722,35.391289]]]}},{"type":"Feature","properties":{"layer_id":"bakumatsu_villages","name":"上倉田村","address":"相模 鎌倉郡","source":"Geoshape 幕末期近世村領域データセット vector tiles (z7 extraction)","subarea_name":"近世村のおおよその範囲","feature_key":"village:K10G02S00063","accuracy_note":"2015年農業集落境界をもとに復元した概略範囲で、江戸時代の正確な村境ではありません"},"geometry":{"type":"Polygon","coordinates":[[[139.535294,35.400804],[139.53598,35.399125],[139.54216,35.398006],[139.54422,35.399125],[139.546967,35.391289],[139.546967,35.386811],[139.543533,35.38793],[139.541473,35.38961],[139.539413,35.38849],[139.532547,35.38905],[139.532547,35.394648],[139.533234,35.398566],[139.535294,35.400804]]]}},{"type":"Feature","properties":{"layer_id":"bakumatsu_villages","name":"上柏尾村","address":"相模 鎌倉郡","source":"Geoshape 幕末期近世村領域データセット vector tiles (z7 extraction)","subarea_name":"近世村のおおよその範囲","feature_key":"village:K10G02S00067","accuracy_note":"2015年農業集落境界をもとに復元した概略範囲で、江戸時代の正確な村境ではありません"},"geometry":{"type":"Polygon","coordinates":[[[139.55246,35.421511],[139.555893,35.420951],[139.557953,35.416475],[139.553833,35.414796],[139.551773,35.418153],[139.54834,35.418713],[139.546967,35.417594],[139.545593,35.419272],[139.549713,35.420951],[139.551773,35.420392],[139.55246,35.421511]]]}},{"type":"Feature","properties":{"layer_id":"bakumatsu_villages","name":"上矢部村","address":"相模 鎌倉郡","source":"Geoshape 幕末期近世村領域データセット vector tiles (z7 extraction)","subarea_name":"近世村のおおよその範囲","feature_key":"village:K10G02S00075","accuracy_note":"2015年農業集落境界をもとに復元した概略範囲で、江戸時代の正確な村境ではありません"},"geometry":{"type":"MultiPolygon","coordinates":[[[[139.529114,35.429344],[139.5298,35.428225],[139.531174,35.427106],[139.532547,35.424868],[139.5298,35.423189],[139.529114,35.420951],[139.524994,35.419272],[139.525681,35.42207],[139.52774,35.42263],[139.52774,35.428225],[139.529114,35.429344]]],[[[139.531174,35.423189],[139.532547,35.420392],[139.533234,35.417594],[139.532547,35.416475],[139.529114,35.414796],[139.528427,35.415355],[139.527054,35.414796],[139.521561,35.415915],[139.523621,35.417034],[139.524307,35.419272],[139.529114,35.420951],[139.531174,35.423189]]],[[[139.53392,35.428225],[139.535294,35.427666],[139.5401,35.427666],[139.5401,35.426546],[139.541473,35.425987],[139.539413,35.42263],[139.53598,35.420951],[139.537354,35.419272],[139.53598,35.415915],[139.532547,35.416475],[139.533234,35.417594],[139.532547,35.420392],[139.531174,35.423189],[139.532547,35.424868],[139.531174,35.427106],[139.53392,35.428225]]],[[[139.537354,35.419272],[139.53804,35.417594],[139.535294,35.40864],[139.53392,35.40864],[139.534607,35.410878],[139.5298,35.413117],[139.527054,35.411438],[139.526367,35.4092],[139.524307,35.40864],[139.522934,35.40864],[139.522247,35.411998],[139.520187,35.413117],[139.521561,35.415915],[139.527054,35.414796],[139.528427,35.415355],[139.529114,35.414796],[139.532547,35.416475],[139.53598,35.415915],[139.537354,35.419272]]]]}},{"type":"Feature","properties":{"layer_id":"bakumatsu_villages","name":"下倉田村","address":"相模 鎌倉郡","source":"Geoshape 幕末期近世村領域データセット vector tiles (z7 extraction)","subarea_name":"近世村のおおよその範囲","feature_key":"village:K10G02S00064","accuracy_note":"2015年農業集落境界をもとに復元した概略範囲で、江戸時代の正確な村境ではありません"},"geometry":{"type":"Polygon","coordinates":[[[139.541473,35.38961],[139.543533,35.38793],[139.546967,35.386811],[139.551086,35.383452],[139.546967,35.377854],[139.540787,35.379533],[139.535294,35.383452],[139.53186,35.383452],[139.53186,35.384572],[139.532547,35.38905],[139.539413,35.38849],[139.541473,35.38961]]]}},{"type":"Feature","properties":{"layer_id":"bakumatsu_villages","name":"下柏尾村","address":"相模 鎌倉郡","source":"Geoshape 幕末期近世村領域データセット vector tiles (z7 extraction)","subarea_name":"近世村のおおよその範囲","feature_key":"village:K10G02S00068","accuracy_note":"2015年農業集落境界をもとに復元した概略範囲で、江戸時代の正確な村境ではありません"},"geometry":{"type":"Polygon","coordinates":[[[139.545593,35.419272],[139.546967,35.417594],[139.54834,35.418713],[139.551773,35.418153],[139.553833,35.414796],[139.553146,35.411438],[139.551773,35.411438],[139.5504,35.412557],[139.546967,35.411998],[139.54216,35.413117],[139.541473,35.411438],[139.536667,35.410878],[139.538727,35.415915],[139.545593,35.419272]]]}},{"type":"Feature","properties":{"layer_id":"bakumatsu_villages","name":"前山田村","address":"相模 鎌倉郡","source":"Geoshape 幕末期近世村領域データセット vector tiles (z7 extraction)","subarea_name":"近世村のおおよその範囲","feature_key":"village:K10G02S00071","accuracy_note":"2015年農業集落境界をもとに復元した概略範囲で、江戸時代の正確な村境ではありません"},"geometry":{"type":"Polygon","coordinates":[[[139.555206,35.427666],[139.55658,35.420951],[139.55246,35.421511],[139.551086,35.420392],[139.546967,35.424308],[139.54628,35.427106],[139.555206,35.427666]]]}},{"type":"Feature","properties":{"layer_id":"bakumatsu_villages","name":"原宿村","address":"相模 鎌倉郡","source":"Geoshape 幕末期近世村領域データセット vector tiles (z7 extraction)","subarea_name":"近世村のおおよその範囲","feature_key":"village:K10G02S00090","accuracy_note":"2015年農業集落境界をもとに復元した概略範囲で、江戸時代の正確な村境ではありません"},"geometry":{"type":"Polygon","coordinates":[[[139.506454,35.384572],[139.512634,35.381773],[139.514694,35.383452],[139.515381,35.383452],[139.516068,35.379533],[139.518814,35.379533],[139.518814,35.378413],[139.516068,35.378973],[139.509888,35.377294],[139.506454,35.375614],[139.502335,35.367776],[139.499588,35.368895],[139.500275,35.370015],[139.498215,35.373375],[139.499588,35.376734],[139.498901,35.378413],[139.500275,35.378413],[139.500961,35.378973],[139.501648,35.378413],[139.503021,35.380653],[139.502335,35.382332],[139.505081,35.382892],[139.505768,35.384012],[139.506454,35.384572]]]}},{"type":"Feature","properties":{"layer_id":"bakumatsu_villages","name":"吉田村","address":"相模 鎌倉郡","source":"Geoshape 幕末期近世村領域データセット vector tiles (z7 extraction)","subarea_name":"近世村のおおよその範囲","feature_key":"village:K10G02S00077","accuracy_note":"2015年農業集落境界をもとに復元した概略範囲で、江戸時代の正確な村境ではありません"},"geometry":{"type":"Polygon","coordinates":[[[139.540787,35.411438],[139.542847,35.40864],[139.54422,35.4092],[139.546967,35.404163],[139.54422,35.399125],[139.54216,35.398006],[139.53598,35.399125],[139.534607,35.402484],[139.53186,35.401364],[139.532547,35.403043],[139.534607,35.403043],[139.53598,35.401924],[139.537354,35.403603],[139.535294,35.40864],[139.536667,35.410878],[139.540787,35.411438]]]}},{"type":"Feature","properties":{"layer_id":"bakumatsu_villages","name":"名瀬村","address":"相模 鎌倉郡","source":"Geoshape 幕末期近世村領域データセット vector tiles (z7 extraction)","subarea_name":"近世村のおおよその範囲","feature_key":"village:K10G02S00074","accuracy_note":"2015年農業集落境界をもとに復元した概略範囲で、江戸時代の正確な村境ではありません"},"geometry":{"type":"MultiPolygon","coordinates":[[[[139.5298,35.447805],[139.534607,35.446687],[139.53598,35.44389],[139.537354,35.44333],[139.53804,35.44389],[139.53804,35.439974],[139.535294,35.438296],[139.533234,35.438296],[139.530487,35.437177],[139.5298,35.434939],[139.53186,35.432701],[139.529114,35.431023],[139.529114,35.429344],[139.524994,35.438296],[139.525681,35.439414],[139.529114,35.439974],[139.530487,35.442212],[139.529114,35.44389],[139.525681,35.445009],[139.526367,35.447246],[139.5298,35.447805]]],[[[139.53804,35.439974],[139.538727,35.438855],[139.54216,35.438296],[139.545593,35.432141],[139.544907,35.427106],[139.540787,35.427666],[139.539413,35.429904],[139.53186,35.427106],[139.530487,35.427666],[139.529114,35.431023],[139.53186,35.432701],[139.5298,35.434939],[139.530487,35.437177],[139.533234,35.438296],[139.535294,35.438296],[139.53804,35.439974]]],[[[139.539413,35.429904],[139.540787,35.427666],[139.544907,35.427106],[139.541473,35.423749],[139.5401,35.424868],[139.541473,35.425987],[139.5401,35.426546],[139.5401,35.427666],[139.536667,35.427106],[139.534607,35.428225],[139.539413,35.429904]]],[[[139.542847,35.424308],[139.541473,35.420392],[139.5401,35.419272],[139.5401,35.416475],[139.53804,35.414796],[139.53804,35.417594],[139.53598,35.420951],[139.540787,35.424308],[139.541473,35.423749],[139.542847,35.424308]]]]}},{"type":"Feature","properties":{"layer_id":"bakumatsu_villages","name":"品濃村","address":"相模 鎌倉郡","source":"Geoshape 幕末期近世村領域データセット vector tiles (z7 extraction)","subarea_name":"近世村のおおよその範囲","feature_key":"village:K10G02S00070","accuracy_note":"2015年農業集落境界をもとに復元した概略範囲で、江戸時代の正確な村境ではありません"},"geometry":{"type":"MultiPolygon","coordinates":[[[[139.54834,35.447805],[139.549026,35.445568],[139.551086,35.445009],[139.551773,35.44333],[139.555206,35.44333],[139.557953,35.441652],[139.557953,35.438296],[139.561386,35.436058],[139.560013,35.436058],[139.557953,35.43382],[139.557266,35.434379],[139.55658,35.43326],[139.555893,35.43382],[139.553833,35.432141],[139.549026,35.436617],[139.547653,35.436058],[139.545593,35.437736],[139.545593,35.444449],[139.54422,35.445009],[139.544907,35.447805],[139.54834,35.447805]]],[[[139.566879,35.437177],[139.562759,35.431582],[139.562759,35.428225],[139.560013,35.427106],[139.559326,35.424868],[139.555893,35.420951],[139.555206,35.424308],[139.55658,35.429344],[139.555893,35.43382],[139.55658,35.43326],[139.557266,35.434379],[139.557953,35.43382],[139.560013,35.436058],[139.566879,35.437177]]]]}},{"type":"Feature","properties":{"layer_id":"bakumatsu_villages","name":"小雀村","address":"相模 鎌倉郡","source":"Geoshape 幕末期近世村領域データセット vector tiles (z7 extraction)","subarea_name":"近世村のおおよその範囲","feature_key":"village:K10G02S00058","accuracy_note":"2015年農業集落境界をもとに復元した概略範囲で、江戸時代の正確な村境ではありません"},"geometry":{"type":"Polygon","coordinates":[[[139.515381,35.378973],[139.518814,35.378413],[139.521561,35.376174],[139.522247,35.373934],[139.518127,35.375054],[139.516068,35.373375],[139.518814,35.369455],[139.518127,35.368335],[139.518814,35.364416],[139.518127,35.362176],[139.513321,35.362736],[139.511261,35.364416],[139.502335,35.367776],[139.506454,35.375614],[139.509888,35.377294],[139.513321,35.377854],[139.515381,35.378973]]]}},{"type":"Feature","properties":{"layer_id":"bakumatsu_villages","name":"山谷新田","address":"相模 鎌倉郡","source":"Geoshape 幕末期近世村領域データセット vector tiles (z7 extraction)","subarea_name":"近世村のおおよその範囲","feature_key":"village:K10G02S00004","accuracy_note":"2015年農業集落境界をもとに復元した概略範囲で、江戸時代の正確な村境ではありません"},"geometry":{"type":"Polygon","coordinates":[[[139.494095,35.358816],[139.493408,35.358816],[139.499588,35.368895],[139.502335,35.367776],[139.501648,35.367216],[139.498215,35.362176],[139.497528,35.362736],[139.497528,35.361056],[139.496841,35.361056],[139.496155,35.358816],[139.494095,35.358816]]]}},{"type":"Feature","properties":{"layer_id":"bakumatsu_villages","name":"平戸村","address":"相模 鎌倉郡","source":"Geoshape 幕末期近世村領域データセット vector tiles (z7 extraction)","subarea_name":"近世村のおおよその範囲","feature_key":"village:K10G02S00069","accuracy_note":"2015年農業集落境界をもとに復元した概略範囲で、江戸時代の正確な村境ではありません"},"geometry":{"type":"MultiPolygon","coordinates":[[[[139.571686,35.438296],[139.573746,35.431582],[139.575119,35.431023],[139.575119,35.427106],[139.575806,35.424868],[139.573746,35.424308],[139.575119,35.425427],[139.574432,35.425987],[139.573746,35.425427],[139.573746,35.426546],[139.569626,35.425987],[139.566193,35.425427],[139.564819,35.428225],[139.560013,35.427106],[139.562759,35.428225],[139.562759,35.431582],[139.566879,35.437177],[139.571686,35.438296]]],[[[139.562759,35.427106],[139.563446,35.425427],[139.562073,35.423189],[139.560013,35.42207],[139.559326,35.419272],[139.555893,35.420951],[139.559326,35.424868],[139.560013,35.427106],[139.562759,35.427106]]],[[[139.564133,35.428225],[139.566193,35.425427],[139.569626,35.425987],[139.570312,35.423749],[139.573059,35.42207],[139.570312,35.419272],[139.568253,35.420392],[139.567566,35.419272],[139.568939,35.419272],[139.569626,35.417034],[139.566193,35.417594],[139.563446,35.419832],[139.559326,35.419272],[139.560013,35.42207],[139.562073,35.423189],[139.563446,35.425427],[139.562759,35.427106],[139.564133,35.428225]]]]}},{"type":"Feature","properties":{"layer_id":"bakumatsu_villages","name":"後山田村","address":"相模 鎌倉郡","source":"Geoshape 幕末期近世村領域データセット vector tiles (z7 extraction)","subarea_name":"近世村のおおよその範囲","feature_key":"village:K10G02S00072","accuracy_note":"2015年農業集落境界をもとに復元した概略範囲で、江戸時代の正確な村境ではありません"},"geometry":{"type":"Polygon","coordinates":[[[139.54216,35.445568],[139.545593,35.444449],[139.544907,35.442212],[139.545593,35.441652],[139.545593,35.437736],[139.546967,35.436617],[139.547653,35.435498],[139.549026,35.436617],[139.553833,35.432141],[139.555893,35.43326],[139.55658,35.429344],[139.555206,35.427666],[139.544907,35.427106],[139.545593,35.432141],[139.54216,35.438296],[139.538727,35.438855],[139.537354,35.441652],[139.538727,35.445009],[139.540787,35.444449],[139.54216,35.445568]]]}},{"type":"Feature","properties":{"layer_id":"bakumatsu_villages","name":"戸塚村","address":"相模 鎌倉郡","source":"Geoshape 幕末期近世村領域データセット vector tiles (z7 extraction)","subarea_name":"近世村のおおよその範囲","feature_key":"village:K10G02S00076","accuracy_note":"2015年農業集落境界をもとに復元した概略範囲で、江戸時代の正確な村境ではありません"},"geometry":{"type":"MultiPolygon","coordinates":[[[[139.522247,35.396887],[139.522934,35.395207],[139.524994,35.396327],[139.526367,35.395767],[139.525681,35.392968],[139.522247,35.39017],[139.518814,35.394088],[139.519501,35.395767],[139.522247,35.396887]]],[[[139.53186,35.405842],[139.534607,35.403603],[139.532547,35.403043],[139.53186,35.401364],[139.534607,35.402484],[139.535294,35.400804],[139.533234,35.399125],[139.5298,35.400804],[139.528427,35.399125],[139.523621,35.399125],[139.522247,35.400245],[139.521561,35.404163],[139.524994,35.401924],[139.52774,35.404722],[139.53186,35.405842]]],[[[139.5298,35.400804],[139.533234,35.399685],[139.532547,35.394648],[139.5298,35.395207],[139.529114,35.391849],[139.527054,35.391849],[139.527054,35.38793],[139.519501,35.38849],[139.525681,35.392968],[139.526367,35.395767],[139.524994,35.396327],[139.522934,35.395207],[139.521561,35.398566],[139.522247,35.400245],[139.523621,35.399125],[139.528427,35.399125],[139.5298,35.400804]]],[[[139.5298,35.395207],[139.532547,35.394648],[139.53186,35.384572],[139.530487,35.385691],[139.528427,35.385691],[139.52774,35.386811],[139.526367,35.386811],[139.527054,35.391849],[139.529114,35.391849],[139.5298,35.395207]]],[[[139.519501,35.38849],[139.527054,35.38793],[139.526367,35.386811],[139.52774,35.386811],[139.528427,35.385691],[139.530487,35.385691],[139.53186,35.384572],[139.532547,35.378973],[139.531174,35.377294],[139.524994,35.379533],[139.522934,35.379533],[139.520874,35.381213],[139.518814,35.381213],[139.518814,35.379533],[139.516068,35.379533],[139.516068,35.382892],[139.514694,35.383452],[139.519501,35.38849]]]]}},{"type":"Feature","properties":{"layer_id":"bakumatsu_villages","name":"東俣野村","address":"相模 鎌倉郡","source":"Geoshape 幕末期近世村領域データセット vector tiles (z7 extraction)","subarea_name":"近世村のおおよその範囲","feature_key":"village:K10G02S00005","accuracy_note":"2015年農業集落境界をもとに復元した概略範囲で、江戸時代の正確な村境ではありません"},"geometry":{"type":"MultiPolygon","coordinates":[[[[139.498901,35.370575],[139.500275,35.370015],[139.493408,35.358816],[139.485168,35.359936],[139.487228,35.364976],[139.489975,35.364976],[139.490662,35.366096],[139.492722,35.368335],[139.494095,35.367216],[139.495468,35.368895],[139.498215,35.368895],[139.498901,35.370575]]],[[[139.494781,35.377294],[139.495468,35.376174],[139.498901,35.374494],[139.498215,35.373375],[139.499588,35.370575],[139.498901,35.370575],[139.498215,35.368895],[139.495468,35.368895],[139.494095,35.367216],[139.492722,35.368335],[139.490662,35.366096],[139.489975,35.364976],[139.487228,35.364976],[139.489288,35.371695],[139.492722,35.373934],[139.494781,35.377294]]]]}},{"type":"Feature","properties":{"layer_id":"bakumatsu_villages","name":"汲沢村","address":"相模 鎌倉郡","source":"Geoshape 幕末期近世村領域データセット vector tiles (z7 extraction)","subarea_name":"近世村のおおよその範囲","feature_key":"village:K10G02S00086","accuracy_note":"2015年農業集落境界をもとに復元した概略範囲で、江戸時代の正確な村境ではありません"},"geometry":{"type":"Polygon","coordinates":[[[139.517441,35.405842],[139.521561,35.403603],[139.522247,35.396887],[139.519501,35.395767],[139.518814,35.394088],[139.522247,35.39017],[139.514694,35.383452],[139.512634,35.382332],[139.510574,35.386251],[139.506454,35.38961],[139.505081,35.394648],[139.506454,35.396887],[139.506454,35.399685],[139.509201,35.400804],[139.510574,35.404722],[139.512634,35.405282],[139.517441,35.405842]]]}},{"type":"Feature","properties":{"layer_id":"bakumatsu_villages","name":"深谷村","address":"相模 鎌倉郡","source":"Geoshape 幕末期近世村領域データセット vector tiles (z7 extraction)","subarea_name":"近世村のおおよその範囲","feature_key":"village:K10G02S00088","accuracy_note":"2015年農業集落境界をもとに復元した概略範囲で、江戸時代の正確な村境ではありません"},"geometry":{"type":"MultiPolygon","coordinates":[[[[139.500275,35.406401],[139.501648,35.401364],[139.505081,35.395767],[139.505081,35.394648],[139.503708,35.394088],[139.498901,35.399685],[139.500275,35.406401]]],[[[139.496155,35.396887],[139.497528,35.394648],[139.500961,35.393528],[139.501648,35.391849],[139.503021,35.391289],[139.500961,35.38849],[139.496841,35.38961],[139.494781,35.38849],[139.492722,35.392409],[139.496155,35.396887]]],[[[139.498901,35.399685],[139.503708,35.394088],[139.500961,35.393528],[139.498215,35.394648],[139.496155,35.396327],[139.498901,35.399685]]],[[[139.505081,35.394648],[139.506454,35.38961],[139.510574,35.386251],[139.511948,35.382332],[139.506454,35.384572],[139.505081,35.383452],[139.505081,35.382892],[139.502335,35.382332],[139.503021,35.380653],[139.501648,35.378413],[139.500961,35.378973],[139.500275,35.378413],[139.498901,35.378413],[139.498901,35.377294],[139.496155,35.377294],[139.496841,35.378973],[139.498901,35.382332],[139.494095,35.386251],[139.494095,35.386811],[139.494781,35.387371],[139.494781,35.38849],[139.496841,35.38961],[139.500961,35.38849],[139.503021,35.391289],[139.501648,35.391849],[139.500961,35.393528],[139.505081,35.394648]]]]}},{"type":"Feature","properties":{"layer_id":"bakumatsu_villages","name":"矢部町","address":"相模 鎌倉郡","source":"Geoshape 幕末期近世村領域データセット vector tiles (z7 extraction)","subarea_name":"近世村のおおよその範囲","feature_key":"village:K10G02S00078","accuracy_note":"2015年農業集落境界をもとに復元した概略範囲で、江戸時代の正確な村境ではありません"},"geometry":{"type":"MultiPolygon","coordinates":[[[[139.5298,35.413117],[139.534607,35.410878],[139.53186,35.40808],[139.533234,35.406961],[139.533234,35.404722],[139.53186,35.405842],[139.52774,35.404722],[139.524994,35.401924],[139.521561,35.403603],[139.518814,35.405282],[139.519501,35.407521],[139.518814,35.411998],[139.520187,35.413117],[139.522247,35.411998],[139.522934,35.40864],[139.524307,35.40864],[139.526367,35.4092],[139.527054,35.411438],[139.5298,35.413117]]],[[[139.53392,35.410319],[139.53392,35.40864],[139.536667,35.407521],[139.537354,35.404163],[139.53598,35.401924],[139.534607,35.403043],[139.533234,35.404722],[139.533234,35.406961],[139.53186,35.40808],[139.53392,35.410319]]]]}},{"type":"Feature","properties":{"layer_id":"bakumatsu_villages","name":"秋葉村","address":"相模 鎌倉郡","source":"Geoshape 幕末期近世村領域データセット vector tiles (z7 extraction)","subarea_name":"近世村のおおよその範囲","feature_key":"village:K10G02S00073","accuracy_note":"2015年農業集落境界をもとに復元した概略範囲で、江戸時代の正確な村境ではありません"},"geometry":{"type":"Polygon","coordinates":[[[139.54628,35.427106],[139.546967,35.424308],[139.5504,35.420951],[139.546967,35.419832],[139.5401,35.416475],[139.5401,35.419272],[139.541473,35.420392],[139.542847,35.424308],[139.544907,35.427106],[139.54628,35.427106]]]}},{"type":"Feature","properties":{"layer_id":"bakumatsu_villages","name":"舞岡村","address":"相模 鎌倉郡","source":"Geoshape 幕末期近世村領域データセット vector tiles (z7 extraction)","subarea_name":"近世村のおおよその範囲","feature_key":"village:K10G02S00065","accuracy_note":"2015年農業集落境界をもとに復元した概略範囲で、江戸時代の正確な村境ではありません"},"geometry":{"type":"MultiPolygon","coordinates":[[[[139.54216,35.413117],[139.546967,35.411998],[139.5504,35.412557],[139.551773,35.411438],[139.553146,35.411438],[139.555206,35.4092],[139.55658,35.40864],[139.555893,35.405282],[139.546967,35.404163],[139.54422,35.4092],[139.542847,35.40864],[139.541473,35.411438],[139.54216,35.413117]]],[[[139.553833,35.404722],[139.551773,35.395767],[139.555206,35.38961],[139.553146,35.384572],[139.551086,35.383452],[139.546967,35.386251],[139.546967,35.391289],[139.54422,35.399125],[139.546967,35.404163],[139.553833,35.404722]]],[[[139.555893,35.405282],[139.557266,35.399685],[139.560013,35.397446],[139.557953,35.394648],[139.55864,35.392409],[139.555206,35.38961],[139.551773,35.395767],[139.553833,35.404722],[139.555893,35.405282]]]]}},{"type":"Feature","properties":{"layer_id":"bakumatsu_villages","name":"関谷村・城廻村","address":"相模 鎌倉郡","source":"Geoshape 幕末期近世村領域データセット vector tiles (z7 extraction)","subarea_name":"近世村のおおよその範囲","feature_key":"village:K10G02S00008,K10G02S00011","accuracy_note":"2015年農業集落境界をもとに復元した概略範囲で、江戸時代の正確な村境ではありません"},"geometry":{"type":"Polygon","coordinates":[[[139.502335,35.367776],[139.511261,35.364416],[139.513321,35.362736],[139.519501,35.362176],[139.519501,35.358816],[139.516068,35.358256],[139.516068,35.357696],[139.516754,35.355456],[139.511948,35.351536],[139.507828,35.352096],[139.507141,35.350976],[139.507141,35.352656],[139.506454,35.352096],[139.505081,35.352656],[139.503708,35.350976],[139.505081,35.353776],[139.503708,35.355456],[139.500961,35.357136],[139.495468,35.357136],[139.494095,35.358816],[139.496155,35.358816],[139.496841,35.361056],[139.497528,35.361056],[139.497528,35.362736],[139.498215,35.362176],[139.498901,35.363296],[139.500961,35.364976],[139.502335,35.367776]]]}},{"type":"Feature","properties":{"layer_id":"civil_engineering_heritage","name":"清水谷戸トンネル","address":"神奈川県横浜市","source":"土木学会 選奨土木遺産","subarea_name":"清水谷戸トンネルは、全国鉄道網へと広がる端緒となった現役最古の鉄道トンネルであり、建設時の煉瓦構造など明治期の鉄道技術を今に残す土木遺産です。","feature_key":"civil:228:清水谷戸トンネル","source_url":"https://committees.jsce.or.jp/heritage/node/1211","accuracy_note":"公式地図の位置を優先して収録しています"},"geometry":{"type":"Point","coordinates":[139.558783,35.435412]}},{"type":"Feature","properties":{"layer_id":"edo_post_stations","name":"戸塚宿","address":"","source":"CODH 江戸宿場データセット Version 1 (2026-08)","subarea_name":"東海道","feature_key":"post:R001-006"},"geometry":{"type":"Point","coordinates":[139.530574,35.397623]}},{"type":"Feature","properties":{"layer_id":"edo_roads","name":"東海道","address":"江戸 → 京都","source":"CODH 江戸主要街道データセット Version 4 (2026-08)","subarea_name":"江戸期の主要街道","feature_key":"road:R001"},"geometry":{"type":"LineString","coordinates":[[139.49337,35.35817],[139.49485,35.36129],[139.49708,35.36377],[139.5001,35.3689],[139.50542,35.37713],[139.51183,35.38044],[139.51429,35.38248],[139.51518,35.38435],[139.51574,35.38474],[139.5165,35.385],[139.51701,35.38542],[139.5176,35.38643],[139.51969,35.38846],[139.52065,35.38867],[139.52146,35.38913],[139.5225,35.39046],[139.52417,35.39209],[139.52625,35.3929],[139.52908,35.39336],[139.53005,35.39492],[139.53141,35.40015],[139.53215,35.4013],[139.53427,35.40227],[139.53575,35.40264],[139.5368,35.40333],[139.53698,35.40384],[139.53659,35.40467],[139.53672,35.40547],[139.53803,35.4068],[139.53827,35.40799],[139.53927,35.40883],[139.53988,35.41081],[139.54053,35.41116],[139.54187,35.41125],[139.54201,35.4116],[139.54177,35.41272],[139.54204,35.41356],[139.54265,35.4145],[139.54359,35.41518],[139.54527,35.41601],[139.54689,35.41728],[139.54884,35.41847],[139.54936,35.41913],[139.55039,35.41998],[139.55152,35.41993],[139.55239,35.42021],[139.55342,35.42083],[139.55651,35.42086],[139.55695,35.42103],[139.55849,35.42319],[139.55877,35.42417],[139.55968,35.42462],[139.56023,35.42627],[139.56086,35.4272],[139.5612,35.42728],[139.56135,35.42753],[139.56293,35.4278],[139.56325,35.42826],[139.56295,35.42896],[139.56317,35.42956],[139.56305,35.4303],[139.56335,35.43126],[139.5641,35.43179],[139.5649,35.43396],[139.56545,35.43445],[139.56682,35.4367]]}},{"type":"Feature","properties":{"layer_id":"edo_roads","name":"東海道","address":"江戸 → 京都","source":"CODH 江戸主要街道データセット Version 4 (2026-08)","subarea_name":"江戸期の主要街道","feature_key":"road:R001"},"geometry":{"type":"LineString","coordinates":[[139.56831,35.43705],[139.56936,35.43709]]}},{"type":"Feature","properties":{"layer_id":"historical_sites_archaeology","name":"そとごう遺跡","address":"神奈川県 横浜市戸塚区 上柏尾町","source":"Geoshape 日本歴史地名大系 施設・地点項目データセット 2025-05-15","subarea_name":"遺跡","feature_key":"08_archaeological_sites.geojson:140000050100","subtype":"遺跡"},"geometry":{"type":"Point","coordinates":[139.554733,35.418481]}},{"type":"Feature","properties":{"layer_id":"historical_sites_archaeology","name":"東野台古墳群","address":"神奈川県 横浜市戸塚区 上矢部町","source":"Geoshape 日本歴史地名大系 施設・地点項目データセット 2025-05-15","subarea_name":"古墳","feature_key":"06_kofun.geojson:140000050900","subtype":"古墳"},"geometry":{"type":"Point","coordinates":[139.538258,35.424683]}}]}