{"type":"FeatureCollection","municipality_code":"14135","pref":"神奈川県","city":"川崎市多摩区","layer_counts":{"bakumatsu_villages":8,"civil_engineering_heritage":1,"historical_sites_archaeology":3,"historical_temples_shrines":3},"total_features":15,"features":[{"type":"Feature","properties":{"layer_id":"bakumatsu_villages","name":"上菅生村","address":"武蔵 橘樹郡","source":"Geoshape 幕末期近世村領域データセット vector tiles (z7 extraction)","subarea_name":"近世村のおおよその範囲","feature_key":"village:K09G07S00124","accuracy_note":"2015年農業集落境界をもとに復元した概略範囲で、江戸時代の正確な村境ではありません"},"geometry":{"type":"MultiPolygon","coordinates":[[[[139.53804,35.620466],[139.541473,35.619907],[139.539413,35.616],[139.539413,35.614884],[139.53186,35.614325],[139.531174,35.610976],[139.526367,35.609301],[139.527054,35.605952],[139.525681,35.605394],[139.522934,35.607068],[139.523621,35.612651],[139.522247,35.614884],[139.523621,35.616],[139.530487,35.617675],[139.532547,35.618233],[139.534607,35.617116],[139.53804,35.620466]]],[[[139.539413,35.614884],[139.539413,35.613767],[139.540787,35.610418],[139.5401,35.605394],[139.537354,35.605952],[139.534607,35.604835],[139.529114,35.605394],[139.52774,35.603719],[139.524994,35.604277],[139.527054,35.605952],[139.526367,35.609301],[139.531174,35.610976],[139.53186,35.614325],[139.539413,35.614884]]],[[[139.524994,35.604277],[139.525681,35.603719],[139.530487,35.602602],[139.530487,35.600369],[139.528427,35.598694],[139.53186,35.598694],[139.530487,35.597019],[139.528427,35.595902],[139.528427,35.594786],[139.527054,35.594227],[139.527054,35.593111],[139.524307,35.594786],[139.521561,35.594227],[139.518814,35.597019],[139.520187,35.599252],[139.523621,35.601486],[139.524994,35.604277]]],[[[139.542847,35.610976],[139.542847,35.609301],[139.54422,35.608185],[139.546967,35.609301],[139.547653,35.604835],[139.549026,35.604277],[139.54628,35.60316],[139.549026,35.602602],[139.549713,35.601486],[139.546967,35.601486],[139.546967,35.600369],[139.541473,35.598136],[139.538727,35.598694],[139.538727,35.599811],[139.536667,35.595902],[139.53598,35.597019],[139.530487,35.597019],[139.53186,35.598694],[139.528427,35.598694],[139.5298,35.599252],[139.530487,35.601486],[139.5298,35.601486],[139.530487,35.602602],[139.52774,35.603719],[139.528427,35.605394],[139.534607,35.604835],[139.53804,35.605952],[139.5401,35.605394],[139.541473,35.610976],[139.542847,35.610976]]]]}},{"type":"Feature","properties":{"layer_id":"bakumatsu_villages","name":"中野島村","address":"武蔵 多摩郡","source":"Geoshape 幕末期近世村領域データセット vector tiles (z7 extraction)","subarea_name":"近世村のおおよその範囲","feature_key":"village:K09G07S00133","accuracy_note":"2015年農業集落境界をもとに復元した概略範囲で、江戸時代の正確な村境ではありません"},"geometry":{"type":"MultiPolygon","coordinates":[[[[139.54422,35.637767],[139.546967,35.637209],[139.549026,35.634977],[139.5504,35.634419],[139.54834,35.628838],[139.55246,35.625489],[139.549713,35.624373],[139.54628,35.625489],[139.544907,35.62828],[139.544907,35.63107],[139.543533,35.633861],[139.54422,35.637767]]],[[[139.5504,35.634419],[139.55864,35.633861],[139.565506,35.629954],[139.565506,35.627721],[139.560699,35.627721],[139.559326,35.626047],[139.557953,35.627721],[139.555893,35.627721],[139.55246,35.625489],[139.54834,35.628838],[139.5504,35.634419]]]]}},{"type":"Feature","properties":{"layer_id":"bakumatsu_villages","name":"五段田村","address":"武蔵 橘樹郡","source":"Geoshape 幕末期近世村領域データセット vector tiles (z7 extraction)","subarea_name":"近世村のおおよその範囲","feature_key":"village:K09G07S00125","accuracy_note":"2015年農業集落境界をもとに復元した概略範囲で、江戸時代の正確な村境ではありません"},"geometry":{"type":"MultiPolygon","coordinates":[[[[139.544907,35.62828],[139.54628,35.625489],[139.553146,35.62214],[139.54834,35.621024],[139.54216,35.622698],[139.541473,35.619907],[139.53804,35.620466],[139.538727,35.625489],[139.541473,35.627163],[139.544907,35.62828]]],[[[139.541473,35.619907],[139.54834,35.618233],[139.55246,35.619349],[139.551086,35.617116],[139.55246,35.616],[139.547653,35.615442],[139.54628,35.611534],[139.546967,35.609301],[139.54422,35.608185],[139.542847,35.609301],[139.542847,35.610976],[139.540787,35.610418],[139.539413,35.613767],[139.539413,35.616],[139.541473,35.619907]]],[[[139.54216,35.622698],[139.54834,35.621024],[139.553146,35.62214],[139.557266,35.619349],[139.55658,35.617675],[139.553146,35.619349],[139.54834,35.618233],[139.541473,35.619907],[139.54216,35.622698]]],[[[139.561386,35.605394],[139.560013,35.605952],[139.560013,35.604835],[139.560013,35.604277],[139.55864,35.60316],[139.55658,35.605394],[139.555893,35.604835],[139.555893,35.605952],[139.551086,35.605952],[139.551773,35.604835],[139.553146,35.605394],[139.55246,35.603719],[139.547653,35.604835],[139.54628,35.611534],[139.547653,35.615442],[139.55246,35.616],[139.551086,35.617116],[139.553146,35.619349],[139.557953,35.617675],[139.568253,35.613767],[139.568939,35.609301],[139.567566,35.607627],[139.567566,35.603719],[139.566193,35.602602],[139.564133,35.604835],[139.563446,35.603719],[139.561386,35.604277],[139.563446,35.605394],[139.562073,35.60651],[139.561386,35.605394]]]]}},{"type":"Feature","properties":{"layer_id":"bakumatsu_villages","name":"堰村","address":"武蔵 橘樹郡","source":"Geoshape 幕末期近世村領域データセット vector tiles (z7 extraction)","subarea_name":"近世村のおおよその範囲","feature_key":"village:K09G07S00131","accuracy_note":"2015年農業集落境界をもとに復元した概略範囲で、江戸時代の正確な村境ではありません"},"geometry":{"type":"Polygon","coordinates":[[[139.596405,35.618791],[139.600525,35.612651],[139.598465,35.610976],[139.595032,35.612093],[139.590912,35.610976],[139.590225,35.618791],[139.592285,35.617675],[139.596405,35.618791]]]}},{"type":"Feature","properties":{"layer_id":"bakumatsu_villages","name":"宿河原村","address":"武蔵 橘樹郡","source":"Geoshape 幕末期近世村領域データセット vector tiles (z7 extraction)","subarea_name":"近世村のおおよその範囲","feature_key":"village:K09G07S00130","accuracy_note":"2015年農業集落境界をもとに復元した概略範囲で、江戸時代の正確な村境ではありません"},"geometry":{"type":"MultiPolygon","coordinates":[[[[139.570999,35.624931],[139.575806,35.622698],[139.579926,35.62214],[139.576492,35.614884],[139.572372,35.616558],[139.573746,35.618233],[139.570999,35.619907],[139.570999,35.624931]]],[[[139.581985,35.613209],[139.581299,35.613209],[139.580612,35.612093],[139.570312,35.612651],[139.568939,35.609301],[139.568939,35.615442],[139.572372,35.616558],[139.576492,35.614884],[139.579926,35.62214],[139.586792,35.620466],[139.586105,35.615442],[139.587479,35.614325],[139.582672,35.614325],[139.581985,35.613209]]],[[[139.586792,35.620466],[139.590225,35.618791],[139.590912,35.610976],[139.581985,35.613209],[139.582672,35.614325],[139.587479,35.614325],[139.586105,35.615442],[139.586792,35.620466]]],[[[139.581985,35.613209],[139.590912,35.610976],[139.591599,35.608743],[139.590225,35.608185],[139.586792,35.608743],[139.581985,35.613209]]]]}},{"type":"Feature","properties":{"layer_id":"bakumatsu_villages","name":"登戸村","address":"武蔵 橘樹郡","source":"Geoshape 幕末期近世村領域データセット vector tiles (z7 extraction)","subarea_name":"近世村のおおよその範囲","feature_key":"village:K09G07S00129","accuracy_note":"2015年農業集落境界をもとに復元した概略範囲で、江戸時代の正確な村境ではありません"},"geometry":{"type":"MultiPolygon","coordinates":[[[[139.555893,35.627721],[139.55658,35.627163],[139.555893,35.624373],[139.553833,35.624931],[139.55452,35.623256],[139.549713,35.624373],[139.555893,35.627721]]],[[[139.553833,35.624931],[139.555893,35.624373],[139.55864,35.62214],[139.55658,35.62214],[139.55658,35.621024],[139.557953,35.620466],[139.557266,35.619349],[139.5504,35.623815],[139.55452,35.623256],[139.553833,35.624931]]],[[[139.557953,35.627721],[139.559326,35.626047],[139.559326,35.624373],[139.555893,35.624373],[139.55658,35.627721],[139.557953,35.627721]]],[[[139.559326,35.626047],[139.561386,35.623815],[139.560013,35.62214],[139.55864,35.62214],[139.55658,35.624373],[139.559326,35.624373],[139.559326,35.626047]]],[[[139.565506,35.627721],[139.568253,35.627163],[139.570999,35.624931],[139.568939,35.621582],[139.563446,35.622698],[139.559326,35.626047],[139.560699,35.627721],[139.565506,35.627721]]],[[[139.561386,35.623815],[139.564133,35.62214],[139.557953,35.617675],[139.557953,35.620466],[139.55658,35.621024],[139.55658,35.62214],[139.559326,35.62214],[139.561386,35.623815]]],[[[139.562073,35.621024],[139.565506,35.619349],[139.566879,35.616],[139.569626,35.616558],[139.568253,35.613767],[139.557953,35.617675],[139.562073,35.621024]]],[[[139.570999,35.623815],[139.570999,35.619907],[139.573746,35.618233],[139.572372,35.616558],[139.566879,35.616],[139.565506,35.619349],[139.562073,35.621024],[139.564133,35.62214],[139.568939,35.621582],[139.570999,35.623815]]]]}},{"type":"Feature","properties":{"layer_id":"bakumatsu_villages","name":"菅村","address":"武蔵 橘樹郡","source":"Geoshape 幕末期近世村領域データセット vector tiles (z7 extraction)","subarea_name":"近世村のおおよその範囲","feature_key":"village:K09G07S00132","accuracy_note":"2015年農業集落境界をもとに復元した概略範囲で、江戸時代の正確な村境ではありません"},"geometry":{"type":"MultiPolygon","coordinates":[[[[139.522934,35.638883],[139.522934,35.637209],[139.524994,35.636651],[139.527054,35.634977],[139.527054,35.633302],[139.528427,35.633302],[139.528427,35.63107],[139.522934,35.633302],[139.520187,35.638325],[139.521561,35.637767],[139.522934,35.638883]]],[[[139.522934,35.633302],[139.5298,35.630512],[139.5298,35.629396],[139.527054,35.627721],[139.526367,35.624373],[139.523621,35.621582],[139.519501,35.621582],[139.514008,35.624931],[139.516754,35.627721],[139.516754,35.63107],[139.522934,35.632186],[139.522934,35.633302]]],[[[139.524994,35.642789],[139.530487,35.642231],[139.53804,35.639441],[139.533234,35.637209],[139.527054,35.640557],[139.523621,35.641115],[139.524994,35.642789]]],[[[139.524307,35.641115],[139.527054,35.640557],[139.5298,35.638325],[139.527054,35.636093],[139.524994,35.636651],[139.522934,35.637767],[139.524307,35.641115]]],[[[139.528427,35.639441],[139.53392,35.637209],[139.534607,35.634419],[139.533234,35.634419],[139.53186,35.632186],[139.528427,35.631628],[139.528427,35.633302],[139.527054,35.633302],[139.527054,35.634977],[139.524994,35.636651],[139.527054,35.636093],[139.5298,35.638325],[139.528427,35.639441]]],[[[139.533234,35.634419],[139.534607,35.633861],[139.53392,35.632186],[139.540787,35.631628],[139.540787,35.63107],[139.53804,35.629396],[139.53598,35.627721],[139.53186,35.629396],[139.530487,35.626605],[139.53186,35.625489],[139.5298,35.623815],[139.53186,35.621024],[139.528427,35.621582],[139.526367,35.619907],[139.527054,35.618791],[139.528427,35.618791],[139.530487,35.617675],[139.524994,35.616558],[139.524307,35.617675],[139.525681,35.618233],[139.523621,35.621582],[139.526367,35.624373],[139.527054,35.627721],[139.5298,35.629396],[139.528427,35.631628],[139.53186,35.632186],[139.533234,35.634419]]],[[[139.53804,35.629396],[139.541473,35.627163],[139.538727,35.625489],[139.537354,35.619907],[139.534607,35.617116],[139.532547,35.618233],[139.530487,35.617675],[139.528427,35.618791],[139.527054,35.618791],[139.526367,35.619907],[139.52774,35.621024],[139.53186,35.621024],[139.5298,35.623815],[139.53186,35.625489],[139.530487,35.626605],[139.53186,35.629396],[139.53598,35.627721],[139.53804,35.629396]]],[[[139.53804,35.639441],[139.54422,35.637767],[139.543533,35.633861],[139.544907,35.63107],[139.542847,35.631628],[139.538727,35.631628],[139.53392,35.632744],[139.534607,35.634977],[139.53392,35.637209],[139.53392,35.637767],[139.536667,35.638325],[139.53804,35.639441]]],[[[139.541473,35.632186],[139.544907,35.629954],[139.544907,35.62828],[139.541473,35.627163],[139.53804,35.629396],[139.540787,35.630512],[139.541473,35.632186]]]]}},{"type":"Feature","properties":{"layer_id":"bakumatsu_villages","name":"長尾村","address":"武蔵 橘樹郡","source":"Geoshape 幕末期近世村領域データセット vector tiles (z7 extraction)","subarea_name":"近世村のおおよその範囲","feature_key":"village:K09G07S00121","accuracy_note":"2015年農業集落境界をもとに復元した概略範囲で、江戸時代の正確な村境ではありません"},"geometry":{"type":"MultiPolygon","coordinates":[[[[139.570312,35.612651],[139.575806,35.612093],[139.575119,35.607627],[139.573059,35.607627],[139.571686,35.605394],[139.567566,35.607068],[139.567566,35.608185],[139.569626,35.609301],[139.570312,35.612651]]],[[[139.581299,35.613209],[139.582672,35.612093],[139.586105,35.60986],[139.575806,35.610418],[139.575806,35.612093],[139.580612,35.612093],[139.581299,35.613209]]],[[[139.575806,35.610418],[139.586105,35.60986],[139.587479,35.607068],[139.586105,35.607627],[139.584045,35.60651],[139.584045,35.605952],[139.585419,35.605394],[139.584045,35.604835],[139.582672,35.605952],[139.580612,35.605394],[139.577179,35.605952],[139.575119,35.607627],[139.575806,35.610418]]],[[[139.579239,35.597019],[139.580612,35.596461],[139.581299,35.591994],[139.578552,35.591436],[139.575806,35.593111],[139.577179,35.595902],[139.579239,35.597019]]],[[[139.587479,35.607627],[139.588165,35.601486],[139.588852,35.600927],[139.587479,35.599811],[139.583359,35.602044],[139.579926,35.601486],[139.579239,35.60316],[139.576492,35.60316],[139.575119,35.604835],[139.577179,35.60651],[139.580612,35.605394],[139.584045,35.605394],[139.584045,35.604835],[139.585419,35.605952],[139.584045,35.605952],[139.584045,35.60651],[139.587479,35.607627]]],[[[139.583359,35.602044],[139.587479,35.599811],[139.585419,35.598136],[139.586105,35.597019],[139.581985,35.597019],[139.579926,35.594786],[139.580612,35.596461],[139.578552,35.598694],[139.579926,35.601486],[139.583359,35.602044]]]]}},{"type":"Feature","properties":{"layer_id":"civil_engineering_heritage","name":"二ヶ領用水","address":"神奈川県/川崎市多摩区～幸区","source":"土木学会 選奨土木遺産","subarea_name":"多摩川流域で最古で最大の農業用水であり、江戸時代に造られたもので用水の機能が現在まで残されている貴重な土木遺産である。","feature_key":"civil:152:二ヶ領用水","source_url":"https://committees.jsce.or.jp/heritage/node/744","accuracy_note":"公式地図の位置を優先して収録しています"},"geometry":{"type":"Point","coordinates":[139.575082,35.619785]}},{"type":"Feature","properties":{"layer_id":"historical_sites_archaeology","name":"下原遺跡","address":"神奈川県 川崎市多摩区 長尾七丁目","source":"Geoshape 日本歴史地名大系 施設・地点項目データセット 2025-05-15","subarea_name":"遺跡","feature_key":"08_archaeological_sites.geojson:140000021500","subtype":"遺跡"},"geometry":{"type":"Point","coordinates":[139.58339,35.60738]}},{"type":"Feature","properties":{"layer_id":"historical_sites_archaeology","name":"小沢城跡","address":"神奈川県 川崎市多摩区 菅仙谷一丁目","source":"Geoshape 日本歴史地名大系 施設・地点項目データセット 2025-05-15","subarea_name":"城跡","feature_key":"05_castle_ruins.geojson:140000022500","subtype":"城跡"},"geometry":{"type":"Point","coordinates":[139.521689,35.631602]}},{"type":"Feature","properties":{"layer_id":"historical_sites_archaeology","name":"桝形城跡","address":"神奈川県 川崎市多摩区 枡形六丁目","source":"Geoshape 日本歴史地名大系 施設・地点項目データセット 2025-05-15","subarea_name":"城跡","feature_key":"05_castle_ruins.geojson:140000022700","subtype":"城跡"},"geometry":{"type":"Point","coordinates":[139.560769,35.611241]}},{"type":"Feature","properties":{"layer_id":"historical_temples_shrines","name":"妙楽寺","address":"神奈川県 川崎市 多摩区長尾三丁目9番3号","source":"Geoshape 日本歴史地名大系 施設・地点項目データセット 2025-05-15","subarea_name":"寺院","feature_key":"01_temples.geojson:140000021600","subtype":"寺院"},"geometry":{"type":"Point","coordinates":[139.577866,35.60788]}},{"type":"Feature","properties":{"layer_id":"historical_temples_shrines","name":"広福寺","address":"神奈川県 川崎市 多摩区枡形六丁目7番1号","source":"Geoshape 日本歴史地名大系 施設・地点項目データセット 2025-05-15","subarea_name":"寺院","feature_key":"01_temples.geojson:140000022800","subtype":"寺院"},"geometry":{"type":"Point","coordinates":[139.559586,35.615036]}},{"type":"Feature","properties":{"layer_id":"historical_temples_shrines","name":"菅寺尾台廃堂跡","address":"神奈川県 川崎市多摩区 寺尾台一丁目","source":"Geoshape 日本歴史地名大系 施設・地点項目データセット 2025-05-15","subarea_name":"廃寺・廃社","feature_key":"03_abandoned_temples_shrines.geojson:140000022400","subtype":"廃寺・廃社"},"geometry":{"type":"Point","coordinates":[139.533727,35.619444]}}]}