{"type":"FeatureCollection","municipality_code":"14207","pref":"神奈川県","city":"茅ヶ崎市","layer_counts":{"bakumatsu_villages":23,"edo_roads":1,"historical_sites_archaeology":11,"historical_temples_shrines":4},"total_features":39,"features":[{"type":"Feature","properties":{"layer_id":"bakumatsu_villages","name":"下寺尾村","address":"相模 高座郡","source":"Geoshape 幕末期近世村領域データセット vector tiles (z7 extraction)","subarea_name":"近世村のおおよその範囲","feature_key":"village:K10G03S00038","accuracy_note":"2015年農業集落境界をもとに復元した概略範囲で、江戸時代の正確な村境ではありません"},"geometry":{"type":"Polygon","coordinates":[[[139.404144,35.370575],[139.412384,35.367776],[139.414444,35.367776],[139.411011,35.364416],[139.410324,35.362736],[139.411697,35.359936],[139.409637,35.359936],[139.406891,35.362736],[139.404831,35.363296],[139.400711,35.363296],[139.395905,35.360496],[139.393845,35.363296],[139.400711,35.368335],[139.401398,35.370015],[139.404144,35.370575]]]}},{"type":"Feature","properties":{"layer_id":"bakumatsu_villages","name":"下町屋村","address":"相模 高座郡","source":"Geoshape 幕末期近世村領域データセット vector tiles (z7 extraction)","subarea_name":"近世村のおおよその範囲","feature_key":"village:K10G03S00019","accuracy_note":"2015年農業集落境界をもとに復元した概略範囲で、江戸時代の正確な村境ではありません"},"geometry":{"type":"Polygon","coordinates":[[[139.386292,35.338094],[139.388351,35.337534],[139.390411,35.334733],[139.388351,35.328571],[139.381485,35.329691],[139.382858,35.334173],[139.386292,35.338094]]]}},{"type":"Feature","properties":{"layer_id":"bakumatsu_villages","name":"中島村","address":"相模 高座郡","source":"Geoshape 幕末期近世村領域データセット vector tiles (z7 extraction)","subarea_name":"近世村のおおよその範囲","feature_key":"village:K10G03S00023","accuracy_note":"2015年農業集落境界をもとに復元した概略範囲で、江戸時代の正確な村境ではありません"},"geometry":{"type":"Polygon","coordinates":[[[139.373932,35.337534],[139.378052,35.331932],[139.382858,35.332492],[139.382172,35.330252],[139.375305,35.324089],[139.373245,35.320168],[139.369812,35.322409],[139.369125,35.329691],[139.371185,35.330252],[139.371185,35.335853],[139.373932,35.337534]]]}},{"type":"Feature","properties":{"layer_id":"bakumatsu_villages","name":"今宿村","address":"相模 高座郡","source":"Geoshape 幕末期近世村領域データセット vector tiles (z7 extraction)","subarea_name":"近世村のおおよその範囲","feature_key":"village:K10G03S00024","accuracy_note":"2015年農業集落境界をもとに復元した概略範囲で、江戸時代の正確な村境ではありません"},"geometry":{"type":"Polygon","coordinates":[[[139.387665,35.342015],[139.386978,35.338094],[139.384232,35.336414],[139.382172,35.332492],[139.380112,35.331932],[139.378052,35.331932],[139.375992,35.333053],[139.373932,35.337534],[139.375305,35.338654],[139.375305,35.336974],[139.380112,35.339214],[139.385605,35.338094],[139.387665,35.342015]]]}},{"type":"Feature","properties":{"layer_id":"bakumatsu_villages","name":"円蔵村","address":"相模 高座郡","source":"Geoshape 幕末期近世村領域データセット vector tiles (z7 extraction)","subarea_name":"近世村のおおよその範囲","feature_key":"village:K10G03S00017","accuracy_note":"2015年農業集落境界をもとに復元した概略範囲で、江戸時代の正確な村境ではありません"},"geometry":{"type":"Polygon","coordinates":[[[139.401398,35.350976],[139.413071,35.349296],[139.411697,35.347616],[139.413071,35.347056],[139.412384,35.345935],[139.410324,35.346495],[139.408951,35.341455],[139.404144,35.341455],[139.402084,35.343135],[139.399338,35.343135],[139.399338,35.342575],[139.396591,35.342575],[139.393845,35.343695],[139.397964,35.347616],[139.402084,35.349296],[139.401398,35.350976]]]}},{"type":"Feature","properties":{"layer_id":"bakumatsu_villages","name":"堤村","address":"相模 高座郡","source":"Geoshape 幕末期近世村領域データセット vector tiles (z7 extraction)","subarea_name":"近世村のおおよその範囲","feature_key":"village:K10G03S00041","accuracy_note":"2015年農業集落境界をもとに復元した概略範囲で、江戸時代の正確な村境ではありません"},"geometry":{"type":"Polygon","coordinates":[[[139.42749,35.375614],[139.42955,35.373375],[139.428177,35.370575],[139.430237,35.370015],[139.432983,35.374494],[139.43367,35.371135],[139.432297,35.370575],[139.432983,35.368335],[139.43779,35.368895],[139.439163,35.370015],[139.441223,35.368895],[139.43985,35.364976],[139.43573,35.363856],[139.434357,35.361616],[139.432297,35.359936],[139.430237,35.359376],[139.428864,35.357696],[139.426117,35.356576],[139.42337,35.356576],[139.421997,35.358256],[139.413071,35.357136],[139.410324,35.362736],[139.414444,35.367776],[139.41925,35.369455],[139.42131,35.371695],[139.424057,35.371135],[139.42749,35.375614]]]}},{"type":"Feature","properties":{"layer_id":"bakumatsu_villages","name":"室田村","address":"相模 高座郡","source":"Geoshape 幕末期近世村領域データセット vector tiles (z7 extraction)","subarea_name":"近世村のおおよその範囲","feature_key":"village:K10G03S00012","accuracy_note":"2015年農業集落境界をもとに復元した概略範囲で、江戸時代の正確な村境ではありません"},"geometry":{"type":"Polygon","coordinates":[[[139.420624,35.347616],[139.426117,35.346495],[139.426117,35.343695],[139.42337,35.343695],[139.421997,35.340334],[139.418564,35.339774],[139.417877,35.341455],[139.416504,35.341455],[139.417191,35.342015],[139.420624,35.347616]]]}},{"type":"Feature","properties":{"layer_id":"bakumatsu_villages","name":"小和田村","address":"相模 高座郡","source":"Geoshape 幕末期近世村領域データセット vector tiles (z7 extraction)","subarea_name":"近世村のおおよその範囲","feature_key":"village:K10G03S00008","accuracy_note":"2015年農業集落境界をもとに復元した概略範囲で、江戸時代の正確な村境ではありません"},"geometry":{"type":"Polygon","coordinates":[[[139.44191,35.345935],[139.443283,35.342015],[139.443283,35.335293],[139.44191,35.333613],[139.442596,35.331372],[139.43779,35.319047],[139.430237,35.319047],[139.421997,35.317927],[139.42131,35.320168],[139.42131,35.324089],[139.424057,35.331372],[139.424057,35.335853],[139.42543,35.338094],[139.42749,35.337534],[139.428177,35.341455],[139.432983,35.340895],[139.43367,35.341455],[139.43573,35.341455],[139.436417,35.342015],[139.436417,35.344815],[139.43985,35.345935],[139.44191,35.345935]]]}},{"type":"Feature","properties":{"layer_id":"bakumatsu_villages","name":"平太夫新田","address":"相模 高座郡","source":"Geoshape 幕末期近世村領域データセット vector tiles (z7 extraction)","subarea_name":"近世村のおおよその範囲","feature_key":"village:K10G03S00025","accuracy_note":"2015年農業集落境界をもとに復元した概略範囲で、江戸時代の正確な村境ではありません"},"geometry":{"type":"Polygon","coordinates":[[[139.368439,35.344255],[139.375992,35.342575],[139.377365,35.337534],[139.375305,35.336974],[139.375305,35.338654],[139.374619,35.340334],[139.369125,35.339774],[139.368439,35.344255]]]}},{"type":"Feature","properties":{"layer_id":"bakumatsu_villages","name":"松尾村","address":"相模 高座郡","source":"Geoshape 幕末期近世村領域データセット vector tiles (z7 extraction)","subarea_name":"近世村のおおよその範囲","feature_key":"village:K10G03S00021","accuracy_note":"2015年農業集落境界をもとに復元した概略範囲で、江戸時代の正確な村境ではありません"},"geometry":{"type":"Polygon","coordinates":[[[139.384232,35.329131],[139.388351,35.328571],[139.389725,35.32465],[139.386292,35.321288],[139.384232,35.320168],[139.382858,35.320168],[139.382858,35.323529],[139.385605,35.323529],[139.384232,35.32521],[139.384232,35.329131]]]}},{"type":"Feature","properties":{"layer_id":"bakumatsu_villages","name":"柳島村","address":"相模 高座郡","source":"Geoshape 幕末期近世村領域データセット vector tiles (z7 extraction)","subarea_name":"近世村のおおよその範囲","feature_key":"village:K10G03S00022","accuracy_note":"2015年農業集落境界をもとに復元した概略範囲で、江戸時代の正確な村境ではありません"},"geometry":{"type":"Polygon","coordinates":[[[139.381485,35.329691],[139.384232,35.329131],[139.384232,35.32521],[139.385605,35.323529],[139.382858,35.323529],[139.382858,35.320168],[139.384232,35.320168],[139.385605,35.320728],[139.387665,35.316806],[139.373245,35.315125],[139.373245,35.320168],[139.377365,35.32689],[139.381485,35.329691]]]}},{"type":"Feature","properties":{"layer_id":"bakumatsu_villages","name":"浜之郷村","address":"相模 高座郡","source":"Geoshape 幕末期近世村領域データセット vector tiles (z7 extraction)","subarea_name":"近世村のおおよその範囲","feature_key":"village:K10G03S00020","accuracy_note":"2015年農業集落境界をもとに復元した概略範囲で、江戸時代の正確な村境ではありません"},"geometry":{"type":"MultiPolygon","coordinates":[[[[139.390411,35.334733],[139.388351,35.337534],[139.386978,35.338094],[139.387665,35.341455],[139.386292,35.346495],[139.394531,35.343135],[139.393158,35.342015],[139.393158,35.339774],[139.393845,35.339774],[139.393158,35.336974],[139.391785,35.337534],[139.390411,35.334733]]],[[[139.390411,35.333613],[139.395905,35.334733],[139.398651,35.334733],[139.399338,35.333613],[139.396591,35.333053],[139.395218,35.330812],[139.389038,35.329691],[139.390411,35.333613]]]]}},{"type":"Feature","properties":{"layer_id":"bakumatsu_villages","name":"甘沼村","address":"相模 高座郡","source":"Geoshape 幕末期近世村領域データセット vector tiles (z7 extraction)","subarea_name":"近世村のおおよその範囲","feature_key":"village:K10G03S00015","accuracy_note":"2015年農業集落境界をもとに復元した概略範囲で、江戸時代の正確な村境ではありません"},"geometry":{"type":"Polygon","coordinates":[[[139.411697,35.360496],[139.413071,35.357136],[139.421997,35.358256],[139.42337,35.356576],[139.426804,35.356576],[139.426804,35.354336],[139.421997,35.353216],[139.419937,35.351536],[139.409637,35.350416],[139.408264,35.354336],[139.408951,35.356016],[139.406204,35.357136],[139.409637,35.359936],[139.411697,35.360496]]]}},{"type":"Feature","properties":{"layer_id":"bakumatsu_villages","name":"矢畑村","address":"相模 高座郡","source":"Geoshape 幕末期近世村領域データセット vector tiles (z7 extraction)","subarea_name":"近世村のおおよその範囲","feature_key":"village:K10G03S00011","accuracy_note":"2015年農業集落境界をもとに復元した概略範囲で、江戸時代の正確な村境ではありません"},"geometry":{"type":"Polygon","coordinates":[[[139.402084,35.343135],[139.402771,35.341455],[139.404144,35.342015],[139.402084,35.339774],[139.399338,35.333613],[139.398651,35.334733],[139.395905,35.334733],[139.390411,35.333613],[139.391785,35.337534],[139.393158,35.336974],[139.393845,35.339774],[139.393158,35.339774],[139.393158,35.342015],[139.394531,35.343135],[139.396591,35.342575],[139.399338,35.342575],[139.399338,35.343135],[139.402084,35.343135]]]}},{"type":"Feature","properties":{"layer_id":"bakumatsu_villages","name":"芹沢村","address":"相模 高座郡","source":"Geoshape 幕末期近世村領域データセット vector tiles (z7 extraction)","subarea_name":"近世村のおおよその範囲","feature_key":"village:K10G03S00039","accuracy_note":"2015年農業集落境界をもとに復元した概略範囲で、江戸時代の正確な村境ではありません"},"geometry":{"type":"Polygon","coordinates":[[[139.430237,35.385131],[139.430237,35.382332],[139.432297,35.380093],[139.428864,35.373934],[139.42749,35.375614],[139.424057,35.371135],[139.42131,35.371695],[139.41925,35.370015],[139.418564,35.372815],[139.416504,35.373375],[139.413757,35.372815],[139.403458,35.374494],[139.406204,35.380093],[139.415131,35.384572],[139.426117,35.384012],[139.430237,35.385131]]]}},{"type":"Feature","properties":{"layer_id":"bakumatsu_villages","name":"茅ヶ崎村","address":"相模 高座郡","source":"Geoshape 幕末期近世村領域データセット vector tiles (z7 extraction)","subarea_name":"近世村のおおよその範囲","feature_key":"village:K10G03S00010","accuracy_note":"2015年農業集落境界をもとに復元した概略範囲で、江戸時代の正確な村境ではありません"},"geometry":{"type":"MultiPolygon","coordinates":[[[[139.389038,35.329691],[139.392471,35.328571],[139.391785,35.32633],[139.389725,35.32633],[139.388351,35.328011],[139.389038,35.329691]]],[[[139.395218,35.330812],[139.395218,35.329691],[139.394531,35.329131],[139.394531,35.328571],[139.392471,35.328011],[139.389725,35.329691],[139.394531,35.330252],[139.395218,35.330812]]],[[[139.391785,35.32465],[139.393158,35.323529],[139.394531,35.323529],[139.393845,35.321288],[139.396591,35.316246],[139.387665,35.316806],[139.385605,35.320728],[139.389725,35.32465],[139.391785,35.32465]]],[[[139.393845,35.32689],[139.395218,35.32465],[139.397964,35.316806],[139.396591,35.316246],[139.393845,35.321288],[139.394531,35.323529],[139.393158,35.323529],[139.391785,35.32465],[139.389725,35.32465],[139.389725,35.32633],[139.393845,35.32689]]],[[[139.415131,35.343135],[139.417191,35.342015],[139.416504,35.341455],[139.417877,35.341455],[139.418564,35.339774],[139.421997,35.340334],[139.420624,35.330812],[139.418564,35.333053],[139.417877,35.331932],[139.416504,35.332492],[139.411011,35.330252],[139.409637,35.331932],[139.409637,35.334733],[139.406891,35.333613],[139.406891,35.334733],[139.404831,35.334173],[139.404144,35.335853],[139.403458,35.335853],[139.403458,35.334733],[139.402084,35.334173],[139.402771,35.333613],[139.399338,35.333613],[139.402084,35.340334],[139.404831,35.342015],[139.408951,35.341455],[139.409637,35.342575],[139.413757,35.341455],[139.415131,35.343135]]],[[[139.396591,35.329691],[139.395905,35.328571],[139.397964,35.32633],[139.399338,35.32465],[139.395218,35.32465],[139.393845,35.32689],[139.391785,35.32633],[139.392471,35.328571],[139.394531,35.328571],[139.394531,35.329131],[139.396591,35.329691]]],[[[139.401398,35.333613],[139.402771,35.331932],[139.400711,35.328571],[139.401398,35.327451],[139.397964,35.32633],[139.395905,35.328571],[139.396591,35.329691],[139.395218,35.329691],[139.395218,35.330812],[139.396591,35.333053],[139.399338,35.333613],[139.401398,35.333613]]],[[[139.397964,35.316806],[139.395218,35.32465],[139.399338,35.32465],[139.397964,35.32633],[139.401398,35.327451],[139.406204,35.328571],[139.404831,35.32465],[139.406204,35.317927],[139.401398,35.317927],[139.397964,35.316806]]],[[[139.404144,35.335853],[139.404831,35.334173],[139.406891,35.334733],[139.406891,35.333613],[139.409637,35.334733],[139.409637,35.331932],[139.411011,35.330252],[139.408264,35.328571],[139.400711,35.327451],[139.402771,35.331932],[139.402084,35.334173],[139.403458,35.334733],[139.403458,35.335853],[139.404144,35.335853]]],[[[139.418564,35.333053],[139.420624,35.330812],[139.417877,35.317366],[139.406204,35.318487],[139.404831,35.32521],[139.406204,35.328571],[139.408264,35.328571],[139.416504,35.332492],[139.417877,35.331932],[139.418564,35.333053]]]]}},{"type":"Feature","properties":{"layer_id":"bakumatsu_villages","name":"菱沼村","address":"相模 高座郡","source":"Geoshape 幕末期近世村領域データセット vector tiles (z7 extraction)","subarea_name":"近世村のおおよその範囲","feature_key":"village:K10G03S00009","accuracy_note":"2015年農業集落境界をもとに復元した概略範囲で、江戸時代の正確な村境ではありません"},"geometry":{"type":"Polygon","coordinates":[[[139.43573,35.346495],[139.436417,35.345375],[139.43573,35.341455],[139.43367,35.341455],[139.432983,35.340334],[139.432983,35.341455],[139.428177,35.341455],[139.42749,35.337534],[139.424744,35.337534],[139.42131,35.324089],[139.42131,35.320168],[139.421997,35.318487],[139.417877,35.317366],[139.421997,35.336414],[139.421997,35.340334],[139.42337,35.343695],[139.426117,35.343695],[139.426117,35.346495],[139.43573,35.346495]]]}},{"type":"Feature","properties":{"layer_id":"bakumatsu_villages","name":"萩園村","address":"相模 高座郡","source":"Geoshape 幕末期近世村領域データセット vector tiles (z7 extraction)","subarea_name":"近世村のおおよその範囲","feature_key":"village:K10G03S00027","accuracy_note":"2015年農業集落境界をもとに復元した概略範囲で、江戸時代の正確な村境ではありません"},"geometry":{"type":"Polygon","coordinates":[[[139.394531,35.352656],[139.387665,35.349296],[139.386292,35.345935],[139.387665,35.342015],[139.385605,35.338094],[139.380112,35.339214],[139.377365,35.337534],[139.375992,35.342575],[139.368439,35.344255],[139.370499,35.351536],[139.375305,35.350416],[139.394531,35.352656]]]}},{"type":"Feature","properties":{"layer_id":"bakumatsu_villages","name":"行谷村","address":"相模 高座郡","source":"Geoshape 幕末期近世村領域データセット vector tiles (z7 extraction)","subarea_name":"近世村のおおよその範囲","feature_key":"village:K10G03S00040","accuracy_note":"2015年農業集落境界をもとに復元した概略範囲で、江戸時代の正確な村境ではありません"},"geometry":{"type":"Polygon","coordinates":[[[139.403458,35.374494],[139.413757,35.372815],[139.416504,35.373375],[139.418564,35.372815],[139.41925,35.370015],[139.412384,35.367776],[139.404144,35.370575],[139.401398,35.370015],[139.403458,35.374494]]]}},{"type":"Feature","properties":{"layer_id":"bakumatsu_villages","name":"西久保村","address":"相模 高座郡","source":"Geoshape 幕末期近世村領域データセット vector tiles (z7 extraction)","subarea_name":"近世村のおおよその範囲","feature_key":"village:K10G03S00018","accuracy_note":"2015年農業集落境界をもとに復元した概略範囲で、江戸時代の正確な村境ではありません"},"geometry":{"type":"Polygon","coordinates":[[[139.394531,35.352656],[139.400711,35.351536],[139.402084,35.349296],[139.397964,35.347616],[139.393845,35.343695],[139.386292,35.346495],[139.389038,35.350416],[139.394531,35.352656]]]}},{"type":"Feature","properties":{"layer_id":"bakumatsu_villages","name":"赤羽根村","address":"相模 高座郡","source":"Geoshape 幕末期近世村領域データセット vector tiles (z7 extraction)","subarea_name":"近世村のおおよその範囲","feature_key":"village:K10G03S00014","accuracy_note":"2015年農業集落境界をもとに復元した概略範囲で、江戸時代の正確な村境ではありません"},"geometry":{"type":"MultiPolygon","coordinates":[[[[139.436417,35.363856],[139.435043,35.358816],[139.437103,35.354336],[139.439163,35.352656],[139.44191,35.345935],[139.43985,35.345935],[139.436417,35.344815],[139.43573,35.346495],[139.43161,35.346495],[139.432983,35.347616],[139.42955,35.347616],[139.42749,35.348176],[139.428177,35.350976],[139.430237,35.352656],[139.42543,35.353776],[139.426804,35.356576],[139.428864,35.357696],[139.430237,35.359376],[139.432297,35.359936],[139.436417,35.363856]]],[[[139.420624,35.352096],[139.421997,35.350416],[139.42131,35.347616],[139.413071,35.349296],[139.408951,35.350416],[139.420624,35.352096]]],[[[139.42543,35.353776],[139.430237,35.352656],[139.428177,35.350976],[139.42749,35.348176],[139.432297,35.347056],[139.424744,35.346495],[139.42131,35.347616],[139.421997,35.350416],[139.42131,35.352656],[139.42543,35.353776]]]]}},{"type":"Feature","properties":{"layer_id":"bakumatsu_villages","name":"香川村","address":"相模 高座郡","source":"Geoshape 幕末期近世村領域データセット vector tiles (z7 extraction)","subarea_name":"近世村のおおよその範囲","feature_key":"village:K10G03S00016","accuracy_note":"2015年農業集落境界をもとに復元した概略範囲で、江戸時代の正確な村境ではありません"},"geometry":{"type":"Polygon","coordinates":[[[139.406204,35.363296],[139.409637,35.359936],[139.406204,35.357136],[139.408951,35.356016],[139.408264,35.354336],[139.409637,35.350416],[139.407578,35.349296],[139.406891,35.350416],[139.401398,35.350976],[139.395218,35.352656],[139.396591,35.357136],[139.395905,35.360496],[139.400711,35.363296],[139.406204,35.363296]]]}},{"type":"Feature","properties":{"layer_id":"bakumatsu_villages","name":"高田村","address":"相模 高座郡","source":"Geoshape 幕末期近世村領域データセット vector tiles (z7 extraction)","subarea_name":"近世村のおおよその範囲","feature_key":"village:K10G03S00013","accuracy_note":"2015年農業集落境界をもとに復元した概略範囲で、江戸時代の正確な村境ではありません"},"geometry":{"type":"Polygon","coordinates":[[[139.413071,35.349296],[139.420624,35.347616],[139.417191,35.342015],[139.415131,35.343135],[139.413757,35.341455],[139.409637,35.342575],[139.410324,35.346495],[139.412384,35.345935],[139.413071,35.347056],[139.411697,35.347616],[139.413071,35.349296]]]}},{"type":"Feature","properties":{"layer_id":"edo_roads","name":"東海道","address":"江戸 → 京都","source":"CODH 江戸主要街道データセット Version 4 (2026-08)","subarea_name":"江戸期の主要街道","feature_key":"road:R001"},"geometry":{"type":"LineString","coordinates":[[139.37242,35.33212],[139.37588,35.33288],[139.37873,35.3328],[139.38141,35.33318],[139.38437,35.33267],[139.38623,35.33269],[139.38719,35.33246],[139.38783,35.33199],[139.39052,35.32914],[139.39229,35.32855],[139.39289,35.32854],[139.39835,35.33012],[139.40081,35.33115],[139.4028,35.33228],[139.40562,35.33316],[139.407,35.33341],[139.40814,35.33388],[139.40948,35.3341],[139.41109,35.33501],[139.4141,35.33636],[139.41635,35.33654],[139.42075,35.33755],[139.42277,35.33768],[139.42486,35.33776],[139.42804,35.33709],[139.42953,35.337],[139.43195,35.33736],[139.43492,35.33922],[139.43969,35.34288],[139.44063,35.34339],[139.44282,35.34405]]}},{"type":"Feature","properties":{"layer_id":"historical_sites_archaeology","name":"七堂伽藍跡","address":"神奈川県 茅ヶ崎市 下寺尾","source":"Geoshape 日本歴史地名大系 施設・地点項目データセット 2025-05-15","subarea_name":"史跡","feature_key":"09_historic_sites.geojson:140000143200","subtype":"史跡"},"geometry":{"type":"Point","coordinates":[139.4019,35.36437]}},{"type":"Feature","properties":{"layer_id":"historical_sites_archaeology","name":"下寺尾西方Ａ遺跡","address":"神奈川県 茅ヶ崎市 みずき二丁目","source":"Geoshape 日本歴史地名大系 施設・地点項目データセット 2025-05-15","subarea_name":"遺跡","feature_key":"08_archaeological_sites.geojson:140000143100","subtype":"遺跡"},"geometry":{"type":"Point","coordinates":[139.402377,35.36442]}},{"type":"Feature","properties":{"layer_id":"historical_sites_archaeology","name":"出口遺跡","address":"神奈川県 茅ヶ崎市 出口町","source":"Geoshape 日本歴史地名大系 施設・地点項目データセット 2025-05-15","subarea_name":"遺跡","feature_key":"08_archaeological_sites.geojson:140000141600","subtype":"遺跡"},"geometry":{"type":"Point","coordinates":[139.429445,35.334063]}},{"type":"Feature","properties":{"layer_id":"historical_sites_archaeology","name":"十二天古墳群","address":"神奈川県 茅ヶ崎市 堤","source":"Geoshape 日本歴史地名大系 施設・地点項目データセット 2025-05-15","subarea_name":"古墳","feature_key":"06_kofun.geojson:140000142700","subtype":"古墳"},"geometry":{"type":"Point","coordinates":[139.425723,35.362681]}},{"type":"Feature","properties":{"layer_id":"historical_sites_archaeology","name":"堤貝塚","address":"神奈川県 茅ヶ崎市 堤","source":"Geoshape 日本歴史地名大系 施設・地点項目データセット 2025-05-15","subarea_name":"遺跡","feature_key":"08_archaeological_sites.geojson:140000142600","subtype":"遺跡"},"geometry":{"type":"Point","coordinates":[139.425723,35.362681]}},{"type":"Feature","properties":{"layer_id":"historical_sites_archaeology","name":"旧相模川橋脚","address":"神奈川県 茅ヶ崎市 下町屋一丁目","source":"Geoshape 日本歴史地名大系 施設・地点項目データセット 2025-05-15","subarea_name":"史跡","feature_key":"09_historic_sites.geojson:140000140100","subtype":"史跡"},"geometry":{"type":"Point","coordinates":[139.38429,35.332068]}},{"type":"Feature","properties":{"layer_id":"historical_sites_archaeology","name":"石神古墳","address":"神奈川県 茅ヶ崎市 元町","source":"Geoshape 日本歴史地名大系 施設・地点項目データセット 2025-05-15","subarea_name":"古墳","feature_key":"06_kofun.geojson:140000141400","subtype":"古墳"},"geometry":{"type":"Point","coordinates":[139.411021,35.332622]}},{"type":"Feature","properties":{"layer_id":"historical_sites_archaeology","name":"篠山遺跡","address":"神奈川県 茅ヶ崎市 香川","source":"Geoshape 日本歴史地名大系 施設・地点項目データセット 2025-05-15","subarea_name":"遺跡","feature_key":"08_archaeological_sites.geojson:140000142300","subtype":"遺跡"},"geometry":{"type":"Point","coordinates":[139.400837,35.356283]}},{"type":"Feature","properties":{"layer_id":"historical_sites_archaeology","name":"篠谷横穴群","address":"神奈川県 茅ヶ崎市 香川三丁目","source":"Geoshape 日本歴史地名大系 施設・地点項目データセット 2025-05-15","subarea_name":"古墳","feature_key":"06_kofun.geojson:140000142400","subtype":"古墳"},"geometry":{"type":"Point","coordinates":[139.402133,35.354605]}},{"type":"Feature","properties":{"layer_id":"historical_sites_archaeology","name":"茅ヶ崎貝塚","address":"神奈川県 茅ヶ崎市 茅ヶ崎一丁目","source":"Geoshape 日本歴史地名大系 施設・地点項目データセット 2025-05-15","subarea_name":"遺跡","feature_key":"08_archaeological_sites.geojson:140000058900","subtype":"遺跡"},"geometry":{"type":"Point","coordinates":[139.40369,35.333822]}},{"type":"Feature","properties":{"layer_id":"historical_sites_archaeology","name":"西方貝塚","address":"神奈川県 茅ヶ崎市 下寺尾","source":"Geoshape 日本歴史地名大系 施設・地点項目データセット 2025-05-15","subarea_name":"遺跡","feature_key":"08_archaeological_sites.geojson:140000143000","subtype":"遺跡"},"geometry":{"type":"Point","coordinates":[139.395521,35.363464]}},{"type":"Feature","properties":{"layer_id":"historical_temples_shrines","name":"宝生寺","address":"神奈川県 茅ヶ崎市 西久保546番地","source":"Geoshape 日本歴史地名大系 施設・地点項目データセット 2025-05-15","subarea_name":"寺院","feature_key":"01_temples.geojson:140000034000","subtype":"寺院"},"geometry":{"type":"Point","coordinates":[139.391159,35.346603]}},{"type":"Feature","properties":{"layer_id":"historical_temples_shrines","name":"浄見寺","address":"神奈川県 茅ヶ崎市 堤4317番地","source":"Geoshape 日本歴史地名大系 施設・地点項目データセット 2025-05-15","subarea_name":"寺院","feature_key":"01_temples.geojson:140000142800","subtype":"寺院"},"geometry":{"type":"Point","coordinates":[139.413116,35.361092]}},{"type":"Feature","properties":{"layer_id":"historical_temples_shrines","name":"鶴嶺八幡社","address":"神奈川県 茅ヶ崎市 浜之郷462番地","source":"Geoshape 日本歴史地名大系 施設・地点項目データセット 2025-05-15","subarea_name":"神社","feature_key":"02_shrines.geojson:140000140700","subtype":"神社"},"geometry":{"type":"Point","coordinates":[139.391006,35.338905]}},{"type":"Feature","properties":{"layer_id":"historical_temples_shrines","name":"龍前院","address":"神奈川県 茅ヶ崎市 浜之郷356番地","source":"Geoshape 日本歴史地名大系 施設・地点項目データセット 2025-05-15","subarea_name":"寺院","feature_key":"01_temples.geojson:140000140800","subtype":"寺院"},"geometry":{"type":"Point","coordinates":[139.392532,35.340263]}}]}