{"type":"FeatureCollection","municipality_code":"15209","pref":"新潟県","city":"加茂市","layer_counts":{"bakumatsu_villages":33,"historical_sites_archaeology":1,"historical_temples_shrines":3},"total_features":37,"features":[{"type":"Feature","properties":{"layer_id":"bakumatsu_villages","name":"上土倉村","address":"越後 蒲原郡","source":"Geoshape 幕末期近世村領域データセット vector tiles (z7 extraction)","subarea_name":"近世村のおおよその範囲","feature_key":"village:K13G06S01679","accuracy_note":"2015年農業集落境界をもとに復元した概略範囲で、江戸時代の正確な村境ではありません"},"geometry":{"type":"Polygon","coordinates":[[[139.11644,37.637616],[139.121246,37.637072],[139.121933,37.635441],[139.128799,37.632179],[139.137726,37.631091],[139.139099,37.630003],[139.128799,37.625109],[139.12468,37.624021],[139.119186,37.624565],[139.11438,37.628916],[139.1082,37.627828],[139.109573,37.630547],[139.111633,37.634897],[139.11644,37.637616]]]}},{"type":"Feature","properties":{"layer_id":"bakumatsu_villages","name":"上大谷村","address":"越後 蒲原郡","source":"Geoshape 幕末期近世村領域データセット vector tiles (z7 extraction)","subarea_name":"近世村のおおよその範囲","feature_key":"village:K13G06S01680","accuracy_note":"2015年農業集落境界をもとに復元した概略範囲で、江戸時代の正確な村境ではありません"},"geometry":{"type":"Polygon","coordinates":[[[139.143219,37.630547],[139.147339,37.62674],[139.150085,37.62674],[139.149399,37.624021],[139.152832,37.620214],[139.151459,37.613144],[139.146652,37.614775],[139.133606,37.614231],[139.128799,37.617495],[139.128113,37.621302],[139.12468,37.624021],[139.128799,37.625109],[139.139099,37.630003],[139.141159,37.62946],[139.143219,37.630547]]]}},{"type":"Feature","properties":{"layer_id":"bakumatsu_villages","name":"上条村","address":"越後 蒲原郡","source":"Geoshape 幕末期近世村領域データセット vector tiles (z7 extraction)","subarea_name":"近世村のおおよその範囲","feature_key":"village:K13G06S01368","accuracy_note":"2015年農業集落境界をもとに復元した概略範囲で、江戸時代の正確な村境ではありません"},"geometry":{"type":"MultiPolygon","coordinates":[[[[139.077301,37.676756],[139.078674,37.674582],[139.076614,37.670777],[139.069061,37.66969],[139.067688,37.666973],[139.065628,37.666429],[139.067001,37.664255],[139.060135,37.659363],[139.051895,37.661537],[139.052582,37.662624],[139.053955,37.662081],[139.052582,37.663711],[139.054642,37.666429],[139.060135,37.664255],[139.063568,37.667516],[139.067688,37.670777],[139.068375,37.674582],[139.070435,37.675669],[139.075241,37.676212],[139.076614,37.675669],[139.077301,37.676756]]],[[[139.091721,37.68056],[139.092407,37.678929],[139.091034,37.675669],[139.086227,37.674582],[139.081421,37.670234],[139.074554,37.666429],[139.071808,37.665886],[139.067688,37.660994],[139.066315,37.66045],[139.066315,37.659906],[139.063568,37.657732],[139.059448,37.659363],[139.067001,37.664255],[139.065628,37.666429],[139.067688,37.666973],[139.069061,37.66969],[139.076614,37.670777],[139.078674,37.674582],[139.080734,37.674038],[139.082108,37.677843],[139.084167,37.677299],[139.086227,37.679473],[139.088287,37.68056],[139.091721,37.68056]]],[[[139.091721,37.68056],[139.098587,37.680016],[139.100647,37.678386],[139.09996,37.676212],[139.101334,37.674038],[139.0979,37.668603],[139.093781,37.664799],[139.091721,37.664799],[139.086914,37.663711],[139.080048,37.660994],[139.078674,37.658819],[139.071121,37.656101],[139.067001,37.656101],[139.063568,37.657732],[139.066315,37.659906],[139.066315,37.66045],[139.067688,37.660994],[139.071808,37.665886],[139.074554,37.666429],[139.081421,37.670234],[139.086227,37.674582],[139.091034,37.675669],[139.092407,37.678929],[139.091721,37.68056]]]]}},{"type":"Feature","properties":{"layer_id":"bakumatsu_villages","name":"上高柳村","address":"越後 蒲原郡","source":"Geoshape 幕末期近世村領域データセット vector tiles (z7 extraction)","subarea_name":"近世村のおおよその範囲","feature_key":"village:K13G06S01684","accuracy_note":"2015年農業集落境界をもとに復元した概略範囲で、江戸時代の正確な村境ではありません"},"geometry":{"type":"Polygon","coordinates":[[[139.195404,37.614775],[139.202957,37.611512],[139.205704,37.609336],[139.209137,37.608792],[139.209137,37.607704],[139.215317,37.603352],[139.211884,37.603352],[139.21051,37.600632],[139.20639,37.600088],[139.20433,37.597912],[139.201584,37.597912],[139.198837,37.595192],[139.198151,37.595192],[139.195404,37.590295],[139.190598,37.589207],[139.183731,37.589207],[139.180298,37.588119],[139.174118,37.590295],[139.161758,37.591383],[139.146652,37.59628],[139.141159,37.596824],[139.134979,37.599544],[139.125366,37.599],[139.119186,37.601176],[139.113693,37.603352],[139.117126,37.602808],[139.1185,37.603896],[139.119186,37.605528],[139.1185,37.60988],[139.131546,37.608792],[139.137726,37.607704],[139.143906,37.607704],[139.150772,37.608792],[139.155579,37.608248],[139.163132,37.605528],[139.164505,37.60444],[139.167252,37.60444],[139.169312,37.599544],[139.170685,37.599],[139.175491,37.600632],[139.179611,37.599544],[139.181671,37.601176],[139.181671,37.602264],[139.189224,37.60716],[139.189911,37.610424],[139.194031,37.614231],[139.195404,37.614775]]]}},{"type":"Feature","properties":{"layer_id":"bakumatsu_villages","name":"下土倉村","address":"越後 蒲原郡","source":"Geoshape 幕末期近世村領域データセット vector tiles (z7 extraction)","subarea_name":"近世村のおおよその範囲","feature_key":"village:K13G06S01677","accuracy_note":"2015年農業集落境界をもとに復元した概略範囲で、江戸時代の正確な村境ではありません"},"geometry":{"type":"Polygon","coordinates":[[[139.130859,37.659906],[139.131546,37.658276],[139.132233,37.658276],[139.134293,37.655014],[139.134293,37.652296],[139.131546,37.651752],[139.130173,37.649578],[139.133606,37.646859],[139.133606,37.64251],[139.134293,37.64251],[139.139786,37.636529],[139.139786,37.632722],[139.138412,37.631091],[139.128799,37.632179],[139.121933,37.635441],[139.1185,37.640335],[139.12056,37.641966],[139.121246,37.646316],[139.1185,37.647403],[139.1185,37.64849],[139.117813,37.649578],[139.110947,37.651752],[139.113693,37.65447],[139.119873,37.657189],[139.121933,37.657189],[139.123993,37.656101],[139.128799,37.657189],[139.130859,37.659906]]]}},{"type":"Feature","properties":{"layer_id":"bakumatsu_villages","name":"下大谷村","address":"越後 蒲原郡","source":"Geoshape 幕末期近世村領域データセット vector tiles (z7 extraction)","subarea_name":"近世村のおおよその範囲","feature_key":"village:K13G06S01682","accuracy_note":"2015年農業集落境界をもとに復元した概略範囲で、江戸時代の正確な村境ではありません"},"geometry":{"type":"Polygon","coordinates":[[[139.113007,37.62946],[139.11644,37.628372],[139.121246,37.624021],[139.12468,37.624021],[139.12262,37.620214],[139.123306,37.618039],[139.12262,37.616951],[139.123306,37.616407],[139.119186,37.6126],[139.1185,37.60988],[139.113693,37.610424],[139.104767,37.615863],[139.103394,37.617495],[139.103394,37.625653],[139.108887,37.628372],[139.113007,37.62946]]]}},{"type":"Feature","properties":{"layer_id":"bakumatsu_villages","name":"下天神林村・上天神林村","address":"越後 蒲原郡","source":"Geoshape 幕末期近世村領域データセット vector tiles (z7 extraction)","subarea_name":"近世村のおおよその範囲","feature_key":"village:K13G06S01362,K13G06S01365","accuracy_note":"2015年農業集落境界をもとに復元した概略範囲で、江戸時代の正確な村境ではありません"},"geometry":{"type":"Polygon","coordinates":[[[139.01207,37.674582],[139.01413,37.671321],[139.014816,37.672408],[139.017563,37.671864],[139.025116,37.666429],[139.01619,37.658276],[139.01207,37.662624],[139.01001,37.662081],[139.01001,37.660994],[139.004517,37.661537],[139.00589,37.66969],[139.009323,37.671864],[139.01001,37.674582],[139.01207,37.674582]]]}},{"type":"Feature","properties":{"layer_id":"bakumatsu_villages","name":"下条村","address":"越後 蒲原郡","source":"Geoshape 幕末期近世村領域データセット vector tiles (z7 extraction)","subarea_name":"近世村のおおよその範囲","feature_key":"village:K13G06S01364","accuracy_note":"2015年農業集落境界をもとに復元した概略範囲で、江戸時代の正確な村境ではありません"},"geometry":{"type":"MultiPolygon","coordinates":[[[[139.039536,37.653927],[139.044342,37.650665],[139.042282,37.646859],[139.038849,37.649578],[139.036789,37.649034],[139.037476,37.650121],[139.034729,37.650121],[139.039536,37.653927]]],[[[139.037476,37.650121],[139.036789,37.649034],[139.038849,37.649578],[139.044342,37.645772],[139.043655,37.64251],[139.041595,37.639791],[139.038849,37.63816],[139.035416,37.639791],[139.036102,37.641422],[139.033356,37.64251],[139.034729,37.645228],[139.029922,37.646316],[139.034729,37.650121],[139.037476,37.650121]]],[[[139.050522,37.653927],[139.057388,37.65284],[139.057388,37.650665],[139.053268,37.64849],[139.049835,37.645772],[139.046402,37.649034],[139.047775,37.651209],[139.047089,37.651752],[139.050522,37.653927]]],[[[139.045029,37.652296],[139.047089,37.651752],[139.047775,37.651209],[139.046402,37.649034],[139.049835,37.645772],[139.047775,37.644141],[139.044342,37.644685],[139.042282,37.646859],[139.044342,37.650665],[139.043655,37.651209],[139.045029,37.652296]]],[[[139.060822,37.651209],[139.068375,37.647403],[139.067001,37.636529],[139.069061,37.632179],[139.064255,37.628372],[139.064941,37.626197],[139.069748,37.623477],[139.075928,37.621846],[139.080048,37.619127],[139.082108,37.616407],[139.079361,37.614775],[139.078674,37.613144],[139.075928,37.613144],[139.073868,37.612056],[139.069748,37.613144],[139.066315,37.610424],[139.061508,37.610424],[139.059448,37.612056],[139.057388,37.611512],[139.056015,37.613687],[139.056015,37.616407],[139.053955,37.616951],[139.051895,37.616407],[139.050522,37.615319],[139.045715,37.615319],[139.040222,37.613144],[139.038162,37.613687],[139.033356,37.617495],[139.033356,37.619127],[139.031296,37.61967],[139.031296,37.62239],[139.032669,37.622934],[139.036789,37.62674],[139.036789,37.62946],[139.038849,37.631635],[139.037476,37.637072],[139.041595,37.639791],[139.044342,37.644685],[139.047775,37.644141],[139.053268,37.64849],[139.060822,37.651209]]]]}},{"type":"Feature","properties":{"layer_id":"bakumatsu_villages","name":"下条東村","address":"越後 蒲原郡","source":"Geoshape 幕末期近世村領域データセット vector tiles (z7 extraction)","subarea_name":"近世村のおおよその範囲","feature_key":"village:K13G06S01360","accuracy_note":"2015年農業集落境界をもとに復元した概略範囲で、江戸時代の正確な村境ではありません"},"geometry":{"type":"MultiPolygon","coordinates":[[[[139.040909,37.656645],[139.042969,37.655558],[139.042282,37.655014],[139.042969,37.653383],[139.040222,37.65284],[139.038849,37.653383],[139.038849,37.65447],[139.040909,37.656645]]],[[[139.042282,37.655014],[139.045715,37.653927],[139.045029,37.653383],[139.046402,37.653383],[139.047775,37.652296],[139.047089,37.651752],[139.045029,37.652296],[139.043655,37.651209],[139.040909,37.65284],[139.042969,37.653383],[139.042282,37.655014]]]]}},{"type":"Feature","properties":{"layer_id":"bakumatsu_villages","name":"下条西村","address":"越後 蒲原郡","source":"Geoshape 幕末期近世村領域データセット vector tiles (z7 extraction)","subarea_name":"近世村のおおよその範囲","feature_key":"village:K13G06S01361","accuracy_note":"2015年農業集落境界をもとに復元した概略範囲で、江戸時代の正確な村境ではありません"},"geometry":{"type":"MultiPolygon","coordinates":[[[[139.025116,37.666429],[139.034042,37.660994],[139.025803,37.65284],[139.025116,37.651209],[139.024429,37.650665],[139.023056,37.65447],[139.020996,37.655014],[139.020996,37.656645],[139.018936,37.655558],[139.01619,37.658276],[139.025116,37.666429]]],[[[139.034042,37.660994],[139.036102,37.659363],[139.032669,37.656101],[139.038162,37.65447],[139.038849,37.653383],[139.029922,37.646316],[139.026489,37.647947],[139.025116,37.651209],[139.025803,37.65284],[139.034042,37.660994]]]]}},{"type":"Feature","properties":{"layer_id":"bakumatsu_villages","name":"下高柳村","address":"越後 蒲原郡","source":"Geoshape 幕末期近世村領域データセット vector tiles (z7 extraction)","subarea_name":"近世村のおおよその範囲","feature_key":"village:K13G06S01683","accuracy_note":"2015年農業集落境界をもとに復元した概略範囲で、江戸時代の正確な村境ではありません"},"geometry":{"type":"Polygon","coordinates":[[[139.103394,37.617495],[139.104767,37.615863],[139.113693,37.610424],[139.1185,37.60988],[139.119186,37.605528],[139.117126,37.602808],[139.1082,37.602808],[139.1082,37.598456],[139.10614,37.595736],[139.107513,37.590839],[139.100647,37.59356],[139.10202,37.595736],[139.101334,37.600088],[139.097214,37.604984],[139.096527,37.610968],[139.09584,37.611512],[139.103394,37.617495]]]}},{"type":"Feature","properties":{"layer_id":"bakumatsu_villages","name":"中大谷村","address":"越後 蒲原郡","source":"Geoshape 幕末期近世村領域データセット vector tiles (z7 extraction)","subarea_name":"近世村のおおよその範囲","feature_key":"village:K13G06S01681","accuracy_note":"2015年農業集落境界をもとに復元した概略範囲で、江戸時代の正確な村境ではありません"},"geometry":{"type":"Polygon","coordinates":[[[139.12468,37.624021],[139.128113,37.621302],[139.128799,37.618039],[139.129486,37.616407],[139.133606,37.614231],[139.136353,37.614231],[139.148026,37.614775],[139.151459,37.613144],[139.154205,37.608792],[139.155579,37.608248],[139.150772,37.608792],[139.143906,37.607704],[139.137726,37.607704],[139.131546,37.608792],[139.1185,37.60988],[139.119186,37.6126],[139.123306,37.616407],[139.12262,37.616951],[139.123306,37.618039],[139.12262,37.620214],[139.12468,37.624021]]]}},{"type":"Feature","properties":{"layer_id":"bakumatsu_villages","name":"五反田村","address":"越後 蒲原郡","source":"Geoshape 幕末期近世村領域データセット vector tiles (z7 extraction)","subarea_name":"近世村のおおよその範囲","feature_key":"village:K13G06S01545","accuracy_note":"2015年農業集落境界をもとに復元した概略範囲で、江戸時代の正確な村境ではありません"},"geometry":{"type":"Polygon","coordinates":[[[139.023056,37.700664],[139.023743,37.699034],[139.025116,37.698491],[139.024429,37.694688],[139.031982,37.693601],[139.031296,37.690884],[139.027176,37.687081],[139.018936,37.684907],[139.017563,37.684907],[139.015503,37.687081],[139.022369,37.690341],[139.020996,37.692514],[139.022369,37.695231],[139.021683,37.695231],[139.020309,37.700121],[139.023056,37.700664]]]}},{"type":"Feature","properties":{"layer_id":"bakumatsu_villages","name":"井戸場新田々・井戸場新田","address":"越後 蒲原郡","source":"Geoshape 幕末期近世村領域データセット vector tiles (z7 extraction)","subarea_name":"近世村のおおよその範囲","feature_key":"village:K13G06S01533,K13G06S01539","accuracy_note":"2015年農業集落境界をもとに復元した概略範囲で、江戸時代の正確な村境ではありません"},"geometry":{"type":"Polygon","coordinates":[[[138.996277,37.682734],[138.996964,37.680016],[138.999023,37.678386],[139.00589,37.678386],[139.00795,37.677299],[139.01001,37.674582],[139.009323,37.671864],[139.00589,37.66969],[138.99765,37.66969],[138.99765,37.672951],[138.996277,37.671864],[138.992844,37.671864],[138.992844,37.674038],[138.99147,37.674038],[138.992157,37.676756],[138.990784,37.678929],[138.992157,37.680016],[138.996277,37.682734]]]}},{"type":"Feature","properties":{"layer_id":"bakumatsu_villages","name":"前須田村","address":"越後 蒲原郡","source":"Geoshape 幕末期近世村領域データセット vector tiles (z7 extraction)","subarea_name":"近世村のおおよその範囲","feature_key":"village:K13G06S01543","accuracy_note":"2015年農業集落境界をもとに復元した概略範囲で、江戸時代の正確な村境ではありません"},"geometry":{"type":"Polygon","coordinates":[[[139.008636,37.692514],[139.01001,37.691428],[139.010696,37.691971],[139.017563,37.684907],[139.00589,37.687081],[139.00589,37.688711],[139.007263,37.689798],[139.00795,37.691971],[139.008636,37.692514]]]}},{"type":"Feature","properties":{"layer_id":"bakumatsu_villages","name":"加茂新田","address":"越後 蒲原郡","source":"Geoshape 幕末期近世村領域データセット vector tiles (z7 extraction)","subarea_name":"近世村のおおよその範囲","feature_key":"village:K13G06S01357","accuracy_note":"2015年農業集落境界をもとに復元した概略範囲で、江戸時代の正確な村境ではありません"},"geometry":{"type":"MultiPolygon","coordinates":[[[[139.033356,37.689254],[139.033356,37.687624],[139.027176,37.68056],[139.022369,37.68382],[139.021683,37.685451],[139.027176,37.687081],[139.029922,37.689254],[139.033356,37.689254]]],[[[139.01001,37.686537],[139.015503,37.684907],[139.021683,37.685451],[139.022369,37.68382],[139.027176,37.68056],[139.01825,37.671864],[139.015503,37.672408],[139.01413,37.671321],[139.01207,37.674582],[139.01001,37.674582],[139.00795,37.677299],[139.007263,37.680016],[139.008636,37.681103],[139.007263,37.681647],[139.01001,37.686537]]],[[[139.034042,37.689254],[139.035416,37.685994],[139.034729,37.68382],[139.037476,37.68382],[139.038162,37.674582],[139.035416,37.671864],[139.033356,37.673495],[139.031982,37.672408],[139.027863,37.674582],[139.027176,37.673495],[139.023056,37.676212],[139.030609,37.68382],[139.033356,37.687624],[139.034042,37.689254]]],[[[139.034729,37.687081],[139.039536,37.684907],[139.042969,37.679473],[139.042282,37.675669],[139.042969,37.674582],[139.038162,37.674582],[139.037476,37.68382],[139.034729,37.68382],[139.035416,37.685451],[139.034729,37.687081]]],[[[139.042969,37.674582],[139.048462,37.66806],[139.048462,37.664799],[139.046402,37.664799],[139.045715,37.666429],[139.040909,37.668603],[139.038849,37.666429],[139.027176,37.673495],[139.027863,37.674582],[139.031982,37.672408],[139.033356,37.673495],[139.035416,37.671864],[139.037476,37.674582],[139.042969,37.674582]]]]}},{"type":"Feature","properties":{"layer_id":"bakumatsu_villages","name":"加茂町","address":"越後 蒲原郡","source":"Geoshape 幕末期近世村領域データセット vector tiles (z7 extraction)","subarea_name":"近世村のおおよその範囲","feature_key":"village:K13G06S01370","accuracy_note":"2015年農業集落境界をもとに復元した概略範囲で、江戸時代の正確な村境ではありません"},"geometry":{"type":"MultiPolygon","coordinates":[[[[139.023056,37.676212],[139.049835,37.659906],[139.049149,37.658276],[139.053268,37.659363],[139.049835,37.655014],[139.048462,37.655014],[139.047775,37.656645],[139.045029,37.657189],[139.033356,37.664799],[139.034042,37.665886],[139.020996,37.674038],[139.023056,37.676212]]],[[[139.040909,37.668603],[139.045715,37.666429],[139.046402,37.664799],[139.048462,37.664799],[139.048462,37.66806],[139.053955,37.662624],[139.052582,37.662624],[139.051895,37.661537],[139.067688,37.656101],[139.067688,37.65447],[139.069061,37.653383],[139.068375,37.647403],[139.060822,37.651209],[139.058075,37.650121],[139.057388,37.65284],[139.053268,37.653927],[139.051208,37.653383],[139.049835,37.655558],[139.053268,37.659363],[139.049149,37.658276],[139.049835,37.659906],[139.038849,37.666429],[139.040909,37.668603]]]]}},{"type":"Feature","properties":{"layer_id":"bakumatsu_villages","name":"北潟村","address":"越後 蒲原郡","source":"Geoshape 幕末期近世村領域データセット vector tiles (z7 extraction)","subarea_name":"近世村のおおよその範囲","feature_key":"village:K13G06S01546","accuracy_note":"2015年農業集落境界をもとに復元した概略範囲で、江戸時代の正確な村境ではありません"},"geometry":{"type":"Polygon","coordinates":[[[139.016876,37.710986],[139.024429,37.706097],[139.025803,37.703924],[139.024429,37.702837],[139.025116,37.701207],[139.023056,37.700664],[139.017563,37.699034],[139.007263,37.70501],[139.012756,37.710443],[139.01619,37.709899],[139.016876,37.710986]]]}},{"type":"Feature","properties":{"layer_id":"bakumatsu_villages","name":"宮寄上村","address":"越後 蒲原郡","source":"Geoshape 幕末期近世村領域データセット vector tiles (z7 extraction)","subarea_name":"近世村のおおよその範囲","feature_key":"village:K13G06S01685","accuracy_note":"2015年農業集落境界をもとに復元した概略範囲で、江戸時代の正確な村境ではありません"},"geometry":{"type":"MultiPolygon","coordinates":[[[[139.111633,37.603352],[139.12468,37.599544],[139.134979,37.599544],[139.141159,37.596824],[139.146652,37.59628],[139.154205,37.59356],[139.171371,37.590295],[139.163132,37.587575],[139.154892,37.588119],[139.145966,37.587031],[139.132233,37.591927],[139.126053,37.591927],[139.123306,37.592472],[139.12056,37.590295],[139.119186,37.581589],[139.11644,37.582677],[139.115067,37.581589],[139.113693,37.582133],[139.113007,37.581045],[139.111633,37.580501],[139.107513,37.582133],[139.10614,37.583766],[139.107513,37.590839],[139.10614,37.595736],[139.1082,37.598456],[139.1082,37.602808],[139.111633,37.603352]]],[[[139.215317,37.603352],[139.21875,37.602264],[139.21875,37.594648],[139.22287,37.587575],[139.22287,37.584854],[139.224243,37.582677],[139.227676,37.581045],[139.230423,37.57778],[139.229736,37.574515],[139.23317,37.569617],[139.233856,37.564718],[139.233856,37.561997],[139.231796,37.559275],[139.224243,37.556554],[139.22287,37.557098],[139.222183,37.559275],[139.219437,37.560364],[139.216003,37.559275],[139.209824,37.561453],[139.205704,37.560364],[139.203644,37.558187],[139.200211,37.557642],[139.196777,37.555465],[139.189911,37.554376],[139.187851,37.555465],[139.185791,37.553288],[139.180298,37.555465],[139.174118,37.556009],[139.172058,37.557642],[139.167938,37.557642],[139.164505,37.558731],[139.159012,37.559275],[139.152145,37.561453],[139.150772,37.562541],[139.146652,37.564718],[139.140472,37.564174],[139.137726,37.56744],[139.132919,37.566895],[139.131546,37.569073],[139.128799,37.570705],[139.127426,37.573971],[139.12262,37.577236],[139.121933,37.580501],[139.119186,37.581589],[139.12056,37.590295],[139.12262,37.592472],[139.126053,37.591927],[139.132233,37.591927],[139.145966,37.587031],[139.154892,37.588119],[139.163132,37.587575],[139.171371,37.590295],[139.176865,37.589751],[139.180298,37.588119],[139.183731,37.589207],[139.190598,37.589207],[139.195404,37.590295],[139.198151,37.595192],[139.198837,37.595192],[139.201584,37.597912],[139.20433,37.597912],[139.20639,37.600088],[139.21051,37.600632],[139.211884,37.603352],[139.215317,37.603352]]]]}},{"type":"Feature","properties":{"layer_id":"bakumatsu_villages","name":"山島新田","address":"越後 蒲原郡","source":"Geoshape 幕末期近世村領域データセット vector tiles (z7 extraction)","subarea_name":"近世村のおおよその範囲","feature_key":"village:K13G06S01363","accuracy_note":"2015年農業集落境界をもとに復元した概略範囲で、江戸時代の正確な村境ではありません"},"geometry":{"type":"Polygon","coordinates":[[[139.005203,37.687081],[139.01001,37.686537],[139.007263,37.681647],[139.008636,37.681103],[139.007263,37.680016],[139.00795,37.677299],[138.999023,37.678386],[138.996277,37.68219],[139.00177,37.686537],[139.005203,37.687081]]]}},{"type":"Feature","properties":{"layer_id":"bakumatsu_villages","name":"後須田村","address":"越後 蒲原郡","source":"Geoshape 幕末期近世村領域データセット vector tiles (z7 extraction)","subarea_name":"近世村のおおよその範囲","feature_key":"village:K13G06S01544","accuracy_note":"2015年農業集落境界をもとに復元した概略範囲で、江戸時代の正確な村境ではありません"},"geometry":{"type":"MultiPolygon","coordinates":[[[[139.00795,37.70338],[139.008636,37.697948],[139.01001,37.694688],[139.01207,37.695231],[139.01413,37.694144],[139.01413,37.691428],[139.016876,37.687624],[139.015503,37.687081],[139.010696,37.691971],[139.01001,37.691428],[139.008636,37.692514],[139.00795,37.691971],[139.006577,37.70338],[139.00795,37.70338]]],[[[139.008636,37.704467],[139.01001,37.70338],[139.008636,37.701751],[139.010696,37.700121],[139.011383,37.697948],[139.016876,37.693601],[139.01619,37.693058],[139.019623,37.688711],[139.016876,37.687624],[139.01413,37.691428],[139.01413,37.694144],[139.01207,37.695231],[139.01001,37.694688],[139.008636,37.697948],[139.00795,37.70338],[139.008636,37.704467]]],[[[139.009323,37.702294],[139.016876,37.695774],[139.021683,37.689798],[139.019623,37.688711],[139.01619,37.693058],[139.016876,37.693601],[139.01619,37.694144],[139.015503,37.694144],[139.011383,37.697948],[139.010696,37.700121],[139.008636,37.701751],[139.009323,37.702294]]],[[[139.01001,37.70338],[139.017563,37.699034],[139.018936,37.699034],[139.020309,37.700121],[139.021683,37.695231],[139.022369,37.695231],[139.020996,37.692514],[139.022369,37.690341],[139.021683,37.689798],[139.016876,37.695774],[139.009323,37.702294],[139.01001,37.70338]]]]}},{"type":"Feature","properties":{"layer_id":"bakumatsu_villages","name":"東俣新田","address":"越後 蒲原郡","source":"Geoshape 幕末期近世村領域データセット vector tiles (z7 extraction)","subarea_name":"近世村のおおよその範囲","feature_key":"village:K13G06S01369","accuracy_note":"2015年農業集落境界をもとに復元した概略範囲で、江戸時代の正確な村境ではありません"},"geometry":{"type":"Polygon","coordinates":[[[139.067688,37.656101],[139.072495,37.655558],[139.077988,37.652296],[139.076614,37.650121],[139.070435,37.645772],[139.068375,37.643053],[139.069061,37.653383],[139.067688,37.65447],[139.067688,37.656101]]]}},{"type":"Feature","properties":{"layer_id":"bakumatsu_villages","name":"狭口村","address":"越後 蒲原郡","source":"Geoshape 幕末期近世村領域データセット vector tiles (z7 extraction)","subarea_name":"近世村のおおよその範囲","feature_key":"village:K13G06S01371","accuracy_note":"2015年農業集落境界をもとに復元した概略範囲で、江戸時代の正確な村境ではありません"},"geometry":{"type":"MultiPolygon","coordinates":[[[[139.080734,37.660994],[139.082794,37.656101],[139.080734,37.65447],[139.079361,37.652296],[139.071121,37.656101],[139.079361,37.658819],[139.080734,37.660994]]],[[[139.086914,37.663711],[139.087601,37.659363],[139.084167,37.651752],[139.083481,37.651209],[139.079361,37.652296],[139.080734,37.65447],[139.082794,37.656101],[139.080734,37.660994],[139.086914,37.663711]]],[[[139.099274,37.66969],[139.101334,37.668603],[139.10408,37.66806],[139.1082,37.664255],[139.108887,37.660994],[139.10408,37.657189],[139.1082,37.652296],[139.086914,37.647403],[139.083481,37.651209],[139.087601,37.659363],[139.086914,37.663711],[139.095154,37.665342],[139.099274,37.66969]]],[[[139.079361,37.652296],[139.083481,37.651209],[139.082108,37.649578],[139.077301,37.645228],[139.068375,37.641966],[139.069748,37.644685],[139.076614,37.650121],[139.077988,37.652296],[139.079361,37.652296]]],[[[139.083481,37.651209],[139.086227,37.64849],[139.080734,37.645772],[139.077988,37.64251],[139.074554,37.640335],[139.067001,37.637072],[139.068375,37.641966],[139.077301,37.645228],[139.083481,37.651209]]],[[[139.086227,37.64849],[139.087601,37.643597],[139.084854,37.641966],[139.080048,37.640879],[139.077988,37.63816],[139.073181,37.637616],[139.071121,37.635985],[139.067688,37.635441],[139.067001,37.636529],[139.077301,37.641966],[139.082794,37.647403],[139.086227,37.64849]]],[[[139.087601,37.643597],[139.093094,37.637616],[139.086227,37.632179],[139.082108,37.631635],[139.080734,37.62946],[139.077301,37.627828],[139.073181,37.628916],[139.069061,37.632179],[139.068375,37.634897],[139.067688,37.635441],[139.072495,37.635985],[139.073181,37.637616],[139.077988,37.63816],[139.080048,37.640879],[139.084854,37.641966],[139.087601,37.643597]]]]}},{"type":"Feature","properties":{"layer_id":"bakumatsu_villages","name":"猿毛村","address":"越後 蒲原郡","source":"Geoshape 幕末期近世村領域データセット vector tiles (z7 extraction)","subarea_name":"近世村のおおよその範囲","feature_key":"village:K13G06S01372","accuracy_note":"2015年農業集落境界をもとに復元した概略範囲で、江戸時代の正確な村境ではありません"},"geometry":{"type":"Polygon","coordinates":[[[139.1082,37.652296],[139.110947,37.651752],[139.1082,37.649578],[139.103394,37.644141],[139.09996,37.64251],[139.099274,37.640335],[139.09584,37.63816],[139.093781,37.637072],[139.093094,37.637616],[139.087601,37.643053],[139.086914,37.647403],[139.1082,37.652296]]]}},{"type":"Feature","properties":{"layer_id":"bakumatsu_villages","name":"田中新田","address":"越後 蒲原郡","source":"Geoshape 幕末期近世村領域データセット vector tiles (z7 extraction)","subarea_name":"近世村のおおよその範囲","feature_key":"village:K13G06S01541","accuracy_note":"2015年農業集落境界をもとに復元した概略範囲で、江戸時代の正確な村境ではありません"},"geometry":{"type":"Polygon","coordinates":[[[139.007263,37.70501],[139.008636,37.704467],[139.00795,37.70338],[139.00177,37.70338],[138.996964,37.697948],[138.99765,37.689798],[138.99559,37.689254],[138.994904,37.687624],[138.990097,37.688167],[138.99147,37.694688],[139.000397,37.703924],[139.00177,37.704467],[139.00589,37.703924],[139.007263,37.70501]]]}},{"type":"Feature","properties":{"layer_id":"bakumatsu_villages","name":"矢立新田","address":"越後 蒲原郡","source":"Geoshape 幕末期近世村領域データセット vector tiles (z7 extraction)","subarea_name":"近世村のおおよその範囲","feature_key":"village:K13G06S01367","accuracy_note":"2015年農業集落境界をもとに復元した概略範囲で、江戸時代の正確な村境ではありません"},"geometry":{"type":"Polygon","coordinates":[[[139.047775,37.652296],[139.046402,37.653383],[139.045029,37.653383],[139.045715,37.653927],[139.040909,37.656645],[139.038849,37.65447],[139.033356,37.655558],[139.036102,37.659363],[139.01825,37.671864],[139.020996,37.674038],[139.034042,37.665886],[139.033356,37.664799],[139.045029,37.657189],[139.047775,37.656645],[139.047775,37.655558],[139.049835,37.655014],[139.050522,37.653927],[139.047775,37.652296]]]}},{"type":"Feature","properties":{"layer_id":"bakumatsu_villages","name":"砂押新田","address":"越後 蒲原郡","source":"Geoshape 幕末期近世村領域データセット vector tiles (z7 extraction)","subarea_name":"近世村のおおよその範囲","feature_key":"village:K13G06S01553","accuracy_note":"2015年農業集落境界をもとに復元した概略範囲で、江戸時代の正確な村境ではありません"},"geometry":{"type":"Polygon","coordinates":[[[139.00795,37.691971],[139.006577,37.689254],[139.004517,37.690884],[139.00383,37.70338],[139.006577,37.70338],[139.00795,37.691971]]]}},{"type":"Feature","properties":{"layer_id":"bakumatsu_villages","name":"西山村","address":"越後 蒲原郡","source":"Geoshape 幕末期近世村領域データセット vector tiles (z7 extraction)","subarea_name":"近世村のおおよその範囲","feature_key":"village:K13G06S01687","accuracy_note":"2015年農業集落境界をもとに復元した概略範囲で、江戸時代の正確な村境ではありません"},"geometry":{"type":"Polygon","coordinates":[[[139.087601,37.611512],[139.096527,37.610424],[139.097214,37.604984],[139.101334,37.600088],[139.101334,37.594104],[139.100647,37.59356],[139.09996,37.594648],[139.093781,37.594104],[139.092407,37.594648],[139.091721,37.595736],[139.089661,37.594104],[139.086914,37.594648],[139.084854,37.59356],[139.082794,37.597368],[139.081421,37.597368],[139.080048,37.599],[139.075241,37.600632],[139.075928,37.602264],[139.074554,37.603896],[139.077301,37.606616],[139.076614,37.609336],[139.082108,37.608792],[139.087601,37.611512]]]}},{"type":"Feature","properties":{"layer_id":"bakumatsu_villages","name":"赤谷新田","address":"越後 蒲原郡","source":"Geoshape 幕末期近世村領域データセット vector tiles (z7 extraction)","subarea_name":"近世村のおおよその範囲","feature_key":"village:K13G06S01376","accuracy_note":"2015年農業集落境界をもとに復元した概略範囲で、江戸時代の正確な村境ではありません"},"geometry":{"type":"Polygon","coordinates":[[[139.062881,37.671864],[139.064255,37.672408],[139.063568,37.674038],[139.068375,37.674582],[139.067688,37.670777],[139.060135,37.664255],[139.054642,37.666429],[139.052582,37.663711],[139.046402,37.670234],[139.046402,37.671321],[139.048462,37.672951],[139.049835,37.672951],[139.051208,37.671864],[139.053955,37.672951],[139.056015,37.671864],[139.056015,37.672408],[139.058762,37.672951],[139.060135,37.672408],[139.062195,37.672408],[139.062881,37.671864]]]}},{"type":"Feature","properties":{"layer_id":"bakumatsu_villages","name":"長谷村","address":"越後 蒲原郡","source":"Geoshape 幕末期近世村領域データセット vector tiles (z7 extraction)","subarea_name":"近世村のおおよその範囲","feature_key":"village:K13G06S01678","accuracy_note":"2015年農業集落境界をもとに復元した概略範囲で、江戸時代の正確な村境ではありません"},"geometry":{"type":"Polygon","coordinates":[[[139.110947,37.651752],[139.117813,37.649578],[139.1185,37.64849],[139.1185,37.647403],[139.121246,37.646316],[139.12056,37.641966],[139.1185,37.640335],[139.121246,37.637072],[139.11644,37.637616],[139.113007,37.635985],[139.109573,37.630547],[139.107513,37.632179],[139.10408,37.632722],[139.103394,37.634354],[139.10202,37.63381],[139.09996,37.634354],[139.102707,37.635985],[139.10202,37.637072],[139.103394,37.637616],[139.102707,37.638704],[139.099274,37.640335],[139.09996,37.64251],[139.103394,37.644141],[139.1082,37.649578],[139.110947,37.651752]]]}},{"type":"Feature","properties":{"layer_id":"bakumatsu_villages","name":"鵜森村","address":"越後 蒲原郡","source":"Geoshape 幕末期近世村領域データセット vector tiles (z7 extraction)","subarea_name":"近世村のおおよその範囲","feature_key":"village:K13G06S01542","accuracy_note":"2015年農業集落境界をもとに復元した概略範囲で、江戸時代の正確な村境ではありません"},"geometry":{"type":"Polygon","coordinates":[[[138.99559,37.688711],[138.994904,37.684907],[138.99765,37.68382],[138.992157,37.680016],[138.990097,37.682734],[138.988724,37.682734],[138.988724,37.684907],[138.98941,37.685451],[138.990097,37.688167],[138.994904,37.687624],[138.99559,37.688711]]]}},{"type":"Feature","properties":{"layer_id":"bakumatsu_villages","name":"鵜森村新田","address":"越後 蒲原郡","source":"Geoshape 幕末期近世村領域データセット vector tiles (z7 extraction)","subarea_name":"近世村のおおよその範囲","feature_key":"village:K13G06S01535","accuracy_note":"2015年農業集落境界をもとに復元した概略範囲で、江戸時代の正確な村境ではありません"},"geometry":{"type":"MultiPolygon","coordinates":[[[[139.003143,37.70338],[139.001083,37.699034],[139.00177,37.686537],[138.99765,37.68382],[138.994904,37.684907],[138.994904,37.686537],[138.99559,37.689254],[138.99765,37.689798],[138.996964,37.697948],[139.00177,37.70338],[139.003143,37.70338]]],[[[139.00383,37.70338],[139.004517,37.690884],[139.006577,37.689254],[139.00589,37.687081],[139.00177,37.686537],[139.001083,37.699034],[139.00383,37.70338]]]]}},{"type":"Feature","properties":{"layer_id":"bakumatsu_villages","name":"黒水村","address":"越後 蒲原郡","source":"Geoshape 幕末期近世村領域データセット vector tiles (z7 extraction)","subarea_name":"近世村のおおよその範囲","feature_key":"village:K13G06S01686","accuracy_note":"2015年農業集落境界をもとに復元した概略範囲で、江戸時代の正確な村境ではありません"},"geometry":{"type":"MultiPolygon","coordinates":[[[[139.086914,37.633266],[139.089661,37.631635],[139.093094,37.632722],[139.096527,37.62946],[139.096527,37.627284],[139.094467,37.626197],[139.095154,37.625109],[139.082794,37.624565],[139.079361,37.625109],[139.073181,37.622934],[139.067688,37.624021],[139.064255,37.62674],[139.064255,37.628372],[139.069061,37.632179],[139.073181,37.628916],[139.077301,37.627828],[139.080734,37.62946],[139.082108,37.631635],[139.086227,37.632179],[139.086914,37.633266]]],[[[139.094467,37.625109],[139.097214,37.623477],[139.0979,37.621302],[139.09584,37.616951],[139.0979,37.613144],[139.09584,37.611512],[139.096527,37.610424],[139.087601,37.611512],[139.082108,37.608792],[139.076614,37.609336],[139.075928,37.610968],[139.073868,37.612056],[139.075928,37.613144],[139.078674,37.613144],[139.079361,37.614775],[139.082108,37.616407],[139.080048,37.619127],[139.073181,37.622934],[139.074554,37.624021],[139.079361,37.625109],[139.082794,37.624565],[139.094467,37.625109]]],[[[139.093094,37.637616],[139.094467,37.635985],[139.093781,37.633266],[139.0979,37.630003],[139.097214,37.630003],[139.09584,37.62946],[139.093094,37.632722],[139.089661,37.631635],[139.086914,37.633266],[139.090347,37.634897],[139.093094,37.637616]]],[[[139.099274,37.640335],[139.102707,37.638704],[139.103394,37.637616],[139.10202,37.637072],[139.102707,37.635985],[139.09996,37.634354],[139.10202,37.63381],[139.103394,37.634354],[139.10408,37.632722],[139.107513,37.632179],[139.109573,37.630547],[139.107513,37.627284],[139.103394,37.625653],[139.10408,37.62674],[139.09996,37.627828],[139.093781,37.633266],[139.094467,37.634897],[139.093781,37.637072],[139.099274,37.640335]]],[[[139.0979,37.630003],[139.101334,37.627284],[139.100647,37.62674],[139.098587,37.627284],[139.098587,37.62674],[139.096527,37.627284],[139.09584,37.62946],[139.0979,37.630003]]],[[[139.10408,37.627284],[139.103394,37.617495],[139.0979,37.613144],[139.09584,37.616951],[139.097214,37.62239],[139.095154,37.625109],[139.094467,37.626197],[139.097214,37.627284],[139.098587,37.62674],[139.098587,37.627284],[139.10408,37.627284]]]]}},{"type":"Feature","properties":{"layer_id":"historical_sites_archaeology","name":"千刈遺跡","address":"新潟県 加茂市 千刈一丁目","source":"Geoshape 日本歴史地名大系 施設・地点項目データセット 2025-05-15","subarea_name":"遺跡","feature_key":"08_archaeological_sites.geojson:150000347300","subtype":"遺跡"},"geometry":{"type":"Point","coordinates":[139.050849,37.664051]}},{"type":"Feature","properties":{"layer_id":"historical_temples_shrines","name":"長福寺跡","address":"新潟県 加茂市 大字下条","source":"Geoshape 日本歴史地名大系 施設・地点項目データセット 2025-05-15","subarea_name":"廃寺・廃社","feature_key":"03_abandoned_temples_shrines.geojson:150000347900","subtype":"廃寺・廃社"},"geometry":{"type":"Point","coordinates":[139.041106,37.651207]}},{"type":"Feature","properties":{"layer_id":"historical_temples_shrines","name":"青海神社","address":"新潟県 糸魚川市 大字青海762番地","source":"Geoshape 日本歴史地名大系 施設・地点項目データセット 2025-05-15","subarea_name":"神社","feature_key":"02_shrines.geojson:150000010900","subtype":"神社"},"geometry":{"type":"Point","coordinates":[139.053779,37.656671]}},{"type":"Feature","properties":{"layer_id":"historical_temples_shrines","name":"青海神社","address":"新潟県 糸魚川市 大字青海762番地","source":"Geoshape 日本歴史地名大系 施設・地点項目データセット 2025-05-15","subarea_name":"神社","feature_key":"02_shrines.geojson:150000347000","subtype":"神社"},"geometry":{"type":"Point","coordinates":[139.053779,37.656671]}}]}