{"type":"FeatureCollection","municipality_code":"18322","pref":"福井県","city":"永平寺町","layer_counts":{"bakumatsu_villages":55,"historical_sites_archaeology":1,"historical_temples_shrines":9},"total_features":65,"features":[{"type":"Feature","properties":{"layer_id":"bakumatsu_villages","name":"上合月","address":"越前 吉田郡","source":"Geoshape 幕末期近世村領域データセット vector tiles (z7 extraction)","subarea_name":"近世村のおおよその範囲","feature_key":"village:K17G06S00106","accuracy_note":"2015年農業集落境界をもとに復元した概略範囲で、江戸時代の正確な村境ではありません"},"geometry":{"type":"Polygon","coordinates":[[[136.29776,36.107369],[136.306,36.104041],[136.314926,36.104041],[136.316986,36.102376],[136.298447,36.097938],[136.29776,36.099602],[136.295013,36.099602],[136.29776,36.107369]]]}},{"type":"Feature","properties":{"layer_id":"bakumatsu_villages","name":"上浄法寺","address":"越前 吉田郡","source":"Geoshape 幕末期近世村領域データセット vector tiles (z7 extraction)","subarea_name":"近世村のおおよその範囲","feature_key":"village:K17G06S00104","accuracy_note":"2015年農業集落境界をもとに復元した概略範囲で、江戸時代の正確な村境ではありません"},"geometry":{"type":"Polygon","coordinates":[[[136.371231,36.130111],[136.375351,36.126229],[136.384277,36.127338],[136.387024,36.125674],[136.392517,36.125119],[136.391144,36.1168],[136.389084,36.115135],[136.387024,36.115135],[136.382904,36.111807],[136.380844,36.109034],[136.373978,36.107924],[136.367111,36.102931],[136.364365,36.102931],[136.360931,36.097383],[136.359558,36.097938],[136.357498,36.096274],[136.356812,36.096828],[136.356812,36.095719],[136.357498,36.095719],[136.356812,36.093499],[136.348572,36.094609],[136.352005,36.107924],[136.354752,36.112917],[136.353378,36.116245],[136.354752,36.117354],[136.358871,36.122901],[136.359558,36.127338],[136.361618,36.129002],[136.365051,36.129002],[136.371231,36.130111]]]}},{"type":"Feature","properties":{"layer_id":"bakumatsu_villages","name":"下合月","address":"越前 吉田郡","source":"Geoshape 幕末期近世村領域データセット vector tiles (z7 extraction)","subarea_name":"近世村のおおよその範囲","feature_key":"village:K17G06S00107","accuracy_note":"2015年農業集落境界をもとに復元した概略範囲で、江戸時代の正確な村境ではありません"},"geometry":{"type":"Polygon","coordinates":[[[136.29158,36.108479],[136.29776,36.107369],[136.295013,36.099602],[136.29776,36.099602],[136.298447,36.096274],[136.288147,36.095164],[136.28746,36.098493],[136.288834,36.10515],[136.290894,36.104596],[136.29158,36.108479]]]}},{"type":"Feature","properties":{"layer_id":"bakumatsu_villages","name":"下吉野","address":"越前 吉田郡","source":"Geoshape 幕末期近世村領域データセット vector tiles (z7 extraction)","subarea_name":"近世村のおおよその範囲","feature_key":"village:K17G06S00114","accuracy_note":"2015年農業集落境界をもとに復元した概略範囲で、江戸時代の正確な村境ではありません"},"geometry":{"type":"Polygon","coordinates":[[[136.297073,36.083511],[136.29776,36.082402],[136.299133,36.081847],[136.29982,36.082957],[136.301193,36.080182],[136.305313,36.080737],[136.304626,36.080182],[136.306,36.080182],[136.30394,36.076852],[136.304626,36.074632],[136.294327,36.073522],[136.294327,36.079072],[136.2957,36.080737],[136.295013,36.082402],[136.29364,36.081847],[136.29364,36.082402],[136.295013,36.083511],[136.297073,36.083511]]]}},{"type":"Feature","properties":{"layer_id":"bakumatsu_villages","name":"下浄法寺","address":"越前 吉田郡","source":"Geoshape 幕末期近世村領域データセット vector tiles (z7 extraction)","subarea_name":"近世村のおおよその範囲","feature_key":"village:K17G06S00105","accuracy_note":"2015年農業集落境界をもとに復元した概略範囲で、江戸時代の正確な村境ではありません"},"geometry":{"type":"Polygon","coordinates":[[[136.353378,36.116245],[136.354752,36.112917],[136.352005,36.107924],[136.348572,36.094609],[136.336212,36.096828],[136.338959,36.099602],[136.343079,36.102376],[136.343079,36.111253],[136.345825,36.114026],[136.347198,36.113471],[136.349945,36.11569],[136.353378,36.116245]]]}},{"type":"Feature","properties":{"layer_id":"bakumatsu_villages","name":"中島","address":"越前 吉田郡","source":"Geoshape 幕末期近世村領域データセット vector tiles (z7 extraction)","subarea_name":"近世村のおおよその範囲","feature_key":"village:K17G06S00094","accuracy_note":"2015年農業集落境界をもとに復元した概略範囲で、江戸時代の正確な村境ではありません"},"geometry":{"type":"Polygon","coordinates":[[[136.406937,36.081847],[136.42067,36.078517],[136.419296,36.076297],[136.411057,36.074632],[136.406937,36.076297],[136.405563,36.079627],[136.406937,36.081847]]]}},{"type":"Feature","properties":{"layer_id":"bakumatsu_villages","name":"京善","address":"越前 吉田郡","source":"Geoshape 幕末期近世村領域データセット vector tiles (z7 extraction)","subarea_name":"近世村のおおよその範囲","feature_key":"village:K17G06S00049","accuracy_note":"2015年農業集落境界をもとに復元した概略範囲で、江戸時代の正確な村境ではありません"},"geometry":{"type":"Polygon","coordinates":[[[136.321793,36.077962],[136.321793,36.076297],[136.324539,36.075742],[136.328659,36.076297],[136.327286,36.071302],[136.325912,36.070192],[136.327972,36.069082],[136.317673,36.058536],[136.313553,36.064087],[136.31424,36.066862],[136.31218,36.066862],[136.311493,36.067417],[136.31012,36.072412],[136.319733,36.077962],[136.321793,36.077962]]]}},{"type":"Feature","properties":{"layer_id":"bakumatsu_villages","name":"光明寺","address":"越前 吉田郡","source":"Geoshape 幕末期近世村領域データセット vector tiles (z7 extraction)","subarea_name":"近世村のおおよその範囲","feature_key":"village:K17G06S00131","accuracy_note":"2015年農業集落境界をもとに復元した概略範囲で、江戸時代の正確な村境ではありません"},"geometry":{"type":"Polygon","coordinates":[[[136.340332,36.095719],[136.353378,36.094054],[136.353378,36.09017],[136.356812,36.088506],[136.356812,36.087951],[136.353378,36.087951],[136.352692,36.085731],[136.352692,36.076852],[136.349945,36.074077],[136.347198,36.076297],[136.347198,36.083511],[136.343079,36.08906],[136.343765,36.091835],[136.338959,36.094054],[136.340332,36.095719]]]}},{"type":"Feature","properties":{"layer_id":"bakumatsu_villages","name":"兼定島","address":"越前 吉田郡","source":"Geoshape 幕末期近世村領域データセット vector tiles (z7 extraction)","subarea_name":"近世村のおおよその範囲","feature_key":"village:K17G06S00109","accuracy_note":"2015年農業集落境界をもとに復元した概略範囲で、江戸時代の正確な村境ではありません"},"geometry":{"type":"Polygon","coordinates":[[[136.284714,36.111253],[136.284714,36.110698],[136.288834,36.109588],[136.28746,36.109034],[136.28746,36.107924],[136.286087,36.107924],[136.286087,36.105705],[136.28334,36.10626],[136.281967,36.099048],[136.281281,36.099048],[136.280594,36.104041],[136.277847,36.104041],[136.279221,36.111253],[136.284714,36.111253]]]}},{"type":"Feature","properties":{"layer_id":"bakumatsu_villages","name":"北島","address":"越前 吉田郡","source":"Geoshape 幕末期近世村領域データセット vector tiles (z7 extraction)","subarea_name":"近世村のおおよその範囲","feature_key":"village:K17G06S00089","accuracy_note":"2015年農業集落境界をもとに復元した概略範囲で、江戸時代の正確な村境ではありません"},"geometry":{"type":"Polygon","coordinates":[[[136.371918,36.089615],[136.375351,36.086841],[136.376038,36.08906],[136.380157,36.087951],[136.378784,36.084066],[136.366425,36.088506],[136.371918,36.089615]]]}},{"type":"Feature","properties":{"layer_id":"bakumatsu_villages","name":"印内","address":"越前 吉田郡","source":"Geoshape 幕末期近世村領域データセット vector tiles (z7 extraction)","subarea_name":"近世村のおおよその範囲","feature_key":"village:K17G06S00053","accuracy_note":"2015年農業集落境界をもとに復元した概略範囲で、江戸時代の正確な村境ではありません"},"geometry":{"type":"Polygon","coordinates":[[[136.300507,36.059646],[136.303253,36.057981],[136.307373,36.058536],[136.31012,36.054095],[136.317673,36.050209],[136.319733,36.047433],[136.319733,36.044658],[136.318359,36.041882],[136.313553,36.041326],[136.306686,36.044658],[136.297073,36.046323],[136.296387,36.050209],[136.29364,36.049654],[136.28952,36.054095],[136.296387,36.057981],[136.29776,36.057981],[136.29776,36.059091],[136.300507,36.059646]]]}},{"type":"Feature","properties":{"layer_id":"bakumatsu_villages","name":"吉峯","address":"越前 吉田郡","source":"Geoshape 幕末期近世村領域データセット vector tiles (z7 extraction)","subarea_name":"近世村のおおよその範囲","feature_key":"village:K17G06S00101","accuracy_note":"2015年農業集落境界をもとに復元した概略範囲で、江戸時代の正確な村境ではありません"},"geometry":{"type":"Polygon","coordinates":[[[136.422729,36.065752],[136.428909,36.063532],[136.432343,36.059091],[136.433029,36.051875],[136.435089,36.050209],[136.431656,36.043547],[136.428909,36.042992],[136.428223,36.041326],[136.425476,36.040216],[136.411743,36.043547],[136.413116,36.045213],[136.413116,36.048544],[136.415176,36.054095],[136.41449,36.058536],[136.415863,36.059646],[136.417236,36.065197],[136.422729,36.065752]]]}},{"type":"Feature","properties":{"layer_id":"bakumatsu_villages","name":"吉波","address":"越前 吉田郡","source":"Geoshape 幕末期近世村領域データセット vector tiles (z7 extraction)","subarea_name":"近世村のおおよその範囲","feature_key":"village:K17G06S00103","accuracy_note":"2015年農業集落境界をもとに復元した概略範囲で、江戸時代の正確な村境ではありません"},"geometry":{"type":"Polygon","coordinates":[[[136.381531,36.110143],[136.380844,36.10626],[136.370544,36.099048],[136.367798,36.094054],[136.366425,36.094054],[136.365051,36.091835],[136.358185,36.092945],[136.358871,36.095164],[136.360931,36.095164],[136.361618,36.096274],[136.360931,36.097383],[136.364365,36.102931],[136.367111,36.102931],[136.373978,36.107924],[136.380157,36.109034],[136.381531,36.110143]]]}},{"type":"Feature","properties":{"layer_id":"bakumatsu_villages","name":"吉野境","address":"越前 吉田郡","source":"Geoshape 幕末期近世村領域データセット vector tiles (z7 extraction)","subarea_name":"近世村のおおよその範囲","feature_key":"village:K17G06S00079","accuracy_note":"2015年農業集落境界をもとに復元した概略範囲で、江戸時代の正確な村境ではありません"},"geometry":{"type":"Polygon","coordinates":[[[136.296387,36.08906],[136.29776,36.087951],[136.297073,36.085731],[136.306,36.088506],[136.31012,36.088506],[136.308746,36.087951],[136.30806,36.085731],[136.306686,36.084621],[136.307373,36.081847],[136.305313,36.080182],[136.305313,36.080737],[136.301193,36.080182],[136.29982,36.082957],[136.299133,36.081847],[136.29776,36.082402],[136.297073,36.083511],[136.295013,36.083511],[136.29364,36.082402],[136.29158,36.082957],[136.286774,36.082957],[136.286774,36.084621],[136.2854,36.084621],[136.2854,36.085731],[136.282654,36.085731],[136.282654,36.088506],[136.296387,36.08906]]]}},{"type":"Feature","properties":{"layer_id":"bakumatsu_villages","name":"大月","address":"越前 吉田郡","source":"Geoshape 幕末期近世村領域データセット vector tiles (z7 extraction)","subarea_name":"近世村のおおよその範囲","feature_key":"village:K17G06S00098","accuracy_note":"2015年農業集落境界をもとに復元した概略範囲で、江戸時代の正確な村境ではありません"},"geometry":{"type":"Polygon","coordinates":[[[136.386337,36.081292],[136.392517,36.079072],[136.39183,36.075187],[136.393204,36.074632],[136.391144,36.066862],[136.387711,36.059091],[136.376724,36.051875],[136.371918,36.055206],[136.374664,36.056316],[136.380844,36.061312],[136.383591,36.069082],[136.382904,36.076297],[136.386337,36.081292]]]}},{"type":"Feature","properties":{"layer_id":"bakumatsu_villages","name":"大野島","address":"越前 吉田郡","source":"Geoshape 幕末期近世村領域データセット vector tiles (z7 extraction)","subarea_name":"近世村のおおよその範囲","feature_key":"village:K17G06S00092","accuracy_note":"2015年農業集落境界をもとに復元した概略範囲で、江戸時代の正確な村境ではありません"},"geometry":{"type":"Polygon","coordinates":[[[136.39801,36.085176],[136.40007,36.084066],[136.399384,36.082957],[136.400757,36.081292],[136.396637,36.081292],[136.39801,36.085176]]]}},{"type":"Feature","properties":{"layer_id":"bakumatsu_villages","name":"室","address":"越前 吉田郡","source":"Geoshape 幕末期近世村領域データセット vector tiles (z7 extraction)","subarea_name":"近世村のおおよその範囲","feature_key":"village:K17G06S00071","accuracy_note":"2015年農業集落境界をもとに復元した概略範囲で、江戸時代の正確な村境ではありません"},"geometry":{"type":"MultiPolygon","coordinates":[[[[136.288834,36.095164],[136.28952,36.092945],[136.292267,36.09239],[136.292953,36.08906],[136.282654,36.088506],[136.281967,36.09128],[136.278534,36.09017],[136.278534,36.09128],[136.279907,36.09128],[136.279907,36.093499],[136.281281,36.093499],[136.281967,36.094609],[136.288147,36.095164],[136.288834,36.095164]]],[[[136.29158,36.095719],[136.294327,36.09128],[136.295013,36.088506],[136.29364,36.088506],[136.292267,36.089615],[136.292267,36.09239],[136.28952,36.092945],[136.288834,36.095164],[136.29158,36.095719]]]]}},{"type":"Feature","properties":{"layer_id":"bakumatsu_villages","name":"宮重","address":"越前 吉田郡","source":"Geoshape 幕末期近世村領域データセット vector tiles (z7 extraction)","subarea_name":"近世村のおおよその範囲","feature_key":"village:K17G06S00056","accuracy_note":"2015年農業集落境界をもとに復元した概略範囲で、江戸時代の正確な村境ではありません"},"geometry":{"type":"Polygon","coordinates":[[[136.304626,36.074632],[136.308746,36.072412],[136.31012,36.072412],[136.310806,36.067972],[136.304626,36.066862],[136.300507,36.064642],[136.299133,36.068527],[136.2957,36.067417],[136.294327,36.071302],[136.294327,36.073522],[136.304626,36.074632]]]}},{"type":"Feature","properties":{"layer_id":"bakumatsu_villages","name":"寺本","address":"越前 吉田郡","source":"Geoshape 幕末期近世村領域データセット vector tiles (z7 extraction)","subarea_name":"近世村のおおよその範囲","feature_key":"village:K17G06S00051","accuracy_note":"2015年農業集落境界をもとに復元した概略範囲で、江戸時代の正確な村境ではありません"},"geometry":{"type":"Polygon","coordinates":[[[136.321793,36.084621],[136.321793,36.080737],[136.329346,36.081847],[136.330719,36.080737],[136.329346,36.079072],[136.328659,36.076297],[136.324539,36.075742],[136.321793,36.076297],[136.321793,36.077962],[136.319733,36.077962],[136.314926,36.075187],[136.315613,36.079072],[136.319046,36.083511],[136.321793,36.084621]]]}},{"type":"Feature","properties":{"layer_id":"bakumatsu_villages","name":"小畑","address":"越前 吉田郡","source":"Geoshape 幕末期近世村領域データセット vector tiles (z7 extraction)","subarea_name":"近世村のおおよその範囲","feature_key":"village:K17G06S00058","accuracy_note":"2015年農業集落境界をもとに復元した概略範囲で、江戸時代の正確な村境ではありません"},"geometry":{"type":"Polygon","coordinates":[[[136.295013,36.082402],[136.2957,36.080737],[136.294327,36.079072],[136.294327,36.071302],[136.282654,36.070747],[136.282654,36.072967],[136.281281,36.073522],[136.282654,36.075187],[136.284714,36.076297],[136.288834,36.076297],[136.29158,36.079072],[136.292953,36.081847],[136.295013,36.082402]]]}},{"type":"Feature","properties":{"layer_id":"bakumatsu_villages","name":"山","address":"越前 吉田郡","source":"Geoshape 幕末期近世村領域データセット vector tiles (z7 extraction)","subarea_name":"近世村のおおよその範囲","feature_key":"village:K17G06S00082","accuracy_note":"2015年農業集落境界をもとに復元した概略範囲で、江戸時代の正確な村境ではありません"},"geometry":{"type":"Polygon","coordinates":[[[136.321793,36.094609],[136.324539,36.093499],[136.326599,36.094054],[136.327972,36.093499],[136.327972,36.09128],[136.324539,36.09239],[136.321106,36.094054],[136.321793,36.094609]]]}},{"type":"Feature","properties":{"layer_id":"bakumatsu_villages","name":"山王","address":"越前 吉田郡","source":"Geoshape 幕末期近世村領域データセット vector tiles (z7 extraction)","subarea_name":"近世村のおおよその範囲","feature_key":"village:K17G06S00132","accuracy_note":"2015年農業集落境界をもとに復元した概略範囲で、江戸時代の正確な村境ではありません"},"geometry":{"type":"Polygon","coordinates":[[[136.394577,36.082402],[136.396637,36.081847],[136.396637,36.081292],[136.39801,36.080737],[136.397324,36.078517],[136.39389,36.074632],[136.39183,36.075187],[136.392517,36.079072],[136.389084,36.079627],[136.387711,36.080737],[136.387024,36.082957],[136.387711,36.084066],[136.389084,36.083511],[136.389771,36.084621],[136.394577,36.083511],[136.394577,36.082402]]]}},{"type":"Feature","properties":{"layer_id":"bakumatsu_villages","name":"岩野","address":"越前 吉田郡","source":"Geoshape 幕末期近世村領域データセット vector tiles (z7 extraction)","subarea_name":"近世村のおおよその範囲","feature_key":"village:K17G06S00048","accuracy_note":"2015年農業集落境界をもとに復元した概略範囲で、江戸時代の正確な村境ではありません"},"geometry":{"type":"Polygon","coordinates":[[[136.359558,36.097938],[136.360931,36.097383],[136.361618,36.096274],[136.360931,36.095164],[136.358871,36.095164],[136.358185,36.092945],[136.356812,36.093499],[136.357498,36.095719],[136.356812,36.095719],[136.356812,36.096828],[136.357498,36.096274],[136.359558,36.097938]]]}},{"type":"Feature","properties":{"layer_id":"bakumatsu_villages","name":"島・猪谷","address":"越前 吉田郡","source":"Geoshape 幕末期近世村領域データセット vector tiles (z7 extraction)","subarea_name":"近世村のおおよその範囲","feature_key":"village:K17G06S00054,K17G06S00055","accuracy_note":"2015年農業集落境界をもとに復元した概略範囲で、江戸時代の正確な村境ではありません"},"geometry":{"type":"Polygon","coordinates":[[[136.299133,36.068527],[136.300507,36.064642],[136.30188,36.066307],[136.307373,36.067417],[136.31424,36.066862],[136.313553,36.064087],[136.317673,36.059091],[136.316986,36.051875],[136.316299,36.05132],[136.31424,36.05243],[136.310806,36.05354],[136.307373,36.058536],[136.304626,36.057981],[136.30188,36.057981],[136.300507,36.059646],[136.29776,36.059091],[136.29776,36.057981],[136.296387,36.057981],[136.28952,36.054095],[136.288147,36.056316],[136.286087,36.056316],[136.286087,36.061867],[136.284027,36.063532],[136.284027,36.065752],[136.286087,36.066307],[136.288147,36.065197],[136.29158,36.064642],[136.296387,36.065752],[136.2957,36.067417],[136.299133,36.068527]]]}},{"type":"Feature","properties":{"layer_id":"bakumatsu_villages","name":"市右衛門島","address":"越前 吉田郡","source":"Geoshape 幕末期近世村領域データセット vector tiles (z7 extraction)","subarea_name":"近世村のおおよその範囲","feature_key":"village:K17G06S00091","accuracy_note":"2015年農業集落境界をもとに復元した概略範囲で、江戸時代の正確な村境ではありません"},"geometry":{"type":"Polygon","coordinates":[[[136.39183,36.086841],[136.39801,36.085176],[136.396637,36.081847],[136.394577,36.082402],[136.39389,36.080737],[136.39389,36.082402],[136.394577,36.083511],[136.389771,36.084621],[136.39183,36.086841]]]}},{"type":"Feature","properties":{"layer_id":"bakumatsu_villages","name":"市荒川","address":"越前 吉田郡","source":"Geoshape 幕末期近世村領域データセット vector tiles (z7 extraction)","subarea_name":"近世村のおおよその範囲","feature_key":"village:K17G06S00100","accuracy_note":"2015年農業集落境界をもとに復元した概略範囲で、江戸時代の正確な村境ではありません"},"geometry":{"type":"MultiPolygon","coordinates":[[[[136.419296,36.076297],[136.42067,36.078517],[136.429596,36.076297],[136.437836,36.075742],[136.439209,36.070747],[136.438522,36.068527],[136.421356,36.076852],[136.419296,36.076297]]],[[[136.419296,36.076297],[136.41861,36.075742],[136.415863,36.071302],[136.413803,36.071857],[136.413803,36.075187],[136.419296,36.076297]]]]}},{"type":"Feature","properties":{"layer_id":"bakumatsu_villages","name":"市野々荒谷","address":"越前 吉田郡","source":"Geoshape 幕末期近世村領域データセット vector tiles (z7 extraction)","subarea_name":"近世村のおおよその範囲","feature_key":"village:K17G06S00052","accuracy_note":"2015年農業集落境界をもとに復元した概略範囲で、江戸時代の正確な村境ではありません"},"geometry":{"type":"MultiPolygon","coordinates":[[[[136.340332,36.077407],[136.341705,36.076852],[136.347198,36.076297],[136.352692,36.072412],[136.357498,36.066307],[136.359558,36.065752],[136.361618,36.065752],[136.363678,36.061867],[136.354065,36.062422],[136.347885,36.064087],[136.344452,36.062977],[136.339645,36.059091],[136.337585,36.065197],[136.335526,36.065752],[136.335526,36.067417],[136.332779,36.068527],[136.335526,36.069082],[136.336899,36.072412],[136.339645,36.075187],[136.340332,36.077407]]],[[[136.330719,36.080737],[136.334152,36.077962],[136.339645,36.077962],[136.339645,36.075742],[136.336899,36.072412],[136.335526,36.069082],[136.332779,36.068527],[136.335526,36.067417],[136.335526,36.065752],[136.337585,36.065197],[136.340332,36.05354],[136.334839,36.052985],[136.334152,36.05132],[136.330719,36.050764],[136.328659,36.048544],[136.323853,36.048544],[136.321793,36.049654],[136.319733,36.047433],[136.317673,36.050209],[136.316299,36.05132],[136.316986,36.051875],[136.316986,36.056871],[136.327972,36.069082],[136.325912,36.070192],[136.327286,36.071302],[136.329346,36.079072],[136.330719,36.080737]]],[[[136.347198,36.064087],[136.363678,36.061867],[136.369171,36.058536],[136.373978,36.052985],[136.378098,36.05132],[136.378784,36.049099],[136.383591,36.047433],[136.376038,36.041326],[136.375351,36.040216],[136.371231,36.03744],[136.369858,36.034663],[136.367111,36.033553],[136.363678,36.034663],[136.359558,36.034108],[136.356125,36.036329],[136.347885,36.03744],[136.345825,36.039661],[136.345825,36.042992],[136.343765,36.045768],[136.343765,36.047433],[136.341705,36.049654],[136.339645,36.058536],[136.341019,36.060756],[136.347198,36.064087]]]]}},{"type":"Feature","properties":{"layer_id":"bakumatsu_villages","name":"志比境","address":"越前 吉田郡","source":"Geoshape 幕末期近世村領域データセット vector tiles (z7 extraction)","subarea_name":"近世村のおおよその範囲","feature_key":"village:K17G06S00070","accuracy_note":"2015年農業集落境界をもとに復元した概略範囲で、江戸時代の正確な村境ではありません"},"geometry":{"type":"Polygon","coordinates":[[[136.319733,36.102931],[136.318359,36.099602],[136.316299,36.098493],[136.314926,36.094609],[136.31424,36.09128],[136.31218,36.09128],[136.308746,36.097938],[136.306,36.097938],[136.305313,36.099602],[136.311493,36.101822],[136.319733,36.102931]]]}},{"type":"Feature","properties":{"layer_id":"bakumatsu_villages","name":"木谷・山中","address":"越前 大野郡","source":"Geoshape 幕末期近世村領域データセット vector tiles (z7 extraction)","subarea_name":"近世村のおおよその範囲","feature_key":"village:K17G04S00233,K17G04S00234","accuracy_note":"2015年農業集落境界をもとに復元した概略範囲で、江戸時代の正確な村境ではありません"},"geometry":{"type":"Polygon","coordinates":[[[136.375351,36.039661],[136.376724,36.037995],[136.385651,36.034663],[136.383591,36.026889],[136.389771,36.019115],[136.380157,36.015782],[136.372604,36.009673],[136.369858,36.016338],[136.370544,36.017448],[136.366425,36.021336],[136.368484,36.024668],[136.369858,36.030776],[136.367111,36.033553],[136.369858,36.034663],[136.375351,36.039661]]]}},{"type":"Feature","properties":{"layer_id":"bakumatsu_villages","name":"末政","address":"越前 吉田郡","source":"Geoshape 幕末期近世村領域データセット vector tiles (z7 extraction)","subarea_name":"近世村のおおよその範囲","feature_key":"village:K17G06S00108","accuracy_note":"2015年農業集落境界をもとに復元した概略範囲で、江戸時代の正確な村境ではありません"},"geometry":{"type":"Polygon","coordinates":[[[136.288834,36.109588],[136.29158,36.108479],[136.290894,36.104596],[136.288834,36.10515],[136.28746,36.098493],[136.281967,36.099048],[136.28334,36.10626],[136.286087,36.105705],[136.286087,36.107924],[136.28746,36.107924],[136.28746,36.109034],[136.288834,36.109588]]]}},{"type":"Feature","properties":{"layer_id":"bakumatsu_villages","name":"東古市","address":"越前 吉田郡","source":"Geoshape 幕末期近世村領域データセット vector tiles (z7 extraction)","subarea_name":"近世村のおおよその範囲","feature_key":"village:K17G06S00083","accuracy_note":"2015年農業集落境界をもとに復元した概略範囲で、江戸時代の正確な村境ではありません"},"geometry":{"type":"Polygon","coordinates":[[[136.324539,36.104041],[136.330032,36.101267],[136.330719,36.098493],[136.328659,36.095719],[136.327972,36.096828],[136.326599,36.096274],[136.326599,36.094054],[136.324539,36.093499],[136.321793,36.094609],[136.320419,36.093499],[136.319046,36.096274],[136.323853,36.097938],[136.322479,36.098493],[136.323853,36.101822],[136.322479,36.102931],[136.324539,36.104041]]]}},{"type":"Feature","properties":{"layer_id":"bakumatsu_villages","name":"栃原","address":"越前 吉田郡","source":"Geoshape 幕末期近世村領域データセット vector tiles (z7 extraction)","subarea_name":"近世村のおおよその範囲","feature_key":"village:K17G06S00102","accuracy_note":"2015年農業集落境界をもとに復元した概略範囲で、江戸時代の正確な村境ではありません"},"geometry":{"type":"Polygon","coordinates":[[[136.387711,36.087951],[136.382217,36.087396],[136.376038,36.08906],[136.375351,36.086841],[136.371918,36.089615],[136.365051,36.091835],[136.366425,36.094054],[136.367798,36.094054],[136.370544,36.099048],[136.380844,36.10626],[136.382904,36.111807],[136.387024,36.115135],[136.389084,36.115135],[136.391144,36.1168],[136.396637,36.114026],[136.398697,36.111807],[136.39801,36.109034],[136.399384,36.106815],[136.40213,36.105705],[136.40213,36.103486],[136.403503,36.099602],[136.398697,36.096828],[136.395264,36.09239],[136.392517,36.09128],[136.388397,36.09128],[136.387711,36.087951]]]}},{"type":"Feature","properties":{"layer_id":"bakumatsu_villages","name":"栗住波","address":"越前 吉田郡","source":"Geoshape 幕末期近世村領域データセット vector tiles (z7 extraction)","subarea_name":"近世村のおおよその範囲","feature_key":"village:K17G06S00096","accuracy_note":"2015年農業集落境界をもとに復元した概略範囲で、江戸時代の正確な村境ではありません"},"geometry":{"type":"Polygon","coordinates":[[[136.396637,36.078517],[136.40007,36.077407],[136.398697,36.074077],[136.400757,36.073522],[136.399384,36.070747],[136.399384,36.062977],[136.394577,36.052985],[136.395264,36.047433],[136.389771,36.047989],[136.383591,36.047433],[136.379471,36.048544],[136.378098,36.05132],[136.376724,36.051875],[136.379471,36.052985],[136.382217,36.056316],[136.388397,36.059646],[136.391144,36.066862],[136.393204,36.074632],[136.39389,36.074632],[136.396637,36.078517]]]}},{"type":"Feature","properties":{"layer_id":"bakumatsu_villages","name":"椚","address":"越前 吉田郡","source":"Geoshape 幕末期近世村領域データセット vector tiles (z7 extraction)","subarea_name":"近世村のおおよその範囲","feature_key":"village:K17G06S00072","accuracy_note":"2015年農業集落境界をもとに復元した概略範囲で、江戸時代の正確な村境ではありません"},"geometry":{"type":"MultiPolygon","coordinates":[[[[136.29982,36.097938],[136.301193,36.092945],[136.29982,36.09239],[136.299133,36.092945],[136.294327,36.09128],[136.29158,36.095719],[136.298447,36.096274],[136.298447,36.097938],[136.29982,36.097938]]],[[[136.299133,36.092945],[136.29982,36.090725],[136.29776,36.087951],[136.296387,36.08906],[136.295013,36.088506],[136.294327,36.09128],[136.299133,36.092945]]]]}},{"type":"Feature","properties":{"layer_id":"bakumatsu_villages","name":"樋爪","address":"越前 吉田郡","source":"Geoshape 幕末期近世村領域データセット vector tiles (z7 extraction)","subarea_name":"近世村のおおよその範囲","feature_key":"village:K17G06S00135","accuracy_note":"2015年農業集落境界をもとに復元した概略範囲で、江戸時代の正確な村境ではありません"},"geometry":{"type":"Polygon","coordinates":[[[136.290207,36.116245],[136.29158,36.11569],[136.29158,36.113471],[136.2957,36.113471],[136.298447,36.111807],[136.2957,36.107924],[136.292953,36.107924],[136.284714,36.110698],[136.284714,36.111253],[136.286774,36.111253],[136.286087,36.113471],[136.286774,36.115135],[136.288834,36.114581],[136.290207,36.116245]]]}},{"type":"Feature","properties":{"layer_id":"bakumatsu_villages","name":"法寺岡","address":"越前 吉田郡","source":"Geoshape 幕末期近世村領域データセット vector tiles (z7 extraction)","subarea_name":"近世村のおおよその範囲","feature_key":"village:K17G06S00080","accuracy_note":"2015年農業集落境界をもとに復元した概略範囲で、江戸時代の正確な村境ではありません"},"geometry":{"type":"Polygon","coordinates":[[[136.322479,36.102931],[136.323853,36.101822],[136.322479,36.098493],[136.323853,36.097938],[136.314926,36.094054],[136.316299,36.098493],[136.318359,36.099602],[136.319733,36.102931],[136.322479,36.102931]]]}},{"type":"Feature","properties":{"layer_id":"bakumatsu_villages","name":"浅見","address":"越前 吉田郡","source":"Geoshape 幕末期近世村領域データセット vector tiles (z7 extraction)","subarea_name":"近世村のおおよその範囲","feature_key":"village:K17G06S00095","accuracy_note":"2015年農業集落境界をもとに復元した概略範囲で、江戸時代の正確な村境ではありません"},"geometry":{"type":"Polygon","coordinates":[[[136.380157,36.082957],[136.380157,36.081847],[136.382904,36.080737],[136.382217,36.079072],[136.382904,36.079072],[136.381531,36.075742],[136.380157,36.076297],[136.380844,36.073522],[136.379471,36.073522],[136.380844,36.069082],[136.382904,36.066862],[136.380844,36.061312],[136.371918,36.055206],[136.369171,36.058536],[136.363678,36.061867],[136.361618,36.064642],[136.360931,36.067972],[136.362991,36.073522],[136.367111,36.075742],[136.369858,36.075742],[136.376038,36.077407],[136.374664,36.082957],[136.380157,36.082957]]]}},{"type":"Feature","properties":{"layer_id":"bakumatsu_villages","name":"清水","address":"越前 吉田郡","source":"Geoshape 幕末期近世村領域データセット vector tiles (z7 extraction)","subarea_name":"近世村のおおよその範囲","feature_key":"village:K17G06S00093","accuracy_note":"2015年農業集落境界をもとに復元した概略範囲で、江戸時代の正確な村境ではありません"},"geometry":{"type":"Polygon","coordinates":[[[136.40007,36.084066],[136.406937,36.081847],[136.405563,36.079627],[136.40625,36.076852],[136.397324,36.078517],[136.39801,36.081292],[136.399384,36.081847],[136.400757,36.081292],[136.399384,36.082957],[136.40007,36.084066]]]}},{"type":"Feature","properties":{"layer_id":"bakumatsu_villages","name":"渡","address":"越前 吉田郡","source":"Geoshape 幕末期近世村領域データセット vector tiles (z7 extraction)","subarea_name":"近世村のおおよその範囲","feature_key":"village:K17G06S00110","accuracy_note":"2015年農業集落境界をもとに復元した概略範囲で、江戸時代の正確な村境ではありません"},"geometry":{"type":"Polygon","coordinates":[[[136.279221,36.111253],[136.277847,36.104041],[136.277161,36.103486],[136.269608,36.104596],[136.273041,36.107369],[136.274414,36.109588],[136.275101,36.109588],[136.275101,36.110143],[136.279221,36.111253]]]}},{"type":"Feature","properties":{"layer_id":"bakumatsu_villages","name":"牧福島","address":"越前 吉田郡","source":"Geoshape 幕末期近世村領域データセット vector tiles (z7 extraction)","subarea_name":"近世村のおおよその範囲","feature_key":"village:K17G06S00090","accuracy_note":"2015年農業集落境界をもとに復元した概略範囲で、江戸時代の正確な村境ではありません"},"geometry":{"type":"Polygon","coordinates":[[[136.389084,36.087951],[136.39183,36.086841],[136.389771,36.085731],[136.389084,36.083511],[136.387711,36.084066],[136.387711,36.080737],[136.386337,36.081292],[136.384964,36.078517],[136.384277,36.078517],[136.382904,36.066862],[136.380844,36.069082],[136.379471,36.073522],[136.380844,36.073522],[136.380157,36.076297],[136.381531,36.075742],[136.382217,36.076852],[136.382904,36.080737],[136.380157,36.081847],[136.380157,36.082957],[136.378098,36.083511],[136.378784,36.084621],[136.380157,36.087951],[136.389084,36.087951]]]}},{"type":"Feature","properties":{"layer_id":"bakumatsu_villages","name":"石上","address":"越前 吉田郡","source":"Geoshape 幕末期近世村領域データセット vector tiles (z7 extraction)","subarea_name":"近世村のおおよその範囲","feature_key":"village:K17G06S00097","accuracy_note":"2015年農業集落境界をもとに復元した概略範囲で、江戸時代の正確な村境ではありません"},"geometry":{"type":"Polygon","coordinates":[[[136.405563,36.077407],[136.406937,36.076297],[136.40625,36.073522],[136.40625,36.071857],[136.406937,36.071857],[136.406937,36.066862],[136.403503,36.046323],[136.395264,36.047433],[136.394577,36.052985],[136.399384,36.062977],[136.399384,36.070747],[136.400757,36.073522],[136.398697,36.074077],[136.40007,36.077407],[136.405563,36.077407]]]}},{"type":"Feature","properties":{"layer_id":"bakumatsu_villages","name":"窪","address":"越前 吉田郡","source":"Geoshape 幕末期近世村領域データセット vector tiles (z7 extraction)","subarea_name":"近世村のおおよその範囲","feature_key":"village:K17G06S00073","accuracy_note":"2015年農業集落境界をもとに復元した概略範囲で、江戸時代の正確な村境ではありません"},"geometry":{"type":"Polygon","coordinates":[[[136.305313,36.099602],[136.306,36.097938],[136.308746,36.097938],[136.31218,36.089615],[136.31012,36.088506],[136.306,36.088506],[136.297073,36.085731],[136.29776,36.087951],[136.29982,36.090725],[136.299133,36.09239],[136.301193,36.092945],[136.29982,36.097938],[136.305313,36.099602]]]}},{"type":"Feature","properties":{"layer_id":"bakumatsu_villages","name":"竹原","address":"越前 吉田郡","source":"Geoshape 幕末期近世村領域データセット vector tiles (z7 extraction)","subarea_name":"近世村のおおよその範囲","feature_key":"village:K17G06S00099","accuracy_note":"2015年農業集落境界をもとに復元した概略範囲で、江戸時代の正確な村境ではありません"},"geometry":{"type":"Polygon","coordinates":[[[136.40625,36.076297],[136.41243,36.074632],[136.41243,36.071857],[136.413803,36.070747],[136.413116,36.070747],[136.41243,36.066862],[136.413116,36.065197],[136.41655,36.064087],[136.415863,36.059646],[136.41449,36.058536],[136.415176,36.054095],[136.41243,36.043547],[136.411057,36.043547],[136.406937,36.046323],[136.403503,36.046323],[136.406937,36.066862],[136.40625,36.076297]]]}},{"type":"Feature","properties":{"layer_id":"bakumatsu_villages","name":"花谷","address":"越前 吉田郡","source":"Geoshape 幕末期近世村領域データセット vector tiles (z7 extraction)","subarea_name":"近世村のおおよその範囲","feature_key":"village:K17G06S00086","accuracy_note":"2015年農業集落境界をもとに復元した概略範囲で、江戸時代の正確な村境ではありません"},"geometry":{"type":"Polygon","coordinates":[[[136.339645,36.094054],[136.343765,36.091835],[136.343079,36.08906],[136.347198,36.082957],[136.347198,36.076297],[136.340332,36.077407],[136.338959,36.086841],[136.337585,36.087951],[136.339645,36.09128],[136.339645,36.094054]]]}},{"type":"Feature","properties":{"layer_id":"bakumatsu_villages","name":"藤巻","address":"越前 吉田郡","source":"Geoshape 幕末期近世村領域データセット vector tiles (z7 extraction)","subarea_name":"近世村のおおよその範囲","feature_key":"village:K17G06S00133","accuracy_note":"2015年農業集落境界をもとに復元した概略範囲で、江戸時代の正確な村境ではありません"},"geometry":{"type":"Polygon","coordinates":[[[136.421356,36.076852],[136.438522,36.068527],[136.437836,36.065197],[136.433716,36.060756],[136.433716,36.059091],[136.432343,36.059091],[136.429596,36.062977],[136.425476,36.065197],[136.417923,36.065752],[136.41655,36.064087],[136.413116,36.065197],[136.41243,36.067972],[136.413803,36.070747],[136.41243,36.071857],[136.41243,36.075187],[136.413803,36.075187],[136.41449,36.074632],[136.413803,36.071857],[136.415863,36.071302],[136.41861,36.075742],[136.421356,36.076852]]]}},{"type":"Feature","properties":{"layer_id":"bakumatsu_villages","name":"諏訪間","address":"越前 吉田郡","source":"Geoshape 幕末期近世村領域データセット vector tiles (z7 extraction)","subarea_name":"近世村のおおよその範囲","feature_key":"village:K17G06S00081","accuracy_note":"2015年農業集落境界をもとに復元した概略範囲で、江戸時代の正確な村境ではありません"},"geometry":{"type":"MultiPolygon","coordinates":[[[[136.319046,36.096274],[136.319733,36.094054],[136.321793,36.093499],[136.319046,36.09128],[136.318359,36.089615],[136.322479,36.08906],[136.321793,36.087396],[136.327286,36.087951],[136.329346,36.081847],[136.321793,36.080737],[136.321793,36.084621],[136.321106,36.084621],[136.319046,36.083511],[136.315613,36.079072],[136.314926,36.075187],[136.308746,36.072412],[136.304626,36.074632],[136.30394,36.076852],[136.307373,36.081847],[136.306686,36.084621],[136.308746,36.087951],[136.31218,36.089615],[136.31218,36.09128],[136.313553,36.090725],[136.31424,36.093499],[136.319046,36.096274]]],[[[136.321793,36.093499],[136.327972,36.09128],[136.327286,36.087951],[136.321793,36.087396],[136.322479,36.08906],[136.318359,36.089615],[136.319046,36.09128],[136.321793,36.093499]]]]}},{"type":"Feature","properties":{"layer_id":"bakumatsu_villages","name":"谷口","address":"越前 吉田郡","source":"Geoshape 幕末期近世村領域データセット vector tiles (z7 extraction)","subarea_name":"近世村のおおよその範囲","feature_key":"village:K17G06S00085","accuracy_note":"2015年農業集落境界をもとに復元した概略範囲で、江戸時代の正確な村境ではありません"},"geometry":{"type":"MultiPolygon","coordinates":[[[[136.334839,36.097383],[136.340332,36.095719],[136.338272,36.091835],[136.335526,36.092945],[136.334839,36.091835],[136.330719,36.094054],[136.332092,36.096274],[136.334152,36.096274],[136.334839,36.097383]]],[[[136.338959,36.094054],[136.339645,36.092945],[136.337585,36.087951],[136.338959,36.086841],[136.340332,36.077407],[136.333466,36.077962],[136.329346,36.081847],[136.327286,36.087951],[136.330719,36.09128],[136.331406,36.093499],[136.334839,36.091835],[136.335526,36.092945],[136.338272,36.091835],[136.338959,36.094054]]]]}},{"type":"Feature","properties":{"layer_id":"bakumatsu_villages","name":"轟","address":"越前 吉田郡","source":"Geoshape 幕末期近世村領域データセット vector tiles (z7 extraction)","subarea_name":"近世村のおおよその範囲","feature_key":"village:K17G06S00087","accuracy_note":"2015年農業集落境界をもとに復元した概略範囲で、江戸時代の正確な村境ではありません"},"geometry":{"type":"Polygon","coordinates":[[[136.365738,36.08906],[136.368484,36.088506],[136.366425,36.088506],[136.370544,36.086286],[136.370544,36.077962],[136.362991,36.073522],[136.360931,36.070747],[136.361618,36.065752],[136.359558,36.065752],[136.357498,36.066307],[136.352692,36.072412],[136.349945,36.074077],[136.353378,36.077962],[136.352692,36.084621],[136.353378,36.087951],[136.356812,36.087951],[136.356812,36.088506],[136.363678,36.088506],[136.365738,36.08906]]]}},{"type":"Feature","properties":{"layer_id":"bakumatsu_villages","name":"野中","address":"越前 吉田郡","source":"Geoshape 幕末期近世村領域データセット vector tiles (z7 extraction)","subarea_name":"近世村のおおよその範囲","feature_key":"village:K17G06S00050","accuracy_note":"2015年農業集落境界をもとに復元した概略範囲で、江戸時代の正確な村境ではありません"},"geometry":{"type":"Polygon","coordinates":[[[136.369858,36.086841],[136.378784,36.084621],[136.378098,36.082402],[136.375351,36.082957],[136.374664,36.082402],[136.376038,36.077407],[136.369171,36.075742],[136.368484,36.076297],[136.370544,36.077962],[136.371231,36.084066],[136.369858,36.086841]]]}},{"type":"Feature","properties":{"layer_id":"bakumatsu_villages","name":"野中","address":"越前 吉田郡","source":"Geoshape 幕末期近世村領域データセット vector tiles (z7 extraction)","subarea_name":"近世村のおおよその範囲","feature_key":"village:K17G06S00057","accuracy_note":"2015年農業集落境界をもとに復元した概略範囲で、江戸時代の正確な村境ではありません"},"geometry":{"type":"Polygon","coordinates":[[[136.294327,36.071302],[136.296387,36.065752],[136.29158,36.064642],[136.288147,36.065197],[136.286774,36.066307],[136.284027,36.065752],[136.28334,36.068527],[136.282654,36.070747],[136.294327,36.071302]]]}},{"type":"Feature","properties":{"layer_id":"bakumatsu_villages","name":"領家","address":"越前 吉田郡","source":"Geoshape 幕末期近世村領域データセット vector tiles (z7 extraction)","subarea_name":"近世村のおおよその範囲","feature_key":"village:K17G06S00134","accuracy_note":"2015年農業集落境界をもとに復元した概略範囲で、江戸時代の正確な村境ではありません"},"geometry":{"type":"Polygon","coordinates":[[[136.279221,36.121237],[136.284714,36.119573],[136.28334,36.111253],[136.275101,36.110143],[136.275787,36.111807],[136.280594,36.112362],[136.281281,36.114026],[136.279221,36.121237]]]}},{"type":"Feature","properties":{"layer_id":"bakumatsu_villages","name":"飯島","address":"越前 吉田郡","source":"Geoshape 幕末期近世村領域データセット vector tiles (z7 extraction)","subarea_name":"近世村のおおよその範囲","feature_key":"village:K17G06S00088","accuracy_note":"2015年農業集落境界をもとに復元した概略範囲で、江戸時代の正確な村境ではありません"},"geometry":{"type":"Polygon","coordinates":[[[136.353378,36.094054],[136.367111,36.091835],[136.371231,36.08906],[136.363678,36.088506],[136.354065,36.089615],[136.353378,36.094054]]]}},{"type":"Feature","properties":{"layer_id":"bakumatsu_villages","name":"高橋","address":"越前 吉田郡","source":"Geoshape 幕末期近世村領域データセット vector tiles (z7 extraction)","subarea_name":"近世村のおおよその範囲","feature_key":"village:K17G06S00084","accuracy_note":"2015年農業集落境界をもとに復元した概略範囲で、江戸時代の正確な村境ではありません"},"geometry":{"type":"Polygon","coordinates":[[[136.330719,36.098493],[136.334839,36.097383],[136.334152,36.096274],[136.332092,36.095719],[136.330719,36.09128],[136.327286,36.087951],[136.327972,36.092945],[136.326599,36.094054],[136.326599,36.096274],[136.327972,36.096828],[136.328659,36.095719],[136.330719,36.098493]]]}},{"type":"Feature","properties":{"layer_id":"bakumatsu_villages","name":"鳴鹿","address":"越前 坂井郡","source":"Geoshape 幕末期近世村領域データセット vector tiles (z7 extraction)","subarea_name":"近世村のおおよその範囲","feature_key":"village:K17G07S00301","accuracy_note":"2015年農業集落境界をもとに復元した概略範囲で、江戸時代の正確な村境ではありません"},"geometry":{"type":"Polygon","coordinates":[[[136.334839,36.112362],[136.338959,36.111253],[136.343079,36.111253],[136.336899,36.108479],[136.329346,36.102376],[136.324539,36.104041],[136.322479,36.102931],[136.323166,36.10626],[136.330719,36.108479],[136.334839,36.112362]]]}},{"type":"Feature","properties":{"layer_id":"bakumatsu_villages","name":"鳴鹿山鹿","address":"越前 坂井郡","source":"Geoshape 幕末期近世村領域データセット vector tiles (z7 extraction)","subarea_name":"近世村のおおよその範囲","feature_key":"village:K17G07S00300","accuracy_note":"2015年農業集落境界をもとに復元した概略範囲で、江戸時代の正確な村境ではありません"},"geometry":{"type":"Polygon","coordinates":[[[136.343079,36.111253],[136.343079,36.102376],[136.338959,36.099602],[136.336212,36.096828],[136.330719,36.098493],[136.329346,36.102376],[136.336899,36.108479],[136.343079,36.111253]]]}},{"type":"Feature","properties":{"layer_id":"historical_sites_archaeology","name":"松岡館跡","address":"福井県 吉田郡永平寺町 松岡葵一丁目","source":"Geoshape 日本歴史地名大系 施設・地点項目データセット 2025-05-15","subarea_name":"史跡","feature_key":"09_historic_sites.geojson:180000086600","subtype":"史跡"},"geometry":{"type":"Point","coordinates":[136.297332,36.093302]}},{"type":"Feature","properties":{"layer_id":"historical_temples_shrines","name":"吉峰寺","address":"福井県 吉田郡永平寺町 吉峰第35号13番地の1","source":"Geoshape 日本歴史地名大系 施設・地点項目データセット 2025-05-15","subarea_name":"寺院","feature_key":"01_temples.geojson:180000093100","subtype":"寺院"},"geometry":{"type":"Point","coordinates":[136.418789,36.060029]}},{"type":"Feature","properties":{"layer_id":"historical_temples_shrines","name":"天竜寺","address":"福井県 吉田郡永平寺町 松岡春日一丁目64番地","source":"Geoshape 日本歴史地名大系 施設・地点項目データセット 2025-05-15","subarea_name":"寺院","feature_key":"01_temples.geojson:180000086900","subtype":"寺院"},"geometry":{"type":"Point","coordinates":[136.299438,36.090614]}},{"type":"Feature","properties":{"layer_id":"historical_temples_shrines","name":"慶崇寺","address":"福井県 吉田郡永平寺町 松岡神明三丁目22番地","source":"Geoshape 日本歴史地名大系 施設・地点項目データセット 2025-05-15","subarea_name":"寺院","feature_key":"01_temples.geojson:180000087000","subtype":"寺院"},"geometry":{"type":"Point","coordinates":[136.30217,36.093349]}},{"type":"Feature","properties":{"layer_id":"historical_temples_shrines","name":"昌蔵寺","address":"福井県 吉田郡永平寺町 松岡芝原一丁目109番地","source":"Geoshape 日本歴史地名大系 施設・地点項目データセット 2025-05-15","subarea_name":"寺院","feature_key":"01_temples.geojson:180000086700","subtype":"寺院"},"geometry":{"type":"Point","coordinates":[136.294647,36.08976]}},{"type":"Feature","properties":{"layer_id":"historical_temples_shrines","name":"本覚寺","address":"福井県 吉田郡永平寺町 東古市22号145番地41","source":"Geoshape 日本歴史地名大系 施設・地点項目データセット 2025-05-15","subarea_name":"寺院","feature_key":"01_temples.geojson:180000088900","subtype":"寺院"},"geometry":{"type":"Point","coordinates":[136.329628,36.100098]}},{"type":"Feature","properties":{"layer_id":"historical_temples_shrines","name":"柴神社","address":"福井県 吉田郡永平寺町 松岡春日三丁目2番地","source":"Geoshape 日本歴史地名大系 施設・地点項目データセット 2025-05-15","subarea_name":"神社","feature_key":"02_shrines.geojson:180000086800","subtype":"神社"},"geometry":{"type":"Point","coordinates":[136.299271,36.089489]}},{"type":"Feature","properties":{"layer_id":"historical_temples_shrines","name":"永平寺","address":"福井県 吉田郡永平寺町 志比5号15番地","source":"Geoshape 日本歴史地名大系 施設・地点項目データセット 2025-05-15","subarea_name":"寺院","feature_key":"01_temples.geojson:180000090600","subtype":"寺院"},"geometry":{"type":"Point","coordinates":[136.356876,36.056593]}},{"type":"Feature","properties":{"layer_id":"historical_temples_shrines","name":"興行寺","address":"福井県 吉田郡永平寺町 藤巻34号2番地","source":"Geoshape 日本歴史地名大系 施設・地点項目データセット 2025-05-15","subarea_name":"寺院","feature_key":"01_temples.geojson:180000092900","subtype":"寺院"},"geometry":{"type":"Point","coordinates":[136.41786,36.072315]}},{"type":"Feature","properties":{"layer_id":"historical_temples_shrines","name":"諏訪間興行寺","address":"福井県 吉田郡永平寺町 諏訪間","source":"Geoshape 日本歴史地名大系 施設・地点項目データセット 2025-05-15","subarea_name":"廃寺・廃社","feature_key":"03_abandoned_temples_shrines.geojson:180000090300","subtype":"廃寺・廃社"},"geometry":{"type":"Point","coordinates":[136.320546,36.0864]}}]}