{"type":"FeatureCollection","municipality_code":"19365","pref":"山梨県","city":"身延町","layer_counts":{"bakumatsu_villages":74,"edo_post_stations":3,"historical_sites_archaeology":4,"historical_temples_shrines":12},"total_features":93,"features":[{"type":"Feature","properties":{"layer_id":"bakumatsu_villages","name":"一色村","address":"甲斐 八代郡","source":"Geoshape 幕末期近世村領域データセット vector tiles (z7 extraction)","subarea_name":"近世村のおおよその範囲","feature_key":"village:K18G02S00152","accuracy_note":"2015年農業集落境界をもとに復元した概略範囲で、江戸時代の正確な村境ではありません"},"geometry":{"type":"MultiPolygon","coordinates":[[[[138.460693,35.455077],[138.46344,35.453399],[138.466873,35.453399],[138.46962,35.451162],[138.46962,35.445568],[138.468246,35.444449],[138.468246,35.442771],[138.45932,35.436617],[138.457947,35.436617],[138.454514,35.440533],[138.44902,35.440533],[138.446274,35.441093],[138.452454,35.445568],[138.452454,35.453399],[138.454514,35.453958],[138.457947,35.45228],[138.460693,35.455077]]],[[[138.468933,35.464585],[138.47168,35.464026],[138.470993,35.461229],[138.473053,35.460111],[138.474426,35.456196],[138.473053,35.453399],[138.46962,35.451721],[138.46138,35.454518],[138.460693,35.455077],[138.4655,35.457873],[138.46344,35.460111],[138.464127,35.461229],[138.468933,35.464585]]]]}},{"type":"Feature","properties":{"layer_id":"bakumatsu_villages","name":"三沢村","address":"甲斐 八代郡","source":"Geoshape 幕末期近世村領域データセット vector tiles (z7 extraction)","subarea_name":"近世村のおおよその範囲","feature_key":"village:K18G02S00140","accuracy_note":"2015年農業集落境界をもとに復元した概略範囲で、江戸時代の正確な村境ではありません"},"geometry":{"type":"MultiPolygon","coordinates":[[[[138.468933,35.485834],[138.475113,35.484715],[138.4758,35.481361],[138.46962,35.480242],[138.464813,35.482479],[138.46344,35.484156],[138.468933,35.485834]]],[[[138.464813,35.482479],[138.468933,35.480242],[138.462067,35.474651],[138.460693,35.477447],[138.462067,35.478565],[138.46138,35.480802],[138.464813,35.482479]]],[[[138.470306,35.480242],[138.472366,35.478006],[138.479233,35.471296],[138.479919,35.469618],[138.477173,35.46794],[138.477173,35.470736],[138.475113,35.471296],[138.468933,35.471296],[138.464127,35.47521],[138.462067,35.474651],[138.468933,35.480242],[138.470306,35.480242]]],[[[138.460693,35.477447],[138.462067,35.474651],[138.464127,35.47521],[138.468246,35.471296],[138.475113,35.471296],[138.477173,35.470736],[138.477859,35.462907],[138.474426,35.457314],[138.473053,35.460111],[138.470993,35.461229],[138.47168,35.464026],[138.468933,35.464585],[138.466873,35.463466],[138.46344,35.470736],[138.46138,35.470736],[138.45932,35.472414],[138.45314,35.471296],[138.452454,35.472414],[138.4552,35.473532],[138.4552,35.475769],[138.456573,35.476888],[138.460693,35.477447]]],[[[138.477859,35.485275],[138.481979,35.484156],[138.479919,35.480802],[138.4758,35.481361],[138.475113,35.484715],[138.477859,35.485275]]],[[[138.475113,35.481361],[138.479919,35.480802],[138.478546,35.479124],[138.479919,35.475769],[138.484039,35.474651],[138.486099,35.47521],[138.488846,35.472414],[138.486786,35.472414],[138.484726,35.469059],[138.479919,35.469618],[138.479233,35.471296],[138.472366,35.478006],[138.470306,35.480242],[138.475113,35.481361]]]]}},{"type":"Feature","properties":{"layer_id":"bakumatsu_villages","name":"上八木沢村・下八木沢村","address":"甲斐 八代郡","source":"Geoshape 幕末期近世村領域データセット vector tiles (z7 extraction)","subarea_name":"近世村のおおよその範囲","feature_key":"village:K18G02S00165,K18G02S00166","accuracy_note":"2015年農業集落境界をもとに復元した概略範囲で、江戸時代の正確な村境ではありません"},"geometry":{"type":"Polygon","coordinates":[[[138.460693,35.417594],[138.4655,35.414796],[138.4655,35.412557],[138.46962,35.413117],[138.473053,35.412557],[138.473053,35.406961],[138.476486,35.402484],[138.47374,35.398006],[138.46138,35.398566],[138.460007,35.399685],[138.457947,35.400245],[138.4552,35.399685],[138.451767,35.401364],[138.448334,35.399685],[138.453827,35.410319],[138.453827,35.416475],[138.45726,35.416475],[138.460693,35.417594]]]}},{"type":"Feature","properties":{"layer_id":"bakumatsu_villages","name":"上田原村","address":"甲斐 八代郡","source":"Geoshape 幕末期近世村領域データセット vector tiles (z7 extraction)","subarea_name":"近世村のおおよその範囲","feature_key":"village:K18G02S00150","accuracy_note":"2015年農業集落境界をもとに復元した概略範囲で、江戸時代の正確な村境ではありません"},"geometry":{"type":"Polygon","coordinates":[[[138.45932,35.472414],[138.46138,35.470736],[138.46344,35.470736],[138.466873,35.464585],[138.466187,35.462348],[138.464127,35.461229],[138.462067,35.462907],[138.457947,35.462348],[138.454514,35.465703],[138.451767,35.466822],[138.45108,35.46794],[138.447647,35.4685],[138.449707,35.469618],[138.452454,35.472414],[138.45314,35.471296],[138.45932,35.472414]]]}},{"type":"Feature","properties":{"layer_id":"bakumatsu_villages","name":"上野平村","address":"甲斐 八代郡","source":"Geoshape 幕末期近世村領域データセット vector tiles (z7 extraction)","subarea_name":"近世村のおおよその範囲","feature_key":"village:K18G02S00160","accuracy_note":"2015年農業集落境界をもとに復元した概略範囲で、江戸時代の正確な村境ではありません"},"geometry":{"type":"Polygon","coordinates":[[[138.462067,35.436058],[138.46344,35.434379],[138.47374,35.427666],[138.474426,35.428785],[138.474426,35.427106],[138.470306,35.424868],[138.47374,35.425427],[138.473053,35.42263],[138.47374,35.418713],[138.470993,35.418713],[138.464127,35.420951],[138.462753,35.42207],[138.46344,35.424868],[138.458633,35.425987],[138.457947,35.427666],[138.460007,35.429344],[138.460007,35.431582],[138.462067,35.432701],[138.462067,35.436058]]]}},{"type":"Feature","properties":{"layer_id":"bakumatsu_villages","name":"下山村","address":"甲斐 巨摩郡","source":"Geoshape 幕末期近世村領域データセット vector tiles (z7 extraction)","subarea_name":"近世村のおおよその範囲","feature_key":"village:K18G03S00314","accuracy_note":"2015年農業集落境界をもとに復元した概略範囲で、江戸時代の正確な村境ではありません"},"geometry":{"type":"MultiPolygon","coordinates":[[[[138.430481,35.430463],[138.451767,35.427106],[138.453827,35.416475],[138.435974,35.420392],[138.432541,35.419272],[138.424988,35.421511],[138.421555,35.416475],[138.419495,35.417034],[138.427734,35.426546],[138.430481,35.430463]]],[[[138.424988,35.421511],[138.432541,35.419272],[138.435974,35.420392],[138.453827,35.416475],[138.453827,35.410878],[138.451767,35.405282],[138.44902,35.401924],[138.440094,35.402484],[138.438034,35.406961],[138.439407,35.4092],[138.439407,35.411438],[138.428421,35.411438],[138.420181,35.409759],[138.421555,35.416475],[138.424988,35.421511]]],[[[138.439407,35.411438],[138.439407,35.4092],[138.438034,35.406961],[138.439407,35.403043],[138.440781,35.402484],[138.433228,35.399125],[138.422241,35.399125],[138.420868,35.400245],[138.418121,35.401364],[138.420181,35.403043],[138.418808,35.407521],[138.420868,35.40864],[138.420181,35.409759],[138.428421,35.411438],[138.439407,35.411438]]],[[[138.441467,35.403043],[138.44902,35.401924],[138.445587,35.391849],[138.439407,35.38849],[138.435287,35.38961],[138.429108,35.38849],[138.425674,35.395207],[138.422241,35.399125],[138.433228,35.399125],[138.440094,35.401364],[138.441467,35.403043]]]]}},{"type":"Feature","properties":{"layer_id":"bakumatsu_villages","name":"下田原村","address":"甲斐 八代郡","source":"Geoshape 幕末期近世村領域データセット vector tiles (z7 extraction)","subarea_name":"近世村のおおよその範囲","feature_key":"village:K18G02S00149","accuracy_note":"2015年農業集落境界をもとに復元した概略範囲で、江戸時代の正確な村境ではありません"},"geometry":{"type":"MultiPolygon","coordinates":[[[[138.444901,35.469618],[138.447647,35.4685],[138.448334,35.466263],[138.447647,35.462907],[138.45108,35.461229],[138.451767,35.460111],[138.45314,35.46067],[138.454514,35.455077],[138.452454,35.453399],[138.447647,35.454518],[138.441467,35.462348],[138.442154,35.465144],[138.444214,35.469059],[138.444901,35.469618]]],[[[138.447647,35.4685],[138.45108,35.46794],[138.451767,35.466822],[138.453827,35.465703],[138.455887,35.464026],[138.45314,35.46067],[138.451767,35.460111],[138.45108,35.461229],[138.447647,35.462907],[138.448334,35.466263],[138.447647,35.4685]]],[[[138.455887,35.464026],[138.457947,35.462348],[138.462067,35.462907],[138.4655,35.457873],[138.45726,35.45228],[138.454514,35.453958],[138.45314,35.46067],[138.455887,35.464026]]]]}},{"type":"Feature","properties":{"layer_id":"bakumatsu_villages","name":"下部村","address":"甲斐 八代郡","source":"Geoshape 幕末期近世村領域データセット vector tiles (z7 extraction)","subarea_name":"近世村のおおよその範囲","feature_key":"village:K18G02S00163","accuracy_note":"2015年農業集落境界をもとに復元した概略範囲で、江戸時代の正確な村境ではありません"},"geometry":{"type":"Polygon","coordinates":[[[138.497772,35.436617],[138.502579,35.429904],[138.503952,35.426546],[138.509445,35.42263],[138.503265,35.417594],[138.493652,35.411998],[138.488846,35.406961],[138.486786,35.406961],[138.484726,35.404163],[138.483353,35.406401],[138.479919,35.406401],[138.477859,35.402484],[138.476486,35.402484],[138.473053,35.406961],[138.472366,35.412557],[138.4758,35.416475],[138.473053,35.419272],[138.473053,35.42263],[138.47374,35.425427],[138.477859,35.428785],[138.491592,35.43326],[138.494339,35.436617],[138.497772,35.436617]]]}},{"type":"Feature","properties":{"layer_id":"bakumatsu_villages","name":"中倉村","address":"甲斐 八代郡","source":"Geoshape 幕末期近世村領域データセット vector tiles (z7 extraction)","subarea_name":"近世村のおおよその範囲","feature_key":"village:K18G02S00147","accuracy_note":"2015年農業集落境界をもとに復元した概略範囲で、江戸時代の正確な村境ではありません"},"geometry":{"type":"Polygon","coordinates":[[[138.55545,35.484715],[138.562317,35.481361],[138.560944,35.476328],[138.562317,35.474651],[138.566437,35.473532],[138.56987,35.473532],[138.573303,35.476888],[138.581543,35.479124],[138.582916,35.476328],[138.58223,35.464585],[138.572617,35.464026],[138.570557,35.459551],[138.56163,35.464026],[138.549957,35.466822],[138.549957,35.470177],[138.545151,35.474651],[138.541031,35.474092],[138.538284,35.47521],[138.532104,35.473532],[138.534164,35.478006],[138.536911,35.479124],[138.537598,35.480802],[138.543091,35.480802],[138.545837,35.482479],[138.550644,35.483038],[138.55545,35.484715]]]}},{"type":"Feature","properties":{"layer_id":"bakumatsu_villages","name":"中山村","address":"甲斐 巨摩郡","source":"Geoshape 幕末期近世村領域データセット vector tiles (z7 extraction)","subarea_name":"近世村のおおよその範囲","feature_key":"village:K18G03S00289","accuracy_note":"2015年農業集落境界をもとに復元した概略範囲で、江戸時代の正確な村境ではありません"},"geometry":{"type":"MultiPolygon","coordinates":[[[[138.411942,35.462907],[138.415375,35.462348],[138.414688,35.46067],[138.416061,35.46067],[138.416061,35.457873],[138.417435,35.456755],[138.414688,35.451162],[138.417435,35.446687],[138.415375,35.44333],[138.410568,35.446687],[138.408508,35.446127],[138.407135,35.447805],[138.405762,35.447246],[138.403702,35.450043],[138.406448,35.450602],[138.405075,35.45284],[138.406448,35.456755],[138.411942,35.462907]]],[[[138.417435,35.456755],[138.420181,35.456196],[138.421555,35.454518],[138.426361,35.455077],[138.427734,35.45228],[138.425674,35.451721],[138.425674,35.450043],[138.421555,35.448924],[138.417435,35.444449],[138.416748,35.444449],[138.417435,35.447246],[138.414688,35.451162],[138.417435,35.456755]]]]}},{"type":"Feature","properties":{"layer_id":"bakumatsu_villages","name":"丸滝村","address":"甲斐 八代郡","source":"Geoshape 幕末期近世村領域データセット vector tiles (z7 extraction)","subarea_name":"近世村のおおよその範囲","feature_key":"village:K18G02S00171","accuracy_note":"2015年農業集落境界をもとに復元した概略範囲で、江戸時代の正確な村境ではありません"},"geometry":{"type":"Polygon","coordinates":[[[138.45108,35.378973],[138.4552,35.377294],[138.458633,35.373934],[138.46138,35.373375],[138.464813,35.373934],[138.4655,35.373375],[138.468246,35.375054],[138.472366,35.373934],[138.477173,35.367216],[138.474426,35.363856],[138.475113,35.358256],[138.472366,35.360496],[138.46756,35.362176],[138.46138,35.366096],[138.45726,35.363856],[138.453827,35.363856],[138.45314,35.364976],[138.454514,35.366656],[138.45108,35.366096],[138.450394,35.375054],[138.45108,35.378973]]]}},{"type":"Feature","properties":{"layer_id":"bakumatsu_villages","name":"久保村","address":"甲斐 八代郡","source":"Geoshape 幕末期近世村領域データセット vector tiles (z7 extraction)","subarea_name":"近世村のおおよその範囲","feature_key":"village:K18G02S00130","accuracy_note":"2015年農業集落境界をもとに復元した概略範囲で、江戸時代の正確な村境ではありません"},"geometry":{"type":"Polygon","coordinates":[[[138.510818,35.506518],[138.507385,35.502605],[138.504639,35.497574],[138.505325,35.493661],[138.508072,35.488629],[138.506699,35.486952],[138.503265,35.486393],[138.500519,35.487511],[138.499146,35.493102],[138.497772,35.49422],[138.499146,35.49422],[138.498459,35.497015],[138.503265,35.501487],[138.503265,35.503164],[138.505325,35.502605],[138.508072,35.506518],[138.510818,35.506518]]]}},{"type":"Feature","properties":{"layer_id":"bakumatsu_villages","name":"久成村","address":"甲斐 巨摩郡","source":"Geoshape 幕末期近世村領域データセット vector tiles (z7 extraction)","subarea_name":"近世村のおおよその範囲","feature_key":"village:K18G03S00279","accuracy_note":"2015年農業集落境界をもとに復元した概略範囲で、江戸時代の正確な村境ではありません"},"geometry":{"type":"MultiPolygon","coordinates":[[[[138.394775,35.485834],[138.403015,35.484715],[138.405762,35.483038],[138.408508,35.480802],[138.405762,35.478565],[138.405075,35.476328],[138.398895,35.476888],[138.388596,35.481361],[138.393402,35.482479],[138.394775,35.483597],[138.394775,35.485834]]],[[[138.406448,35.483597],[138.419495,35.482479],[138.419495,35.481361],[138.424301,35.478006],[138.426361,35.477447],[138.426361,35.47521],[138.427734,35.474092],[138.427734,35.473532],[138.419495,35.474092],[138.416748,35.472973],[138.414688,35.472973],[138.411942,35.476328],[138.407135,35.475769],[138.405075,35.476328],[138.405762,35.478565],[138.408508,35.480802],[138.406448,35.483597]]],[[[138.426361,35.477447],[138.431854,35.476328],[138.429108,35.472973],[138.429794,35.471296],[138.428421,35.46794],[138.424988,35.469059],[138.422241,35.46794],[138.419495,35.469059],[138.416061,35.469059],[138.414001,35.470736],[138.411942,35.470177],[138.411255,35.472414],[138.412628,35.475769],[138.414001,35.473532],[138.415375,35.472973],[138.419495,35.474092],[138.427734,35.473532],[138.427734,35.474092],[138.426361,35.47521],[138.426361,35.477447]]]]}},{"type":"Feature","properties":{"layer_id":"bakumatsu_villages","name":"伊沼村","address":"甲斐 巨摩郡","source":"Geoshape 幕末期近世村領域データセット vector tiles (z7 extraction)","subarea_name":"近世村のおおよその範囲","feature_key":"village:K18G03S00292","accuracy_note":"2015年農業集落境界をもとに復元した概略範囲で、江戸時代の正確な村境ではありません"},"geometry":{"type":"Polygon","coordinates":[[[138.427734,35.45228],[138.429794,35.450043],[138.434601,35.449484],[138.442154,35.446127],[138.438034,35.440533],[138.433228,35.442771],[138.430481,35.442771],[138.426361,35.44389],[138.421555,35.442771],[138.417435,35.44389],[138.421555,35.448924],[138.425674,35.450043],[138.425674,35.451721],[138.427734,35.45228]]]}},{"type":"Feature","properties":{"layer_id":"bakumatsu_villages","name":"光子沢村","address":"甲斐 巨摩郡","source":"Geoshape 幕末期近世村領域データセット vector tiles (z7 extraction)","subarea_name":"近世村のおおよその範囲","feature_key":"village:K18G03S00322","accuracy_note":"2015年農業集落境界をもとに復元した概略範囲で、江戸時代の正確な村境ではありません"},"geometry":{"type":"Polygon","coordinates":[[[138.440094,35.333053],[138.442841,35.330812],[138.44696,35.330252],[138.445587,35.323529],[138.444901,35.320728],[138.435974,35.320168],[138.432541,35.32465],[138.435974,35.32577],[138.440094,35.333053]]]}},{"type":"Feature","properties":{"layer_id":"bakumatsu_villages","name":"八坂村","address":"甲斐 八代郡","source":"Geoshape 幕末期近世村領域データセット vector tiles (z7 extraction)","subarea_name":"近世村のおおよその範囲","feature_key":"village:K18G02S00183","accuracy_note":"2015年農業集落境界をもとに復元した概略範囲で、江戸時代の正確な村境ではありません"},"geometry":{"type":"Polygon","coordinates":[[[138.594589,35.518814],[138.594589,35.516579],[138.595276,35.512666],[138.600082,35.509313],[138.602142,35.5054],[138.594589,35.495897],[138.593216,35.498133],[138.589783,35.498692],[138.58017,35.502605],[138.573303,35.502605],[138.570557,35.506518],[138.570557,35.51099],[138.567123,35.51099],[138.565063,35.515461],[138.560944,35.51602],[138.57399,35.517697],[138.57811,35.517138],[138.584976,35.517697],[138.587036,35.517697],[138.594589,35.518814]]]}},{"type":"Feature","properties":{"layer_id":"bakumatsu_villages","name":"八日市場村","address":"甲斐 巨摩郡","source":"Geoshape 幕末期近世村領域データセット vector tiles (z7 extraction)","subarea_name":"近世村のおおよその範囲","feature_key":"village:K18G03S00293","accuracy_note":"2015年農業集落境界をもとに復元した概略範囲で、江戸時代の正確な村境ではありません"},"geometry":{"type":"MultiPolygon","coordinates":[[[[138.432541,35.458992],[138.432541,35.455636],[138.440094,35.455077],[138.444901,35.457314],[138.447647,35.455077],[138.447647,35.453399],[138.442154,35.446127],[138.434601,35.449484],[138.429794,35.450043],[138.427734,35.45228],[138.426361,35.455077],[138.428421,35.455077],[138.427734,35.456196],[138.432541,35.458992]]],[[[138.442841,35.460111],[138.444901,35.457314],[138.440781,35.455077],[138.431854,35.455636],[138.432541,35.458992],[138.433914,35.459551],[138.440094,35.458992],[138.442841,35.460111]]]]}},{"type":"Feature","properties":{"layer_id":"bakumatsu_villages","name":"切房木村","address":"甲斐 八代郡","source":"Geoshape 幕末期近世村領域データセット vector tiles (z7 extraction)","subarea_name":"近世村のおおよその範囲","feature_key":"village:K18G02S00142","accuracy_note":"2015年農業集落境界をもとに復元した概略範囲で、江戸時代の正確な村境ではありません"},"geometry":{"type":"Polygon","coordinates":[[[138.499832,35.487511],[138.503265,35.486393],[138.505325,35.484156],[138.503952,35.480802],[138.506012,35.476328],[138.505325,35.474651],[138.500519,35.474092],[138.495712,35.471296],[138.490906,35.471855],[138.491592,35.475769],[138.491592,35.479124],[138.493652,35.481361],[138.492966,35.485834],[138.499832,35.487511]]]}},{"type":"Feature","properties":{"layer_id":"bakumatsu_villages","name":"切石村","address":"甲斐 巨摩郡","source":"Geoshape 幕末期近世村領域データセット vector tiles (z7 extraction)","subarea_name":"近世村のおおよその範囲","feature_key":"village:K18G03S00294","accuracy_note":"2015年農業集落境界をもとに復元した概略範囲で、江戸時代の正確な村境ではありません"},"geometry":{"type":"Polygon","coordinates":[[[138.440781,35.469618],[138.443527,35.46794],[138.441467,35.462907],[138.439407,35.462907],[138.437347,35.464026],[138.438034,35.466822],[138.435287,35.46794],[138.440781,35.469618]]]}},{"type":"Feature","properties":{"layer_id":"bakumatsu_villages","name":"北川村","address":"甲斐 八代郡","source":"Geoshape 幕末期近世村領域データセット vector tiles (z7 extraction)","subarea_name":"近世村のおおよその範囲","feature_key":"village:K18G02S00154","accuracy_note":"2015年農業集落境界をもとに復元した概略範囲で、江戸時代の正確な村境ではありません"},"geometry":{"type":"MultiPolygon","coordinates":[[[[138.488846,35.472414],[138.493652,35.471296],[138.495026,35.46067],[138.492279,35.460111],[138.490219,35.461789],[138.489532,35.463466],[138.484039,35.466822],[138.485413,35.471296],[138.488846,35.472414]]],[[[138.501892,35.474651],[138.506699,35.473532],[138.506012,35.471855],[138.509445,35.46794],[138.507385,35.469059],[138.497772,35.469059],[138.493652,35.466822],[138.493652,35.471296],[138.496399,35.471855],[138.501892,35.474651]]],[[[138.507385,35.469059],[138.518372,35.465703],[138.523178,35.461229],[138.517685,35.459551],[138.496399,35.461789],[138.495026,35.46067],[138.493652,35.466822],[138.497086,35.4685],[138.507385,35.469059]]]]}},{"type":"Feature","properties":{"layer_id":"bakumatsu_villages","name":"古長谷村","address":"甲斐 巨摩郡","source":"Geoshape 幕末期近世村領域データセット vector tiles (z7 extraction)","subarea_name":"近世村のおおよその範囲","feature_key":"village:K18G03S00285","accuracy_note":"2015年農業集落境界をもとに復元した概略範囲で、江戸時代の正確な村境ではありません"},"geometry":{"type":"Polygon","coordinates":[[[138.378983,35.466822],[138.380356,35.463466],[138.387222,35.457873],[138.394089,35.457314],[138.402328,35.453399],[138.406448,35.450602],[138.398209,35.449484],[138.398895,35.451162],[138.397522,35.451162],[138.393402,35.453958],[138.383789,35.456755],[138.380356,35.457314],[138.378983,35.455077],[138.377609,35.455636],[138.377609,35.457314],[138.380356,35.461789],[138.378983,35.466822]]]}},{"type":"Feature","properties":{"layer_id":"bakumatsu_villages","name":"古関村","address":"甲斐 八代郡","source":"Geoshape 幕末期近世村領域データセット vector tiles (z7 extraction)","subarea_name":"近世村のおおよその範囲","feature_key":"village:K18G02S00146","accuracy_note":"2015年農業集落境界をもとに復元した概略範囲で、江戸時代の正確な村境ではありません"},"geometry":{"type":"MultiPolygon","coordinates":[[[[138.515625,35.474092],[138.514938,35.469059],[138.512192,35.470177],[138.511505,35.467381],[138.509445,35.46794],[138.506012,35.471855],[138.507385,35.474092],[138.515625,35.474092]]],[[[138.524551,35.480242],[138.531418,35.477447],[138.534164,35.478006],[138.532104,35.474092],[138.533478,35.471296],[138.531418,35.470736],[138.531418,35.471855],[138.530045,35.471855],[138.530731,35.470177],[138.528671,35.467381],[138.529358,35.46067],[138.523178,35.461789],[138.518372,35.465703],[138.511505,35.467381],[138.512192,35.470177],[138.514938,35.469059],[138.515625,35.474092],[138.519745,35.477447],[138.521805,35.478006],[138.524551,35.480242]]]]}},{"type":"Feature","properties":{"layer_id":"bakumatsu_villages","name":"和田村","address":"甲斐 八代郡","source":"Geoshape 幕末期近世村領域データセット vector tiles (z7 extraction)","subarea_name":"近世村のおおよその範囲","feature_key":"village:K18G02S00173","accuracy_note":"2015年農業集落境界をもとに復元した概略範囲で、江戸時代の正確な村境ではありません"},"geometry":{"type":"MultiPolygon","coordinates":[[[[138.44696,35.356576],[138.446274,35.353216],[138.444901,35.351536],[138.444901,35.345935],[138.443527,35.343695],[138.440781,35.344815],[138.438034,35.351536],[138.438721,35.354896],[138.444214,35.356576],[138.44696,35.356576]]],[[[138.44696,35.356576],[138.44902,35.355456],[138.456573,35.354896],[138.462067,35.349296],[138.458633,35.347056],[138.447647,35.347616],[138.447647,35.346495],[138.444901,35.346495],[138.444901,35.351536],[138.446274,35.353216],[138.44696,35.356576]]],[[[138.447647,35.347616],[138.458633,35.347056],[138.458633,35.343135],[138.447647,35.341455],[138.44696,35.342575],[138.443527,35.343695],[138.444901,35.346495],[138.447647,35.346495],[138.447647,35.347616]]]]}},{"type":"Feature","properties":{"layer_id":"bakumatsu_villages","name":"夜子沢村","address":"甲斐 巨摩郡","source":"Geoshape 幕末期近世村領域データセット vector tiles (z7 extraction)","subarea_name":"近世村のおおよその範囲","feature_key":"village:K18G03S00283","accuracy_note":"2015年農業集落境界をもとに復元した概略範囲で、江戸時代の正確な村境ではありません"},"geometry":{"type":"Polygon","coordinates":[[[138.414001,35.470736],[138.415375,35.469059],[138.419495,35.469059],[138.422241,35.46794],[138.424988,35.469059],[138.429794,35.466822],[138.429794,35.46794],[138.431168,35.466822],[138.431854,35.46794],[138.435287,35.46794],[138.438034,35.466822],[138.438034,35.464026],[138.439407,35.462907],[138.441467,35.462907],[138.442841,35.460111],[138.440094,35.458992],[138.433914,35.459551],[138.428421,35.456196],[138.428421,35.455077],[138.421555,35.454518],[138.416061,35.457873],[138.416061,35.46067],[138.414688,35.46067],[138.415375,35.462348],[138.413315,35.463466],[138.414001,35.464585],[138.412628,35.466263],[138.411942,35.470177],[138.414001,35.470736]]]}},{"type":"Feature","properties":{"layer_id":"bakumatsu_villages","name":"大垈村","address":"甲斐 八代郡","source":"Geoshape 幕末期近世村領域データセット vector tiles (z7 extraction)","subarea_name":"近世村のおおよその範囲","feature_key":"village:K18G02S00168","accuracy_note":"2015年農業集落境界をもとに復元した概略範囲で、江戸時代の正確な村境ではありません"},"geometry":{"type":"Polygon","coordinates":[[[138.488846,35.407521],[138.490219,35.405842],[138.492279,35.405282],[138.492279,35.403043],[138.488159,35.401924],[138.486099,35.399685],[138.497086,35.391849],[138.498459,35.385691],[138.494339,35.385691],[138.489532,35.391289],[138.479919,35.393528],[138.4758,35.392968],[138.4758,35.38793],[138.474426,35.386251],[138.472366,35.386251],[138.46962,35.38793],[138.470993,35.38905],[138.47374,35.398006],[138.476486,35.402484],[138.477859,35.402484],[138.479919,35.406401],[138.483353,35.406401],[138.484726,35.404163],[138.486786,35.406961],[138.488846,35.407521]]]}},{"type":"Feature","properties":{"layer_id":"bakumatsu_villages","name":"大城村","address":"甲斐 巨摩郡","source":"Geoshape 幕末期近世村領域データセット vector tiles (z7 extraction)","subarea_name":"近世村のおおよその範囲","feature_key":"village:K18G03S00319","accuracy_note":"2015年農業集落境界をもとに復元した概略範囲で、江戸時代の正確な村境ではありません"},"geometry":{"type":"Polygon","coordinates":[[[138.392715,35.364976],[138.393402,35.359376],[138.397522,35.358256],[138.398895,35.357136],[138.399582,35.353776],[138.398895,35.350416],[138.400955,35.350416],[138.400955,35.348176],[138.407135,35.345935],[138.409195,35.344815],[138.407822,35.342575],[138.409882,35.340895],[138.409882,35.335293],[138.407135,35.330252],[138.404388,35.32689],[138.405075,35.321848],[138.400269,35.321288],[138.396149,35.317927],[138.391342,35.318487],[138.385849,35.314005],[138.378296,35.317366],[138.374176,35.315685],[138.36731,35.309522],[138.364563,35.312324],[138.35907,35.314005],[138.357697,35.317927],[138.356323,35.316806],[138.352203,35.316806],[138.352203,35.316246],[138.350143,35.315685],[138.343277,35.318487],[138.335037,35.32689],[138.337784,35.329691],[138.339157,35.335293],[138.341217,35.337534],[138.34259,35.341455],[138.341217,35.344815],[138.341904,35.349856],[138.34465,35.352656],[138.347397,35.353776],[138.350143,35.358816],[138.35289,35.357136],[138.355637,35.357136],[138.356323,35.355456],[138.364563,35.351536],[138.367996,35.351536],[138.371429,35.349296],[138.374863,35.352096],[138.381729,35.353216],[138.387222,35.355456],[138.389282,35.361056],[138.391342,35.361616],[138.392715,35.364976]]]}},{"type":"Feature","properties":{"layer_id":"bakumatsu_villages","name":"大塩村","address":"甲斐 巨摩郡","source":"Geoshape 幕末期近世村領域データセット vector tiles (z7 extraction)","subarea_name":"近世村のおおよその範囲","feature_key":"village:K18G03S00277","accuracy_note":"2015年農業集落境界をもとに復元した概略範囲で、江戸時代の正確な村境ではありません"},"geometry":{"type":"MultiPolygon","coordinates":[[[[138.411255,35.493661],[138.411255,35.490866],[138.414001,35.491425],[138.416061,35.490306],[138.416748,35.485834],[138.409882,35.483038],[138.405762,35.483038],[138.403015,35.484715],[138.394775,35.485834],[138.398209,35.489747],[138.400269,35.490306],[138.403702,35.489188],[138.407822,35.490866],[138.411255,35.493661]]],[[[138.425674,35.500369],[138.427734,35.49981],[138.429794,35.496456],[138.432541,35.497015],[138.433914,35.493102],[138.433228,35.490866],[138.433914,35.489188],[138.431854,35.487511],[138.430481,35.485275],[138.429794,35.479124],[138.426361,35.477447],[138.424301,35.478006],[138.419495,35.481361],[138.419495,35.482479],[138.409882,35.483038],[138.416748,35.485834],[138.416061,35.490306],[138.414001,35.491425],[138.411255,35.490866],[138.411255,35.493661],[138.413315,35.49422],[138.415375,35.497574],[138.416748,35.495897],[138.418121,35.498133],[138.425674,35.500369]]]]}},{"type":"Feature","properties":{"layer_id":"bakumatsu_villages","name":"大山村","address":"甲斐 八代郡","source":"Geoshape 幕末期近世村領域データセット vector tiles (z7 extraction)","subarea_name":"近世村のおおよその範囲","feature_key":"village:K18G02S00131","accuracy_note":"2015年農業集落境界をもとに復元した概略範囲で、江戸時代の正確な村境ではありません"},"geometry":{"type":"Polygon","coordinates":[[[138.510818,35.506518],[138.519745,35.5054],[138.521118,35.504282],[138.521805,35.500928],[138.516312,35.498692],[138.514938,35.492543],[138.508072,35.488629],[138.504639,35.494779],[138.505325,35.498692],[138.507385,35.502605],[138.510818,35.506518]]]}},{"type":"Feature","properties":{"layer_id":"bakumatsu_villages","name":"大島村","address":"甲斐 八代郡","source":"Geoshape 幕末期近世村領域データセット vector tiles (z7 extraction)","subarea_name":"近世村のおおよその範囲","feature_key":"village:K18G02S00175","accuracy_note":"2015年農業集落境界をもとに復元した概略範囲で、江戸時代の正確な村境ではありません"},"geometry":{"type":"MultiPolygon","coordinates":[[[[138.448334,35.339214],[138.457947,35.336974],[138.45932,35.334733],[138.470306,35.331372],[138.474426,35.328011],[138.477173,35.327451],[138.470306,35.32577],[138.4655,35.327451],[138.458633,35.32577],[138.446274,35.32521],[138.448334,35.339214]]],[[[138.477173,35.327451],[138.481979,35.322969],[138.481979,35.318487],[138.479919,35.312884],[138.474426,35.309522],[138.46756,35.309522],[138.4655,35.308962],[138.458633,35.308401],[138.456573,35.309522],[138.452454,35.308401],[138.44902,35.316246],[138.448334,35.316246],[138.444901,35.320728],[138.446274,35.32521],[138.458633,35.32577],[138.4655,35.327451],[138.470306,35.32577],[138.477173,35.327451]]]]}},{"type":"Feature","properties":{"layer_id":"bakumatsu_villages","name":"大崩村","address":"甲斐 八代郡","source":"Geoshape 幕末期近世村領域データセット vector tiles (z7 extraction)","subarea_name":"近世村のおおよその範囲","feature_key":"village:K18G02S00170","accuracy_note":"2015年農業集落境界をもとに復元した概略範囲で、江戸時代の正確な村境ではありません"},"geometry":{"type":"Polygon","coordinates":[[[138.479233,35.367216],[138.486099,35.362176],[138.490906,35.360496],[138.492966,35.360496],[138.495712,35.358816],[138.492966,35.350976],[138.488846,35.347056],[138.486786,35.347616],[138.483353,35.345375],[138.481293,35.345375],[138.480606,35.348176],[138.479233,35.356016],[138.476486,35.358256],[138.475113,35.358256],[138.474426,35.363856],[138.477173,35.367216],[138.479233,35.367216]]]}},{"type":"Feature","properties":{"layer_id":"bakumatsu_villages","name":"大炊平村","address":"甲斐 八代郡","source":"Geoshape 幕末期近世村領域データセット vector tiles (z7 extraction)","subarea_name":"近世村のおおよその範囲","feature_key":"village:K18G02S00157","accuracy_note":"2015年農業集落境界をもとに復元した概略範囲で、江戸時代の正確な村境ではありません"},"geometry":{"type":"Polygon","coordinates":[[[138.490219,35.455077],[138.494339,35.451721],[138.501205,35.45228],[138.508072,35.449484],[138.510818,35.447246],[138.511505,35.44333],[138.508072,35.44333],[138.495712,35.440533],[138.497772,35.444449],[138.497772,35.448924],[138.493652,35.451162],[138.489532,35.451162],[138.487473,35.45228],[138.488159,35.454518],[138.490219,35.455077]]]}},{"type":"Feature","properties":{"layer_id":"bakumatsu_villages","name":"大磯小磯村","address":"甲斐 八代郡","source":"Geoshape 幕末期近世村領域データセット vector tiles (z7 extraction)","subarea_name":"近世村のおおよその範囲","feature_key":"village:K18G02S00133","accuracy_note":"2015年農業集落境界をもとに復元した概略範囲で、江戸時代の正確な村境ではありません"},"geometry":{"type":"MultiPolygon","coordinates":[[[[138.523865,35.511549],[138.527985,35.509872],[138.532104,35.507077],[138.531418,35.503723],[138.527298,35.500928],[138.525238,35.500928],[138.526611,35.499251],[138.524551,35.497015],[138.527985,35.492543],[138.533478,35.489188],[138.525925,35.48807],[138.514938,35.492543],[138.516312,35.498692],[138.521805,35.500928],[138.521118,35.504282],[138.519745,35.5054],[138.519745,35.508195],[138.523178,35.509313],[138.523865,35.511549]]],[[[138.532791,35.518255],[138.534851,35.517138],[138.536224,35.517138],[138.537598,35.514343],[138.539658,35.514343],[138.538971,35.512666],[138.541718,35.510431],[138.542404,35.506518],[138.547897,35.506518],[138.551331,35.504282],[138.556824,35.501487],[138.547211,35.494779],[138.535538,35.491425],[138.533478,35.489188],[138.527985,35.492543],[138.524551,35.497015],[138.526611,35.499251],[138.525238,35.500928],[138.530731,35.502605],[138.532104,35.506518],[138.527985,35.509872],[138.523865,35.511549],[138.523865,35.512107],[138.525925,35.514902],[138.527985,35.516579],[138.530731,35.518255],[138.532791,35.518255]]]]}},{"type":"Feature","properties":{"layer_id":"bakumatsu_villages","name":"大野村","address":"甲斐 巨摩郡","source":"Geoshape 幕末期近世村領域データセット vector tiles (z7 extraction)","subarea_name":"近世村のおおよその範囲","feature_key":"village:K18G03S00316","accuracy_note":"2015年農業集落境界をもとに復元した概略範囲で、江戸時代の正確な村境ではありません"},"geometry":{"type":"MultiPolygon","coordinates":[[[[138.437347,35.373375],[138.45108,35.369455],[138.45108,35.368335],[138.441467,35.366096],[138.438034,35.362176],[138.431168,35.359376],[138.429108,35.356576],[138.427048,35.358816],[138.422928,35.360496],[138.421555,35.363296],[138.422241,35.365536],[138.426361,35.366656],[138.427048,35.368895],[138.435287,35.373375],[138.437347,35.373375]]],[[[138.45108,35.368335],[138.45108,35.361616],[138.449707,35.358816],[138.44696,35.356576],[138.444214,35.356576],[138.438721,35.354896],[138.438034,35.351536],[138.429108,35.352096],[138.429108,35.356576],[138.430481,35.358816],[138.438034,35.362176],[138.441467,35.366096],[138.45108,35.368335]]]]}},{"type":"Feature","properties":{"layer_id":"bakumatsu_villages","name":"宮木村","address":"甲斐 八代郡","source":"Geoshape 幕末期近世村領域データセット vector tiles (z7 extraction)","subarea_name":"近世村のおおよその範囲","feature_key":"village:K18G02S00151","accuracy_note":"2015年農業集落境界をもとに復元した概略範囲で、江戸時代の正確な村境ではありません"},"geometry":{"type":"MultiPolygon","coordinates":[[[[138.447647,35.454518],[138.452454,35.453399],[138.45314,35.449484],[138.452454,35.445568],[138.44902,35.44333],[138.450394,35.445568],[138.442154,35.446127],[138.447647,35.454518]]],[[[138.442154,35.446127],[138.450394,35.445568],[138.44902,35.44333],[138.446274,35.441093],[138.44696,35.440533],[138.454514,35.440533],[138.457947,35.436617],[138.462067,35.436617],[138.462067,35.432701],[138.460693,35.432141],[138.45108,35.431023],[138.45108,35.427106],[138.44902,35.43326],[138.441467,35.435498],[138.438034,35.437177],[138.438034,35.440533],[138.442154,35.446127]]]]}},{"type":"Feature","properties":{"layer_id":"bakumatsu_villages","name":"寺沢村","address":"甲斐 巨摩郡","source":"Geoshape 幕末期近世村領域データセット vector tiles (z7 extraction)","subarea_name":"近世村のおおよその範囲","feature_key":"village:K18G03S00282","accuracy_note":"2015年農業集落境界をもとに復元した概略範囲で、江戸時代の正確な村境ではありません"},"geometry":{"type":"Polygon","coordinates":[[[138.431854,35.476328],[138.436661,35.475769],[138.445587,35.470736],[138.444901,35.469618],[138.443527,35.46794],[138.440781,35.469618],[138.435287,35.46794],[138.431854,35.46794],[138.431168,35.466822],[138.429794,35.46794],[138.429794,35.466822],[138.428421,35.46794],[138.429794,35.471296],[138.429108,35.472973],[138.431854,35.476328]]]}},{"type":"Feature","properties":{"layer_id":"bakumatsu_villages","name":"小田船原村","address":"甲斐 巨摩郡","source":"Geoshape 幕末期近世村領域データセット vector tiles (z7 extraction)","subarea_name":"近世村のおおよその範囲","feature_key":"village:K18G03S00317","accuracy_note":"2015年農業集落境界をもとに復元した概略範囲で、江戸時代の正確な村境ではありません"},"geometry":{"type":"MultiPolygon","coordinates":[[[[138.409882,35.375614],[138.418808,35.373934],[138.421555,35.371695],[138.422928,35.368895],[138.426361,35.370015],[138.427048,35.368895],[138.426361,35.366656],[138.421555,35.364416],[138.422928,35.360496],[138.417435,35.361056],[138.414001,35.359936],[138.411255,35.362176],[138.407822,35.362176],[138.405762,35.363856],[138.400955,35.364416],[138.393402,35.368335],[138.394089,35.372255],[138.404388,35.372815],[138.409882,35.375614]]],[[[138.393402,35.368335],[138.400955,35.364416],[138.405762,35.363856],[138.407822,35.362176],[138.411255,35.362176],[138.414001,35.359936],[138.417435,35.361056],[138.422928,35.360496],[138.421555,35.357696],[138.422241,35.355456],[138.420181,35.354336],[138.420868,35.353216],[138.419495,35.352096],[138.411942,35.350416],[138.405762,35.354336],[138.399582,35.361056],[138.394089,35.363856],[138.392715,35.366096],[138.393402,35.368335]]]]}},{"type":"Feature","properties":{"layer_id":"bakumatsu_villages","name":"岩欠村","address":"甲斐 八代郡","source":"Geoshape 幕末期近世村領域データセット vector tiles (z7 extraction)","subarea_name":"近世村のおおよその範囲","feature_key":"village:K18G02S00155","accuracy_note":"2015年農業集落境界をもとに復元した概略範囲で、江戸時代の正確な村境ではありません"},"geometry":{"type":"Polygon","coordinates":[[[138.496399,35.461789],[138.505325,35.46067],[138.500519,35.454518],[138.501205,35.45228],[138.494339,35.451721],[138.490219,35.455077],[138.486099,35.454518],[138.486099,35.455636],[138.492279,35.460111],[138.496399,35.461789]]]}},{"type":"Feature","properties":{"layer_id":"bakumatsu_villages","name":"嶺村","address":"甲斐 八代郡","source":"Geoshape 幕末期近世村領域データセット vector tiles (z7 extraction)","subarea_name":"近世村のおおよその範囲","feature_key":"village:K18G02S00129","accuracy_note":"2015年農業集落境界をもとに復元した概略範囲で、江戸時代の正確な村境ではありません"},"geometry":{"type":"Polygon","coordinates":[[[138.505325,35.507636],[138.508072,35.506518],[138.505325,35.502605],[138.503265,35.503164],[138.503265,35.501487],[138.498459,35.497015],[138.497086,35.502046],[138.495026,35.504841],[138.495712,35.507077],[138.500519,35.507077],[138.505325,35.507636]]]}},{"type":"Feature","properties":{"layer_id":"bakumatsu_villages","name":"市ノ瀬村","address":"甲斐 八代郡","source":"Geoshape 幕末期近世村領域データセット vector tiles (z7 extraction)","subarea_name":"近世村のおおよその範囲","feature_key":"village:K18G02S00153","accuracy_note":"2015年農業集落境界をもとに復元した概略範囲で、江戸時代の正確な村境ではありません"},"geometry":{"type":"Polygon","coordinates":[[[138.479919,35.469618],[138.484726,35.469059],[138.484039,35.466822],[138.489532,35.463466],[138.490219,35.461789],[138.492279,35.460111],[138.486099,35.455636],[138.486099,35.454518],[138.484039,35.456755],[138.481293,35.456755],[138.480606,35.455636],[138.474426,35.457314],[138.477859,35.462907],[138.477173,35.46794],[138.479919,35.469618]]]}},{"type":"Feature","properties":{"layer_id":"bakumatsu_villages","name":"帯金村","address":"甲斐 八代郡","source":"Geoshape 幕末期近世村領域データセット vector tiles (z7 extraction)","subarea_name":"近世村のおおよその範囲","feature_key":"village:K18G02S00167","accuracy_note":"2015年農業集落境界をもとに復元した概略範囲で、江戸時代の正確な村境ではありません"},"geometry":{"type":"MultiPolygon","coordinates":[[[[138.451767,35.401364],[138.4552,35.399685],[138.457947,35.400245],[138.460007,35.399685],[138.46138,35.398566],[138.47374,35.398006],[138.468246,35.382332],[138.464813,35.384012],[138.462753,35.382892],[138.460693,35.384012],[138.458633,35.382892],[138.451767,35.382332],[138.445587,35.391849],[138.448334,35.399685],[138.451767,35.401364]]],[[[138.464813,35.384012],[138.466873,35.383452],[138.468246,35.382332],[138.466187,35.377854],[138.466187,35.373375],[138.458633,35.373934],[138.4552,35.377294],[138.45108,35.378973],[138.451767,35.382332],[138.458633,35.382892],[138.460693,35.384012],[138.462753,35.382892],[138.464813,35.384012]]]]}},{"type":"Feature","properties":{"layer_id":"bakumatsu_villages","name":"常葉村","address":"甲斐 八代郡","source":"Geoshape 幕末期近世村領域データセット vector tiles (z7 extraction)","subarea_name":"近世村のおおよその範囲","feature_key":"village:K18G02S00159","accuracy_note":"2015年農業集落境界をもとに復元した概略範囲で、江戸時代の正確な村境ではありません"},"geometry":{"type":"MultiPolygon","coordinates":[[[[138.468933,35.445009],[138.47374,35.44333],[138.47374,35.439974],[138.4758,35.436617],[138.475113,35.436058],[138.468933,35.437736],[138.460007,35.437736],[138.46756,35.442212],[138.468933,35.445009]]],[[[138.474426,35.456755],[138.480606,35.455636],[138.481293,35.45284],[138.479919,35.450043],[138.477859,35.447805],[138.476486,35.442771],[138.468933,35.445009],[138.46962,35.445568],[138.46962,35.451721],[138.473053,35.453399],[138.474426,35.456755]]],[[[138.482666,35.456755],[138.486099,35.455077],[138.484726,35.451721],[138.485413,35.448924],[138.482666,35.448365],[138.481979,35.446687],[138.480606,35.447246],[138.478546,35.448924],[138.479919,35.450043],[138.481293,35.45284],[138.480606,35.455636],[138.482666,35.456755]]],[[[138.478546,35.448924],[138.480606,35.447246],[138.478546,35.446127],[138.478546,35.445009],[138.477173,35.445568],[138.478546,35.448924]]],[[[138.481293,35.447246],[138.481979,35.446127],[138.479233,35.441093],[138.476486,35.44333],[138.477173,35.445568],[138.478546,35.445009],[138.478546,35.446127],[138.480606,35.447246],[138.481293,35.447246]]],[[[138.47374,35.44333],[138.476486,35.442771],[138.483353,35.439414],[138.4758,35.436617],[138.47374,35.439974],[138.47374,35.44333]]],[[[138.462067,35.437177],[138.468933,35.437736],[138.475113,35.436058],[138.477859,35.437736],[138.483353,35.439414],[138.486786,35.436058],[138.489532,35.43326],[138.477859,35.428785],[138.475113,35.425427],[138.470306,35.424308],[138.474426,35.427106],[138.474426,35.428785],[138.47374,35.427666],[138.46344,35.434379],[138.462067,35.437177]]],[[[138.485413,35.448924],[138.490906,35.445009],[138.494339,35.439974],[138.495712,35.440533],[138.508072,35.44333],[138.511505,35.44333],[138.512192,35.442212],[138.520432,35.437736],[138.523178,35.434939],[138.530045,35.431582],[138.532791,35.426546],[138.530045,35.420392],[138.525925,35.419272],[138.524551,35.419832],[138.517685,35.419272],[138.512878,35.423189],[138.509445,35.42263],[138.503952,35.426546],[138.502579,35.429904],[138.497772,35.436617],[138.494339,35.436617],[138.491592,35.43382],[138.489532,35.43326],[138.486099,35.437177],[138.479233,35.441093],[138.481979,35.447805],[138.485413,35.448924]]]]}},{"type":"Feature","properties":{"layer_id":"bakumatsu_villages","name":"平須村","address":"甲斐 巨摩郡","source":"Geoshape 幕末期近世村領域データセット vector tiles (z7 extraction)","subarea_name":"近世村のおおよその範囲","feature_key":"village:K18G03S00278","accuracy_note":"2015年農業集落境界をもとに復元した概略範囲で、江戸時代の正確な村境ではありません"},"geometry":{"type":"Polygon","coordinates":[[[138.388596,35.481361],[138.398895,35.476888],[138.407135,35.475769],[138.411942,35.476328],[138.411255,35.469059],[138.414001,35.464585],[138.411255,35.464585],[138.410568,35.467381],[138.407135,35.4685],[138.403702,35.470736],[138.400269,35.471855],[138.397522,35.470177],[138.394775,35.470177],[138.391342,35.471296],[138.383789,35.478565],[138.388596,35.481361]]]}},{"type":"Feature","properties":{"layer_id":"bakumatsu_villages","name":"手打沢村","address":"甲斐 巨摩郡","source":"Geoshape 幕末期近世村領域データセット vector tiles (z7 extraction)","subarea_name":"近世村のおおよその範囲","feature_key":"village:K18G03S00281","accuracy_note":"2015年農業集落境界をもとに復元した概略範囲で、江戸時代の正確な村境ではありません"},"geometry":{"type":"Polygon","coordinates":[[[138.431168,35.485275],[138.433914,35.483038],[138.435287,35.484156],[138.443527,35.480802],[138.447647,35.480802],[138.445587,35.470736],[138.440094,35.472973],[138.438721,35.47521],[138.426361,35.477447],[138.429794,35.479124],[138.431168,35.485275]]]}},{"type":"Feature","properties":{"layer_id":"bakumatsu_villages","name":"折門村","address":"甲斐 八代郡","source":"Geoshape 幕末期近世村領域データセット vector tiles (z7 extraction)","subarea_name":"近世村のおおよその範囲","feature_key":"village:K18G02S00182","accuracy_note":"2015年農業集落境界をもとに復元した概略範囲で、江戸時代の正確な村境ではありません"},"geometry":{"type":"Polygon","coordinates":[[[138.536911,35.519373],[138.554764,35.514902],[138.560944,35.51602],[138.565063,35.515461],[138.567123,35.51099],[138.570557,35.51099],[138.570557,35.506518],[138.567123,35.504282],[138.56781,35.498133],[138.565063,35.495897],[138.562317,35.497574],[138.560944,35.497015],[138.558197,35.500928],[138.551331,35.504282],[138.547897,35.506518],[138.542404,35.506518],[138.541718,35.510431],[138.538971,35.512666],[138.539658,35.514343],[138.537598,35.514343],[138.536224,35.517138],[138.534851,35.517138],[138.532791,35.518255],[138.536911,35.519373]]]}},{"type":"Feature","properties":{"layer_id":"bakumatsu_villages","name":"杉山村","address":"甲斐 八代郡","source":"Geoshape 幕末期近世村領域データセット vector tiles (z7 extraction)","subarea_name":"近世村のおおよその範囲","feature_key":"village:K18G02S00156","accuracy_note":"2015年農業集落境界をもとに復元した概略範囲で、江戸時代の正確な村境ではありません"},"geometry":{"type":"MultiPolygon","coordinates":[[[[138.507385,35.457873],[138.510818,35.456196],[138.515625,35.456755],[138.519058,35.454518],[138.521118,35.455636],[138.523865,35.455077],[138.519745,35.438296],[138.512192,35.442212],[138.509445,35.448924],[138.501205,35.45228],[138.500519,35.454518],[138.504639,35.457314],[138.507385,35.457873]]],[[[138.523865,35.461789],[138.529358,35.46067],[138.523865,35.455077],[138.521805,35.455636],[138.518372,35.454518],[138.514938,35.456755],[138.512878,35.456196],[138.507385,35.457873],[138.503265,35.457314],[138.505325,35.46067],[138.506699,35.46067],[138.514938,35.459551],[138.518372,35.459551],[138.523865,35.461789]]],[[[138.529358,35.46067],[138.538971,35.456196],[138.541031,35.456755],[138.542404,35.453958],[138.545837,35.45284],[138.548584,35.449484],[138.554077,35.449484],[138.55751,35.447805],[138.55545,35.445568],[138.556137,35.441652],[138.558884,35.434379],[138.55545,35.426546],[138.552704,35.423189],[138.546524,35.419272],[138.545151,35.417034],[138.537598,35.414236],[138.530731,35.418713],[138.530045,35.420392],[138.532104,35.426546],[138.528671,35.432701],[138.523178,35.434939],[138.519745,35.438296],[138.523865,35.455077],[138.529358,35.46067]]]]}},{"type":"Feature","properties":{"layer_id":"bakumatsu_villages","name":"根子村","address":"甲斐 八代郡","source":"Geoshape 幕末期近世村領域データセット vector tiles (z7 extraction)","subarea_name":"近世村のおおよその範囲","feature_key":"village:K18G02S00134","accuracy_note":"2015年農業集落境界をもとに復元した概略範囲で、江戸時代の正確な村境ではありません"},"geometry":{"type":"Polygon","coordinates":[[[138.570557,35.506518],[138.573303,35.502605],[138.58017,35.502605],[138.589783,35.498692],[138.593216,35.498133],[138.594589,35.495897],[138.593903,35.49422],[138.595276,35.490866],[138.593903,35.488629],[138.595276,35.483597],[138.591843,35.482479],[138.589096,35.480242],[138.585663,35.478565],[138.58017,35.479124],[138.573303,35.476888],[138.56987,35.473532],[138.562317,35.474651],[138.560944,35.476328],[138.562317,35.481361],[138.55545,35.484715],[138.550644,35.483038],[138.545837,35.482479],[138.543091,35.480802],[138.537598,35.480802],[138.538284,35.485275],[138.536911,35.484715],[138.533478,35.489188],[138.535538,35.491425],[138.547211,35.494779],[138.556824,35.501487],[138.560944,35.497015],[138.562317,35.497574],[138.565063,35.495897],[138.56781,35.498133],[138.567123,35.502046],[138.56781,35.503164],[138.56781,35.504841],[138.570557,35.506518]]]}},{"type":"Feature","properties":{"layer_id":"bakumatsu_villages","name":"梨子村","address":"甲斐 巨摩郡","source":"Geoshape 幕末期近世村領域データセット vector tiles (z7 extraction)","subarea_name":"近世村のおおよその範囲","feature_key":"village:K18G03S00287","accuracy_note":"2015年農業集落境界をもとに復元した概略範囲で、江戸時代の正確な村境ではありません"},"geometry":{"type":"Polygon","coordinates":[[[138.379669,35.451721],[138.385162,35.450043],[138.391342,35.446687],[138.395462,35.448365],[138.396835,35.447246],[138.396149,35.445568],[138.398895,35.441093],[138.386536,35.442771],[138.380356,35.447805],[138.378983,35.450602],[138.379669,35.451721]]]}},{"type":"Feature","properties":{"layer_id":"bakumatsu_villages","name":"椿草里村","address":"甲斐 八代郡","source":"Geoshape 幕末期近世村領域データセット vector tiles (z7 extraction)","subarea_name":"近世村のおおよその範囲","feature_key":"village:K18G02S00169","accuracy_note":"2015年農業集落境界をもとに復元した概略範囲で、江戸時代の正確な村境ではありません"},"geometry":{"type":"Polygon","coordinates":[[[138.479919,35.393528],[138.489532,35.391289],[138.495026,35.385691],[138.503952,35.384572],[138.506699,35.381773],[138.512192,35.381213],[138.513565,35.380653],[138.512878,35.373375],[138.510818,35.370015],[138.506699,35.366656],[138.507385,35.362176],[138.503952,35.361616],[138.502579,35.359936],[138.495712,35.358816],[138.492966,35.360496],[138.490219,35.360496],[138.481979,35.364416],[138.479919,35.366656],[138.477173,35.367216],[138.472366,35.373934],[138.468246,35.375054],[138.466187,35.373375],[138.466187,35.377854],[138.468933,35.383452],[138.46962,35.38793],[138.472366,35.386251],[138.474426,35.386251],[138.4758,35.38793],[138.4758,35.392968],[138.479919,35.393528]]]}},{"type":"Feature","properties":{"layer_id":"bakumatsu_villages","name":"樋上村","address":"甲斐 八代郡","source":"Geoshape 幕末期近世村領域データセット vector tiles (z7 extraction)","subarea_name":"近世村のおおよその範囲","feature_key":"village:K18G02S00174","accuracy_note":"2015年農業集落境界をもとに復元した概略範囲で、江戸時代の正確な村境ではありません"},"geometry":{"type":"Polygon","coordinates":[[[138.462067,35.349296],[138.464127,35.345935],[138.46756,35.347616],[138.477859,35.346495],[138.479919,35.345375],[138.480606,35.343135],[138.479233,35.338094],[138.481293,35.335293],[138.481293,35.331372],[138.478546,35.330252],[138.477173,35.327451],[138.4758,35.327451],[138.470306,35.331372],[138.45932,35.334733],[138.457947,35.336974],[138.448334,35.339214],[138.447647,35.341455],[138.458633,35.343695],[138.458633,35.346495],[138.462067,35.349296]]]}},{"type":"Feature","properties":{"layer_id":"bakumatsu_villages","name":"樋田村","address":"甲斐 八代郡","source":"Geoshape 幕末期近世村領域データセット vector tiles (z7 extraction)","subarea_name":"近世村のおおよその範囲","feature_key":"village:K18G02S00141","accuracy_note":"2015年農業集落境界をもとに復元した概略範囲で、江戸時代の正確な村境ではありません"},"geometry":{"type":"Polygon","coordinates":[[[138.483353,35.491984],[138.484039,35.489747],[138.486786,35.488629],[138.489532,35.485834],[138.481293,35.484156],[138.477859,35.485275],[138.481293,35.488629],[138.483353,35.491984]]]}},{"type":"Feature","properties":{"layer_id":"bakumatsu_villages","name":"横根中村","address":"甲斐 巨摩郡","source":"Geoshape 幕末期近世村領域データセット vector tiles (z7 extraction)","subarea_name":"近世村のおおよその範囲","feature_key":"village:K18G03S00323","accuracy_note":"2015年農業集落境界をもとに復元した概略範囲で、江戸時代の正確な村境ではありません"},"geometry":{"type":"MultiPolygon","coordinates":[[[[138.435974,35.334733],[138.440094,35.333053],[138.435974,35.32577],[138.432541,35.32465],[138.433228,35.323529],[138.429794,35.32521],[138.430481,35.329131],[138.432541,35.330812],[138.431854,35.334173],[138.435974,35.334733]]],[[[138.429794,35.32521],[138.433228,35.323529],[138.435974,35.320168],[138.444901,35.320728],[138.448334,35.316246],[138.442841,35.314565],[138.440781,35.315125],[138.427734,35.314565],[138.424988,35.313444],[138.422928,35.310082],[138.419495,35.308401],[138.417435,35.309522],[138.413315,35.310082],[138.411255,35.308401],[138.411255,35.307281],[138.405075,35.304479],[138.404388,35.300556],[138.402328,35.299435],[138.398895,35.299435],[138.396835,35.297754],[138.394089,35.298875],[138.385849,35.296073],[138.381729,35.296073],[138.388596,35.307281],[138.392715,35.30672],[138.395462,35.308962],[138.398209,35.308401],[138.398895,35.310643],[138.404388,35.310643],[138.404388,35.312324],[138.407822,35.312884],[138.407135,35.314565],[138.411255,35.316806],[138.416061,35.316806],[138.416061,35.318487],[138.416748,35.319047],[138.420181,35.317927],[138.420181,35.319607],[138.421555,35.320728],[138.422241,35.322409],[138.427734,35.32465],[138.429794,35.324089],[138.429794,35.32521]]]]}},{"type":"Feature","properties":{"layer_id":"bakumatsu_villages","name":"水船村","address":"甲斐 八代郡","source":"Geoshape 幕末期近世村領域データセット vector tiles (z7 extraction)","subarea_name":"近世村のおおよその範囲","feature_key":"village:K18G02S00145","accuracy_note":"2015年農業集落境界をもとに復元した概略範囲で、江戸時代の正確な村境ではありません"},"geometry":{"type":"Polygon","coordinates":[[[138.514938,35.492543],[138.517685,35.491425],[138.516998,35.484156],[138.519745,35.483597],[138.521118,35.481361],[138.519745,35.477447],[138.517685,35.478565],[138.516998,35.48192],[138.514938,35.48192],[138.512878,35.483038],[138.508759,35.488629],[138.510132,35.490306],[138.514938,35.492543]]]}},{"type":"Feature","properties":{"layer_id":"bakumatsu_villages","name":"江尻窪村","address":"甲斐 巨摩郡","source":"Geoshape 幕末期近世村領域データセット vector tiles (z7 extraction)","subarea_name":"近世村のおおよその範囲","feature_key":"village:K18G03S00288","accuracy_note":"2015年農業集落境界をもとに復元した概略範囲で、江戸時代の正確な村境ではありません"},"geometry":{"type":"Polygon","coordinates":[[[138.403702,35.450043],[138.405762,35.447246],[138.407135,35.447805],[138.408508,35.445568],[138.408508,35.441652],[138.402328,35.438855],[138.399582,35.439974],[138.398895,35.441093],[138.396149,35.446687],[138.398209,35.449484],[138.403702,35.450043]]]}},{"type":"Feature","properties":{"layer_id":"bakumatsu_villages","name":"波木井村","address":"甲斐 巨摩郡","source":"Geoshape 幕末期近世村領域データセット vector tiles (z7 extraction)","subarea_name":"近世村のおおよその範囲","feature_key":"village:K18G03S00315","accuracy_note":"2015年農業集落境界をもとに復元した概略範囲で、江戸時代の正確な村境ではありません"},"geometry":{"type":"MultiPolygon","coordinates":[[[[138.445587,35.391849],[138.44696,35.38905],[138.451767,35.382892],[138.44696,35.382892],[138.444214,35.384572],[138.439407,35.381773],[138.438721,35.384572],[138.435287,35.386811],[138.433914,35.38905],[138.441467,35.38905],[138.442841,35.390729],[138.445587,35.391849]]],[[[138.444214,35.384572],[138.445587,35.382892],[138.448334,35.382332],[138.451767,35.382892],[138.450394,35.375054],[138.446274,35.376174],[138.446274,35.376734],[138.445587,35.377294],[138.444901,35.376734],[138.439407,35.378413],[138.440781,35.380653],[138.439407,35.381773],[138.442841,35.384012],[138.444214,35.384572]]],[[[138.439407,35.378413],[138.444901,35.376734],[138.445587,35.377294],[138.446274,35.376734],[138.446274,35.376174],[138.450394,35.375054],[138.45108,35.369455],[138.437347,35.373375],[138.438721,35.375054],[138.439407,35.378413]]]]}},{"type":"Feature","properties":{"layer_id":"bakumatsu_villages","name":"波高島村・桃ヶ窪村","address":"甲斐 八代郡","source":"Geoshape 幕末期近世村領域データセット vector tiles (z7 extraction)","subarea_name":"近世村のおおよその範囲","feature_key":"village:K18G02S00161,K18G02S00162","accuracy_note":"2015年農業集落境界をもとに復元した概略範囲で、江戸時代の正確な村境ではありません"},"geometry":{"type":"Polygon","coordinates":[[[138.460007,35.431582],[138.460007,35.429344],[138.457947,35.427666],[138.458633,35.425987],[138.46344,35.424868],[138.462753,35.42207],[138.464127,35.420951],[138.470993,35.418713],[138.47374,35.418713],[138.4758,35.416475],[138.472366,35.412557],[138.4655,35.412557],[138.4655,35.414796],[138.460693,35.417594],[138.45726,35.416475],[138.453827,35.416475],[138.451767,35.427106],[138.45108,35.431023],[138.460007,35.431582]]]}},{"type":"Feature","properties":{"layer_id":"bakumatsu_villages","name":"清子村","address":"甲斐 巨摩郡","source":"Geoshape 幕末期近世村領域データセット vector tiles (z7 extraction)","subarea_name":"近世村のおおよその範囲","feature_key":"village:K18G03S00321","accuracy_note":"2015年農業集落境界をもとに復元した概略範囲で、江戸時代の正確な村境ではありません"},"geometry":{"type":"Polygon","coordinates":[[[138.429108,35.352096],[138.438034,35.351536],[138.440781,35.344815],[138.447647,35.342015],[138.44696,35.330252],[138.442841,35.330812],[138.437347,35.334173],[138.431854,35.334173],[138.429794,35.338094],[138.431168,35.342015],[138.430481,35.343695],[138.430481,35.348736],[138.429108,35.352096]]]}},{"type":"Feature","properties":{"layer_id":"bakumatsu_villages","name":"清沢村","address":"甲斐 八代郡","source":"Geoshape 幕末期近世村領域データセット vector tiles (z7 extraction)","subarea_name":"近世村のおおよその範囲","feature_key":"village:K18G02S00158","accuracy_note":"2015年農業集落境界をもとに復元した概略範囲で、江戸時代の正確な村境ではありません"},"geometry":{"type":"Polygon","coordinates":[[[138.486099,35.455077],[138.488159,35.454518],[138.487473,35.45228],[138.489532,35.451162],[138.493652,35.451162],[138.497772,35.448924],[138.497772,35.444449],[138.494339,35.439974],[138.490906,35.445009],[138.485413,35.448924],[138.484726,35.451721],[138.486099,35.455077]]]}},{"type":"Feature","properties":{"layer_id":"bakumatsu_villages","name":"湯奥村","address":"甲斐 八代郡","source":"Geoshape 幕末期近世村領域データセット vector tiles (z7 extraction)","subarea_name":"近世村のおおよその範囲","feature_key":"village:K18G02S00164","accuracy_note":"2015年農業集落境界をもとに復元した概略範囲で、江戸時代の正確な村境ではありません"},"geometry":{"type":"Polygon","coordinates":[[[138.512878,35.423189],[138.518372,35.419272],[138.524551,35.419832],[138.525925,35.419272],[138.530045,35.420392],[138.530731,35.418713],[138.537598,35.414236],[138.536224,35.411998],[138.531418,35.409759],[138.530731,35.402484],[138.532791,35.399685],[138.532104,35.396887],[138.535538,35.39017],[138.534164,35.386251],[138.531418,35.384572],[138.527985,35.379533],[138.520432,35.378413],[138.516312,35.380093],[138.513565,35.380093],[138.512192,35.381213],[138.506699,35.381773],[138.503952,35.384572],[138.498459,35.385691],[138.497086,35.391849],[138.486099,35.399685],[138.488159,35.401924],[138.492279,35.403043],[138.492279,35.405282],[138.490219,35.405842],[138.488846,35.407521],[138.493652,35.411998],[138.503265,35.417594],[138.509445,35.42263],[138.512878,35.423189]]]}},{"type":"Feature","properties":{"layer_id":"bakumatsu_villages","name":"瀬戸村","address":"甲斐 八代郡","source":"Geoshape 幕末期近世村領域データセット vector tiles (z7 extraction)","subarea_name":"近世村のおおよその範囲","feature_key":"village:K18G02S00135","accuracy_note":"2015年農業集落境界をもとに復元した概略範囲で、江戸時代の正確な村境ではありません"},"geometry":{"type":"Polygon","coordinates":[[[138.533478,35.489188],[138.536911,35.484715],[138.538284,35.485275],[138.538284,35.481361],[138.536911,35.479124],[138.534164,35.478006],[138.531418,35.477447],[138.524551,35.480242],[138.525925,35.485834],[138.529358,35.488629],[138.533478,35.489188]]]}},{"type":"Feature","properties":{"layer_id":"bakumatsu_villages","name":"熊沢村","address":"甲斐 八代郡","source":"Geoshape 幕末期近世村領域データセット vector tiles (z7 extraction)","subarea_name":"近世村のおおよその範囲","feature_key":"village:K18G02S00120","accuracy_note":"2015年農業集落境界をもとに復元した概略範囲で、江戸時代の正確な村境ではありません"},"geometry":{"type":"Polygon","coordinates":[[[138.494339,35.494779],[138.499146,35.493661],[138.500519,35.487511],[138.489532,35.485834],[138.486786,35.488629],[138.483353,35.490306],[138.483353,35.491984],[138.486099,35.490866],[138.494339,35.494779]]]}},{"type":"Feature","properties":{"layer_id":"bakumatsu_villages","name":"相又村","address":"甲斐 巨摩郡","source":"Geoshape 幕末期近世村領域データセット vector tiles (z7 extraction)","subarea_name":"近世村のおおよその範囲","feature_key":"village:K18G03S00320","accuracy_note":"2015年農業集落境界をもとに復元した概略範囲で、江戸時代の正確な村境ではありません"},"geometry":{"type":"Polygon","coordinates":[[[138.422928,35.360496],[138.427048,35.358816],[138.429108,35.356576],[138.429108,35.352096],[138.430481,35.348736],[138.430481,35.343695],[138.431168,35.342015],[138.429794,35.338094],[138.432541,35.333053],[138.432541,35.330812],[138.430481,35.329131],[138.429794,35.324089],[138.427734,35.32465],[138.422241,35.322969],[138.421555,35.320728],[138.420181,35.319607],[138.420181,35.317927],[138.416748,35.319047],[138.416061,35.318487],[138.416061,35.316806],[138.411255,35.316806],[138.407135,35.314565],[138.407822,35.312884],[138.404388,35.312324],[138.404388,35.310643],[138.398895,35.310643],[138.398209,35.308401],[138.395462,35.308962],[138.392715,35.30672],[138.388596,35.307281],[138.381729,35.296073],[138.377609,35.297194],[138.374176,35.299996],[138.372116,35.299435],[138.370056,35.305039],[138.367996,35.30672],[138.36731,35.309522],[138.374176,35.315685],[138.379669,35.317366],[138.385849,35.314005],[138.391342,35.318487],[138.396149,35.317927],[138.400269,35.321288],[138.405075,35.321848],[138.404388,35.32689],[138.409195,35.333613],[138.409882,35.337534],[138.409195,35.338654],[138.409882,35.340895],[138.407822,35.342575],[138.411255,35.345375],[138.413315,35.349856],[138.420868,35.353216],[138.420181,35.354336],[138.422241,35.355456],[138.421555,35.357696],[138.422928,35.360496]]]}},{"type":"Feature","properties":{"layer_id":"bakumatsu_villages","name":"矢細工村","address":"甲斐 巨摩郡","source":"Geoshape 幕末期近世村領域データセット vector tiles (z7 extraction)","subarea_name":"近世村のおおよその範囲","feature_key":"village:K18G03S00284","accuracy_note":"2015年農業集落境界をもとに復元した概略範囲で、江戸時代の正確な村境ではありません"},"geometry":{"type":"Polygon","coordinates":[[[138.383789,35.478006],[138.391342,35.471296],[138.394775,35.470177],[138.397522,35.470177],[138.400269,35.471855],[138.403702,35.470736],[138.407135,35.4685],[138.410568,35.467381],[138.411255,35.464585],[138.414001,35.464585],[138.413315,35.463466],[138.411942,35.462907],[138.407135,35.457873],[138.405075,35.451721],[138.394089,35.457314],[138.387222,35.457873],[138.380356,35.463466],[138.378983,35.466822],[138.383789,35.478006]]]}},{"type":"Feature","properties":{"layer_id":"bakumatsu_villages","name":"福原村","address":"甲斐 巨摩郡","source":"Geoshape 幕末期近世村領域データセット vector tiles (z7 extraction)","subarea_name":"近世村のおおよその範囲","feature_key":"village:K18G03S00286","accuracy_note":"2015年農業集落境界をもとに復元した概略範囲で、江戸時代の正確な村境ではありません"},"geometry":{"type":"Polygon","coordinates":[[[138.380356,35.457314],[138.390656,35.454518],[138.397522,35.451162],[138.398895,35.451162],[138.398209,35.448365],[138.396835,35.447246],[138.394775,35.448365],[138.391342,35.446687],[138.385162,35.450043],[138.379669,35.451721],[138.378983,35.450602],[138.377609,35.455636],[138.378983,35.455077],[138.380356,35.457314]]]}},{"type":"Feature","properties":{"layer_id":"bakumatsu_villages","name":"粟倉村","address":"甲斐 巨摩郡","source":"Geoshape 幕末期近世村領域データセット vector tiles (z7 extraction)","subarea_name":"近世村のおおよその範囲","feature_key":"village:K18G03S00313","accuracy_note":"2015年農業集落境界をもとに復元した概略範囲で、江戸時代の正確な村境ではありません"},"geometry":{"type":"MultiPolygon","coordinates":[[[[138.411942,35.436617],[138.413315,35.434939],[138.412628,35.432701],[138.415375,35.429344],[138.414001,35.427106],[138.415375,35.420951],[138.409195,35.42207],[138.404388,35.425987],[138.405762,35.426546],[138.408508,35.425427],[138.409195,35.426546],[138.407135,35.432701],[138.411942,35.436617]]],[[[138.414001,35.437177],[138.425674,35.431582],[138.430481,35.430463],[138.427734,35.426546],[138.419495,35.417034],[138.415375,35.420951],[138.414001,35.427106],[138.415375,35.429344],[138.412628,35.432701],[138.413315,35.434939],[138.411942,35.436617],[138.414001,35.437177]]]]}},{"type":"Feature","properties":{"layer_id":"bakumatsu_villages","name":"芝草村","address":"甲斐 八代郡","source":"Geoshape 幕末期近世村領域データセット vector tiles (z7 extraction)","subarea_name":"近世村のおおよその範囲","feature_key":"village:K18G02S00132","accuracy_note":"2015年農業集落境界をもとに復元した概略範囲で、江戸時代の正確な村境ではありません"},"geometry":{"type":"Polygon","coordinates":[[[138.517685,35.491425],[138.523865,35.488629],[138.529358,35.488629],[138.525925,35.485834],[138.524551,35.480242],[138.520432,35.477447],[138.521118,35.481361],[138.519745,35.483597],[138.516998,35.484156],[138.517685,35.491425]]]}},{"type":"Feature","properties":{"layer_id":"bakumatsu_villages","name":"西島村","address":"甲斐 巨摩郡","source":"Geoshape 幕末期近世村領域データセット vector tiles (z7 extraction)","subarea_name":"近世村のおおよその範囲","feature_key":"village:K18G03S00280","accuracy_note":"2015年農業集落境界をもとに復元した概略範囲で、江戸時代の正確な村境ではありません"},"geometry":{"type":"Polygon","coordinates":[[[138.44696,35.49981],[138.451767,35.494779],[138.454514,35.491425],[138.4552,35.487511],[138.452454,35.483597],[138.447647,35.480242],[138.44696,35.480802],[138.443527,35.480802],[138.435287,35.484156],[138.433914,35.483038],[138.431168,35.485275],[138.433914,35.489188],[138.433228,35.490866],[138.433914,35.493102],[138.432541,35.497015],[138.432541,35.497574],[138.435287,35.496456],[138.435974,35.495338],[138.440781,35.49422],[138.442841,35.494779],[138.444901,35.498692],[138.44696,35.49981]]]}},{"type":"Feature","properties":{"layer_id":"bakumatsu_villages","name":"角打村","address":"甲斐 八代郡","source":"Geoshape 幕末期近世村領域データセット vector tiles (z7 extraction)","subarea_name":"近世村のおおよその範囲","feature_key":"village:K18G02S00172","accuracy_note":"2015年農業集落境界をもとに復元した概略範囲で、江戸時代の正確な村境ではありません"},"geometry":{"type":"MultiPolygon","coordinates":[[[[138.454514,35.366656],[138.45314,35.364976],[138.453827,35.363856],[138.45726,35.363856],[138.46138,35.366096],[138.46756,35.362176],[138.472366,35.360496],[138.475113,35.358256],[138.477859,35.357696],[138.479233,35.356016],[138.479919,35.348176],[138.476486,35.349296],[138.470306,35.354896],[138.462753,35.359376],[138.46138,35.359936],[138.455887,35.358816],[138.45108,35.361056],[138.45108,35.366096],[138.454514,35.366656]]],[[[138.45108,35.361056],[138.455887,35.358816],[138.46138,35.359936],[138.468933,35.356016],[138.475113,35.349856],[138.477173,35.348736],[138.479919,35.348176],[138.481293,35.345375],[138.480606,35.343135],[138.479919,35.345375],[138.477859,35.346495],[138.46756,35.347616],[138.464127,35.345935],[138.456573,35.354896],[138.448334,35.355456],[138.44696,35.356576],[138.45108,35.361056]]]]}},{"type":"Feature","properties":{"layer_id":"bakumatsu_villages","name":"身延村","address":"甲斐 巨摩郡","source":"Geoshape 幕末期近世村領域データセット vector tiles (z7 extraction)","subarea_name":"近世村のおおよその範囲","feature_key":"village:K18G03S10001","accuracy_note":"2015年農業集落境界をもとに復元した概略範囲で、江戸時代の正確な村境ではありません"},"geometry":{"type":"MultiPolygon","coordinates":[[[[138.418121,35.401364],[138.420868,35.400245],[138.425674,35.395207],[138.431168,35.384012],[138.428421,35.381773],[138.429794,35.378973],[138.427734,35.373375],[138.429794,35.370575],[138.427048,35.368895],[138.426361,35.370015],[138.422928,35.368895],[138.421555,35.371695],[138.418808,35.373934],[138.409882,35.375614],[138.404388,35.372815],[138.394089,35.372255],[138.394775,35.375054],[138.393402,35.378413],[138.394089,35.383452],[138.393402,35.38849],[138.394089,35.38961],[138.398209,35.39017],[138.401642,35.394648],[138.404388,35.396327],[138.409195,35.395767],[138.411255,35.397446],[138.416748,35.398006],[138.418121,35.401364]]],[[[138.35701,35.384572],[138.35907,35.374494],[138.357697,35.372815],[138.353577,35.373375],[138.350143,35.371135],[138.349457,35.374494],[138.352203,35.380093],[138.352203,35.383452],[138.355637,35.384572],[138.35701,35.384572]]],[[[138.433914,35.38905],[138.435287,35.386811],[138.438721,35.384572],[138.434601,35.382892],[138.433914,35.381773],[138.429794,35.378973],[138.428421,35.381773],[138.431168,35.384012],[138.429108,35.38849],[138.433914,35.38905]]],[[[138.438721,35.384572],[138.439407,35.381773],[138.440781,35.380653],[138.438721,35.377854],[138.438721,35.375054],[138.437347,35.373375],[138.429794,35.370575],[138.427734,35.373375],[138.429794,35.378973],[138.433914,35.381773],[138.434601,35.382892],[138.438721,35.384572]]]]}},{"type":"Feature","properties":{"layer_id":"bakumatsu_villages","name":"車田村","address":"甲斐 八代郡","source":"Geoshape 幕末期近世村領域データセット vector tiles (z7 extraction)","subarea_name":"近世村のおおよその範囲","feature_key":"village:K18G02S00143","accuracy_note":"2015年農業集落境界をもとに復元した概略範囲で、江戸時代の正確な村境ではありません"},"geometry":{"type":"Polygon","coordinates":[[[138.492966,35.485834],[138.493652,35.481361],[138.491592,35.479124],[138.491592,35.475769],[138.490906,35.471855],[138.486099,35.47521],[138.484039,35.474651],[138.479919,35.475769],[138.478546,35.479124],[138.479919,35.480802],[138.482666,35.484715],[138.492966,35.485834]]]}},{"type":"Feature","properties":{"layer_id":"bakumatsu_villages","name":"遅沢村","address":"甲斐 巨摩郡","source":"Geoshape 幕末期近世村領域データセット vector tiles (z7 extraction)","subarea_name":"近世村のおおよその範囲","feature_key":"village:K18G03S00290","accuracy_note":"2015年農業集落境界をもとに復元した概略範囲で、江戸時代の正確な村境ではありません"},"geometry":{"type":"Polygon","coordinates":[[[138.410568,35.446687],[138.415375,35.44333],[138.416748,35.444449],[138.418121,35.44333],[138.421555,35.442771],[138.424301,35.44389],[138.427048,35.441652],[138.427734,35.438296],[138.429794,35.437736],[138.427734,35.436617],[138.429108,35.434379],[138.429794,35.431023],[138.425674,35.431582],[138.415375,35.436617],[138.412628,35.436617],[138.407135,35.432701],[138.409195,35.426546],[138.400955,35.431023],[138.396835,35.434939],[138.393402,35.434379],[138.392029,35.435498],[138.394089,35.439974],[138.398895,35.440533],[138.403015,35.439414],[138.408508,35.441652],[138.408508,35.445568],[138.410568,35.446687]]]}},{"type":"Feature","properties":{"layer_id":"bakumatsu_villages","name":"道村","address":"甲斐 八代郡","source":"Geoshape 幕末期近世村領域データセット vector tiles (z7 extraction)","subarea_name":"近世村のおおよその範囲","feature_key":"village:K18G02S00144","accuracy_note":"2015年農業集落境界をもとに復元した概略範囲で、江戸時代の正確な村境ではありません"},"geometry":{"type":"Polygon","coordinates":[[[138.508072,35.488629],[138.512878,35.483038],[138.514938,35.48192],[138.516998,35.48192],[138.517685,35.479124],[138.519745,35.477447],[138.516312,35.474092],[138.508759,35.474092],[138.505325,35.472973],[138.502579,35.474092],[138.505325,35.474651],[138.506012,35.476328],[138.503952,35.480802],[138.505325,35.484156],[138.503265,35.486393],[138.506699,35.486952],[138.508072,35.488629]]]}},{"type":"Feature","properties":{"layer_id":"bakumatsu_villages","name":"釜額村","address":"甲斐 八代郡","source":"Geoshape 幕末期近世村領域データセット vector tiles (z7 extraction)","subarea_name":"近世村のおおよその範囲","feature_key":"village:K18G02S00148","accuracy_note":"2015年農業集落境界をもとに復元した概略範囲で、江戸時代の正確な村境ではありません"},"geometry":{"type":"Polygon","coordinates":[[[138.538284,35.47521],[138.541031,35.474092],[138.545151,35.474651],[138.549957,35.470177],[138.549957,35.466822],[138.56163,35.464026],[138.570557,35.459551],[138.572617,35.464026],[138.58223,35.464585],[138.582916,35.447246],[138.577423,35.44333],[138.576736,35.441093],[138.56987,35.439974],[138.563004,35.434939],[138.558884,35.434379],[138.556137,35.441652],[138.55545,35.445568],[138.55751,35.447805],[138.554077,35.449484],[138.548584,35.449484],[138.545837,35.45284],[138.542404,35.453958],[138.541031,35.456755],[138.538971,35.456196],[138.529358,35.46067],[138.528671,35.467381],[138.530731,35.470177],[138.530045,35.471855],[138.531418,35.471855],[138.531418,35.470736],[138.533478,35.471296],[138.532104,35.473532],[138.538284,35.47521]]]}},{"type":"Feature","properties":{"layer_id":"bakumatsu_villages","name":"門野村","address":"甲斐 巨摩郡","source":"Geoshape 幕末期近世村領域データセット vector tiles (z7 extraction)","subarea_name":"近世村のおおよその範囲","feature_key":"village:K18G03S00318","accuracy_note":"2015年農業集落境界をもとに復元した概略範囲で、江戸時代の正確な村境ではありません"},"geometry":{"type":"Polygon","coordinates":[[[138.393402,35.365536],[138.394775,35.363296],[138.399582,35.361056],[138.402328,35.358816],[138.405762,35.354336],[138.412628,35.350416],[138.411255,35.345375],[138.409195,35.344815],[138.400269,35.348736],[138.400955,35.350416],[138.398895,35.350976],[138.399582,35.353776],[138.398209,35.357696],[138.393402,35.359936],[138.393402,35.365536]]]}},{"type":"Feature","properties":{"layer_id":"bakumatsu_villages","name":"飯富村","address":"甲斐 巨摩郡","source":"Geoshape 幕末期近世村領域データセット vector tiles (z7 extraction)","subarea_name":"近世村のおおよその範囲","feature_key":"village:K18G03S00291","accuracy_note":"2015年農業集落境界をもとに復元した概略範囲で、江戸時代の正確な村境ではありません"},"geometry":{"type":"Polygon","coordinates":[[[138.424301,35.44389],[138.433228,35.442771],[138.438034,35.440533],[138.438034,35.438296],[138.438721,35.436617],[138.44902,35.432701],[138.45108,35.427106],[138.436661,35.429344],[138.430481,35.430463],[138.427734,35.436617],[138.429794,35.437736],[138.427734,35.438296],[138.427048,35.441652],[138.424301,35.44389]]]}},{"type":"Feature","properties":{"layer_id":"edo_post_stations","name":"下山","address":"","source":"CODH 江戸宿場データセット Version 1 (2026-08)","feature_key":"post:R517-007"},"geometry":{"type":"Point","coordinates":[138.4413,35.41169]}},{"type":"Feature","properties":{"layer_id":"edo_post_stations","name":"八日市場","address":"","source":"CODH 江戸宿場データセット Version 1 (2026-08)","feature_key":"post:R517-006"},"geometry":{"coordinates":[138.4428,35.45157],"type":"Point"}},{"type":"Feature","properties":{"layer_id":"edo_post_stations","name":"切石","address":"","source":"CODH 江戸宿場データセット Version 1 (2026-08)","feature_key":"post:R517-005"},"geometry":{"type":"Point","coordinates":[138.4408,35.46623]}},{"type":"Feature","properties":{"layer_id":"historical_sites_archaeology","name":"〆木遺跡","address":"山梨県 南巨摩郡身延町 市之瀬","source":"Geoshape 日本歴史地名大系 施設・地点項目データセット 2025-05-15","subarea_name":"遺跡","feature_key":"08_archaeological_sites.geojson:190000182000","subtype":"遺跡"},"geometry":{"type":"Point","coordinates":[138.482474,35.460688]}},{"type":"Feature","properties":{"layer_id":"historical_sites_archaeology","name":"万福鉱山跡","address":"山梨県 南巨摩郡身延町 下部","source":"Geoshape 日本歴史地名大系 施設・地点項目データセット 2025-05-15","subarea_name":"史跡","feature_key":"09_historic_sites.geojson:190000131400","subtype":"史跡"},"geometry":{"type":"Point","coordinates":[138.483724,35.421416]}},{"type":"Feature","properties":{"layer_id":"historical_sites_archaeology","name":"湯之奥金山跡","address":"山梨県 南巨摩郡身延町 湯之奥","source":"Geoshape 日本歴史地名大系 施設・地点項目データセット 2025-05-15","subarea_name":"史跡","feature_key":"09_historic_sites.geojson:190000128400","subtype":"史跡"},"geometry":{"type":"Point","coordinates":[138.508721,35.40001]}},{"type":"Feature","properties":{"layer_id":"historical_sites_archaeology","name":"穴山氏館跡","address":"山梨県 南巨摩郡身延町 下山","source":"Geoshape 日本歴史地名大系 施設・地点項目データセット 2025-05-15","subarea_name":"史跡","feature_key":"09_historic_sites.geojson:190000194900","subtype":"史跡"},"geometry":{"type":"Point","coordinates":[138.433764,35.409607]}},{"type":"Feature","properties":{"layer_id":"historical_temples_shrines","name":"一宮賀茂神社","address":"山梨県 南巨摩郡身延町 下山2651番地","source":"Geoshape 日本歴史地名大系 施設・地点項目データセット 2025-05-15","subarea_name":"神社","feature_key":"02_shrines.geojson:190000195000","subtype":"神社"},"geometry":{"type":"Point","coordinates":[138.436441,35.411913]}},{"type":"Feature","properties":{"layer_id":"historical_temples_shrines","name":"三宮飯縄神社","address":"山梨県 南巨摩郡身延町 下山5030番地","source":"Geoshape 日本歴史地名大系 施設・地点項目データセット 2025-05-15","subarea_name":"神社","feature_key":"02_shrines.geojson:190000195200","subtype":"神社"},"geometry":{"type":"Point","coordinates":[138.439163,35.40984]}},{"type":"Feature","properties":{"layer_id":"historical_temples_shrines","name":"上沢寺","address":"山梨県 南巨摩郡身延町 下山279番地","source":"Geoshape 日本歴史地名大系 施設・地点項目データセット 2025-05-15","subarea_name":"寺院","feature_key":"01_temples.geojson:190000195600","subtype":"寺院"},"geometry":{"type":"Point","coordinates":[138.439026,35.418892]}},{"type":"Feature","properties":{"layer_id":"historical_temples_shrines","name":"久遠寺","address":"山梨県 南巨摩郡身延町 身延3567番地","source":"Geoshape 日本歴史地名大系 施設・地点項目データセット 2025-05-15","subarea_name":"寺院","feature_key":"01_temples.geojson:190000192800","subtype":"寺院"},"geometry":{"type":"Point","coordinates":[138.428558,35.383202]}},{"type":"Feature","properties":{"layer_id":"historical_temples_shrines","name":"二宮下賀茂神社","address":"山梨県 南巨摩郡身延町 下山","source":"Geoshape 日本歴史地名大系 施設・地点項目データセット 2025-05-15","subarea_name":"神社","feature_key":"02_shrines.geojson:190000195100","subtype":"神社"},"geometry":{"type":"Point","coordinates":[138.436441,35.411913]}},{"type":"Feature","properties":{"layer_id":"historical_temples_shrines","name":"光沢寺","address":"山梨県 南巨摩郡身延町 三澤881番地","source":"Geoshape 日本歴史地名大系 施設・地点項目データセット 2025-05-15","subarea_name":"寺院","feature_key":"01_temples.geojson:190000080900","subtype":"寺院"},"geometry":{"type":"Point","coordinates":[138.474823,35.482418]}},{"type":"Feature","properties":{"layer_id":"historical_temples_shrines","name":"南松院","address":"山梨県 南巨摩郡身延町 下山3221番地","source":"Geoshape 日本歴史地名大系 施設・地点項目データセット 2025-05-15","subarea_name":"寺院","feature_key":"01_temples.geojson:190000195300","subtype":"寺院"},"geometry":{"type":"Point","coordinates":[138.430084,35.414669]}},{"type":"Feature","properties":{"layer_id":"historical_temples_shrines","name":"慈観寺","address":"山梨県 南巨摩郡身延町 道143番地","source":"Geoshape 日本歴史地名大系 施設・地点項目データセット 2025-05-15","subarea_name":"寺院","feature_key":"01_temples.geojson:190000130400","subtype":"寺院"},"geometry":{"type":"Point","coordinates":[138.512085,35.480793]}},{"type":"Feature","properties":{"layer_id":"historical_temples_shrines","name":"方外院","address":"山梨県 南巨摩郡身延町 瀬戸135番地","source":"Geoshape 日本歴史地名大系 施設・地点項目データセット 2025-05-15","subarea_name":"寺院","feature_key":"01_temples.geojson:190000130900","subtype":"寺院"},"geometry":{"type":"Point","coordinates":[138.527222,35.481506]}},{"type":"Feature","properties":{"layer_id":"historical_temples_shrines","name":"本国寺","address":"山梨県 南巨摩郡身延町 下山2271番地","source":"Geoshape 日本歴史地名大系 施設・地点項目データセット 2025-05-15","subarea_name":"寺院","feature_key":"01_temples.geojson:190000195400","subtype":"寺院"},"geometry":{"type":"Point","coordinates":[138.440353,35.414955]}},{"type":"Feature","properties":{"layer_id":"historical_temples_shrines","name":"本遠寺","address":"山梨県 南巨摩郡身延町 大野839番地","source":"Geoshape 日本歴史地名大系 施設・地点項目データセット 2025-05-15","subarea_name":"寺院","feature_key":"01_temples.geojson:190000193800","subtype":"寺院"},"geometry":{"type":"Point","coordinates":[138.439743,35.360653]}},{"type":"Feature","properties":{"layer_id":"historical_temples_shrines","name":"竜雲寺","address":"山梨県 南巨摩郡身延町 下山4614番地","source":"Geoshape 日本歴史地名大系 施設・地点項目データセット 2025-05-15","subarea_name":"寺院","feature_key":"01_temples.geojson:190000195500","subtype":"寺院"},"geometry":{"type":"Point","coordinates":[138.431702,35.399666]}}]}