{"type":"FeatureCollection","municipality_code":"20207","pref":"長野県","city":"須坂市","layer_counts":{"bakumatsu_villages":30,"edo_post_stations":2,"historical_sites_archaeology":7,"historical_temples_shrines":17},"total_features":56,"features":[{"type":"Feature","properties":{"layer_id":"bakumatsu_villages","name":"中島村","address":"信濃 高井郡","source":"Geoshape 幕末期近世村領域データセット vector tiles (z7 extraction)","subarea_name":"近世村のおおよその範囲","feature_key":"village:K19G02S00078","accuracy_note":"2015年農業集落境界をもとに復元した概略範囲で、江戸時代の正確な村境ではありません"},"geometry":{"type":"Polygon","coordinates":[[[138.275986,36.657403],[138.280106,36.652445],[138.280106,36.648589],[138.278732,36.648589],[138.278732,36.646385],[138.275299,36.644182],[138.269806,36.645834],[138.271179,36.650793],[138.275986,36.657403]]]}},{"type":"Feature","properties":{"layer_id":"bakumatsu_villages","name":"九反田村","address":"信濃 高井郡","source":"Geoshape 幕末期近世村領域データセット vector tiles (z7 extraction)","subarea_name":"近世村のおおよその範囲","feature_key":"village:K19G02S00004","accuracy_note":"2015年農業集落境界をもとに復元した概略範囲で、江戸時代の正確な村境ではありません"},"geometry":{"type":"MultiPolygon","coordinates":[[[[138.282852,36.649691],[138.288345,36.646936],[138.285599,36.644182],[138.287659,36.641978],[138.286972,36.641427],[138.282852,36.64308],[138.279419,36.63757],[138.277359,36.638121],[138.278732,36.640325],[138.275299,36.641427],[138.275299,36.637019],[138.272552,36.63757],[138.269806,36.645834],[138.275299,36.644182],[138.278732,36.646385],[138.278732,36.648589],[138.282166,36.648589],[138.282852,36.649691]]],[[[138.282166,36.641978],[138.279419,36.63757],[138.277359,36.638121],[138.278732,36.640325],[138.275299,36.641427],[138.275299,36.637019],[138.272552,36.63757],[138.271179,36.641978],[138.282166,36.641978]]],[[[138.286972,36.641978],[138.286285,36.640876],[138.284912,36.641978],[138.286972,36.641978]]]]}},{"type":"Feature","properties":{"layer_id":"bakumatsu_villages","name":"亀倉村","address":"信濃 高井郡","source":"Geoshape 幕末期近世村領域データセット vector tiles (z7 extraction)","subarea_name":"近世村のおおよその範囲","feature_key":"village:K19G02S00067","accuracy_note":"2015年農業集落境界をもとに復元した概略範囲で、江戸時代の正確な村境ではありません"},"geometry":{"type":"MultiPolygon","coordinates":[[[[138.332291,36.62655],[138.335724,36.622692],[138.33847,36.622141],[138.34053,36.622692],[138.343277,36.620488],[138.343964,36.618834],[138.34877,36.617732],[138.348083,36.61663],[138.35083,36.615528],[138.35289,36.61167],[138.355637,36.609465],[138.35907,36.608914],[138.36731,36.603402],[138.372116,36.601748],[138.372803,36.600094],[138.378983,36.600094],[138.380356,36.597889],[138.383102,36.597889],[138.384476,36.595684],[138.383789,36.59403],[138.384476,36.593479],[138.383789,36.592928],[138.384476,36.591825],[138.385849,36.591274],[138.386536,36.592376],[138.389282,36.590722],[138.388596,36.589068],[138.392029,36.58576],[138.395462,36.580247],[138.396149,36.57749],[138.399582,36.574732],[138.402328,36.574181],[138.404388,36.571424],[138.403015,36.559291],[138.399582,36.553775],[138.391342,36.553775],[138.391342,36.560394],[138.393402,36.5626],[138.387909,36.564806],[138.384476,36.567012],[138.378983,36.569218],[138.373489,36.578041],[138.372803,36.58576],[138.36319,36.590722],[138.359756,36.59403],[138.358383,36.597338],[138.35495,36.597889],[138.349457,36.601197],[138.343964,36.601748],[138.341904,36.603402],[138.341217,36.605055],[138.343964,36.610567],[138.339844,36.611118],[138.341904,36.612772],[138.339157,36.613323],[138.339157,36.614425],[138.335724,36.617181],[138.334351,36.61663],[138.333664,36.617732],[138.331604,36.620488],[138.332977,36.62159],[138.330231,36.622692],[138.329544,36.623794],[138.330917,36.625448],[138.331604,36.624896],[138.332291,36.62655]]],[[[138.332291,36.62655],[138.335724,36.622692],[138.33847,36.622141],[138.34053,36.622692],[138.343277,36.620488],[138.343964,36.618834],[138.34877,36.617732],[138.348083,36.61663],[138.35083,36.615528],[138.35289,36.61167],[138.355637,36.609465],[138.35907,36.608914],[138.36731,36.603402],[138.372116,36.601748],[138.372803,36.600094],[138.378983,36.600094],[138.380356,36.597889],[138.383102,36.597889],[138.384476,36.595684],[138.383789,36.59403],[138.384476,36.593479],[138.383789,36.592928],[138.384476,36.591825],[138.385849,36.591274],[138.386536,36.592376],[138.389282,36.590722],[138.388596,36.589068],[138.392029,36.58576],[138.395462,36.580247],[138.396149,36.57749],[138.399582,36.574732],[138.402328,36.574181],[138.404388,36.571424],[138.403015,36.559291],[138.400269,36.554878],[138.398895,36.549914],[138.397522,36.548811],[138.395462,36.549362],[138.391342,36.553775],[138.391342,36.558739],[138.393402,36.5626],[138.387909,36.564806],[138.384476,36.567012],[138.378983,36.569218],[138.373489,36.578041],[138.372803,36.58576],[138.36319,36.590722],[138.359756,36.59403],[138.358383,36.597338],[138.35495,36.597889],[138.349457,36.601197],[138.343964,36.601748],[138.341904,36.603402],[138.341217,36.605055],[138.343964,36.610567],[138.339844,36.611118],[138.341904,36.612772],[138.339157,36.613323],[138.339157,36.614425],[138.335724,36.617181],[138.334351,36.61663],[138.333664,36.617732],[138.331604,36.620488],[138.332977,36.62159],[138.330231,36.622692],[138.329544,36.623794],[138.330917,36.625448],[138.331604,36.624896],[138.332291,36.62655]]]]}},{"type":"Feature","properties":{"layer_id":"bakumatsu_villages","name":"五閑村","address":"信濃 高井郡","source":"Geoshape 幕末期近世村領域データセット vector tiles (z7 extraction)","subarea_name":"近世村のおおよその範囲","feature_key":"village:K19G02S00126","accuracy_note":"2015年農業集落境界をもとに復元した概略範囲で、江戸時代の正確な村境ではありません"},"geometry":{"type":"Polygon","coordinates":[[[138.286972,36.661259],[138.289032,36.660157],[138.287659,36.656852],[138.284225,36.659055],[138.280792,36.659055],[138.280792,36.660157],[138.281479,36.661259],[138.286285,36.659606],[138.286972,36.661259]]]}},{"type":"Feature","properties":{"layer_id":"bakumatsu_villages","name":"井上村","address":"信濃 高井郡","source":"Geoshape 幕末期近世村領域データセット vector tiles (z7 extraction)","subarea_name":"近世村のおおよその範囲","feature_key":"village:K19G02S00063","accuracy_note":"2015年農業集落境界をもとに復元した概略範囲で、江戸時代の正確な村境ではありません"},"geometry":{"type":"MultiPolygon","coordinates":[[[[138.283539,36.63757],[138.282852,36.635917],[138.277359,36.635917],[138.279419,36.63757],[138.282166,36.636468],[138.282166,36.63757],[138.283539,36.63757]]],[[[138.283539,36.63757],[138.284912,36.638672],[138.293152,36.634815],[138.293152,36.63206],[138.297958,36.625999],[138.295212,36.621039],[138.289032,36.616079],[138.287659,36.62159],[138.284225,36.622692],[138.281479,36.627652],[138.278732,36.628203],[138.277359,36.630407],[138.275299,36.631509],[138.273239,36.631509],[138.273926,36.633713],[138.272552,36.63757],[138.275299,36.637019],[138.275299,36.641427],[138.278732,36.640325],[138.277359,36.638121],[138.279419,36.63757],[138.277359,36.635917],[138.282852,36.635917],[138.283539,36.63757]]],[[[138.283539,36.63757],[138.282852,36.635917],[138.277359,36.635917],[138.279419,36.63757],[138.282166,36.636468],[138.282166,36.63757],[138.283539,36.63757]]],[[[138.283539,36.63757],[138.284912,36.638672],[138.293152,36.634815],[138.293152,36.63206],[138.297958,36.625999],[138.295212,36.621039],[138.289032,36.616079],[138.287659,36.62159],[138.284225,36.622692],[138.281479,36.627652],[138.278732,36.628203],[138.277359,36.630407],[138.275299,36.631509],[138.273239,36.631509],[138.273926,36.633713],[138.272552,36.63757],[138.275299,36.637019],[138.275299,36.641427],[138.278732,36.640325],[138.277359,36.638121],[138.279419,36.63757],[138.277359,36.635917],[138.282852,36.635917],[138.283539,36.63757]]]]}},{"type":"Feature","properties":{"layer_id":"bakumatsu_villages","name":"仁礼村","address":"信濃 高井郡","source":"Geoshape 幕末期近世村領域データセット vector tiles (z7 extraction)","subarea_name":"近世村のおおよその範囲","feature_key":"village:K19G02S00112","accuracy_note":"2015年農業集落境界をもとに復元した概略範囲で、江戸時代の正確な村境ではありません"},"geometry":{"type":"MultiPolygon","coordinates":[[[[138.321304,36.605606],[138.326797,36.603402],[138.336411,36.603402],[138.335037,36.601748],[138.337097,36.601197],[138.335724,36.599543],[138.336411,36.598992],[138.335724,36.59844],[138.335037,36.598992],[138.334351,36.597889],[138.334351,36.596235],[138.330231,36.597889],[138.318558,36.603402],[138.319931,36.605055],[138.321304,36.605606]]],[[[138.335724,36.612772],[138.335037,36.608362],[138.337784,36.608914],[138.339157,36.608914],[138.33847,36.607811],[138.34053,36.607811],[138.34053,36.606709],[138.331604,36.606709],[138.321304,36.605606],[138.322678,36.607811],[138.332291,36.610567],[138.335724,36.612772]]],[[[138.334351,36.61663],[138.335724,36.617181],[138.339157,36.614425],[138.339157,36.613323],[138.341904,36.612772],[138.339844,36.611118],[138.343964,36.610567],[138.34259,36.607811],[138.33847,36.607811],[138.339157,36.608914],[138.337784,36.608914],[138.335037,36.608362],[138.335724,36.613323],[138.334351,36.61663]]],[[[138.34259,36.60726],[138.341217,36.605055],[138.341904,36.604504],[138.337784,36.603402],[138.326797,36.603402],[138.321304,36.605606],[138.34259,36.60726]]],[[[138.339844,36.603953],[138.339844,36.601197],[138.335037,36.601748],[138.336411,36.603402],[138.339844,36.603953]]],[[[138.337097,36.601197],[138.341904,36.600645],[138.34671,36.597889],[138.34465,36.597889],[138.341217,36.59844],[138.34053,36.599543],[138.339844,36.598992],[138.33847,36.598992],[138.337784,36.597889],[138.337784,36.597338],[138.335724,36.597889],[138.335724,36.599543],[138.336411,36.600094],[138.337097,36.601197]]],[[[138.341904,36.604504],[138.343964,36.601748],[138.35083,36.600094],[138.353577,36.59844],[138.35289,36.597889],[138.34671,36.597889],[138.341904,36.600645],[138.339844,36.601197],[138.339844,36.603953],[138.341904,36.604504]]],[[[138.318558,36.603402],[138.330231,36.597889],[138.334351,36.596235],[138.331604,36.592928],[138.330231,36.58962],[138.326797,36.587966],[138.326797,36.584106],[138.330231,36.581901],[138.329544,36.578041],[138.330917,36.578041],[138.331604,36.575284],[138.330917,36.572527],[138.332291,36.569218],[138.328857,36.563152],[138.328171,36.559842],[138.326111,36.557636],[138.328171,36.553775],[138.307571,36.553775],[138.308258,36.555982],[138.310318,36.557085],[138.310318,36.559291],[138.316498,36.560945],[138.318558,36.563703],[138.317871,36.567564],[138.313751,36.569769],[138.310318,36.570321],[138.309631,36.573078],[138.306885,36.57363],[138.306198,36.578041],[138.307571,36.582452],[138.306885,36.587966],[138.306885,36.59403],[138.304825,36.597338],[138.304825,36.599543],[138.318558,36.603402]]],[[[138.321304,36.605606],[138.326797,36.603402],[138.336411,36.603402],[138.335037,36.601748],[138.337097,36.601197],[138.335724,36.599543],[138.336411,36.598992],[138.335724,36.59844],[138.335037,36.598992],[138.334351,36.597889],[138.334351,36.596235],[138.330231,36.597889],[138.318558,36.603402],[138.319931,36.605055],[138.321304,36.605606]]],[[[138.335724,36.612772],[138.335037,36.608362],[138.337784,36.608914],[138.339157,36.608914],[138.33847,36.607811],[138.34053,36.607811],[138.34053,36.606709],[138.331604,36.606709],[138.321304,36.605606],[138.322678,36.607811],[138.332291,36.610567],[138.335724,36.612772]]],[[[138.334351,36.61663],[138.335724,36.617181],[138.339157,36.614425],[138.339157,36.613323],[138.341904,36.612772],[138.339844,36.611118],[138.343964,36.610567],[138.34259,36.607811],[138.33847,36.607811],[138.339157,36.608914],[138.337784,36.608914],[138.335037,36.608362],[138.335724,36.613323],[138.334351,36.61663]]],[[[138.34259,36.60726],[138.341217,36.605055],[138.341904,36.604504],[138.337784,36.603402],[138.326797,36.603402],[138.321304,36.605606],[138.34259,36.60726]]],[[[138.339844,36.603953],[138.339844,36.601197],[138.335037,36.601748],[138.336411,36.603402],[138.339844,36.603953]]],[[[138.337097,36.601197],[138.341904,36.600645],[138.34671,36.597889],[138.34465,36.597889],[138.341217,36.59844],[138.34053,36.599543],[138.339844,36.598992],[138.33847,36.598992],[138.337784,36.597889],[138.337784,36.597338],[138.335724,36.597889],[138.335724,36.599543],[138.336411,36.600094],[138.337097,36.601197]]],[[[138.341904,36.604504],[138.343964,36.601748],[138.35083,36.600094],[138.353577,36.59844],[138.35289,36.597889],[138.34671,36.597889],[138.341904,36.600645],[138.339844,36.601197],[138.339844,36.603953],[138.341904,36.604504]]],[[[138.318558,36.603402],[138.330231,36.597889],[138.334351,36.596235],[138.331604,36.592928],[138.330231,36.58962],[138.326797,36.587966],[138.326797,36.584658],[138.330231,36.581901],[138.329544,36.578041],[138.330917,36.578041],[138.331604,36.575284],[138.330917,36.572527],[138.332291,36.569218],[138.328857,36.563152],[138.328171,36.559842],[138.326111,36.557085],[138.328171,36.553775],[138.332977,36.551017],[138.333664,36.551017],[138.334351,36.549362],[138.334351,36.546053],[138.339157,36.54164],[138.339157,36.539984],[138.336411,36.539984],[138.333664,36.537778],[138.323364,36.546604],[138.314438,36.547156],[138.307571,36.553775],[138.308258,36.555982],[138.310318,36.557085],[138.310318,36.559291],[138.316498,36.560945],[138.318558,36.563703],[138.317871,36.567564],[138.313751,36.569769],[138.310318,36.570321],[138.309631,36.573078],[138.306885,36.57363],[138.306198,36.578041],[138.307571,36.582452],[138.306885,36.587966],[138.306885,36.59403],[138.304825,36.597338],[138.304825,36.599543],[138.318558,36.603402]]]]}},{"type":"Feature","properties":{"layer_id":"bakumatsu_villages","name":"仙仁村","address":"信濃 高井郡","source":"Geoshape 幕末期近世村領域データセット vector tiles (z7 extraction)","subarea_name":"近世村のおおよその範囲","feature_key":"village:K19G02S00107","accuracy_note":"2015年農業集落境界をもとに復元した概略範囲で、江戸時代の正確な村境ではありません"},"geometry":{"type":"MultiPolygon","coordinates":[[[[138.335037,36.598992],[138.335724,36.597889],[138.339844,36.59403],[138.341904,36.586863],[138.348083,36.585209],[138.364563,36.583004],[138.368683,36.581349],[138.371429,36.578041],[138.374176,36.578041],[138.378983,36.569218],[138.384476,36.567012],[138.387909,36.564806],[138.393402,36.5626],[138.391342,36.560394],[138.391342,36.553775],[138.384476,36.553775],[138.381729,36.554878],[138.374176,36.553775],[138.328171,36.553775],[138.326111,36.557636],[138.328171,36.559842],[138.328857,36.563152],[138.332291,36.569218],[138.330917,36.572527],[138.331604,36.575284],[138.330917,36.578041],[138.329544,36.578041],[138.330231,36.581901],[138.326797,36.584106],[138.326797,36.587966],[138.330917,36.58962],[138.331604,36.592928],[138.333664,36.594581],[138.334351,36.597889],[138.335037,36.598992]]],[[[138.335037,36.598992],[138.335724,36.597889],[138.339844,36.59403],[138.341904,36.586863],[138.348083,36.585209],[138.364563,36.583004],[138.368683,36.581349],[138.371429,36.578041],[138.374176,36.578041],[138.378983,36.569218],[138.384476,36.567012],[138.387909,36.564806],[138.393402,36.5626],[138.391342,36.558739],[138.391342,36.553775],[138.389282,36.554327],[138.385162,36.553775],[138.380356,36.554878],[138.368683,36.553224],[138.35495,36.548811],[138.353577,36.547708],[138.351517,36.54164],[138.346024,36.539984],[138.339157,36.539984],[138.33847,36.542743],[138.334351,36.546053],[138.334351,36.549362],[138.333664,36.551017],[138.332977,36.551017],[138.328171,36.553775],[138.326111,36.557085],[138.328171,36.559842],[138.328857,36.563152],[138.332291,36.569218],[138.330917,36.572527],[138.331604,36.575284],[138.330917,36.578041],[138.329544,36.578041],[138.330231,36.581901],[138.326797,36.584106],[138.326797,36.587966],[138.330917,36.58962],[138.331604,36.592928],[138.333664,36.594581],[138.334351,36.597889],[138.335037,36.598992]]]]}},{"type":"Feature","properties":{"layer_id":"bakumatsu_villages","name":"八町村","address":"信濃 高井郡","source":"Geoshape 幕末期近世村領域データセット vector tiles (z7 extraction)","subarea_name":"近世村のおおよその範囲","feature_key":"village:K19G02S00110","accuracy_note":"2015年農業集落境界をもとに復元した概略範囲で、江戸時代の正確な村境ではありません"},"geometry":{"type":"MultiPolygon","coordinates":[[[[138.293152,36.634815],[138.304825,36.633713],[138.308945,36.631509],[138.308945,36.630407],[138.306885,36.631509],[138.305511,36.629856],[138.306885,36.629856],[138.306885,36.624896],[138.308945,36.624345],[138.308258,36.617181],[138.306885,36.612221],[138.307571,36.608362],[138.305511,36.599543],[138.302078,36.60285],[138.299332,36.607811],[138.297272,36.607811],[138.292465,36.612221],[138.289032,36.613323],[138.289032,36.616079],[138.295212,36.621039],[138.297958,36.625999],[138.293152,36.63206],[138.293152,36.634815]]],[[[138.315125,36.631509],[138.319931,36.628203],[138.329544,36.623794],[138.329544,36.622141],[138.322678,36.622141],[138.324738,36.617732],[138.321304,36.605606],[138.316498,36.60285],[138.313751,36.602299],[138.309631,36.600645],[138.305511,36.599543],[138.307571,36.608362],[138.306885,36.612221],[138.308258,36.617181],[138.308945,36.624345],[138.306885,36.624896],[138.306885,36.629856],[138.305511,36.629856],[138.306885,36.631509],[138.308945,36.630407],[138.308945,36.631509],[138.314438,36.629856],[138.315125,36.631509]]],[[[138.293152,36.634815],[138.304825,36.633713],[138.308945,36.631509],[138.308945,36.630407],[138.306885,36.631509],[138.305511,36.629856],[138.306885,36.629856],[138.306885,36.624896],[138.308945,36.624345],[138.308258,36.617181],[138.306885,36.612221],[138.307571,36.608362],[138.305511,36.599543],[138.302078,36.60285],[138.299332,36.607811],[138.297272,36.607811],[138.292465,36.612221],[138.289032,36.613323],[138.289032,36.616079],[138.295212,36.621039],[138.297958,36.625999],[138.293152,36.63206],[138.293152,36.634815]]],[[[138.315125,36.631509],[138.319931,36.628203],[138.329544,36.623794],[138.329544,36.622141],[138.322678,36.622141],[138.324738,36.617732],[138.321304,36.605606],[138.316498,36.60285],[138.313751,36.602299],[138.309631,36.600645],[138.305511,36.599543],[138.307571,36.608362],[138.306885,36.612221],[138.308258,36.617181],[138.308945,36.624345],[138.306885,36.624896],[138.306885,36.629856],[138.305511,36.629856],[138.306885,36.631509],[138.308945,36.630407],[138.308945,36.631509],[138.314438,36.629856],[138.315125,36.631509]]]]}},{"type":"Feature","properties":{"layer_id":"bakumatsu_villages","name":"八重森村","address":"信濃 高井郡","source":"Geoshape 幕末期近世村領域データセット vector tiles (z7 extraction)","subarea_name":"近世村のおおよその範囲","feature_key":"village:K19G02S00120","accuracy_note":"2015年農業集落境界をもとに復元した概略範囲で、江戸時代の正確な村境ではありません"},"geometry":{"type":"Polygon","coordinates":[[[138.283539,36.66897],[138.286285,36.668419],[138.285599,36.667317],[138.288345,36.666767],[138.287659,36.665665],[138.289719,36.665114],[138.289032,36.660157],[138.286972,36.661259],[138.286285,36.659606],[138.281479,36.661259],[138.281479,36.664563],[138.283539,36.66897]]]}},{"type":"Feature","properties":{"layer_id":"bakumatsu_villages","name":"坂田村","address":"信濃 高井郡","source":"Geoshape 幕末期近世村領域データセット vector tiles (z7 extraction)","subarea_name":"近世村のおおよその範囲","feature_key":"village:K19G02S00121","accuracy_note":"2015年農業集落境界をもとに復元した概略範囲で、江戸時代の正確な村境ではありません"},"geometry":{"type":"MultiPolygon","coordinates":[[[[138.324738,36.651894],[138.328171,36.650242],[138.332977,36.649691],[138.334351,36.647487],[138.337784,36.645834],[138.33847,36.64308],[138.335037,36.639223],[138.332291,36.639774],[138.325424,36.638121],[138.325424,36.639774],[138.323364,36.639223],[138.319931,36.643631],[138.318558,36.645834],[138.319244,36.648589],[138.319931,36.64914],[138.318558,36.649691],[138.319931,36.651894],[138.324738,36.651894]]],[[[138.337784,36.641978],[138.335037,36.639223],[138.332291,36.639774],[138.326111,36.638121],[138.325424,36.639774],[138.323364,36.639223],[138.320618,36.641978],[138.337784,36.641978]]]]}},{"type":"Feature","properties":{"layer_id":"bakumatsu_villages","name":"塩川村","address":"信濃 高井郡","source":"Geoshape 幕末期近世村領域データセット vector tiles (z7 extraction)","subarea_name":"近世村のおおよその範囲","feature_key":"village:K19G02S00122","accuracy_note":"2015年農業集落境界をもとに復元した概略範囲で、江戸時代の正確な村境ではありません"},"geometry":{"type":"Polygon","coordinates":[[[138.300018,36.653547],[138.296585,36.651894],[138.295898,36.650242],[138.293839,36.651343],[138.292465,36.650793],[138.291779,36.651343],[138.293152,36.654649],[138.294525,36.654649],[138.291779,36.65575],[138.289032,36.660157],[138.289719,36.661809],[138.292465,36.661259],[138.295212,36.661809],[138.298645,36.660708],[138.302765,36.659055],[138.301392,36.654649],[138.300705,36.653547],[138.300018,36.653547]]]}},{"type":"Feature","properties":{"layer_id":"bakumatsu_villages","name":"塩野村","address":"信濃 高井郡","source":"Geoshape 幕末期近世村領域データセット vector tiles (z7 extraction)","subarea_name":"近世村のおおよその範囲","feature_key":"village:K19G02S00070","accuracy_note":"2015年農業集落境界をもとに復元した概略範囲で、江戸時代の正確な村境ではありません"},"geometry":{"type":"MultiPolygon","coordinates":[[[[138.326797,36.634815],[138.330917,36.633162],[138.343964,36.631509],[138.348083,36.629305],[138.356323,36.627652],[138.361816,36.623794],[138.366623,36.623794],[138.370056,36.622692],[138.370743,36.623794],[138.375549,36.622141],[138.378983,36.619937],[138.380356,36.617181],[138.381729,36.616079],[138.385162,36.615528],[138.386536,36.617732],[138.387222,36.61663],[138.389282,36.617181],[138.390656,36.61663],[138.391342,36.613874],[138.389969,36.609465],[138.383102,36.610016],[138.376923,36.613874],[138.372803,36.613874],[138.36731,36.614976],[138.359756,36.619386],[138.358383,36.62159],[138.347397,36.625999],[138.345337,36.625999],[138.341217,36.624896],[138.33847,36.622141],[138.335724,36.622692],[138.331604,36.628203],[138.328171,36.630407],[138.326797,36.634815]]],[[[138.326797,36.634815],[138.330917,36.633162],[138.343964,36.631509],[138.348083,36.629305],[138.356323,36.627652],[138.361816,36.623794],[138.366623,36.623794],[138.370056,36.622692],[138.370743,36.623794],[138.375549,36.622141],[138.378983,36.619937],[138.380356,36.617181],[138.381729,36.616079],[138.385162,36.615528],[138.386536,36.617732],[138.387222,36.61663],[138.389282,36.617181],[138.390656,36.61663],[138.391342,36.613874],[138.389969,36.609465],[138.383102,36.610016],[138.376923,36.613874],[138.372803,36.613874],[138.36731,36.614976],[138.359756,36.619386],[138.358383,36.62159],[138.347397,36.625999],[138.345337,36.625999],[138.341217,36.624896],[138.33847,36.622141],[138.335724,36.622692],[138.331604,36.628203],[138.328171,36.630407],[138.326797,36.634815]]]]}},{"type":"Feature","properties":{"layer_id":"bakumatsu_villages","name":"大日向村","address":"信濃 高井郡","source":"Geoshape 幕末期近世村領域データセット vector tiles (z7 extraction)","subarea_name":"近世村のおおよその範囲","feature_key":"village:K19G02S10001","accuracy_note":"2015年農業集落境界をもとに復元した概略範囲で、江戸時代の正確な村境ではありません"},"geometry":{"type":"MultiPolygon","coordinates":[[[[138.325424,36.639774],[138.326111,36.638121],[138.327484,36.639223],[138.332977,36.639223],[138.330917,36.633162],[138.323364,36.637019],[138.324051,36.638121],[138.323364,36.639223],[138.325424,36.639774]]],[[[138.325424,36.639774],[138.326111,36.638121],[138.327484,36.639223],[138.332977,36.639223],[138.330917,36.633162],[138.323364,36.637019],[138.324051,36.638121],[138.323364,36.639223],[138.325424,36.639774]]]]}},{"type":"Feature","properties":{"layer_id":"bakumatsu_villages","name":"宇原村","address":"信濃 高井郡","source":"Geoshape 幕末期近世村領域データセット vector tiles (z7 extraction)","subarea_name":"近世村のおおよその範囲","feature_key":"village:K19G02S00111","accuracy_note":"2015年農業集落境界をもとに復元した概略範囲で、江戸時代の正確な村境ではありません"},"geometry":{"type":"MultiPolygon","coordinates":[[[[138.34053,36.599543],[138.341217,36.59844],[138.34465,36.597889],[138.35495,36.597889],[138.358383,36.597338],[138.359756,36.59403],[138.36319,36.590722],[138.372803,36.58576],[138.373489,36.578041],[138.371429,36.578041],[138.368683,36.581349],[138.364563,36.583004],[138.348083,36.585209],[138.341904,36.586863],[138.339844,36.59403],[138.336411,36.597338],[138.337784,36.597338],[138.337784,36.597889],[138.33847,36.598992],[138.339844,36.598992],[138.34053,36.599543]]],[[[138.34053,36.599543],[138.341217,36.59844],[138.34465,36.597889],[138.35495,36.597889],[138.358383,36.597338],[138.359756,36.59403],[138.36319,36.590722],[138.372803,36.58576],[138.373489,36.578041],[138.371429,36.578041],[138.368683,36.581349],[138.364563,36.583004],[138.348083,36.585209],[138.341904,36.586863],[138.339844,36.59403],[138.336411,36.597338],[138.337784,36.597338],[138.337784,36.597889],[138.33847,36.598992],[138.339844,36.598992],[138.34053,36.599543]]]]}},{"type":"Feature","properties":{"layer_id":"bakumatsu_villages","name":"小山村","address":"信濃 高井郡","source":"Geoshape 幕末期近世村領域データセット vector tiles (z7 extraction)","subarea_name":"近世村のおおよその範囲","feature_key":"village:K19G02S00132","accuracy_note":"2015年農業集落境界をもとに復元した概略範囲で、江戸時代の正確な村境ではありません"},"geometry":{"type":"MultiPolygon","coordinates":[[[[138.286285,36.654649],[138.292465,36.650793],[138.293839,36.651343],[138.295212,36.650793],[138.295212,36.64914],[138.297272,36.648589],[138.295898,36.646385],[138.297958,36.645283],[138.296585,36.643631],[138.282852,36.649691],[138.282166,36.648589],[138.280106,36.648589],[138.280106,36.651343],[138.282852,36.650793],[138.283539,36.652996],[138.284912,36.651894],[138.286285,36.654649]]],[[[138.297958,36.652445],[138.301392,36.651343],[138.301392,36.651894],[138.304825,36.650793],[138.304138,36.650242],[138.300018,36.644733],[138.299332,36.644733],[138.295898,36.645834],[138.297272,36.648589],[138.295212,36.64914],[138.296585,36.651894],[138.297958,36.652445]]],[[[138.309631,36.650242],[138.306885,36.645283],[138.304825,36.645834],[138.306885,36.644733],[138.306198,36.643631],[138.308258,36.642529],[138.308258,36.640876],[138.296585,36.643631],[138.297958,36.645283],[138.300018,36.644733],[138.302078,36.646385],[138.304138,36.650242],[138.305511,36.64914],[138.307571,36.64914],[138.307571,36.650242],[138.309631,36.650242]]],[[[138.311005,36.648589],[138.313065,36.650793],[138.313751,36.650793],[138.315125,36.64914],[138.313751,36.646385],[138.311691,36.646936],[138.311005,36.648589]]],[[[138.311005,36.648589],[138.311005,36.647487],[138.308258,36.648038],[138.308258,36.648589],[138.311005,36.648589]]],[[[138.311005,36.648589],[138.311691,36.646936],[138.313751,36.646385],[138.314438,36.643631],[138.312378,36.640876],[138.311005,36.639774],[138.308258,36.640876],[138.308258,36.642529],[138.306198,36.643631],[138.306885,36.644733],[138.304825,36.645834],[138.306885,36.645283],[138.308945,36.648038],[138.311005,36.647487],[138.311005,36.648589]]],[[[138.317184,36.652996],[138.319931,36.651894],[138.318558,36.649691],[138.319931,36.64914],[138.319931,36.648589],[138.315125,36.64914],[138.313065,36.650793],[138.313065,36.651343],[138.315125,36.652445],[138.315811,36.651894],[138.317184,36.651894],[138.317184,36.652996]]],[[[138.315125,36.64914],[138.319244,36.648589],[138.318558,36.645834],[138.324051,36.638121],[138.323364,36.637019],[138.311005,36.639774],[138.314438,36.643631],[138.313751,36.646385],[138.315125,36.64914]]],[[[138.308258,36.641978],[138.308258,36.640876],[138.302078,36.641978],[138.308258,36.641978]]],[[[138.313065,36.641978],[138.311005,36.639774],[138.308258,36.640876],[138.308258,36.641978],[138.313065,36.641978]]],[[[138.320618,36.641978],[138.324051,36.638121],[138.323364,36.637019],[138.311005,36.639774],[138.313065,36.641978],[138.320618,36.641978]]]]}},{"type":"Feature","properties":{"layer_id":"bakumatsu_villages","name":"小島村","address":"信濃 高井郡","source":"Geoshape 幕末期近世村領域データセット vector tiles (z7 extraction)","subarea_name":"近世村のおおよその範囲","feature_key":"village:K19G02S00125","accuracy_note":"2015年農業集落境界をもとに復元した概略範囲で、江戸時代の正確な村境ではありません"},"geometry":{"type":"Polygon","coordinates":[[[138.302078,36.687693],[138.302078,36.685491],[138.300018,36.68494],[138.297272,36.682737],[138.300018,36.681085],[138.298645,36.680535],[138.299332,36.676129],[138.300018,36.675028],[138.296585,36.66952],[138.293152,36.670622],[138.291779,36.66897],[138.292465,36.671173],[138.291779,36.672274],[138.291092,36.672825],[138.290405,36.671173],[138.288345,36.673926],[138.290405,36.680535],[138.287659,36.687143],[138.302078,36.687693]]]}},{"type":"Feature","properties":{"layer_id":"bakumatsu_villages","name":"小河原村","address":"信濃 高井郡","source":"Geoshape 幕末期近世村領域データセット vector tiles (z7 extraction)","subarea_name":"近世村のおおよその範囲","feature_key":"village:K19G02S00114","accuracy_note":"2015年農業集落境界をもとに復元した概略範囲で、江戸時代の正確な村境ではありません"},"geometry":{"type":"MultiPolygon","coordinates":[[[[138.307571,36.688244],[138.308945,36.673926],[138.304825,36.674477],[138.302765,36.678883],[138.300705,36.678883],[138.300705,36.679984],[138.298645,36.680535],[138.299332,36.681636],[138.297272,36.682737],[138.300018,36.68494],[138.302078,36.685491],[138.302078,36.687693],[138.307571,36.688244]]],[[[138.300705,36.679984],[138.300705,36.678883],[138.302765,36.678883],[138.304825,36.674477],[138.308945,36.673926],[138.304825,36.671723],[138.305511,36.670071],[138.300705,36.670071],[138.297272,36.670622],[138.300018,36.675028],[138.299332,36.676129],[138.298645,36.679984],[138.300705,36.679984]]],[[[138.315811,36.688244],[138.321991,36.687143],[138.317184,36.67668],[138.311005,36.676129],[138.308945,36.673926],[138.307571,36.688244],[138.315811,36.688244]]],[[[138.317184,36.67668],[138.315811,36.671723],[138.313065,36.671173],[138.308945,36.670622],[138.308945,36.673926],[138.311005,36.676129],[138.317184,36.67668]]],[[[138.308945,36.673926],[138.308945,36.670622],[138.313065,36.671173],[138.313065,36.667317],[138.310318,36.667317],[138.311691,36.666216],[138.313751,36.666767],[138.313065,36.664013],[138.311691,36.664563],[138.311691,36.661809],[138.304138,36.661809],[138.303452,36.664013],[138.300705,36.664013],[138.301392,36.665665],[138.299332,36.667868],[138.295898,36.66897],[138.297272,36.670622],[138.300705,36.670071],[138.305511,36.670071],[138.304825,36.671723],[138.308945,36.673926]]]]}},{"type":"Feature","properties":{"layer_id":"bakumatsu_villages","name":"幸高村","address":"信濃 高井郡","source":"Geoshape 幕末期近世村領域データセット vector tiles (z7 extraction)","subarea_name":"近世村のおおよその範囲","feature_key":"village:K19G02S00095","accuracy_note":"2015年農業集落境界をもとに復元した概略範囲で、江戸時代の正確な村境ではありません"},"geometry":{"type":"MultiPolygon","coordinates":[[[[138.284225,36.64308],[138.284912,36.641978],[138.286285,36.640876],[138.286285,36.641978],[138.286972,36.641427],[138.287659,36.641978],[138.289032,36.641427],[138.293152,36.637019],[138.293839,36.634815],[138.284912,36.638672],[138.282166,36.63757],[138.282166,36.636468],[138.279419,36.63757],[138.282852,36.64308],[138.284225,36.64308]]],[[[138.284912,36.641978],[138.286285,36.640876],[138.286285,36.641978],[138.286972,36.641427],[138.287659,36.641978],[138.293152,36.637019],[138.293839,36.634815],[138.284912,36.638672],[138.282166,36.63757],[138.282166,36.636468],[138.279419,36.63757],[138.282166,36.641978],[138.284912,36.641978]]]]}},{"type":"Feature","properties":{"layer_id":"bakumatsu_villages","name":"日滝村","address":"信濃 高井郡","source":"Geoshape 幕末期近世村領域データセット vector tiles (z7 extraction)","subarea_name":"近世村のおおよその範囲","feature_key":"village:K19G02S00135","accuracy_note":"2015年農業集落境界をもとに復元した概略範囲で、江戸時代の正確な村境ではありません"},"geometry":{"type":"MultiPolygon","coordinates":[[[[138.319931,36.678332],[138.321991,36.675028],[138.321991,36.664563],[138.318558,36.663462],[138.317184,36.661259],[138.314438,36.661259],[138.311005,36.66236],[138.311691,36.664563],[138.313065,36.664013],[138.313751,36.666767],[138.311691,36.666216],[138.310318,36.667317],[138.313065,36.667317],[138.313065,36.671173],[138.315811,36.671723],[138.317184,36.678332],[138.319931,36.678332]]],[[[138.321991,36.687143],[138.324738,36.685491],[138.326111,36.682737],[138.330917,36.682187],[138.333664,36.680535],[138.337097,36.666216],[138.328171,36.665114],[138.321991,36.666216],[138.321991,36.675028],[138.319931,36.678332],[138.317184,36.678332],[138.321991,36.687143]]],[[[138.321991,36.664563],[138.324051,36.659606],[138.322678,36.658505],[138.323364,36.656301],[138.321304,36.654649],[138.320618,36.65575],[138.317871,36.65575],[138.317871,36.657954],[138.315811,36.660708],[138.317184,36.661259],[138.317184,36.66236],[138.318558,36.66236],[138.318558,36.663462],[138.321991,36.664563]]],[[[138.332977,36.649691],[138.328171,36.650242],[138.324738,36.651894],[138.321991,36.651894],[138.321304,36.654098],[138.323364,36.656301],[138.322678,36.658505],[138.324051,36.659606],[138.322678,36.663462],[138.321991,36.664013],[138.321991,36.666216],[138.325424,36.665114],[138.328171,36.659055],[138.327484,36.657954],[138.328171,36.656852],[138.330231,36.656301],[138.329544,36.65575],[138.330917,36.6552],[138.332977,36.649691]]],[[[138.337097,36.665665],[138.33847,36.661809],[138.343277,36.659606],[138.34259,36.657954],[138.346024,36.648589],[138.343277,36.648589],[138.341904,36.646385],[138.337784,36.645834],[138.334351,36.647487],[138.330917,36.6552],[138.329544,36.65575],[138.330231,36.656301],[138.328171,36.656852],[138.327484,36.657954],[138.328171,36.659055],[138.325424,36.665114],[138.337097,36.665665]]]]}},{"type":"Feature","properties":{"layer_id":"bakumatsu_villages","name":"村山村","address":"信濃 高井郡","source":"Geoshape 幕末期近世村領域データセット vector tiles (z7 extraction)","subarea_name":"近世村のおおよその範囲","feature_key":"village:K19G02S00096","accuracy_note":"2015年農業集落境界をもとに復元した概略範囲で、江戸時代の正確な村境ではありません"},"geometry":{"type":"Polygon","coordinates":[[[138.279419,36.671173],[138.281479,36.670071],[138.281479,36.668419],[138.283539,36.668419],[138.280106,36.659606],[138.275299,36.659055],[138.273239,36.656852],[138.265686,36.65575],[138.267059,36.659055],[138.273926,36.671173],[138.279419,36.671173]]]}},{"type":"Feature","properties":{"layer_id":"bakumatsu_villages","name":"栃倉村","address":"信濃 高井郡","source":"Geoshape 幕末期近世村領域データセット vector tiles (z7 extraction)","subarea_name":"近世村のおおよその範囲","feature_key":"village:K19G02S00071","accuracy_note":"2015年農業集落境界をもとに復元した概略範囲で、江戸時代の正確な村境ではありません"},"geometry":{"type":"MultiPolygon","coordinates":[[[[138.329544,36.623794],[138.330231,36.622692],[138.332977,36.62159],[138.331604,36.620488],[138.335037,36.614976],[138.335724,36.612772],[138.332291,36.610567],[138.322678,36.607811],[138.321991,36.609465],[138.324051,36.613323],[138.324738,36.617732],[138.322678,36.622141],[138.329544,36.622141],[138.329544,36.623794]]],[[[138.329544,36.623794],[138.330231,36.622692],[138.332977,36.62159],[138.331604,36.620488],[138.335037,36.614976],[138.335724,36.612772],[138.332291,36.610567],[138.322678,36.607811],[138.321991,36.609465],[138.324051,36.613323],[138.324738,36.617732],[138.322678,36.622141],[138.329544,36.622141],[138.329544,36.623794]]]]}},{"type":"Feature","properties":{"layer_id":"bakumatsu_villages","name":"沼目村","address":"信濃 高井郡","source":"Geoshape 幕末期近世村領域データセット vector tiles (z7 extraction)","subarea_name":"近世村のおおよその範囲","feature_key":"village:K19G02S00123","accuracy_note":"2015年農業集落境界をもとに復元した概略範囲で、江戸時代の正確な村境ではありません"},"geometry":{"type":"Polygon","coordinates":[[[138.288345,36.674477],[138.290405,36.671173],[138.291092,36.672825],[138.291779,36.672274],[138.292465,36.671173],[138.291779,36.66897],[138.293152,36.670622],[138.296585,36.66952],[138.294525,36.664563],[138.296585,36.664013],[138.294525,36.661809],[138.292465,36.661259],[138.289719,36.661809],[138.289719,36.665114],[138.287659,36.665665],[138.288345,36.666767],[138.285599,36.667317],[138.286285,36.668419],[138.283539,36.66897],[138.288345,36.674477]]]}},{"type":"Feature","properties":{"layer_id":"bakumatsu_villages","name":"灰野村","address":"信濃 高井郡","source":"Geoshape 幕末期近世村領域データセット vector tiles (z7 extraction)","subarea_name":"近世村のおおよその範囲","feature_key":"village:K19G02S00118","accuracy_note":"2015年農業集落境界をもとに復元した概略範囲で、江戸時代の正確な村境ではありません"},"geometry":{"type":"MultiPolygon","coordinates":[[[[138.33847,36.642529],[138.34259,36.638121],[138.341217,36.63206],[138.330917,36.633162],[138.332977,36.639223],[138.335724,36.639774],[138.33847,36.642529]]],[[[138.34259,36.63757],[138.33847,36.642529],[138.337784,36.645834],[138.341904,36.646385],[138.343277,36.648589],[138.343964,36.648589],[138.345337,36.643631],[138.343964,36.640325],[138.34465,36.639774],[138.34465,36.637019],[138.34671,36.635917],[138.343964,36.631509],[138.341217,36.63206],[138.34259,36.637019],[138.34259,36.63757]]],[[[138.346024,36.648589],[138.35495,36.648038],[138.360443,36.645834],[138.352203,36.641427],[138.349457,36.638121],[138.348083,36.634815],[138.35083,36.630407],[138.35083,36.628754],[138.343964,36.631509],[138.34671,36.635917],[138.34465,36.637019],[138.34465,36.639774],[138.343964,36.640325],[138.345337,36.643631],[138.343964,36.648589],[138.346024,36.648589]]],[[[138.356323,36.644182],[138.353577,36.639774],[138.354263,36.634815],[138.34877,36.633162],[138.349457,36.638121],[138.352203,36.641427],[138.356323,36.644182]]],[[[138.360443,36.645834],[138.370056,36.644733],[138.36937,36.641427],[138.362503,36.636468],[138.354263,36.634815],[138.353577,36.639774],[138.356323,36.644182],[138.360443,36.645834]]],[[[138.354263,36.634815],[138.35907,36.630958],[138.356323,36.627652],[138.35083,36.628754],[138.35083,36.630407],[138.34877,36.633162],[138.351517,36.634815],[138.354263,36.634815]]],[[[138.364563,36.63757],[138.362503,36.63206],[138.36319,36.628203],[138.36113,36.627101],[138.36113,36.624896],[138.35907,36.625448],[138.356323,36.627652],[138.35907,36.630958],[138.354263,36.634815],[138.359756,36.635917],[138.364563,36.63757]]],[[[138.385162,36.648589],[138.385162,36.646385],[138.387222,36.644182],[138.390656,36.638121],[138.391342,36.635366],[138.393402,36.633713],[138.400955,36.632611],[138.403702,36.629856],[138.410568,36.628754],[138.411255,36.627101],[138.412628,36.627101],[138.414001,36.623243],[138.417435,36.62159],[138.419495,36.623243],[138.422928,36.618834],[138.429794,36.618283],[138.433914,36.612772],[138.437347,36.612221],[138.438721,36.611118],[138.441467,36.611118],[138.438721,36.605606],[138.440781,36.600094],[138.435287,36.600645],[138.428421,36.597889],[138.427734,36.597338],[138.425674,36.597889],[138.418808,36.601748],[138.415375,36.601197],[138.394089,36.605606],[138.392715,36.60726],[138.388596,36.609465],[138.389969,36.609465],[138.391342,36.613323],[138.390656,36.61663],[138.389282,36.617181],[138.387222,36.61663],[138.387222,36.617732],[138.385162,36.615528],[138.381729,36.616079],[138.380356,36.617181],[138.378983,36.619937],[138.375549,36.622141],[138.370743,36.623794],[138.370056,36.622692],[138.366623,36.623794],[138.363876,36.623243],[138.36113,36.624896],[138.36113,36.627101],[138.36319,36.628203],[138.361816,36.630958],[138.363876,36.636468],[138.368683,36.640325],[138.370056,36.644733],[138.373489,36.647487],[138.381042,36.646936],[138.385162,36.648589]]],[[[138.34259,36.63757],[138.34259,36.637019],[138.341217,36.63206],[138.330917,36.633162],[138.332977,36.639223],[138.335037,36.639223],[138.337784,36.641978],[138.339157,36.641978],[138.34259,36.63757]]],[[[138.34259,36.63757],[138.339157,36.641978],[138.34465,36.641978],[138.343964,36.640325],[138.34465,36.639774],[138.34465,36.637019],[138.34671,36.635917],[138.343277,36.631509],[138.341217,36.63206],[138.34259,36.637019],[138.34259,36.63757]]],[[[138.353577,36.641978],[138.34877,36.637019],[138.34877,36.633162],[138.35083,36.630407],[138.35083,36.628754],[138.343964,36.631509],[138.34671,36.635917],[138.34465,36.637019],[138.34465,36.639774],[138.343964,36.640325],[138.34465,36.641978],[138.353577,36.641978]]],[[[138.355637,36.641978],[138.353577,36.639774],[138.354263,36.634815],[138.34877,36.633162],[138.349457,36.638121],[138.352203,36.641427],[138.355637,36.641978]]],[[[138.36937,36.641978],[138.367996,36.639774],[138.364563,36.63757],[138.359756,36.635917],[138.354263,36.634815],[138.353577,36.639774],[138.355637,36.641978],[138.36937,36.641978]]],[[[138.354263,36.634815],[138.35907,36.630958],[138.356323,36.627652],[138.35083,36.628754],[138.35083,36.630407],[138.34877,36.633162],[138.351517,36.634815],[138.354263,36.634815]]],[[[138.364563,36.63757],[138.362503,36.63206],[138.36319,36.628203],[138.36113,36.627101],[138.36113,36.624896],[138.35907,36.625448],[138.356323,36.627652],[138.35907,36.630958],[138.354263,36.634815],[138.359756,36.635917],[138.364563,36.63757]]],[[[138.388596,36.641978],[138.391342,36.635366],[138.393402,36.633713],[138.400955,36.632611],[138.403702,36.629856],[138.410568,36.628754],[138.411255,36.627101],[138.412628,36.627101],[138.414001,36.623243],[138.417435,36.62159],[138.419495,36.623243],[138.422928,36.618834],[138.429794,36.618283],[138.433914,36.612772],[138.437347,36.612221],[138.438721,36.611118],[138.441467,36.611118],[138.438721,36.605606],[138.440781,36.600094],[138.435287,36.600645],[138.428421,36.597889],[138.427734,36.597338],[138.425674,36.597889],[138.418808,36.601748],[138.415375,36.601197],[138.394089,36.605606],[138.392715,36.60726],[138.388596,36.609465],[138.389969,36.609465],[138.391342,36.613323],[138.390656,36.61663],[138.389282,36.617181],[138.387222,36.61663],[138.387222,36.617732],[138.385162,36.615528],[138.381729,36.616079],[138.380356,36.617181],[138.378983,36.619937],[138.375549,36.622141],[138.370743,36.623794],[138.370056,36.622692],[138.366623,36.623794],[138.363876,36.623243],[138.36113,36.624896],[138.36113,36.627101],[138.36319,36.628203],[138.361816,36.630958],[138.363876,36.636468],[138.36937,36.641978],[138.388596,36.641978]]]]}},{"type":"Feature","properties":{"layer_id":"bakumatsu_villages","name":"相之島村","address":"信濃 高井郡","source":"Geoshape 幕末期近世村領域データセット vector tiles (z7 extraction)","subarea_name":"近世村のおおよその範囲","feature_key":"village:K19G02S00097","accuracy_note":"2015年農業集落境界をもとに復元した概略範囲で、江戸時代の正確な村境ではありません"},"geometry":{"type":"Polygon","coordinates":[[[138.282852,36.687693],[138.287659,36.687143],[138.290405,36.680535],[138.289719,36.677781],[138.288345,36.673926],[138.284225,36.670622],[138.283539,36.668419],[138.281479,36.668419],[138.281479,36.670071],[138.279419,36.671173],[138.273926,36.671173],[138.277359,36.678883],[138.279419,36.686592],[138.282852,36.686592],[138.282852,36.687693]]]}},{"type":"Feature","properties":{"layer_id":"bakumatsu_villages","name":"福島村","address":"信濃 高井郡","source":"Geoshape 幕末期近世村領域データセット vector tiles (z7 extraction)","subarea_name":"近世村のおおよその範囲","feature_key":"village:K19G02S00109","accuracy_note":"2015年農業集落境界をもとに復元した概略範囲で、江戸時代の正確な村境ではありません"},"geometry":{"type":"MultiPolygon","coordinates":[[[[138.276672,36.659055],[138.271179,36.650793],[138.269806,36.646385],[138.273926,36.633713],[138.272552,36.634815],[138.267746,36.635917],[138.267746,36.637019],[138.25676,36.640325],[138.265686,36.65575],[138.273239,36.656852],[138.275299,36.659055],[138.276672,36.659055]]],[[[138.271179,36.641978],[138.273926,36.633713],[138.272552,36.634815],[138.267746,36.635917],[138.267746,36.637019],[138.25676,36.640325],[138.257446,36.641978],[138.271179,36.641978]]]]}},{"type":"Feature","properties":{"layer_id":"bakumatsu_villages","name":"米子村","address":"信濃 高井郡","source":"Geoshape 幕末期近世村領域データセット vector tiles (z7 extraction)","subarea_name":"近世村のおおよその範囲","feature_key":"village:K19G02S00072","accuracy_note":"2015年農業集落境界をもとに復元した概略範囲で、江戸時代の正確な村境ではありません"},"geometry":{"type":"MultiPolygon","coordinates":[[[[138.347397,36.625999],[138.358383,36.62159],[138.359756,36.619386],[138.36731,36.614976],[138.372803,36.613874],[138.376923,36.613874],[138.383102,36.610016],[138.387909,36.609465],[138.394089,36.605606],[138.415375,36.601197],[138.418808,36.601748],[138.425674,36.597889],[138.427734,36.597338],[138.425674,36.59403],[138.426361,36.587966],[138.424301,36.581901],[138.420181,36.578592],[138.420181,36.574181],[138.422928,36.573078],[138.428421,36.569218],[138.428421,36.563703],[138.425674,36.560945],[138.428421,36.558188],[138.428421,36.556533],[138.426361,36.553775],[138.399582,36.553775],[138.403015,36.559291],[138.404388,36.571424],[138.402328,36.574181],[138.399582,36.574732],[138.396149,36.57749],[138.395462,36.580247],[138.392029,36.58576],[138.388596,36.589068],[138.389282,36.590722],[138.386536,36.592376],[138.385849,36.591274],[138.384476,36.591825],[138.383789,36.592928],[138.384476,36.593479],[138.383789,36.59403],[138.384476,36.595684],[138.383102,36.597889],[138.380356,36.597889],[138.378983,36.600094],[138.372803,36.600094],[138.372116,36.601748],[138.36731,36.603402],[138.35907,36.608914],[138.355637,36.609465],[138.35289,36.61167],[138.35083,36.615528],[138.348083,36.61663],[138.34877,36.617732],[138.343964,36.618834],[138.343277,36.620488],[138.34053,36.622692],[138.33847,36.622141],[138.341217,36.624896],[138.345337,36.625999],[138.347397,36.625999]]],[[[138.347397,36.625999],[138.358383,36.62159],[138.359756,36.619386],[138.36731,36.614976],[138.372803,36.613874],[138.376923,36.613874],[138.383102,36.610016],[138.387909,36.609465],[138.394089,36.605606],[138.415375,36.601197],[138.418808,36.601748],[138.425674,36.597889],[138.427734,36.597338],[138.425674,36.59403],[138.426361,36.587966],[138.424301,36.581901],[138.420181,36.578592],[138.420181,36.574181],[138.422928,36.573078],[138.428421,36.569218],[138.428421,36.563703],[138.425674,36.560945],[138.428421,36.558188],[138.428421,36.556533],[138.425674,36.551569],[138.418808,36.545501],[138.417435,36.543846],[138.414001,36.543294],[138.410568,36.541088],[138.407135,36.54164],[138.403702,36.546604],[138.397522,36.548811],[138.403015,36.559291],[138.404388,36.571424],[138.402328,36.574181],[138.399582,36.574732],[138.396149,36.57749],[138.395462,36.580247],[138.392029,36.58576],[138.388596,36.589068],[138.389282,36.590722],[138.386536,36.592376],[138.385849,36.591274],[138.384476,36.591825],[138.383789,36.592928],[138.384476,36.593479],[138.383789,36.59403],[138.384476,36.595684],[138.383102,36.597889],[138.380356,36.597889],[138.378983,36.600094],[138.372803,36.600094],[138.372116,36.601748],[138.36731,36.603402],[138.35907,36.608914],[138.355637,36.609465],[138.35289,36.61167],[138.35083,36.615528],[138.348083,36.61663],[138.34877,36.617732],[138.343964,36.618834],[138.343277,36.620488],[138.34053,36.622692],[138.33847,36.622141],[138.341217,36.624896],[138.345337,36.625999],[138.347397,36.625999]]]]}},{"type":"Feature","properties":{"layer_id":"bakumatsu_villages","name":"米持村","address":"信濃 高井郡","source":"Geoshape 幕末期近世村領域データセット vector tiles (z7 extraction)","subarea_name":"近世村のおおよその範囲","feature_key":"village:K19G02S00064","accuracy_note":"2015年農業集落境界をもとに復元した概略範囲で、江戸時代の正確な村境ではありません"},"geometry":{"type":"MultiPolygon","coordinates":[[[[138.288345,36.646936],[138.296585,36.643631],[138.303452,36.641978],[138.297958,36.638121],[138.295898,36.638672],[138.294525,36.636468],[138.293152,36.637019],[138.285599,36.643631],[138.288345,36.646936]]],[[[138.303452,36.641978],[138.297958,36.638121],[138.295898,36.638672],[138.294525,36.636468],[138.293152,36.637019],[138.286972,36.641978],[138.303452,36.641978]]]]}},{"type":"Feature","properties":{"layer_id":"bakumatsu_villages","name":"野辺村","address":"信濃 高井郡","source":"Geoshape 幕末期近世村領域データセット vector tiles (z7 extraction)","subarea_name":"近世村のおおよその範囲","feature_key":"village:K19G02S00119","accuracy_note":"2015年農業集落境界をもとに復元した概略範囲で、江戸時代の正確な村境ではありません"},"geometry":{"type":"MultiPolygon","coordinates":[[[[138.303452,36.641978],[138.311005,36.639774],[138.315811,36.638672],[138.312378,36.630407],[138.311691,36.630958],[138.311005,36.630407],[138.306198,36.63206],[138.304825,36.633713],[138.293839,36.634264],[138.293152,36.637019],[138.294525,36.636468],[138.295898,36.638672],[138.297958,36.638121],[138.303452,36.641978]]],[[[138.315811,36.638672],[138.323364,36.637019],[138.326797,36.635366],[138.328171,36.630407],[138.332291,36.627652],[138.331604,36.625448],[138.330917,36.625448],[138.330231,36.623794],[138.323364,36.62655],[138.315125,36.631509],[138.314438,36.629856],[138.312378,36.630407],[138.315811,36.638672]]],[[[138.303452,36.641978],[138.311005,36.639774],[138.315811,36.638672],[138.312378,36.630407],[138.311691,36.630958],[138.311005,36.630407],[138.306198,36.63206],[138.304825,36.633713],[138.293839,36.634264],[138.293152,36.637019],[138.294525,36.636468],[138.295898,36.638672],[138.297958,36.638121],[138.303452,36.641978]]],[[[138.315811,36.638672],[138.323364,36.637019],[138.326797,36.635366],[138.328171,36.630407],[138.332291,36.627652],[138.331604,36.625448],[138.330917,36.625448],[138.330231,36.623794],[138.323364,36.62655],[138.315125,36.631509],[138.314438,36.629856],[138.312378,36.630407],[138.315811,36.638672]]]]}},{"type":"Feature","properties":{"layer_id":"bakumatsu_villages","name":"須坂村","address":"信濃 高井郡","source":"Geoshape 幕末期近世村領域データセット vector tiles (z7 extraction)","subarea_name":"近世村のおおよその範囲","feature_key":"village:K19G02S00130","accuracy_note":"2015年農業集落境界をもとに復元した概略範囲で、江戸時代の正確な村境ではありません"},"geometry":{"type":"MultiPolygon","coordinates":[[[[138.295898,36.66897],[138.299332,36.667868],[138.301392,36.665665],[138.300705,36.664013],[138.302078,36.664013],[138.299332,36.66236],[138.298645,36.660708],[138.294525,36.661809],[138.296585,36.664013],[138.294525,36.664563],[138.295898,36.66897]]],[[[138.303452,36.664013],[138.304138,36.661809],[138.307571,36.661259],[138.310318,36.656301],[138.304825,36.656852],[138.302765,36.657954],[138.302765,36.659606],[138.298645,36.660708],[138.299332,36.66236],[138.302078,36.664013],[138.303452,36.664013]]],[[[138.302765,36.657954],[138.307571,36.656852],[138.306885,36.654649],[138.301392,36.654649],[138.302765,36.657954]]],[[[138.300018,36.653547],[138.300705,36.653547],[138.301392,36.654649],[138.306885,36.654649],[138.304138,36.650793],[138.297958,36.652445],[138.300018,36.653547]]],[[[138.308258,36.660708],[138.311691,36.66236],[138.314438,36.661259],[138.313065,36.659606],[138.313751,36.656852],[138.312378,36.656301],[138.311691,36.657403],[138.308945,36.658505],[138.308258,36.660708]]],[[[138.311691,36.657403],[138.312378,36.65575],[138.311691,36.6552],[138.309631,36.657403],[138.311691,36.657403]]],[[[138.307571,36.656852],[138.310318,36.656301],[138.311005,36.6552],[138.309631,36.654649],[138.306198,36.649691],[138.304825,36.64914],[138.304138,36.650242],[138.306885,36.653547],[138.307571,36.656852]]],[[[138.311691,36.6552],[138.312378,36.654098],[138.311005,36.653547],[138.308945,36.650242],[138.306198,36.649691],[138.309631,36.654649],[138.311691,36.6552]]],[[[138.314438,36.654098],[138.314438,36.652996],[138.313065,36.652996],[138.310318,36.64914],[138.308945,36.650242],[138.311005,36.653547],[138.314438,36.654098]]],[[[138.313065,36.65575],[138.313065,36.654649],[138.311691,36.654649],[138.311691,36.65575],[138.313065,36.65575]]],[[[138.315125,36.661809],[138.317871,36.658505],[138.313751,36.656852],[138.313065,36.659606],[138.314438,36.661259],[138.315125,36.661809]]],[[[138.317871,36.658505],[138.317871,36.654649],[138.313751,36.65575],[138.313751,36.656852],[138.317871,36.658505]]],[[[138.314438,36.65575],[138.314438,36.654098],[138.312378,36.654098],[138.311691,36.6552],[138.314438,36.65575]]],[[[138.315125,36.652445],[138.313065,36.650793],[138.311005,36.648589],[138.310318,36.64914],[138.313065,36.652996],[138.315125,36.652445]]],[[[138.315125,36.652445],[138.317184,36.652445],[138.315811,36.651894],[138.315125,36.652445]]],[[[138.320618,36.65575],[138.321991,36.654649],[138.321304,36.654098],[138.321991,36.651894],[138.319931,36.651894],[138.314438,36.652996],[138.314438,36.65575],[138.317871,36.654649],[138.317871,36.65575],[138.320618,36.65575]]]]}},{"type":"Feature","properties":{"layer_id":"bakumatsu_villages","name":"高梨村","address":"信濃 高井郡","source":"Geoshape 幕末期近世村領域データセット vector tiles (z7 extraction)","subarea_name":"近世村のおおよその範囲","feature_key":"village:K19G02S00124","accuracy_note":"2015年農業集落境界をもとに復元した概略範囲で、江戸時代の正確な村境ではありません"},"geometry":{"type":"Polygon","coordinates":[[[138.289032,36.660157],[138.291779,36.65575],[138.294525,36.654649],[138.293152,36.654649],[138.291779,36.651343],[138.286285,36.654649],[138.284912,36.651894],[138.283539,36.652996],[138.282852,36.650793],[138.280106,36.651343],[138.280106,36.653547],[138.275986,36.657954],[138.278732,36.659606],[138.280792,36.660157],[138.280792,36.659055],[138.284225,36.659055],[138.287659,36.656852],[138.289032,36.660157]]]}},{"type":"Feature","properties":{"layer_id":"edo_post_stations","name":"仁礼","address":"","source":"CODH 江戸宿場データセット Version 1 (2026-08)","feature_key":"post:R316-009"},"geometry":{"coordinates":[138.33784,36.603992],"type":"Point"}},{"type":"Feature","properties":{"layer_id":"edo_post_stations","name":"福島","address":"","source":"CODH 江戸宿場データセット Version 1 (2026-08)","feature_key":"post:R316-010"},"geometry":{"coordinates":[138.264978,36.641046],"type":"Point"}},{"type":"Feature","properties":{"layer_id":"historical_sites_archaeology","name":"井上氏城跡","address":"長野県 須坂市 大字井上","source":"Geoshape 日本歴史地名大系 施設・地点項目データセット 2025-05-15","subarea_name":"城跡","feature_key":"05_castle_ruins.geojson:200000349300","subtype":"城跡"},"geometry":{"type":"Point","coordinates":[138.285309,36.634672]}},{"type":"Feature","properties":{"layer_id":"historical_sites_archaeology","name":"古城","address":"長野県 須坂市 大字日滝","source":"Geoshape 日本歴史地名大系 施設・地点項目データセット 2025-05-15","subarea_name":"城跡","feature_key":"05_castle_ruins.geojson:200000344100","subtype":"城跡"},"geometry":{"type":"Point","coordinates":[138.324011,36.662729]}},{"type":"Feature","properties":{"layer_id":"historical_sites_archaeology","name":"小河原氏館跡","address":"長野県 須坂市 大字小河原","source":"Geoshape 日本歴史地名大系 施設・地点項目データセット 2025-05-15","subarea_name":"史跡","feature_key":"09_historic_sites.geojson:200000346600","subtype":"史跡"},"geometry":{"type":"Point","coordinates":[138.304331,36.667287]}},{"type":"Feature","properties":{"layer_id":"historical_sites_archaeology","name":"石小屋洞穴遺跡","address":"長野県 須坂市 大字仁礼","source":"Geoshape 日本歴史地名大系 施設・地点項目データセット 2025-05-15","subarea_name":"遺跡","feature_key":"08_archaeological_sites.geojson:200000347800","subtype":"遺跡"},"geometry":{"type":"Point","coordinates":[138.348936,36.579286]}},{"type":"Feature","properties":{"layer_id":"historical_sites_archaeology","name":"鎧塚古墳群","address":"長野県 須坂市 大字八町","source":"Geoshape 日本歴史地名大系 施設・地点項目データセット 2025-05-15","subarea_name":"古墳","feature_key":"06_kofun.geojson:200000348400","subtype":"古墳"},"geometry":{"type":"Point","coordinates":[138.324048,36.623736]}},{"type":"Feature","properties":{"layer_id":"historical_sites_archaeology","name":"長者","address":"長野県 須坂市 大字塩川","source":"Geoshape 日本歴史地名大系 施設・地点項目データセット 2025-05-15","subarea_name":"史跡","feature_key":"09_historic_sites.geojson:200000345400","subtype":"史跡"},"geometry":{"type":"Point","coordinates":[138.297949,36.653223]}},{"type":"Feature","properties":{"layer_id":"historical_sites_archaeology","name":"高梨城跡","address":"長野県 須坂市 大字高梨","source":"Geoshape 日本歴史地名大系 施設・地点項目データセット 2025-05-15","subarea_name":"城跡","feature_key":"05_castle_ruins.geojson:200000345600","subtype":"城跡"},"geometry":{"type":"Point","coordinates":[138.285383,36.655412]}},{"type":"Feature","properties":{"layer_id":"historical_temples_shrines","name":"万竜寺","address":"長野県 須坂市 大字亀倉426番地","source":"Geoshape 日本歴史地名大系 施設・地点項目データセット 2025-05-15","subarea_name":"寺院","feature_key":"01_temples.geojson:200000347400","subtype":"寺院"},"geometry":{"type":"Point","coordinates":[138.345267,36.615358]}},{"type":"Feature","properties":{"layer_id":"historical_temples_shrines","name":"勝善寺","address":"長野県 須坂市 大字須坂122番地","source":"Geoshape 日本歴史地名大系 施設・地点項目データセット 2025-05-15","subarea_name":"寺院","feature_key":"01_temples.geojson:200000343800","subtype":"寺院"},"geometry":{"type":"Point","coordinates":[138.311661,36.652588]}},{"type":"Feature","properties":{"layer_id":"historical_temples_shrines","name":"墨坂神社","address":"長野県 須坂市 大字小山字八幡1593の2番地","source":"Geoshape 日本歴史地名大系 施設・地点項目データセット 2025-05-15","subarea_name":"神社","feature_key":"02_shrines.geojson:200000343700","subtype":"神社"},"geometry":{"type":"Point","coordinates":[138.311895,36.656472]}},{"type":"Feature","properties":{"layer_id":"historical_temples_shrines","name":"墨坂神社","address":"長野県 須坂市 大字小山字八幡1593の2番地","source":"Geoshape 日本歴史地名大系 施設・地点項目データセット 2025-05-15","subarea_name":"神社","feature_key":"02_shrines.geojson:200000344900","subtype":"神社"},"geometry":{"type":"Point","coordinates":[138.29925,36.648381]}},{"type":"Feature","properties":{"layer_id":"historical_temples_shrines","name":"安養寺","address":"長野県 須坂市 大字井上2598番地","source":"Geoshape 日本歴史地名大系 施設・地点項目データセット 2025-05-15","subarea_name":"寺院","feature_key":"01_temples.geojson:200000170600","subtype":"寺院"},"geometry":{"type":"Point","coordinates":[138.280899,36.630016]}},{"type":"Feature","properties":{"layer_id":"historical_temples_shrines","name":"安養寺","address":"長野県 須坂市 大字井上2598番地","source":"Geoshape 日本歴史地名大系 施設・地点項目データセット 2025-05-15","subarea_name":"寺院","feature_key":"01_temples.geojson:200000213900","subtype":"寺院"},"geometry":{"type":"Point","coordinates":[138.280899,36.630016]}},{"type":"Feature","properties":{"layer_id":"historical_temples_shrines","name":"小坂神社","address":"長野県 須坂市 井上大字字小坂2578番地","source":"Geoshape 日本歴史地名大系 施設・地点項目データセット 2025-05-15","subarea_name":"神社","feature_key":"02_shrines.geojson:200000349400","subtype":"神社"},"geometry":{"type":"Point","coordinates":[138.283904,36.631577]}},{"type":"Feature","properties":{"layer_id":"historical_temples_shrines","name":"左願寺廃寺跡","address":"長野県 須坂市 大字小河原","source":"Geoshape 日本歴史地名大系 施設・地点項目データセット 2025-05-15","subarea_name":"廃寺・廃社","feature_key":"03_abandoned_temples_shrines.geojson:200000346500","subtype":"廃寺・廃社"},"geometry":{"type":"Point","coordinates":[138.301458,36.674752]}},{"type":"Feature","properties":{"layer_id":"historical_temples_shrines","name":"普願寺","address":"長野県 須坂市 大字小山353番地","source":"Geoshape 日本歴史地名大系 施設・地点項目データセット 2025-05-15","subarea_name":"寺院","feature_key":"01_temples.geojson:200000345100","subtype":"寺院"},"geometry":{"type":"Point","coordinates":[138.318008,36.647289]}},{"type":"Feature","properties":{"layer_id":"historical_temples_shrines","name":"沼目薬師","address":"長野県 須坂市 大字沼目","source":"Geoshape 日本歴史地名大系 施設・地点項目データセット 2025-05-15","subarea_name":"寺院","feature_key":"01_temples.geojson:200000346000","subtype":"寺院"},"geometry":{"type":"Point","coordinates":[138.29262,36.666386]}},{"type":"Feature","properties":{"layer_id":"historical_temples_shrines","name":"浄運寺","address":"長野県 須坂市 大字井上2618番地","source":"Geoshape 日本歴史地名大系 施設・地点項目データセット 2025-05-15","subarea_name":"寺院","feature_key":"01_temples.geojson:200000349500","subtype":"寺院"},"geometry":{"type":"Point","coordinates":[138.284653,36.628971]}},{"type":"Feature","properties":{"layer_id":"historical_temples_shrines","name":"満竜寺","address":"長野県 須坂市 大字日滝667番地","source":"Geoshape 日本歴史地名大系 施設・地点項目データセット 2025-05-15","subarea_name":"寺院","feature_key":"01_temples.geojson:200000344300","subtype":"寺院"},"geometry":{"type":"Point","coordinates":[138.334594,36.660375]}},{"type":"Feature","properties":{"layer_id":"historical_temples_shrines","name":"米子不動","address":"長野県 須坂市 大字米子","source":"Geoshape 日本歴史地名大系 施設・地点項目データセット 2025-05-15","subarea_name":"寺院","feature_key":"01_temples.geojson:200000346900","subtype":"寺院"},"geometry":{"type":"Point","coordinates":[138.409409,36.583385]}},{"type":"Feature","properties":{"layer_id":"historical_temples_shrines","name":"興国寺","address":"長野県 須坂市 臥竜三丁目3番","source":"Geoshape 日本歴史地名大系 施設・地点項目データセット 2025-05-15","subarea_name":"寺院","feature_key":"01_temples.geojson:200000345000","subtype":"寺院"},"geometry":{"type":"Point","coordinates":[138.316071,36.641445]}},{"type":"Feature","properties":{"layer_id":"historical_temples_shrines","name":"越智神社","address":"長野県 中野市 大字越字屋敷添740番地","source":"Geoshape 日本歴史地名大系 施設・地点項目データセット 2025-05-15","subarea_name":"神社","feature_key":"02_shrines.geojson:200000349100","subtype":"神社"},"geometry":{"type":"Point","coordinates":[138.283681,36.640657]}},{"type":"Feature","properties":{"layer_id":"historical_temples_shrines","name":"霧原大元神社","address":"長野県 須坂市 上八町大字字竹原844番地","source":"Geoshape 日本歴史地名大系 施設・地点項目データセット 2025-05-15","subarea_name":"神社","feature_key":"02_shrines.geojson:200000348300","subtype":"神社"},"geometry":{"type":"Point","coordinates":[138.314989,36.627346]}},{"type":"Feature","properties":{"layer_id":"historical_temples_shrines","name":"高顕寺","address":"長野県 須坂市 大字仁礼868番地","source":"Geoshape 日本歴史地名大系 施設・地点項目データセット 2025-05-15","subarea_name":"寺院","feature_key":"01_temples.geojson:200000347700","subtype":"寺院"},"geometry":{"type":"Point","coordinates":[138.334124,36.60446]}}]}