{"type":"FeatureCollection","municipality_code":"20383","pref":"長野県","city":"箕輪町","layer_counts":{"bakumatsu_villages":15,"edo_post_stations":1,"historical_sites_archaeology":9,"historical_temples_shrines":2},"total_features":27,"features":[{"type":"Feature","properties":{"layer_id":"bakumatsu_villages","name":"三日町村","address":"信濃 伊那郡","source":"Geoshape 幕末期近世村領域データセット vector tiles (z7 extraction)","subarea_name":"近世村のおおよその範囲","feature_key":"village:K19G10S00028","accuracy_note":"2015年農業集落境界をもとに復元した概略範囲で、江戸時代の正確な村境ではありません"},"geometry":{"type":"MultiPolygon","coordinates":[[[[137.998581,35.91964],[138.002701,35.919084],[138.005447,35.916304],[138.008194,35.916304],[138.013687,35.913523],[138.021927,35.913523],[138.02124,35.910186],[138.01918,35.908518],[138.015747,35.909074],[138.01712,35.907962],[138.013687,35.907962],[138.010254,35.905737],[138.006134,35.906849],[138.000641,35.906293],[137.999954,35.902956],[137.994461,35.9024],[137.995148,35.905181],[137.993774,35.905737],[137.993774,35.907962],[137.995148,35.908518],[137.995148,35.90963],[137.996521,35.910186],[137.995148,35.914079],[137.995148,35.915747],[137.996521,35.915747],[137.997208,35.917416],[137.996521,35.918528],[137.998581,35.91964]]],[[[137.995834,35.901287],[137.995834,35.900175],[137.999268,35.900731],[137.998581,35.899063],[137.993088,35.899063],[137.993774,35.900731],[137.995834,35.901287]]],[[[137.999268,35.903512],[137.999954,35.901844],[137.995834,35.900175],[137.995834,35.901287],[137.993774,35.900731],[137.994461,35.9024],[137.999268,35.903512]]],[[[137.997208,35.892944],[137.994461,35.887381],[137.993774,35.887381],[137.991714,35.884043],[137.991714,35.885712],[137.990341,35.886825],[137.989655,35.886825],[137.989655,35.885156],[137.986221,35.885712],[137.986908,35.886825],[137.986221,35.887381],[137.988281,35.895169],[137.992401,35.894057],[137.993088,35.899063],[137.998581,35.899063],[137.999954,35.901844],[138.000641,35.899063],[137.999268,35.89795],[137.999954,35.896838],[137.998581,35.896838],[137.998581,35.894057],[137.997208,35.892944]]],[[[138.034973,35.918528],[138.03772,35.917416],[138.041153,35.913523],[138.045959,35.914079],[138.044586,35.910742],[138.042526,35.909074],[138.040466,35.904625],[138.037033,35.901844],[138.037033,35.89795],[138.03154,35.895169],[138.03154,35.894057],[138.028107,35.895725],[138.026047,35.894057],[138.019867,35.899063],[138.015747,35.89795],[138.009567,35.89795],[138.007507,35.899619],[138.003387,35.898506],[138.002014,35.899063],[137.999954,35.899063],[138.000641,35.905737],[138.006134,35.906849],[138.010254,35.905737],[138.013687,35.907962],[138.01712,35.907962],[138.015747,35.909074],[138.01918,35.908518],[138.02124,35.910186],[138.021927,35.913523],[138.0233,35.911855],[138.024673,35.911855],[138.02948,35.91686],[138.034973,35.918528]]]]}},{"type":"Feature","properties":{"layer_id":"bakumatsu_villages","name":"上古田村","address":"信濃 伊那郡","source":"Geoshape 幕末期近世村領域データセット vector tiles (z7 extraction)","subarea_name":"近世村のおおよその範囲","feature_key":"village:K19G10S00008","accuracy_note":"2015年農業集落境界をもとに復元した概略範囲で、江戸時代の正確な村境ではありません"},"geometry":{"type":"Polygon","coordinates":[[[137.917557,35.940768],[137.92099,35.934653],[137.924423,35.931317],[137.930603,35.929649],[137.936783,35.926313],[137.946396,35.925757],[137.950516,35.925757],[137.955322,35.927981],[137.956009,35.923532],[137.955322,35.917972],[137.950516,35.91964],[137.938156,35.918528],[137.926483,35.920196],[137.92305,35.920752],[137.921677,35.92242],[137.918243,35.92242],[137.911377,35.925201],[137.90863,35.923532],[137.901764,35.923532],[137.888031,35.927981],[137.897644,35.933541],[137.899704,35.932429],[137.903137,35.931873],[137.907257,35.934097],[137.909317,35.934097],[137.913437,35.939656],[137.917557,35.940768]]]}},{"type":"Feature","properties":{"layer_id":"bakumatsu_villages","name":"下古田村","address":"信濃 伊那郡","source":"Geoshape 幕末期近世村領域データセット vector tiles (z7 extraction)","subarea_name":"近世村のおおよその範囲","feature_key":"village:K19G10S00007","accuracy_note":"2015年農業集落境界をもとに復元した概略範囲で、江戸時代の正確な村境ではありません"},"geometry":{"type":"Polygon","coordinates":[[[137.93335,35.951886],[137.942276,35.942992],[137.945709,35.941324],[137.953949,35.935765],[137.955322,35.935765],[137.957382,35.937432],[137.960815,35.936876],[137.958755,35.934097],[137.956009,35.932429],[137.955322,35.927981],[137.950516,35.925757],[137.938156,35.926313],[137.930603,35.929649],[137.924423,35.931317],[137.92099,35.934653],[137.917557,35.940768],[137.922363,35.945215],[137.926483,35.945771],[137.928543,35.948551],[137.93335,35.951886]]]}},{"type":"Feature","properties":{"layer_id":"bakumatsu_villages","name":"中原新田村","address":"信濃 伊那郡","source":"Geoshape 幕末期近世村領域データセット vector tiles (z7 extraction)","subarea_name":"近世村のおおよその範囲","feature_key":"village:K19G10S00025","accuracy_note":"2015年農業集落境界をもとに復元した概略範囲で、江戸時代の正確な村境ではありません"},"geometry":{"type":"Polygon","coordinates":[[[137.962875,35.928537],[137.965622,35.927425],[137.970428,35.926313],[137.964935,35.911298],[137.955322,35.917972],[137.956009,35.923532],[137.955322,35.927981],[137.962875,35.928537]]]}},{"type":"Feature","properties":{"layer_id":"bakumatsu_villages","name":"中曾根新田村","address":"信濃 伊那郡","source":"Geoshape 幕末期近世村領域データセット vector tiles (z7 extraction)","subarea_name":"近世村のおおよその範囲","feature_key":"village:K19G10S00018","accuracy_note":"2015年農業集落境界をもとに復元した概略範囲で、江戸時代の正確な村境ではありません"},"geometry":{"type":"Polygon","coordinates":[[[137.958755,35.910742],[137.959442,35.906849],[137.956009,35.907405],[137.956009,35.906293],[137.958755,35.904625],[137.958755,35.903512],[137.955322,35.904068],[137.949829,35.901844],[137.940216,35.902956],[137.939529,35.903512],[137.939529,35.905181],[137.944336,35.910186],[137.955322,35.90963],[137.958755,35.910742]]]}},{"type":"Feature","properties":{"layer_id":"bakumatsu_villages","name":"八乙女村","address":"信濃 伊那郡","source":"Geoshape 幕末期近世村領域データセット vector tiles (z7 extraction)","subarea_name":"近世村のおおよその範囲","feature_key":"village:K19G10S00006","accuracy_note":"2015年農業集落境界をもとに復元した概略範囲で、江戸時代の正確な村境ではありません"},"geometry":{"type":"Polygon","coordinates":[[[137.960815,35.936876],[137.971115,35.934653],[137.970428,35.926313],[137.965622,35.927425],[137.962875,35.928537],[137.955322,35.927981],[137.956009,35.932429],[137.958755,35.934097],[137.960815,35.936876]]]}},{"type":"Feature","properties":{"layer_id":"bakumatsu_villages","name":"北小河内村","address":"信濃 伊那郡","source":"Geoshape 幕末期近世村領域データセット vector tiles (z7 extraction)","subarea_name":"近世村のおおよその範囲","feature_key":"village:K19G10S00002","accuracy_note":"2015年農業集落境界をもとに復元した概略範囲で、江戸時代の正確な村境ではありません"},"geometry":{"type":"MultiPolygon","coordinates":[[[[137.998581,35.952442],[138.003387,35.950774],[137.995148,35.949662],[137.992401,35.946327],[137.991028,35.949106],[137.992401,35.951886],[137.998581,35.952442]]],[[[138.003387,35.950774],[138.010941,35.946883],[138.006821,35.946327],[138.006134,35.946883],[138.000641,35.945215],[137.997208,35.945215],[137.997208,35.944103],[137.995148,35.944103],[137.990341,35.941324],[137.988968,35.94188],[137.993088,35.944103],[137.992401,35.946327],[137.995148,35.949662],[138.003387,35.950774]]],[[[137.995148,35.944103],[137.993774,35.940212],[137.993774,35.9391],[137.995834,35.9391],[137.993774,35.935765],[137.989655,35.93632],[137.989655,35.938544],[137.988281,35.940212],[137.988968,35.94188],[137.990341,35.941324],[137.995148,35.944103]]],[[[138.010941,35.946883],[138.008881,35.944103],[138.006821,35.943548],[138.006821,35.94188],[138.005447,35.942436],[138.004761,35.940768],[138.002701,35.940768],[137.999954,35.937988],[137.995148,35.938544],[137.995834,35.9391],[137.993774,35.9391],[137.995148,35.944103],[137.997208,35.944103],[137.997208,35.945215],[138.000641,35.945215],[138.006134,35.946883],[138.006821,35.946327],[138.010941,35.946883]]]]}},{"type":"Feature","properties":{"layer_id":"bakumatsu_villages","name":"南小河内村","address":"信濃 伊那郡","source":"Geoshape 幕末期近世村領域データセット vector tiles (z7 extraction)","subarea_name":"近世村のおおよその範囲","feature_key":"village:K19G10S00004","accuracy_note":"2015年農業集落境界をもとに復元した概略範囲で、江戸時代の正確な村境ではありません"},"geometry":{"type":"MultiPolygon","coordinates":[[[[137.995148,35.938544],[137.999954,35.937988],[137.997894,35.934653],[137.995834,35.934097],[137.995148,35.935765],[137.993774,35.935765],[137.995148,35.938544]]],[[[137.989655,35.93632],[137.995148,35.935765],[137.995834,35.931873],[137.988281,35.931317],[137.989655,35.93632]]],[[[137.986908,35.929649],[137.988281,35.931317],[137.997208,35.931317],[137.997894,35.932429],[138.001328,35.931317],[138.001328,35.930205],[137.999268,35.929093],[137.996521,35.930205],[137.993088,35.930205],[137.991028,35.930761],[137.988968,35.929093],[137.986908,35.929649]]],[[[137.997894,35.933541],[137.999268,35.931873],[137.995834,35.931873],[137.995148,35.933541],[137.997894,35.933541]]],[[[138.010941,35.946883],[138.016434,35.944103],[138.019867,35.945771],[138.020554,35.940212],[138.014374,35.937432],[138.013687,35.935209],[138.009567,35.935209],[138.003387,35.930205],[138.001328,35.930205],[138.001328,35.931317],[137.999268,35.931873],[137.997894,35.933541],[137.995148,35.933541],[137.995834,35.934653],[137.997894,35.934653],[137.999954,35.937988],[138.002701,35.940768],[138.004761,35.940768],[138.005447,35.942436],[138.006821,35.94188],[138.006821,35.943548],[138.008881,35.944103],[138.010941,35.946883]]],[[[138.01506,35.937988],[138.016434,35.932985],[138.020554,35.929649],[138.017807,35.927981],[138.017807,35.926869],[138.013,35.927981],[138.010254,35.926313],[138.007507,35.927425],[138.006134,35.926313],[138.000641,35.929093],[138.001328,35.930205],[138.004074,35.930761],[138.009567,35.935209],[138.013687,35.935209],[138.01506,35.937988]]]]}},{"type":"Feature","properties":{"layer_id":"bakumatsu_villages","name":"大出村","address":"信濃 伊那郡","source":"Geoshape 幕末期近世村領域データセット vector tiles (z7 extraction)","subarea_name":"近世村のおおよその範囲","feature_key":"village:K19G10S00014","accuracy_note":"2015年農業集落境界をもとに復元した概略範囲で、江戸時代の正確な村境ではありません"},"geometry":{"type":"Polygon","coordinates":[[[137.981415,35.935765],[137.981415,35.931873],[137.982788,35.930761],[137.986221,35.929093],[137.985535,35.927981],[137.985535,35.926869],[137.981415,35.924645],[137.976608,35.926313],[137.970428,35.926313],[137.971115,35.934653],[137.977295,35.934653],[137.981415,35.935765]]]}},{"type":"Feature","properties":{"layer_id":"bakumatsu_villages","name":"富田村","address":"信濃 伊那郡","source":"Geoshape 幕末期近世村領域データセット vector tiles (z7 extraction)","subarea_name":"近世村のおおよその範囲","feature_key":"village:K19G10S00009","accuracy_note":"2015年農業集落境界をもとに復元した概略範囲で、江戸時代の正確な村境ではありません"},"geometry":{"type":"Polygon","coordinates":[[[137.888031,35.927981],[137.892151,35.926869],[137.896957,35.924645],[137.901764,35.923532],[137.90863,35.923532],[137.911377,35.925201],[137.918243,35.92242],[137.921677,35.92242],[137.923737,35.920196],[137.936096,35.919084],[137.936783,35.918528],[137.934036,35.91686],[137.937469,35.914079],[137.936783,35.912967],[137.938843,35.913523],[137.944336,35.910186],[137.937469,35.9024],[137.93541,35.902956],[137.934723,35.903512],[137.929916,35.904068],[137.92717,35.905737],[137.922363,35.905737],[137.919617,35.906849],[137.917557,35.90963],[137.91069,35.911855],[137.905884,35.917972],[137.903824,35.917416],[137.893524,35.92242],[137.891464,35.921864],[137.886658,35.925757],[137.886658,35.926869],[137.888031,35.927981]]]}},{"type":"Feature","properties":{"layer_id":"bakumatsu_villages","name":"木下村","address":"信濃 伊那郡","source":"Geoshape 幕末期近世村領域データセット vector tiles (z7 extraction)","subarea_name":"近世村のおおよその範囲","feature_key":"village:K19G10S00001","accuracy_note":"2015年農業集落境界をもとに復元した概略範囲で、江戸時代の正確な村境ではありません"},"geometry":{"type":"MultiPolygon","coordinates":[[[[137.950516,35.91964],[137.955322,35.917972],[137.964249,35.911855],[137.955322,35.90963],[137.944336,35.910186],[137.938843,35.913523],[137.936783,35.912967],[137.937469,35.914079],[137.934036,35.91686],[137.936783,35.918528],[137.943649,35.91964],[137.950516,35.91964]]],[[[137.964249,35.911855],[137.970428,35.90963],[137.977295,35.909074],[137.978668,35.897394],[137.973175,35.896281],[137.969055,35.896838],[137.968369,35.896281],[137.964935,35.896838],[137.964249,35.898506],[137.957382,35.899619],[137.949829,35.898506],[137.949829,35.901844],[137.955322,35.904068],[137.958755,35.903512],[137.958755,35.904625],[137.956009,35.906293],[137.956009,35.907405],[137.959442,35.906849],[137.958755,35.910742],[137.964249,35.911855]]],[[[137.977295,35.909074],[137.988281,35.907405],[137.995148,35.905181],[137.992401,35.894057],[137.988281,35.895169],[137.986908,35.891275],[137.986908,35.8935],[137.986221,35.894057],[137.986221,35.895725],[137.983475,35.896281],[137.983475,35.89795],[137.981415,35.898506],[137.980042,35.895169],[137.980042,35.896838],[137.978668,35.897394],[137.978668,35.905181],[137.976608,35.907962],[137.977295,35.909074]]]]}},{"type":"Feature","properties":{"layer_id":"bakumatsu_villages","name":"松島村","address":"信濃 伊那郡","source":"Geoshape 幕末期近世村領域データセット vector tiles (z7 extraction)","subarea_name":"近世村のおおよその範囲","feature_key":"village:K19G10S00003","accuracy_note":"2015年農業集落境界をもとに復元した概略範囲で、江戸時代の正確な村境ではありません"},"geometry":{"type":"MultiPolygon","coordinates":[[[[137.972488,35.919084],[137.980042,35.91686],[137.980042,35.917416],[137.981415,35.917416],[137.982788,35.915747],[137.982788,35.914079],[137.980042,35.914079],[137.980042,35.912411],[137.977982,35.913523],[137.977295,35.910742],[137.975922,35.910186],[137.970428,35.90963],[137.966309,35.910742],[137.964935,35.911298],[137.968369,35.918528],[137.972488,35.919084]]],[[[137.985535,35.926869],[137.993088,35.921308],[137.994461,35.919084],[137.996521,35.918528],[137.997208,35.917416],[137.996521,35.915747],[137.995148,35.915747],[137.995148,35.914079],[137.996521,35.910186],[137.993774,35.909074],[137.993088,35.911298],[137.988281,35.911298],[137.987595,35.910742],[137.988281,35.907405],[137.970428,35.910186],[137.977295,35.910742],[137.977982,35.913523],[137.980042,35.912411],[137.980042,35.914079],[137.982788,35.914079],[137.982788,35.915191],[137.981415,35.917416],[137.980042,35.917416],[137.980042,35.91686],[137.972488,35.919084],[137.968369,35.918528],[137.969055,35.920752],[137.968369,35.921308],[137.970428,35.926313],[137.976608,35.926313],[137.981415,35.924645],[137.985535,35.926869]]],[[[137.993088,35.911298],[137.993774,35.909074],[137.995148,35.909074],[137.993774,35.906293],[137.988281,35.907405],[137.987595,35.910742],[137.993088,35.911298]]]]}},{"type":"Feature","properties":{"layer_id":"bakumatsu_villages","name":"沢村","address":"信濃 伊那郡","source":"Geoshape 幕末期近世村領域データセット vector tiles (z7 extraction)","subarea_name":"近世村のおおよその範囲","feature_key":"village:K19G10S00005","accuracy_note":"2015年農業集落境界をもとに復元した概略範囲で、江戸時代の正確な村境ではありません"},"geometry":{"type":"MultiPolygon","coordinates":[[[[137.934723,35.956888],[137.940903,35.956332],[137.942963,35.955221],[137.947769,35.953553],[137.951889,35.950774],[137.962189,35.947439],[137.968369,35.942436],[137.969055,35.938544],[137.967682,35.93632],[137.966995,35.935765],[137.957382,35.937432],[137.955322,35.935765],[137.953949,35.935765],[137.945709,35.941324],[137.942276,35.942992],[137.93335,35.951886],[137.934036,35.953553],[137.934723,35.956888]]],[[[137.980042,35.945771],[137.982788,35.945215],[137.981415,35.935765],[137.976608,35.934653],[137.966995,35.935765],[137.969055,35.938544],[137.968369,35.942436],[137.969742,35.942992],[137.973175,35.944103],[137.977982,35.943548],[137.978668,35.945215],[137.980042,35.945771]]],[[[137.982788,35.945215],[137.986908,35.944659],[137.986221,35.9391],[137.982101,35.940768],[137.982788,35.945215]]],[[[137.986908,35.944659],[137.988281,35.943548],[137.988968,35.94188],[137.988281,35.940212],[137.988968,35.9391],[137.986221,35.9391],[137.986908,35.944659]]],[[[137.982101,35.940768],[137.988281,35.9391],[137.988281,35.935765],[137.987595,35.935765],[137.981415,35.936876],[137.982101,35.940768]]],[[[137.982788,35.936876],[137.987595,35.935765],[137.984848,35.934097],[137.981415,35.934097],[137.981415,35.93632],[137.982788,35.936876]]],[[[137.986908,35.934653],[137.988281,35.931317],[137.986221,35.929093],[137.984161,35.929649],[137.981415,35.931873],[137.981415,35.934097],[137.986908,35.934653]]],[[[137.988968,35.9391],[137.989655,35.934653],[137.988281,35.931317],[137.986908,35.934653],[137.988281,35.935765],[137.988281,35.9391],[137.988968,35.9391]]]]}},{"type":"Feature","properties":{"layer_id":"bakumatsu_villages","name":"福与村","address":"信濃 伊那郡","source":"Geoshape 幕末期近世村領域データセット vector tiles (z7 extraction)","subarea_name":"近世村のおおよその範囲","feature_key":"village:K19G10S00019","accuracy_note":"2015年農業集落境界をもとに復元した概略範囲で、江戸時代の正確な村境ではありません"},"geometry":{"type":"MultiPolygon","coordinates":[[[[137.997208,35.892944],[137.998581,35.894057],[138.001328,35.8935],[138.004761,35.891831],[138.004761,35.888494],[138.002014,35.88905],[138.002014,35.887381],[137.995834,35.886269],[137.994461,35.887381],[137.997208,35.892944]]],[[[138.007507,35.899619],[138.009567,35.89795],[138.015747,35.89795],[138.019867,35.899063],[138.026047,35.894057],[138.020554,35.896281],[138.019867,35.895725],[138.008194,35.896281],[138.003387,35.895725],[137.999268,35.89795],[138.000641,35.899063],[138.002014,35.899063],[138.003387,35.898506],[138.007507,35.899619]]],[[[137.999954,35.897394],[138.003387,35.895725],[138.008194,35.896281],[138.019867,35.895725],[138.020554,35.896281],[138.026047,35.894057],[138.021927,35.894057],[138.016434,35.891831],[138.012314,35.892388],[138.010254,35.890719],[138.007507,35.890719],[138.004761,35.888494],[138.004761,35.891831],[138.001328,35.8935],[137.998581,35.894057],[137.998581,35.896838],[137.999954,35.897394]]],[[[137.991028,35.880149],[137.993088,35.882374],[137.993088,35.883487],[137.991714,35.884043],[137.993774,35.887381],[137.997894,35.886825],[138.002014,35.887381],[138.002014,35.88905],[138.004761,35.888494],[138.004761,35.883487],[138.001328,35.881818],[138.001328,35.881262],[137.995834,35.881262],[137.995148,35.880149],[137.991028,35.880149]]],[[[137.991028,35.880149],[137.989655,35.877924],[137.988281,35.87848],[137.991028,35.880149]]],[[[138.026733,35.894057],[138.024673,35.891831],[138.020554,35.88905],[138.01918,35.890163],[138.016434,35.888494],[138.015747,35.885156],[138.008881,35.885712],[138.004761,35.883487],[138.004761,35.888494],[138.007507,35.890719],[138.010254,35.890719],[138.012314,35.892388],[138.016434,35.891831],[138.021927,35.894057],[138.026733,35.894057]]]]}},{"type":"Feature","properties":{"layer_id":"bakumatsu_villages","name":"長岡村","address":"信濃 伊那郡","source":"Geoshape 幕末期近世村領域データセット vector tiles (z7 extraction)","subarea_name":"近世村のおおよその範囲","feature_key":"village:K19G10S00029","accuracy_note":"2015年農業集落境界をもとに復元した概略範囲で、江戸時代の正確な村境ではありません"},"geometry":{"type":"MultiPolygon","coordinates":[[[[137.991028,35.930761],[137.993088,35.930205],[137.996521,35.930205],[137.998581,35.929093],[138.000641,35.929093],[138.002014,35.925201],[137.993774,35.926869],[137.988281,35.925201],[137.985535,35.926869],[137.986221,35.929093],[137.986908,35.929649],[137.988968,35.929093],[137.991028,35.930761]]],[[[137.993774,35.926869],[138.002014,35.925201],[138.002014,35.924088],[137.997208,35.924645],[137.991028,35.92242],[137.988281,35.925201],[137.993774,35.926869]]],[[[138.002014,35.925201],[138.004761,35.924088],[138.002701,35.92242],[138.002014,35.924088],[138.002014,35.925201]]],[[[137.997208,35.924645],[138.002014,35.924088],[138.003387,35.920196],[138.007507,35.915747],[138.005447,35.916304],[138.002701,35.919084],[137.998581,35.91964],[137.995834,35.918528],[137.991028,35.92242],[137.997208,35.924645]]],[[[138.010941,35.925757],[138.011627,35.922976],[138.002701,35.92242],[138.007507,35.925757],[138.010941,35.925757]]],[[[138.011627,35.922976],[138.010941,35.921308],[138.012314,35.919084],[138.010254,35.917972],[138.011627,35.914079],[138.006821,35.916304],[138.002701,35.92242],[138.011627,35.922976]]],[[[138.034973,35.959667],[138.043213,35.955221],[138.0439,35.953553],[138.050766,35.95133],[138.053513,35.949662],[138.054199,35.947439],[138.056946,35.946327],[138.063126,35.947439],[138.065186,35.949106],[138.073425,35.950774],[138.074799,35.954109],[138.079605,35.960779],[138.086472,35.960223],[138.086472,35.954109],[138.090591,35.948551],[138.089905,35.946883],[138.087845,35.942992],[138.084412,35.940768],[138.080978,35.930761],[138.075485,35.925201],[138.072052,35.924645],[138.069992,35.92242],[138.069305,35.920196],[138.067932,35.919084],[138.066559,35.915747],[138.062439,35.915747],[138.056946,35.917972],[138.054886,35.91964],[138.050079,35.91686],[138.046646,35.915747],[138.045959,35.914079],[138.041153,35.913523],[138.03772,35.917416],[138.034286,35.918528],[138.02948,35.91686],[138.02536,35.912411],[138.0233,35.911855],[138.021927,35.913523],[138.01506,35.912967],[138.011627,35.914079],[138.010254,35.917972],[138.012314,35.920196],[138.010941,35.921308],[138.010941,35.925757],[138.008194,35.925757],[138.004761,35.924088],[138.002014,35.925201],[138.000641,35.929093],[138.006134,35.926313],[138.007507,35.927425],[138.010254,35.926313],[138.013,35.927981],[138.017807,35.926869],[138.017807,35.927981],[138.020554,35.929649],[138.016434,35.932985],[138.01506,35.937988],[138.020554,35.940212],[138.019867,35.945771],[138.023987,35.950218],[138.02948,35.952997],[138.032227,35.956332],[138.03566,35.958556],[138.034973,35.959667]]],[[[138.034973,35.959667],[138.034286,35.960223],[138.034286,35.962446],[138.034973,35.959667]]]]}},{"type":"Feature","properties":{"layer_id":"edo_post_stations","name":"松島","address":"","source":"CODH 江戸宿場データセット Version 1 (2026-08)","feature_key":"post:R505-022"},"geometry":{"coordinates":[137.9859,35.91271],"type":"Point"}},{"type":"Feature","properties":{"layer_id":"historical_sites_archaeology","name":"上の平城跡","address":"長野県 上伊那郡箕輪町 大字東箕輪","source":"Geoshape 日本歴史地名大系 施設・地点項目データセット 2025-05-15","subarea_name":"城跡","feature_key":"05_castle_ruins.geojson:200000131900","subtype":"城跡"},"geometry":{"type":"Point","coordinates":[138.002198,35.930864]}},{"type":"Feature","properties":{"layer_id":"historical_sites_archaeology","name":"上ノ平遺跡","address":"長野県 上伊那郡箕輪町 大字東箕輪","source":"Geoshape 日本歴史地名大系 施設・地点項目データセット 2025-05-15","subarea_name":"遺跡","feature_key":"08_archaeological_sites.geojson:200000110700","subtype":"遺跡"},"geometry":{"type":"Point","coordinates":[138.001417,35.931075]}},{"type":"Feature","properties":{"layer_id":"historical_sites_archaeology","name":"中道遺跡","address":"長野県 上伊那郡箕輪町 大字中箕輪","source":"Geoshape 日本歴史地名大系 施設・地点項目データセット 2025-05-15","subarea_name":"遺跡","feature_key":"08_archaeological_sites.geojson:200000130000","subtype":"遺跡"},"geometry":{"type":"Point","coordinates":[137.98682,35.914539]}},{"type":"Feature","properties":{"layer_id":"historical_sites_archaeology","name":"木下陣屋跡","address":"長野県 上伊那郡箕輪町 大字中箕輪","source":"Geoshape 日本歴史地名大系 施設・地点項目データセット 2025-05-15","subarea_name":"史跡","feature_key":"09_historic_sites.geojson:200000130300","subtype":"史跡"},"geometry":{"type":"Point","coordinates":[137.987547,35.905515]}},{"type":"Feature","properties":{"layer_id":"historical_sites_archaeology","name":"松島王墓古墳","address":"長野県 上伊那郡箕輪町 大字中箕輪","source":"Geoshape 日本歴史地名大系 施設・地点項目データセット 2025-05-15","subarea_name":"古墳","feature_key":"06_kofun.geojson:200000129900","subtype":"古墳"},"geometry":{"type":"Point","coordinates":[137.983292,35.922571]}},{"type":"Feature","properties":{"layer_id":"historical_sites_archaeology","name":"田中城跡","address":"長野県 上伊那郡箕輪町 大字三日町","source":"Geoshape 日本歴史地名大系 施設・地点項目データセット 2025-05-15","subarea_name":"城跡","feature_key":"05_castle_ruins.geojson:200000131500","subtype":"城跡"},"geometry":{"type":"Point","coordinates":[137.988653,35.886819]}},{"type":"Feature","properties":{"layer_id":"historical_sites_archaeology","name":"福与城跡","address":"長野県 上伊那郡箕輪町 大字三日町","source":"Geoshape 日本歴史地名大系 施設・地点項目データセット 2025-05-15","subarea_name":"城跡","feature_key":"05_castle_ruins.geojson:200000131200","subtype":"城跡"},"geometry":{"type":"Point","coordinates":[138.000078,35.896228]}},{"type":"Feature","properties":{"layer_id":"historical_sites_archaeology","name":"箕輪遺跡","address":"長野県 上伊那郡箕輪町 大字中箕輪","source":"Geoshape 日本歴史地名大系 施設・地点項目データセット 2025-05-15","subarea_name":"遺跡","feature_key":"08_archaeological_sites.geojson:200000130400","subtype":"遺跡"},"geometry":{"type":"Point","coordinates":[137.987547,35.905515]}},{"type":"Feature","properties":{"layer_id":"historical_sites_archaeology","name":"萱野遺跡","address":"長野県 上伊那郡箕輪町 大字三日町","source":"Geoshape 日本歴史地名大系 施設・地点項目データセット 2025-05-15","subarea_name":"遺跡","feature_key":"08_archaeological_sites.geojson:200000131600","subtype":"遺跡"},"geometry":{"type":"Point","coordinates":[138.024943,35.907722]}},{"type":"Feature","properties":{"layer_id":"historical_temples_shrines","name":"澄心寺","address":"長野県 上伊那郡箕輪町 三日町大字字大崎2146番地イ号","source":"Geoshape 日本歴史地名大系 施設・地点項目データセット 2025-05-15","subarea_name":"寺院","feature_key":"01_temples.geojson:200000131400","subtype":"寺院"},"geometry":{"type":"Point","coordinates":[138.010298,35.900748]}},{"type":"Feature","properties":{"layer_id":"historical_temples_shrines","name":"箕輪南宮社","address":"長野県 上伊那郡箕輪町 大字中箕輪","source":"Geoshape 日本歴史地名大系 施設・地点項目データセット 2025-05-15","subarea_name":"神社","feature_key":"02_shrines.geojson:200000130200","subtype":"神社"},"geometry":{"type":"Point","coordinates":[137.986473,35.90137]}}]}