{"type":"FeatureCollection","municipality_code":"20561","pref":"長野県","city":"山ノ内町","layer_counts":{"bakumatsu_villages":7,"historical_sites_archaeology":5,"historical_temples_shrines":5},"total_features":17,"features":[{"type":"Feature","properties":{"layer_id":"bakumatsu_villages","name":"上条村","address":"信濃 高井郡","source":"Geoshape 幕末期近世村領域データセット vector tiles (z7 extraction)","subarea_name":"近世村のおおよその範囲","feature_key":"village:K19G02S00001","accuracy_note":"2015年農業集落境界をもとに復元した概略範囲で、江戸時代の正確な村境ではありません"},"geometry":{"type":"MultiPolygon","coordinates":[[[[138.418121,36.759791],[138.422241,36.75704],[138.426361,36.752089],[138.425674,36.745487],[138.422928,36.743836],[138.417435,36.743286],[138.416748,36.742186],[138.414688,36.742736],[138.416061,36.743836],[138.415375,36.746037],[138.412628,36.745487],[138.410568,36.744937],[138.409195,36.743286],[138.403015,36.747688],[138.398209,36.75429],[138.400269,36.75429],[138.402328,36.75374],[138.402328,36.75539],[138.403702,36.75594],[138.404388,36.75539],[138.405075,36.758141],[138.406448,36.758691],[138.410568,36.757591],[138.410568,36.758691],[138.413315,36.759791],[138.418121,36.759791]]],[[[138.403015,36.747688],[138.411942,36.742186],[138.414001,36.741635],[138.415375,36.740535],[138.414001,36.739434],[138.406448,36.743286],[138.403015,36.747688]]]]}},{"type":"Feature","properties":{"layer_id":"bakumatsu_villages","name":"佐野村","address":"信濃 高井郡","source":"Geoshape 幕末期近世村領域データセット vector tiles (z7 extraction)","subarea_name":"近世村のおおよその範囲","feature_key":"village:K19G02S00115","accuracy_note":"2015年農業集落境界をもとに復元した概略範囲で、江戸時代の正確な村境ではありません"},"geometry":{"type":"MultiPolygon","coordinates":[[[[138.406448,36.743286],[138.422241,36.736133],[138.422241,36.735032],[138.420868,36.732831],[138.419495,36.735032],[138.414688,36.736683],[138.405762,36.742736],[138.406448,36.743286]]],[[[138.422241,36.735032],[138.429108,36.728979],[138.423615,36.73008],[138.420868,36.732831],[138.421555,36.734482],[138.422241,36.735032]]],[[[138.444901,36.741635],[138.444901,36.737784],[138.446274,36.733932],[138.444901,36.732281],[138.442154,36.73173],[138.439407,36.732831],[138.437347,36.73173],[138.429794,36.734482],[138.433228,36.737784],[138.444901,36.741635]]],[[[138.405762,36.742736],[138.414688,36.736683],[138.419495,36.735032],[138.424301,36.73008],[138.431168,36.728429],[138.432541,36.726778],[138.437347,36.725126],[138.441467,36.722925],[138.442841,36.720173],[138.444214,36.720173],[138.442841,36.719072],[138.443527,36.717972],[138.444901,36.718522],[138.444214,36.71632],[138.448334,36.713568],[138.452454,36.713568],[138.457947,36.717972],[138.462753,36.716871],[138.468246,36.710265],[138.478546,36.704761],[138.479919,36.701458],[138.479233,36.698154],[138.482666,36.695952],[138.486099,36.690446],[138.488846,36.683288],[138.491592,36.681085],[138.492279,36.677231],[138.487473,36.677781],[138.485413,36.67668],[138.476486,36.677781],[138.47374,36.67668],[138.470993,36.678883],[138.470306,36.681085],[138.47168,36.683288],[138.468933,36.686041],[138.4655,36.686041],[138.46138,36.688794],[138.45314,36.690446],[138.447647,36.690446],[138.443527,36.691547],[138.442154,36.692649],[138.439407,36.692098],[138.435287,36.69375],[138.433914,36.697053],[138.432541,36.697053],[138.430481,36.695952],[138.427734,36.695952],[138.424301,36.698154],[138.418808,36.712467],[138.416748,36.715219],[138.416748,36.718522],[138.414688,36.720173],[138.411942,36.726227],[138.408508,36.727328],[138.407822,36.729529],[138.405075,36.73008],[138.403702,36.73173],[138.397522,36.73118],[138.394089,36.732281],[138.394775,36.733932],[138.396149,36.735032],[138.398209,36.739985],[138.398895,36.739434],[138.398895,36.740535],[138.400269,36.739434],[138.403702,36.742736],[138.405075,36.742186],[138.405762,36.742736]]]]}},{"type":"Feature","properties":{"layer_id":"bakumatsu_villages","name":"夜間瀬村","address":"信濃 高井郡","source":"Geoshape 幕末期近世村領域データセット vector tiles (z7 extraction)","subarea_name":"近世村のおおよその範囲","feature_key":"village:K19G02S00062","accuracy_note":"2015年農業集落境界をもとに復元した概略範囲で、江戸時代の正確な村境ではありません"},"geometry":{"type":"MultiPolygon","coordinates":[[[[138.404388,36.79279],[138.405762,36.791141],[138.408508,36.783442],[138.409882,36.768042],[138.409195,36.765842],[138.406448,36.764742],[138.405762,36.762542],[138.402328,36.762542],[138.399582,36.763092],[138.398895,36.762542],[138.398209,36.763092],[138.396835,36.763092],[138.389969,36.770242],[138.383102,36.771892],[138.383789,36.772992],[138.387222,36.774092],[138.390656,36.777392],[138.392715,36.777392],[138.394775,36.782342],[138.403015,36.788941],[138.404388,36.79279]]],[[[138.424988,36.810934],[138.439407,36.808185],[138.438721,36.804337],[138.437347,36.803787],[138.437347,36.800488],[138.435287,36.798289],[138.426361,36.797739],[138.420181,36.79609],[138.411942,36.79554],[138.403702,36.799389],[138.403702,36.800488],[138.410568,36.799938],[138.416061,36.802138],[138.418808,36.804337],[138.419495,36.808735],[138.424988,36.810934]]],[[[138.403702,36.799389],[138.421555,36.791141],[138.425674,36.777942],[138.422241,36.774092],[138.422241,36.771892],[138.417435,36.772992],[138.416061,36.770792],[138.409195,36.770792],[138.408508,36.783442],[138.405762,36.791141],[138.404388,36.79279],[138.405762,36.796639],[138.403702,36.799389]]],[[[138.431168,36.797739],[138.433228,36.79389],[138.439407,36.789491],[138.438721,36.780142],[138.435974,36.774092],[138.437347,36.769142],[138.430481,36.769692],[138.422241,36.771892],[138.422241,36.774092],[138.425674,36.777942],[138.422241,36.790041],[138.420868,36.791691],[138.411942,36.79554],[138.420181,36.79609],[138.426361,36.797739],[138.431168,36.797739]]],[[[138.398209,36.763092],[138.398895,36.762542],[138.399582,36.763092],[138.402328,36.762542],[138.405762,36.762542],[138.410568,36.757591],[138.406448,36.758691],[138.405075,36.758141],[138.404388,36.75539],[138.403702,36.75594],[138.402328,36.75539],[138.402328,36.75374],[138.400269,36.75429],[138.398209,36.75429],[138.397522,36.759241],[138.396835,36.763092],[138.398209,36.763092]]],[[[138.430481,36.817531],[138.439407,36.811484],[138.439407,36.808185],[138.432541,36.809285],[138.424988,36.810934],[138.429108,36.815332],[138.430481,36.817531]]],[[[138.431854,36.820829],[138.433228,36.81918],[138.442154,36.814232],[138.439407,36.811484],[138.430481,36.817531],[138.431854,36.820829]]],[[[138.436661,36.800488],[138.439407,36.799389],[138.441467,36.79554],[138.444214,36.79334],[138.440781,36.788941],[138.435287,36.79224],[138.430481,36.797739],[138.435287,36.798289],[138.436661,36.800488]]],[[[138.442154,36.814782],[138.445587,36.812583],[138.46756,36.808185],[138.474426,36.805436],[138.479919,36.805986],[138.482666,36.804887],[138.485413,36.805436],[138.488159,36.802687],[138.489532,36.797739],[138.483353,36.799389],[138.474426,36.799938],[138.460007,36.806536],[138.450394,36.805986],[138.44902,36.807086],[138.440781,36.802687],[138.438721,36.804337],[138.439407,36.811484],[138.442154,36.814782]]],[[[138.418808,36.772992],[138.430481,36.769692],[138.437347,36.769142],[138.444214,36.764192],[138.44696,36.763092],[138.451767,36.760341],[138.454514,36.760341],[138.460007,36.75704],[138.462067,36.758141],[138.46344,36.75484],[138.462067,36.752639],[138.45932,36.753189],[138.455887,36.752089],[138.455887,36.750989],[138.440094,36.753189],[138.433228,36.758141],[138.427734,36.75594],[138.422928,36.75649],[138.418121,36.759791],[138.413315,36.759791],[138.410568,36.758691],[138.410568,36.757591],[138.405762,36.762542],[138.406448,36.764742],[138.409195,36.765842],[138.409882,36.766942],[138.409195,36.770792],[138.416061,36.770792],[138.416748,36.772442],[138.418808,36.772992]]],[[[138.444214,36.79334],[138.450394,36.790041],[138.4552,36.788941],[138.47374,36.786742],[138.476486,36.782342],[138.478546,36.781242],[138.479233,36.776842],[138.481293,36.772992],[138.486786,36.767492],[138.486099,36.763092],[138.479919,36.760891],[138.4758,36.758141],[138.47374,36.75484],[138.473053,36.751539],[138.46962,36.751539],[138.466873,36.750439],[138.462067,36.752639],[138.46344,36.75484],[138.462067,36.758141],[138.460007,36.75704],[138.454514,36.760341],[138.450394,36.760891],[138.439407,36.766942],[138.436661,36.770242],[138.435974,36.775192],[138.438721,36.780142],[138.439407,36.789491],[138.440781,36.788941],[138.444214,36.79334]]],[[[138.44902,36.807086],[138.450394,36.805986],[138.460007,36.806536],[138.474426,36.799938],[138.483353,36.799389],[138.489532,36.797739],[138.490906,36.79389],[138.492966,36.79389],[138.497772,36.798289],[138.503265,36.799938],[138.510132,36.800488],[138.513565,36.804337],[138.516998,36.805986],[138.523865,36.804887],[138.527985,36.802687],[138.530045,36.803237],[138.527985,36.800488],[138.529358,36.799389],[138.528671,36.79554],[138.534851,36.788941],[138.535538,36.787841],[138.534164,36.786192],[138.533478,36.782342],[138.537598,36.778492],[138.534851,36.776842],[138.535538,36.775192],[138.533478,36.771342],[138.536224,36.766942],[138.532791,36.761991],[138.527985,36.761441],[138.515625,36.763092],[138.506012,36.760891],[138.500519,36.762542],[138.497086,36.769692],[138.490219,36.770792],[138.486786,36.767492],[138.481293,36.772992],[138.479233,36.776842],[138.478546,36.781242],[138.476486,36.782342],[138.47374,36.786742],[138.45726,36.788391],[138.450394,36.790041],[138.441467,36.79554],[138.440094,36.798839],[138.436661,36.800488],[138.437347,36.804337],[138.438721,36.804337],[138.440781,36.802687],[138.44902,36.807086]]]]}},{"type":"Feature","properties":{"layer_id":"bakumatsu_villages","name":"寒沢村","address":"信濃 高井郡","source":"Geoshape 幕末期近世村領域データセット vector tiles (z7 extraction)","subarea_name":"近世村のおおよその範囲","feature_key":"village:K19G02S00051","accuracy_note":"2015年農業集落境界をもとに復元した概略範囲で、江戸時代の正確な村境ではありません"},"geometry":{"type":"MultiPolygon","coordinates":[[[[138.394089,36.732281],[138.398895,36.728429],[138.398895,36.725677],[138.402328,36.724576],[138.402328,36.722925],[138.406448,36.717972],[138.408508,36.714119],[138.411942,36.713018],[138.412628,36.710816],[138.414688,36.709164],[138.418808,36.702008],[138.424301,36.698705],[138.416748,36.696503],[138.405762,36.698705],[138.403015,36.70366],[138.400955,36.70421],[138.398895,36.705862],[138.398895,36.709164],[138.396149,36.710816],[138.394775,36.717421],[138.392029,36.721274],[138.394089,36.724576],[138.393402,36.729529],[138.394089,36.732281]]],[[[138.394775,36.732281],[138.398209,36.73118],[138.403702,36.73173],[138.405075,36.73008],[138.407822,36.729529],[138.408508,36.727328],[138.411942,36.726227],[138.414688,36.720173],[138.416748,36.718522],[138.416748,36.715219],[138.418808,36.712467],[138.424301,36.698705],[138.418808,36.702008],[138.414688,36.709164],[138.412628,36.710816],[138.411942,36.713018],[138.408508,36.714119],[138.406448,36.717972],[138.402328,36.722925],[138.402328,36.724576],[138.398895,36.725677],[138.398895,36.728429],[138.394775,36.732281]]]]}},{"type":"Feature","properties":{"layer_id":"bakumatsu_villages","name":"戸狩村","address":"信濃 高井郡","source":"Geoshape 幕末期近世村領域データセット vector tiles (z7 extraction)","subarea_name":"近世村のおおよその範囲","feature_key":"village:K19G02S00052","accuracy_note":"2015年農業集落境界をもとに復元した概略範囲で、江戸時代の正確な村境ではありません"},"geometry":{"type":"Polygon","coordinates":[[[138.396835,36.758691],[138.398209,36.753189],[138.406448,36.743286],[138.405075,36.742186],[138.403702,36.742736],[138.400269,36.739434],[138.398895,36.740535],[138.398895,36.739434],[138.398209,36.739985],[138.396149,36.735032],[138.394775,36.733932],[138.394089,36.734482],[138.394089,36.735583],[138.392715,36.736133],[138.388596,36.739985],[138.387222,36.748788],[138.389969,36.750989],[138.392029,36.750439],[138.393402,36.750989],[138.394775,36.75429],[138.394775,36.75649],[138.396149,36.758691],[138.396835,36.758691]]]}},{"type":"Feature","properties":{"layer_id":"bakumatsu_villages","name":"沓野村","address":"信濃 高井郡","source":"Geoshape 幕末期近世村領域データセット vector tiles (z7 extraction)","subarea_name":"近世村のおおよその範囲","feature_key":"village:K19G02S00138","accuracy_note":"2015年農業集落境界をもとに復元した概略範囲で、江戸時代の正確な村境ではありません"},"geometry":{"type":"Polygon","coordinates":[[[138.619308,36.809285],[138.619995,36.807635],[138.622055,36.805436],[138.622055,36.802687],[138.624802,36.800488],[138.624115,36.797189],[138.627548,36.79609],[138.629608,36.79609],[138.629608,36.797739],[138.630295,36.797739],[138.629608,36.79279],[138.630981,36.79279],[138.630981,36.79389],[138.633728,36.79224],[138.633041,36.790591],[138.634415,36.786192],[138.631668,36.785642],[138.633041,36.784542],[138.630981,36.783992],[138.631668,36.782892],[138.630981,36.782342],[138.630981,36.779592],[138.632355,36.778492],[138.629608,36.777392],[138.630295,36.775192],[138.628235,36.774092],[138.626862,36.771892],[138.629608,36.766942],[138.628235,36.765842],[138.628235,36.761441],[138.626175,36.759791],[138.626175,36.75429],[138.630295,36.752639],[138.629608,36.748238],[138.636475,36.744937],[138.635788,36.743286],[138.637161,36.743286],[138.639221,36.738884],[138.639221,36.736683],[138.641281,36.735583],[138.639908,36.73118],[138.641968,36.727328],[138.641968,36.724026],[138.637848,36.723475],[138.635788,36.721274],[138.630295,36.719623],[138.626862,36.721274],[138.621368,36.720723],[138.619308,36.716871],[138.617249,36.714669],[138.616562,36.711366],[138.613129,36.709715],[138.610382,36.706412],[138.605576,36.708064],[138.602142,36.713018],[138.599396,36.714119],[138.595276,36.714669],[138.593903,36.714119],[138.592529,36.709164],[138.589783,36.708064],[138.583603,36.701458],[138.58017,36.703109],[138.574677,36.707513],[138.571243,36.705862],[138.56781,36.706412],[138.562317,36.705862],[138.55957,36.707513],[138.552704,36.704761],[138.543091,36.70421],[138.538284,36.700907],[138.536911,36.697604],[138.532104,36.697053],[138.530731,36.698154],[138.520432,36.6943],[138.519745,36.692649],[138.514252,36.690997],[138.514252,36.690446],[138.519745,36.689345],[138.519745,36.686592],[138.518372,36.684389],[138.519745,36.680535],[138.517685,36.677781],[138.517685,36.67668],[138.525925,36.66897],[138.534164,36.666767],[138.525238,36.666216],[138.520432,36.66952],[138.514938,36.66897],[138.512878,36.667868],[138.508072,36.670622],[138.504639,36.671173],[138.504639,36.672274],[138.501205,36.673376],[138.499832,36.675578],[138.495712,36.675028],[138.492279,36.677231],[138.491592,36.681085],[138.488846,36.683288],[138.486099,36.690446],[138.482666,36.695952],[138.479233,36.698154],[138.479919,36.701458],[138.478546,36.704761],[138.468246,36.710265],[138.462753,36.716871],[138.45726,36.717421],[138.452454,36.713018],[138.44696,36.714119],[138.444214,36.71632],[138.444901,36.718522],[138.443527,36.718522],[138.444214,36.720173],[138.442841,36.720173],[138.441467,36.722925],[138.429108,36.728979],[138.423615,36.733932],[138.429794,36.734482],[138.437347,36.73173],[138.439407,36.732831],[138.442154,36.73173],[138.443527,36.732831],[138.44902,36.73173],[138.4552,36.733932],[138.460693,36.732831],[138.464127,36.733381],[138.46962,36.732281],[138.47168,36.733381],[138.473053,36.736683],[138.475113,36.737233],[138.477173,36.739434],[138.481293,36.741635],[138.482666,36.744386],[138.485413,36.745487],[138.499832,36.748788],[138.501205,36.746037],[138.511505,36.743836],[138.518372,36.743836],[138.522491,36.746037],[138.524551,36.746037],[138.529358,36.748788],[138.530731,36.750989],[138.530045,36.752089],[138.533478,36.75484],[138.538284,36.744937],[138.545837,36.742736],[138.551331,36.737784],[138.553391,36.737233],[138.55751,36.737784],[138.55751,36.739434],[138.560944,36.744386],[138.56163,36.746587],[138.56369,36.747138],[138.56369,36.748788],[138.567123,36.752639],[138.569183,36.761991],[138.57811,36.763092],[138.587036,36.766392],[138.592529,36.766942],[138.595276,36.768592],[138.596649,36.771342],[138.600082,36.772992],[138.602829,36.776842],[138.605576,36.778492],[138.606262,36.781242],[138.609009,36.783992],[138.607635,36.786742],[138.604202,36.786192],[138.604889,36.790591],[138.602829,36.791691],[138.606262,36.79499],[138.612442,36.798289],[138.616562,36.803787],[138.619308,36.809285]]]}},{"type":"Feature","properties":{"layer_id":"bakumatsu_villages","name":"湯田中村","address":"信濃 高井郡","source":"Geoshape 幕末期近世村領域データセット vector tiles (z7 extraction)","subarea_name":"近世村のおおよその範囲","feature_key":"village:K19G02S00113","accuracy_note":"2015年農業集落境界をもとに復元した概略範囲で、江戸時代の正確な村境ではありません"},"geometry":{"type":"MultiPolygon","coordinates":[[[[138.412628,36.745487],[138.414688,36.741635],[138.409882,36.743286],[138.410568,36.744937],[138.412628,36.745487]]],[[[138.433228,36.758141],[138.440094,36.753189],[138.432541,36.747138],[138.430481,36.742736],[138.424301,36.739434],[138.422241,36.736133],[138.414001,36.739434],[138.415375,36.740535],[138.414001,36.741635],[138.414001,36.743286],[138.412628,36.745487],[138.415375,36.746037],[138.416061,36.743836],[138.414688,36.742736],[138.416748,36.742186],[138.417435,36.743286],[138.424301,36.744386],[138.425674,36.745487],[138.427048,36.750439],[138.422928,36.75649],[138.427734,36.75594],[138.429108,36.75704],[138.433228,36.758141]]],[[[138.547211,36.824676],[138.549271,36.824127],[138.547897,36.823027],[138.552704,36.819729],[138.558197,36.820829],[138.56369,36.81918],[138.564377,36.81808],[138.563004,36.816431],[138.565063,36.815881],[138.567123,36.813683],[138.570557,36.813683],[138.575363,36.810384],[138.578796,36.811484],[138.58017,36.810384],[138.585663,36.809834],[138.585663,36.810934],[138.587723,36.810384],[138.588409,36.812583],[138.592529,36.812033],[138.592529,36.810934],[138.594589,36.813133],[138.597336,36.812583],[138.602829,36.813683],[138.604889,36.811484],[138.605576,36.812583],[138.606949,36.811484],[138.607635,36.813683],[138.609009,36.813133],[138.609695,36.811484],[138.610382,36.812033],[138.611755,36.812033],[138.615189,36.808735],[138.619308,36.809834],[138.616562,36.803787],[138.612442,36.798289],[138.606262,36.79499],[138.602829,36.791691],[138.604889,36.790591],[138.604202,36.786192],[138.607635,36.786742],[138.609009,36.783992],[138.606262,36.781242],[138.605576,36.778492],[138.602829,36.776842],[138.600082,36.772992],[138.596649,36.771342],[138.595276,36.768592],[138.592529,36.766942],[138.587036,36.766392],[138.57811,36.763092],[138.569183,36.761991],[138.567123,36.752639],[138.56369,36.748788],[138.56369,36.747138],[138.56163,36.746587],[138.560944,36.744386],[138.55751,36.739434],[138.55751,36.737784],[138.553391,36.737233],[138.551331,36.737784],[138.545837,36.742736],[138.538284,36.744937],[138.533478,36.75484],[138.530045,36.752089],[138.530731,36.750989],[138.529358,36.748788],[138.524551,36.746037],[138.522491,36.746037],[138.518372,36.743836],[138.511505,36.743836],[138.501205,36.746037],[138.499832,36.748788],[138.485413,36.745487],[138.482666,36.744386],[138.481293,36.741635],[138.477173,36.739434],[138.475113,36.737233],[138.473053,36.736683],[138.47168,36.733381],[138.46962,36.732281],[138.464127,36.733381],[138.460693,36.732831],[138.4552,36.733932],[138.44902,36.73173],[138.445587,36.73173],[138.444901,36.732281],[138.446274,36.733932],[138.444901,36.737784],[138.444901,36.741635],[138.433228,36.737784],[138.429794,36.735583],[138.429108,36.734482],[138.427734,36.735032],[138.423615,36.733932],[138.421555,36.735583],[138.424301,36.739434],[138.430481,36.742736],[138.432541,36.747138],[138.440094,36.753189],[138.455887,36.750989],[138.456573,36.752089],[138.460007,36.753189],[138.466873,36.750439],[138.46962,36.751539],[138.473053,36.751539],[138.47374,36.75539],[138.479919,36.760891],[138.485413,36.762542],[138.486786,36.768042],[138.490219,36.770792],[138.497086,36.769692],[138.501205,36.761991],[138.506012,36.760891],[138.511505,36.762542],[138.516312,36.763092],[138.527985,36.761441],[138.532791,36.761991],[138.536224,36.766942],[138.533478,36.771342],[138.535538,36.775192],[138.534851,36.776842],[138.537598,36.778492],[138.533478,36.782342],[138.534164,36.786192],[138.535538,36.787841],[138.531418,36.79224],[138.532104,36.79334],[138.528671,36.79554],[138.529358,36.799389],[138.527985,36.800488],[138.530045,36.802138],[138.532104,36.810384],[138.534851,36.813683],[138.533478,36.816431],[138.541031,36.824127],[138.547211,36.824676]]]]}},{"type":"Feature","properties":{"layer_id":"historical_sites_archaeology","name":"佐野遺跡","address":"長野県 下高井郡山ノ内町 大字佐野","source":"Geoshape 日本歴史地名大系 施設・地点項目データセット 2025-05-15","subarea_name":"遺跡","feature_key":"08_archaeological_sites.geojson:200000351700","subtype":"遺跡"},"geometry":{"type":"Point","coordinates":[138.407572,36.731978]}},{"type":"Feature","properties":{"layer_id":"historical_sites_archaeology","name":"夜交氏城館跡","address":"長野県 下高井郡山ノ内町 大字平穏","source":"Geoshape 日本歴史地名大系 施設・地点項目データセット 2025-05-15","subarea_name":"史跡","feature_key":"09_historic_sites.geojson:200000352700","subtype":"史跡"},"geometry":{"type":"Point","coordinates":[138.423325,36.755853]}},{"type":"Feature","properties":{"layer_id":"historical_sites_archaeology","name":"夜間瀬本郷古墳群","address":"長野県 下高井郡山ノ内町 大字夜間瀬","source":"Geoshape 日本歴史地名大系 施設・地点項目データセット 2025-05-15","subarea_name":"古墳","feature_key":"06_kofun.geojson:200000352800","subtype":"古墳"},"geometry":{"type":"Point","coordinates":[138.398264,36.757937]}},{"type":"Feature","properties":{"layer_id":"historical_sites_archaeology","name":"弥勒","address":"長野県 下高井郡山ノ内町 大字平穏","source":"Geoshape 日本歴史地名大系 施設・地点項目データセット 2025-05-15","subarea_name":"史跡","feature_key":"09_historic_sites.geojson:200000351900","subtype":"史跡"},"geometry":{"type":"Point","coordinates":[138.425215,36.738418]}},{"type":"Feature","properties":{"layer_id":"historical_sites_archaeology","name":"菅城館跡","address":"長野県 下高井郡山ノ内町 大字寒沢","source":"Geoshape 日本歴史地名大系 施設・地点項目データセット 2025-05-15","subarea_name":"史跡","feature_key":"09_historic_sites.geojson:200000351200","subtype":"史跡"},"geometry":{"type":"Point","coordinates":[138.406305,36.713445]}},{"type":"Feature","properties":{"layer_id":"historical_temples_shrines","name":"佐野神社","address":"長野県 下高井郡山ノ内町 佐野大字字北原1440番地","source":"Geoshape 日本歴史地名大系 施設・地点項目データセット 2025-05-15","subarea_name":"神社","feature_key":"02_shrines.geojson:200000351400","subtype":"神社"},"geometry":{"type":"Point","coordinates":[138.412911,36.734046]}},{"type":"Feature","properties":{"layer_id":"historical_temples_shrines","name":"善応寺","address":"長野県 下高井郡山ノ内町 大字平穏4546番地","source":"Geoshape 日本歴史地名大系 施設・地点項目データセット 2025-05-15","subarea_name":"寺院","feature_key":"01_temples.geojson:200000352500","subtype":"寺院"},"geometry":{"type":"Point","coordinates":[138.410919,36.748478]}},{"type":"Feature","properties":{"layer_id":"historical_temples_shrines","name":"温泉寺","address":"長野県 下高井郡山ノ内町 大字平穏2032番地","source":"Geoshape 日本歴史地名大系 施設・地点項目データセット 2025-05-15","subarea_name":"寺院","feature_key":"01_temples.geojson:200000352100","subtype":"寺院"},"geometry":{"type":"Point","coordinates":[138.473557,36.736973]}},{"type":"Feature","properties":{"layer_id":"historical_temples_shrines","name":"真行寺","address":"長野県 下高井郡山ノ内町 大字夜間瀬2406番地","source":"Geoshape 日本歴史地名大系 施設・地点項目データセット 2025-05-15","subarea_name":"寺院","feature_key":"01_temples.geojson:200000260200","subtype":"寺院"},"geometry":{"type":"Point","coordinates":[138.397385,36.765606]}},{"type":"Feature","properties":{"layer_id":"historical_temples_shrines","name":"興隆寺","address":"長野県 下高井郡山ノ内町 大字佐野959番地","source":"Geoshape 日本歴史地名大系 施設・地点項目データセット 2025-05-15","subarea_name":"寺院","feature_key":"01_temples.geojson:200000351500","subtype":"寺院"},"geometry":{"type":"Point","coordinates":[138.443542,36.702473]}}]}