{"type":"FeatureCollection","municipality_code":"21207","pref":"岐阜県","city":"美濃市","layer_counts":{"bakumatsu_villages":24,"civil_engineering_heritage":1,"edo_post_stations":1,"historical_sites_archaeology":3,"historical_temples_shrines":8},"total_features":37,"features":[{"type":"Feature","properties":{"layer_id":"bakumatsu_villages","name":"上有知村","address":"美濃 武儀郡","source":"Geoshape 幕末期近世村領域データセット vector tiles (z7 extraction)","subarea_name":"近世村のおおよその範囲","feature_key":"village:K25G16S00100","accuracy_note":"2015年農業集落境界をもとに復元した概略範囲で、江戸時代の正確な村境ではありません"},"geometry":{"type":"MultiPolygon","coordinates":[[[[136.902008,35.547312],[136.902008,35.544519],[136.903381,35.544519],[136.902008,35.543401],[136.902008,35.537255],[136.899261,35.536696],[136.898575,35.545077],[136.902008,35.547312]]],[[[136.906815,35.550105],[136.907501,35.547312],[136.909561,35.546753],[136.907501,35.543401],[136.909561,35.542284],[136.908188,35.540049],[136.906128,35.540049],[136.904755,35.537814],[136.902008,35.537255],[136.902008,35.543401],[136.903381,35.544519],[136.902008,35.544519],[136.902008,35.547871],[136.906815,35.550105]]],[[[136.910934,35.540608],[136.910248,35.536696],[136.906128,35.536138],[136.906128,35.53502],[136.899261,35.53502],[136.899261,35.536696],[136.904755,35.537814],[136.906128,35.540049],[136.910934,35.540608]]],[[[136.910248,35.552899],[136.912308,35.551223],[136.913681,35.55234],[136.913681,35.551223],[136.918488,35.551223],[136.917801,35.548988],[136.915741,35.548429],[136.914368,35.547312],[136.917801,35.545077],[136.919174,35.540049],[136.917114,35.538373],[136.915741,35.536138],[136.912994,35.536138],[136.912994,35.537814],[136.917114,35.542842],[136.916428,35.54396],[136.912994,35.54396],[136.909561,35.542284],[136.908188,35.542842],[136.908188,35.545636],[136.909561,35.546753],[136.907501,35.547312],[136.906815,35.550105],[136.910248,35.552899]]],[[[136.917801,35.550664],[136.924667,35.547312],[136.923981,35.542284],[136.927414,35.540049],[136.919174,35.540049],[136.917801,35.545077],[136.914368,35.547312],[136.915741,35.548429],[136.917801,35.548988],[136.917801,35.550664]]],[[[136.916428,35.54396],[136.917114,35.542842],[136.917114,35.541725],[136.912994,35.536696],[136.910248,35.536696],[136.912308,35.541725],[136.910934,35.540608],[136.908188,35.540049],[136.908875,35.541725],[136.912994,35.54396],[136.916428,35.54396]]],[[[136.955566,35.561836],[136.957626,35.558485],[136.956253,35.55625],[136.959686,35.550664],[136.956253,35.546753],[136.951447,35.546195],[136.943893,35.546753],[136.941147,35.55625],[136.941833,35.559043],[136.955566,35.561836]]],[[[136.941833,35.559043],[136.941147,35.554574],[136.943207,35.551781],[136.943893,35.546753],[136.94046,35.547871],[136.937714,35.546753],[136.933594,35.542842],[136.93222,35.542842],[136.929474,35.540049],[136.925354,35.541166],[136.923981,35.542842],[136.924667,35.547312],[136.930847,35.555133],[136.931534,35.558485],[136.941833,35.559043]]],[[[136.943207,35.547871],[136.94458,35.546753],[136.94252,35.543401],[136.941833,35.538931],[136.94046,35.537255],[136.939774,35.538373],[136.937714,35.537255],[136.935654,35.534461],[136.93222,35.536138],[136.929474,35.540049],[136.93222,35.542842],[136.933594,35.542842],[136.937714,35.546753],[136.94046,35.547871],[136.943207,35.547871]]]]}},{"type":"Feature","properties":{"layer_id":"bakumatsu_villages","name":"上河和村","address":"美濃 武儀郡","source":"Geoshape 幕末期近世村領域データセット vector tiles (z7 extraction)","subarea_name":"近世村のおおよその範囲","feature_key":"village:K25G16S00103","accuracy_note":"2015年農業集落境界をもとに復元した概略範囲で、江戸時代の正確な村境ではありません"},"geometry":{"type":"Polygon","coordinates":[[[136.975479,35.617675],[136.978226,35.615442],[136.976852,35.610418],[136.978226,35.608185],[136.976166,35.604277],[136.978226,35.60316],[136.978912,35.601486],[136.976166,35.598694],[136.975479,35.597019],[136.976166,35.593669],[136.972046,35.588085],[136.964493,35.590877],[136.96312,35.594227],[136.958313,35.593669],[136.956253,35.596461],[136.958313,35.598136],[136.956253,35.600369],[136.950073,35.597577],[136.94458,35.598136],[136.94252,35.599811],[136.943893,35.602602],[136.943207,35.604277],[136.950073,35.611534],[136.950073,35.613767],[136.952133,35.615442],[136.957626,35.614884],[136.96106,35.616558],[136.967239,35.616],[136.972733,35.617675],[136.975479,35.617675]]]}},{"type":"Feature","properties":{"layer_id":"bakumatsu_villages","name":"上野村","address":"美濃 武儀郡","source":"Geoshape 幕末期近世村領域データセット vector tiles (z7 extraction)","subarea_name":"近世村のおおよその範囲","feature_key":"village:K25G16S00017","accuracy_note":"2015年農業集落境界をもとに復元した概略範囲で、江戸時代の正確な村境ではありません"},"geometry":{"type":"Polygon","coordinates":[[[136.869049,35.598694],[136.871109,35.597019],[136.871109,35.594227],[136.873169,35.58976],[136.874542,35.588085],[136.873856,35.585293],[136.875229,35.582501],[136.869736,35.581943],[136.864243,35.582501],[136.858749,35.585852],[136.862183,35.591436],[136.869049,35.598694]]]}},{"type":"Feature","properties":{"layer_id":"bakumatsu_villages","name":"下河和村","address":"美濃 武儀郡","source":"Geoshape 幕末期近世村領域データセット vector tiles (z7 extraction)","subarea_name":"近世村のおおよその範囲","feature_key":"village:K25G16S00098","accuracy_note":"2015年農業集落境界をもとに復元した概略範囲で、江戸時代の正確な村境ではありません"},"geometry":{"type":"Polygon","coordinates":[[[136.956253,35.596461],[136.959,35.593111],[136.96312,35.594227],[136.964493,35.590877],[136.972046,35.588644],[136.974106,35.584735],[136.969986,35.583059],[136.966553,35.582501],[136.961746,35.586968],[136.96106,35.584735],[136.959686,35.585293],[136.959,35.584735],[136.959686,35.583059],[136.94458,35.583618],[136.945953,35.580826],[136.945267,35.580267],[136.943207,35.581384],[136.943893,35.586968],[136.94664,35.590319],[136.956253,35.596461]]]}},{"type":"Feature","properties":{"layer_id":"bakumatsu_villages","name":"乙狩村","address":"美濃 武儀郡","source":"Geoshape 幕末期近世村領域データセット vector tiles (z7 extraction)","subarea_name":"近世村のおおよその範囲","feature_key":"village:K25G16S00020","accuracy_note":"2015年農業集落境界をもとに復元した概略範囲で、江戸時代の正確な村境ではありません"},"geometry":{"type":"MultiPolygon","coordinates":[[[[136.869736,35.637767],[136.870422,35.635535],[136.877289,35.632744],[136.877289,35.629954],[136.874542,35.624931],[136.877975,35.618233],[136.877975,35.616],[136.879349,35.612093],[136.871796,35.605952],[136.869049,35.598694],[136.864929,35.594227],[136.85257,35.603719],[136.851196,35.607627],[136.853256,35.610976],[136.851196,35.614325],[136.847763,35.616558],[136.847763,35.619349],[136.853256,35.622698],[136.853256,35.626605],[136.85463,35.629954],[136.853943,35.632186],[136.855316,35.635535],[136.862869,35.637767],[136.868362,35.636651],[136.869736,35.637767]]],[[[136.85257,35.603719],[136.860123,35.598694],[136.864929,35.594227],[136.862183,35.591436],[136.858749,35.585852],[136.857376,35.588085],[136.84639,35.58976],[136.841583,35.593111],[136.843643,35.595902],[136.845703,35.595344],[136.84639,35.599252],[136.849823,35.602602],[136.85257,35.603719]]]]}},{"type":"Feature","properties":{"layer_id":"bakumatsu_villages","name":"保木脇村","address":"美濃 武儀郡","source":"Geoshape 幕末期近世村領域データセット vector tiles (z7 extraction)","subarea_name":"近世村のおおよその範囲","feature_key":"village:K25G16S00102","accuracy_note":"2015年農業集落境界をもとに復元した概略範囲で、江戸時代の正確な村境ではありません"},"geometry":{"type":"Polygon","coordinates":[[[136.961746,35.586968],[136.966553,35.582501],[136.965866,35.581384],[136.966553,35.579709],[136.965866,35.576358],[136.967239,35.572449],[136.96312,35.569656],[136.960373,35.565188],[136.95694,35.565188],[136.955566,35.564071],[136.955566,35.561836],[136.94458,35.559602],[136.931534,35.558485],[136.928787,35.564071],[136.926041,35.565188],[136.926041,35.569656],[136.928101,35.569656],[136.933594,35.576917],[136.937714,35.578033],[136.941147,35.578033],[136.943207,35.576917],[136.945267,35.573007],[136.948013,35.573007],[136.949387,35.574683],[136.9487,35.578033],[136.945267,35.580267],[136.945953,35.581384],[136.94458,35.582501],[136.94458,35.583618],[136.959686,35.583059],[136.959,35.584735],[136.959686,35.585293],[136.96106,35.584735],[136.961746,35.586968]]]}},{"type":"Feature","properties":{"layer_id":"bakumatsu_villages","name":"前野村","address":"美濃 武儀郡","source":"Geoshape 幕末期近世村領域データセット vector tiles (z7 extraction)","subarea_name":"近世村のおおよその範囲","feature_key":"village:K25G16S00095","accuracy_note":"2015年農業集落境界をもとに復元した概略範囲で、江戸時代の正確な村境ではありません"},"geometry":{"type":"Polygon","coordinates":[[[136.912308,35.560161],[136.909561,35.551781],[136.899948,35.546753],[136.898575,35.545077],[136.888962,35.552899],[136.888275,35.557926],[136.898575,35.554016],[136.910248,35.560161],[136.912308,35.560161]]]}},{"type":"Feature","properties":{"layer_id":"bakumatsu_villages","name":"大矢田村","address":"美濃 武儀郡","source":"Geoshape 幕末期近世村領域データセット vector tiles (z7 extraction)","subarea_name":"近世村のおおよその範囲","feature_key":"village:K25G16S00067","accuracy_note":"2015年農業集落境界をもとに復元した概略範囲で、江戸時代の正確な村境ではありません"},"geometry":{"type":"MultiPolygon","coordinates":[[[[136.84639,35.567422],[136.855316,35.566863],[136.862869,35.562395],[136.862869,35.556809],[136.853256,35.555692],[136.851883,35.552899],[136.847763,35.549547],[136.845703,35.549547],[136.84227,35.550664],[136.84021,35.554574],[136.84021,35.55625],[136.838837,35.556809],[136.83815,35.560719],[136.839523,35.564071],[136.84639,35.567422]]],[[[136.862869,35.55625],[136.869736,35.544519],[136.866302,35.543401],[136.864243,35.543401],[136.858749,35.545636],[136.853943,35.546753],[136.847763,35.549547],[136.851883,35.552899],[136.853256,35.555692],[136.862869,35.55625]]],[[[136.855316,35.546753],[136.865616,35.543401],[136.869736,35.544519],[136.871109,35.541166],[136.871796,35.541166],[136.871796,35.537814],[136.862183,35.53949],[136.858749,35.536696],[136.855316,35.53949],[136.853256,35.540049],[136.853943,35.546753],[136.855316,35.546753]]],[[[136.862869,35.562395],[136.871796,35.559602],[136.875229,35.557368],[136.873169,35.550105],[136.874542,35.545077],[136.871109,35.545077],[136.869736,35.544519],[136.862869,35.556809],[136.862869,35.562395]]],[[[136.875229,35.557368],[136.879349,35.554574],[136.880722,35.551781],[136.879349,35.545077],[136.879349,35.540049],[136.877975,35.540049],[136.873856,35.542284],[136.874542,35.545077],[136.873169,35.550105],[136.875229,35.557368]]],[[[136.872482,35.53949],[136.873856,35.538931],[136.875229,35.53502],[136.871796,35.53502],[136.869049,35.535579],[136.866989,35.538373],[136.871796,35.537814],[136.872482,35.53949]]],[[[136.874542,35.545077],[136.873856,35.542284],[136.877289,35.540049],[136.879349,35.540049],[136.878662,35.536696],[136.875916,35.538931],[136.874542,35.537814],[136.871796,35.541166],[136.871109,35.541166],[136.869736,35.544519],[136.871109,35.545077],[136.874542,35.545077]]],[[[136.875916,35.538931],[136.879349,35.536138],[136.877975,35.532226],[136.880035,35.532226],[136.880035,35.529991],[136.882095,35.529991],[136.882095,35.528873],[136.878662,35.529432],[136.877289,35.528873],[136.876602,35.526638],[136.873169,35.527197],[136.873856,35.532785],[136.871796,35.533903],[136.871796,35.53502],[136.875229,35.53502],[136.873856,35.537814],[136.875916,35.538931]]],[[[136.862183,35.53949],[136.866989,35.538373],[136.869049,35.535579],[136.871796,35.53502],[136.871796,35.533903],[136.873856,35.532785],[136.872482,35.522167],[136.868362,35.52105],[136.866302,35.523844],[136.864929,35.524403],[136.862183,35.524403],[136.862183,35.529432],[136.861496,35.529991],[136.859436,35.536696],[136.862183,35.53949]]]]}},{"type":"Feature","properties":{"layer_id":"bakumatsu_villages","name":"安毛村","address":"美濃 武儀郡","source":"Geoshape 幕末期近世村領域データセット vector tiles (z7 extraction)","subarea_name":"近世村のおおよその範囲","feature_key":"village:K25G16S00012","accuracy_note":"2015年農業集落境界をもとに復元した概略範囲で、江戸時代の正確な村境ではありません"},"geometry":{"type":"Polygon","coordinates":[[[136.917114,35.571332],[136.919174,35.569656],[136.915741,35.566305],[136.912308,35.560161],[136.910248,35.560161],[136.899261,35.554574],[136.888275,35.557926],[136.893768,35.560719],[136.897888,35.561278],[136.903381,35.564629],[136.905441,35.56798],[136.912308,35.571332],[136.917114,35.571332]]]}},{"type":"Feature","properties":{"layer_id":"bakumatsu_villages","name":"小倉村","address":"美濃 武儀郡","source":"Geoshape 幕末期近世村領域データセット vector tiles (z7 extraction)","subarea_name":"近世村のおおよその範囲","feature_key":"village:K25G16S00019","accuracy_note":"2015年農業集落境界をもとに復元した概略範囲で、江戸時代の正確な村境ではありません"},"geometry":{"type":"Polygon","coordinates":[[[136.84639,35.58976],[136.857376,35.588085],[136.859436,35.585293],[136.862869,35.582501],[136.862869,35.581384],[136.856003,35.57915],[136.85463,35.576917],[136.849823,35.576917],[136.84639,35.578592],[136.84639,35.580267],[136.843643,35.579709],[136.84227,35.585852],[136.84639,35.58976]]]}},{"type":"Feature","properties":{"layer_id":"bakumatsu_villages","name":"御手洗村","address":"美濃 武儀郡","source":"Geoshape 幕末期近世村領域データセット vector tiles (z7 extraction)","subarea_name":"近世村のおおよその範囲","feature_key":"village:K25G16S00018","accuracy_note":"2015年農業集落境界をもとに復元した概略範囲で、江戸時代の正確な村境ではありません"},"geometry":{"type":"Polygon","coordinates":[[[136.882095,35.583618],[136.880722,35.574124],[136.879349,35.572449],[136.873169,35.57189],[136.866989,35.561278],[136.864243,35.561278],[136.855316,35.566863],[136.84639,35.567422],[136.84639,35.570215],[136.847076,35.57189],[136.845016,35.5758],[136.84639,35.578592],[136.849823,35.576917],[136.85463,35.576917],[136.856003,35.57915],[136.861496,35.580267],[136.862869,35.582501],[136.869736,35.581943],[136.882095,35.583618]]]}},{"type":"Feature","properties":{"layer_id":"bakumatsu_villages","name":"志摩村","address":"美濃 武儀郡","source":"Geoshape 幕末期近世村領域データセット vector tiles (z7 extraction)","subarea_name":"近世村のおおよその範囲","feature_key":"village:K25G16S00124","accuracy_note":"2015年農業集落境界をもとに復元した概略範囲で、江戸時代の正確な村境ではありません"},"geometry":{"type":"MultiPolygon","coordinates":[[[[136.898575,35.521609],[136.898575,35.519932],[136.899948,35.519932],[136.900635,35.517138],[136.899261,35.518814],[136.897888,35.518814],[136.895142,35.514343],[136.896515,35.511549],[136.893082,35.51099],[136.891022,35.513784],[136.895142,35.517697],[136.893768,35.518814],[136.894455,35.520491],[136.896515,35.520491],[136.898575,35.521609]]],[[[136.899261,35.518814],[136.901321,35.51602],[136.898575,35.512107],[136.896515,35.511549],[136.895142,35.514343],[136.898575,35.518814],[136.899261,35.518814]]]]}},{"type":"Feature","properties":{"layer_id":"bakumatsu_villages","name":"曾代村","address":"美濃 武儀郡","source":"Geoshape 幕末期近世村領域データセット vector tiles (z7 extraction)","subarea_name":"近世村のおおよその範囲","feature_key":"village:K25G16S00101","accuracy_note":"2015年農業集落境界をもとに復元した概略範囲で、江戸時代の正確な村境ではありません"},"geometry":{"type":"Polygon","coordinates":[[[136.920547,35.570215],[136.926041,35.569656],[136.926041,35.565188],[136.928787,35.564071],[136.931534,35.558485],[136.930847,35.555133],[136.924667,35.547312],[136.918488,35.550664],[136.917801,35.551781],[136.913681,35.551223],[136.913681,35.55234],[136.912308,35.551223],[136.910248,35.552899],[136.912308,35.560161],[136.915054,35.565746],[136.917114,35.56798],[136.920547,35.570215]]]}},{"type":"Feature","properties":{"layer_id":"bakumatsu_villages","name":"松森村","address":"美濃 武儀郡","source":"Geoshape 幕末期近世村領域データセット vector tiles (z7 extraction)","subarea_name":"近世村のおおよその範囲","feature_key":"village:K25G16S00097","accuracy_note":"2015年農業集落境界をもとに復元した概略範囲で、江戸時代の正確な村境ではありません"},"geometry":{"type":"Polygon","coordinates":[[[136.924667,35.540608],[136.929474,35.540049],[136.93222,35.536138],[136.935654,35.534461],[136.935654,35.533344],[136.932907,35.532226],[136.932907,35.529432],[136.930847,35.528315],[136.933594,35.524403],[136.931534,35.523285],[136.928787,35.523285],[136.927414,35.521609],[136.926727,35.521609],[136.923981,35.523844],[136.921234,35.521609],[136.917114,35.525521],[136.912308,35.526638],[136.906815,35.526079],[136.902695,35.526638],[136.903381,35.528873],[136.902008,35.531109],[136.902008,35.53502],[136.906128,35.53502],[136.906128,35.536138],[136.910934,35.536696],[136.912308,35.536696],[136.912994,35.535579],[136.915741,35.536138],[136.917114,35.538373],[136.919174,35.540049],[136.924667,35.540608]]]}},{"type":"Feature","properties":{"layer_id":"bakumatsu_villages","name":"極楽寺村","address":"美濃 武儀郡","source":"Geoshape 幕末期近世村領域データセット vector tiles (z7 extraction)","subarea_name":"近世村のおおよその範囲","feature_key":"village:K25G16S00003","accuracy_note":"2015年農業集落境界をもとに復元した概略範囲で、江戸時代の正確な村境ではありません"},"geometry":{"type":"Polygon","coordinates":[[[136.888275,35.557926],[136.888962,35.552899],[136.888275,35.548988],[136.889648,35.546753],[136.887589,35.542842],[136.884842,35.540049],[136.888275,35.538373],[136.888275,35.534461],[136.888962,35.533903],[136.889648,35.532226],[136.892395,35.531667],[136.894455,35.533344],[136.897202,35.532226],[136.893082,35.529432],[136.888962,35.525521],[136.889648,35.527756],[136.885529,35.529432],[136.882095,35.528873],[136.882095,35.529991],[136.880035,35.529991],[136.880035,35.532226],[136.877975,35.532226],[136.880722,35.551781],[136.878662,35.555692],[136.880035,35.55625],[136.885529,35.556809],[136.888275,35.557926]]]}},{"type":"Feature","properties":{"layer_id":"bakumatsu_villages","name":"横越村","address":"美濃 武儀郡","source":"Geoshape 幕末期近世村領域データセット vector tiles (z7 extraction)","subarea_name":"近世村のおおよその範囲","feature_key":"village:K25G16S00007","accuracy_note":"2015年農業集落境界をもとに復元した概略範囲で、江戸時代の正確な村境ではありません"},"geometry":{"type":"Polygon","coordinates":[[[136.888962,35.552899],[136.895828,35.547871],[136.898575,35.544519],[136.899261,35.536696],[136.899261,35.534461],[136.897202,35.532226],[136.894455,35.533344],[136.892395,35.531667],[136.889648,35.532226],[136.888962,35.533903],[136.888275,35.534461],[136.888275,35.538373],[136.884842,35.540049],[136.887589,35.542842],[136.889648,35.546753],[136.888275,35.548988],[136.888962,35.552899]]]}},{"type":"Feature","properties":{"layer_id":"bakumatsu_villages","name":"片知村","address":"美濃 武儀郡","source":"Geoshape 幕末期近世村領域データセット vector tiles (z7 extraction)","subarea_name":"近世村のおおよその範囲","feature_key":"village:K25G16S00014","accuracy_note":"2015年農業集落境界をもとに復元した概略範囲で、江戸時代の正確な村境ではありません"},"geometry":{"type":"MultiPolygon","coordinates":[[[[136.879349,35.652833],[136.886215,35.650601],[136.888962,35.651159],[136.890335,35.648369],[136.893082,35.648369],[136.897888,35.645579],[136.898575,35.639999],[136.901321,35.637767],[136.903381,35.630512],[136.903381,35.627721],[136.911621,35.623256],[136.913681,35.619907],[136.915054,35.613209],[136.917801,35.610418],[136.910934,35.602602],[136.901321,35.595902],[136.894455,35.604835],[136.891022,35.60651],[136.886902,35.607068],[136.884155,35.610418],[136.879349,35.613209],[136.877975,35.616],[136.877975,35.618233],[136.874542,35.623815],[136.877289,35.629954],[136.877289,35.632744],[136.870422,35.635535],[136.869049,35.647253],[136.870422,35.648369],[136.872482,35.648369],[136.875916,35.651717],[136.879349,35.652833]]],[[[136.899948,35.581943],[136.897888,35.578033],[136.899948,35.570215],[136.902008,35.568539],[136.905441,35.567422],[136.903381,35.564629],[136.897888,35.561278],[136.893768,35.560719],[136.891022,35.562395],[136.889648,35.56798],[136.891022,35.569098],[136.893768,35.578033],[136.896515,35.580826],[136.899948,35.581943]]],[[[136.903381,35.585293],[136.907501,35.582501],[136.909561,35.577475],[136.906128,35.577475],[136.905441,35.576358],[136.903381,35.576917],[136.898575,35.573566],[136.898575,35.579709],[136.903381,35.585293]]],[[[136.917801,35.610418],[136.921921,35.607068],[136.923294,35.602602],[136.925354,35.601486],[136.923981,35.595344],[136.927414,35.590319],[136.918488,35.581384],[136.914368,35.57915],[136.909561,35.577475],[136.907501,35.582501],[136.902695,35.58641],[136.901321,35.590877],[136.901321,35.595902],[136.910934,35.602602],[136.917801,35.610418]]]]}},{"type":"Feature","properties":{"layer_id":"bakumatsu_villages","name":"生櫛村","address":"美濃 武儀郡","source":"Geoshape 幕末期近世村領域データセット vector tiles (z7 extraction)","subarea_name":"近世村のおおよその範囲","feature_key":"village:K25G16S00001","accuracy_note":"2015年農業集落境界をもとに復元した概略範囲で、江戸時代の正確な村境ではありません"},"geometry":{"type":"Polygon","coordinates":[[[136.902008,35.53502],[136.902008,35.529991],[136.903381,35.528315],[136.902695,35.526638],[136.901321,35.527197],[136.900635,35.524403],[136.899948,35.519932],[136.898575,35.519932],[136.898575,35.521609],[136.896515,35.520491],[136.895142,35.520491],[136.893768,35.518814],[136.895142,35.517697],[136.891022,35.513784],[136.887589,35.517697],[136.886902,35.520491],[136.887589,35.523844],[136.893082,35.529432],[136.898575,35.532785],[136.899261,35.53502],[136.902008,35.53502]]]}},{"type":"Feature","properties":{"layer_id":"bakumatsu_villages","name":"神洞村","address":"美濃 武儀郡","source":"Geoshape 幕末期近世村領域データセット vector tiles (z7 extraction)","subarea_name":"近世村のおおよその範囲","feature_key":"village:K25G16S00015","accuracy_note":"2015年農業集落境界をもとに復元した概略範囲で、江戸時代の正確な村境ではありません"},"geometry":{"type":"Polygon","coordinates":[[[136.888962,35.585852],[136.893082,35.581384],[136.895142,35.581943],[136.897888,35.584735],[136.899261,35.584176],[136.899948,35.581943],[136.896515,35.580826],[136.893768,35.578033],[136.891022,35.569098],[136.889648,35.56798],[136.891022,35.562395],[136.893768,35.560719],[136.888275,35.557926],[136.885529,35.556809],[136.880035,35.55625],[136.879349,35.554574],[136.871796,35.559602],[136.866302,35.561278],[136.868362,35.562953],[136.873169,35.57189],[136.879349,35.572449],[136.880722,35.574124],[136.882095,35.583618],[136.888962,35.585852]]]}},{"type":"Feature","properties":{"layer_id":"bakumatsu_villages","name":"立花村","address":"美濃 武儀郡","source":"Geoshape 幕末期近世村領域データセット vector tiles (z7 extraction)","subarea_name":"近世村のおおよその範囲","feature_key":"village:K25G16S00011","accuracy_note":"2015年農業集落境界をもとに復元した概略範囲で、江戸時代の正確な村境ではありません"},"geometry":{"type":"Polygon","coordinates":[[[136.927414,35.590319],[136.932907,35.588085],[136.933594,35.581943],[136.937027,35.581943],[136.94458,35.578592],[136.945267,35.580267],[136.9487,35.578033],[136.949387,35.574683],[136.948013,35.573007],[136.945267,35.573007],[136.941833,35.577475],[136.937714,35.578033],[136.932907,35.576917],[136.927414,35.569656],[136.921921,35.570215],[136.919861,35.569656],[136.917114,35.571332],[136.912308,35.571332],[136.910248,35.573007],[136.909561,35.575241],[136.910248,35.578033],[136.914368,35.57915],[136.918488,35.581384],[136.927414,35.590319]]]}},{"type":"Feature","properties":{"layer_id":"bakumatsu_villages","name":"笠神村","address":"美濃 武儀郡","source":"Geoshape 幕末期近世村領域データセット vector tiles (z7 extraction)","subarea_name":"近世村のおおよその範囲","feature_key":"village:K25G16S00006","accuracy_note":"2015年農業集落境界をもとに復元した概略範囲で、江戸時代の正確な村境ではありません"},"geometry":{"type":"Polygon","coordinates":[[[136.885529,35.529432],[136.889648,35.527756],[136.886902,35.521609],[136.886902,35.518255],[136.893082,35.51099],[136.886902,35.513225],[136.885529,35.514902],[136.882095,35.515461],[136.881409,35.517697],[136.874542,35.520491],[136.871109,35.52105],[136.873169,35.527197],[136.876602,35.526638],[136.877289,35.528873],[136.878662,35.529432],[136.883469,35.528873],[136.885529,35.529432]]]}},{"type":"Feature","properties":{"layer_id":"bakumatsu_villages","name":"蕨生村","address":"美濃 武儀郡","source":"Geoshape 幕末期近世村領域データセット vector tiles (z7 extraction)","subarea_name":"近世村のおおよその範囲","feature_key":"village:K25G16S00016","accuracy_note":"2015年農業集落境界をもとに復元した概略範囲で、江戸時代の正確な村境ではありません"},"geometry":{"type":"MultiPolygon","coordinates":[[[[136.879349,35.613209],[136.884155,35.610418],[136.886902,35.607068],[136.893082,35.605952],[136.895828,35.60316],[136.890335,35.599811],[136.888962,35.597019],[136.889648,35.594227],[136.887589,35.593669],[136.884155,35.588644],[136.878662,35.587527],[136.874542,35.588085],[136.873169,35.58976],[136.871109,35.594227],[136.871109,35.597019],[136.869049,35.598694],[136.870422,35.604277],[136.871796,35.60651],[136.877975,35.610418],[136.879349,35.613209]]],[[[136.891022,35.594227],[136.892395,35.592552],[136.892395,35.590877],[136.890335,35.590319],[136.891022,35.587527],[136.894455,35.58641],[136.890335,35.584735],[136.888962,35.585852],[136.886215,35.584735],[136.882782,35.588644],[136.884155,35.588644],[136.886215,35.592552],[136.888962,35.594227],[136.891022,35.594227]]],[[[136.882782,35.588644],[136.886215,35.584735],[136.880722,35.583059],[136.875229,35.582501],[136.874542,35.586968],[136.874542,35.588085],[136.878662,35.587527],[136.882782,35.588644]]],[[[136.895828,35.60316],[136.900635,35.597577],[136.901321,35.590319],[136.894455,35.58641],[136.891022,35.588644],[136.890335,35.590319],[136.892395,35.590877],[136.892395,35.592552],[136.889648,35.594227],[136.888962,35.598136],[136.891022,35.600927],[136.895828,35.60316]]],[[[136.901321,35.590319],[136.903381,35.585293],[136.899948,35.581943],[136.899261,35.584176],[136.897888,35.584735],[136.895142,35.581943],[136.893082,35.581384],[136.890335,35.584735],[136.901321,35.590319]]]]}},{"type":"Feature","properties":{"layer_id":"bakumatsu_villages","name":"長瀬村","address":"美濃 武儀郡","source":"Geoshape 幕末期近世村領域データセット vector tiles (z7 extraction)","subarea_name":"近世村のおおよその範囲","feature_key":"village:K25G16S00010","accuracy_note":"2015年農業集落境界をもとに復元した概略範囲で、江戸時代の正確な村境ではありません"},"geometry":{"type":"Polygon","coordinates":[[[136.909561,35.578033],[136.909561,35.575241],[136.910248,35.573007],[136.912308,35.571332],[136.905441,35.56798],[136.902695,35.56798],[136.899948,35.570215],[136.898575,35.573566],[136.903381,35.576917],[136.905441,35.576358],[136.906128,35.577475],[136.909561,35.578033]]]}},{"type":"Feature","properties":{"layer_id":"bakumatsu_villages","name":"須原村","address":"美濃 武儀郡","source":"Geoshape 幕末期近世村領域データセット vector tiles (z7 extraction)","subarea_name":"近世村のおおよその範囲","feature_key":"village:K25G16S00013","accuracy_note":"2015年農業集落境界をもとに復元した概略範囲で、江戸時代の正確な村境ではありません"},"geometry":{"type":"Polygon","coordinates":[[[136.927414,35.602044],[136.930161,35.601486],[136.93222,35.599252],[136.93428,35.599252],[136.941833,35.598694],[136.94252,35.599811],[136.94458,35.598136],[136.947327,35.597577],[136.956253,35.600369],[136.958313,35.598136],[136.956253,35.596461],[136.945267,35.589202],[136.943207,35.581943],[136.943207,35.580826],[136.945267,35.580267],[136.94458,35.578592],[136.937027,35.581943],[136.933594,35.581943],[136.932907,35.588085],[136.927414,35.590319],[136.923981,35.595344],[136.925354,35.601486],[136.927414,35.602044]]]}},{"type":"Feature","properties":{"layer_id":"civil_engineering_heritage","name":"美濃橋","address":"岐阜県/美濃市","source":"土木学会 選奨土木遺産","subarea_name":"完成当時に最大級で、現在はわが国に現存する最古の吊橋","feature_key":"civil:240:美濃橋","source_url":"https://committees.jsce.or.jp/heritage/node/188","accuracy_note":"公式地図の位置を優先して収録しています"},"geometry":{"type":"Point","coordinates":[136.910462,35.552244]}},{"type":"Feature","properties":{"layer_id":"edo_post_stations","name":"上有知","address":"","source":"CODH 江戸宿場データセット Version 1 (2026-08)","feature_key":"post:R513-004"},"geometry":{"type":"Point","coordinates":[136.911961,35.546155]}},{"type":"Feature","properties":{"layer_id":"historical_sites_archaeology","name":"丸山古窯跡","address":"岐阜県 美濃市 大矢田","source":"Geoshape 日本歴史地名大系 施設・地点項目データセット 2025-05-15","subarea_name":"遺跡","feature_key":"08_archaeological_sites.geojson:210000220200","subtype":"遺跡"},"geometry":{"type":"Point","coordinates":[136.867623,35.5276]}},{"type":"Feature","properties":{"layer_id":"historical_sites_archaeology","name":"渡来川北遺跡","address":"岐阜県 美濃市 もみじが丘一丁目","source":"Geoshape 日本歴史地名大系 施設・地点項目データセット 2025-05-15","subarea_name":"遺跡","feature_key":"08_archaeological_sites.geojson:210000220300","subtype":"遺跡"},"geometry":{"type":"Point","coordinates":[136.87951,35.530184]}},{"type":"Feature","properties":{"layer_id":"historical_sites_archaeology","name":"港町岩陰遺跡","address":"岐阜県 美濃市 −","source":"Geoshape 日本歴史地名大系 施設・地点項目データセット 2025-05-15","subarea_name":"遺跡","feature_key":"08_archaeological_sites.geojson:210000219100","subtype":"遺跡"},"geometry":{"type":"Point","coordinates":[136.908256,35.548727]}},{"type":"Feature","properties":{"layer_id":"historical_temples_shrines","name":"大矢田神社","address":"岐阜県 美濃市 大矢田2596番地","source":"Geoshape 日本歴史地名大系 施設・地点項目データセット 2025-05-15","subarea_name":"神社","feature_key":"02_shrines.geojson:210000220100","subtype":"神社"},"geometry":{"type":"Point","coordinates":[136.870041,35.556343]}},{"type":"Feature","properties":{"layer_id":"historical_temples_shrines","name":"江竜寺","address":"岐阜県 美濃市 横越588番地","source":"Geoshape 日本歴史地名大系 施設・地点項目データセット 2025-05-15","subarea_name":"寺院","feature_key":"01_temples.geojson:210000219600","subtype":"寺院"},"geometry":{"type":"Point","coordinates":[136.896164,35.53989]}},{"type":"Feature","properties":{"layer_id":"historical_temples_shrines","name":"洲原神社","address":"岐阜県 美濃市 須原468番地","source":"Geoshape 日本歴史地名大系 施設・地点項目データセット 2025-05-15","subarea_name":"神社","feature_key":"02_shrines.geojson:210000221300","subtype":"神社"},"geometry":{"type":"Point","coordinates":[136.948593,35.592384]}},{"type":"Feature","properties":{"layer_id":"historical_temples_shrines","name":"清泰寺","address":"岐阜県 美濃市 1439番地の1","source":"Geoshape 日本歴史地名大系 施設・地点項目データセット 2025-05-15","subarea_name":"寺院","feature_key":"01_temples.geojson:210000219000","subtype":"寺院"},"geometry":{"type":"Point","coordinates":[136.908148,35.548039]}},{"type":"Feature","properties":{"layer_id":"historical_temples_shrines","name":"瀧神社","address":"岐阜県 美濃市 乙狩字クエタテ2218番地","source":"Geoshape 日本歴史地名大系 施設・地点項目データセット 2025-05-15","subarea_name":"神社","feature_key":"02_shrines.geojson:210000222800","subtype":"神社"},"geometry":{"type":"Point","coordinates":[136.859876,35.625898]}},{"type":"Feature","properties":{"layer_id":"historical_temples_shrines","name":"真木倉神社","address":"岐阜県 美濃市 御手洗字森切561番地","source":"Geoshape 日本歴史地名大系 施設・地点項目データセット 2025-05-15","subarea_name":"神社","feature_key":"02_shrines.geojson:210000222300","subtype":"神社"},"geometry":{"type":"Point","coordinates":[136.867031,35.581151]}},{"type":"Feature","properties":{"layer_id":"historical_temples_shrines","name":"金峰神社","address":"岐阜県 美濃市 片知猿洞3091番地","source":"Geoshape 日本歴史地名大系 施設・地点項目データセット 2025-05-15","subarea_name":"神社","feature_key":"02_shrines.geojson:210000221900","subtype":"神社"},"geometry":{"type":"Point","coordinates":[136.911371,35.597309]}},{"type":"Feature","properties":{"layer_id":"historical_temples_shrines","name":"鹿苑寺","address":"岐阜県 美濃市 立花955番地","source":"Geoshape 日本歴史地名大系 施設・地点項目データセット 2025-05-15","subarea_name":"寺院","feature_key":"01_temples.geojson:210000221100","subtype":"寺院"},"geometry":{"type":"Point","coordinates":[136.924011,35.579323]}}]}