{"type":"FeatureCollection","municipality_code":"21209","pref":"岐阜県","city":"羽島市","layer_counts":{"bakumatsu_villages":48,"historical_sites_archaeology":4,"historical_temples_shrines":6},"total_features":58,"features":[{"type":"Feature","properties":{"layer_id":"bakumatsu_villages","name":"一色村","address":"美濃 中島郡","source":"Geoshape 幕末期近世村領域データセット vector tiles (z7 extraction)","subarea_name":"近世村のおおよその範囲","feature_key":"village:K25G04S00002","accuracy_note":"2015年農業集落境界をもとに復元した概略範囲で、江戸時代の正確な村境ではありません"},"geometry":{"type":"Polygon","coordinates":[[[136.709747,35.3056],[136.71524,35.304479],[136.714554,35.300556],[136.711121,35.297194],[136.711807,35.294952],[136.706314,35.294952],[136.701508,35.296073],[136.701508,35.297754],[136.703568,35.297754],[136.704254,35.299435],[136.709747,35.299996],[136.711121,35.302798],[136.709747,35.303919],[136.709747,35.3056]]]}},{"type":"Feature","properties":{"layer_id":"bakumatsu_villages","name":"三ツ柳村","address":"美濃 中島郡","source":"Geoshape 幕末期近世村領域データセット vector tiles (z7 extraction)","subarea_name":"近世村のおおよその範囲","feature_key":"village:K25G04S00004","accuracy_note":"2015年農業集落境界をもとに復元した概略範囲で、江戸時代の正確な村境ではありません"},"geometry":{"type":"Polygon","coordinates":[[[136.7276,35.314565],[136.73378,35.312324],[136.728287,35.301117],[136.72348,35.302798],[136.722794,35.307841],[136.720734,35.311763],[136.718674,35.312324],[136.71936,35.314005],[136.726227,35.313444],[136.7276,35.314565]]]}},{"type":"Feature","properties":{"layer_id":"bakumatsu_villages","name":"不破一色村","address":"美濃 羽栗郡","source":"Geoshape 幕末期近世村領域データセット vector tiles (z7 extraction)","subarea_name":"近世村のおおよその範囲","feature_key":"village:K25G03S00004","accuracy_note":"2015年農業集落境界をもとに復元した概略範囲で、江戸時代の正確な村境ではありません"},"geometry":{"type":"Polygon","coordinates":[[[136.726913,35.335293],[136.728973,35.333053],[136.72966,35.329131],[136.724854,35.329691],[136.724854,35.328571],[136.72348,35.328571],[136.7173,35.331932],[136.718674,35.333053],[136.722794,35.332492],[136.726913,35.335293]]]}},{"type":"Feature","properties":{"layer_id":"bakumatsu_villages","name":"中村","address":"美濃 中島郡","source":"Geoshape 幕末期近世村領域データセット vector tiles (z7 extraction)","subarea_name":"近世村のおおよその範囲","feature_key":"village:K25G04S00007","accuracy_note":"2015年農業集落境界をもとに復元した概略範囲で、江戸時代の正確な村境ではありません"},"geometry":{"type":"Polygon","coordinates":[[[136.691895,35.303919],[136.704941,35.301677],[136.706314,35.299435],[136.704254,35.299435],[136.703568,35.297754],[136.701508,35.297194],[136.695328,35.301677],[136.692581,35.302798],[136.690521,35.299996],[136.686401,35.300556],[136.685028,35.303919],[136.689835,35.303358],[136.691895,35.303919]]]}},{"type":"Feature","properties":{"layer_id":"bakumatsu_villages","name":"光法寺村","address":"美濃 羽栗郡","source":"Geoshape 幕末期近世村領域データセット vector tiles (z7 extraction)","subarea_name":"近世村のおおよその範囲","feature_key":"village:K25G03S00045","accuracy_note":"2015年農業集落境界をもとに復元した概略範囲で、江戸時代の正確な村境ではありません"},"geometry":{"type":"Polygon","coordinates":[[[136.744766,35.338094],[136.750259,35.336974],[136.745453,35.330252],[136.73996,35.332492],[136.741333,35.335293],[136.742706,35.335853],[136.742706,35.337534],[136.744766,35.338094]]]}},{"type":"Feature","properties":{"layer_id":"bakumatsu_villages","name":"八神村","address":"美濃 中島郡","source":"Geoshape 幕末期近世村領域データセット vector tiles (z7 extraction)","subarea_name":"近世村のおおよその範囲","feature_key":"village:K25G04S00023","accuracy_note":"2015年農業集落境界をもとに復元した概略範囲で、江戸時代の正確な村境ではありません"},"geometry":{"type":"MultiPolygon","coordinates":[[[[136.684341,35.282061],[136.686401,35.281501],[136.685715,35.279259],[136.689835,35.279259],[136.689148,35.278137],[136.690521,35.278137],[136.689148,35.274774],[136.693268,35.274214],[136.693954,35.274774],[136.695328,35.274774],[136.696701,35.274214],[136.697388,35.274774],[136.698074,35.274214],[136.702881,35.273092],[136.696014,35.260198],[136.687775,35.263001],[136.685028,35.263001],[136.677475,35.265804],[136.678848,35.268608],[136.676102,35.270289],[136.679535,35.271411],[136.681595,35.27085],[136.682281,35.276456],[136.684341,35.279259],[136.684341,35.282061]]],[[[136.686401,35.263001],[136.696701,35.260198],[136.691208,35.254591],[136.684341,35.249544],[136.681595,35.251787],[136.684341,35.259077],[136.683655,35.259637],[136.683655,35.260759],[136.686401,35.263001]]]]}},{"type":"Feature","properties":{"layer_id":"bakumatsu_villages","name":"北宿村","address":"美濃 羽栗郡","source":"Geoshape 幕末期近世村領域データセット vector tiles (z7 extraction)","subarea_name":"近世村のおおよその範囲","feature_key":"village:K25G03S00024","accuracy_note":"2015年農業集落境界をもとに復元した概略範囲で、江戸時代の正確な村境ではありません"},"geometry":{"type":"Polygon","coordinates":[[[136.73172,35.356576],[136.734467,35.353776],[136.732407,35.349296],[136.726227,35.350416],[136.72966,35.354896],[136.728973,35.356576],[136.73172,35.356576]]]}},{"type":"Feature","properties":{"layer_id":"bakumatsu_villages","name":"午北新田","address":"美濃 中島郡","source":"Geoshape 幕末期近世村領域データセット vector tiles (z7 extraction)","subarea_name":"近世村のおおよその範囲","feature_key":"village:K25G04S00014","accuracy_note":"2015年農業集落境界をもとに復元した概略範囲で、江戸時代の正確な村境ではありません"},"geometry":{"type":"Polygon","coordinates":[[[136.687088,35.296073],[136.690521,35.295513],[136.693954,35.291589],[136.690521,35.29215],[136.689148,35.289348],[136.685028,35.290469],[136.681595,35.288787],[136.681595,35.29271],[136.683655,35.29271],[136.685715,35.296073],[136.687088,35.296073]]]}},{"type":"Feature","properties":{"layer_id":"bakumatsu_villages","name":"午南新田","address":"美濃 中島郡","source":"Geoshape 幕末期近世村領域データセット vector tiles (z7 extraction)","subarea_name":"近世村のおおよその範囲","feature_key":"village:K25G04S00015","accuracy_note":"2015年農業集落境界をもとに復元した概略範囲で、江戸時代の正確な村境ではありません"},"geometry":{"type":"Polygon","coordinates":[[[136.679535,35.265244],[136.686401,35.263001],[136.683655,35.260759],[136.683655,35.259637],[136.684341,35.259077],[136.681595,35.251787],[136.675415,35.25403],[136.679535,35.265244]]]}},{"type":"Feature","properties":{"layer_id":"bakumatsu_villages","name":"南ノ川村","address":"美濃 羽栗郡","source":"Geoshape 幕末期近世村領域データセット vector tiles (z7 extraction)","subarea_name":"近世村のおおよその範囲","feature_key":"village:K25G03S00023","accuracy_note":"2015年農業集落境界をもとに復元した概略範囲で、江戸時代の正確な村境ではありません"},"geometry":{"type":"Polygon","coordinates":[[[136.710434,35.335853],[136.716614,35.331372],[136.713181,35.329691],[136.707001,35.330252],[136.707001,35.331372],[136.709061,35.332492],[136.710434,35.335853]]]}},{"type":"Feature","properties":{"layer_id":"bakumatsu_villages","name":"南及村","address":"美濃 羽栗郡","source":"Geoshape 幕末期近世村領域データセット vector tiles (z7 extraction)","subarea_name":"近世村のおおよその範囲","feature_key":"village:K25G03S00013","accuracy_note":"2015年農業集落境界をもとに復元した概略範囲で、江戸時代の正確な村境ではありません"},"geometry":{"type":"Polygon","coordinates":[[[136.748199,35.346495],[136.753693,35.345375],[136.750259,35.336974],[136.744766,35.338094],[136.741333,35.339214],[136.742706,35.340895],[136.73996,35.341455],[136.741333,35.345375],[136.74408,35.344815],[136.74614,35.345935],[136.747513,35.345375],[136.748199,35.346495]]]}},{"type":"Feature","properties":{"layer_id":"bakumatsu_villages","name":"南宿村","address":"美濃 羽栗郡","source":"Geoshape 幕末期近世村領域データセット vector tiles (z7 extraction)","subarea_name":"近世村のおおよその範囲","feature_key":"village:K25G03S00029","accuracy_note":"2015年農業集落境界をもとに復元した概略範囲で、江戸時代の正確な村境ではありません"},"geometry":{"type":"Polygon","coordinates":[[[136.726227,35.349856],[136.731033,35.347056],[136.7276,35.344815],[136.724854,35.339774],[136.720047,35.341455],[136.711121,35.342015],[136.711807,35.344255],[136.716614,35.343695],[136.72142,35.347616],[136.72348,35.347056],[136.726227,35.349856]]]}},{"type":"Feature","properties":{"layer_id":"bakumatsu_villages","name":"坂丸村・加納村","address":"美濃 羽栗郡","source":"Geoshape 幕末期近世村領域データセット vector tiles (z7 extraction)","subarea_name":"近世村のおおよその範囲","feature_key":"village:K25G03S00014,K25G03S00025","accuracy_note":"2015年農業集落境界をもとに復元した概略範囲で、江戸時代の正確な村境ではありません"},"geometry":{"type":"Polygon","coordinates":[[[136.731033,35.336974],[136.73172,35.336414],[136.73172,35.334173],[136.73584,35.333053],[136.734467,35.332492],[136.734467,35.330812],[136.72966,35.329131],[136.728973,35.333613],[136.731033,35.335293],[136.731033,35.336974]]]}},{"type":"Feature","properties":{"layer_id":"bakumatsu_villages","name":"坂井村","address":"美濃 羽栗郡","source":"Geoshape 幕末期近世村領域データセット vector tiles (z7 extraction)","subarea_name":"近世村のおおよその範囲","feature_key":"village:K25G03S00034","accuracy_note":"2015年農業集落境界をもとに復元した概略範囲で、江戸時代の正確な村境ではありません"},"geometry":{"type":"Polygon","coordinates":[[[136.7173,35.350416],[136.71936,35.345375],[136.716614,35.343695],[136.711807,35.344255],[136.713181,35.350416],[136.7173,35.350416]]]}},{"type":"Feature","properties":{"layer_id":"bakumatsu_villages","name":"城屋敷村","address":"美濃 中島郡","source":"Geoshape 幕末期近世村領域データセット vector tiles (z7 extraction)","subarea_name":"近世村のおおよその範囲","feature_key":"village:K25G04S00028","accuracy_note":"2015年農業集落境界をもとに復元した概略範囲で、江戸時代の正確な村境ではありません"},"geometry":{"type":"Polygon","coordinates":[[[136.709747,35.294952],[136.712494,35.293831],[136.712494,35.289908],[136.71524,35.286545],[136.710434,35.283182],[136.705627,35.284864],[136.700134,35.285985],[136.701508,35.291589],[136.705627,35.291589],[136.709747,35.294952]]]}},{"type":"Feature","properties":{"layer_id":"bakumatsu_villages","name":"堀津村","address":"美濃 中島郡","source":"Geoshape 幕末期近世村領域データセット vector tiles (z7 extraction)","subarea_name":"近世村のおおよその範囲","feature_key":"village:K25G04S00032","accuracy_note":"2015年農業集落境界をもとに復元した概略範囲で、江戸時代の正確な村境ではありません"},"geometry":{"type":"MultiPolygon","coordinates":[[[[136.665115,35.314005],[136.673355,35.313444],[136.676788,35.311203],[136.676788,35.310082],[136.681595,35.309522],[136.681595,35.308962],[136.679535,35.305039],[136.676788,35.305039],[136.676788,35.302798],[136.671295,35.305039],[136.667862,35.303919],[136.665115,35.305039],[136.664429,35.310082],[136.665115,35.314005]]],[[[136.681595,35.308401],[136.682968,35.304479],[136.685028,35.303919],[136.686401,35.300556],[136.687775,35.299996],[136.687088,35.297194],[136.678162,35.298875],[136.678162,35.299996],[136.676788,35.300556],[136.677475,35.301117],[136.676788,35.301677],[136.676788,35.305039],[136.679535,35.305039],[136.681595,35.308401]]],[[[136.671295,35.305039],[136.676788,35.302798],[136.678162,35.298875],[136.686401,35.297754],[136.687088,35.297194],[136.687088,35.296073],[136.685715,35.296073],[136.683655,35.29271],[136.681595,35.29271],[136.682281,35.286545],[136.678162,35.287106],[136.674042,35.286545],[136.665115,35.305039],[136.667862,35.303919],[136.671295,35.305039]]]]}},{"type":"Feature","properties":{"layer_id":"bakumatsu_villages","name":"大浦村","address":"美濃 中島郡","source":"Geoshape 幕末期近世村領域データセット vector tiles (z7 extraction)","subarea_name":"近世村のおおよその範囲","feature_key":"village:K25G04S00013","accuracy_note":"2015年農業集落境界をもとに復元した概略範囲で、江戸時代の正確な村境ではありません"},"geometry":{"type":"MultiPolygon","coordinates":[[[[136.734467,35.330812],[136.73378,35.329691],[136.742706,35.32633],[136.73584,35.315685],[136.728973,35.317366],[136.72966,35.321288],[136.728287,35.321288],[136.728287,35.321848],[136.720734,35.322969],[136.722107,35.324089],[136.722107,35.329131],[136.730347,35.328571],[136.734467,35.330812]]],[[[136.737213,35.343135],[136.740646,35.342575],[136.73996,35.341455],[136.742706,35.340895],[136.741333,35.339214],[136.744766,35.338094],[136.742706,35.337534],[136.742706,35.335853],[136.74202,35.335293],[136.740646,35.335293],[136.73996,35.334173],[136.737213,35.334733],[136.740646,35.339214],[136.738586,35.338654],[136.739273,35.340334],[136.737213,35.340334],[136.737213,35.343135]]],[[[136.741333,35.335293],[136.74202,35.334173],[136.73996,35.332492],[136.745453,35.330252],[136.742706,35.32633],[136.73378,35.329691],[136.735153,35.330252],[136.734467,35.332492],[136.737213,35.334733],[136.73996,35.334173],[136.740646,35.335293],[136.741333,35.335293]]]]}},{"type":"Feature","properties":{"layer_id":"bakumatsu_villages","name":"大須村","address":"美濃 中島郡","source":"Geoshape 幕末期近世村領域データセット vector tiles (z7 extraction)","subarea_name":"近世村のおおよその範囲","feature_key":"village:K25G04S00022","accuracy_note":"2015年農業集落境界をもとに復元した概略範囲で、江戸時代の正確な村境ではありません"},"geometry":{"type":"Polygon","coordinates":[[[136.674728,35.272532],[136.679535,35.271411],[136.676102,35.270289],[136.678848,35.268608],[136.677475,35.265804],[136.679535,35.265244],[136.675415,35.254591],[136.672668,35.257955],[136.663742,35.259077],[136.668549,35.267486],[136.672668,35.269729],[136.674728,35.272532]]]}},{"type":"Feature","properties":{"layer_id":"bakumatsu_villages","name":"天王森村","address":"美濃 羽栗郡","source":"Geoshape 幕末期近世村領域データセット vector tiles (z7 extraction)","subarea_name":"近世村のおおよその範囲","feature_key":"village:K25G03S00020","accuracy_note":"2015年農業集落境界をもとに復元した概略範囲で、江戸時代の正確な村境ではありません"},"geometry":{"type":"Polygon","coordinates":[[[136.691895,35.341455],[136.691895,35.340334],[136.699448,35.338654],[136.697388,35.338094],[136.698074,35.337534],[136.692581,35.335293],[136.688461,35.335853],[136.688461,35.341455],[136.691895,35.341455]]]}},{"type":"Feature","properties":{"layer_id":"bakumatsu_villages","name":"小荒井村","address":"美濃 羽栗郡","source":"Geoshape 幕末期近世村領域データセット vector tiles (z7 extraction)","subarea_name":"近世村のおおよその範囲","feature_key":"village:K25G03S00037","accuracy_note":"2015年農業集落境界をもとに復元した概略範囲で、江戸時代の正確な村境ではありません"},"geometry":{"type":"Polygon","coordinates":[[[136.711121,35.342015],[136.720047,35.341455],[136.724854,35.339774],[136.72348,35.336974],[136.716614,35.331372],[136.710434,35.335853],[136.711121,35.342015]]]}},{"type":"Feature","properties":{"layer_id":"bakumatsu_villages","name":"小藪村","address":"美濃 中島郡","source":"Geoshape 幕末期近世村領域データセット vector tiles (z7 extraction)","subarea_name":"近世村のおおよその範囲","feature_key":"village:K25G04S00001","accuracy_note":"2015年農業集落境界をもとに復元した概略範囲で、江戸時代の正確な村境ではありません"},"geometry":{"type":"MultiPolygon","coordinates":[[[[136.668549,35.267486],[136.663742,35.259077],[136.663742,35.25347],[136.664429,35.251787],[136.663055,35.251787],[136.660309,35.25347],[136.658936,35.25347],[136.656876,35.257394],[136.660995,35.263001],[136.668549,35.267486]]],[[[136.663742,35.259077],[136.672668,35.257955],[136.674042,35.256273],[136.675415,35.255712],[136.674042,35.248423],[136.675415,35.247301],[136.673355,35.24618],[136.673355,35.243937],[136.671982,35.243376],[136.669922,35.245058],[136.663742,35.252348],[136.663742,35.259077]]],[[[136.675415,35.25403],[136.681595,35.251787],[136.684341,35.249544],[136.679535,35.245058],[136.677475,35.241133],[136.671982,35.243376],[136.673355,35.243937],[136.673355,35.24618],[136.675415,35.247301],[136.674042,35.248423],[136.675415,35.25403]]]]}},{"type":"Feature","properties":{"layer_id":"bakumatsu_villages","name":"島村","address":"美濃 羽栗郡","source":"Geoshape 幕末期近世村領域データセット vector tiles (z7 extraction)","subarea_name":"近世村のおおよその範囲","feature_key":"village:K25G03S00038","accuracy_note":"2015年農業集落境界をもとに復元した概略範囲で、江戸時代の正確な村境ではありません"},"geometry":{"type":"MultiPolygon","coordinates":[[[[136.711121,35.337534],[136.709061,35.332492],[136.707001,35.331372],[136.707001,35.330252],[136.712494,35.329691],[136.712494,35.328571],[136.704941,35.328571],[136.704254,35.331372],[136.702881,35.331372],[136.700821,35.334173],[136.702194,35.333613],[136.702881,35.337534],[136.711121,35.337534]]],[[[136.700134,35.336974],[136.700821,35.334733],[136.699448,35.336414],[136.700134,35.336974]]]]}},{"type":"Feature","properties":{"layer_id":"bakumatsu_villages","name":"川口村","address":"美濃 羽栗郡","source":"Geoshape 幕末期近世村領域データセット vector tiles (z7 extraction)","subarea_name":"近世村のおおよその範囲","feature_key":"village:K25G03S00018","accuracy_note":"2015年農業集落境界をもとに復元した概略範囲で、江戸時代の正確な村境ではありません"},"geometry":{"type":"Polygon","coordinates":[[[136.700821,35.339214],[136.702881,35.338654],[136.702881,35.337534],[136.702194,35.333613],[136.700821,35.334173],[136.700134,35.336974],[136.699448,35.336414],[136.697388,35.337534],[136.697388,35.338094],[136.699448,35.338094],[136.698074,35.338654],[136.700821,35.339214]]]}},{"type":"Feature","properties":{"layer_id":"bakumatsu_villages","name":"市之枝村","address":"美濃 中島郡","source":"Geoshape 幕末期近世村領域データセット vector tiles (z7 extraction)","subarea_name":"近世村のおおよその範囲","feature_key":"village:K25G04S00029","accuracy_note":"2015年農業集落境界をもとに復元した概略範囲で、江戸時代の正確な村境ではありません"},"geometry":{"type":"Polygon","coordinates":[[[136.690521,35.29215],[136.693954,35.291589],[136.696701,35.291029],[136.697388,35.289908],[136.700821,35.288227],[136.700821,35.285985],[136.689835,35.284303],[136.685028,35.284303],[136.682281,35.288787],[136.685028,35.290469],[136.689148,35.289348],[136.690521,35.29215]]]}},{"type":"Feature","properties":{"layer_id":"bakumatsu_villages","name":"市場村","address":"美濃 羽栗郡","source":"Geoshape 幕末期近世村領域データセット vector tiles (z7 extraction)","subarea_name":"近世村のおおよその範囲","feature_key":"village:K25G03S00036","accuracy_note":"2015年農業集落境界をもとに復元した概略範囲で、江戸時代の正確な村境ではありません"},"geometry":{"type":"Polygon","coordinates":[[[136.726227,35.350416],[136.732407,35.349856],[136.732407,35.349296],[136.740646,35.347056],[136.740646,35.345935],[136.738586,35.344815],[136.733093,35.344815],[136.728287,35.343695],[136.726913,35.342015],[136.7276,35.344815],[136.731033,35.347056],[136.726227,35.349856],[136.726227,35.350416]]]}},{"type":"Feature","properties":{"layer_id":"bakumatsu_villages","name":"平方村","address":"美濃 羽栗郡","source":"Geoshape 幕末期近世村領域データセット vector tiles (z7 extraction)","subarea_name":"近世村のおおよその範囲","feature_key":"village:K25G03S00022","accuracy_note":"2015年農業集落境界をもとに復元した概略範囲で、江戸時代の正確な村境ではありません"},"geometry":{"type":"Polygon","coordinates":[[[136.678162,35.324089],[136.685715,35.316246],[136.683655,35.314005],[136.681595,35.314005],[136.679535,35.312884],[136.678162,35.311203],[136.676788,35.311203],[136.673355,35.313444],[136.665115,35.314005],[136.669235,35.319607],[136.678162,35.324089]]]}},{"type":"Feature","properties":{"layer_id":"bakumatsu_villages","name":"新井村","address":"美濃 中島郡","source":"Geoshape 幕末期近世村領域データセット vector tiles (z7 extraction)","subarea_name":"近世村のおおよその範囲","feature_key":"village:K25G04S00005","accuracy_note":"2015年農業集落境界をもとに復元した概略範囲で、江戸時代の正確な村境ではありません"},"geometry":{"type":"Polygon","coordinates":[[[136.720734,35.322409],[136.728287,35.321848],[136.728287,35.321288],[136.72966,35.321288],[136.728973,35.317366],[136.73584,35.315685],[136.73378,35.312324],[136.7276,35.314565],[136.726227,35.313444],[136.71936,35.314005],[136.720734,35.322409]]]}},{"type":"Feature","properties":{"layer_id":"bakumatsu_villages","name":"曲利村","address":"美濃 中島郡","source":"Geoshape 幕末期近世村領域データセット vector tiles (z7 extraction)","subarea_name":"近世村のおおよその範囲","feature_key":"village:K25G04S00006","accuracy_note":"2015年農業集落境界をもとに復元した概略範囲で、江戸時代の正確な村境ではありません"},"geometry":{"type":"Polygon","coordinates":[[[136.7173,35.331932],[136.722107,35.329691],[136.722107,35.324089],[136.720734,35.322409],[136.716614,35.322409],[136.715927,35.324089],[136.713867,35.324089],[136.714554,35.32577],[136.712494,35.32633],[136.712494,35.329691],[136.716614,35.331372],[136.7173,35.331932]]]}},{"type":"Feature","properties":{"layer_id":"bakumatsu_villages","name":"本郷村","address":"美濃 羽栗郡","source":"Geoshape 幕末期近世村領域データセット vector tiles (z7 extraction)","subarea_name":"近世村のおおよその範囲","feature_key":"village:K25G03S00032","accuracy_note":"2015年農業集落境界をもとに復元した概略範囲で、江戸時代の正確な村境ではありません"},"geometry":{"type":"Polygon","coordinates":[[[136.688461,35.334733],[136.691208,35.333053],[136.691895,35.331372],[136.693268,35.330812],[136.689835,35.32577],[136.692581,35.322969],[136.689835,35.322969],[136.688461,35.320728],[136.687088,35.321288],[136.684341,35.317366],[136.678162,35.324089],[136.685028,35.328011],[136.688461,35.334733]]]}},{"type":"Feature","properties":{"layer_id":"bakumatsu_villages","name":"東小熊村","address":"美濃 羽栗郡","source":"Geoshape 幕末期近世村領域データセット vector tiles (z7 extraction)","subarea_name":"近世村のおおよその範囲","feature_key":"village:K25G03S00039","accuracy_note":"2015年農業集落境界をもとに復元した概略範囲で、江戸時代の正確な村境ではありません"},"geometry":{"type":"MultiPolygon","coordinates":[[[[136.701508,35.355456],[136.704941,35.353216],[136.705627,35.354336],[136.706314,35.352656],[136.709747,35.351536],[136.709061,35.344255],[136.700821,35.344815],[136.701508,35.355456]]],[[[136.713867,35.354336],[136.714554,35.353216],[136.713867,35.352096],[136.714554,35.350976],[136.713181,35.350976],[136.712494,35.348176],[136.711807,35.348176],[136.711807,35.344255],[136.709061,35.344255],[136.709747,35.351536],[136.713867,35.354336]]],[[[136.703568,35.344815],[136.711807,35.344255],[136.711121,35.337534],[136.702881,35.337534],[136.703568,35.344815]]]]}},{"type":"Feature","properties":{"layer_id":"bakumatsu_villages","name":"東方村","address":"美濃 中島郡","source":"Geoshape 幕末期近世村領域データセット vector tiles (z7 extraction)","subarea_name":"近世村のおおよその範囲","feature_key":"village:K25G04S00030","accuracy_note":"2015年農業集落境界をもとに復元した概略範囲で、江戸時代の正確な村境ではありません"},"geometry":{"type":"Polygon","coordinates":[[[136.682281,35.287106],[136.684341,35.285985],[136.683655,35.282061],[136.685028,35.28038],[136.682281,35.276456],[136.681595,35.27085],[136.674728,35.272532],[136.676788,35.278698],[136.674042,35.286545],[136.682281,35.287106]]]}},{"type":"Feature","properties":{"layer_id":"bakumatsu_villages","name":"森村","address":"美濃 羽栗郡","source":"Geoshape 幕末期近世村領域データセット vector tiles (z7 extraction)","subarea_name":"近世村のおおよその範囲","feature_key":"village:K25G03S00009","accuracy_note":"2015年農業集落境界をもとに復元した概略範囲で、江戸時代の正確な村境ではありません"},"geometry":{"type":"Polygon","coordinates":[[[136.73378,35.342015],[136.737213,35.341455],[136.737213,35.340334],[136.739273,35.340334],[136.738586,35.338654],[136.740646,35.339214],[136.737213,35.334733],[136.73584,35.333053],[136.73172,35.334173],[136.733093,35.338094],[136.731033,35.338094],[136.73172,35.339774],[136.733093,35.339774],[136.73378,35.342015]]]}},{"type":"Feature","properties":{"layer_id":"bakumatsu_villages","name":"江吉良村","address":"美濃 中島郡","source":"Geoshape 幕末期近世村領域データセット vector tiles (z7 extraction)","subarea_name":"近世村のおおよその範囲","feature_key":"village:K25G04S00003","accuracy_note":"2015年農業集落境界をもとに復元した概略範囲で、江戸時代の正確な村境ではありません"},"geometry":{"type":"Polygon","coordinates":[[[136.703568,35.319607],[136.704254,35.318487],[136.702194,35.316246],[136.702194,35.315125],[136.703568,35.314005],[136.709061,35.312884],[136.708374,35.310082],[136.705627,35.310082],[136.702194,35.308962],[136.699448,35.310643],[136.698074,35.309522],[136.696701,35.310082],[136.696701,35.307841],[136.694641,35.308401],[136.693268,35.3056],[136.691895,35.3056],[136.691208,35.303919],[136.682968,35.304479],[136.681595,35.308401],[136.685715,35.308962],[136.686401,35.310082],[136.691208,35.310082],[136.692581,35.312324],[136.692581,35.314565],[136.691208,35.314565],[136.691895,35.316246],[136.693268,35.316246],[136.694641,35.317927],[136.698761,35.317366],[136.698074,35.319047],[136.703568,35.319607]]]}},{"type":"Feature","properties":{"layer_id":"bakumatsu_villages","name":"沖村","address":"美濃 中島郡","source":"Geoshape 幕末期近世村領域データセット vector tiles (z7 extraction)","subarea_name":"近世村のおおよその範囲","feature_key":"village:K25G04S00008","accuracy_note":"2015年農業集落境界をもとに復元した概略範囲で、江戸時代の正確な村境ではありません"},"geometry":{"type":"Polygon","coordinates":[[[136.692581,35.302798],[136.698761,35.299996],[136.702881,35.295513],[136.709061,35.294952],[136.709747,35.294392],[136.704254,35.291589],[136.701508,35.291589],[136.700821,35.288227],[136.697388,35.289908],[136.696701,35.291029],[136.693954,35.291589],[136.690521,35.295513],[136.687088,35.296073],[136.687775,35.299996],[136.691208,35.299996],[136.692581,35.302798]]]}},{"type":"Feature","properties":{"layer_id":"bakumatsu_villages","name":"浅平村","address":"美濃 羽栗郡","source":"Geoshape 幕末期近世村領域データセット vector tiles (z7 extraction)","subarea_name":"近世村のおおよその範囲","feature_key":"village:K25G03S00021","accuracy_note":"2015年農業集落境界をもとに復元した概略範囲で、江戸時代の正確な村境ではありません"},"geometry":{"type":"Polygon","coordinates":[[[136.692581,35.322969],[136.694641,35.320168],[136.693268,35.319047],[136.690521,35.319047],[136.685715,35.316246],[136.684341,35.317366],[136.687088,35.321288],[136.688461,35.320728],[136.689835,35.322969],[136.692581,35.322969]]]}},{"type":"Feature","properties":{"layer_id":"bakumatsu_villages","name":"狐穴村","address":"美濃 中島郡","source":"Geoshape 幕末期近世村領域データセット vector tiles (z7 extraction)","subarea_name":"近世村のおおよその範囲","feature_key":"village:K25G04S00019","accuracy_note":"2015年農業集落境界をもとに復元した概略範囲で、江戸時代の正確な村境ではありません"},"geometry":{"type":"Polygon","coordinates":[[[136.712494,35.32689],[136.714554,35.32577],[136.713867,35.324089],[136.715927,35.324089],[136.716614,35.322409],[136.71524,35.321848],[136.713867,35.317366],[136.711121,35.314565],[136.711121,35.310643],[136.708374,35.312884],[136.703568,35.314005],[136.705627,35.322409],[136.707001,35.322409],[136.708374,35.32689],[136.712494,35.32689]]]}},{"type":"Feature","properties":{"layer_id":"bakumatsu_villages","name":"直道村","address":"美濃 羽栗郡","source":"Geoshape 幕末期近世村領域データセット vector tiles (z7 extraction)","subarea_name":"近世村のおおよその範囲","feature_key":"village:K25G03S00019","accuracy_note":"2015年農業集落境界をもとに復元した概略範囲で、江戸時代の正確な村境ではありません"},"geometry":{"type":"Polygon","coordinates":[[[136.728287,35.356576],[136.72966,35.354896],[136.72348,35.347056],[136.72142,35.347616],[136.71936,35.345935],[136.7173,35.350416],[136.713181,35.350416],[136.714554,35.350976],[136.713867,35.352096],[136.71524,35.355456],[136.71936,35.354896],[136.72142,35.353216],[136.72142,35.352096],[136.72554,35.353216],[136.726227,35.356016],[136.728287,35.356576]]]}},{"type":"Feature","properties":{"layer_id":"bakumatsu_villages","name":"石田村","address":"美濃 中島郡","source":"Geoshape 幕末期近世村領域データセット vector tiles (z7 extraction)","subarea_name":"近世村のおおよその範囲","feature_key":"village:K25G04S00021","accuracy_note":"2015年農業集落境界をもとに復元した概略範囲で、江戸時代の正確な村境ではありません"},"geometry":{"type":"Polygon","coordinates":[[[136.700134,35.285985],[136.705627,35.284864],[136.710434,35.283182],[136.702881,35.273092],[136.698074,35.274214],[136.697388,35.274774],[136.696701,35.274214],[136.695328,35.274774],[136.693954,35.274774],[136.693268,35.274214],[136.689148,35.274774],[136.690521,35.278137],[136.689148,35.278137],[136.689835,35.279259],[136.685715,35.279259],[136.686401,35.281501],[136.683655,35.282061],[136.685028,35.284303],[136.700134,35.285985]]]}},{"type":"Feature","properties":{"layer_id":"bakumatsu_villages","name":"竹ヶ鼻村","address":"美濃 羽栗郡","source":"Geoshape 幕末期近世村領域データセット vector tiles (z7 extraction)","subarea_name":"近世村のおおよその範囲","feature_key":"village:K25G03S00015","accuracy_note":"2015年農業集落境界をもとに復元した概略範囲で、江戸時代の正確な村境ではありません"},"geometry":{"type":"Polygon","coordinates":[[[136.704254,35.331932],[136.704941,35.328571],[136.712494,35.328571],[136.712494,35.32689],[136.708374,35.32689],[136.707001,35.322409],[136.705627,35.322409],[136.703568,35.314005],[136.702194,35.315125],[136.702194,35.316246],[136.704254,35.319047],[136.702881,35.319607],[136.699448,35.319047],[136.695328,35.319607],[136.689835,35.32577],[136.693268,35.330812],[136.700134,35.330252],[136.704254,35.331932]]]}},{"type":"Feature","properties":{"layer_id":"bakumatsu_villages","name":"舟橋村","address":"美濃 中島郡","source":"Geoshape 幕末期近世村領域データセット vector tiles (z7 extraction)","subarea_name":"近世村のおおよその範囲","feature_key":"village:K25G04S00018","accuracy_note":"2015年農業集落境界をもとに復元した概略範囲で、江戸時代の正確な村境ではありません"},"geometry":{"type":"Polygon","coordinates":[[[136.694641,35.320168],[136.698074,35.319047],[136.698761,35.317366],[136.695328,35.317927],[136.693268,35.316246],[136.691895,35.316246],[136.691208,35.314565],[136.692581,35.314565],[136.692581,35.312324],[136.690521,35.309522],[136.686401,35.310082],[136.683655,35.308401],[136.681595,35.308962],[136.681595,35.309522],[136.676788,35.310082],[136.676788,35.311763],[136.678162,35.311203],[136.681595,35.314005],[136.683655,35.314005],[136.690521,35.319047],[136.693268,35.319047],[136.694641,35.320168]]]}},{"type":"Feature","properties":{"layer_id":"bakumatsu_villages","name":"蜂尻村","address":"美濃 中島郡","source":"Geoshape 幕末期近世村領域データセット vector tiles (z7 extraction)","subarea_name":"近世村のおおよその範囲","feature_key":"village:K25G04S00010","accuracy_note":"2015年農業集落境界をもとに復元した概略範囲で、江戸時代の正確な村境ではありません"},"geometry":{"type":"Polygon","coordinates":[[[136.709061,35.311763],[136.711121,35.310643],[136.716614,35.309522],[136.71524,35.304479],[136.708374,35.307841],[136.709061,35.311763]]]}},{"type":"Feature","properties":{"layer_id":"bakumatsu_villages","name":"西加賀野井村","address":"美濃 中島郡","source":"Geoshape 幕末期近世村領域データセット vector tiles (z7 extraction)","subarea_name":"近世村のおおよその範囲","feature_key":"village:K25G04S00031","accuracy_note":"2015年農業集落境界をもとに復元した概略範囲で、江戸時代の正確な村境ではありません"},"geometry":{"type":"Polygon","coordinates":[[[136.714554,35.300556],[136.72554,35.296073],[136.720734,35.289908],[136.71524,35.286545],[136.712494,35.289908],[136.713181,35.293271],[136.710434,35.295513],[136.711807,35.298315],[136.714554,35.300556]]]}},{"type":"Feature","properties":{"layer_id":"bakumatsu_villages","name":"西小熊村","address":"美濃 羽栗郡","source":"Geoshape 幕末期近世村領域データセット vector tiles (z7 extraction)","subarea_name":"近世村のおおよその範囲","feature_key":"village:K25G03S00017","accuracy_note":"2015年農業集落境界をもとに復元した概略範囲で、江戸時代の正確な村境ではありません"},"geometry":{"type":"MultiPolygon","coordinates":[[[[136.693954,35.356576],[136.695328,35.356016],[136.695328,35.352656],[136.693268,35.353776],[136.689148,35.353216],[136.690521,35.354336],[136.693954,35.356576]]],[[[136.699448,35.357136],[136.701508,35.355456],[136.701508,35.352656],[136.695328,35.353216],[136.694641,35.354896],[136.695328,35.356016],[136.696701,35.355456],[136.699448,35.357136]]],[[[136.692581,35.353776],[136.695328,35.352656],[136.695328,35.353216],[136.701508,35.352656],[136.701508,35.348736],[136.693954,35.349856],[136.694641,35.350416],[136.688461,35.350416],[136.689148,35.353216],[136.692581,35.353776]]],[[[136.694641,35.350416],[136.693954,35.349856],[136.701508,35.348736],[136.700821,35.344815],[136.688461,35.345375],[136.688461,35.350416],[136.694641,35.350416]]],[[[136.688461,35.345375],[136.700821,35.344815],[136.703568,35.344815],[136.703568,35.342575],[136.696701,35.342575],[136.697388,35.340895],[136.688461,35.341455],[136.688461,35.345375]]],[[[136.703568,35.342575],[136.702881,35.338654],[136.696701,35.338654],[136.694641,35.340334],[136.691895,35.340334],[136.691895,35.341455],[136.697388,35.340895],[136.696701,35.342575],[136.703568,35.342575]]]]}},{"type":"Feature","properties":{"layer_id":"bakumatsu_villages","name":"長間村・千束新田","address":"美濃 中島郡","source":"Geoshape 幕末期近世村領域データセット vector tiles (z7 extraction)","subarea_name":"近世村のおおよその範囲","feature_key":"village:K25G04S00009,K25G04S00012","accuracy_note":"2015年農業集落境界をもとに復元した概略範囲で、江戸時代の正確な村境ではありません"},"geometry":{"type":"Polygon","coordinates":[[[136.699448,35.310643],[136.701508,35.308962],[136.705627,35.310082],[136.708374,35.310082],[136.708374,35.307841],[136.711807,35.3056],[136.709747,35.305039],[136.711121,35.302798],[136.709747,35.299996],[136.709061,35.299996],[136.706314,35.299435],[136.704941,35.301677],[136.691208,35.304479],[136.694641,35.308401],[136.696701,35.307841],[136.696701,35.310082],[136.698074,35.309522],[136.699448,35.310643]]]}},{"type":"Feature","properties":{"layer_id":"bakumatsu_villages","name":"間島村","address":"美濃 羽栗郡","source":"Geoshape 幕末期近世村領域データセット vector tiles (z7 extraction)","subarea_name":"近世村のおおよその範囲","feature_key":"village:K25G03S00033","accuracy_note":"2015年農業集落境界をもとに復元した概略範囲で、江戸時代の正確な村境ではありません"},"geometry":{"type":"Polygon","coordinates":[[[136.698074,35.337534],[136.702881,35.331372],[136.702194,35.330812],[136.699448,35.330252],[136.692581,35.330812],[136.691208,35.333053],[136.688461,35.334733],[136.688461,35.335853],[136.692581,35.335293],[136.696701,35.337534],[136.698074,35.337534]]]}},{"type":"Feature","properties":{"layer_id":"bakumatsu_villages","name":"須賀村","address":"美濃 中島郡","source":"Geoshape 幕末期近世村領域データセット vector tiles (z7 extraction)","subarea_name":"近世村のおおよその範囲","feature_key":"village:K25G04S00011","accuracy_note":"2015年農業集落境界をもとに復元した概略範囲で、江戸時代の正確な村境ではありません"},"geometry":{"type":"Polygon","coordinates":[[[136.740646,35.345935],[136.741333,35.345375],[136.740646,35.342575],[136.738586,35.343135],[136.737213,35.341455],[136.73378,35.342015],[136.733093,35.339774],[136.73172,35.339774],[136.731033,35.338094],[136.733093,35.338094],[136.73172,35.336414],[136.731033,35.336974],[136.731033,35.335293],[136.728973,35.333613],[136.726913,35.335293],[136.722794,35.332492],[136.718674,35.333053],[136.72348,35.336974],[136.726913,35.342015],[136.728287,35.343695],[136.733093,35.344815],[136.738586,35.344815],[136.740646,35.345935]]]}},{"type":"Feature","properties":{"layer_id":"bakumatsu_villages","name":"飯柄村","address":"美濃 中島郡","source":"Geoshape 幕末期近世村領域データセット vector tiles (z7 extraction)","subarea_name":"近世村のおおよその範囲","feature_key":"village:K25G04S00017","accuracy_note":"2015年農業集落境界をもとに復元した概略範囲で、江戸時代の正確な村境ではありません"},"geometry":{"type":"MultiPolygon","coordinates":[[[[136.720734,35.322409],[136.720047,35.315685],[136.712494,35.316806],[136.713867,35.317366],[136.71524,35.321848],[136.720734,35.322409]]],[[[136.713181,35.316806],[136.720047,35.315685],[136.71936,35.314005],[136.71936,35.310643],[136.7173,35.310643],[136.716614,35.309522],[136.711121,35.310643],[136.711121,35.314565],[136.713181,35.316806]]]]}},{"type":"Feature","properties":{"layer_id":"bakumatsu_villages","name":"駒塚村","address":"美濃 中島郡","source":"Geoshape 幕末期近世村領域データセット vector tiles (z7 extraction)","subarea_name":"近世村のおおよその範囲","feature_key":"village:K25G04S00020","accuracy_note":"2015年農業集落境界をもとに復元した概略範囲で、江戸時代の正確な村境ではありません"},"geometry":{"type":"Polygon","coordinates":[[[136.720734,35.311763],[136.722794,35.307841],[136.72348,35.302798],[136.728287,35.301117],[136.72554,35.296073],[136.714554,35.300556],[136.7173,35.310643],[136.720734,35.311763]]]}},{"type":"Feature","properties":{"layer_id":"historical_sites_archaeology","name":"八神城跡","address":"岐阜県 羽島市 桑原町八神","source":"Geoshape 日本歴史地名大系 施設・地点項目データセット 2025-05-15","subarea_name":"城跡","feature_key":"05_castle_ruins.geojson:210000133000","subtype":"城跡"},"geometry":{"type":"Point","coordinates":[136.692427,35.26748]}},{"type":"Feature","properties":{"layer_id":"historical_sites_archaeology","name":"加賀野井城跡","address":"岐阜県 羽島市 下中町加賀野井","source":"Geoshape 日本歴史地名大系 施設・地点項目データセット 2025-05-15","subarea_name":"城跡","feature_key":"05_castle_ruins.geojson:210000132400","subtype":"城跡"},"geometry":{"type":"Point","coordinates":[136.716518,35.292853]}},{"type":"Feature","properties":{"layer_id":"historical_sites_archaeology","name":"竹鼻城跡","address":"岐阜県 羽島市 竹鼻町","source":"Geoshape 日本歴史地名大系 施設・地点項目データセット 2025-05-15","subarea_name":"城跡","feature_key":"05_castle_ruins.geojson:210000127200","subtype":"城跡"},"geometry":{"type":"Point","coordinates":[136.701876,35.324086]}},{"type":"Feature","properties":{"layer_id":"historical_sites_archaeology","name":"起渡船場石灯台","address":"岐阜県 羽島市 正木町新井","source":"Geoshape 日本歴史地名大系 施設・地点項目データセット 2025-05-15","subarea_name":"史跡","feature_key":"09_historic_sites.geojson:210000130700","subtype":"史跡"},"geometry":{"type":"Point","coordinates":[136.729929,35.314343]}},{"type":"Feature","properties":{"layer_id":"historical_temples_shrines","name":"八剣神社","address":"岐阜県 羽島市 竹鼻町3298番地","source":"Geoshape 日本歴史地名大系 施設・地点項目データセット 2025-05-15","subarea_name":"神社","feature_key":"02_shrines.geojson:210000127400","subtype":"神社"},"geometry":{"type":"Point","coordinates":[136.703735,35.32811]}},{"type":"Feature","properties":{"layer_id":"historical_temples_shrines","name":"本覚寺","address":"岐阜県 羽島市 竹鼻町2434番地","source":"Geoshape 日本歴史地名大系 施設・地点項目データセット 2025-05-15","subarea_name":"寺院","feature_key":"01_temples.geojson:210000127500","subtype":"寺院"},"geometry":{"type":"Point","coordinates":[136.702774,35.326542]}},{"type":"Feature","properties":{"layer_id":"historical_temples_shrines","name":"真福寺跡","address":"岐阜県 羽島市 桑原町大須","source":"Geoshape 日本歴史地名大系 施設・地点項目データセット 2025-05-15","subarea_name":"廃寺・廃社","feature_key":"03_abandoned_temples_shrines.geojson:210000133300","subtype":"廃寺・廃社"},"geometry":{"type":"Point","coordinates":[136.677135,35.271292]}},{"type":"Feature","properties":{"layer_id":"historical_temples_shrines","name":"竹鼻別院","address":"岐阜県 羽島市 竹鼻町2802番地","source":"Geoshape 日本歴史地名大系 施設・地点項目データセット 2025-05-15","subarea_name":"寺院","feature_key":"01_temples.geojson:210000127300","subtype":"寺院"},"geometry":{"type":"Point","coordinates":[136.701019,35.324085]}},{"type":"Feature","properties":{"layer_id":"historical_temples_shrines","name":"西方寺","address":"岐阜県 羽島市 足近町直道601番地","source":"Geoshape 日本歴史地名大系 施設・地点項目データセット 2025-05-15","subarea_name":"寺院","feature_key":"01_temples.geojson:210000129100","subtype":"寺院"},"geometry":{"type":"Point","coordinates":[136.724311,35.35177]}},{"type":"Feature","properties":{"layer_id":"historical_temples_shrines","name":"阿遅加神社","address":"岐阜県 羽島市 足近町直道1088番地","source":"Geoshape 日本歴史地名大系 施設・地点項目データセット 2025-05-15","subarea_name":"神社","feature_key":"02_shrines.geojson:210000129000","subtype":"神社"},"geometry":{"type":"Point","coordinates":[136.718674,35.350258]}}]}