{"type":"FeatureCollection","municipality_code":"22132","pref":"静岡県","city":"浜松市東区","layer_counts":{"bakumatsu_villages":69,"edo_post_stations":2,"edo_roads":1,"historical_sites_archaeology":4,"historical_temples_shrines":10},"total_features":86,"features":[{"type":"Feature","properties":{"layer_id":"bakumatsu_villages","name":"一色村","address":"遠江 豊田郡","source":"Geoshape 幕末期近世村領域データセット vector tiles (z7 extraction)","subarea_name":"近世村のおおよその範囲","feature_key":"village:K22G07S00019","accuracy_note":"2015年農業集落境界をもとに復元した概略範囲で、江戸時代の正確な村境ではありません"},"geometry":{"type":"MultiPolygon","coordinates":[[[[137.81044,34.742177],[137.80632,34.733149],[137.80014,34.733713],[137.800827,34.736534],[137.80014,34.73597],[137.800827,34.741048],[137.801514,34.742177],[137.81044,34.742177]]],[[[137.81044,34.742177],[137.80632,34.733149],[137.80014,34.733713],[137.800827,34.736534],[137.80014,34.73597],[137.800827,34.741048],[137.801514,34.742177],[137.81044,34.742177]]]]}},{"type":"Feature","properties":{"layer_id":"bakumatsu_villages","name":"万斛村（万石村）","address":"遠江 長上郡","source":"Geoshape 幕末期近世村領域データセット vector tiles (z7 extraction)","subarea_name":"近世村のおおよその範囲","feature_key":"village:K22G08S00127","accuracy_note":"2015年農業集落境界をもとに復元した概略範囲で、江戸時代の正確な村境ではありません"},"geometry":{"type":"MultiPolygon","coordinates":[[[[137.778168,34.778844],[137.779541,34.77546],[137.771988,34.774332],[137.771301,34.776024],[137.774048,34.776024],[137.775421,34.778844],[137.776108,34.77828],[137.778168,34.778844]]],[[[137.779541,34.77546],[137.782288,34.774332],[137.780914,34.770384],[137.776794,34.770948],[137.776794,34.769256],[137.772675,34.768691],[137.771988,34.77264],[137.770615,34.772076],[137.771988,34.774332],[137.779541,34.77546]]],[[[137.785034,34.780536],[137.785721,34.77546],[137.787094,34.774332],[137.785034,34.774896],[137.784348,34.773768],[137.782288,34.774332],[137.779541,34.77546],[137.778168,34.778844],[137.785034,34.780536]]],[[[137.785034,34.774896],[137.787781,34.773768],[137.787094,34.770948],[137.785721,34.770948],[137.784348,34.768127],[137.776794,34.769256],[137.776794,34.770948],[137.780914,34.770384],[137.782288,34.774332],[137.784348,34.773768],[137.785034,34.774896]]],[[[137.778168,34.778844],[137.779541,34.77546],[137.771988,34.774332],[137.771301,34.776024],[137.774048,34.776024],[137.775421,34.778844],[137.776108,34.77828],[137.778168,34.778844]]],[[[137.779541,34.77546],[137.782288,34.774332],[137.780914,34.770384],[137.776794,34.770948],[137.776794,34.769256],[137.772675,34.768691],[137.771988,34.77264],[137.770615,34.772076],[137.771988,34.774332],[137.779541,34.77546]]],[[[137.785034,34.780536],[137.785721,34.77546],[137.787094,34.774332],[137.785034,34.774896],[137.784348,34.773768],[137.782288,34.774332],[137.779541,34.77546],[137.778168,34.778844],[137.785034,34.780536]]],[[[137.785034,34.774896],[137.787781,34.773768],[137.787094,34.770948],[137.785721,34.770948],[137.784348,34.768127],[137.776794,34.769256],[137.776794,34.770948],[137.780914,34.770384],[137.782288,34.774332],[137.784348,34.773768],[137.785034,34.774896]]]]}},{"type":"Feature","properties":{"layer_id":"bakumatsu_villages","name":"上前島村","address":"遠江 長上郡","source":"Geoshape 幕末期近世村領域データセット vector tiles (z7 extraction)","subarea_name":"近世村のおおよその範囲","feature_key":"village:K22G08S00123","accuracy_note":"2015年農業集落境界をもとに復元した概略範囲で、江戸時代の正確な村境ではありません"},"geometry":{"type":"MultiPolygon","coordinates":[[[[137.782974,34.766999],[137.783661,34.764743],[137.785034,34.763051],[137.784348,34.761923],[137.778854,34.758538],[137.778168,34.753461],[137.774048,34.753461],[137.773361,34.755153],[137.772675,34.756281],[137.776794,34.756281],[137.779541,34.764743],[137.781601,34.764743],[137.782288,34.766999],[137.782974,34.766999]]],[[[137.782974,34.766999],[137.783661,34.764743],[137.785034,34.763051],[137.784348,34.761923],[137.778854,34.758538],[137.778168,34.753461],[137.774048,34.753461],[137.773361,34.755153],[137.772675,34.756281],[137.776794,34.756281],[137.779541,34.764743],[137.781601,34.764743],[137.782288,34.766999],[137.782974,34.766999]]]]}},{"type":"Feature","properties":{"layer_id":"bakumatsu_villages","name":"上大瀬村","address":"遠江 長上郡","source":"Geoshape 幕末期近世村領域データセット vector tiles (z7 extraction)","subarea_name":"近世村のおおよその範囲","feature_key":"village:K22G08S00124","accuracy_note":"2015年農業集落境界をもとに復元した概略範囲で、江戸時代の正確な村境ではありません"},"geometry":{"type":"MultiPolygon","coordinates":[[[[137.776794,34.769256],[137.776794,34.767563],[137.775421,34.763615],[137.771301,34.764179],[137.770615,34.766435],[137.768555,34.765871],[137.769241,34.768127],[137.771988,34.768127],[137.776794,34.769256]]],[[[137.776794,34.769256],[137.784348,34.768127],[137.782288,34.766999],[137.781601,34.764743],[137.779541,34.764743],[137.779541,34.763051],[137.775421,34.763615],[137.776794,34.767563],[137.776794,34.769256]]],[[[137.776794,34.769256],[137.776794,34.767563],[137.775421,34.763615],[137.771301,34.764179],[137.770615,34.766435],[137.768555,34.765871],[137.769241,34.768127],[137.771988,34.768127],[137.776794,34.769256]]],[[[137.776794,34.769256],[137.784348,34.768127],[137.782288,34.766999],[137.781601,34.764743],[137.779541,34.764743],[137.779541,34.763051],[137.775421,34.763615],[137.776794,34.767563],[137.776794,34.769256]]]]}},{"type":"Feature","properties":{"layer_id":"bakumatsu_villages","name":"上新屋村","address":"遠江 長上郡","source":"Geoshape 幕末期近世村領域データセット vector tiles (z7 extraction)","subarea_name":"近世村のおおよその範囲","feature_key":"village:K22G08S00009","accuracy_note":"2015年農業集落境界をもとに復元した概略範囲で、江戸時代の正確な村境ではありません"},"geometry":{"type":"MultiPolygon","coordinates":[[[[137.752762,34.733149],[137.754135,34.732584],[137.764435,34.732584],[137.765121,34.731456],[137.754135,34.730891],[137.752762,34.726941],[137.751389,34.727505],[137.752762,34.732584],[137.752762,34.733149]]],[[[137.757568,34.733149],[137.764435,34.732584],[137.765121,34.731456],[137.757568,34.730891],[137.757568,34.733149]]]]}},{"type":"Feature","properties":{"layer_id":"bakumatsu_villages","name":"上石田村","address":"遠江 長上郡","source":"Geoshape 幕末期近世村領域データセット vector tiles (z7 extraction)","subarea_name":"近世村のおおよその範囲","feature_key":"village:K22G08S00019","accuracy_note":"2015年農業集落境界をもとに復元した概略範囲で、江戸時代の正確な村境ではありません"},"geometry":{"type":"MultiPolygon","coordinates":[[[[137.785034,34.756281],[137.782974,34.753461],[137.778854,34.751768],[137.779541,34.754025],[137.785034,34.756281]]],[[[137.783661,34.753461],[137.785721,34.752332],[137.783661,34.75064],[137.782288,34.751204],[137.782288,34.752332],[137.779541,34.751768],[137.783661,34.753461]]],[[[137.791901,34.761358],[137.791214,34.756281],[137.785721,34.752332],[137.783661,34.753461],[137.782974,34.753461],[137.791901,34.761358]]],[[[137.791214,34.756281],[137.790527,34.75064],[137.783661,34.750076],[137.785721,34.752332],[137.791214,34.756281]]],[[[137.782288,34.752332],[137.782288,34.751204],[137.783661,34.75064],[137.783661,34.749511],[137.782288,34.748383],[137.782288,34.744998],[137.778854,34.744434],[137.779541,34.751768],[137.782288,34.752332]]],[[[137.790527,34.75064],[137.789841,34.744998],[137.784348,34.744998],[137.783661,34.745562],[137.782288,34.744998],[137.782288,34.748383],[137.783661,34.750076],[137.790527,34.75064]]],[[[137.785034,34.756281],[137.782974,34.753461],[137.778854,34.751768],[137.779541,34.754025],[137.785034,34.756281]]],[[[137.783661,34.753461],[137.785721,34.752332],[137.783661,34.75064],[137.782288,34.751204],[137.782288,34.752332],[137.779541,34.751768],[137.783661,34.753461]]],[[[137.791901,34.761358],[137.791214,34.756281],[137.785721,34.752332],[137.783661,34.753461],[137.782974,34.753461],[137.791901,34.761358]]],[[[137.791214,34.756281],[137.790527,34.75064],[137.783661,34.750076],[137.785721,34.752332],[137.791214,34.756281]]],[[[137.782288,34.752332],[137.782288,34.751204],[137.783661,34.75064],[137.783661,34.749511],[137.782288,34.748383],[137.782288,34.744998],[137.778854,34.744434],[137.779541,34.751768],[137.782288,34.752332]]],[[[137.790527,34.75064],[137.789841,34.744998],[137.784348,34.744998],[137.783661,34.745562],[137.782288,34.744998],[137.782288,34.748383],[137.783661,34.750076],[137.790527,34.75064]]]]}},{"type":"Feature","properties":{"layer_id":"bakumatsu_villages","name":"下堀村","address":"遠江 長上郡","source":"Geoshape 幕末期近世村領域データセット vector tiles (z7 extraction)","subarea_name":"近世村のおおよその範囲","feature_key":"village:K22G08S00004","accuracy_note":"2015年農業集落境界をもとに復元した概略範囲で、江戸時代の正確な村境ではありません"},"geometry":{"type":"MultiPolygon","coordinates":[[[[137.774734,34.738227],[137.776794,34.737098],[137.779541,34.734277],[137.776794,34.734277],[137.774048,34.73202],[137.773361,34.733713],[137.771988,34.733713],[137.771988,34.737663],[137.774734,34.738227]]],[[[137.774734,34.738227],[137.776794,34.737098],[137.779541,34.734277],[137.776794,34.734277],[137.774048,34.73202],[137.773361,34.733713],[137.771988,34.733713],[137.771988,34.737663],[137.774734,34.738227]]]]}},{"type":"Feature","properties":{"layer_id":"bakumatsu_villages","name":"下大瀬村","address":"遠江 長上郡","source":"Geoshape 幕末期近世村領域データセット vector tiles (z7 extraction)","subarea_name":"近世村のおおよその範囲","feature_key":"village:K22G08S00125","accuracy_note":"2015年農業集落境界をもとに復元した概略範囲で、江戸時代の正確な村境ではありません"},"geometry":{"type":"MultiPolygon","coordinates":[[[[137.761002,34.764743],[137.765808,34.763615],[137.765121,34.760794],[137.766495,34.759102],[137.763748,34.75741],[137.758255,34.756846],[137.756195,34.754589],[137.756882,34.758538],[137.759628,34.760794],[137.761002,34.764743]]],[[[137.769928,34.759102],[137.769928,34.757974],[137.771988,34.758538],[137.773361,34.757974],[137.771301,34.75741],[137.770615,34.756281],[137.773361,34.755153],[137.774048,34.753461],[137.766495,34.753461],[137.767181,34.754589],[137.765808,34.756281],[137.763748,34.756281],[137.763062,34.755153],[137.761002,34.75741],[137.763748,34.75741],[137.765808,34.758538],[137.769241,34.759102],[137.769928,34.759102]]],[[[137.769928,34.766435],[137.771301,34.764179],[137.775421,34.763615],[137.775421,34.761358],[137.771988,34.76023],[137.772675,34.759102],[137.769928,34.757974],[137.769928,34.759102],[137.766495,34.759102],[137.765121,34.760794],[137.765808,34.763615],[137.769928,34.764179],[137.769928,34.766435]]],[[[137.775421,34.763615],[137.779541,34.763051],[137.777481,34.760794],[137.776794,34.756846],[137.770615,34.756281],[137.771301,34.75741],[137.773361,34.757974],[137.771301,34.759102],[137.772675,34.759102],[137.771988,34.76023],[137.775421,34.761358],[137.775421,34.763615]]],[[[137.761002,34.764743],[137.765808,34.763615],[137.765121,34.760794],[137.766495,34.759102],[137.763748,34.75741],[137.758942,34.756846],[137.757568,34.755717],[137.757568,34.759102],[137.761002,34.764743]]],[[[137.769928,34.759102],[137.769928,34.757974],[137.771988,34.758538],[137.773361,34.757974],[137.771301,34.75741],[137.770615,34.756281],[137.773361,34.755153],[137.774048,34.753461],[137.766495,34.753461],[137.767181,34.754589],[137.765808,34.756281],[137.763748,34.756281],[137.763062,34.755153],[137.761002,34.75741],[137.763748,34.75741],[137.765808,34.758538],[137.769241,34.759102],[137.769928,34.759102]]],[[[137.769928,34.766435],[137.771301,34.764179],[137.775421,34.763615],[137.775421,34.761358],[137.771988,34.76023],[137.772675,34.759102],[137.769928,34.757974],[137.769928,34.759102],[137.766495,34.759102],[137.765121,34.760794],[137.765808,34.763615],[137.769928,34.764179],[137.769928,34.766435]]],[[[137.775421,34.763615],[137.779541,34.763051],[137.777481,34.760794],[137.776794,34.756846],[137.770615,34.756281],[137.771301,34.75741],[137.773361,34.757974],[137.771301,34.759102],[137.772675,34.759102],[137.771988,34.76023],[137.775421,34.761358],[137.775421,34.763615]]]]}},{"type":"Feature","properties":{"layer_id":"bakumatsu_villages","name":"下村","address":"遠江 長上郡","source":"Geoshape 幕末期近世村領域データセット vector tiles (z7 extraction)","subarea_name":"近世村のおおよその範囲","feature_key":"village:K22G08S00030","accuracy_note":"2015年農業集落境界をもとに復元した概略範囲で、江戸時代の正確な村境ではありません"},"geometry":{"type":"MultiPolygon","coordinates":[[[[137.762375,34.717911],[137.763062,34.71396],[137.767181,34.712831],[137.767181,34.712267],[137.768555,34.712831],[137.769241,34.711138],[137.765808,34.710009],[137.758942,34.711703],[137.759628,34.713396],[137.761688,34.714525],[137.761002,34.717911],[137.762375,34.717911]]],[[[137.762375,34.717911],[137.763062,34.71396],[137.767181,34.712831],[137.767181,34.712267],[137.768555,34.712831],[137.769241,34.711138],[137.765808,34.710009],[137.758942,34.711703],[137.759628,34.713396],[137.761688,34.714525],[137.761002,34.717911],[137.762375,34.717911]]]]}},{"type":"Feature","properties":{"layer_id":"bakumatsu_villages","name":"下石田村","address":"遠江 長上郡","source":"Geoshape 幕末期近世村領域データセット vector tiles (z7 extraction)","subarea_name":"近世村のおおよその範囲","feature_key":"village:K22G08S00020","accuracy_note":"2015年農業集落境界をもとに復元した概略範囲で、江戸時代の正確な村境ではありません"},"geometry":{"type":"MultiPolygon","coordinates":[[[[137.782974,34.745562],[137.789841,34.744998],[137.791214,34.744998],[137.791901,34.743305],[137.778854,34.742741],[137.776794,34.743869],[137.782974,34.744998],[137.782974,34.745562]]],[[[137.781601,34.741048],[137.783661,34.739356],[137.787094,34.73992],[137.787781,34.738791],[137.782288,34.738227],[137.782288,34.733713],[137.780914,34.733713],[137.779541,34.734277],[137.779541,34.741048],[137.781601,34.741048]]],[[[137.791901,34.743305],[137.791901,34.740484],[137.783661,34.739356],[137.781601,34.741048],[137.779541,34.741048],[137.779541,34.743305],[137.791901,34.743305]]],[[[137.789841,34.73992],[137.790527,34.73597],[137.789841,34.734277],[137.782288,34.733713],[137.782288,34.738227],[137.787781,34.738791],[137.787094,34.73992],[137.789841,34.73992]]],[[[137.782974,34.745562],[137.789841,34.744998],[137.791214,34.744998],[137.791901,34.743305],[137.778854,34.742741],[137.776794,34.743869],[137.782974,34.744998],[137.782974,34.745562]]],[[[137.781601,34.741048],[137.783661,34.739356],[137.787094,34.73992],[137.787781,34.738791],[137.782288,34.738227],[137.782288,34.733713],[137.780914,34.733713],[137.779541,34.734277],[137.779541,34.741048],[137.781601,34.741048]]],[[[137.791901,34.743305],[137.791901,34.740484],[137.783661,34.739356],[137.781601,34.741048],[137.779541,34.741048],[137.779541,34.743305],[137.791901,34.743305]]],[[[137.789841,34.73992],[137.790527,34.73597],[137.789841,34.734277],[137.782288,34.733713],[137.782288,34.738227],[137.787781,34.738791],[137.787094,34.73992],[137.789841,34.73992]]]]}},{"type":"Feature","properties":{"layer_id":"bakumatsu_villages","name":"中善地村・中善地村新田","address":"遠江 豊田郡","source":"Geoshape 幕末期近世村領域データセット vector tiles (z7 extraction)","subarea_name":"近世村のおおよその範囲","feature_key":"village:K22G07S00025,K22G07S00046","accuracy_note":"2015年農業集落境界をもとに復元した概略範囲で、江戸時代の正確な村境ではありません"},"geometry":{"type":"MultiPolygon","coordinates":[[[[137.80426,34.768127],[137.80426,34.766435],[137.80838,34.766435],[137.80838,34.766999],[137.811813,34.766435],[137.811813,34.765307],[137.809753,34.765307],[137.809753,34.763051],[137.804947,34.763051],[137.80426,34.761358],[137.8022,34.760794],[137.802887,34.765871],[137.802887,34.768127],[137.80426,34.768127]]],[[[137.80426,34.768127],[137.80426,34.766435],[137.80838,34.766435],[137.80838,34.766999],[137.811813,34.766435],[137.811813,34.765307],[137.809753,34.765307],[137.809753,34.763051],[137.804947,34.763051],[137.80426,34.761358],[137.8022,34.760794],[137.802887,34.765871],[137.802887,34.768127],[137.80426,34.768127]]]]}},{"type":"Feature","properties":{"layer_id":"bakumatsu_villages","name":"中田村","address":"遠江 長上郡","source":"Geoshape 幕末期近世村領域データセット vector tiles (z7 extraction)","subarea_name":"近世村のおおよその範囲","feature_key":"village:K22G08S00010","accuracy_note":"2015年農業集落境界をもとに復元した概略範囲で、江戸時代の正確な村境ではありません"},"geometry":{"type":"MultiPolygon","coordinates":[[[[137.765121,34.743305],[137.765808,34.73597],[137.761688,34.73597],[137.762375,34.73202],[137.753448,34.732584],[137.752762,34.737663],[137.754135,34.737663],[137.754822,34.740484],[137.762375,34.741612],[137.762375,34.742741],[137.765121,34.743305]]],[[[137.765121,34.743305],[137.765808,34.73597],[137.761688,34.73597],[137.762375,34.73202],[137.757568,34.733149],[137.757568,34.741048],[137.762375,34.741612],[137.762375,34.742741],[137.765121,34.743305]]]]}},{"type":"Feature","properties":{"layer_id":"bakumatsu_villages","name":"中野町村","address":"遠江 豊田郡","source":"Geoshape 幕末期近世村領域データセット vector tiles (z7 extraction)","subarea_name":"近世村のおおよその範囲","feature_key":"village:K22G07S00043","accuracy_note":"2015年農業集落境界をもとに復元した概略範囲で、江戸時代の正確な村境ではありません"},"geometry":{"type":"MultiPolygon","coordinates":[[[[137.793961,34.73202],[137.793961,34.730891],[137.795334,34.730891],[137.79808,34.731456],[137.797394,34.729198],[137.791214,34.728634],[137.789841,34.73202],[137.793961,34.73202]]],[[[137.80014,34.733713],[137.80632,34.733149],[137.804947,34.726941],[137.797394,34.72807],[137.79808,34.733713],[137.80014,34.733713]]],[[[137.793961,34.73202],[137.793961,34.730891],[137.795334,34.730891],[137.79808,34.731456],[137.797394,34.729198],[137.791214,34.728634],[137.789841,34.73202],[137.793961,34.73202]]],[[[137.80014,34.733713],[137.80632,34.733149],[137.804947,34.726941],[137.797394,34.72807],[137.79808,34.733713],[137.80014,34.733713]]]]}},{"type":"Feature","properties":{"layer_id":"bakumatsu_villages","name":"丸塚村","address":"遠江 長上郡","source":"Geoshape 幕末期近世村領域データセット vector tiles (z7 extraction)","subarea_name":"近世村のおおよその範囲","feature_key":"village:K22G08S00011","accuracy_note":"2015年農業集落境界をもとに復元した概略範囲で、江戸時代の正確な村境ではありません"},"geometry":{"type":"MultiPolygon","coordinates":[[[[137.765121,34.731456],[137.765121,34.72807],[137.763062,34.72807],[137.763062,34.726941],[137.758255,34.726377],[137.757568,34.725248],[137.751389,34.725812],[137.751389,34.727505],[137.752762,34.726941],[137.754135,34.730891],[137.765121,34.731456]]],[[[137.765121,34.731456],[137.765121,34.72807],[137.763062,34.72807],[137.763062,34.726941],[137.758255,34.726377],[137.757568,34.725248],[137.757568,34.730891],[137.765121,34.731456]]]]}},{"type":"Feature","properties":{"layer_id":"bakumatsu_villages","name":"倉中瀬村","address":"遠江 豊田郡","source":"Geoshape 幕末期近世村領域データセット vector tiles (z7 extraction)","subarea_name":"近世村のおおよその範囲","feature_key":"village:K22G07S00034","accuracy_note":"2015年農業集落境界をもとに復元した概略範囲で、江戸時代の正確な村境ではありません"},"geometry":{"type":"MultiPolygon","coordinates":[[[[137.811127,34.779972],[137.811127,34.77828],[137.8125,34.77828],[137.822113,34.77546],[137.82074,34.768127],[137.8125,34.769256],[137.8125,34.770384],[137.809753,34.770384],[137.81044,34.772076],[137.80838,34.77264],[137.807007,34.773204],[137.80632,34.774332],[137.807007,34.777716],[137.811127,34.779972]]],[[[137.80632,34.774332],[137.80838,34.77264],[137.81044,34.772076],[137.809753,34.770384],[137.8125,34.770384],[137.8125,34.769256],[137.82074,34.768127],[137.820053,34.765307],[137.8125,34.766435],[137.80838,34.766999],[137.80838,34.766435],[137.80426,34.766435],[137.80426,34.768127],[137.80632,34.774332]]],[[[137.811127,34.779972],[137.811127,34.77828],[137.8125,34.77828],[137.822113,34.77546],[137.82074,34.768127],[137.8125,34.769256],[137.8125,34.770384],[137.809753,34.770384],[137.81044,34.772076],[137.80838,34.77264],[137.807007,34.773204],[137.80632,34.774332],[137.807007,34.777716],[137.811127,34.779972]]],[[[137.80632,34.774332],[137.80838,34.77264],[137.81044,34.772076],[137.809753,34.770384],[137.8125,34.770384],[137.8125,34.769256],[137.82074,34.768127],[137.820053,34.765307],[137.8125,34.766435],[137.80838,34.766999],[137.80838,34.766435],[137.80426,34.766435],[137.80426,34.768127],[137.80632,34.774332]]]]}},{"type":"Feature","properties":{"layer_id":"bakumatsu_villages","name":"北島村","address":"遠江 長上郡","source":"Geoshape 幕末期近世村領域データセット vector tiles (z7 extraction)","subarea_name":"近世村のおおよその範囲","feature_key":"village:K22G08S00024","accuracy_note":"2015年農業集落境界をもとに復元した概略範囲で、江戸時代の正確な村境ではありません"},"geometry":{"type":"MultiPolygon","coordinates":[[[[137.785034,34.734277],[137.785721,34.73202],[137.784348,34.730891],[137.785721,34.72807],[137.781601,34.726377],[137.781601,34.727505],[137.778168,34.727505],[137.776794,34.733149],[137.776794,34.734277],[137.785034,34.734277]]],[[[137.785034,34.734277],[137.785721,34.73202],[137.784348,34.730891],[137.785721,34.72807],[137.781601,34.726377],[137.781601,34.727505],[137.778168,34.727505],[137.776794,34.733149],[137.776794,34.734277],[137.785034,34.734277]]]]}},{"type":"Feature","properties":{"layer_id":"bakumatsu_villages","name":"半場村","address":"遠江 長上郡","source":"Geoshape 幕末期近世村領域データセット vector tiles (z7 extraction)","subarea_name":"近世村のおおよその範囲","feature_key":"village:K22G08S00052","accuracy_note":"2015年農業集落境界をもとに復元した概略範囲で、江戸時代の正確な村境ではありません"},"geometry":{"type":"MultiPolygon","coordinates":[[[[137.787094,34.720169],[137.793274,34.719604],[137.792587,34.718476],[137.802887,34.716218],[137.787094,34.715653],[137.787094,34.713396],[137.785034,34.713396],[137.787094,34.720169]]],[[[137.787094,34.720169],[137.793274,34.719604],[137.792587,34.718476],[137.802887,34.716218],[137.787094,34.715653],[137.787094,34.713396],[137.785034,34.713396],[137.787094,34.720169]]]]}},{"type":"Feature","properties":{"layer_id":"bakumatsu_villages","name":"原島村","address":"遠江 長上郡","source":"Geoshape 幕末期近世村領域データセット vector tiles (z7 extraction)","subarea_name":"近世村のおおよその範囲","feature_key":"village:K22G08S00014","accuracy_note":"2015年農業集落境界をもとに復元した概略範囲で、江戸時代の正確な村境ではありません"},"geometry":{"type":"MultiPolygon","coordinates":[[[[137.771301,34.733713],[137.771301,34.73202],[137.772675,34.73202],[137.772675,34.730891],[137.771301,34.730891],[137.771988,34.726941],[137.767868,34.725812],[137.767181,34.725248],[137.767181,34.726941],[137.765121,34.726941],[137.764435,34.732584],[137.771301,34.733713]]],[[[137.771301,34.733713],[137.771301,34.73202],[137.772675,34.73202],[137.772675,34.730891],[137.771301,34.730891],[137.771988,34.726941],[137.767868,34.725812],[137.767181,34.725248],[137.767181,34.726941],[137.765121,34.726941],[137.764435,34.732584],[137.771301,34.733713]]]]}},{"type":"Feature","properties":{"layer_id":"bakumatsu_villages","name":"名切村・塚越村","address":"遠江 長上郡","source":"Geoshape 幕末期近世村領域データセット vector tiles (z7 extraction)","subarea_name":"近世村のおおよその範囲","feature_key":"village:K22G08S00029,K22G08S00031","accuracy_note":"2015年農業集落境界をもとに復元した概略範囲で、江戸時代の正確な村境ではありません"},"geometry":{"type":"MultiPolygon","coordinates":[[[[137.755508,34.706622],[137.757568,34.706058],[137.757568,34.7038],[137.761002,34.7038],[137.758942,34.701542],[137.754135,34.702106],[137.755508,34.706622]]],[[[137.761002,34.7038],[137.760315,34.702106],[137.757568,34.701542],[137.757568,34.7038],[137.761002,34.7038]]]]}},{"type":"Feature","properties":{"layer_id":"bakumatsu_villages","name":"国吉村・川越島村","address":"遠江 豊田郡","source":"Geoshape 幕末期近世村領域データセット vector tiles (z7 extraction)","subarea_name":"近世村のおおよその範囲","feature_key":"village:K22G07S00041,K22G07S00042","accuracy_note":"2015年農業集落境界をもとに復元した概略範囲で、江戸時代の正確な村境ではありません"},"geometry":{"type":"MultiPolygon","coordinates":[[[[137.797394,34.72807],[137.804947,34.726941],[137.803574,34.722426],[137.804947,34.722426],[137.80426,34.71904],[137.802887,34.719604],[137.802887,34.716218],[137.792587,34.718476],[137.796021,34.724119],[137.797394,34.72807]]],[[[137.797394,34.72807],[137.804947,34.726941],[137.803574,34.722426],[137.804947,34.722426],[137.80426,34.71904],[137.802887,34.719604],[137.802887,34.716218],[137.792587,34.718476],[137.796021,34.724119],[137.797394,34.72807]]]]}},{"type":"Feature","properties":{"layer_id":"bakumatsu_villages","name":"大明神村","address":"遠江 豊田郡","source":"Geoshape 幕末期近世村領域データセット vector tiles (z7 extraction)","subarea_name":"近世村のおおよその範囲","feature_key":"village:K22G07S00040","accuracy_note":"2015年農業集落境界をもとに復元した概略範囲で、江戸時代の正確な村境ではありません"},"geometry":{"type":"MultiPolygon","coordinates":[[[[137.793274,34.734277],[137.793274,34.733713],[137.79808,34.733713],[137.79808,34.731456],[137.795334,34.730891],[137.793961,34.730891],[137.793961,34.73202],[137.791214,34.73202],[137.791901,34.733713],[137.793274,34.734277]]],[[[137.793274,34.734277],[137.793274,34.733713],[137.79808,34.733713],[137.79808,34.731456],[137.795334,34.730891],[137.793961,34.730891],[137.793961,34.73202],[137.791214,34.73202],[137.791901,34.733713],[137.793274,34.734277]]]]}},{"type":"Feature","properties":{"layer_id":"bakumatsu_villages","name":"大蒲村","address":"遠江 長上郡","source":"Geoshape 幕末期近世村領域データセット vector tiles (z7 extraction)","subarea_name":"近世村のおおよその範囲","feature_key":"village:K22G08S00093","accuracy_note":"2015年農業集落境界をもとに復元した概略範囲で、江戸時代の正確な村境ではありません"},"geometry":{"type":"MultiPolygon","coordinates":[[[[137.763062,34.717347],[137.763748,34.716218],[137.766495,34.716782],[137.770615,34.716218],[137.771301,34.713396],[137.769241,34.712831],[137.769928,34.711703],[137.769241,34.711138],[137.768555,34.712831],[137.767181,34.712267],[137.767181,34.712831],[137.763062,34.71396],[137.763062,34.717347]]],[[[137.763062,34.717347],[137.763748,34.716218],[137.766495,34.716782],[137.770615,34.716218],[137.771301,34.713396],[137.769241,34.712831],[137.769928,34.711703],[137.769241,34.711138],[137.768555,34.712831],[137.767181,34.712267],[137.767181,34.712831],[137.763062,34.71396],[137.763062,34.717347]]]]}},{"type":"Feature","properties":{"layer_id":"bakumatsu_villages","name":"大見村","address":"遠江 豊田郡","source":"Geoshape 幕末期近世村領域データセット vector tiles (z7 extraction)","subarea_name":"近世村のおおよその範囲","feature_key":"village:K22G07S00038","accuracy_note":"2015年農業集落境界をもとに復元した概略範囲で、江戸時代の正確な村境ではありません"},"geometry":{"type":"MultiPolygon","coordinates":[[[[137.800827,34.741048],[137.80014,34.737098],[137.795334,34.736534],[137.795334,34.739356],[137.797394,34.739356],[137.79808,34.740484],[137.800827,34.741048]]],[[[137.795334,34.739356],[137.795334,34.736534],[137.80014,34.737098],[137.80014,34.73597],[137.800827,34.736534],[137.80014,34.733713],[137.793274,34.733713],[137.794647,34.739356],[137.795334,34.739356]]],[[[137.800827,34.741048],[137.80014,34.737098],[137.795334,34.736534],[137.795334,34.739356],[137.797394,34.739356],[137.79808,34.740484],[137.800827,34.741048]]],[[[137.795334,34.739356],[137.795334,34.736534],[137.80014,34.737098],[137.80014,34.73597],[137.800827,34.736534],[137.80014,34.733713],[137.793274,34.733713],[137.794647,34.739356],[137.795334,34.739356]]]]}},{"type":"Feature","properties":{"layer_id":"bakumatsu_villages","name":"天王新田村","address":"遠江 長上郡","source":"Geoshape 幕末期近世村領域データセット vector tiles (z7 extraction)","subarea_name":"近世村のおおよその範囲","feature_key":"village:K22G08S00017","accuracy_note":"2015年農業集落境界をもとに復元した概略範囲で、江戸時代の正確な村境ではありません"},"geometry":{"type":"MultiPolygon","coordinates":[[[[137.779541,34.734277],[137.774048,34.739356],[137.776794,34.743869],[137.779541,34.743305],[137.779541,34.734277]]],[[[137.779541,34.734277],[137.780914,34.733713],[137.779541,34.733713],[137.779541,34.734277]]],[[[137.779541,34.734277],[137.774048,34.739356],[137.776794,34.743869],[137.779541,34.743305],[137.779541,34.734277]]],[[[137.779541,34.734277],[137.780914,34.733713],[137.779541,34.733713],[137.779541,34.734277]]]]}},{"type":"Feature","properties":{"layer_id":"bakumatsu_villages","name":"天王村","address":"遠江 長上郡","source":"Geoshape 幕末期近世村領域データセット vector tiles (z7 extraction)","subarea_name":"近世村のおおよその範囲","feature_key":"village:K22G08S00013","accuracy_note":"2015年農業集落境界をもとに復元した概略範囲で、江戸時代の正確な村境ではありません"},"geometry":{"type":"MultiPolygon","coordinates":[[[[137.775421,34.742741],[137.773361,34.73992],[137.774734,34.738227],[137.771988,34.737663],[137.771988,34.733713],[137.762375,34.73202],[137.761688,34.73597],[137.765808,34.73597],[137.765121,34.742177],[137.772675,34.742177],[137.771988,34.742741],[137.775421,34.742741]]],[[[137.775421,34.742741],[137.773361,34.73992],[137.774734,34.738227],[137.771988,34.737663],[137.771988,34.733713],[137.762375,34.73202],[137.761688,34.73597],[137.765808,34.73597],[137.765121,34.742177],[137.772675,34.742177],[137.771988,34.742741],[137.775421,34.742741]]]]}},{"type":"Feature","properties":{"layer_id":"bakumatsu_villages","name":"安間新田村","address":"遠江 長上郡","source":"Geoshape 幕末期近世村領域データセット vector tiles (z7 extraction)","subarea_name":"近世村のおおよその範囲","feature_key":"village:K22G08S00051","accuracy_note":"2015年農業集落境界をもとに復元した概略範囲で、江戸時代の正確な村境ではありません"},"geometry":{"type":"MultiPolygon","coordinates":[[[[137.785034,34.734277],[137.789841,34.733713],[137.789841,34.730327],[137.791214,34.728634],[137.789841,34.728634],[137.790527,34.724684],[137.789154,34.724684],[137.788467,34.726941],[137.785034,34.730327],[137.785034,34.734277]]],[[[137.785034,34.734277],[137.789841,34.733713],[137.789841,34.730327],[137.791214,34.728634],[137.789841,34.728634],[137.790527,34.724684],[137.789154,34.724684],[137.788467,34.726941],[137.785034,34.730327],[137.785034,34.734277]]]]}},{"type":"Feature","properties":{"layer_id":"bakumatsu_villages","name":"安間村","address":"遠江 長上郡","source":"Geoshape 幕末期近世村領域データセット vector tiles (z7 extraction)","subarea_name":"近世村のおおよその範囲","feature_key":"village:K22G08S00047","accuracy_note":"2015年農業集落境界をもとに復元した概略範囲で、江戸時代の正確な村境ではありません"},"geometry":{"type":"MultiPolygon","coordinates":[[[[137.788467,34.725812],[137.789154,34.724684],[137.790527,34.724684],[137.789841,34.728634],[137.791214,34.728634],[137.793961,34.721862],[137.793274,34.719604],[137.787094,34.720169],[137.788467,34.722426],[137.787781,34.722426],[137.788467,34.725812]]],[[[137.788467,34.725812],[137.789154,34.724684],[137.790527,34.724684],[137.789841,34.728634],[137.791214,34.728634],[137.793961,34.721862],[137.793274,34.719604],[137.787094,34.720169],[137.788467,34.722426],[137.787781,34.722426],[137.788467,34.725812]]]]}},{"type":"Feature","properties":{"layer_id":"bakumatsu_villages","name":"宮竹村・宮竹新屋村","address":"遠江 長上郡","source":"Geoshape 幕末期近世村領域データセット vector tiles (z7 extraction)","subarea_name":"近世村のおおよその範囲","feature_key":"village:K22G08S00006,K22G08S00007","accuracy_note":"2015年農業集落境界をもとに復元した概略範囲で、江戸時代の正確な村境ではありません"},"geometry":{"type":"MultiPolygon","coordinates":[[[[137.766495,34.723555],[137.764435,34.721862],[137.764435,34.718476],[137.766495,34.716782],[137.763748,34.716218],[137.763748,34.717347],[137.762375,34.716782],[137.762375,34.717911],[137.761002,34.717911],[137.761002,34.721862],[137.763062,34.722426],[137.764435,34.723555],[137.766495,34.723555]]],[[[137.766495,34.723555],[137.764435,34.721862],[137.764435,34.718476],[137.766495,34.716782],[137.763748,34.716218],[137.763748,34.717347],[137.762375,34.716782],[137.762375,34.717911],[137.761002,34.717911],[137.761002,34.721862],[137.763062,34.722426],[137.764435,34.723555],[137.766495,34.723555]]]]}},{"type":"Feature","properties":{"layer_id":"bakumatsu_villages","name":"富田村","address":"遠江 豊田郡","source":"Geoshape 幕末期近世村領域データセット vector tiles (z7 extraction)","subarea_name":"近世村のおおよその範囲","feature_key":"village:K22G07S00020","accuracy_note":"2015年農業集落境界をもとに復元した概略範囲で、江戸時代の正確な村境ではありません"},"geometry":{"type":"MultiPolygon","coordinates":[[[[137.811127,34.744434],[137.81044,34.742177],[137.801514,34.742177],[137.801514,34.743869],[137.811127,34.744434]]],[[[137.811127,34.744434],[137.81044,34.742177],[137.801514,34.742177],[137.801514,34.743869],[137.811127,34.744434]]]]}},{"type":"Feature","properties":{"layer_id":"bakumatsu_villages","name":"将監名村","address":"遠江 長上郡","source":"Geoshape 幕末期近世村領域データセット vector tiles (z7 extraction)","subarea_name":"近世村のおおよその範囲","feature_key":"village:K22G08S00002","accuracy_note":"2015年農業集落境界をもとに復元した概略範囲で、江戸時代の正確な村境ではありません"},"geometry":{"type":"MultiPolygon","coordinates":[[[[137.756195,34.717911],[137.759628,34.715653],[137.755508,34.712831],[137.751389,34.715653],[137.753448,34.717347],[137.756195,34.717911]]],[[[137.757568,34.717347],[137.759628,34.715653],[137.757568,34.713396],[137.757568,34.717347]]]]}},{"type":"Feature","properties":{"layer_id":"bakumatsu_villages","name":"小池村","address":"遠江 長上郡","source":"Geoshape 幕末期近世村領域データセット vector tiles (z7 extraction)","subarea_name":"近世村のおおよその範囲","feature_key":"village:K22G08S00008","accuracy_note":"2015年農業集落境界をもとに復元した概略範囲で、江戸時代の正確な村境ではありません"},"geometry":{"type":"MultiPolygon","coordinates":[[[[137.761002,34.75064],[137.762375,34.748947],[137.757568,34.74669],[137.755508,34.747255],[137.754135,34.74669],[137.752075,34.748383],[137.753448,34.750076],[137.756882,34.749511],[137.758942,34.75064],[137.761002,34.75064]]],[[[137.752075,34.748383],[137.753448,34.747255],[137.754135,34.742177],[137.755508,34.742177],[137.754135,34.737663],[137.752762,34.737663],[137.752762,34.741612],[137.750702,34.742177],[137.750702,34.744434],[137.749329,34.746126],[137.752075,34.748383]]],[[[137.753448,34.747255],[137.754135,34.74669],[137.756195,34.74669],[137.756195,34.745562],[137.757568,34.745562],[137.756195,34.740484],[137.754822,34.740484],[137.755508,34.742177],[137.754135,34.742177],[137.754135,34.743869],[137.753448,34.743305],[137.752762,34.746126],[137.753448,34.747255]]],[[[137.761002,34.75741],[137.763062,34.755717],[137.762375,34.753461],[137.759628,34.75064],[137.756882,34.749511],[137.753448,34.750076],[137.755508,34.754025],[137.758255,34.756846],[137.761002,34.75741]]],[[[137.763062,34.755717],[137.765808,34.752896],[137.763748,34.752896],[137.764435,34.748947],[137.762375,34.748947],[137.761688,34.750076],[137.759628,34.75064],[137.762375,34.753461],[137.763062,34.755717]]],[[[137.764435,34.748947],[137.764435,34.746126],[137.763062,34.745562],[137.763062,34.743305],[137.762375,34.742741],[137.762375,34.741612],[137.756195,34.741048],[137.757568,34.745562],[137.756195,34.745562],[137.756195,34.74669],[137.757568,34.74669],[137.761002,34.748947],[137.764435,34.748947]]],[[[137.761002,34.75064],[137.762375,34.748947],[137.757568,34.74669],[137.757568,34.749511],[137.758942,34.75064],[137.761002,34.75064]]],[[[137.761002,34.75741],[137.763062,34.755717],[137.762375,34.753461],[137.759628,34.75064],[137.757568,34.749511],[137.757568,34.755717],[137.758255,34.756846],[137.761002,34.75741]]],[[[137.763062,34.755717],[137.765808,34.752896],[137.763748,34.752896],[137.764435,34.748947],[137.762375,34.748947],[137.761688,34.750076],[137.759628,34.75064],[137.762375,34.753461],[137.763062,34.755717]]],[[[137.764435,34.748947],[137.764435,34.746126],[137.763062,34.745562],[137.763062,34.743305],[137.762375,34.742741],[137.762375,34.741612],[137.757568,34.741048],[137.757568,34.74669],[137.761002,34.748947],[137.764435,34.748947]]]]}},{"type":"Feature","properties":{"layer_id":"bakumatsu_villages","name":"市野村","address":"遠江 長上郡","source":"Geoshape 幕末期近世村領域データセット vector tiles (z7 extraction)","subarea_name":"近世村のおおよその範囲","feature_key":"village:K22G08S00018","accuracy_note":"2015年農業集落境界をもとに復元した概略範囲で、江戸時代の正確な村境ではありません"},"geometry":{"type":"MultiPolygon","coordinates":[[[[137.763748,34.756281],[137.767181,34.754589],[137.766495,34.753461],[137.770615,34.753461],[137.770615,34.751204],[137.763748,34.750076],[137.763748,34.752896],[137.765808,34.752896],[137.763062,34.755153],[137.763748,34.756281]]],[[[137.770615,34.751204],[137.771988,34.746126],[137.763062,34.744998],[137.764435,34.746126],[137.763748,34.750076],[137.770615,34.751204]]],[[[137.772675,34.74669],[137.772675,34.744998],[137.773361,34.742741],[137.769928,34.741612],[137.769928,34.742741],[137.765121,34.742177],[137.765121,34.743305],[137.763062,34.743305],[137.763062,34.744998],[137.772675,34.74669]]],[[[137.778854,34.753461],[137.778854,34.751768],[137.771988,34.751204],[137.772675,34.748947],[137.771301,34.749511],[137.770615,34.753461],[137.778854,34.753461]]],[[[137.779541,34.751768],[137.778168,34.748383],[137.776108,34.748383],[137.775421,34.745562],[137.772675,34.744998],[137.771301,34.749511],[137.772675,34.748947],[137.771988,34.751204],[137.779541,34.751768]]],[[[137.779541,34.751768],[137.778854,34.747819],[137.779541,34.74669],[137.778168,34.74669],[137.777481,34.745562],[137.775421,34.745562],[137.776108,34.748383],[137.778168,34.748383],[137.779541,34.751768]]],[[[137.776794,34.745562],[137.776108,34.744998],[137.776794,34.743869],[137.775421,34.742741],[137.773361,34.742741],[137.772675,34.744998],[137.775421,34.745562],[137.776794,34.745562]]],[[[137.778168,34.74669],[137.778854,34.744434],[137.776794,34.743869],[137.775421,34.744998],[137.777481,34.745562],[137.778168,34.74669]]],[[[137.763748,34.756281],[137.767181,34.754589],[137.766495,34.753461],[137.770615,34.753461],[137.770615,34.751204],[137.763748,34.750076],[137.763748,34.752896],[137.765808,34.752896],[137.763062,34.755153],[137.763748,34.756281]]],[[[137.770615,34.751204],[137.771988,34.746126],[137.763062,34.744998],[137.764435,34.746126],[137.763748,34.750076],[137.770615,34.751204]]],[[[137.772675,34.74669],[137.772675,34.744998],[137.773361,34.742741],[137.769928,34.741612],[137.769928,34.742741],[137.765121,34.742177],[137.765121,34.743305],[137.763062,34.743305],[137.763062,34.744998],[137.772675,34.74669]]],[[[137.778854,34.753461],[137.778854,34.751768],[137.771988,34.751204],[137.772675,34.748947],[137.771301,34.749511],[137.770615,34.753461],[137.778854,34.753461]]],[[[137.779541,34.751768],[137.778168,34.748383],[137.776108,34.748383],[137.775421,34.745562],[137.772675,34.744998],[137.771301,34.749511],[137.772675,34.748947],[137.771988,34.751204],[137.779541,34.751768]]],[[[137.779541,34.751768],[137.778854,34.747819],[137.779541,34.74669],[137.778168,34.74669],[137.777481,34.745562],[137.775421,34.745562],[137.776108,34.748383],[137.778168,34.748383],[137.779541,34.751768]]],[[[137.776794,34.745562],[137.776108,34.744998],[137.776794,34.743869],[137.775421,34.742741],[137.773361,34.742741],[137.772675,34.744998],[137.775421,34.745562],[137.776794,34.745562]]],[[[137.778168,34.74669],[137.778854,34.744434],[137.776794,34.743869],[137.775421,34.744998],[137.777481,34.745562],[137.778168,34.74669]]]]}},{"type":"Feature","properties":{"layer_id":"bakumatsu_villages","name":"常光村","address":"遠江 豊田郡","source":"Geoshape 幕末期近世村領域データセット vector tiles (z7 extraction)","subarea_name":"近世村のおおよその範囲","feature_key":"village:K22G07S00036","accuracy_note":"2015年農業集落境界をもとに復元した概略範囲で、江戸時代の正確な村境ではありません"},"geometry":{"type":"MultiPolygon","coordinates":[[[[137.8022,34.759102],[137.802887,34.757974],[137.805634,34.757974],[137.805634,34.756281],[137.8125,34.755717],[137.81662,34.756281],[137.817993,34.756281],[137.813187,34.748947],[137.8125,34.748947],[137.798767,34.74669],[137.79808,34.756281],[137.800827,34.756281],[137.800827,34.759102],[137.8022,34.759102]]],[[[137.8022,34.759102],[137.802887,34.757974],[137.805634,34.757974],[137.805634,34.756281],[137.8125,34.755717],[137.81662,34.756281],[137.817993,34.756281],[137.813187,34.748947],[137.8125,34.748947],[137.798767,34.74669],[137.79808,34.756281],[137.800827,34.756281],[137.800827,34.759102],[137.8022,34.759102]]]]}},{"type":"Feature","properties":{"layer_id":"bakumatsu_villages","name":"庄屋村・小池村","address":"遠江 長上郡","source":"Geoshape 幕末期近世村領域データセット vector tiles (z7 extraction)","subarea_name":"近世村のおおよその範囲","feature_key":"village:K22G08S00044,K22G08S00050","accuracy_note":"2015年農業集落境界をもとに復元した概略範囲で、江戸時代の正確な村境ではありません"},"geometry":{"type":"MultiPolygon","coordinates":[[[[137.802887,34.716218],[137.800827,34.705493],[137.793274,34.706622],[137.791901,34.704929],[137.787781,34.705493],[137.788467,34.711138],[137.792587,34.715653],[137.802887,34.716218]]],[[[137.802887,34.716218],[137.800827,34.705493],[137.793274,34.706622],[137.791901,34.704929],[137.787781,34.705493],[137.788467,34.711138],[137.792587,34.715653],[137.802887,34.716218]]]]}},{"type":"Feature","properties":{"layer_id":"bakumatsu_villages","name":"恒武村","address":"遠江 豊田郡","source":"Geoshape 幕末期近世村領域データセット vector tiles (z7 extraction)","subarea_name":"近世村のおおよその範囲","feature_key":"village:K22G07S00027","accuracy_note":"2015年農業集落境界をもとに復元した概略範囲で、江戸時代の正確な村境ではありません"},"geometry":{"type":"MultiPolygon","coordinates":[[[[137.799454,34.766999],[137.802887,34.765871],[137.801514,34.765307],[137.79808,34.764743],[137.797394,34.763615],[137.797394,34.766435],[137.799454,34.766999]]],[[[137.791901,34.761358],[137.796707,34.765871],[137.797394,34.763615],[137.79808,34.764743],[137.801514,34.765307],[137.802887,34.765871],[137.8022,34.760794],[137.799454,34.760794],[137.799454,34.761923],[137.797394,34.761923],[137.795334,34.759666],[137.794647,34.76023],[137.791901,34.76023],[137.791901,34.761358]]],[[[137.799454,34.766999],[137.802887,34.765871],[137.801514,34.765307],[137.79808,34.764743],[137.797394,34.763615],[137.797394,34.766435],[137.799454,34.766999]]],[[[137.791901,34.761358],[137.796707,34.765871],[137.797394,34.763615],[137.79808,34.764743],[137.801514,34.765307],[137.802887,34.765871],[137.8022,34.760794],[137.799454,34.760794],[137.799454,34.761923],[137.797394,34.761923],[137.795334,34.759666],[137.794647,34.76023],[137.791901,34.76023],[137.791901,34.761358]]]]}},{"type":"Feature","properties":{"layer_id":"bakumatsu_villages","name":"有玉上瀬村","address":"遠江 長上郡","source":"Geoshape 幕末期近世村領域データセット vector tiles (z7 extraction)","subarea_name":"近世村のおおよその範囲","feature_key":"village:K22G08S00114","accuracy_note":"2015年農業集落境界をもとに復元した概略範囲で、江戸時代の正確な村境ではありません"},"geometry":{"type":"MultiPolygon","coordinates":[[[[137.757568,34.777152],[137.758942,34.776588],[137.758942,34.77546],[137.756882,34.771512],[137.756882,34.76982],[137.753448,34.770948],[137.754822,34.777152],[137.757568,34.777152]]],[[[137.753448,34.770948],[137.758255,34.769256],[137.756195,34.766435],[137.754822,34.762487],[137.749329,34.764743],[137.749329,34.766999],[137.748642,34.767563],[137.752075,34.768691],[137.753448,34.770948]]],[[[137.757568,34.777152],[137.758942,34.776588],[137.758942,34.77546],[137.757568,34.76982],[137.757568,34.777152]]],[[[137.758255,34.76982],[137.758255,34.768691],[137.756882,34.768691],[137.756882,34.76982],[137.758255,34.76982]]]]}},{"type":"Feature","properties":{"layer_id":"bakumatsu_villages","name":"有玉下村","address":"遠江 長上郡","source":"Geoshape 幕末期近世村領域データセット vector tiles (z7 extraction)","subarea_name":"近世村のおおよその範囲","feature_key":"village:K22G08S00117","accuracy_note":"2015年農業集落境界をもとに復元した概略範囲で、江戸時代の正確な村境ではありません"},"geometry":{"type":"MultiPolygon","coordinates":[[[[137.742462,34.754025],[137.748642,34.751204],[137.747955,34.748947],[137.750702,34.747255],[137.749329,34.746126],[137.746582,34.746126],[137.743149,34.748383],[137.742462,34.754025]]],[[[137.748642,34.751204],[137.753448,34.750076],[137.750702,34.747255],[137.747955,34.748947],[137.748642,34.751204]]]]}},{"type":"Feature","properties":{"layer_id":"bakumatsu_villages","name":"有玉新村","address":"遠江 長上郡","source":"Geoshape 幕末期近世村領域データセット vector tiles (z7 extraction)","subarea_name":"近世村のおおよその範囲","feature_key":"village:K22G08S00118","accuracy_note":"2015年農業集落境界をもとに復元した概略範囲で、江戸時代の正確な村境ではありません"},"geometry":{"type":"MultiPolygon","coordinates":[[[[137.756195,34.766435],[137.761002,34.764743],[137.757568,34.758538],[137.754135,34.759102],[137.754135,34.761358],[137.756195,34.766435]]],[[[137.757568,34.765871],[137.761002,34.764743],[137.757568,34.758538],[137.757568,34.765871]]]]}},{"type":"Feature","properties":{"layer_id":"bakumatsu_villages","name":"有玉松木島村","address":"遠江 長上郡","source":"Geoshape 幕末期近世村領域データセット vector tiles (z7 extraction)","subarea_name":"近世村のおおよその範囲","feature_key":"village:K22G08S00115","accuracy_note":"2015年農業集落境界をもとに復元した概略範囲で、江戸時代の正確な村境ではありません"},"geometry":{"type":"MultiPolygon","coordinates":[[[[137.758255,34.769256],[137.761688,34.767563],[137.760315,34.764743],[137.756195,34.766435],[137.758255,34.769256]]],[[[137.758255,34.769256],[137.761688,34.767563],[137.760315,34.764743],[137.757568,34.765871],[137.758255,34.769256]]]]}},{"type":"Feature","properties":{"layer_id":"bakumatsu_villages","name":"有玉欠下村","address":"遠江 長上郡","source":"Geoshape 幕末期近世村領域データセット vector tiles (z7 extraction)","subarea_name":"近世村のおおよその範囲","feature_key":"village:K22G08S00119","accuracy_note":"2015年農業集落境界をもとに復元した概略範囲で、江戸時代の正確な村境ではありません"},"geometry":{"type":"MultiPolygon","coordinates":[[[[137.739716,34.767563],[137.743149,34.763615],[137.747955,34.763615],[137.747269,34.760794],[137.744522,34.758538],[137.742462,34.75741],[137.742462,34.754025],[137.733536,34.76023],[137.735596,34.763615],[137.736282,34.766999],[137.739716,34.767563]]],[[[137.733536,34.76023],[137.742462,34.754025],[137.742462,34.749511],[137.741089,34.75064],[137.739716,34.749511],[137.736282,34.751204],[137.734909,34.75064],[137.735596,34.751768],[137.732849,34.754025],[137.732162,34.757974],[137.733536,34.76023]]]]}},{"type":"Feature","properties":{"layer_id":"bakumatsu_villages","name":"有玉町田村","address":"遠江 長上郡","source":"Geoshape 幕末期近世村領域データセット vector tiles (z7 extraction)","subarea_name":"近世村のおおよその範囲","feature_key":"village:K22G08S00120","accuracy_note":"2015年農業集落境界をもとに復元した概略範囲で、江戸時代の正確な村境ではありません"},"geometry":{"type":"Polygon","coordinates":[[[137.749329,34.764743],[137.754822,34.762487],[137.754135,34.759102],[137.752762,34.759666],[137.750702,34.755717],[137.745895,34.75741],[137.744522,34.758538],[137.747269,34.760794],[137.747955,34.763615],[137.748642,34.763051],[137.749329,34.764743]]]}},{"type":"Feature","properties":{"layer_id":"bakumatsu_villages","name":"有玉畑屋村","address":"遠江 長上郡","source":"Geoshape 幕末期近世村領域データセット vector tiles (z7 extraction)","subarea_name":"近世村のおおよその範囲","feature_key":"village:K22G08S00116","accuracy_note":"2015年農業集落境界をもとに復元した概略範囲で、江戸時代の正確な村境ではありません"},"geometry":{"type":"MultiPolygon","coordinates":[[[[137.744522,34.758538],[137.745895,34.75741],[137.750702,34.755717],[137.750015,34.754025],[137.747955,34.754589],[137.746582,34.752332],[137.742462,34.754025],[137.742462,34.75741],[137.744522,34.758538]]],[[[137.747955,34.754589],[137.754822,34.752896],[137.753448,34.750076],[137.746582,34.752332],[137.747955,34.754589]]],[[[137.752762,34.759666],[137.756882,34.758538],[137.756195,34.755153],[137.754822,34.752896],[137.751389,34.754025],[137.751389,34.753461],[137.750015,34.754025],[137.752762,34.759666]]]]}},{"type":"Feature","properties":{"layer_id":"bakumatsu_villages","name":"末島村・中瀬村","address":"遠江 豊田郡","source":"Geoshape 幕末期近世村領域データセット vector tiles (z7 extraction)","subarea_name":"近世村のおおよその範囲","feature_key":"village:K22G07S00044,K22G07S05001","accuracy_note":"2015年農業集落境界をもとに復元した概略範囲で、江戸時代の正確な村境ではありません"},"geometry":{"type":"MultiPolygon","coordinates":[[[[137.8125,34.766435],[137.820053,34.765307],[137.817993,34.756281],[137.8125,34.755717],[137.805634,34.756281],[137.805634,34.757974],[137.802887,34.757974],[137.801514,34.76023],[137.801514,34.760794],[137.80426,34.761358],[137.804947,34.763051],[137.809753,34.763051],[137.809753,34.765307],[137.811813,34.765307],[137.811813,34.766435],[137.8125,34.766435]]],[[[137.8125,34.766435],[137.820053,34.765307],[137.817993,34.756281],[137.8125,34.755717],[137.805634,34.756281],[137.805634,34.757974],[137.802887,34.757974],[137.801514,34.76023],[137.801514,34.760794],[137.80426,34.761358],[137.804947,34.763051],[137.809753,34.763051],[137.809753,34.765307],[137.811813,34.765307],[137.811813,34.766435],[137.8125,34.766435]]]]}},{"type":"Feature","properties":{"layer_id":"bakumatsu_villages","name":"松小池村","address":"遠江 豊田郡","source":"Geoshape 幕末期近世村領域データセット vector tiles (z7 extraction)","subarea_name":"近世村のおおよその範囲","feature_key":"village:K22G07S00028","accuracy_note":"2015年農業集落境界をもとに復元した概略範囲で、江戸時代の正確な村境ではありません"},"geometry":{"type":"MultiPolygon","coordinates":[[[[137.793274,34.740484],[137.793274,34.738791],[137.794647,34.739356],[137.793274,34.73597],[137.790527,34.737098],[137.789841,34.73992],[137.793274,34.740484]]],[[[137.790527,34.737098],[137.793274,34.73597],[137.791214,34.73202],[137.789841,34.73202],[137.789841,34.734277],[137.790527,34.737098]]],[[[137.793274,34.740484],[137.793274,34.738791],[137.794647,34.739356],[137.793274,34.73597],[137.790527,34.737098],[137.789841,34.73992],[137.793274,34.740484]]],[[[137.790527,34.737098],[137.793274,34.73597],[137.791214,34.73202],[137.789841,34.73202],[137.789841,34.734277],[137.790527,34.737098]]]]}},{"type":"Feature","properties":{"layer_id":"bakumatsu_villages","name":"植松村","address":"遠江 長上郡","source":"Geoshape 幕末期近世村領域データセット vector tiles (z7 extraction)","subarea_name":"近世村のおおよその範囲","feature_key":"village:K22G08S00005","accuracy_note":"2015年農業集落境界をもとに復元した概略範囲で、江戸時代の正確な村境ではありません"},"geometry":{"type":"MultiPolygon","coordinates":[[[[137.761688,34.716218],[137.761688,34.714525],[137.759628,34.713396],[137.758942,34.711703],[137.765808,34.710009],[137.760315,34.709445],[137.758255,34.706622],[137.754822,34.706058],[137.753448,34.707187],[137.753448,34.710574],[137.752075,34.71396],[137.752762,34.714525],[137.755508,34.712831],[137.757568,34.713396],[137.758942,34.715089],[137.761688,34.716218]]],[[[137.761688,34.716218],[137.761688,34.714525],[137.759628,34.713396],[137.758942,34.711703],[137.765808,34.710009],[137.760315,34.709445],[137.758255,34.706622],[137.757568,34.707187],[137.757568,34.713396],[137.758942,34.715089],[137.761688,34.716218]]]]}},{"type":"Feature","properties":{"layer_id":"bakumatsu_villages","name":"橋爪村","address":"遠江 長上郡","source":"Geoshape 幕末期近世村領域データセット vector tiles (z7 extraction)","subarea_name":"近世村のおおよその範囲","feature_key":"village:K22G08S00128","accuracy_note":"2015年農業集落境界をもとに復元した概略範囲で、江戸時代の正確な村境ではありません"},"geometry":{"type":"MultiPolygon","coordinates":[[[[137.767181,34.772076],[137.767181,34.768691],[137.765121,34.769256],[137.764435,34.766999],[137.761688,34.767563],[137.763748,34.76982],[137.763748,34.772076],[137.767181,34.772076]]],[[[137.771301,34.776024],[137.771988,34.773768],[137.770615,34.772076],[137.771988,34.77264],[137.772675,34.768691],[137.771988,34.768127],[137.767181,34.768691],[137.767181,34.770384],[137.766495,34.770948],[137.768555,34.774896],[137.769928,34.774332],[137.771301,34.776024]]],[[[137.767181,34.772076],[137.767181,34.768691],[137.765121,34.769256],[137.764435,34.766999],[137.761688,34.767563],[137.763748,34.76982],[137.763748,34.772076],[137.767181,34.772076]]],[[[137.771301,34.776024],[137.771988,34.773768],[137.770615,34.772076],[137.771988,34.77264],[137.772675,34.768691],[137.771988,34.768127],[137.767181,34.768691],[137.767181,34.770384],[137.766495,34.770948],[137.768555,34.774896],[137.769928,34.774332],[137.771301,34.776024]]]]}},{"type":"Feature","properties":{"layer_id":"bakumatsu_villages","name":"橋羽村","address":"遠江 長上郡","source":"Geoshape 幕末期近世村領域データセット vector tiles (z7 extraction)","subarea_name":"近世村のおおよその範囲","feature_key":"village:K22G08S00040","accuracy_note":"2015年農業集落境界をもとに復元した概略範囲で、江戸時代の正確な村境ではありません"},"geometry":{"type":"MultiPolygon","coordinates":[[[[137.778854,34.724684],[137.782288,34.720733],[137.781601,34.716782],[137.780914,34.717347],[137.776108,34.716218],[137.777481,34.717347],[137.776108,34.718476],[137.776794,34.71904],[137.771988,34.719604],[137.772675,34.720733],[137.776108,34.721297],[137.778854,34.722426],[137.778168,34.723555],[137.778854,34.724684]]],[[[137.778854,34.724684],[137.782288,34.720733],[137.781601,34.716782],[137.780914,34.717347],[137.776108,34.716218],[137.777481,34.717347],[137.776108,34.718476],[137.776794,34.71904],[137.771988,34.719604],[137.772675,34.720733],[137.776108,34.721297],[137.778854,34.722426],[137.778168,34.723555],[137.778854,34.724684]]]]}},{"type":"Feature","properties":{"layer_id":"bakumatsu_villages","name":"次広村・西之郷村","address":"遠江 長上郡","source":"Geoshape 幕末期近世村領域データセット vector tiles (z7 extraction)","subarea_name":"近世村のおおよその範囲","feature_key":"village:K22G08S00028,K22G08S00037","accuracy_note":"2015年農業集落境界をもとに復元した概略範囲で、江戸時代の正確な村境ではありません"},"geometry":{"type":"MultiPolygon","coordinates":[[[[137.767181,34.710574],[137.769241,34.709445],[137.769928,34.7038],[137.769928,34.702671],[137.772675,34.702671],[137.772675,34.698719],[137.769928,34.699284],[137.768555,34.704929],[137.766495,34.705493],[137.766495,34.708316],[137.764435,34.708316],[137.763748,34.70888],[137.759628,34.70888],[137.760315,34.709445],[137.765808,34.710009],[137.767181,34.710574]]],[[[137.767181,34.710574],[137.769241,34.709445],[137.769928,34.7038],[137.769928,34.702671],[137.772675,34.702671],[137.772675,34.698719],[137.769928,34.699284],[137.768555,34.704929],[137.766495,34.705493],[137.766495,34.708316],[137.764435,34.708316],[137.763748,34.70888],[137.759628,34.70888],[137.760315,34.709445],[137.765808,34.710009],[137.767181,34.710574]]]]}},{"type":"Feature","properties":{"layer_id":"bakumatsu_villages","name":"永田村","address":"遠江 長上郡","source":"Geoshape 幕末期近世村領域データセット vector tiles (z7 extraction)","subarea_name":"近世村のおおよその範囲","feature_key":"village:K22G08S00015","accuracy_note":"2015年農業集落境界をもとに復元した概略範囲で、江戸時代の正確な村境ではありません"},"geometry":{"type":"MultiPolygon","coordinates":[[[[137.769928,34.724684],[137.772675,34.724119],[137.772675,34.723555],[137.774734,34.724119],[137.776108,34.721297],[137.772675,34.720733],[137.771988,34.719604],[137.776794,34.71904],[137.776108,34.718476],[137.777481,34.717347],[137.771301,34.713396],[137.770615,34.716218],[137.766495,34.716782],[137.764435,34.718476],[137.764435,34.721862],[137.767868,34.724119],[137.767868,34.724684],[137.769928,34.724684]]],[[[137.769928,34.724684],[137.772675,34.724119],[137.772675,34.723555],[137.774734,34.724119],[137.776108,34.721297],[137.772675,34.720733],[137.771988,34.719604],[137.776794,34.71904],[137.776108,34.718476],[137.777481,34.717347],[137.771301,34.713396],[137.770615,34.716218],[137.766495,34.716782],[137.764435,34.718476],[137.764435,34.721862],[137.767868,34.724119],[137.767868,34.724684],[137.769928,34.724684]]]]}},{"type":"Feature","properties":{"layer_id":"bakumatsu_villages","name":"漆島村","address":"遠江 長上郡","source":"Geoshape 幕末期近世村領域データセット vector tiles (z7 extraction)","subarea_name":"近世村のおおよその範囲","feature_key":"village:K22G08S00126","accuracy_note":"2015年農業集落境界をもとに復元した概略範囲で、江戸時代の正確な村境ではありません"},"geometry":{"type":"MultiPolygon","coordinates":[[[[137.765121,34.769256],[137.769241,34.768127],[137.769928,34.764179],[137.767181,34.763051],[137.762375,34.764179],[137.762375,34.764743],[137.760315,34.764743],[137.761688,34.767563],[137.764435,34.766999],[137.765121,34.769256]]],[[[137.765121,34.769256],[137.769241,34.768127],[137.769928,34.764179],[137.767181,34.763051],[137.762375,34.764179],[137.762375,34.764743],[137.760315,34.764743],[137.761688,34.767563],[137.764435,34.766999],[137.765121,34.769256]]]]}},{"type":"Feature","properties":{"layer_id":"bakumatsu_villages","name":"白鳥村","address":"遠江 豊田郡","source":"Geoshape 幕末期近世村領域データセット vector tiles (z7 extraction)","subarea_name":"近世村のおおよその範囲","feature_key":"village:K22G07S00037","accuracy_note":"2015年農業集落境界をもとに復元した概略範囲で、江戸時代の正確な村境ではありません"},"geometry":{"type":"MultiPolygon","coordinates":[[[[137.796021,34.748947],[137.796021,34.747255],[137.795334,34.74669],[137.793961,34.744434],[137.796707,34.744434],[137.796707,34.741048],[137.791901,34.740484],[137.791214,34.744998],[137.789841,34.744998],[137.790527,34.747819],[137.796021,34.748947]]],[[[137.797394,34.748947],[137.79808,34.74669],[137.800827,34.744998],[137.800827,34.741048],[137.796707,34.741048],[137.796707,34.744434],[137.793961,34.744434],[137.795334,34.74669],[137.796021,34.747255],[137.796021,34.748947],[137.797394,34.748947]]],[[[137.801514,34.743869],[137.800827,34.744998],[137.79808,34.74669],[137.8125,34.748947],[137.813187,34.748947],[137.8125,34.74669],[137.811127,34.744434],[137.801514,34.743869]]],[[[137.796021,34.748947],[137.796021,34.747255],[137.795334,34.74669],[137.793961,34.744434],[137.796707,34.744434],[137.796707,34.741048],[137.791901,34.740484],[137.791214,34.744998],[137.789841,34.744998],[137.790527,34.747819],[137.796021,34.748947]]],[[[137.797394,34.748947],[137.79808,34.74669],[137.800827,34.744998],[137.800827,34.741048],[137.796707,34.741048],[137.796707,34.744434],[137.793961,34.744434],[137.795334,34.74669],[137.796021,34.747255],[137.796021,34.748947],[137.797394,34.748947]]],[[[137.801514,34.743869],[137.800827,34.744998],[137.79808,34.74669],[137.8125,34.748947],[137.813187,34.748947],[137.8125,34.74669],[137.811127,34.744434],[137.801514,34.743869]]]]}},{"type":"Feature","properties":{"layer_id":"bakumatsu_villages","name":"石原村・石原村新田","address":"遠江 豊田郡","source":"Geoshape 幕末期近世村領域データセット vector tiles (z7 extraction)","subarea_name":"近世村のおおよその範囲","feature_key":"village:K22G07S00021,K22G07S00048","accuracy_note":"2015年農業集落境界をもとに復元した概略範囲で、江戸時代の正確な村境ではありません"},"geometry":{"type":"MultiPolygon","coordinates":[[[[137.81044,34.779972],[137.807693,34.777716],[137.803574,34.779408],[137.80426,34.7811],[137.801514,34.780536],[137.802887,34.786739],[137.80632,34.786739],[137.811127,34.785047],[137.81044,34.779972]]],[[[137.80014,34.771512],[137.804947,34.770948],[137.80426,34.768127],[137.802887,34.768127],[137.802887,34.765871],[137.799454,34.766999],[137.800827,34.767563],[137.80014,34.771512]]],[[[137.81044,34.779972],[137.807693,34.777716],[137.803574,34.779408],[137.80426,34.7811],[137.801514,34.780536],[137.802887,34.786739],[137.80632,34.786739],[137.811127,34.785047],[137.81044,34.779972]]],[[[137.80014,34.771512],[137.804947,34.770948],[137.80426,34.768127],[137.802887,34.768127],[137.802887,34.765871],[137.799454,34.766999],[137.800827,34.767563],[137.80014,34.771512]]]]}},{"type":"Feature","properties":{"layer_id":"bakumatsu_villages","name":"神立村","address":"遠江 長上郡","source":"Geoshape 幕末期近世村領域データセット vector tiles (z7 extraction)","subarea_name":"近世村のおおよその範囲","feature_key":"village:K22G08S00021","accuracy_note":"2015年農業集落境界をもとに復元した概略範囲で、江戸時代の正確な村境ではありません"},"geometry":{"type":"MultiPolygon","coordinates":[[[[137.756882,34.717911],[137.761002,34.718476],[137.761688,34.716218],[137.759628,34.715653],[137.756882,34.717911]]],[[[137.755508,34.717911],[137.754135,34.717347],[137.751389,34.715653],[137.750015,34.717911],[137.751389,34.719604],[137.755508,34.717911]]],[[[137.751389,34.715653],[137.752762,34.714525],[137.752075,34.71396],[137.751389,34.715653]]],[[[137.761002,34.718476],[137.761688,34.716218],[137.759628,34.715653],[137.757568,34.717347],[137.757568,34.718476],[137.761002,34.718476]]]]}},{"type":"Feature","properties":{"layer_id":"bakumatsu_villages","name":"竜光村","address":"遠江 長上郡","source":"Geoshape 幕末期近世村領域データセット vector tiles (z7 extraction)","subarea_name":"近世村のおおよその範囲","feature_key":"village:K22G08S00035","accuracy_note":"2015年農業集落境界をもとに復元した概略範囲で、江戸時代の正確な村境ではありません"},"geometry":{"type":"MultiPolygon","coordinates":[[[[137.786407,34.722991],[137.788467,34.722426],[137.786407,34.719604],[137.785034,34.712831],[137.782288,34.71396],[137.783661,34.715653],[137.783661,34.720733],[137.785721,34.720733],[137.786407,34.722991]]],[[[137.786407,34.722991],[137.788467,34.722426],[137.786407,34.719604],[137.785034,34.712831],[137.782288,34.71396],[137.783661,34.715653],[137.783661,34.720733],[137.785721,34.720733],[137.786407,34.722991]]]]}},{"type":"Feature","properties":{"layer_id":"bakumatsu_villages","name":"笠井新田","address":"遠江 長上郡","source":"Geoshape 幕末期近世村領域データセット vector tiles (z7 extraction)","subarea_name":"近世村のおおよその範囲","feature_key":"village:K22G08S00121","accuracy_note":"2015年農業集落境界をもとに復元した概略範囲で、江戸時代の正確な村境ではありません"},"geometry":{"type":"MultiPolygon","coordinates":[[[[137.791214,34.773768],[137.789154,34.768691],[137.791214,34.765307],[137.789841,34.764743],[137.787781,34.765307],[137.785034,34.769256],[137.785721,34.770948],[137.787094,34.770948],[137.787781,34.773768],[137.791214,34.773768]]],[[[137.785034,34.769256],[137.789154,34.764743],[137.790527,34.764743],[137.791901,34.761923],[137.789841,34.759666],[137.786407,34.76023],[137.786407,34.762487],[137.783661,34.764743],[137.782974,34.767563],[137.785034,34.769256]]],[[[137.785034,34.763051],[137.786407,34.76023],[137.789841,34.759666],[137.785034,34.756281],[137.778168,34.753461],[137.778854,34.758538],[137.785034,34.763051]]],[[[137.791214,34.773768],[137.789154,34.768691],[137.791214,34.765307],[137.789841,34.764743],[137.787781,34.765307],[137.785034,34.769256],[137.785721,34.770948],[137.787094,34.770948],[137.787781,34.773768],[137.791214,34.773768]]],[[[137.785034,34.769256],[137.789154,34.764743],[137.790527,34.764743],[137.791901,34.761923],[137.789841,34.759666],[137.786407,34.76023],[137.786407,34.762487],[137.783661,34.764743],[137.782974,34.767563],[137.785034,34.769256]]],[[[137.785034,34.763051],[137.786407,34.76023],[137.789841,34.759666],[137.785034,34.756281],[137.778168,34.753461],[137.778854,34.758538],[137.785034,34.763051]]]]}},{"type":"Feature","properties":{"layer_id":"bakumatsu_villages","name":"笠井村","address":"遠江 長上郡","source":"Geoshape 幕末期近世村領域データセット vector tiles (z7 extraction)","subarea_name":"近世村のおおよその範囲","feature_key":"village:K22G08S00122","accuracy_note":"2015年農業集落境界をもとに復元した概略範囲で、江戸時代の正確な村境ではありません"},"geometry":{"type":"MultiPolygon","coordinates":[[[[137.800827,34.779972],[137.799454,34.774896],[137.796707,34.77264],[137.790527,34.772076],[137.791214,34.773768],[137.799454,34.77828],[137.800827,34.779972]]],[[[137.802887,34.786739],[137.802887,34.783919],[137.801514,34.782792],[137.800827,34.779972],[137.80014,34.782228],[137.802887,34.786739]]],[[[137.796021,34.77264],[137.795334,34.768691],[137.789841,34.768691],[137.790527,34.772076],[137.796021,34.77264]]],[[[137.799454,34.774896],[137.80014,34.769256],[137.796021,34.769256],[137.795334,34.768691],[137.796021,34.77264],[137.799454,34.774896]]],[[[137.80014,34.769256],[137.800827,34.767563],[137.797394,34.766435],[137.796021,34.764743],[137.791901,34.761923],[137.790527,34.768691],[137.796021,34.768691],[137.796021,34.769256],[137.80014,34.769256]]],[[[137.800827,34.779972],[137.799454,34.774896],[137.796707,34.77264],[137.790527,34.772076],[137.791214,34.773768],[137.799454,34.77828],[137.800827,34.779972]]],[[[137.802887,34.786739],[137.802887,34.783919],[137.801514,34.782792],[137.800827,34.779972],[137.80014,34.782228],[137.802887,34.786739]]],[[[137.796021,34.77264],[137.795334,34.768691],[137.789841,34.768691],[137.790527,34.772076],[137.796021,34.77264]]],[[[137.799454,34.774896],[137.80014,34.769256],[137.796021,34.769256],[137.795334,34.768691],[137.796021,34.77264],[137.799454,34.774896]]],[[[137.80014,34.769256],[137.800827,34.767563],[137.797394,34.766435],[137.796021,34.764743],[137.791901,34.761923],[137.790527,34.768691],[137.796021,34.768691],[137.796021,34.769256],[137.80014,34.769256]]]]}},{"type":"Feature","properties":{"layer_id":"bakumatsu_villages","name":"篠ヶ瀬村","address":"遠江 長上郡","source":"Geoshape 幕末期近世村領域データセット vector tiles (z7 extraction)","subarea_name":"近世村のおおよその範囲","feature_key":"village:K22G08S00003","accuracy_note":"2015年農業集落境界をもとに復元した概略範囲で、江戸時代の正確な村境ではありません"},"geometry":{"type":"MultiPolygon","coordinates":[[[[137.773361,34.733713],[137.774048,34.73202],[137.774734,34.73202],[137.774734,34.733149],[137.776794,34.733149],[137.776794,34.730327],[137.778168,34.730327],[137.778854,34.722426],[137.776108,34.721297],[137.774734,34.724119],[137.772675,34.723555],[137.772675,34.724119],[137.769928,34.724684],[137.769928,34.726377],[137.771988,34.726941],[137.771301,34.730891],[137.772675,34.730891],[137.771301,34.733713],[137.773361,34.733713]]],[[[137.773361,34.733713],[137.774048,34.73202],[137.774734,34.73202],[137.774734,34.733149],[137.776794,34.733149],[137.776794,34.730327],[137.778168,34.730327],[137.778854,34.722426],[137.776108,34.721297],[137.774734,34.724119],[137.772675,34.723555],[137.772675,34.724119],[137.769928,34.724684],[137.769928,34.726377],[137.771988,34.726941],[137.771301,34.730891],[137.772675,34.730891],[137.771301,34.733713],[137.773361,34.733713]]]]}},{"type":"Feature","properties":{"layer_id":"bakumatsu_villages","name":"羽鳥村","address":"遠江 豊田郡","source":"Geoshape 幕末期近世村領域データセット vector tiles (z7 extraction)","subarea_name":"近世村のおおよその範囲","feature_key":"village:K22G07S00035","accuracy_note":"2015年農業集落境界をもとに復元した概略範囲で、江戸時代の正確な村境ではありません"},"geometry":{"type":"MultiPolygon","coordinates":[[[[137.802887,34.77828],[137.803574,34.773768],[137.80014,34.773204],[137.799454,34.774896],[137.800827,34.777152],[137.802887,34.77828]]],[[[137.80426,34.7811],[137.803574,34.779408],[137.807007,34.77828],[137.80632,34.773768],[137.803574,34.773768],[137.802887,34.77828],[137.800827,34.777152],[137.801514,34.780536],[137.80426,34.7811]]],[[[137.80632,34.773768],[137.804947,34.770948],[137.80014,34.771512],[137.80014,34.773204],[137.80632,34.773768]]],[[[137.802887,34.77828],[137.803574,34.773768],[137.80014,34.773204],[137.799454,34.774896],[137.800827,34.777152],[137.802887,34.77828]]],[[[137.80426,34.7811],[137.803574,34.779408],[137.807007,34.77828],[137.80632,34.773768],[137.803574,34.773768],[137.802887,34.77828],[137.800827,34.777152],[137.801514,34.780536],[137.80426,34.7811]]],[[[137.80632,34.773768],[137.804947,34.770948],[137.80014,34.771512],[137.80014,34.773204],[137.80632,34.773768]]]]}},{"type":"Feature","properties":{"layer_id":"bakumatsu_villages","name":"萱場村","address":"遠江 豊田郡","source":"Geoshape 幕末期近世村領域データセット vector tiles (z7 extraction)","subarea_name":"近世村のおおよその範囲","feature_key":"village:K22G07S00026","accuracy_note":"2015年農業集落境界をもとに復元した概略範囲で、江戸時代の正確な村境ではありません"},"geometry":{"type":"MultiPolygon","coordinates":[[[[137.797394,34.729198],[137.796021,34.724119],[137.793961,34.720733],[137.792587,34.726377],[137.791214,34.728634],[137.797394,34.729198]]],[[[137.797394,34.729198],[137.796021,34.724119],[137.793961,34.720733],[137.792587,34.726377],[137.791214,34.728634],[137.797394,34.729198]]]]}},{"type":"Feature","properties":{"layer_id":"bakumatsu_villages","name":"薬師新田村","address":"遠江 長上郡","source":"Geoshape 幕末期近世村領域データセット vector tiles (z7 extraction)","subarea_name":"近世村のおおよその範囲","feature_key":"village:K22G08S00032","accuracy_note":"2015年農業集落境界をもとに復元した概略範囲で、江戸時代の正確な村境ではありません"},"geometry":{"type":"MultiPolygon","coordinates":[[[[137.785721,34.728634],[137.788467,34.725812],[137.787781,34.722426],[137.786407,34.722991],[137.785721,34.720733],[137.782974,34.720733],[137.783661,34.722426],[137.782974,34.723555],[137.784348,34.724684],[137.786407,34.724684],[137.786407,34.725812],[137.784348,34.725812],[137.784348,34.727505],[137.785721,34.728634]]],[[[137.785721,34.728634],[137.788467,34.725812],[137.787781,34.722426],[137.786407,34.722991],[137.785721,34.720733],[137.782974,34.720733],[137.783661,34.722426],[137.782974,34.723555],[137.784348,34.724684],[137.786407,34.724684],[137.786407,34.725812],[137.784348,34.725812],[137.784348,34.727505],[137.785721,34.728634]]]]}},{"type":"Feature","properties":{"layer_id":"bakumatsu_villages","name":"薬師村","address":"遠江 長上郡","source":"Geoshape 幕末期近世村領域データセット vector tiles (z7 extraction)","subarea_name":"近世村のおおよその範囲","feature_key":"village:K22G08S00033","accuracy_note":"2015年農業集落境界をもとに復元した概略範囲で、江戸時代の正確な村境ではありません"},"geometry":{"type":"MultiPolygon","coordinates":[[[[137.781601,34.727505],[137.781601,34.726377],[137.784348,34.727505],[137.784348,34.725812],[137.786407,34.725248],[137.786407,34.724684],[137.784348,34.724684],[137.782974,34.723555],[137.783661,34.722426],[137.782288,34.720733],[137.778854,34.725248],[137.778168,34.727505],[137.781601,34.727505]]],[[[137.781601,34.727505],[137.781601,34.726377],[137.784348,34.727505],[137.784348,34.725812],[137.786407,34.725248],[137.786407,34.724684],[137.784348,34.724684],[137.782974,34.723555],[137.783661,34.722426],[137.782288,34.720733],[137.778854,34.725248],[137.778168,34.727505],[137.781601,34.727505]]]]}},{"type":"Feature","properties":{"layer_id":"bakumatsu_villages","name":"西ヶ崎村","address":"遠江 長上郡","source":"Geoshape 幕末期近世村領域データセット vector tiles (z7 extraction)","subarea_name":"近世村のおおよその範囲","feature_key":"village:K22G08S00129","accuracy_note":"2015年農業集落境界をもとに復元した概略範囲で、江戸時代の正確な村境ではありません"},"geometry":{"type":"MultiPolygon","coordinates":[[[[137.758942,34.776588],[137.762375,34.77546],[137.761688,34.774332],[137.764435,34.773768],[137.763748,34.773204],[137.767868,34.772076],[137.763062,34.772076],[137.763062,34.771512],[137.761688,34.772076],[137.759628,34.768691],[137.756882,34.76982],[137.758942,34.776588]]],[[[137.763748,34.772076],[137.763748,34.76982],[137.761688,34.767563],[137.759628,34.768691],[137.761688,34.772076],[137.763748,34.772076]]],[[[137.768555,34.782228],[137.767868,34.778844],[137.769928,34.77828],[137.769241,34.77546],[137.770615,34.776024],[137.769928,34.774332],[137.768555,34.774896],[137.767868,34.772076],[137.763748,34.773204],[137.764435,34.773768],[137.761688,34.774332],[137.762375,34.77546],[137.759628,34.776024],[137.763748,34.776024],[137.766495,34.779408],[137.765808,34.781664],[137.768555,34.782228]]],[[[137.775421,34.782792],[137.774734,34.7811],[137.770615,34.77828],[137.770615,34.777152],[137.769928,34.777152],[137.769928,34.77828],[137.767868,34.778844],[137.768555,34.782228],[137.775421,34.782792]]],[[[137.774734,34.7811],[137.775421,34.778844],[137.774048,34.776024],[137.771301,34.776024],[137.769241,34.77546],[137.769928,34.777152],[137.770615,34.777152],[137.770615,34.77828],[137.774734,34.7811]]],[[[137.758942,34.776588],[137.762375,34.77546],[137.761688,34.774332],[137.764435,34.773768],[137.763748,34.773204],[137.767868,34.772076],[137.763062,34.772076],[137.763062,34.771512],[137.761688,34.772076],[137.759628,34.768691],[137.757568,34.769256],[137.758942,34.776588]]],[[[137.763748,34.772076],[137.763748,34.76982],[137.761688,34.767563],[137.759628,34.768691],[137.761688,34.772076],[137.763748,34.772076]]],[[[137.768555,34.782228],[137.767868,34.778844],[137.769928,34.77828],[137.769241,34.77546],[137.770615,34.776024],[137.769928,34.774332],[137.768555,34.774896],[137.767868,34.772076],[137.763748,34.773204],[137.764435,34.773768],[137.761688,34.774332],[137.762375,34.77546],[137.759628,34.776024],[137.763748,34.776024],[137.766495,34.779408],[137.765808,34.781664],[137.768555,34.782228]]],[[[137.775421,34.782792],[137.774734,34.7811],[137.770615,34.77828],[137.770615,34.777152],[137.769928,34.777152],[137.769928,34.77828],[137.767868,34.778844],[137.768555,34.782228],[137.775421,34.782792]]],[[[137.774734,34.7811],[137.775421,34.778844],[137.774048,34.776024],[137.771301,34.776024],[137.769241,34.77546],[137.769928,34.777152],[137.770615,34.777152],[137.770615,34.77828],[137.774734,34.7811]]]]}},{"type":"Feature","properties":{"layer_id":"bakumatsu_villages","name":"西在所村・上之郷村","address":"遠江 長上郡","source":"Geoshape 幕末期近世村領域データセット vector tiles (z7 extraction)","subarea_name":"近世村のおおよその範囲","feature_key":"village:K22G08S00012,K22G08S00016","accuracy_note":"2015年農業集落境界をもとに復元した概略範囲で、江戸時代の正確な村境ではありません"},"geometry":{"type":"MultiPolygon","coordinates":[[[[137.765121,34.72807],[137.765121,34.726941],[137.767181,34.726941],[137.767181,34.725248],[137.769928,34.726377],[137.769928,34.724684],[137.767868,34.724684],[137.767181,34.723555],[137.764435,34.723555],[137.763062,34.722426],[137.757568,34.720733],[137.753448,34.720733],[137.752075,34.71904],[137.751389,34.719604],[137.751389,34.721297],[137.752762,34.722991],[137.754135,34.722426],[137.754135,34.724119],[137.750702,34.724684],[137.751389,34.725812],[137.757568,34.725248],[137.758255,34.726377],[137.763062,34.726941],[137.763062,34.72807],[137.765121,34.72807]]],[[[137.765121,34.72807],[137.765121,34.726941],[137.767181,34.726941],[137.767181,34.725248],[137.769928,34.726377],[137.769928,34.724684],[137.767868,34.724684],[137.766495,34.723555],[137.764435,34.723555],[137.763062,34.722426],[137.757568,34.720733],[137.757568,34.725248],[137.758255,34.726377],[137.763062,34.726941],[137.763062,34.72807],[137.765121,34.72807]]]]}},{"type":"Feature","properties":{"layer_id":"bakumatsu_villages","name":"西塚村","address":"遠江 長上郡","source":"Geoshape 幕末期近世村領域データセット vector tiles (z7 extraction)","subarea_name":"近世村のおおよその範囲","feature_key":"village:K22G08S00001","accuracy_note":"2015年農業集落境界をもとに復元した概略範囲で、江戸時代の正確な村境ではありません"},"geometry":{"type":"MultiPolygon","coordinates":[[[[137.761002,34.721862],[137.761002,34.718476],[137.755508,34.717911],[137.752075,34.71904],[137.753448,34.720733],[137.757568,34.720733],[137.761002,34.721862]]],[[[137.761002,34.721862],[137.761002,34.718476],[137.757568,34.718476],[137.757568,34.720733],[137.761002,34.721862]]]]}},{"type":"Feature","properties":{"layer_id":"bakumatsu_villages","name":"貴平村","address":"遠江 豊田郡","source":"Geoshape 幕末期近世村領域データセット vector tiles (z7 extraction)","subarea_name":"近世村のおおよその範囲","feature_key":"village:K22G07S00022","accuracy_note":"2015年農業集落境界をもとに復元した概略範囲で、江戸時代の正確な村境ではありません"},"geometry":{"type":"MultiPolygon","coordinates":[[[[137.79808,34.756281],[137.798767,34.74669],[137.79808,34.74669],[137.797394,34.748947],[137.790527,34.747819],[137.791214,34.755717],[137.79808,34.756281]]],[[[137.799454,34.761923],[137.799454,34.760794],[137.801514,34.760794],[137.800827,34.756281],[137.791214,34.755717],[137.791901,34.76023],[137.794647,34.76023],[137.795334,34.759666],[137.797394,34.761923],[137.799454,34.761923]]],[[[137.79808,34.756281],[137.798767,34.74669],[137.79808,34.74669],[137.797394,34.748947],[137.790527,34.747819],[137.791214,34.755717],[137.79808,34.756281]]],[[[137.799454,34.761923],[137.799454,34.760794],[137.801514,34.760794],[137.800827,34.756281],[137.791214,34.755717],[137.791901,34.76023],[137.794647,34.76023],[137.795334,34.759666],[137.797394,34.761923],[137.799454,34.761923]]]]}},{"type":"Feature","properties":{"layer_id":"bakumatsu_villages","name":"長命村","address":"遠江 豊田郡","source":"Geoshape 幕末期近世村領域データセット vector tiles (z7 extraction)","subarea_name":"近世村のおおよその範囲","feature_key":"village:K22G07S00039","accuracy_note":"2015年農業集落境界をもとに復元した概略範囲で、江戸時代の正確な村境ではありません"},"geometry":{"type":"MultiPolygon","coordinates":[[[[137.798767,34.741048],[137.797394,34.739356],[137.795334,34.739356],[137.793274,34.738791],[137.793274,34.740484],[137.798767,34.741048]]],[[[137.798767,34.741048],[137.797394,34.739356],[137.795334,34.739356],[137.793274,34.738791],[137.793274,34.740484],[137.798767,34.741048]]]]}},{"type":"Feature","properties":{"layer_id":"bakumatsu_villages","name":"長鶴村","address":"遠江 長上郡","source":"Geoshape 幕末期近世村領域データセット vector tiles (z7 extraction)","subarea_name":"近世村のおおよその範囲","feature_key":"village:K22G08S00038","accuracy_note":"2015年農業集落境界をもとに復元した概略範囲で、江戸時代の正確な村境ではありません"},"geometry":{"type":"MultiPolygon","coordinates":[[[[137.776794,34.71396],[137.777481,34.712267],[137.776108,34.711703],[137.776794,34.71396]]],[[[137.777481,34.712831],[137.776794,34.71396],[137.778168,34.715653],[137.783661,34.715653],[137.782288,34.71396],[137.782974,34.713396],[137.782288,34.713396],[137.781601,34.712831],[137.777481,34.712831]]],[[[137.776794,34.71396],[137.777481,34.712267],[137.776108,34.711703],[137.776794,34.71396]]],[[[137.777481,34.712831],[137.776794,34.71396],[137.778168,34.715653],[137.783661,34.715653],[137.782288,34.71396],[137.782974,34.713396],[137.782288,34.713396],[137.781601,34.712831],[137.777481,34.712831]]]]}},{"type":"Feature","properties":{"layer_id":"bakumatsu_villages","name":"青谷村・別久村","address":"遠江 長上郡","source":"Geoshape 幕末期近世村領域データセット vector tiles (z7 extraction)","subarea_name":"近世村のおおよその範囲","feature_key":"village:K22G08S00025,K22G08S00027","accuracy_note":"2015年農業集落境界をもとに復元した概略範囲で、江戸時代の正確な村境ではありません"},"geometry":{"type":"MultiPolygon","coordinates":[[[[137.783661,34.721297],[137.783661,34.715653],[137.778168,34.715653],[137.776794,34.712831],[137.771988,34.711138],[137.772675,34.710009],[137.770615,34.70888],[137.767181,34.710574],[137.769241,34.711138],[137.769928,34.711703],[137.769241,34.712831],[137.777481,34.716782],[137.780228,34.716782],[137.780914,34.717347],[137.781601,34.716782],[137.782288,34.720733],[137.783661,34.721297]]],[[[137.783661,34.721297],[137.783661,34.715653],[137.778168,34.715653],[137.776794,34.712831],[137.771988,34.711138],[137.772675,34.710009],[137.770615,34.70888],[137.767181,34.710574],[137.769241,34.711138],[137.769928,34.711703],[137.769241,34.712831],[137.777481,34.716782],[137.780228,34.716782],[137.780914,34.717347],[137.781601,34.716782],[137.782288,34.720733],[137.783661,34.721297]]]]}},{"type":"Feature","properties":{"layer_id":"bakumatsu_villages","name":"鶴見村・安富村","address":"遠江 長上郡","source":"Geoshape 幕末期近世村領域データセット vector tiles (z7 extraction)","subarea_name":"近世村のおおよその範囲","feature_key":"village:K22G08S00046,K22G08S00048","accuracy_note":"2015年農業集落境界をもとに復元した概略範囲で、江戸時代の正確な村境ではありません"},"geometry":{"type":"MultiPolygon","coordinates":[[[[137.792587,34.715653],[137.788467,34.711138],[137.787781,34.705493],[137.782974,34.707751],[137.785034,34.713396],[137.787094,34.713396],[137.787094,34.715653],[137.792587,34.715653]]],[[[137.792587,34.715653],[137.788467,34.711138],[137.787781,34.705493],[137.782974,34.707751],[137.785034,34.713396],[137.787094,34.713396],[137.787094,34.715653],[137.792587,34.715653]]]]}},{"type":"Feature","properties":{"layer_id":"edo_post_stations","name":"安間","address":"","source":"CODH 江戸宿場データセット Version 1 (2026-08)","feature_key":"post:R502-003"},"geometry":{"coordinates":[137.7878,34.72937],"type":"Point"}},{"type":"Feature","properties":{"layer_id":"edo_post_stations","name":"市野","address":"","source":"CODH 江戸宿場データセット Version 1 (2026-08)","feature_key":"post:R502-004"},"geometry":{"type":"Point","coordinates":[137.773666,34.745061]}},{"type":"Feature","properties":{"layer_id":"edo_roads","name":"東海道","address":"江戸 → 京都","source":"CODH 江戸主要街道データセット Version 4 (2026-08)","subarea_name":"江戸期の主要街道","feature_key":"road:R001"},"geometry":{"type":"LineString","coordinates":[[137.75197,34.70989],[137.75643,34.71192],[137.76,34.71323],[137.76472,34.71536],[137.76714,34.71669],[137.78031,34.72115],[137.78267,34.72305],[137.78727,34.72604],[137.7885,34.72712],[137.79006,34.72794],[137.79185,34.7285],[137.79306,34.72866],[137.80022,34.7288],[137.800535,34.728746],[137.80181,34.73191],[137.802341,34.73445],[137.802753,34.737289],[137.81245,34.737237]]}},{"type":"Feature","properties":{"layer_id":"historical_sites_archaeology","name":"三方原古墳群","address":"静岡県 浜松市中央区 半田町","source":"Geoshape 日本歴史地名大系 施設・地点項目データセット 2025-05-15","subarea_name":"古墳","feature_key":"06_kofun.geojson:220000398200","subtype":"古墳"},"geometry":{"type":"Point","coordinates":[137.750195,34.771973]}},{"type":"Feature","properties":{"layer_id":"historical_sites_archaeology","name":"山の神遺跡","address":"静岡県 浜松市天竜区 和田町","source":"Geoshape 日本歴史地名大系 施設・地点項目データセット 2025-05-15","subarea_name":"遺跡","feature_key":"08_archaeological_sites.geojson:220000426400","subtype":"遺跡"},"geometry":{"type":"Point","coordinates":[137.769922,34.71894]}},{"type":"Feature","properties":{"layer_id":"historical_sites_archaeology","name":"山ノ花遺跡","address":"静岡県 浜松市中央区 恒武町","source":"Geoshape 日本歴史地名大系 施設・地点項目データセット 2025-05-15","subarea_name":"遺跡","feature_key":"08_archaeological_sites.geojson:220000432900","subtype":"遺跡"},"geometry":{"type":"Point","coordinates":[137.799527,34.763375]}},{"type":"Feature","properties":{"layer_id":"historical_sites_archaeology","name":"蛭子森古墳","address":"静岡県 浜松市中央区 豊町","source":"Geoshape 日本歴史地名大系 施設・地点項目データセット 2025-05-15","subarea_name":"古墳","feature_key":"06_kofun.geojson:220000433200","subtype":"古墳"},"geometry":{"type":"Point","coordinates":[137.80367,34.772586]}},{"type":"Feature","properties":{"layer_id":"historical_temples_shrines","name":"大歳神社","address":"静岡県 浜松市 中央区天王町1484番地1","source":"Geoshape 日本歴史地名大系 施設・地点項目データセット 2025-05-15","subarea_name":"神社","feature_key":"02_shrines.geojson:220000428100","subtype":"神社"},"geometry":{"type":"Point","coordinates":[137.770737,34.737568]}},{"type":"Feature","properties":{"layer_id":"historical_temples_shrines","name":"大甕神社","address":"静岡県 浜松市中央区 中野町","source":"Geoshape 日本歴史地名大系 施設・地点項目データセット 2025-05-15","subarea_name":"神社","feature_key":"02_shrines.geojson:220000431800","subtype":"神社"},"geometry":{"type":"Point","coordinates":[137.792909,34.732761]}},{"type":"Feature","properties":{"layer_id":"historical_temples_shrines","name":"妙恩寺","address":"静岡県 浜松市 中央区天龍川町179番地","source":"Geoshape 日本歴史地名大系 施設・地点項目データセット 2025-05-15","subarea_name":"寺院","feature_key":"01_temples.geojson:220000426700","subtype":"寺院"},"geometry":{"type":"Point","coordinates":[137.779694,34.719353]}},{"type":"Feature","properties":{"layer_id":"historical_temples_shrines","name":"宗安寺","address":"静岡県 浜松市 中央区市野町167番地1","source":"Geoshape 日本歴史地名大系 施設・地点項目データセット 2025-05-15","subarea_name":"寺院","feature_key":"01_temples.geojson:220000428800","subtype":"寺院"},"geometry":{"type":"Point","coordinates":[137.775085,34.752781]}},{"type":"Feature","properties":{"layer_id":"historical_temples_shrines","name":"春日神社","address":"静岡県 島田市 川根町笹間下448番地の12","source":"Geoshape 日本歴史地名大系 施設・地点項目データセット 2025-05-15","subarea_name":"神社","feature_key":"02_shrines.geojson:220000431100","subtype":"神社"},"geometry":{"type":"Point","coordinates":[137.794591,34.768104]}},{"type":"Feature","properties":{"layer_id":"historical_temples_shrines","name":"有玉神社","address":"静岡県 浜松市 中央区有玉南町1624番地1","source":"Geoshape 日本歴史地名大系 施設・地点項目データセット 2025-05-15","subarea_name":"神社","feature_key":"02_shrines.geojson:220000429100","subtype":"神社"},"geometry":{"type":"Point","coordinates":[137.750412,34.751556]}},{"type":"Feature","properties":{"layer_id":"historical_temples_shrines","name":"甘露寺","address":"静岡県 浜松市 中央区中郡町1026番地","source":"Geoshape 日本歴史地名大系 施設・地点項目データセット 2025-05-15","subarea_name":"寺院","feature_key":"01_temples.geojson:220000430500","subtype":"寺院"},"geometry":{"type":"Point","coordinates":[137.775909,34.773861]}},{"type":"Feature","properties":{"layer_id":"historical_temples_shrines","name":"蒲神明宮","address":"静岡県 浜松市 中央区神立町471番地","source":"Geoshape 日本歴史地名大系 施設・地点項目データセット 2025-05-15","subarea_name":"神社","feature_key":"02_shrines.geojson:220000425600","subtype":"神社"},"geometry":{"type":"Point","coordinates":[137.751709,34.717003]}},{"type":"Feature","properties":{"layer_id":"historical_temples_shrines","name":"西伝寺","address":"静岡県 浜松市 中央区積志町759番地1","source":"Geoshape 日本歴史地名大系 施設・地点項目データセット 2025-05-15","subarea_name":"寺院","feature_key":"01_temples.geojson:220000422500","subtype":"寺院"},"geometry":{"type":"Point","coordinates":[137.765381,34.769165]}},{"type":"Feature","properties":{"layer_id":"historical_temples_shrines","name":"邑勢神社","address":"静岡県 浜松市 中央区大島町1244番地1","source":"Geoshape 日本歴史地名大系 施設・地点項目データセット 2025-05-15","subarea_name":"神社","feature_key":"02_shrines.geojson:220000430000","subtype":"神社"},"geometry":{"type":"Point","coordinates":[137.775604,34.765572]}}]}