{"type":"FeatureCollection","municipality_code":"23227","pref":"愛知県","city":"高浜市","layer_counts":{"bakumatsu_villages":3,"historical_sites_archaeology":2,"historical_temples_shrines":2},"total_features":7,"features":[{"type":"Feature","properties":{"layer_id":"bakumatsu_villages","name":"吉浜村","address":"三河 碧海郡","source":"Geoshape 幕末期近世村領域データセット vector tiles (z7 extraction)","subarea_name":"近世村のおおよその範囲","feature_key":"village:K23G01S00129","accuracy_note":"2015年農業集落境界をもとに復元した概略範囲で、江戸時代の正確な村境ではありません"},"geometry":{"type":"MultiPolygon","coordinates":[[[[136.991959,34.957995],[136.992645,34.95687],[136.996078,34.955181],[136.999512,34.954619],[137.000198,34.952368],[137.002945,34.950679],[136.998825,34.946177],[136.992645,34.946177],[136.989899,34.948428],[136.989899,34.950679],[136.988525,34.951805],[136.983032,34.951805],[136.983719,34.955744],[136.983032,34.956307],[136.991959,34.957995]]],[[[136.983719,34.947865],[136.987152,34.945614],[136.988525,34.946739],[136.989899,34.945051],[136.990585,34.943925],[136.989899,34.942799],[136.983719,34.946739],[136.983719,34.947865]]],[[[136.983719,34.946739],[136.991272,34.941674],[136.997452,34.939985],[136.993332,34.937734],[136.988525,34.940548],[136.989212,34.941674],[136.987839,34.942799],[136.985092,34.943362],[136.985779,34.943925],[136.983032,34.945051],[136.983719,34.946739]]],[[[136.991272,34.945051],[136.992645,34.942799],[136.995392,34.942237],[136.997452,34.939985],[136.989899,34.942799],[136.990585,34.943925],[136.989212,34.944488],[136.991272,34.945051]]],[[[136.992645,34.946177],[136.998825,34.946177],[137.002945,34.950679],[137.006378,34.948428],[137.009125,34.948991],[137.010498,34.947865],[137.009811,34.946177],[137.011871,34.944488],[137.012558,34.939985],[137.011185,34.938296],[137.006378,34.937171],[137.005692,34.943362],[137.002945,34.942237],[137.000198,34.943925],[136.996765,34.945051],[136.994705,34.943925],[136.992645,34.946177]]],[[[136.992645,34.946177],[136.990585,34.944488],[136.988525,34.946739],[136.987152,34.945614],[136.983719,34.947865],[136.985779,34.951805],[136.988525,34.951805],[136.989899,34.950679],[136.989899,34.948428],[136.992645,34.946177]]],[[[136.992645,34.946177],[136.994705,34.943925],[136.996765,34.945051],[137.000198,34.943925],[137.002945,34.942237],[137.002945,34.940548],[137.000198,34.939985],[136.998825,34.941111],[136.997452,34.939985],[136.995392,34.942237],[136.992645,34.942799],[136.991272,34.945051],[136.992645,34.946177]]],[[[136.983032,34.945051],[136.985779,34.943925],[136.985779,34.942799],[136.987839,34.941674],[136.986465,34.937734],[136.988525,34.936045],[136.978912,34.934356],[136.980972,34.944488],[136.982346,34.944488],[136.983032,34.945051]]],[[[136.987839,34.942799],[136.989212,34.941674],[136.988525,34.940548],[136.993332,34.937734],[136.988525,34.936045],[136.986465,34.937734],[136.987839,34.941674],[136.985779,34.942799],[136.987839,34.942799]]]]}},{"type":"Feature","properties":{"layer_id":"bakumatsu_villages","name":"高取村","address":"三河 碧海郡","source":"Geoshape 幕末期近世村領域データセット vector tiles (z7 extraction)","subarea_name":"近世村のおおよその範囲","feature_key":"village:K23G01S00139","accuracy_note":"2015年農業集落境界をもとに復元した概略範囲で、江戸時代の正確な村境ではありません"},"geometry":{"type":"MultiPolygon","coordinates":[[[[137.005692,34.940548],[137.006378,34.937171],[137.011185,34.938296],[137.011871,34.936045],[137.013245,34.934919],[137.011185,34.934356],[137.008438,34.929853],[137.005692,34.928164],[136.999512,34.927601],[136.999512,34.928164],[136.997452,34.92929],[136.996765,34.932667],[137.000198,34.934919],[137.002258,34.934919],[137.002258,34.937734],[137.005692,34.940548]]],[[[137.005005,34.928164],[137.009811,34.921971],[137.005692,34.91803],[137.003632,34.919719],[136.998825,34.919719],[136.998138,34.920845],[136.995392,34.918593],[136.993332,34.920845],[136.994019,34.925912],[136.995392,34.927601],[137.005005,34.928164]]],[[[137.013245,34.934919],[137.015305,34.933793],[137.016678,34.930979],[137.018051,34.932104],[137.020111,34.931542],[137.019424,34.930416],[137.023544,34.932104],[137.019424,34.92929],[137.009811,34.921971],[137.005005,34.928164],[137.008438,34.929853],[137.011185,34.934356],[137.013245,34.934919]]],[[[136.998138,34.920845],[136.998825,34.919719],[137.003632,34.919719],[137.005692,34.91803],[137.001572,34.915215],[136.998138,34.916904],[136.996078,34.914652],[136.995392,34.918593],[136.998138,34.920845]]]]}},{"type":"Feature","properties":{"layer_id":"bakumatsu_villages","name":"高浜村","address":"三河 碧海郡","source":"Geoshape 幕末期近世村領域データセット vector tiles (z7 extraction)","subarea_name":"近世村のおおよその範囲","feature_key":"village:K23G01S00128","accuracy_note":"2015年農業集落境界をもとに復元した概略範囲で、江戸時代の正確な村境ではありません"},"geometry":{"type":"MultiPolygon","coordinates":[[[[136.984406,34.926475],[136.994019,34.924786],[136.994019,34.924223],[136.986465,34.925349],[136.986465,34.924223],[136.981659,34.925349],[136.984406,34.926475]]],[[[137.005692,34.943362],[137.005692,34.940548],[137.002258,34.937734],[136.998138,34.937171],[136.996078,34.935482],[136.992645,34.934919],[136.993332,34.93323],[136.985779,34.930416],[136.983719,34.930416],[136.983032,34.928164],[136.981659,34.928727],[136.981659,34.929853],[136.979599,34.93323],[136.978912,34.930416],[136.978912,34.934356],[136.985092,34.936045],[136.985092,34.934919],[136.991959,34.937171],[136.996078,34.939985],[136.996765,34.939422],[136.998825,34.941111],[137.000198,34.939985],[137.002945,34.940548],[137.004318,34.942799],[137.005692,34.943362]]],[[[137.002258,34.937734],[137.002258,34.934919],[137.000198,34.934919],[136.996765,34.932667],[136.994019,34.931542],[136.994019,34.930416],[136.989899,34.92929],[136.989899,34.930416],[136.986465,34.92929],[136.986465,34.928164],[136.983032,34.928164],[136.984406,34.930416],[136.985779,34.930416],[136.993332,34.93323],[136.992645,34.934919],[136.996078,34.935482],[136.998138,34.937171],[137.002258,34.937734]]],[[[136.996765,34.932667],[136.997452,34.929853],[136.987839,34.928164],[136.986465,34.927038],[136.983032,34.927601],[136.981659,34.926475],[136.980972,34.926475],[136.981659,34.928727],[136.986465,34.928164],[136.986465,34.92929],[136.989899,34.930416],[136.989899,34.92929],[136.994019,34.930416],[136.994019,34.931542],[136.996765,34.932667]]],[[[136.997452,34.929853],[136.998138,34.928727],[136.999512,34.928164],[136.999512,34.927601],[136.995392,34.927038],[136.994019,34.924786],[136.981659,34.926475],[136.983032,34.927601],[136.986465,34.927038],[136.987839,34.928164],[136.997452,34.929853]]],[[[136.978226,34.925349],[136.980286,34.924786],[136.980972,34.926475],[136.982346,34.926475],[136.982346,34.924786],[136.984406,34.924786],[136.989899,34.925349],[136.994019,34.924223],[136.994019,34.920282],[136.996078,34.914652],[136.988525,34.911273],[136.983032,34.907895],[136.977539,34.907895],[136.977539,34.915215],[136.978912,34.916341],[136.978912,34.920845],[136.977539,34.920845],[136.978226,34.925349]]]]}},{"type":"Feature","properties":{"layer_id":"historical_sites_archaeology","name":"正林寺貝塚","address":"愛知県 高浜市 呉竹町二丁目","source":"Geoshape 日本歴史地名大系 施設・地点項目データセット 2025-05-15","subarea_name":"遺跡","feature_key":"08_archaeological_sites.geojson:230000311700","subtype":"遺跡"},"geometry":{"type":"Point","coordinates":[136.988109,34.943616]}},{"type":"Feature","properties":{"layer_id":"historical_sites_archaeology","name":"王江遺跡","address":"愛知県 高浜市 青木町四丁目","source":"Geoshape 日本歴史地名大系 施設・地点項目データセット 2025-05-15","subarea_name":"遺跡","feature_key":"08_archaeological_sites.geojson:230000311000","subtype":"遺跡"},"geometry":{"type":"Point","coordinates":[136.988209,34.927939]}},{"type":"Feature","properties":{"layer_id":"historical_temples_shrines","name":"専修坊","address":"愛知県 高浜市 本郷町六丁目10番","source":"Geoshape 日本歴史地名大系 施設・地点項目データセット 2025-05-15","subarea_name":"寺院","feature_key":"01_temples.geojson:230000311900","subtype":"寺院"},"geometry":{"type":"Point","coordinates":[137.001343,34.928459]}},{"type":"Feature","properties":{"layer_id":"historical_temples_shrines","name":"恩任寺","address":"愛知県 高浜市 青木町二丁目1番","source":"Geoshape 日本歴史地名大系 施設・地点項目データセット 2025-05-15","subarea_name":"寺院","feature_key":"01_temples.geojson:230000311500","subtype":"寺院"},"geometry":{"type":"Point","coordinates":[136.984436,34.927658]}}]}