{"type":"FeatureCollection","municipality_code":"23561","pref":"愛知県","city":"設楽町","layer_counts":{"bakumatsu_villages":36,"edo_post_stations":2,"historical_sites_archaeology":7,"historical_temples_shrines":1},"total_features":46,"features":[{"type":"Feature","properties":{"layer_id":"bakumatsu_villages","name":"上津具村","address":"三河 設楽郡","source":"Geoshape 幕末期近世村領域データセット vector tiles (z7 extraction)","subarea_name":"近世村のおおよその範囲","feature_key":"village:K23G05S00019","accuracy_note":"2015年農業集落境界をもとに復元した概略範囲で、江戸時代の正確な村境ではありません"},"geometry":{"type":"MultiPolygon","coordinates":[[[[137.596207,35.201867],[137.598953,35.188961],[137.603073,35.184472],[137.602386,35.179421],[137.605133,35.176053],[137.607193,35.175492],[137.6017,35.17437],[137.596207,35.176615],[137.578354,35.178298],[137.577667,35.183911],[137.575607,35.184472],[137.574921,35.186155],[137.5811,35.190645],[137.576981,35.196256],[137.578354,35.1985],[137.5811,35.1985],[137.58316,35.200184],[137.5914,35.199623],[137.596207,35.201867]]],[[[137.615433,35.178298],[137.617493,35.176615],[137.616119,35.17437],[137.614059,35.173808],[137.612,35.175492],[137.611313,35.178298],[137.615433,35.178298]]],[[[137.632599,35.212527],[137.633972,35.211405],[137.641525,35.209161],[137.638779,35.202989],[137.635345,35.200184],[137.629166,35.197378],[137.624359,35.189522],[137.620239,35.187278],[137.618866,35.185033],[137.611313,35.178298],[137.612,35.175492],[137.610626,35.174931],[137.605133,35.176053],[137.602386,35.178298],[137.6017,35.181666],[137.603073,35.184472],[137.598953,35.188961],[137.596207,35.201867],[137.6017,35.204672],[137.603073,35.205794],[137.603073,35.206355],[137.607193,35.206916],[137.614746,35.210844],[137.616806,35.209722],[137.619553,35.210283],[137.619553,35.211405],[137.632599,35.212527]]],[[[137.618179,35.184472],[137.619553,35.179982],[137.615433,35.178298],[137.611313,35.178298],[137.614746,35.182227],[137.618179,35.184472]]],[[[137.619553,35.179982],[137.619553,35.177176],[137.620239,35.176053],[137.621613,35.176053],[137.622299,35.17437],[137.621613,35.173247],[137.618866,35.172124],[137.616119,35.17437],[137.617493,35.176615],[137.615433,35.178298],[137.619553,35.179982]]],[[[137.622299,35.1884],[137.629166,35.177737],[137.621613,35.173247],[137.621613,35.176053],[137.620239,35.176053],[137.619553,35.177176],[137.618179,35.184472],[137.620239,35.187278],[137.622299,35.1884]]],[[[137.653198,35.217576],[137.656631,35.215893],[137.657318,35.210283],[137.656631,35.204111],[137.654572,35.199623],[137.655945,35.196256],[137.649765,35.19345],[137.648392,35.191206],[137.647018,35.186716],[137.647018,35.183349],[137.639465,35.183349],[137.629166,35.177737],[137.622299,35.1884],[137.625732,35.190645],[137.629166,35.197378],[137.635345,35.200184],[137.638779,35.202989],[137.641525,35.209161],[137.644272,35.209161],[137.644958,35.21421],[137.648392,35.214771],[137.653198,35.217576]]],[[[137.578354,35.178298],[137.596207,35.176615],[137.6017,35.17437],[137.607193,35.175492],[137.610626,35.174931],[137.609253,35.172124],[137.604446,35.171002],[137.603073,35.169879],[137.60376,35.164266],[137.602386,35.162021],[137.6017,35.158653],[137.605133,35.153039],[137.6017,35.152477],[137.59964,35.153039],[137.598953,35.158091],[137.596893,35.164266],[137.594833,35.164266],[137.590714,35.166511],[137.587967,35.166511],[137.58522,35.167634],[137.578354,35.173247],[137.576981,35.177176],[137.578354,35.178298]]],[[[137.612,35.175492],[137.614059,35.173808],[137.613373,35.172686],[137.614059,35.172124],[137.612,35.169318],[137.608566,35.161459],[137.60788,35.155284],[137.605133,35.153039],[137.6017,35.158653],[137.602386,35.162021],[137.60376,35.164266],[137.603073,35.169879],[137.604446,35.171002],[137.609253,35.172124],[137.610626,35.174931],[137.612,35.175492]]],[[[137.616806,35.173808],[137.616119,35.172686],[137.615433,35.173247],[137.614059,35.172124],[137.613373,35.172686],[137.614059,35.173808],[137.616806,35.173808]]],[[[137.617493,35.173808],[137.616119,35.171002],[137.614059,35.172124],[137.615433,35.173247],[137.616119,35.172686],[137.617493,35.173808]]],[[[137.614059,35.172124],[137.617493,35.170441],[137.616119,35.169318],[137.613373,35.171002],[137.614059,35.172124]]],[[[137.617493,35.173808],[137.618866,35.172124],[137.616119,35.171002],[137.617493,35.173808]]],[[[137.618179,35.171002],[137.618179,35.169879],[137.616806,35.169879],[137.616806,35.171002],[137.618179,35.171002]]],[[[137.613373,35.171002],[137.616119,35.169318],[137.618866,35.168195],[137.622299,35.164266],[137.617493,35.164266],[137.60994,35.163143],[137.608566,35.161459],[137.612686,35.170441],[137.613373,35.171002]]],[[[137.628479,35.177176],[137.623672,35.16595],[137.618179,35.171002],[137.617493,35.171563],[137.628479,35.177176]]],[[[137.618866,35.170441],[137.623672,35.16595],[137.622986,35.164828],[137.622299,35.164266],[137.618866,35.168195],[137.616119,35.169318],[137.618866,35.170441]]]]}},{"type":"Feature","properties":{"layer_id":"bakumatsu_villages","name":"上西田内村","address":"三河 設楽郡","source":"Geoshape 幕末期近世村領域データセット vector tiles (z7 extraction)","subarea_name":"近世村のおおよその範囲","feature_key":"village:K23G05S00090","accuracy_note":"2015年農業集落境界をもとに復元した概略範囲で、江戸時代の正確な村境ではありません"},"geometry":{"type":"Polygon","coordinates":[[[137.546768,35.090698],[137.548141,35.090136],[137.549515,35.089012],[137.548828,35.087327],[137.550201,35.086203],[137.549515,35.085079],[137.551575,35.082832],[137.550201,35.080022],[137.552261,35.078336],[137.551575,35.076089],[137.552948,35.075527],[137.554321,35.076651],[137.553635,35.078898],[137.554321,35.07946],[137.557068,35.074403],[137.555695,35.069907],[137.551575,35.067097],[137.550888,35.067659],[137.547455,35.069907],[137.544708,35.068221],[137.542648,35.068783],[137.539215,35.071593],[137.538528,35.077775],[137.536469,35.078898],[137.536469,35.081708],[137.530289,35.082832],[137.528915,35.083956],[137.528229,35.086203],[137.533035,35.089012],[137.542648,35.089574],[137.546768,35.090698]]]}},{"type":"Feature","properties":{"layer_id":"bakumatsu_villages","name":"下津具村","address":"三河 設楽郡","source":"Geoshape 幕末期近世村領域データセット vector tiles (z7 extraction)","subarea_name":"近世村のおおよその範囲","feature_key":"village:K23G05S00018","accuracy_note":"2015年農業集落境界をもとに復元した概略範囲で、江戸時代の正確な村境ではありません"},"geometry":{"type":"MultiPolygon","coordinates":[[[[137.655945,35.196256],[137.659378,35.190084],[137.662811,35.187839],[137.663498,35.184472],[137.665558,35.182788],[137.664871,35.181666],[137.664871,35.179421],[137.663498,35.178298],[137.664185,35.176615],[137.667618,35.174931],[137.668304,35.171563],[137.669678,35.170441],[137.661438,35.168757],[137.655258,35.165389],[137.649765,35.167634],[137.646332,35.167634],[137.645645,35.168757],[137.646332,35.183349],[137.648392,35.190645],[137.649765,35.19345],[137.655945,35.196256]]],[[[137.60994,35.163143],[137.615433,35.160337],[137.618179,35.156968],[137.617493,35.155284],[137.613373,35.155284],[137.60994,35.163143]]],[[[137.60994,35.163143],[137.613373,35.155284],[137.617493,35.155284],[137.617493,35.14574],[137.60994,35.14967],[137.607193,35.154162],[137.60994,35.163143]]],[[[137.607193,35.154162],[137.60994,35.14967],[137.617493,35.14574],[137.620239,35.138441],[137.614746,35.141248],[137.613373,35.140687],[137.60994,35.140125],[137.609253,35.140125],[137.608566,35.141248],[137.60788,35.149109],[137.606506,35.148547],[137.607193,35.150232],[137.60582,35.151916],[137.6017,35.152477],[137.605133,35.152477],[137.607193,35.154162]]],[[[137.617493,35.164266],[137.621613,35.160898],[137.618866,35.158653],[137.614059,35.163705],[137.617493,35.164266]]],[[[137.614059,35.163705],[137.618866,35.158653],[137.618179,35.156968],[137.615433,35.160337],[137.60994,35.163143],[137.614059,35.163705]]],[[[137.618866,35.164828],[137.622299,35.164266],[137.621613,35.160898],[137.617493,35.164266],[137.618866,35.164828]]],[[[137.632599,35.171002],[137.632599,35.167073],[137.629852,35.164828],[137.629852,35.162021],[137.628479,35.161459],[137.629852,35.167073],[137.632599,35.171002]]],[[[137.646332,35.183349],[137.643585,35.181666],[137.643585,35.179982],[137.639465,35.176053],[137.633972,35.173247],[137.626419,35.163143],[137.622299,35.162582],[137.622299,35.164266],[137.624359,35.167073],[137.629166,35.177737],[137.639465,35.183349],[137.646332,35.183349]]],[[[137.640152,35.177176],[137.633972,35.162021],[137.629852,35.162021],[137.629852,35.164828],[137.632599,35.167073],[137.633286,35.172124],[137.640152,35.177176]]],[[[137.627792,35.164266],[137.627792,35.162021],[137.622986,35.162582],[137.624359,35.163143],[137.625732,35.162582],[137.627792,35.164266]]],[[[137.629852,35.167073],[137.628479,35.161459],[137.626419,35.162021],[137.627792,35.162021],[137.627792,35.164266],[137.629852,35.167073]]],[[[137.633972,35.162021],[137.636032,35.160337],[137.635345,35.158653],[137.631226,35.160898],[137.631912,35.161459],[137.633972,35.162021]]],[[[137.622986,35.162582],[137.627106,35.161459],[137.631912,35.161459],[137.631226,35.160898],[137.633286,35.159214],[137.630539,35.15753],[137.631226,35.152477],[137.636032,35.14574],[137.637405,35.142371],[137.634659,35.143494],[137.630539,35.142933],[137.627792,35.140687],[137.623672,35.140125],[137.620926,35.138441],[137.620239,35.138441],[137.617493,35.14574],[137.617493,35.155284],[137.620239,35.159775],[137.622986,35.162582]]],[[[137.633286,35.159214],[137.635345,35.158653],[137.633972,35.151916],[137.636032,35.14574],[137.631226,35.152477],[137.630539,35.15753],[137.633286,35.159214]]],[[[137.646332,35.183349],[137.645645,35.168757],[137.642899,35.167073],[137.638779,35.159214],[137.633972,35.162021],[137.640152,35.177737],[137.643585,35.179982],[137.643585,35.181666],[137.646332,35.183349]]],[[[137.645645,35.168757],[137.648392,35.167634],[137.642212,35.156968],[137.638779,35.159214],[137.642899,35.167073],[137.645645,35.168757]]],[[[137.649765,35.167634],[137.643585,35.156407],[137.642212,35.156968],[137.648392,35.167634],[137.649765,35.167634]]],[[[137.649765,35.167634],[137.651138,35.167073],[137.644272,35.155284],[137.643585,35.156407],[137.649765,35.167634]]],[[[137.651138,35.167073],[137.653198,35.166511],[137.646332,35.154723],[137.644958,35.154723],[137.644272,35.155284],[137.651138,35.167073]]],[[[137.653198,35.166511],[137.655258,35.165389],[137.649078,35.154162],[137.646332,35.154723],[137.653198,35.166511]]],[[[137.655258,35.165389],[137.659378,35.162021],[137.659378,35.158091],[137.655945,35.154723],[137.653885,35.151354],[137.653198,35.151916],[137.653198,35.1536],[137.651138,35.1536],[137.650452,35.15753],[137.655258,35.165389]]],[[[137.636032,35.160337],[137.638779,35.159214],[137.642212,35.156968],[137.637405,35.154723],[137.635345,35.149109],[137.633972,35.151916],[137.635345,35.158653],[137.636032,35.160337]]],[[[137.641525,35.155284],[137.639465,35.144056],[137.637405,35.142371],[137.635345,35.149109],[137.636719,35.1536],[137.638092,35.155284],[137.641525,35.155284]]],[[[137.642212,35.156968],[137.644272,35.155284],[137.644272,35.154723],[137.647705,35.152477],[137.646332,35.150793],[137.644272,35.151916],[137.644272,35.153039],[137.640839,35.155846],[137.642212,35.156968]]],[[[137.641525,35.155284],[137.644272,35.153039],[137.644272,35.151916],[137.646332,35.150793],[137.647018,35.14967],[137.649765,35.148547],[137.650452,35.146301],[137.645645,35.146301],[137.639465,35.144056],[137.641525,35.155284]]],[[[137.644272,35.155284],[137.646332,35.154723],[137.649078,35.154723],[137.651825,35.152477],[137.649765,35.150793],[137.648392,35.151354],[137.648392,35.14967],[137.647018,35.14967],[137.646332,35.150793],[137.647705,35.152477],[137.644272,35.154723],[137.644272,35.155284]]],[[[137.650452,35.15753],[137.651138,35.1536],[137.653198,35.1536],[137.653198,35.151916],[137.649078,35.154162],[137.650452,35.15753]]],[[[137.669678,35.170441],[137.668991,35.16595],[137.671051,35.166511],[137.672424,35.165389],[137.673111,35.162021],[137.676544,35.158091],[137.675858,35.153039],[137.672424,35.151916],[137.670364,35.155284],[137.666931,35.1536],[137.667618,35.154723],[137.666931,35.15753],[137.665558,35.155846],[137.662811,35.15753],[137.655945,35.154723],[137.659378,35.158091],[137.659378,35.162021],[137.655258,35.165389],[137.661438,35.168757],[137.669678,35.170441]]],[[[137.666931,35.15753],[137.667618,35.154723],[137.666931,35.1536],[137.670364,35.155284],[137.672424,35.151916],[137.675858,35.153039],[137.677231,35.153039],[137.677917,35.151354],[137.676544,35.150793],[137.675858,35.147986],[137.677231,35.145179],[137.675171,35.142933],[137.676544,35.141248],[137.675171,35.140125],[137.670364,35.14181],[137.666245,35.14181],[137.664871,35.140125],[137.658691,35.141248],[137.655258,35.139564],[137.652512,35.140687],[137.652512,35.144617],[137.648392,35.14967],[137.648392,35.151354],[137.649765,35.150793],[137.651825,35.152477],[137.654572,35.151354],[137.655945,35.154723],[137.662811,35.15753],[137.665558,35.155846],[137.666931,35.15753]]]]}},{"type":"Feature","properties":{"layer_id":"bakumatsu_villages","name":"下西田内村","address":"三河 設楽郡","source":"Geoshape 幕末期近世村領域データセット vector tiles (z7 extraction)","subarea_name":"近世村のおおよその範囲","feature_key":"village:K23G05S00091","accuracy_note":"2015年農業集落境界をもとに復元した概略範囲で、江戸時代の正確な村境ではありません"},"geometry":{"type":"MultiPolygon","coordinates":[[[[137.540588,35.070469],[137.542648,35.068783],[137.544708,35.068221],[137.547455,35.069907],[137.551575,35.067659],[137.546768,35.064287],[137.543335,35.065411],[137.541275,35.067659],[137.540588,35.070469]]],[[[137.539215,35.071593],[137.540588,35.070469],[137.539215,35.070469],[137.539215,35.071593]]]]}},{"type":"Feature","properties":{"layer_id":"bakumatsu_villages","name":"中島村・田口町村","address":"三河 設楽郡","source":"Geoshape 幕末期近世村領域データセット vector tiles (z7 extraction)","subarea_name":"近世村のおおよその範囲","feature_key":"village:K23G05S00082,K23G05S00085","accuracy_note":"2015年農業集落境界をもとに復元した概略範囲で、江戸時代の正確な村境ではありません"},"geometry":{"type":"Polygon","coordinates":[[[137.567368,35.11036],[137.570114,35.107552],[137.572861,35.10699],[137.571487,35.103619],[137.572174,35.100249],[137.570801,35.098002],[137.572174,35.096878],[137.568054,35.095754],[137.563248,35.098563],[137.562561,35.101372],[137.563248,35.103619],[137.561874,35.105305],[137.561874,35.10699],[137.563248,35.108113],[137.564621,35.10699],[137.568054,35.108113],[137.567368,35.11036]]]}},{"type":"Feature","properties":{"layer_id":"bakumatsu_villages","name":"久原村・大桑村","address":"三河 設楽郡","source":"Geoshape 幕末期近世村領域データセット vector tiles (z7 extraction)","subarea_name":"近世村のおおよその範囲","feature_key":"village:K23G05S00055,K23G05S00064","accuracy_note":"2015年農業集落境界をもとに復元した概略範囲で、江戸時代の正確な村境ではありません"},"geometry":{"type":"Polygon","coordinates":[[[137.544022,35.147424],[137.546082,35.144617],[137.556381,35.139002],[137.555008,35.137318],[137.554321,35.137318],[137.550888,35.131702],[137.551575,35.127771],[137.545395,35.131141],[137.544022,35.130579],[137.543335,35.128333],[137.542648,35.128333],[137.539215,35.130017],[137.537155,35.132825],[137.533035,35.133387],[137.528915,35.137318],[137.535782,35.137318],[137.537842,35.140125],[137.537842,35.144617],[137.540588,35.145179],[137.544022,35.147424]]]}},{"type":"Feature","properties":{"layer_id":"bakumatsu_villages","name":"向林村・田枯村・永江沢村","address":"三河 設楽郡","source":"Geoshape 幕末期近世村領域データセット vector tiles (z7 extraction)","subarea_name":"近世村のおおよその範囲","feature_key":"village:K23G05S00020,K23G05S00021,K23G05S00022","accuracy_note":"2015年農業集落境界をもとに復元した概略範囲で、江戸時代の正確な村境ではありません"},"geometry":{"type":"Polygon","coordinates":[[[137.592773,35.155284],[137.598267,35.154162],[137.603073,35.14967],[137.605133,35.150232],[137.606506,35.148547],[137.60788,35.149109],[137.608566,35.141248],[137.610626,35.136756],[137.609253,35.133948],[137.610626,35.126086],[137.608566,35.116539],[137.600327,35.119347],[137.59758,35.122717],[137.59346,35.121593],[137.590714,35.122717],[137.58934,35.121032],[137.583847,35.122155],[137.581787,35.119347],[137.5811,35.119347],[137.579727,35.12047],[137.578354,35.119347],[137.574234,35.121593],[137.574234,35.122155],[137.576981,35.123278],[137.576294,35.12721],[137.575607,35.128333],[137.573547,35.127771],[137.572174,35.129456],[137.576981,35.132825],[137.577667,35.135071],[137.579041,35.135071],[137.584534,35.139564],[137.585907,35.145179],[137.587967,35.146863],[137.585907,35.148547],[137.588654,35.151354],[137.5914,35.153039],[137.592773,35.155284]]]}},{"type":"Feature","properties":{"layer_id":"bakumatsu_villages","name":"和市村","address":"三河 設楽郡","source":"Geoshape 幕末期近世村領域データセット vector tiles (z7 extraction)","subarea_name":"近世村のおおよその範囲","feature_key":"village:K23G05S00028","accuracy_note":"2015年農業集落境界をもとに復元した概略範囲で、江戸時代の正確な村境ではありません"},"geometry":{"type":"Polygon","coordinates":[[[137.603073,35.104743],[137.60582,35.103619],[137.609253,35.098002],[137.60788,35.09744],[137.604446,35.093507],[137.604446,35.092383],[137.601013,35.088451],[137.590027,35.092945],[137.590714,35.099125],[137.594147,35.101372],[137.603073,35.104743]]]}},{"type":"Feature","properties":{"layer_id":"bakumatsu_villages","name":"塩津村・小代村","address":"三河 設楽郡","source":"Geoshape 幕末期近世村領域データセット vector tiles (z7 extraction)","subarea_name":"近世村のおおよその範囲","feature_key":"village:K23G05S00087,K23G05S00088","accuracy_note":"2015年農業集落境界をもとに復元した概略範囲で、江戸時代の正確な村境ではありません"},"geometry":{"type":"Polygon","coordinates":[[[137.574234,35.084517],[137.578354,35.081146],[137.579727,35.081708],[137.586594,35.081146],[137.590714,35.070469],[137.590027,35.068783],[137.588654,35.067097],[137.586594,35.067097],[137.58522,35.065411],[137.579727,35.064849],[137.579041,35.059791],[137.571487,35.060353],[137.567368,35.060915],[137.564621,35.059229],[137.566681,35.062039],[137.563934,35.062601],[137.565994,35.063163],[137.565308,35.064287],[137.565994,35.064287],[137.564621,35.067659],[137.565994,35.072717],[137.567368,35.072717],[137.568054,35.074403],[137.570801,35.076651],[137.570114,35.078336],[137.572174,35.078336],[137.572861,35.081146],[137.574921,35.081708],[137.573547,35.083956],[137.574234,35.084517]]]}},{"type":"Feature","properties":{"layer_id":"bakumatsu_villages","name":"大名倉村","address":"三河 設楽郡","source":"Geoshape 幕末期近世村領域データセット vector tiles (z7 extraction)","subarea_name":"近世村のおおよその範囲","feature_key":"village:K23G05S00080","accuracy_note":"2015年農業集落境界をもとに復元した概略範囲で、江戸時代の正確な村境ではありません"},"geometry":{"type":"Polygon","coordinates":[[[137.541962,35.125525],[137.550201,35.112045],[137.553635,35.11036],[137.555008,35.106428],[137.560501,35.104743],[137.561874,35.101372],[137.559128,35.102496],[137.557755,35.101372],[137.553635,35.100811],[137.553635,35.099125],[137.542648,35.100249],[137.541275,35.101934],[137.532349,35.105305],[137.531662,35.10699],[137.533035,35.110922],[137.535782,35.11373],[137.535095,35.114854],[137.538528,35.122155],[137.540588,35.124963],[137.541962,35.125525]]]}},{"type":"Feature","properties":{"layer_id":"bakumatsu_villages","name":"大林村・古宿村・大代村","address":"三河 設楽郡","source":"Geoshape 幕末期近世村領域データセット vector tiles (z7 extraction)","subarea_name":"近世村のおおよその範囲","feature_key":"village:K23G05S00191,K23G05S00192,K23G05S00193","accuracy_note":"2015年農業集落境界をもとに復元した概略範囲で、江戸時代の正確な村境ではありません"},"geometry":{"type":"Polygon","coordinates":[[[137.571487,35.060353],[137.579041,35.059791],[137.579727,35.058105],[137.58316,35.056418],[137.5811,35.053046],[137.584534,35.049673],[137.587967,35.041803],[137.583847,35.040679],[137.573547,35.040679],[137.566681,35.041241],[137.561874,35.044614],[137.565308,35.0463],[137.568054,35.049111],[137.571487,35.055294],[137.571487,35.060353]]]}},{"type":"Feature","properties":{"layer_id":"bakumatsu_villages","name":"宇連村","address":"三河 設楽郡","source":"Geoshape 幕末期近世村領域データセット vector tiles (z7 extraction)","subarea_name":"近世村のおおよその範囲","feature_key":"village:K23G05S00050","accuracy_note":"2015年農業集落境界をもとに復元した概略範囲で、江戸時代の正確な村境ではありません"},"geometry":{"type":"Polygon","coordinates":[[[137.600327,35.08227],[137.605133,35.078336],[137.608566,35.078336],[137.601013,35.065973],[137.600327,35.061477],[137.603073,35.05698],[137.606506,35.057543],[137.60788,35.059229],[137.609253,35.058667],[137.615433,35.061477],[137.618179,35.064849],[137.624359,35.068783],[137.630539,35.070469],[137.633972,35.072717],[137.638092,35.068221],[137.637405,35.064849],[137.633972,35.064849],[137.632599,35.060915],[137.633286,35.058667],[137.627792,35.054732],[137.630539,35.048549],[137.625732,35.046862],[137.625732,35.045176],[137.622299,35.040679],[137.622986,35.035619],[137.624359,35.03337],[137.620926,35.02831],[137.620926,35.021],[137.619553,35.019313],[137.610626,35.017063],[137.606506,35.017626],[137.60376,35.016501],[137.598953,35.019313],[137.59758,35.023249],[137.598953,35.023811],[137.598953,35.025498],[137.596893,35.027185],[137.594147,35.032245],[137.592773,35.032245],[137.58934,35.034494],[137.590027,35.037868],[137.587967,35.041241],[137.587967,35.042365],[137.584534,35.049673],[137.5811,35.053046],[137.58316,35.056418],[137.579727,35.058105],[137.579041,35.062601],[137.579727,35.065411],[137.584534,35.065411],[137.586594,35.067097],[137.588654,35.067097],[137.590714,35.069907],[137.58934,35.072155],[137.590714,35.074403],[137.596207,35.077213],[137.600327,35.08227]]]}},{"type":"Feature","properties":{"layer_id":"bakumatsu_villages","name":"宇連村","address":"三河 設楽郡","source":"Geoshape 幕末期近世村領域データセット vector tiles (z7 extraction)","subarea_name":"近世村のおおよその範囲","feature_key":"village:K23G05S00066","accuracy_note":"2015年農業集落境界をもとに復元した概略範囲で、江戸時代の正確な村境ではありません"},"geometry":{"type":"Polygon","coordinates":[[[137.527542,35.135071],[137.534409,35.131702],[137.537155,35.132825],[137.539215,35.130017],[137.543335,35.128333],[137.543335,35.12721],[137.538528,35.122155],[137.535095,35.114854],[137.530975,35.115415],[137.530289,35.115977],[137.529602,35.119347],[137.530289,35.123278],[137.525482,35.117662],[137.524796,35.118224],[137.521362,35.119909],[137.517929,35.119347],[137.516556,35.121032],[137.512436,35.12047],[137.511749,35.122155],[137.509003,35.121032],[137.521362,35.128333],[137.521362,35.128894],[137.519302,35.128894],[137.518616,35.130579],[137.520676,35.132825],[137.522049,35.133387],[137.525482,35.133387],[137.527542,35.135071]]]}},{"type":"Feature","properties":{"layer_id":"bakumatsu_villages","name":"川向村","address":"三河 設楽郡","source":"Geoshape 幕末期近世村領域データセット vector tiles (z7 extraction)","subarea_name":"近世村のおおよその範囲","feature_key":"village:K23G05S00079","accuracy_note":"2015年農業集落境界をもとに復元した概略範囲で、江戸時代の正確な村境ではありません"},"geometry":{"type":"Polygon","coordinates":[[[137.544708,35.131141],[137.546768,35.130579],[137.551575,35.127771],[137.561188,35.124402],[137.568741,35.122717],[137.576294,35.127771],[137.576981,35.123278],[137.574234,35.122155],[137.574234,35.121593],[137.577667,35.119909],[137.579041,35.118785],[137.578354,35.117662],[137.575607,35.118224],[137.573547,35.114854],[137.569427,35.114854],[137.565308,35.112607],[137.568054,35.108113],[137.564621,35.10699],[137.563248,35.108113],[137.562561,35.107552],[137.561874,35.105305],[137.563248,35.103619],[137.562561,35.101372],[137.559814,35.105305],[137.555008,35.106428],[137.552948,35.110922],[137.550201,35.112045],[137.549515,35.11373],[137.544708,35.119909],[137.541962,35.125525],[137.544708,35.131141]]]}},{"type":"Feature","properties":{"layer_id":"bakumatsu_villages","name":"平山村","address":"三河 設楽郡","source":"Geoshape 幕末期近世村領域データセット vector tiles (z7 extraction)","subarea_name":"近世村のおおよその範囲","feature_key":"village:K23G05S00029","accuracy_note":"2015年農業集落境界をもとに復元した概略範囲で、江戸時代の正確な村境ではありません"},"geometry":{"type":"Polygon","coordinates":[[[137.620926,35.098563],[137.623672,35.096316],[137.623672,35.093507],[137.625732,35.090698],[137.621613,35.085641],[137.619553,35.085641],[137.611313,35.077775],[137.60582,35.078336],[137.601013,35.081146],[137.598953,35.085641],[137.601013,35.088451],[137.604446,35.092383],[137.604446,35.093507],[137.60788,35.09744],[137.609253,35.098002],[137.613373,35.09744],[137.620926,35.098563]]]}},{"type":"Feature","properties":{"layer_id":"bakumatsu_villages","name":"御領村・道貝津村・小田村","address":"三河 設楽郡","source":"Geoshape 幕末期近世村領域データセット vector tiles (z7 extraction)","subarea_name":"近世村のおおよその範囲","feature_key":"village:K23G05S00167,K23G05S00168,K23G05S00169","accuracy_note":"2015年農業集落境界をもとに復元した概略範囲で、江戸時代の正確な村境ではありません"},"geometry":{"type":"Polygon","coordinates":[[[137.492523,35.070469],[137.494583,35.067659],[137.502136,35.065411],[137.504883,35.059791],[137.506943,35.050235],[137.509003,35.051359],[137.509689,35.050235],[137.506943,35.0463],[137.507629,35.044614],[137.504883,35.041803],[137.50145,35.041241],[137.50145,35.039554],[137.500076,35.040679],[137.495956,35.03843],[137.494583,35.038992],[137.49321,35.035619],[137.486343,35.033932],[137.47879,35.033932],[137.47467,35.032808],[137.47467,35.03843],[137.47261,35.042927],[137.471924,35.044052],[137.469864,35.044052],[137.469177,35.047425],[137.465744,35.049111],[137.464371,35.052484],[137.465744,35.054732],[137.470551,35.05417],[137.473297,35.057543],[137.475357,35.062039],[137.478104,35.063163],[137.484283,35.064287],[137.485657,35.062601],[137.488403,35.063725],[137.48703,35.066535],[137.487717,35.069345],[137.49115,35.069345],[137.492523,35.070469]]]}},{"type":"Feature","properties":{"layer_id":"bakumatsu_villages","name":"怒田輪村・柿平村・小松野村","address":"三河 設楽郡","source":"Geoshape 幕末期近世村領域データセット vector tiles (z7 extraction)","subarea_name":"近世村のおおよその範囲","feature_key":"village:K23G05S00023,K23G05S00024,K23G05S00025","accuracy_note":"2015年農業集落境界をもとに復元した概略範囲で、江戸時代の正確な村境ではありません"},"geometry":{"type":"Polygon","coordinates":[[[137.579727,35.12047],[137.581787,35.119347],[137.583847,35.115415],[137.586594,35.114854],[137.587967,35.112607],[137.59346,35.109798],[137.590027,35.10699],[137.596893,35.101934],[137.59346,35.100811],[137.584534,35.094631],[137.580414,35.099125],[137.579727,35.102496],[137.580414,35.102496],[137.578354,35.105305],[137.576294,35.104743],[137.574234,35.105305],[137.572861,35.10699],[137.570114,35.107552],[137.565308,35.112607],[137.569427,35.114854],[137.573547,35.114854],[137.575607,35.118224],[137.578354,35.118224],[137.578354,35.119909],[137.579727,35.12047]]]}},{"type":"Feature","properties":{"layer_id":"bakumatsu_villages","name":"方瀬村・真菰村・小野村","address":"三河 設楽郡","source":"Geoshape 幕末期近世村領域データセット vector tiles (z7 extraction)","subarea_name":"近世村のおおよその範囲","feature_key":"village:K23G05S00187,K23G05S00188,K23G05S00189","accuracy_note":"2015年農業集落境界をもとに復元した概略範囲で、江戸時代の正確な村境ではありません"},"geometry":{"type":"Polygon","coordinates":[[[137.547455,35.058105],[137.550888,35.05698],[137.549515,35.055856],[137.550888,35.054732],[137.555008,35.055856],[137.558441,35.055294],[137.560501,35.057543],[137.561874,35.05417],[137.560501,35.044614],[137.557755,35.041241],[137.557755,35.036181],[137.548828,35.035619],[137.549515,35.039554],[137.541275,35.049111],[137.539902,35.049673],[137.541275,35.051922],[137.539215,35.054732],[137.542648,35.057543],[137.547455,35.058105]]]}},{"type":"Feature","properties":{"layer_id":"bakumatsu_villages","name":"東田内村","address":"三河 設楽郡","source":"Geoshape 幕末期近世村領域データセット vector tiles (z7 extraction)","subarea_name":"近世村のおおよその範囲","feature_key":"village:K23G05S00089","accuracy_note":"2015年農業集落境界をもとに復元した概略範囲で、江戸時代の正確な村境ではありません"},"geometry":{"type":"Polygon","coordinates":[[[137.573547,35.083956],[137.574921,35.08227],[137.572861,35.081146],[137.572174,35.078336],[137.570114,35.078336],[137.570801,35.076651],[137.565308,35.071031],[137.565308,35.069345],[137.564621,35.065973],[137.565994,35.064287],[137.565308,35.064287],[137.565994,35.063163],[137.563934,35.062601],[137.566681,35.062039],[137.566681,35.060915],[137.563934,35.058667],[137.560501,35.057543],[137.558441,35.055294],[137.555008,35.055856],[137.550888,35.054732],[137.549515,35.055856],[137.550888,35.05698],[137.547455,35.058105],[137.542648,35.057543],[137.539215,35.054732],[137.538528,35.058105],[137.536469,35.059229],[137.537842,35.060915],[137.537155,35.064287],[137.540588,35.064849],[137.541275,35.067097],[137.543335,35.065411],[137.547455,35.064849],[137.555695,35.069907],[137.557068,35.075527],[137.554321,35.07946],[137.553635,35.078898],[137.554321,35.076651],[137.552948,35.075527],[137.551575,35.076089],[137.552261,35.078336],[137.550201,35.080022],[137.551575,35.082832],[137.549515,35.084517],[137.550201,35.086203],[137.548828,35.087327],[137.550201,35.089574],[137.553635,35.091822],[137.557755,35.091822],[137.557755,35.089574],[137.561188,35.086765],[137.564621,35.085641],[137.569427,35.085641],[137.572174,35.083956],[137.573547,35.083956]]]}},{"type":"Feature","properties":{"layer_id":"bakumatsu_villages","name":"東路村","address":"三河 設楽郡","source":"Geoshape 幕末期近世村領域データセット vector tiles (z7 extraction)","subarea_name":"近世村のおおよその範囲","feature_key":"village:K23G05S00084","accuracy_note":"2015年農業集落境界をもとに復元した概略範囲で、江戸時代の正確な村境ではありません"},"geometry":{"type":"Polygon","coordinates":[[[137.572861,35.096878],[137.572174,35.096878],[137.570801,35.098002],[137.572174,35.100249],[137.571487,35.103619],[137.572861,35.10699],[137.574234,35.105305],[137.576294,35.104743],[137.578354,35.105305],[137.580414,35.102496],[137.579727,35.102496],[137.580414,35.099125],[137.58316,35.096316],[137.578354,35.095754],[137.576981,35.094631],[137.572861,35.096878]]]}},{"type":"Feature","properties":{"layer_id":"bakumatsu_villages","name":"松戸村","address":"三河 設楽郡","source":"Geoshape 幕末期近世村領域データセット vector tiles (z7 extraction)","subarea_name":"近世村のおおよその範囲","feature_key":"village:K23G05S00081","accuracy_note":"2015年農業集落境界をもとに復元した概略範囲で、江戸時代の正確な村境ではありません"},"geometry":{"type":"Polygon","coordinates":[[[137.559128,35.102496],[137.562561,35.101372],[137.562561,35.099687],[137.559814,35.09744],[137.559814,35.093507],[137.557755,35.091822],[137.553635,35.091822],[137.549515,35.089012],[137.546768,35.090698],[137.542648,35.089574],[137.533035,35.089012],[137.528229,35.086203],[137.524796,35.090698],[137.521362,35.091822],[137.520676,35.093507],[137.520676,35.094069],[137.524109,35.095193],[137.524796,35.09744],[137.521362,35.099687],[137.523422,35.101934],[137.526855,35.101934],[137.528229,35.100249],[137.526169,35.09744],[137.528915,35.095193],[137.532349,35.094631],[137.535782,35.096316],[137.537842,35.094069],[137.538528,35.094069],[137.536469,35.09744],[137.537842,35.098563],[137.540588,35.098563],[137.541275,35.100249],[137.546768,35.100811],[137.553635,35.099125],[137.553635,35.100811],[137.557755,35.101372],[137.559128,35.102496]]]}},{"type":"Feature","properties":{"layer_id":"bakumatsu_villages","name":"松本村・寺脇村・神子谷下村・市ノ瀬村・万場村","address":"三河 設楽郡","source":"Geoshape 幕末期近世村領域データセット vector tiles (z7 extraction)","subarea_name":"近世村のおおよその範囲","feature_key":"village:K23G05S00056,K23G05S00057,K23G05S00058,K23G05S00059,K23G05S00061","accuracy_note":"2015年農業集落境界をもとに復元した概略範囲で、江戸時代の正確な村境ではありません"},"geometry":{"type":"Polygon","coordinates":[[[137.578354,35.173247],[137.58316,35.168757],[137.587967,35.166511],[137.590714,35.166511],[137.58934,35.165389],[137.587967,35.165389],[137.58522,35.160898],[137.574234,35.154162],[137.573547,35.151354],[137.571487,35.14967],[137.566681,35.149109],[137.562561,35.150232],[137.556381,35.149109],[137.555008,35.14967],[137.552948,35.14967],[137.552261,35.146863],[137.548828,35.148547],[137.544708,35.146863],[137.538528,35.1536],[137.536469,35.154162],[137.558441,35.163705],[137.564621,35.164266],[137.572861,35.173247],[137.578354,35.173247]]]}},{"type":"Feature","properties":{"layer_id":"bakumatsu_villages","name":"栗島村","address":"三河 設楽郡","source":"Geoshape 幕末期近世村領域データセット vector tiles (z7 extraction)","subarea_name":"近世村のおおよその範囲","feature_key":"village:K23G05S00094","accuracy_note":"2015年農業集落境界をもとに復元した概略範囲で、江戸時代の正確な村境ではありません"},"geometry":{"type":"Polygon","coordinates":[[[137.490463,35.087889],[137.498016,35.086203],[137.49939,35.084517],[137.500763,35.083956],[137.50145,35.085079],[137.502823,35.083956],[137.502136,35.081146],[137.504883,35.081146],[137.505569,35.080022],[137.510376,35.077213],[137.511749,35.077213],[137.511063,35.075527],[137.513809,35.076089],[137.514496,35.074965],[137.515869,35.074965],[137.517929,35.076089],[137.517929,35.074965],[137.519302,35.074965],[137.526855,35.075527],[137.525482,35.063163],[137.523422,35.059791],[137.509689,35.061477],[137.507629,35.059229],[137.504883,35.059229],[137.502136,35.065973],[137.494583,35.067659],[137.49321,35.069907],[137.49115,35.069345],[137.487717,35.069345],[137.48703,35.069907],[137.486343,35.077213],[137.49115,35.084517],[137.490463,35.087889]]]}},{"type":"Feature","properties":{"layer_id":"bakumatsu_villages","name":"桑平新田","address":"三河 設楽郡","source":"Geoshape 幕末期近世村領域データセット vector tiles (z7 extraction)","subarea_name":"近世村のおおよその範囲","feature_key":"village:K23G05S00097","accuracy_note":"2015年農業集落境界をもとに復元した概略範囲で、江戸時代の正確な村境ではありません"},"geometry":{"type":"Polygon","coordinates":[[[137.453384,35.087327],[137.463684,35.086765],[137.473984,35.078336],[137.478104,35.078336],[137.482224,35.076089],[137.486343,35.077213],[137.48703,35.070469],[137.485657,35.071031],[137.485657,35.069907],[137.484283,35.069907],[137.482224,35.072155],[137.48085,35.070469],[137.48085,35.071593],[137.461624,35.074965],[137.456818,35.075527],[137.454071,35.074403],[137.452698,35.077213],[137.454758,35.083956],[137.453384,35.087327]]]}},{"type":"Feature","properties":{"layer_id":"bakumatsu_villages","name":"清水村","address":"三河 設楽郡","source":"Geoshape 幕末期近世村領域データセット vector tiles (z7 extraction)","subarea_name":"近世村のおおよその範囲","feature_key":"village:K23G05S00051","accuracy_note":"2015年農業集落境界をもとに復元した概略範囲で、江戸時代の正確な村境ではありません"},"geometry":{"type":"MultiPolygon","coordinates":[[[[137.502823,35.197378],[137.502136,35.196256],[137.500763,35.194573],[137.50145,35.192889],[137.498703,35.187839],[137.49939,35.185033],[137.498703,35.179982],[137.49733,35.179421],[137.498016,35.177176],[137.496643,35.175492],[137.487717,35.174931],[137.48085,35.175492],[137.480164,35.176615],[137.48291,35.179982],[137.481537,35.183349],[137.481537,35.185594],[137.486343,35.194012],[137.490463,35.195695],[137.49527,35.197378],[137.49939,35.196817],[137.502823,35.197378]]],[[[137.539215,35.192328],[137.541962,35.189522],[137.545395,35.188961],[137.546768,35.187278],[137.550201,35.189522],[137.552261,35.1884],[137.555695,35.189522],[137.558441,35.187839],[137.559814,35.188961],[137.568054,35.188961],[137.569427,35.186155],[137.563934,35.183349],[137.561188,35.184472],[137.558441,35.183911],[137.555695,35.181104],[137.547455,35.184472],[137.542648,35.183911],[137.535095,35.180543],[137.533722,35.179421],[137.532349,35.171563],[137.526855,35.166511],[137.523422,35.165389],[137.521362,35.159214],[137.515869,35.156407],[137.513123,35.160337],[137.508316,35.161459],[137.506256,35.164266],[137.504196,35.165389],[137.500763,35.163705],[137.49733,35.169879],[137.498703,35.172124],[137.496643,35.175492],[137.498016,35.177176],[137.49733,35.179421],[137.498703,35.179982],[137.49939,35.185033],[137.506256,35.184472],[137.512436,35.185594],[137.515182,35.183349],[137.513809,35.181104],[137.516556,35.180543],[137.517929,35.178298],[137.523422,35.182227],[137.529602,35.184472],[137.530289,35.186155],[137.536469,35.189522],[137.539215,35.192328]]],[[[137.496643,35.175492],[137.498703,35.172686],[137.49733,35.169879],[137.500076,35.165389],[137.500076,35.164266],[137.49321,35.165389],[137.49115,35.163705],[137.491837,35.162582],[137.489777,35.161459],[137.488403,35.163143],[137.485657,35.160337],[137.48085,35.159775],[137.482224,35.164828],[137.479477,35.172686],[137.48085,35.173247],[137.48085,35.175492],[137.487717,35.174931],[137.496643,35.175492]]]]}},{"type":"Feature","properties":{"layer_id":"bakumatsu_villages","name":"湯谷村・大平村","address":"三河 設楽郡","source":"Geoshape 幕末期近世村領域データセット vector tiles (z7 extraction)","subarea_name":"近世村のおおよその範囲","feature_key":"village:K23G05S00054,K23G05S00065","accuracy_note":"2015年農業集落境界をもとに復元した概略範囲で、江戸時代の正確な村境ではありません"},"geometry":{"type":"Polygon","coordinates":[[[137.526855,35.166511],[137.537155,35.162582],[137.538528,35.160337],[137.536469,35.154162],[137.538528,35.1536],[137.544022,35.147424],[137.540588,35.145179],[137.537842,35.144617],[137.537842,35.140125],[137.535782,35.137318],[137.528915,35.137318],[137.525482,35.138441],[137.520676,35.142933],[137.514496,35.144056],[137.509003,35.147424],[137.506256,35.147424],[137.505569,35.149109],[137.507629,35.150232],[137.509689,35.1536],[137.511749,35.1536],[137.515869,35.156407],[137.521362,35.159214],[137.523422,35.165389],[137.526855,35.166511]]]}},{"type":"Feature","properties":{"layer_id":"bakumatsu_villages","name":"田峯村","address":"三河 設楽郡","source":"Geoshape 幕末期近世村領域データセット vector tiles (z7 extraction)","subarea_name":"近世村のおおよその範囲","feature_key":"village:K23G05S00095","accuracy_note":"2015年農業集落境界をもとに復元した概略範囲で、江戸時代の正確な村境ではありません"},"geometry":{"type":"MultiPolygon","coordinates":[[[[137.480164,35.176615],[137.48085,35.173247],[137.479477,35.172686],[137.482224,35.16595],[137.48085,35.159775],[137.485657,35.160337],[137.488403,35.163143],[137.489777,35.161459],[137.491837,35.162582],[137.49115,35.163705],[137.49321,35.165389],[137.500763,35.163705],[137.504196,35.165389],[137.506256,35.164266],[137.508316,35.161459],[137.513123,35.160337],[137.515869,35.156407],[137.511749,35.1536],[137.509689,35.1536],[137.505569,35.148547],[137.514496,35.144056],[137.520676,35.142933],[137.525482,35.138441],[137.527542,35.138441],[137.533035,35.133387],[137.536469,35.132825],[137.536469,35.131702],[137.533035,35.132264],[137.527542,35.135071],[137.525482,35.133387],[137.522049,35.133387],[137.518616,35.130579],[137.519302,35.129456],[137.521362,35.128894],[137.521362,35.128333],[137.509003,35.121032],[137.511749,35.122155],[137.512436,35.12047],[137.516556,35.121032],[137.517929,35.119347],[137.521362,35.119909],[137.524796,35.118224],[137.494583,35.114292],[137.479477,35.113169],[137.47879,35.111484],[137.479477,35.110922],[137.477417,35.11036],[137.48085,35.11036],[137.484283,35.107552],[137.484283,35.102496],[137.486343,35.101934],[137.48703,35.09744],[137.48909,35.096878],[137.48909,35.096316],[137.487717,35.096316],[137.487717,35.095193],[137.485657,35.094631],[137.48703,35.093507],[137.487717,35.086203],[137.489777,35.086765],[137.490463,35.085641],[137.489777,35.08227],[137.486343,35.077213],[137.482224,35.076089],[137.478104,35.078336],[137.47467,35.078336],[137.463684,35.086765],[137.454071,35.087327],[137.453384,35.087327],[137.454758,35.083956],[137.452698,35.077213],[137.454071,35.076089],[137.454071,35.073279],[137.447891,35.073841],[137.445145,35.071593],[137.443085,35.072717],[137.445145,35.076651],[137.442398,35.081146],[137.436218,35.083394],[137.437592,35.084517],[137.437592,35.085641],[137.435532,35.087327],[137.432785,35.087327],[137.434158,35.091822],[137.433472,35.094069],[137.430038,35.095754],[137.430038,35.100249],[137.428665,35.104181],[137.431412,35.104743],[137.432785,35.108675],[137.436218,35.108675],[137.442398,35.11036],[137.444458,35.112045],[137.443085,35.115415],[137.445145,35.115977],[137.447205,35.119909],[137.446518,35.121032],[137.447891,35.126086],[137.447205,35.128333],[137.444458,35.130579],[137.443085,35.136195],[137.446518,35.136756],[137.451324,35.133387],[137.454071,35.133948],[137.456818,35.133948],[137.459564,35.136756],[137.462311,35.137318],[137.462997,35.139564],[137.467804,35.141248],[137.471237,35.146863],[137.473297,35.146301],[137.47467,35.150232],[137.467804,35.154723],[137.466431,35.158653],[137.461624,35.160337],[137.473984,35.170441],[137.480164,35.176615]]],[[[137.530289,35.123278],[137.529602,35.119347],[137.530289,35.115977],[137.530975,35.115415],[137.535095,35.114854],[137.535782,35.11373],[137.533035,35.110922],[137.531662,35.10699],[137.531662,35.105866],[137.541275,35.101934],[137.542648,35.100249],[137.541962,35.099687],[137.541275,35.099687],[137.539902,35.098563],[137.537842,35.098563],[137.536469,35.09744],[137.538528,35.094069],[137.537842,35.094069],[137.535782,35.096316],[137.532349,35.094631],[137.528915,35.095193],[137.526169,35.09744],[137.527542,35.100811],[137.526169,35.101934],[137.522736,35.101372],[137.521362,35.099687],[137.524796,35.09744],[137.524109,35.094631],[137.520676,35.094069],[137.520676,35.093507],[137.521362,35.091822],[137.524796,35.090698],[137.528229,35.086203],[137.528915,35.083956],[137.530289,35.082832],[137.536469,35.081708],[137.537155,35.078898],[137.526855,35.075527],[137.519302,35.074965],[137.517929,35.074965],[137.517929,35.076089],[137.515869,35.074965],[137.514496,35.074965],[137.513809,35.076089],[137.511063,35.075527],[137.511749,35.077213],[137.510376,35.077213],[137.505569,35.080022],[137.504883,35.081146],[137.502136,35.081146],[137.502823,35.083956],[137.50145,35.085079],[137.500763,35.083956],[137.49939,35.084517],[137.498016,35.086203],[137.490463,35.087889],[137.49115,35.085079],[137.489777,35.082832],[137.490463,35.085641],[137.489777,35.086765],[137.487717,35.086203],[137.48703,35.093507],[137.485657,35.094631],[137.487717,35.095193],[137.487717,35.096316],[137.48909,35.096316],[137.48909,35.096878],[137.48703,35.09744],[137.486343,35.101934],[137.484283,35.102496],[137.484283,35.107552],[137.48085,35.11036],[137.477417,35.110922],[137.479477,35.110922],[137.47879,35.111484],[137.479477,35.113169],[137.494583,35.114292],[137.524796,35.118224],[137.525482,35.117662],[137.530289,35.123278]]],[[[137.537842,35.078336],[137.539215,35.075527],[137.538528,35.071031],[137.540588,35.070469],[137.541275,35.067659],[137.539902,35.064287],[137.532349,35.064849],[137.529602,35.067097],[137.526855,35.075527],[137.537842,35.078336]]],[[[137.526855,35.075527],[137.529602,35.067097],[137.532349,35.064849],[137.537155,35.064287],[137.537842,35.060915],[137.536469,35.059229],[137.538528,35.058105],[137.539215,35.055294],[137.541275,35.051359],[137.538528,35.049111],[137.537842,35.050235],[137.539215,35.052484],[137.534409,35.052484],[137.531662,35.04349],[137.530975,35.042927],[137.525482,35.042927],[137.524796,35.045176],[137.523422,35.0463],[137.523422,35.047987],[137.519989,35.049111],[137.523422,35.055294],[137.523422,35.059791],[137.525482,35.063163],[137.526855,35.075527]]]]}},{"type":"Feature","properties":{"layer_id":"bakumatsu_villages","name":"社脇村・猪之沢村・大久保村","address":"三河 設楽郡","source":"Geoshape 幕末期近世村領域データセット vector tiles (z7 extraction)","subarea_name":"近世村のおおよその範囲","feature_key":"village:K23G05S00060,K23G05S00062,K23G05S00063","accuracy_note":"2015年農業集落境界をもとに復元した概略範囲で、江戸時代の正確な村境ではありません"},"geometry":{"type":"MultiPolygon","coordinates":[[[[137.59964,35.153039],[137.598267,35.154162],[137.592773,35.155284],[137.585907,35.148547],[137.587967,35.146863],[137.585907,35.145179],[137.584534,35.139564],[137.579041,35.135071],[137.577667,35.135071],[137.576981,35.132825],[137.572174,35.129456],[137.573547,35.127771],[137.575607,35.127771],[137.568741,35.122717],[137.551575,35.127771],[137.550888,35.131702],[137.554321,35.137318],[137.555008,35.137318],[137.556381,35.139002],[137.546082,35.144617],[137.544708,35.146863],[137.548828,35.148547],[137.552261,35.146863],[137.552948,35.14967],[137.555008,35.14967],[137.556381,35.149109],[137.562561,35.150232],[137.566681,35.149109],[137.571487,35.14967],[137.573547,35.151354],[137.574234,35.154162],[137.58522,35.160898],[137.587967,35.165389],[137.58934,35.165389],[137.590714,35.166511],[137.594833,35.164266],[137.596893,35.164828],[137.598953,35.158091],[137.59964,35.153039]]],[[[137.59964,35.153039],[137.602386,35.151916],[137.60582,35.151916],[137.607193,35.150232],[137.606506,35.148547],[137.605133,35.150232],[137.603073,35.14967],[137.601013,35.150793],[137.59964,35.153039]]]]}},{"type":"Feature","properties":{"layer_id":"bakumatsu_villages","name":"神田村","address":"三河 設楽郡","source":"Geoshape 幕末期近世村領域データセット vector tiles (z7 extraction)","subarea_name":"近世村のおおよその範囲","feature_key":"village:K23G05S00030","accuracy_note":"2015年農業集落境界をもとに復元した概略範囲で、江戸時代の正確な村境ではありません"},"geometry":{"type":"Polygon","coordinates":[[[137.625046,35.089574],[137.627792,35.088451],[137.631912,35.084517],[137.636719,35.085079],[137.639465,35.083394],[137.636719,35.078898],[137.633286,35.078898],[137.633972,35.075527],[137.632599,35.073279],[137.633972,35.072717],[137.630539,35.070469],[137.624359,35.068783],[137.618179,35.064849],[137.615433,35.061477],[137.609253,35.058667],[137.60788,35.059229],[137.606506,35.057543],[137.603073,35.05698],[137.600327,35.062039],[137.601013,35.065973],[137.60582,35.075527],[137.608566,35.078336],[137.612,35.077775],[137.612686,35.080022],[137.616806,35.08227],[137.619553,35.085641],[137.621613,35.085641],[137.625046,35.089574]]]}},{"type":"Feature","properties":{"layer_id":"bakumatsu_villages","name":"笠井島村","address":"三河 設楽郡","source":"Geoshape 幕末期近世村領域データセット vector tiles (z7 extraction)","subarea_name":"近世村のおおよその範囲","feature_key":"village:K23G05S00096","accuracy_note":"2015年農業集落境界をもとに復元した概略範囲で、江戸時代の正確な村境ではありません"},"geometry":{"type":"Polygon","coordinates":[[[137.456818,35.075527],[137.47261,35.073279],[137.48085,35.071593],[137.48085,35.070469],[137.482224,35.072155],[137.484283,35.069907],[137.485657,35.069907],[137.485657,35.071031],[137.48703,35.070469],[137.488403,35.063725],[137.485657,35.062601],[137.484283,35.064287],[137.478104,35.063163],[137.475357,35.062039],[137.473297,35.057543],[137.470551,35.05417],[137.465744,35.054732],[137.464371,35.053608],[137.460938,35.053608],[137.458191,35.056418],[137.452011,35.054732],[137.449265,35.057543],[137.448578,35.060353],[137.450638,35.062039],[137.451324,35.067097],[137.454071,35.069907],[137.452011,35.072717],[137.456818,35.075527]]]}},{"type":"Feature","properties":{"layer_id":"bakumatsu_villages","name":"筒井村・折立村","address":"三河 設楽郡","source":"Geoshape 幕末期近世村領域データセット vector tiles (z7 extraction)","subarea_name":"近世村のおおよその範囲","feature_key":"village:K23G05S00092,K23G05S00093","accuracy_note":"2015年農業集落境界をもとに復元した概略範囲で、江戸時代の正確な村境ではありません"},"geometry":{"type":"Polygon","coordinates":[[[137.509689,35.061477],[137.523422,35.059791],[137.524109,35.056418],[137.522736,35.052484],[137.517242,35.047987],[137.514496,35.042365],[137.511063,35.040116],[137.508316,35.040116],[137.504196,35.041803],[137.507629,35.044614],[137.506943,35.0463],[137.509689,35.050235],[137.509003,35.051359],[137.506943,35.050235],[137.504883,35.059229],[137.507629,35.059229],[137.509689,35.061477]]]}},{"type":"Feature","properties":{"layer_id":"bakumatsu_villages","name":"荒尾村","address":"三河 設楽郡","source":"Geoshape 幕末期近世村領域データセット vector tiles (z7 extraction)","subarea_name":"近世村のおおよその範囲","feature_key":"village:K23G05S00027","accuracy_note":"2015年農業集落境界をもとに復元した概略範囲で、江戸時代の正確な村境ではありません"},"geometry":{"type":"Polygon","coordinates":[[[137.590714,35.099125],[137.590027,35.092945],[137.601013,35.088451],[137.598953,35.085641],[137.600327,35.08227],[137.59758,35.077775],[137.590714,35.074403],[137.590027,35.072717],[137.588654,35.073841],[137.588654,35.076651],[137.586594,35.081146],[137.579727,35.081708],[137.578354,35.081146],[137.573547,35.084517],[137.575607,35.087889],[137.577667,35.088451],[137.5811,35.092383],[137.584534,35.094631],[137.590714,35.099125]]]}},{"type":"Feature","properties":{"layer_id":"bakumatsu_villages","name":"萩平村","address":"三河 設楽郡","source":"Geoshape 幕末期近世村領域データセット vector tiles (z7 extraction)","subarea_name":"近世村のおおよその範囲","feature_key":"village:K23G05S00086","accuracy_note":"2015年農業集落境界をもとに復元した概略範囲で、江戸時代の正確な村境ではありません"},"geometry":{"type":"Polygon","coordinates":[[[137.566681,35.094069],[137.570801,35.092383],[137.569427,35.091822],[137.570114,35.09126],[137.569427,35.090136],[137.570801,35.089012],[137.568054,35.087889],[137.565994,35.086203],[137.563934,35.085641],[137.560501,35.087889],[137.566681,35.094069]]]}},{"type":"Feature","properties":{"layer_id":"bakumatsu_villages","name":"西路村","address":"三河 設楽郡","source":"Geoshape 幕末期近世村領域データセット vector tiles (z7 extraction)","subarea_name":"近世村のおおよその範囲","feature_key":"village:K23G05S00083","accuracy_note":"2015年農業集落境界をもとに復元した概略範囲で、江戸時代の正確な村境ではありません"},"geometry":{"type":"Polygon","coordinates":[[[137.572861,35.096878],[137.576981,35.094631],[137.578354,35.095754],[137.58316,35.096316],[137.584534,35.094631],[137.5811,35.092383],[137.577667,35.088451],[137.575607,35.087889],[137.574234,35.084517],[137.572174,35.083956],[137.565994,35.086203],[137.568054,35.087889],[137.570801,35.089012],[137.569427,35.090136],[137.570114,35.09126],[137.569427,35.091822],[137.570801,35.092383],[137.568054,35.092945],[137.568054,35.094069],[137.566681,35.094069],[137.560501,35.087889],[137.557755,35.089574],[137.557755,35.091822],[137.559814,35.094631],[137.559128,35.096878],[137.562561,35.099125],[137.562561,35.101372],[137.563248,35.098563],[137.568054,35.095754],[137.572174,35.096878],[137.572861,35.096878]]]}},{"type":"Feature","properties":{"layer_id":"bakumatsu_villages","name":"長江村","address":"三河 設楽郡","source":"Geoshape 幕末期近世村領域データセット vector tiles (z7 extraction)","subarea_name":"近世村のおおよその範囲","feature_key":"village:K23G05S00026","accuracy_note":"2015年農業集落境界をもとに復元した概略範囲で、江戸時代の正確な村境ではありません"},"geometry":{"type":"Polygon","coordinates":[[[137.59758,35.122717],[137.600327,35.119347],[137.608566,35.116539],[137.60788,35.11373],[137.60582,35.111484],[137.60582,35.104743],[137.601013,35.104181],[137.596893,35.101934],[137.590027,35.10699],[137.59346,35.109798],[137.587967,35.112607],[137.586594,35.114854],[137.583847,35.115415],[137.582474,35.1171],[137.581787,35.119347],[137.583847,35.122155],[137.58934,35.121032],[137.590714,35.122717],[137.59346,35.121593],[137.59758,35.122717]]]}},{"type":"Feature","properties":{"layer_id":"bakumatsu_villages","name":"門谷村・黒谷村・峯村・田代村","address":"三河 設楽郡","source":"Geoshape 幕末期近世村領域データセット vector tiles (z7 extraction)","subarea_name":"近世村のおおよその範囲","feature_key":"village:K23G05S00133,K23G05S00134,K23G05S00135,K23G05S00136","accuracy_note":"2015年農業集落境界をもとに復元した概略範囲で、江戸時代の正確な村境ではありません"},"geometry":{"type":"Polygon","coordinates":[[[137.618866,35.019313],[137.629852,35.017626],[137.628479,35.013689],[137.631226,35.007503],[137.633286,35.007503],[137.634659,35.005816],[137.635345,35.002441],[137.639465,35.001878],[137.641525,34.999629],[137.641525,34.997941],[137.639465,34.994004],[137.636032,34.993441],[137.633286,34.994566],[137.629852,34.994004],[137.625732,34.991191],[137.620926,34.990629],[137.619553,34.991754],[137.618866,34.996816],[137.617493,34.997941],[137.604446,34.988941],[137.596893,34.986691],[137.594833,34.984441],[137.59346,34.981065],[137.590027,34.961372],[137.588654,34.960809],[137.5811,34.962497],[137.577667,34.964748],[137.572174,34.965311],[137.570801,34.963623],[137.572174,34.960809],[137.568741,34.957433],[137.566681,34.95687],[137.555695,34.959121],[137.552948,34.958558],[137.552261,34.960809],[137.550201,34.961372],[137.550888,34.962497],[137.555008,34.965311],[137.558441,34.972063],[137.581787,34.983878],[137.584534,34.986691],[137.583847,34.991754],[137.584534,34.996254],[137.579041,34.999629],[137.575607,35.003566],[137.581787,35.008065],[137.582474,35.010315],[137.587967,35.01144],[137.598953,35.019313],[137.60376,35.016501],[137.606506,35.017626],[137.610626,35.017063],[137.618866,35.019313]]]}},{"type":"Feature","properties":{"layer_id":"edo_post_stations","name":"上津具","address":"","source":"CODH 江戸宿場データセット Version 1 (2026-08)","feature_key":"post:R505-005"},"geometry":{"type":"Point","coordinates":[137.618187,35.170193]}},{"type":"Feature","properties":{"layer_id":"edo_post_stations","name":"田口","address":"","source":"CODH 江戸宿場データセット Version 1 (2026-08)","feature_key":"post:R505-004"},"geometry":{"coordinates":[137.5694,35.09749],"type":"Point"}},{"type":"Feature","properties":{"layer_id":"historical_sites_archaeology","name":"丸根古墳","address":"愛知県 北設楽郡設楽町 東納庫","source":"Geoshape 日本歴史地名大系 施設・地点項目データセット 2025-05-15","subarea_name":"古墳","feature_key":"06_kofun.geojson:230000446600","subtype":"古墳"},"geometry":{"type":"Point","coordinates":[137.534924,35.152795]}},{"type":"Feature","properties":{"layer_id":"historical_sites_archaeology","name":"大名倉遺跡","address":"愛知県 北設楽郡設楽町 大名倉","source":"Geoshape 日本歴史地名大系 施設・地点項目データセット 2025-05-15","subarea_name":"遺跡","feature_key":"08_archaeological_sites.geojson:230000445600","subtype":"遺跡"},"geometry":{"type":"Point","coordinates":[137.545511,35.109046]}},{"type":"Feature","properties":{"layer_id":"historical_sites_archaeology","name":"大根平遺跡","address":"愛知県 北設楽郡設楽町 津具","source":"Geoshape 日本歴史地名大系 施設・地点項目データセット 2025-05-15","subarea_name":"遺跡","feature_key":"08_archaeological_sites.geojson:230000450600","subtype":"遺跡"},"geometry":{"type":"Point","coordinates":[137.629065,35.168035]}},{"type":"Feature","properties":{"layer_id":"historical_sites_archaeology","name":"市場口遺跡","address":"愛知県 北設楽郡設楽町 川向","source":"Geoshape 日本歴史地名大系 施設・地点項目データセット 2025-05-15","subarea_name":"遺跡","feature_key":"08_archaeological_sites.geojson:230000445800","subtype":"遺跡"},"geometry":{"type":"Point","coordinates":[137.55893,35.128258]}},{"type":"Feature","properties":{"layer_id":"historical_sites_archaeology","name":"田峯城跡","address":"愛知県 北設楽郡設楽町 田峯","source":"Geoshape 日本歴史地名大系 施設・地点項目データセット 2025-05-15","subarea_name":"城跡","feature_key":"05_castle_ruins.geojson:230000445100","subtype":"城跡"},"geometry":{"type":"Point","coordinates":[137.53475,35.054768]}},{"type":"Feature","properties":{"layer_id":"historical_sites_archaeology","name":"白鳥山城跡","address":"愛知県 北設楽郡設楽町 津具","source":"Geoshape 日本歴史地名大系 施設・地点項目データセット 2025-05-15","subarea_name":"城跡","feature_key":"05_castle_ruins.geojson:230000450800","subtype":"城跡"},"geometry":{"type":"Point","coordinates":[137.650479,35.155525]}},{"type":"Feature","properties":{"layer_id":"historical_sites_archaeology","name":"鞍船遺跡","address":"愛知県 北設楽郡設楽町 津具","source":"Geoshape 日本歴史地名大系 施設・地点項目データセット 2025-05-15","subarea_name":"遺跡","feature_key":"08_archaeological_sites.geojson:230000450500","subtype":"遺跡"},"geometry":{"type":"Point","coordinates":[137.623781,35.173781]}},{"type":"Feature","properties":{"layer_id":"historical_temples_shrines","name":"竜泉寺","address":"愛知県 一宮市 浅井町小日比野1679番地","source":"Geoshape 日本歴史地名大系 施設・地点項目データセット 2025-05-15","subarea_name":"寺院","feature_key":"01_temples.geojson:230000105200","subtype":"寺院"},"geometry":{"type":"Point","coordinates":[137.576052,35.091589]}}]}