{"type":"FeatureCollection","municipality_code":"24208","pref":"三重県","city":"名張市","layer_counts":{"bakumatsu_villages":47,"edo_post_stations":2,"historical_sites_archaeology":16,"historical_temples_shrines":16},"total_features":81,"features":[{"type":"Feature","properties":{"layer_id":"bakumatsu_villages","name":"一ノ井村","address":"伊賀 名張郡","source":"Geoshape 幕末期近世村領域データセット vector tiles (z7 extraction)","subarea_name":"近世村のおおよその範囲","feature_key":"village:K28G03S00033","accuracy_note":"2015年農業集落境界をもとに復元した概略範囲で、江戸時代の正確な村境ではありません"},"geometry":{"type":"MultiPolygon","coordinates":[[[[136.071854,34.59365],[136.071167,34.591389],[136.069794,34.59252],[136.069794,34.593085],[136.07048,34.59365],[136.071854,34.59365]]],[[[136.073227,34.594781],[136.075287,34.594215],[136.08078,34.589693],[136.080093,34.587432],[136.073227,34.586867],[136.071854,34.587997],[136.071167,34.591389],[136.071854,34.59365],[136.073227,34.594781]]]]}},{"type":"Feature","properties":{"layer_id":"bakumatsu_villages","name":"丈六村","address":"伊賀 名張郡","source":"Geoshape 幕末期近世村領域データセット vector tiles (z7 extraction)","subarea_name":"近世村のおおよその範囲","feature_key":"village:K28G03S00035","accuracy_note":"2015年農業集落境界をもとに復元した概略範囲で、江戸時代の正確な村境ではありません"},"geometry":{"type":"Polygon","coordinates":[[[136.07254,34.606085],[136.075974,34.602694],[136.078033,34.603259],[136.07666,34.599868],[136.077347,34.597042],[136.069794,34.593085],[136.069107,34.603259],[136.07254,34.606085]]]}},{"type":"Feature","properties":{"layer_id":"bakumatsu_villages","name":"上三谷村","address":"伊賀 名張郡","source":"Geoshape 幕末期近世村領域データセット vector tiles (z7 extraction)","subarea_name":"近世村のおおよその範囲","feature_key":"village:K28G03S00030","accuracy_note":"2015年農業集落境界をもとに復元した概略範囲で、江戸時代の正確な村境ではありません"},"geometry":{"type":"Polygon","coordinates":[[[136.069794,34.584606],[136.073227,34.58404],[136.075287,34.579518],[136.0746,34.57443],[136.07254,34.573299],[136.067734,34.574995],[136.06636,34.577256],[136.061554,34.581779],[136.062241,34.583475],[136.069794,34.584606]]]}},{"type":"Feature","properties":{"layer_id":"bakumatsu_villages","name":"上小波田村（小波田村）","address":"伊賀 伊賀郡","source":"Geoshape 幕末期近世村領域データセット vector tiles (z7 extraction)","subarea_name":"近世村のおおよその範囲","feature_key":"village:K28G04S00045","accuracy_note":"2015年農業集落境界をもとに復元した概略範囲で、江戸時代の正確な村境ではありません"},"geometry":{"type":"Polygon","coordinates":[[[136.137772,34.654109],[136.140518,34.65072],[136.141205,34.647331],[136.144638,34.646766],[136.145325,34.645636],[136.142578,34.641117],[136.144638,34.636598],[136.141891,34.635468],[136.137772,34.634903],[136.137772,34.638293],[136.138458,34.639987],[136.135712,34.642247],[136.133652,34.642812],[136.132278,34.646201],[136.132965,34.649026],[136.135712,34.650155],[136.137772,34.654109]]]}},{"type":"Feature","properties":{"layer_id":"bakumatsu_villages","name":"上比奈知村","address":"伊賀 名張郡","source":"Geoshape 幕末期近世村領域データセット vector tiles (z7 extraction)","subarea_name":"近世村のおおよその範囲","feature_key":"village:K28G03S00010","accuracy_note":"2015年農業集落境界をもとに復元した概略範囲で、江戸時代の正確な村境ではありません"},"geometry":{"type":"Polygon","coordinates":[[[136.145325,34.624168],[136.151505,34.620777],[136.159744,34.617952],[136.161118,34.616257],[136.167984,34.613431],[136.169357,34.611171],[136.174164,34.611736],[136.174164,34.610041],[136.172104,34.609475],[136.163177,34.602694],[136.159058,34.602128],[136.155624,34.604389],[136.150818,34.603259],[136.145325,34.60778],[136.145325,34.610606],[136.139145,34.612866],[136.139145,34.616257],[136.135025,34.619647],[136.136398,34.620777],[136.141205,34.621343],[136.145325,34.624168]]]}},{"type":"Feature","properties":{"layer_id":"bakumatsu_villages","name":"下三谷村","address":"伊賀 名張郡","source":"Geoshape 幕末期近世村領域データセット vector tiles (z7 extraction)","subarea_name":"近世村のおおよその範囲","feature_key":"village:K28G03S00021","accuracy_note":"2015年農業集落境界をもとに復元した概略範囲で、江戸時代の正確な村境ではありません"},"geometry":{"type":"Polygon","coordinates":[[[136.082153,34.647896],[136.087646,34.643942],[136.08902,34.639987],[136.083527,34.639987],[136.083527,34.639422],[136.07872,34.638857],[136.075287,34.639987],[136.073227,34.642812],[136.07666,34.643942],[136.082153,34.647896]]]}},{"type":"Feature","properties":{"layer_id":"bakumatsu_villages","name":"下小波田村（小波田村）","address":"伊賀 伊賀郡","source":"Geoshape 幕末期近世村領域データセット vector tiles (z7 extraction)","subarea_name":"近世村のおおよその範囲","feature_key":"village:K28G04S00040","accuracy_note":"2015年農業集落境界をもとに復元した概略範囲で、江戸時代の正確な村境ではありません"},"geometry":{"type":"Polygon","coordinates":[[[136.148758,34.658628],[136.150131,34.657498],[136.149445,34.654109],[136.152878,34.654109],[136.151505,34.647331],[136.145325,34.645636],[136.140518,34.648461],[136.140518,34.65072],[136.137085,34.655804],[136.137085,34.658628],[136.148758,34.658628]]]}},{"type":"Feature","properties":{"layer_id":"bakumatsu_villages","name":"下比奈知村","address":"伊賀 名張郡","source":"Geoshape 幕末期近世村領域データセット vector tiles (z7 extraction)","subarea_name":"近世村のおおよその範囲","feature_key":"village:K28G03S00008","accuracy_note":"2015年農業集落境界をもとに復元した概略範囲で、江戸時代の正確な村境ではありません"},"geometry":{"type":"Polygon","coordinates":[[[136.143265,34.636033],[136.143265,34.634338],[136.141891,34.632078],[136.141205,34.627558],[136.145325,34.624168],[136.141205,34.621343],[136.136398,34.620777],[136.135025,34.619647],[136.139832,34.615692],[136.139145,34.612866],[136.135712,34.615127],[136.135025,34.614562],[136.133652,34.610041],[136.126785,34.607215],[136.122665,34.607215],[136.124039,34.611171],[136.119919,34.615127],[136.117859,34.617952],[136.115112,34.619082],[136.114426,34.624168],[136.119919,34.628123],[136.133652,34.628688],[136.137772,34.634903],[136.143265,34.636033]]]}},{"type":"Feature","properties":{"layer_id":"bakumatsu_villages","name":"中村","address":"伊賀 名張郡","source":"Geoshape 幕末期近世村領域データセット vector tiles (z7 extraction)","subarea_name":"近世村のおおよその範囲","feature_key":"village:K28G03S00040","accuracy_note":"2015年農業集落境界をもとに復元した概略範囲で、江戸時代の正確な村境ではありません"},"geometry":{"type":"Polygon","coordinates":[[[136.08284,34.618517],[136.0849,34.617952],[136.087646,34.613431],[136.09314,34.611736],[136.094513,34.60778],[136.100006,34.605519],[136.0952,34.600433],[136.08902,34.601563],[136.085587,34.60665],[136.081467,34.610041],[136.084213,34.613996],[136.08284,34.618517]]]}},{"type":"Feature","properties":{"layer_id":"bakumatsu_villages","name":"中村（小波田村）","address":"伊賀 伊賀郡","source":"Geoshape 幕末期近世村領域データセット vector tiles (z7 extraction)","subarea_name":"近世村のおおよその範囲","feature_key":"village:K28G04S00046","accuracy_note":"2015年農業集落境界をもとに復元した概略範囲で、江戸時代の正確な村境ではありません"},"geometry":{"type":"Polygon","coordinates":[[[136.125412,34.663711],[136.127472,34.661452],[136.128845,34.662017],[136.129532,34.660887],[136.135712,34.660887],[136.134338,34.659193],[136.137085,34.658628],[136.137772,34.654109],[136.135712,34.650155],[136.132965,34.649026],[136.132278,34.645636],[136.133652,34.642812],[136.138458,34.640552],[136.137772,34.638857],[136.137772,34.638293],[136.132965,34.640552],[136.130905,34.644507],[136.125412,34.643377],[136.122665,34.651285],[136.116486,34.649026],[136.115112,34.65298],[136.117172,34.652415],[136.122665,34.654109],[136.121292,34.655239],[136.122665,34.657498],[136.122665,34.660322],[136.125412,34.663711]]]}},{"type":"Feature","properties":{"layer_id":"bakumatsu_villages","name":"井手村","address":"伊賀 名張郡","source":"Geoshape 幕末期近世村領域データセット vector tiles (z7 extraction)","subarea_name":"近世村のおおよその範囲","feature_key":"village:K28G03S00027","accuracy_note":"2015年農業集落境界をもとに復元した概略範囲で、江戸時代の正確な村境ではありません"},"geometry":{"type":"Polygon","coordinates":[[[136.060867,34.616822],[136.062241,34.616257],[136.067734,34.612866],[136.07048,34.607215],[136.07254,34.606085],[136.069794,34.604389],[136.06636,34.607215],[136.055374,34.610606],[136.056061,34.611171],[136.059494,34.615692],[136.060867,34.616822]]]}},{"type":"Feature","properties":{"layer_id":"bakumatsu_villages","name":"八幡村","address":"伊賀 名張郡","source":"Geoshape 幕末期近世村領域データセット vector tiles (z7 extraction)","subarea_name":"近世村のおおよその範囲","feature_key":"village:K28G03S00017","accuracy_note":"2015年農業集落境界をもとに復元した概略範囲で、江戸時代の正確な村境ではありません"},"geometry":{"type":"Polygon","coordinates":[[[136.09726,34.656369],[136.104126,34.652415],[136.110992,34.65072],[136.112366,34.649591],[136.115112,34.648461],[136.102753,34.645636],[136.09726,34.647331],[136.090393,34.644507],[136.084213,34.647896],[136.082153,34.647896],[136.082153,34.650155],[136.08284,34.651285],[136.0952,34.653545],[136.09726,34.656369]]]}},{"type":"Feature","properties":{"layer_id":"bakumatsu_villages","name":"北出村","address":"伊賀 名張郡","source":"Geoshape 幕末期近世村領域データセット vector tiles (z7 extraction)","subarea_name":"近世村のおおよその範囲","feature_key":"village:K28G03S00002","accuracy_note":"2015年農業集落境界をもとに復元した概略範囲で、江戸時代の正確な村境ではありません"},"geometry":{"type":"Polygon","coordinates":[[[136.092453,34.630383],[136.089706,34.626428],[136.086273,34.623603],[136.08078,34.625863],[136.084213,34.628688],[136.092453,34.630383]]]}},{"type":"Feature","properties":{"layer_id":"bakumatsu_villages","name":"南出村","address":"伊賀 名張郡","source":"Geoshape 幕末期近世村領域データセット vector tiles (z7 extraction)","subarea_name":"近世村のおおよその範囲","feature_key":"village:K28G03S00003","accuracy_note":"2015年農業集落境界をもとに復元した概略範囲で、江戸時代の正確な村境ではありません"},"geometry":{"type":"Polygon","coordinates":[[[136.08078,34.625863],[136.086273,34.623603],[136.08284,34.618517],[136.080093,34.620212],[136.07872,34.622473],[136.08078,34.625863]]]}},{"type":"Feature","properties":{"layer_id":"bakumatsu_villages","name":"南村（小波田村）","address":"伊賀 伊賀郡","source":"Geoshape 幕末期近世村領域データセット vector tiles (z7 extraction)","subarea_name":"近世村のおおよその範囲","feature_key":"village:K28G04S00048","accuracy_note":"2015年農業集落境界をもとに復元した概略範囲で、江戸時代の正確な村境ではありません"},"geometry":{"type":"Polygon","coordinates":[[[136.119232,34.688557],[136.124039,34.686863],[136.125412,34.683476],[136.131592,34.682346],[136.126785,34.678958],[136.124725,34.676135],[136.120605,34.674441],[136.121292,34.672182],[136.112366,34.670488],[136.112366,34.671617],[136.114426,34.673312],[136.113739,34.677829],[136.116486,34.682346],[136.115799,34.68404],[136.119232,34.688557]]]}},{"type":"Feature","properties":{"layer_id":"bakumatsu_villages","name":"夏秋村","address":"伊賀 名張郡","source":"Geoshape 幕末期近世村領域データセット vector tiles (z7 extraction)","subarea_name":"近世村のおおよその範囲","feature_key":"village:K28G03S00023","accuracy_note":"2015年農業集落境界をもとに復元した概略範囲で、江戸時代の正確な村境ではありません"},"geometry":{"type":"Polygon","coordinates":[[[136.096573,34.637728],[136.093826,34.635468],[136.091766,34.636598],[136.08902,34.637163],[136.08902,34.639987],[136.087646,34.643942],[136.082153,34.647896],[136.0849,34.647331],[136.089706,34.644507],[136.09726,34.647331],[136.101379,34.645636],[136.100693,34.638857],[136.098633,34.637728],[136.096573,34.637728]]]}},{"type":"Feature","properties":{"layer_id":"bakumatsu_villages","name":"夏見村","address":"伊賀 名張郡","source":"Geoshape 幕末期近世村領域データセット vector tiles (z7 extraction)","subarea_name":"近世村のおおよその範囲","feature_key":"village:K28G03S00007","accuracy_note":"2015年農業集落境界をもとに復元した概略範囲で、江戸時代の正確な村境ではありません"},"geometry":{"type":"Polygon","coordinates":[[[136.108246,34.625863],[136.114426,34.624168],[136.115112,34.619082],[136.117859,34.617952],[136.119919,34.615127],[136.123352,34.611736],[136.117172,34.60665],[136.113739,34.60778],[136.109619,34.60665],[136.102753,34.60665],[136.102066,34.609475],[136.098633,34.610041],[136.0952,34.614562],[136.0952,34.618517],[136.098633,34.618517],[136.100006,34.620777],[136.104813,34.623603],[136.106186,34.625298],[136.108246,34.625863]]]}},{"type":"Feature","properties":{"layer_id":"bakumatsu_villages","name":"大屋戸村","address":"伊賀 名張郡","source":"Geoshape 幕末期近世村領域データセット vector tiles (z7 extraction)","subarea_name":"近世村のおおよその範囲","feature_key":"village:K28G03S00024","accuracy_note":"2015年農業集落境界をもとに復元した概略範囲で、江戸時代の正確な村境ではありません"},"geometry":{"type":"MultiPolygon","coordinates":[[[[136.096573,34.637728],[136.099319,34.637728],[136.100693,34.637163],[136.099319,34.632078],[136.093826,34.635468],[136.096573,34.637728]]],[[[136.08696,34.637163],[136.091766,34.636598],[136.099319,34.632078],[136.095886,34.630948],[136.0849,34.628688],[136.084213,34.631513],[136.08696,34.633773],[136.08696,34.637163]]]]}},{"type":"Feature","properties":{"layer_id":"bakumatsu_villages","name":"奈垣村","address":"伊賀 名張郡","source":"Geoshape 幕末期近世村領域データセット vector tiles (z7 extraction)","subarea_name":"近世村のおおよその範囲","feature_key":"village:K28G03S00014","accuracy_note":"2015年農業集落境界をもとに復元した概略範囲で、江戸時代の正確な村境ではありません"},"geometry":{"type":"Polygon","coordinates":[[[136.135712,34.615127],[136.139145,34.612866],[136.145325,34.610041],[136.145325,34.60778],[136.147385,34.60665],[136.144638,34.602128],[136.145325,34.599302],[136.150131,34.59365],[136.154938,34.59252],[136.156311,34.589128],[136.151505,34.589128],[136.144638,34.594215],[136.139145,34.594215],[136.135712,34.597607],[136.126099,34.597607],[136.123352,34.603259],[136.122665,34.607215],[136.126785,34.607215],[136.133652,34.610041],[136.135025,34.614562],[136.135712,34.615127]]]}},{"type":"Feature","properties":{"layer_id":"bakumatsu_villages","name":"安部田村","address":"伊賀 名張郡","source":"Geoshape 幕末期近世村領域データセット vector tiles (z7 extraction)","subarea_name":"近世村のおおよその範囲","feature_key":"village:K28G03S00028","accuracy_note":"2015年農業集落境界をもとに復元した概略範囲で、江戸時代の正確な村境ではありません"},"geometry":{"type":"MultiPolygon","coordinates":[[[[136.056061,34.610606],[136.06636,34.607215],[136.069794,34.604389],[136.069107,34.600433],[136.056061,34.604954],[136.050568,34.605519],[136.049881,34.606085],[136.054001,34.610041],[136.056061,34.610606]]],[[[136.050568,34.605519],[136.056061,34.604954],[136.064987,34.601563],[136.062241,34.597607],[136.050568,34.605519]]],[[[136.049881,34.604954],[136.056061,34.602128],[136.062241,34.597607],[136.064987,34.601563],[136.069107,34.600433],[136.069107,34.597042],[136.059494,34.595346],[136.056061,34.598172],[136.052628,34.599302],[136.052628,34.597607],[136.051254,34.596476],[136.049194,34.597607],[136.048508,34.595911],[136.046448,34.600998],[136.049881,34.604954]]],[[[136.052628,34.599302],[136.056061,34.598172],[136.059494,34.595346],[136.063614,34.596476],[136.063614,34.594781],[136.062241,34.594215],[136.060867,34.587432],[136.056061,34.587432],[136.054688,34.584606],[136.053314,34.58404],[136.051941,34.578952],[136.051254,34.581214],[136.049194,34.580648],[136.046448,34.585736],[136.047821,34.587432],[136.050568,34.587432],[136.051941,34.589693],[136.050568,34.590824],[136.051941,34.59365],[136.048508,34.595346],[136.048508,34.597042],[136.049881,34.597607],[136.051254,34.596476],[136.051254,34.597607],[136.052628,34.597607],[136.052628,34.599302]]]]}},{"type":"Feature","properties":{"layer_id":"bakumatsu_villages","name":"家野村","address":"伊賀 名張郡","source":"Geoshape 幕末期近世村領域データセット vector tiles (z7 extraction)","subarea_name":"近世村のおおよその範囲","feature_key":"village:K28G03S00018","accuracy_note":"2015年農業集落境界をもとに復元した概略範囲で、江戸時代の正確な村境ではありません"},"geometry":{"type":"Polygon","coordinates":[[[136.085587,34.659758],[136.083527,34.656934],[136.075974,34.654109],[136.069794,34.65072],[136.064987,34.652415],[136.07048,34.658063],[136.075974,34.659758],[136.078033,34.658628],[136.085587,34.659758]]]}},{"type":"Feature","properties":{"layer_id":"bakumatsu_villages","name":"布生村","address":"伊賀 名張郡","source":"Geoshape 幕末期近世村領域データセット vector tiles (z7 extraction)","subarea_name":"近世村のおおよその範囲","feature_key":"village:K28G03S00012","accuracy_note":"2015年農業集落境界をもとに復元した概略範囲で、江戸時代の正確な村境ではありません"},"geometry":{"type":"MultiPolygon","coordinates":[[[[136.148758,34.586302],[136.152191,34.581779],[136.156998,34.581779],[136.159744,34.579518],[136.161118,34.57556],[136.167297,34.571603],[136.167984,34.568776],[136.166611,34.561425],[136.161118,34.554639],[136.157684,34.552377],[136.156998,34.552942],[136.157684,34.555204],[136.155624,34.55577],[136.154938,34.560294],[136.150818,34.559163],[136.150818,34.55577],[136.150131,34.55577],[136.146011,34.556335],[136.143265,34.557466],[136.143951,34.559728],[136.141891,34.56199],[136.146011,34.565948],[136.145325,34.567079],[136.147385,34.574995],[136.145325,34.58291],[136.145325,34.584606],[136.148071,34.585171],[136.148758,34.586302]]],[[[136.149445,34.591389],[136.152878,34.589128],[136.162491,34.589128],[136.165237,34.588563],[136.164551,34.586302],[136.165924,34.58404],[136.163864,34.580083],[136.17691,34.568776],[136.173477,34.562556],[136.170044,34.56199],[136.163864,34.549549],[136.161118,34.548418],[136.157684,34.552377],[136.161118,34.554639],[136.166611,34.561425],[136.167984,34.56821],[136.167297,34.570472],[136.161118,34.57556],[136.158371,34.580648],[136.152191,34.581779],[136.150131,34.583475],[136.148758,34.586867],[136.144638,34.588563],[136.146011,34.588563],[136.145325,34.590259],[136.148071,34.591389],[136.149445,34.591389]]]]}},{"type":"Feature","properties":{"layer_id":"bakumatsu_villages","name":"平尾村","address":"伊賀 名張郡","source":"Geoshape 幕末期近世村領域データセット vector tiles (z7 extraction)","subarea_name":"近世村のおおよその範囲","feature_key":"village:K28G03S00004","accuracy_note":"2015年農業集落境界をもとに復元した概略範囲で、江戸時代の正確な村境ではありません"},"geometry":{"type":"Polygon","coordinates":[[[136.104126,34.628688],[136.106186,34.625298],[136.104813,34.623603],[136.100006,34.620777],[136.098633,34.618517],[136.092453,34.618517],[136.093826,34.621343],[136.095886,34.626993],[136.101379,34.626428],[136.104126,34.628688]]]}},{"type":"Feature","properties":{"layer_id":"bakumatsu_villages","name":"新田村（小波田村）","address":"伊賀 伊賀郡","source":"Geoshape 幕末期近世村領域データセット vector tiles (z7 extraction)","subarea_name":"近世村のおおよその範囲","feature_key":"village:K28G04S00044","accuracy_note":"2015年農業集落境界をもとに復元した概略範囲で、江戸時代の正確な村境ではありません"},"geometry":{"type":"Polygon","coordinates":[[[136.139145,34.671617],[136.140518,34.670488],[136.142578,34.671053],[136.143265,34.668794],[136.141891,34.668794],[136.143265,34.6671],[136.141891,34.66597],[136.141891,34.664841],[136.143951,34.664276],[136.143951,34.663146],[136.145325,34.663711],[136.148758,34.661452],[136.148758,34.658628],[136.137085,34.658628],[136.134338,34.659193],[136.135712,34.660322],[136.135025,34.660887],[136.130219,34.660887],[136.128845,34.662017],[136.127472,34.661452],[136.123352,34.664841],[136.123352,34.668794],[136.124039,34.668229],[136.125412,34.668794],[136.128159,34.671617],[136.128159,34.669359],[136.132278,34.669923],[136.132965,34.671053],[136.135025,34.669923],[136.137085,34.671053],[136.139145,34.671617]]]}},{"type":"Feature","properties":{"layer_id":"bakumatsu_villages","name":"星川村","address":"伊賀 名張郡","source":"Geoshape 幕末期近世村領域データセット vector tiles (z7 extraction)","subarea_name":"近世村のおおよその範囲","feature_key":"village:K28G03S00038","accuracy_note":"2015年農業集落境界をもとに復元した概略範囲で、江戸時代の正確な村境ではありません"},"geometry":{"type":"Polygon","coordinates":[[[136.08902,34.601563],[136.094513,34.600998],[136.097946,34.598172],[136.09726,34.595346],[136.098633,34.590259],[136.097946,34.586867],[136.100006,34.582344],[136.09726,34.580648],[136.09108,34.58291],[136.09108,34.587432],[136.086273,34.591954],[136.086273,34.597607],[136.08902,34.599868],[136.088333,34.601563],[136.08902,34.601563]]]}},{"type":"Feature","properties":{"layer_id":"bakumatsu_villages","name":"東田原村（小波田村）","address":"伊賀 伊賀郡","source":"Geoshape 幕末期近世村領域データセット vector tiles (z7 extraction)","subarea_name":"近世村のおおよその範囲","feature_key":"village:K28G04S00047","accuracy_note":"2015年農業集落境界をもとに復元した概略範囲で、江戸時代の正確な村境ではありません"},"geometry":{"type":"MultiPolygon","coordinates":[[[[136.121292,34.672182],[136.123352,34.668794],[136.122665,34.665405],[136.125412,34.663711],[136.122665,34.660322],[136.116486,34.658628],[136.112366,34.655239],[136.113739,34.653545],[136.115112,34.65298],[136.116486,34.649026],[136.115112,34.648461],[136.112366,34.649591],[136.110992,34.651285],[136.111679,34.657498],[136.110306,34.660887],[136.109619,34.6671],[136.112366,34.670488],[136.121292,34.672182]]],[[[136.122665,34.660322],[136.122665,34.657498],[136.121292,34.655239],[136.122665,34.654109],[136.117172,34.652415],[136.113739,34.653545],[136.112366,34.655239],[136.113739,34.656369],[136.117172,34.658628],[136.122665,34.660322]]]]}},{"type":"Feature","properties":{"layer_id":"bakumatsu_villages","name":"柏原村","address":"伊賀 名張郡","source":"Geoshape 幕末期近世村領域データセット vector tiles (z7 extraction)","subarea_name":"近世村のおおよその範囲","feature_key":"village:K28G03S00034","accuracy_note":"2015年農業集落境界をもとに復元した概略範囲で、江戸時代の正確な村境ではありません"},"geometry":{"type":"MultiPolygon","coordinates":[[[[136.083527,34.604389],[136.084213,34.602128],[136.088333,34.599302],[136.086273,34.597607],[136.085587,34.594215],[136.081467,34.598737],[136.079407,34.603259],[136.083527,34.604389]]],[[[136.08078,34.597607],[136.08696,34.590824],[136.09108,34.587997],[136.09108,34.58291],[136.0849,34.585171],[136.083527,34.587432],[136.080093,34.587432],[136.08078,34.589693],[136.077347,34.593085],[136.073227,34.594781],[136.077347,34.597042],[136.08078,34.597607]]]]}},{"type":"Feature","properties":{"layer_id":"bakumatsu_villages","name":"梁瀬村","address":"伊賀 名張郡","source":"Geoshape 幕末期近世村領域データセット vector tiles (z7 extraction)","subarea_name":"近世村のおおよその範囲","feature_key":"village:K28G03S00001","accuracy_note":"2015年農業集落境界をもとに復元した概略範囲で、江戸時代の正確な村境ではありません"},"geometry":{"type":"MultiPolygon","coordinates":[[[[136.09108,34.628123],[136.095886,34.626993],[136.093826,34.621343],[136.09108,34.624168],[136.089706,34.626428],[136.09108,34.628123]]],[[[136.100693,34.633208],[136.104126,34.628688],[136.101379,34.626428],[136.098633,34.626993],[136.0952,34.626428],[136.09108,34.628123],[136.092453,34.629818],[136.09726,34.630948],[136.100693,34.633208]]],[[[136.089706,34.626428],[136.09108,34.624168],[136.08902,34.622473],[136.092453,34.618517],[136.083527,34.617952],[136.08284,34.618517],[136.0849,34.622473],[136.089706,34.626428]]],[[[136.09108,34.624168],[136.093826,34.621343],[136.09314,34.619082],[136.092453,34.619082],[136.08902,34.622473],[136.09108,34.624168]]]]}},{"type":"Feature","properties":{"layer_id":"bakumatsu_villages","name":"檀村","address":"伊賀 名張郡","source":"Geoshape 幕末期近世村領域データセット vector tiles (z7 extraction)","subarea_name":"近世村のおおよその範囲","feature_key":"village:K28G03S00037","accuracy_note":"2015年農業集落境界をもとに復元した概略範囲で、江戸時代の正確な村境ではありません"},"geometry":{"type":"Polygon","coordinates":[[[136.079407,34.603259],[136.081467,34.598737],[136.085587,34.594215],[136.086273,34.591954],[136.08078,34.597607],[136.077347,34.597042],[136.07666,34.599868],[136.078033,34.603259],[136.079407,34.603259]]]}},{"type":"Feature","properties":{"layer_id":"bakumatsu_villages","name":"滝ノ原村","address":"伊賀 名張郡","source":"Geoshape 幕末期近世村領域データセット vector tiles (z7 extraction)","subarea_name":"近世村のおおよその範囲","feature_key":"village:K28G03S00009","accuracy_note":"2015年農業集落境界をもとに復元した概略範囲で、江戸時代の正確な村境ではありません"},"geometry":{"type":"Polygon","coordinates":[[[136.151505,34.647331],[136.152191,34.645636],[136.154938,34.643377],[136.160431,34.641117],[136.161118,34.639422],[136.167297,34.636598],[136.172104,34.633208],[136.171417,34.632643],[136.173477,34.631513],[136.17485,34.629253],[136.17897,34.626993],[136.175537,34.616257],[136.18103,34.611736],[136.180344,34.609475],[136.17897,34.608345],[136.174164,34.610041],[136.173477,34.611736],[136.169357,34.611171],[136.167984,34.613431],[136.161118,34.616257],[136.159744,34.617952],[136.151505,34.620777],[136.145325,34.624168],[136.141205,34.627558],[136.141891,34.632078],[136.143265,34.634338],[136.143265,34.636033],[136.144638,34.637163],[136.142578,34.641682],[136.145325,34.645636],[136.151505,34.647331]]]}},{"type":"Feature","properties":{"layer_id":"bakumatsu_villages","name":"瀬古口村","address":"伊賀 名張郡","source":"Geoshape 幕末期近世村領域データセット vector tiles (z7 extraction)","subarea_name":"近世村のおおよその範囲","feature_key":"village:K28G03S00041","accuracy_note":"2015年農業集落境界をもとに復元した概略範囲で、江戸時代の正確な村境ではありません"},"geometry":{"type":"Polygon","coordinates":[[[136.0952,34.618517],[136.0952,34.613996],[136.098633,34.610041],[136.102066,34.609475],[136.102753,34.60665],[136.100006,34.605519],[136.0952,34.607215],[136.09314,34.611736],[136.087646,34.613431],[136.0849,34.617952],[136.0952,34.618517]]]}},{"type":"Feature","properties":{"layer_id":"bakumatsu_villages","name":"狭田村","address":"伊賀 名張郡","source":"Geoshape 幕末期近世村領域データセット vector tiles (z7 extraction)","subarea_name":"近世村のおおよその範囲","feature_key":"village:K28G03S00006","accuracy_note":"2015年農業集落境界をもとに復元した概略範囲で、江戸時代の正確な村境ではありません"},"geometry":{"type":"Polygon","coordinates":[[[136.108246,34.633208],[136.119232,34.627558],[136.114426,34.624168],[136.108246,34.625863],[136.106186,34.625298],[136.104126,34.628688],[136.102066,34.631513],[136.108246,34.633208]]]}},{"type":"Feature","properties":{"layer_id":"bakumatsu_villages","name":"矢川村","address":"伊賀 名張郡","source":"Geoshape 幕末期近世村領域データセット vector tiles (z7 extraction)","subarea_name":"近世村のおおよその範囲","feature_key":"village:K28G03S00029","accuracy_note":"2015年農業集落境界をもとに復元した概略範囲で、江戸時代の正確な村境ではありません"},"geometry":{"type":"Polygon","coordinates":[[[136.069107,34.597042],[136.071854,34.587997],[136.073227,34.587432],[136.073227,34.58404],[136.069794,34.584606],[136.062927,34.583475],[136.061554,34.581779],[136.062927,34.580083],[136.060181,34.577822],[136.052628,34.578952],[136.053314,34.58404],[136.054688,34.584606],[136.056061,34.587432],[136.060867,34.587432],[136.062241,34.594215],[136.063614,34.594781],[136.063614,34.596476],[136.069107,34.597042]]]}},{"type":"Feature","properties":{"layer_id":"bakumatsu_villages","name":"短野村","address":"伊賀 名張郡","source":"Geoshape 幕末期近世村領域データセット vector tiles (z7 extraction)","subarea_name":"近世村のおおよその範囲","feature_key":"village:K28G03S00022","accuracy_note":"2015年農業集落境界をもとに復元した概略範囲で、江戸時代の正確な村境ではありません"},"geometry":{"type":"Polygon","coordinates":[[[136.069107,34.643377],[136.073227,34.642812],[136.075287,34.639987],[136.07872,34.638857],[136.083527,34.639422],[136.083527,34.639987],[136.08902,34.639987],[136.08902,34.637163],[136.08696,34.637163],[136.08696,34.633773],[136.084213,34.631513],[136.0849,34.628688],[136.08078,34.625863],[136.073227,34.627558],[136.069107,34.625298],[136.069107,34.628688],[136.071854,34.630383],[136.071854,34.633208],[136.073227,34.634338],[136.073227,34.636598],[136.071167,34.637163],[136.071167,34.640552],[136.069107,34.643377]]]}},{"type":"Feature","properties":{"layer_id":"bakumatsu_villages","name":"神屋村","address":"伊賀 名張郡","source":"Geoshape 幕末期近世村領域データセット vector tiles (z7 extraction)","subarea_name":"近世村のおおよその範囲","feature_key":"village:K28G03S00013","accuracy_note":"2015年農業集落境界をもとに復元した概略範囲で、江戸時代の正確な村境ではありません"},"geometry":{"type":"MultiPolygon","coordinates":[[[[136.147385,34.60665],[136.150818,34.603259],[136.155624,34.604389],[136.159058,34.602128],[136.159058,34.597607],[136.161118,34.594781],[136.161118,34.590824],[136.162491,34.589128],[136.156311,34.589128],[136.154938,34.59252],[136.150131,34.59365],[136.148758,34.594781],[136.145325,34.599302],[136.144638,34.602128],[136.147385,34.60665]]],[[[136.135712,34.597607],[136.139145,34.594215],[136.144638,34.594215],[136.148071,34.591389],[136.145325,34.590259],[136.146011,34.588563],[136.142578,34.587432],[136.137772,34.587432],[136.137085,34.589128],[136.133652,34.588563],[136.132278,34.590259],[136.132278,34.595346],[136.128159,34.596476],[136.126099,34.597607],[136.135712,34.597607]]],[[[136.128845,34.595911],[136.132278,34.595346],[136.132278,34.590259],[136.134338,34.587432],[136.139145,34.585171],[136.138458,34.581779],[136.135025,34.577822],[136.135712,34.57556],[136.134338,34.572168],[136.135025,34.568776],[136.129532,34.568776],[136.129532,34.571037],[136.130219,34.573299],[136.128845,34.57443],[136.130219,34.576691],[136.126785,34.580083],[136.128159,34.583475],[136.129532,34.590259],[136.128845,34.595911]]],[[[136.137085,34.589128],[136.138458,34.587432],[136.142578,34.587432],[136.144638,34.588563],[136.148071,34.587432],[136.148758,34.585736],[136.145325,34.584606],[136.145325,34.58291],[136.147385,34.574995],[136.145325,34.567079],[136.146011,34.565948],[136.141891,34.56199],[136.143951,34.559728],[136.143265,34.557466],[136.137772,34.561425],[136.137085,34.567079],[136.136398,34.568776],[136.135025,34.568776],[136.134338,34.572168],[136.135712,34.57556],[136.135025,34.577822],[136.138458,34.581779],[136.139145,34.585171],[136.134338,34.587432],[136.133652,34.588563],[136.137085,34.589128]]]]}},{"type":"Feature","properties":{"layer_id":"bakumatsu_villages","name":"竜口村","address":"伊賀 名張郡","source":"Geoshape 幕末期近世村領域データセット vector tiles (z7 extraction)","subarea_name":"近世村のおおよその範囲","feature_key":"village:K28G03S00031","accuracy_note":"2015年農業集落境界をもとに復元した概略範囲で、江戸時代の正確な村境ではありません"},"geometry":{"type":"Polygon","coordinates":[[[136.062927,34.580083],[136.06636,34.577256],[136.067734,34.574995],[136.07254,34.573299],[136.07254,34.567079],[136.071167,34.56821],[136.069107,34.567079],[136.067734,34.56821],[136.064987,34.567079],[136.060181,34.569906],[136.060867,34.57443],[136.058121,34.577256],[136.060867,34.577822],[136.062927,34.580083]]]}},{"type":"Feature","properties":{"layer_id":"bakumatsu_villages","name":"結馬村","address":"伊賀 名張郡","source":"Geoshape 幕末期近世村領域データセット vector tiles (z7 extraction)","subarea_name":"近世村のおおよその範囲","feature_key":"village:K28G03S00026","accuracy_note":"2015年農業集落境界をもとに復元した概略範囲で、江戸時代の正確な村境ではありません"},"geometry":{"type":"Polygon","coordinates":[[[136.061554,34.617952],[136.064987,34.617387],[136.067047,34.615692],[136.07048,34.615127],[136.073227,34.611171],[136.07666,34.608345],[136.07254,34.606085],[136.07048,34.607215],[136.067734,34.612866],[136.060867,34.616822],[136.062241,34.617387],[136.061554,34.617952]]]}},{"type":"Feature","properties":{"layer_id":"bakumatsu_villages","name":"葛尾村","address":"伊賀 名張郡","source":"Geoshape 幕末期近世村領域データセット vector tiles (z7 extraction)","subarea_name":"近世村のおおよその範囲","feature_key":"village:K28G03S00019","accuracy_note":"2015年農業集落境界をもとに復元した概略範囲で、江戸時代の正確な村境ではありません"},"geometry":{"type":"Polygon","coordinates":[[[136.040268,34.664276],[136.043701,34.660322],[136.060867,34.65298],[136.064301,34.652415],[136.065674,34.65298],[136.062927,34.65072],[136.060867,34.651285],[136.058121,34.65298],[136.049881,34.652415],[136.040955,34.659193],[136.038895,34.661452],[136.039581,34.663146],[136.040268,34.664276]]]}},{"type":"Feature","properties":{"layer_id":"bakumatsu_villages","name":"蔵持村","address":"伊賀 名張郡","source":"Geoshape 幕末期近世村領域データセット vector tiles (z7 extraction)","subarea_name":"近世村のおおよその範囲","feature_key":"village:K28G03S00005","accuracy_note":"2015年農業集落境界をもとに復元した概略範囲で、江戸時代の正確な村境ではありません"},"geometry":{"type":"MultiPolygon","coordinates":[[[[136.122665,34.651285],[136.123352,34.648461],[136.119232,34.646766],[136.119919,34.645636],[136.118546,34.645072],[136.117859,34.646201],[136.116486,34.645072],[136.113739,34.639422],[136.106873,34.637728],[136.106186,34.635468],[136.103439,34.632078],[136.102066,34.631513],[136.100693,34.633208],[136.099319,34.632643],[136.100693,34.636033],[136.099319,34.637728],[136.101379,34.645636],[136.113739,34.647331],[136.117859,34.650155],[136.122665,34.651285]]],[[[136.123352,34.648461],[136.125412,34.643377],[136.130905,34.644507],[136.132278,34.640552],[136.137772,34.637728],[136.137772,34.634903],[136.133652,34.628688],[136.119232,34.627558],[136.108932,34.633208],[136.104126,34.632643],[136.106186,34.635468],[136.106873,34.637728],[136.113739,34.639422],[136.116486,34.645072],[136.117859,34.646201],[136.118546,34.645072],[136.119919,34.645636],[136.119232,34.646766],[136.123352,34.648461]]]]}},{"type":"Feature","properties":{"layer_id":"bakumatsu_villages","name":"薦生村","address":"伊賀 名張郡","source":"Geoshape 幕末期近世村領域データセット vector tiles (z7 extraction)","subarea_name":"近世村のおおよその範囲","feature_key":"village:K28G03S00020","accuracy_note":"2015年農業集落境界をもとに復元した概略範囲で、江戸時代の正確な村境ではありません"},"geometry":{"type":"Polygon","coordinates":[[[136.08696,34.660322],[136.09726,34.656369],[136.0952,34.653545],[136.08284,34.651285],[136.082153,34.650155],[136.082153,34.647896],[136.07666,34.643942],[136.07254,34.642812],[136.069107,34.643377],[136.067734,34.644507],[136.067734,34.646766],[136.064987,34.649026],[136.064987,34.652415],[136.069794,34.65072],[136.075974,34.654109],[136.083527,34.656934],[136.08696,34.660322]]]}},{"type":"Feature","properties":{"layer_id":"bakumatsu_villages","name":"西田原村","address":"伊賀 名張郡","source":"Geoshape 幕末期近世村領域データセット vector tiles (z7 extraction)","subarea_name":"近世村のおおよその範囲","feature_key":"village:K28G03S00015","accuracy_note":"2015年農業集落境界をもとに復元した概略範囲で、江戸時代の正確な村境ではありません"},"geometry":{"type":"Polygon","coordinates":[[[136.100693,34.671617],[136.104813,34.669359],[136.107559,34.671053],[136.111679,34.669923],[136.109619,34.6671],[136.110306,34.660887],[136.111679,34.657498],[136.110992,34.65072],[136.105499,34.65185],[136.096573,34.656934],[136.08696,34.660322],[136.08902,34.663711],[136.092453,34.665405],[136.094513,34.668229],[136.100693,34.671617]]]}},{"type":"Feature","properties":{"layer_id":"bakumatsu_villages","name":"長坂村","address":"伊賀 名張郡","source":"Geoshape 幕末期近世村領域データセット vector tiles (z7 extraction)","subarea_name":"近世村のおおよその範囲","feature_key":"village:K28G03S00032","accuracy_note":"2015年農業集落境界をもとに復元した概略範囲で、江戸時代の正確な村境ではありません"},"geometry":{"type":"MultiPolygon","coordinates":[[[[136.083527,34.587432],[136.0849,34.585171],[136.089706,34.58291],[136.092453,34.58291],[136.095886,34.580648],[136.09726,34.580648],[136.100006,34.582344],[136.101379,34.576691],[136.099319,34.576126],[136.09726,34.578952],[136.09314,34.579518],[136.094513,34.573299],[136.09108,34.572733],[136.090393,34.571037],[136.0746,34.576691],[136.075287,34.579518],[136.073227,34.58404],[136.073914,34.586867],[136.083527,34.587432]]],[[[136.0746,34.576691],[136.090393,34.571037],[136.088333,34.56821],[136.091766,34.564818],[136.096573,34.562556],[136.100693,34.559728],[136.102066,34.556335],[136.100693,34.556901],[136.098633,34.556335],[136.095886,34.558032],[136.091766,34.556901],[136.089706,34.559163],[136.086273,34.558597],[136.0849,34.559728],[136.08284,34.559728],[136.081467,34.562556],[136.078033,34.563687],[136.07254,34.567079],[136.07254,34.573299],[136.0746,34.57443],[136.0746,34.576691]]]]}},{"type":"Feature","properties":{"layer_id":"bakumatsu_villages","name":"長屋村","address":"伊賀 名張郡","source":"Geoshape 幕末期近世村領域データセット vector tiles (z7 extraction)","subarea_name":"近世村のおおよその範囲","feature_key":"village:K28G03S00036","accuracy_note":"2015年農業集落境界をもとに復元した概略範囲で、江戸時代の正確な村境ではありません"},"geometry":{"type":"Polygon","coordinates":[[[136.081467,34.610041],[136.08902,34.602694],[136.08902,34.601563],[136.088333,34.601563],[136.08902,34.599868],[136.0849,34.601563],[136.083527,34.604389],[136.07666,34.602694],[136.07254,34.606085],[136.081467,34.610041]]]}},{"type":"Feature","properties":{"layer_id":"bakumatsu_villages","name":"長瀬村","address":"伊賀 名張郡","source":"Geoshape 幕末期近世村領域データセット vector tiles (z7 extraction)","subarea_name":"近世村のおおよその範囲","feature_key":"village:K28G03S00011","accuracy_note":"2015年農業集落境界をもとに復元した概略範囲で、江戸時代の正確な村境ではありません"},"geometry":{"type":"MultiPolygon","coordinates":[[[[136.123352,34.611736],[136.124725,34.610041],[136.122665,34.607215],[136.123352,34.602128],[136.126099,34.597042],[136.128845,34.595911],[136.129532,34.593085],[136.128159,34.583475],[136.126785,34.580083],[136.130219,34.576691],[136.128845,34.57443],[136.130219,34.573299],[136.129532,34.571037],[136.129532,34.568776],[136.136398,34.568776],[136.137772,34.564252],[136.137085,34.560294],[136.133652,34.55577],[136.130905,34.554073],[136.132278,34.556335],[136.128159,34.55577],[136.126785,34.558032],[136.122665,34.558032],[136.123352,34.560859],[136.121292,34.563121],[136.124039,34.56821],[136.120605,34.568776],[136.117172,34.567645],[136.113052,34.570472],[136.114426,34.572168],[136.114426,34.576126],[136.115799,34.579518],[136.113052,34.580083],[136.113739,34.585736],[136.117859,34.59252],[136.117172,34.594215],[136.113739,34.594781],[136.113739,34.598172],[136.118546,34.599868],[136.119919,34.606085],[136.118546,34.607215],[136.123352,34.611736]]],[[[136.172791,34.610041],[136.17897,34.608345],[136.179657,34.604389],[136.182404,34.602694],[136.181717,34.599868],[136.179657,34.598737],[136.180344,34.595346],[136.183777,34.593085],[136.185837,34.593085],[136.187897,34.58291],[136.18309,34.58404],[136.18103,34.582344],[136.17897,34.58291],[136.173477,34.582344],[136.169357,34.58291],[136.165237,34.588563],[136.161118,34.590824],[136.161118,34.594781],[136.159058,34.597607],[136.159058,34.602128],[136.163864,34.603259],[136.172791,34.610041]]],[[[136.165237,34.588563],[136.170731,34.58291],[136.173477,34.582344],[136.17897,34.58291],[136.18103,34.582344],[136.18309,34.58404],[136.187897,34.58291],[136.186523,34.579518],[136.190643,34.576126],[136.194077,34.57443],[136.19339,34.572733],[136.192017,34.572168],[136.19339,34.571037],[136.19545,34.567079],[136.194077,34.566514],[136.18927,34.569341],[136.18515,34.569341],[136.184464,34.567079],[136.17691,34.568776],[136.163864,34.580083],[136.165924,34.58404],[136.164551,34.586302],[136.165237,34.588563]]]]}},{"type":"Feature","properties":{"layer_id":"bakumatsu_villages","name":"青蓮寺村","address":"伊賀 名張郡","source":"Geoshape 幕末期近世村領域データセット vector tiles (z7 extraction)","subarea_name":"近世村のおおよその範囲","feature_key":"village:K28G03S00039","accuracy_note":"2015年農業集落境界をもとに復元した概略範囲で、江戸時代の正確な村境ではありません"},"geometry":{"type":"Polygon","coordinates":[[[136.113739,34.60778],[136.119232,34.60665],[136.118546,34.599868],[136.113739,34.598172],[136.113739,34.594781],[136.117172,34.594215],[136.117859,34.59252],[136.113739,34.585736],[136.113052,34.580083],[136.115799,34.579518],[136.114426,34.576126],[136.114426,34.572168],[136.113052,34.570472],[136.117172,34.567645],[136.120605,34.568776],[136.124039,34.56821],[136.121292,34.563121],[136.123352,34.560859],[136.122665,34.558032],[136.126785,34.558032],[136.128159,34.55577],[136.132278,34.556335],[136.130905,34.554073],[136.123352,34.549549],[136.123352,34.548418],[136.121292,34.548984],[136.119232,34.548418],[136.117859,34.546721],[136.115799,34.547287],[136.113739,34.546156],[136.110992,34.551811],[136.111679,34.552377],[136.110306,34.556901],[136.108932,34.556901],[136.107559,34.556335],[136.105499,34.557466],[136.104126,34.556335],[136.102066,34.556901],[136.100693,34.559728],[136.096573,34.562556],[136.091766,34.564818],[136.088333,34.56821],[136.09108,34.572733],[136.094513,34.572733],[136.09314,34.579518],[136.09726,34.578952],[136.099319,34.576126],[136.101379,34.576691],[136.097946,34.586867],[136.098633,34.590259],[136.09726,34.595346],[136.097946,34.598172],[136.0952,34.600433],[136.100693,34.606085],[136.109619,34.60665],[136.113739,34.60778]]]}},{"type":"Feature","properties":{"layer_id":"bakumatsu_villages","name":"鵜山村","address":"伊賀 名張郡","source":"Geoshape 幕末期近世村領域データセット vector tiles (z7 extraction)","subarea_name":"近世村のおおよその範囲","feature_key":"village:K28G03S00016","accuracy_note":"2015年農業集落境界をもとに復元した概略範囲で、江戸時代の正確な村境ではありません"},"geometry":{"type":"Polygon","coordinates":[[[136.085587,34.6767],[136.09108,34.676135],[136.094513,34.674441],[136.100693,34.674441],[136.100693,34.671617],[136.094513,34.668229],[136.092453,34.665405],[136.08902,34.663711],[136.085587,34.659758],[136.077347,34.659193],[136.078033,34.663711],[136.081467,34.665405],[136.08284,34.667664],[136.082153,34.670488],[136.08284,34.672182],[136.084213,34.672747],[136.084213,34.673876],[136.086273,34.67557],[136.085587,34.6767]]]}},{"type":"Feature","properties":{"layer_id":"bakumatsu_villages","name":"黒田村","address":"伊賀 名張郡","source":"Geoshape 幕末期近世村領域データセット vector tiles (z7 extraction)","subarea_name":"近世村のおおよその範囲","feature_key":"village:K28G03S00025","accuracy_note":"2015年農業集落境界をもとに復元した概略範囲で、江戸時代の正確な村境ではありません"},"geometry":{"type":"Polygon","coordinates":[[[136.073227,34.627558],[136.080093,34.625298],[136.07872,34.623038],[136.07872,34.621343],[136.08284,34.618517],[136.084213,34.614562],[136.083527,34.612301],[136.07666,34.608345],[136.073227,34.611171],[136.07048,34.615127],[136.067047,34.615692],[136.064987,34.617387],[136.061554,34.617952],[136.062241,34.620212],[136.06842,34.622473],[136.069107,34.624733],[136.073227,34.627558]]]}},{"type":"Feature","properties":{"layer_id":"edo_post_stations","name":"名張","address":"","source":"CODH 江戸宿場データセット Version 1 (2026-08)","feature_key":"post:R614-003"},"geometry":{"type":"Point","coordinates":[136.090251,34.620991]}},{"type":"Feature","properties":{"layer_id":"edo_post_stations","name":"新田","address":"","source":"CODH 江戸宿場データセット Version 1 (2026-08)","feature_key":"post:R614-004"},"geometry":{"type":"Point","coordinates":[136.134108,34.667095]}},{"type":"Feature","properties":{"layer_id":"historical_sites_archaeology","name":"下山甲斐守城跡","address":"三重県 名張市 下比奈知","source":"Geoshape 日本歴史地名大系 施設・地点項目データセット 2025-05-15","subarea_name":"城跡","feature_key":"05_castle_ruins.geojson:240000323000","subtype":"城跡"},"geometry":{"type":"Point","coordinates":[136.133986,34.61869]}},{"type":"Feature","properties":{"layer_id":"historical_sites_archaeology","name":"中村古墳群","address":"三重県 名張市 百合が丘西二番町","source":"Geoshape 日本歴史地名大系 施設・地点項目データセット 2025-05-15","subarea_name":"古墳","feature_key":"06_kofun.geojson:240000324800","subtype":"古墳"},"geometry":{"type":"Point","coordinates":[136.097454,34.607414]}},{"type":"Feature","properties":{"layer_id":"historical_sites_archaeology","name":"人参峠遺跡","address":"三重県 名張市 百合が丘西一番町","source":"Geoshape 日本歴史地名大系 施設・地点項目データセット 2025-05-15","subarea_name":"遺跡","feature_key":"08_archaeological_sites.geojson:240000325400","subtype":"遺跡"},"geometry":{"type":"Point","coordinates":[136.100152,34.609867]}},{"type":"Feature","properties":{"layer_id":"historical_sites_archaeology","name":"北畠城跡","address":"三重県 名張市 神屋","source":"Geoshape 日本歴史地名大系 施設・地点項目データセット 2025-05-15","subarea_name":"城跡","feature_key":"05_castle_ruins.geojson:240000323600","subtype":"城跡"},"geometry":{"type":"Point","coordinates":[136.137454,34.584909]}},{"type":"Feature","properties":{"layer_id":"historical_sites_archaeology","name":"名張藤堂邸跡","address":"三重県 名張市 丸之内","source":"Geoshape 日本歴史地名大系 施設・地点項目データセット 2025-05-15","subarea_name":"史跡","feature_key":"09_historic_sites.geojson:240000325700","subtype":"史跡"},"geometry":{"type":"Point","coordinates":[136.091098,34.622348]}},{"type":"Feature","properties":{"layer_id":"historical_sites_archaeology","name":"土山遺跡","address":"三重県 名張市 百合が丘西四番町","source":"Geoshape 日本歴史地名大系 施設・地点項目データセット 2025-05-15","subarea_name":"遺跡","feature_key":"08_archaeological_sites.geojson:240000324100","subtype":"遺跡"},"geometry":{"type":"Point","coordinates":[136.096572,34.605457]}},{"type":"Feature","properties":{"layer_id":"historical_sites_archaeology","name":"宮山古墳","address":"三重県 名張市 赤目町長坂","source":"Geoshape 日本歴史地名大系 施設・地点項目データセット 2025-05-15","subarea_name":"古墳","feature_key":"06_kofun.geojson:240000328700","subtype":"古墳"},"geometry":{"type":"Point","coordinates":[136.075619,34.586393]}},{"type":"Feature","properties":{"layer_id":"historical_sites_archaeology","name":"尻矢古墳群","address":"三重県 名張市 青蓮寺","source":"Geoshape 日本歴史地名大系 施設・地点項目データセット 2025-05-15","subarea_name":"古墳","feature_key":"06_kofun.geojson:240000328200","subtype":"古墳"},"geometry":{"type":"Point","coordinates":[136.090905,34.594229]}},{"type":"Feature","properties":{"layer_id":"historical_sites_archaeology","name":"柏原城跡","address":"三重県 名張市 赤目町柏原","source":"Geoshape 日本歴史地名大系 施設・地点項目データセット 2025-05-15","subarea_name":"城跡","feature_key":"05_castle_ruins.geojson:240000328400","subtype":"城跡"},"geometry":{"type":"Point","coordinates":[136.083241,34.594622]}},{"type":"Feature","properties":{"layer_id":"historical_sites_archaeology","name":"根冷四号墳","address":"三重県 名張市 青蓮寺","source":"Geoshape 日本歴史地名大系 施設・地点項目データセット 2025-05-15","subarea_name":"古墳","feature_key":"06_kofun.geojson:240000324200","subtype":"古墳"},"geometry":{"type":"Point","coordinates":[136.094008,34.599453]}},{"type":"Feature","properties":{"layer_id":"historical_sites_archaeology","name":"男山古墳群","address":"三重県 名張市 夏見","source":"Geoshape 日本歴史地名大系 施設・地点項目データセット 2025-05-15","subarea_name":"古墳","feature_key":"06_kofun.geojson:240000324600","subtype":"古墳"},"geometry":{"type":"Point","coordinates":[136.106417,34.618004]}},{"type":"Feature","properties":{"layer_id":"historical_sites_archaeology","name":"白早稲遺跡","address":"三重県 名張市 百合が丘西二番町","source":"Geoshape 日本歴史地名大系 施設・地点項目データセット 2025-05-15","subarea_name":"遺跡","feature_key":"08_archaeological_sites.geojson:240000325300","subtype":"遺跡"},"geometry":{"type":"Point","coordinates":[136.09866,34.607236]}},{"type":"Feature","properties":{"layer_id":"historical_sites_archaeology","name":"美旗古墳群","address":"三重県 名張市 美旗町中一番","source":"Geoshape 日本歴史地名大系 施設・地点項目データセット 2025-05-15","subarea_name":"古墳","feature_key":"06_kofun.geojson:240000320600","subtype":"古墳"},"geometry":{"type":"Point","coordinates":[136.133496,34.663274]}},{"type":"Feature","properties":{"layer_id":"historical_sites_archaeology","name":"蔵持黒田遺跡","address":"三重県 名張市 桔梗が丘南一番町","source":"Geoshape 日本歴史地名大系 施設・地点項目データセット 2025-05-15","subarea_name":"遺跡","feature_key":"08_archaeological_sites.geojson:240000322400","subtype":"遺跡"},"geometry":{"type":"Point","coordinates":[136.121336,34.635351]}},{"type":"Feature","properties":{"layer_id":"historical_sites_archaeology","name":"赤目檀遺跡","address":"三重県 名張市 青蓮寺","source":"Geoshape 日本歴史地名大系 施設・地点項目データセット 2025-05-15","subarea_name":"遺跡","feature_key":"08_archaeological_sites.geojson:240000328000","subtype":"遺跡"},"geometry":{"type":"Point","coordinates":[136.088519,34.588676]}},{"type":"Feature","properties":{"layer_id":"historical_sites_archaeology","name":"鹿高神社古墳","address":"三重県 名張市 安部田","source":"Geoshape 日本歴史地名大系 施設・地点項目データセット 2025-05-15","subarea_name":"古墳","feature_key":"06_kofun.geojson:240000327100","subtype":"古墳"},"geometry":{"type":"Point","coordinates":[136.059842,34.595083]}},{"type":"Feature","properties":{"layer_id":"historical_temples_shrines","name":"丈六寺","address":"三重県 名張市 ","source":"Geoshape 日本歴史地名大系 施設・地点項目データセット 2025-05-15","subarea_name":"寺院","feature_key":"01_temples.geojson:240000327800","subtype":"寺院"},"geometry":{"type":"Point","coordinates":[136.108292,34.627663]}},{"type":"Feature","properties":{"layer_id":"historical_temples_shrines","name":"中山神社","address":"三重県 名張市 薦生214番地","source":"Geoshape 日本歴史地名大系 施設・地点項目データセット 2025-05-15","subarea_name":"神社","feature_key":"02_shrines.geojson:240000321200","subtype":"神社"},"geometry":{"type":"Point","coordinates":[136.084137,34.654083]}},{"type":"Feature","properties":{"layer_id":"historical_temples_shrines","name":"名居神社","address":"三重県 名張市 下比奈知2092番地","source":"Geoshape 日本歴史地名大系 施設・地点項目データセット 2025-05-15","subarea_name":"神社","feature_key":"02_shrines.geojson:240000323100","subtype":"神社"},"geometry":{"type":"Point","coordinates":[136.126761,34.621605]}},{"type":"Feature","properties":{"layer_id":"historical_temples_shrines","name":"国津神社","address":"三重県 名張市 奈垣2042番地","source":"Geoshape 日本歴史地名大系 施設・地点項目データセット 2025-05-15","subarea_name":"神社","feature_key":"02_shrines.geojson:240000323400","subtype":"神社"},"geometry":{"type":"Point","coordinates":[136.147491,34.594547]}},{"type":"Feature","properties":{"layer_id":"historical_temples_shrines","name":"夏見廃寺跡","address":"三重県 名張市 夏見","source":"Geoshape 日本歴史地名大系 施設・地点項目データセット 2025-05-15","subarea_name":"廃寺・廃社","feature_key":"03_abandoned_temples_shrines.geojson:240000324500","subtype":"廃寺・廃社"},"geometry":{"type":"Point","coordinates":[136.111313,34.621772]}},{"type":"Feature","properties":{"layer_id":"historical_temples_shrines","name":"大江寺跡","address":"三重県 名張市 大屋戸","source":"Geoshape 日本歴史地名大系 施設・地点項目データセット 2025-05-15","subarea_name":"廃寺・廃社","feature_key":"03_abandoned_temples_shrines.geojson:240000322000","subtype":"廃寺・廃社"},"geometry":{"type":"Point","coordinates":[136.087386,34.632156]}},{"type":"Feature","properties":{"layer_id":"historical_temples_shrines","name":"妙楽寺","address":"三重県 名張市 奈垣18番地","source":"Geoshape 日本歴史地名大系 施設・地点項目データセット 2025-05-15","subarea_name":"寺院","feature_key":"01_temples.geojson:240000193600","subtype":"寺院"},"geometry":{"type":"Point","coordinates":[136.147491,34.594547]}},{"type":"Feature","properties":{"layer_id":"historical_temples_shrines","name":"宇流富志祢神社","address":"三重県 名張市 平尾3319番地","source":"Geoshape 日本歴史地名大系 施設・地点項目データセット 2025-05-15","subarea_name":"神社","feature_key":"02_shrines.geojson:240000325900","subtype":"神社"},"geometry":{"type":"Point","coordinates":[136.093842,34.619057]}},{"type":"Feature","properties":{"layer_id":"historical_temples_shrines","name":"延寿院","address":"三重県 名張市 赤目町長坂753番地","source":"Geoshape 日本歴史地名大系 施設・地点項目データセット 2025-05-15","subarea_name":"寺院","feature_key":"01_temples.geojson:240000328900","subtype":"寺院"},"geometry":{"type":"Point","coordinates":[136.08576,34.566083]}},{"type":"Feature","properties":{"layer_id":"historical_temples_shrines","name":"春日神社","address":"三重県 名張市 矢川691番地","source":"Geoshape 日本歴史地名大系 施設・地点項目データセット 2025-05-15","subarea_name":"神社","feature_key":"02_shrines.geojson:240000327300","subtype":"神社"},"geometry":{"type":"Point","coordinates":[136.062331,34.588669]}},{"type":"Feature","properties":{"layer_id":"historical_temples_shrines","name":"杉谷神社","address":"三重県 名張市 大屋戸62番地","source":"Geoshape 日本歴史地名大系 施設・地点項目データセット 2025-05-15","subarea_name":"神社","feature_key":"02_shrines.geojson:240000322100","subtype":"神社"},"geometry":{"type":"Point","coordinates":[136.094998,34.634892]}},{"type":"Feature","properties":{"layer_id":"historical_temples_shrines","name":"極楽寺","address":"三重県 名張市 赤目町一ノ井412番地","source":"Geoshape 日本歴史地名大系 施設・地点項目データセット 2025-05-15","subarea_name":"寺院","feature_key":"01_temples.geojson:240000328600","subtype":"寺院"},"geometry":{"type":"Point","coordinates":[136.075867,34.590073]}},{"type":"Feature","properties":{"layer_id":"historical_temples_shrines","name":"法然寺跡","address":"三重県 名張市 黒田","source":"Geoshape 日本歴史地名大系 施設・地点項目データセット 2025-05-15","subarea_name":"廃寺・廃社","feature_key":"03_abandoned_temples_shrines.geojson:240000326300","subtype":"廃寺・廃社"},"geometry":{"type":"Point","coordinates":[136.073014,34.616405]}},{"type":"Feature","properties":{"layer_id":"historical_temples_shrines","name":"無動寺","address":"三重県 名張市 黒田902番地","source":"Geoshape 日本歴史地名大系 施設・地点項目データセット 2025-05-15","subarea_name":"寺院","feature_key":"01_temples.geojson:240000326400","subtype":"寺院"},"geometry":{"type":"Point","coordinates":[136.071991,34.616276]}},{"type":"Feature","properties":{"layer_id":"historical_temples_shrines","name":"福成就寺","address":"三重県 名張市 箕曲中村1041番地","source":"Geoshape 日本歴史地名大系 施設・地点項目データセット 2025-05-15","subarea_name":"寺院","feature_key":"01_temples.geojson:240000324900","subtype":"寺院"},"geometry":{"type":"Point","coordinates":[136.091751,34.609921]}},{"type":"Feature","properties":{"layer_id":"historical_temples_shrines","name":"積田神社","address":"三重県 名張市 夏見2162番地","source":"Geoshape 日本歴史地名大系 施設・地点項目データセット 2025-05-15","subarea_name":"神社","feature_key":"02_shrines.geojson:240000324400","subtype":"神社"},"geometry":{"type":"Point","coordinates":[136.109131,34.618855]}}]}