{"type":"FeatureCollection","municipality_code":"24543","pref":"三重県","city":"紀北町","layer_counts":{"bakumatsu_villages":24,"edo_post_stations":2,"edo_roads":2,"historical_sites_archaeology":2,"historical_temples_shrines":3},"total_features":33,"features":[{"type":"Feature","properties":{"layer_id":"bakumatsu_villages","name":"三浦","address":"紀伊 牟婁郡","source":"Geoshape 幕末期近世村領域データセット vector tiles (z7 extraction)","subarea_name":"近世村のおおよその範囲","feature_key":"village:K33G07S00354","accuracy_note":"2015年農業集落境界をもとに復元した概略範囲で、江戸時代の正確な村境ではありません"},"geometry":{"type":"Polygon","coordinates":[[[136.260681,34.181702],[136.264114,34.181134],[136.267548,34.178861],[136.270981,34.179998],[136.275101,34.17943],[136.279907,34.181134],[136.284714,34.177725],[136.288834,34.172613],[136.28952,34.169772],[136.299133,34.168068],[136.29776,34.1675],[136.297073,34.165795],[136.292267,34.166363],[136.28952,34.165795],[136.288147,34.16125],[136.290894,34.160682],[136.288147,34.159545],[136.288147,34.158409],[136.28952,34.158409],[136.28746,34.156704],[136.28746,34.159545],[136.282654,34.160682],[136.284714,34.16125],[136.284027,34.162386],[136.281967,34.162386],[136.282654,34.163523],[136.277847,34.161818],[136.277161,34.160682],[136.278534,34.158409],[136.280594,34.157273],[136.278534,34.155568],[136.278534,34.153295],[136.280594,34.151022],[136.286087,34.149886],[136.2854,34.148749],[136.275787,34.148181],[136.273041,34.152727],[136.268921,34.151022],[136.267548,34.152727],[136.268234,34.155],[136.264801,34.156136],[136.264114,34.157841],[136.263428,34.164091],[136.259995,34.165227],[136.262054,34.17034],[136.259995,34.173181],[136.258621,34.173749],[136.257935,34.178293],[136.260681,34.181702]]]}},{"type":"Feature","properties":{"layer_id":"bakumatsu_villages","name":"上里村","address":"紀伊 牟婁郡","source":"Geoshape 幕末期近世村領域データセット vector tiles (z7 extraction)","subarea_name":"近世村のおおよその範囲","feature_key":"village:K33G07S00351","accuracy_note":"2015年農業集落境界をもとに復元した概略範囲で、江戸時代の正確な村境ではありません"},"geometry":{"type":"Polygon","coordinates":[[[136.226349,34.160682],[136.231155,34.156704],[136.233215,34.156704],[136.233902,34.153295],[136.237335,34.148181],[136.242828,34.147044],[136.242142,34.142498],[136.242828,34.142498],[136.244202,34.144203],[136.246262,34.144771],[136.248322,34.144203],[136.247635,34.14193],[136.244888,34.139657],[136.245575,34.137952],[136.249008,34.135678],[136.251068,34.132837],[136.249695,34.12829],[136.244888,34.127721],[136.240768,34.128858],[136.238022,34.126584],[136.235275,34.126584],[136.231155,34.129426],[136.229782,34.1317],[136.229782,34.135678],[136.228409,34.136815],[136.227722,34.140793],[136.226349,34.140225],[136.223602,34.137952],[136.222916,34.140225],[136.218109,34.142498],[136.217422,34.145908],[136.215363,34.147613],[136.216049,34.155],[136.212616,34.158409],[136.226349,34.160682]]]}},{"type":"Feature","properties":{"layer_id":"bakumatsu_villages","name":"中井浦・野地村","address":"紀伊 牟婁郡","source":"Geoshape 幕末期近世村領域データセット vector tiles (z7 extraction)","subarea_name":"近世村のおおよその範囲","feature_key":"village:K33G07S00346,K33G07S00348","accuracy_note":"2015年農業集落境界をもとに復元した概略範囲で、江戸時代の正確な村境ではありません"},"geometry":{"type":"MultiPolygon","coordinates":[[[[136.145325,34.120332],[136.148758,34.116352],[136.154938,34.111805],[136.159058,34.109531],[136.161804,34.110099],[136.163864,34.108962],[136.167984,34.100434],[136.167984,34.096454],[136.167297,34.094748],[136.167297,34.092473],[136.169357,34.092473],[136.168671,34.08963],[136.170044,34.08963],[136.172791,34.087924],[136.179657,34.090199],[136.179657,34.088493],[136.18721,34.083375],[136.18927,34.082806],[136.19133,34.079962],[136.189957,34.078256],[136.189957,34.075981],[136.188583,34.075981],[136.187897,34.074275],[136.18309,34.073137],[136.177597,34.075981],[136.171417,34.075981],[136.168671,34.073137],[136.161804,34.072569],[136.158371,34.069725],[136.154938,34.068587],[136.151505,34.069156],[136.150131,34.066881],[136.143951,34.062899],[136.143265,34.060055],[136.141891,34.060055],[136.139145,34.060624],[136.135025,34.065174],[136.129532,34.066881],[136.128845,34.068587],[136.128159,34.071431],[136.125412,34.073137],[136.118546,34.078825],[136.119232,34.081668],[136.118546,34.082806],[136.116486,34.084512],[136.112366,34.086787],[136.102066,34.096454],[136.103439,34.097591],[136.103439,34.099865],[136.107559,34.103277],[136.103439,34.106688],[136.103439,34.108962],[136.105499,34.110099],[136.104126,34.114647],[136.112366,34.115784],[136.117172,34.118058],[136.119919,34.117489],[136.124725,34.118058],[136.128159,34.116921],[136.132278,34.119195],[136.140518,34.119195],[136.145325,34.120332]]],[[[136.19133,34.079962],[136.192703,34.077119],[136.198196,34.077119],[136.198196,34.074275],[136.189957,34.074844],[136.189957,34.078256],[136.19133,34.079962]]]]}},{"type":"Feature","properties":{"layer_id":"bakumatsu_villages","name":"中桐村","address":"紀伊 牟婁郡","source":"Geoshape 幕末期近世村領域データセット vector tiles (z7 extraction)","subarea_name":"近世村のおおよその範囲","feature_key":"village:K33G07S00361","accuracy_note":"2015年農業集落境界をもとに復元した概略範囲で、江戸時代の正確な村境ではありません"},"geometry":{"type":"MultiPolygon","coordinates":[[[[136.225662,34.247],[136.227722,34.245865],[136.231155,34.239621],[136.238708,34.232242],[136.238022,34.229403],[136.239395,34.2277],[136.244202,34.223726],[136.244888,34.222023],[136.251755,34.221455],[136.250381,34.218616],[136.251068,34.214641],[136.252441,34.212938],[136.257248,34.211802],[136.258621,34.210666],[136.259308,34.205556],[136.255188,34.199309],[136.256561,34.195901],[136.255188,34.189086],[136.256561,34.18511],[136.254501,34.183974],[136.246948,34.183406],[136.240768,34.189086],[136.237335,34.19079],[136.236649,34.193062],[136.238708,34.195901],[136.238708,34.200445],[136.235275,34.203284],[136.227722,34.20442],[136.227036,34.205556],[136.224289,34.206692],[136.222916,34.208963],[136.210556,34.213506],[136.206436,34.215777],[136.205063,34.218616],[136.207123,34.220887],[136.207809,34.223158],[136.206436,34.224294],[136.20575,34.229403],[136.207809,34.230539],[136.213303,34.232809],[136.217422,34.239054],[136.217422,34.246433],[136.225662,34.247]]],[[[136.266174,34.21237],[136.273727,34.20442],[136.280594,34.202148],[136.280594,34.198741],[136.2854,34.187382],[136.284027,34.186814],[136.281967,34.182838],[136.277847,34.179998],[136.273727,34.17943],[136.270981,34.179998],[136.267548,34.178861],[136.264114,34.181134],[136.260681,34.181702],[136.258621,34.183974],[136.256561,34.18511],[136.255188,34.189086],[136.256561,34.195901],[136.255188,34.199309],[136.259308,34.205556],[136.258621,34.211234],[136.262054,34.21237],[136.266174,34.21237]]],[[[136.296387,34.219184],[136.301193,34.21748],[136.302567,34.216345],[136.305313,34.219184],[136.308746,34.216912],[136.308746,34.214641],[136.31218,34.214641],[136.31218,34.212938],[136.308746,34.211802],[136.308746,34.207259],[136.306686,34.208963],[136.304626,34.208963],[136.301193,34.205556],[136.30188,34.203284],[136.307373,34.198741],[136.307373,34.197037],[136.30394,34.194765],[136.30188,34.193062],[136.298447,34.194765],[136.295013,34.194198],[136.29364,34.19363],[136.29158,34.188518],[136.2854,34.187382],[136.280594,34.198741],[136.280594,34.202148],[136.273727,34.204988],[136.267548,34.210099],[136.266861,34.213506],[136.273041,34.214073],[136.277847,34.214073],[136.284027,34.216912],[136.286087,34.216912],[136.288834,34.218048],[136.290894,34.218048],[136.29158,34.219184],[136.296387,34.219184]]],[[[136.320419,34.224294],[136.324539,34.220887],[136.324539,34.219751],[136.321106,34.218616],[136.319046,34.218048],[136.317673,34.219184],[136.317673,34.222023],[136.320419,34.224294]]]]}},{"type":"Feature","properties":{"layer_id":"bakumatsu_villages","name":"中里村","address":"紀伊 牟婁郡","source":"Geoshape 幕末期近世村領域データセット vector tiles (z7 extraction)","subarea_name":"近世村のおおよその範囲","feature_key":"village:K33G07S00353","accuracy_note":"2015年農業集落境界をもとに復元した概略範囲で、江戸時代の正確な村境ではありません"},"geometry":{"type":"MultiPolygon","coordinates":[[[[136.185837,34.191358],[136.189957,34.186814],[136.190643,34.183974],[136.194077,34.182838],[136.192703,34.178293],[136.196136,34.173749],[136.18927,34.166932],[136.187897,34.162954],[136.188583,34.16125],[136.189957,34.158409],[136.200256,34.150454],[136.209183,34.147613],[136.213303,34.142498],[136.211929,34.141362],[136.214676,34.137952],[136.215363,34.133973],[136.218109,34.133973],[136.218796,34.132268],[136.213989,34.132268],[136.212616,34.133405],[136.192703,34.133405],[136.188583,34.133973],[136.184464,34.135678],[136.181717,34.139088],[136.18309,34.141362],[136.180344,34.143635],[136.174164,34.145908],[136.174164,34.147613],[136.169357,34.151022],[136.167984,34.155],[136.170044,34.155568],[136.163864,34.161818],[136.163864,34.165795],[136.159744,34.169204],[136.158371,34.172613],[136.154251,34.172613],[136.152878,34.174885],[136.150818,34.175453],[136.151505,34.177157],[136.148071,34.179998],[136.149445,34.183974],[136.152878,34.186814],[136.156998,34.18511],[136.161118,34.186814],[136.172791,34.188518],[136.17485,34.190222],[136.185837,34.191358]]],[[[136.196136,34.173749],[136.198883,34.171476],[136.20163,34.172613],[136.204376,34.172045],[136.205063,34.16125],[136.210556,34.160682],[136.216049,34.155568],[136.215363,34.147613],[136.218796,34.142498],[136.222916,34.140225],[136.223602,34.137952],[136.226349,34.140225],[136.227722,34.140793],[136.228409,34.136815],[136.229782,34.135678],[136.229782,34.1317],[136.218796,34.132268],[136.218109,34.133973],[136.215363,34.133973],[136.214676,34.137952],[136.211929,34.141362],[136.213303,34.142498],[136.209183,34.147613],[136.200256,34.150454],[136.189957,34.158409],[136.188583,34.16125],[136.187897,34.162954],[136.18927,34.166932],[136.196136,34.173749]]]]}},{"type":"Feature","properties":{"layer_id":"bakumatsu_villages","name":"二郷村","address":"紀伊 牟婁郡","source":"Geoshape 幕末期近世村領域データセット vector tiles (z7 extraction)","subarea_name":"近世村のおおよその範囲","feature_key":"village:K33G07S00338","accuracy_note":"2015年農業集落境界をもとに復元した概略範囲で、江戸時代の正確な村境ではありません"},"geometry":{"type":"MultiPolygon","coordinates":[[[[136.339645,34.241892],[136.341705,34.240189],[136.343765,34.234512],[136.341019,34.2277],[136.342392,34.225429],[136.340332,34.223726],[136.340332,34.220319],[136.335526,34.216912],[136.329346,34.215777],[136.325226,34.220319],[136.327286,34.222023],[136.329346,34.22259],[136.330719,34.2277],[136.330032,34.229971],[136.332092,34.231674],[136.335526,34.240757],[136.338272,34.240757],[136.339645,34.241892]]],[[[136.338272,34.219184],[136.338959,34.214073],[136.336212,34.214073],[136.332092,34.209531],[136.325912,34.213506],[136.326599,34.218048],[136.329346,34.215777],[136.332779,34.215777],[136.335526,34.216912],[136.338272,34.219184]]],[[[136.336899,34.214073],[136.341019,34.213506],[136.344452,34.210666],[136.338959,34.208395],[136.338959,34.205556],[136.336899,34.20442],[136.334152,34.206692],[136.332092,34.209531],[136.336899,34.214073]]],[[[136.344452,34.24473],[136.345825,34.244162],[136.347885,34.241324],[136.356125,34.240757],[136.357498,34.237351],[136.361618,34.231106],[136.365738,34.229403],[136.368484,34.227132],[136.368484,34.225429],[136.365738,34.224294],[136.361618,34.220319],[136.359558,34.219751],[136.356125,34.216912],[136.351318,34.215209],[136.347198,34.211802],[136.343765,34.207259],[136.343765,34.211234],[136.341019,34.213506],[136.338959,34.214073],[136.338272,34.219184],[136.340332,34.220319],[136.340332,34.223726],[136.342392,34.225429],[136.341019,34.2277],[136.343765,34.233945],[136.339645,34.243027],[136.342392,34.24473],[136.344452,34.24473]]],[[[136.343765,34.210099],[136.343765,34.206692],[136.341019,34.206124],[136.338959,34.204988],[136.339645,34.20442],[136.336899,34.20442],[136.338959,34.205556],[136.338959,34.208395],[136.341705,34.210099],[136.343765,34.210099]]],[[[136.381531,34.18511],[136.381531,34.183974],[136.380157,34.183974],[136.380157,34.18511],[136.381531,34.18511]]],[[[136.368484,34.225429],[136.372604,34.22259],[136.371231,34.216345],[136.373978,34.211234],[136.369858,34.204988],[136.373978,34.197605],[136.370544,34.197037],[136.370544,34.194765],[136.365738,34.192494],[136.364365,34.189654],[136.361618,34.189086],[136.362305,34.192494],[136.358871,34.195901],[136.359558,34.197037],[136.358185,34.198173],[136.358185,34.199309],[136.355438,34.199309],[136.354065,34.195901],[136.349258,34.194765],[136.350632,34.196469],[136.348572,34.199877],[136.349945,34.200445],[136.351318,34.202148],[136.348572,34.204988],[136.351318,34.204988],[136.354065,34.206692],[136.359558,34.207259],[136.359558,34.208395],[136.353378,34.208395],[136.352005,34.209531],[136.353378,34.211802],[136.352692,34.21237],[136.351318,34.211234],[136.349258,34.210099],[136.349258,34.208395],[136.343765,34.207259],[136.347198,34.211802],[136.351318,34.215209],[136.356125,34.216912],[136.359558,34.219751],[136.361618,34.220319],[136.365738,34.224294],[136.368484,34.225429]]],[[[136.379471,34.194765],[136.379471,34.19363],[136.378098,34.19363],[136.378098,34.194765],[136.379471,34.194765]]]]}},{"type":"Feature","properties":{"layer_id":"bakumatsu_villages","name":"便ノ山村","address":"紀伊 牟婁郡","source":"Geoshape 幕末期近世村領域データセット vector tiles (z7 extraction)","subarea_name":"近世村のおおよその範囲","feature_key":"village:K33G07S00335","accuracy_note":"2015年農業集落境界をもとに復元した概略範囲で、江戸時代の正確な村境ではありません"},"geometry":{"type":"MultiPolygon","coordinates":[[[[136.18927,34.117489],[136.19339,34.116352],[136.19751,34.114079],[136.202316,34.115216],[136.207123,34.11351],[136.210556,34.110099],[136.209183,34.106119],[136.203003,34.104982],[136.19751,34.103277],[136.192017,34.104414],[136.18927,34.106688],[136.188583,34.111236],[136.182404,34.114079],[136.18309,34.117489],[136.18927,34.117489]]],[[[136.209183,34.106119],[136.216049,34.104414],[136.212616,34.102139],[136.205063,34.102708],[136.205063,34.105551],[136.209183,34.106119]]]]}},{"type":"Feature","properties":{"layer_id":"bakumatsu_villages","name":"前山村","address":"紀伊 牟婁郡","source":"Geoshape 幕末期近世村領域データセット vector tiles (z7 extraction)","subarea_name":"近世村のおおよその範囲","feature_key":"village:K33G07S00362","accuracy_note":"2015年農業集落境界をもとに復元した概略範囲で、江戸時代の正確な村境ではありません"},"geometry":{"type":"MultiPolygon","coordinates":[[[[136.310806,34.243595],[136.31218,34.243027],[136.31218,34.241324],[136.314926,34.237918],[136.31424,34.233945],[136.318359,34.230539],[136.319733,34.223726],[136.317673,34.222023],[136.317673,34.219184],[136.319046,34.218048],[136.321106,34.218616],[136.317673,34.212938],[136.308746,34.214641],[136.308746,34.216912],[136.305313,34.219184],[136.305313,34.220319],[136.307373,34.228268],[136.304626,34.232242],[136.309433,34.242459],[136.310806,34.243595]]],[[[136.31218,34.214073],[136.318359,34.212938],[136.316986,34.211234],[136.316986,34.208963],[136.312866,34.209531],[136.310806,34.212938],[136.31218,34.212938],[136.31218,34.214073]]],[[[136.310806,34.212938],[136.312866,34.209531],[136.316986,34.208963],[136.319046,34.204988],[136.318359,34.203284],[136.308746,34.207259],[136.308746,34.211802],[136.310806,34.212938]]],[[[136.306686,34.208963],[136.30806,34.207259],[136.317673,34.203852],[136.319046,34.201581],[136.309433,34.201013],[136.307373,34.198741],[136.30188,34.203284],[136.301193,34.205556],[136.30394,34.208395],[136.305313,34.208963],[136.306686,34.208963]]],[[[136.326599,34.243595],[136.335526,34.240757],[136.332092,34.231674],[136.330032,34.229971],[136.330719,34.2277],[136.329346,34.22259],[136.327286,34.222023],[136.324539,34.219751],[136.323853,34.222023],[136.319046,34.224861],[136.318359,34.230539],[136.31424,34.233945],[136.314926,34.237918],[136.31218,34.241324],[136.31218,34.243027],[136.326599,34.243595]]]]}},{"type":"Feature","properties":{"layer_id":"bakumatsu_villages","name":"十須村","address":"紀伊 牟婁郡","source":"Geoshape 幕末期近世村領域データセット vector tiles (z7 extraction)","subarea_name":"近世村のおおよその範囲","feature_key":"village:K33G07S00366","accuracy_note":"2015年農業集落境界をもとに復元した概略範囲で、江戸時代の正確な村境ではありません"},"geometry":{"type":"MultiPolygon","coordinates":[[[[136.257935,34.265729],[136.262054,34.261757],[136.243515,34.261757],[136.247635,34.264594],[136.249695,34.265161],[136.253815,34.262892],[136.257935,34.265729]]],[[[136.269608,34.274808],[136.273727,34.271971],[136.277847,34.273673],[136.279221,34.272538],[136.288147,34.271971],[136.296387,34.267431],[136.299133,34.262892],[136.29776,34.261757],[136.262054,34.261757],[136.257935,34.265729],[136.269608,34.274808]]],[[[136.257935,34.265729],[136.264114,34.258919],[136.269608,34.256081],[136.269608,34.253244],[136.272354,34.250406],[136.272354,34.247],[136.274414,34.241892],[136.273727,34.239054],[136.273727,34.240757],[136.270981,34.243027],[136.268921,34.243595],[136.268234,34.241892],[136.260681,34.240757],[136.256561,34.243027],[136.251068,34.243027],[136.249008,34.24473],[136.245575,34.24473],[136.240082,34.247],[136.240082,34.249271],[136.240768,34.251541],[136.238022,34.256081],[136.242828,34.261757],[136.247635,34.264594],[136.249695,34.265161],[136.253815,34.262892],[136.257935,34.265729]]],[[[136.269608,34.274808],[136.273727,34.271971],[136.277847,34.273673],[136.279221,34.272538],[136.288147,34.271971],[136.296387,34.267431],[136.299133,34.262892],[136.2957,34.260054],[136.295013,34.257784],[136.299133,34.254379],[136.300507,34.251541],[136.295013,34.250973],[136.290207,34.247568],[136.284714,34.24473],[136.281967,34.241892],[136.277847,34.239621],[136.277161,34.237351],[136.277847,34.236783],[136.277161,34.236783],[136.273727,34.239054],[136.274414,34.241892],[136.272354,34.247],[136.272354,34.250406],[136.269608,34.253244],[136.269608,34.256081],[136.264114,34.258919],[136.257935,34.265729],[136.269608,34.274808]]],[[[136.300507,34.251541],[136.29776,34.247568],[136.2957,34.241892],[136.29158,34.235648],[136.290207,34.236783],[136.286087,34.237351],[136.277847,34.236783],[136.277161,34.237351],[136.277847,34.239621],[136.281967,34.241892],[136.284714,34.24473],[136.290207,34.247568],[136.295013,34.250973],[136.300507,34.251541]]],[[[136.300507,34.251541],[136.304626,34.250406],[136.306686,34.248136],[136.308746,34.247],[136.308746,34.245298],[136.310806,34.243595],[136.304626,34.232242],[136.303253,34.232242],[136.300507,34.231106],[136.296387,34.228268],[136.295013,34.224861],[136.290894,34.225997],[136.290207,34.225429],[136.290894,34.223158],[136.290207,34.22259],[136.286774,34.225997],[136.277161,34.228835],[136.265488,34.228835],[136.263428,34.233945],[136.267548,34.23508],[136.268921,34.236783],[136.275101,34.237918],[136.278534,34.236783],[136.2854,34.237351],[136.288834,34.237351],[136.29158,34.235648],[136.2957,34.241892],[136.29776,34.247568],[136.300507,34.251541]]]]}},{"type":"Feature","properties":{"layer_id":"bakumatsu_villages","name":"古ノ本村","address":"紀伊 牟婁郡","source":"Geoshape 幕末期近世村領域データセット vector tiles (z7 extraction)","subarea_name":"近世村のおおよその範囲","feature_key":"village:K33G07S00334","accuracy_note":"2015年農業集落境界をもとに復元した概略範囲で、江戸時代の正確な村境ではありません"},"geometry":{"type":"MultiPolygon","coordinates":[[[[136.148758,34.17943],[136.151505,34.177157],[136.150818,34.175453],[136.152878,34.174885],[136.154251,34.172613],[136.158371,34.172613],[136.159744,34.169204],[136.163177,34.166363],[136.163864,34.161818],[136.170044,34.155568],[136.167984,34.155],[136.170044,34.150454],[136.174164,34.147613],[136.174164,34.145908],[136.180344,34.143635],[136.18309,34.141362],[136.181717,34.139088],[136.184464,34.135678],[136.19339,34.132837],[136.19751,34.126584],[136.20163,34.123742],[136.20369,34.118626],[136.206436,34.115784],[136.209183,34.11351],[136.211243,34.11351],[136.218109,34.117489],[136.222229,34.115216],[136.225662,34.116352],[136.231155,34.112942],[136.227722,34.112373],[136.227722,34.106119],[136.226349,34.106688],[136.218109,34.104982],[136.218109,34.102139],[136.214676,34.097022],[136.211243,34.097022],[136.208496,34.098159],[136.207809,34.097022],[136.205063,34.094748],[136.20369,34.095316],[136.20163,34.094179],[136.20163,34.095316],[136.19957,34.09361],[136.198883,34.094748],[136.198196,34.09361],[136.196136,34.09361],[136.18309,34.095316],[136.180344,34.093042],[136.172791,34.090199],[136.169357,34.092473],[136.170731,34.096454],[136.17485,34.099297],[136.175537,34.101571],[136.177597,34.103277],[136.176224,34.105551],[136.17691,34.107256],[136.17897,34.109531],[136.179657,34.112373],[136.182404,34.114079],[136.188583,34.111236],[136.189957,34.105551],[136.194077,34.103277],[136.19751,34.103277],[136.205063,34.105551],[136.205063,34.102708],[136.212616,34.102139],[136.216049,34.104414],[136.209183,34.106119],[136.210556,34.110099],[136.208496,34.112942],[136.202316,34.115216],[136.19751,34.114079],[136.19339,34.116352],[136.18927,34.117489],[136.180344,34.117489],[136.177597,34.119195],[136.17691,34.116352],[136.173477,34.115216],[136.163177,34.122037],[136.159058,34.127721],[136.147385,34.1209],[136.146698,34.119763],[136.145325,34.120332],[136.140518,34.119195],[136.134338,34.119763],[136.128159,34.116921],[136.124725,34.118058],[136.119919,34.117489],[136.117172,34.118058],[136.112366,34.115784],[136.104126,34.114647],[136.103439,34.115784],[136.100006,34.116921],[136.099319,34.1209],[136.100693,34.122037],[136.106873,34.124879],[136.108246,34.127153],[136.107559,34.129995],[136.104126,34.137383],[136.102753,34.137383],[136.103439,34.139088],[136.101379,34.141362],[136.106186,34.144771],[136.105499,34.152727],[136.106873,34.154432],[136.110306,34.155],[136.111679,34.157841],[136.114426,34.160114],[136.113052,34.164091],[136.110306,34.165227],[136.111679,34.168068],[136.117172,34.1675],[136.119919,34.165795],[136.121292,34.168636],[136.127472,34.169772],[136.128845,34.165795],[136.131592,34.165227],[136.135025,34.165227],[136.136398,34.1675],[136.138458,34.168068],[136.141891,34.166932],[136.141891,34.168636],[136.144638,34.169772],[136.144638,34.170908],[136.146698,34.170908],[136.145325,34.172613],[136.146011,34.177157],[136.148758,34.17943]]],[[[136.159058,34.127721],[136.163177,34.122037],[136.173477,34.115216],[136.17691,34.116352],[136.177597,34.119195],[136.180344,34.117489],[136.18309,34.117489],[136.18309,34.114647],[136.179657,34.112373],[136.179657,34.110099],[136.176224,34.105551],[136.177597,34.103277],[136.175537,34.101571],[136.17485,34.099297],[136.171417,34.097022],[136.169357,34.092473],[136.167297,34.092473],[136.167984,34.100434],[136.163864,34.108962],[136.161804,34.110099],[136.159058,34.109531],[136.155624,34.111236],[136.148758,34.116352],[136.146698,34.119763],[136.147385,34.1209],[136.159058,34.127721]]],[[[136.234589,34.1209],[136.238708,34.116352],[136.235275,34.114647],[136.235275,34.112942],[136.233215,34.112942],[136.233215,34.111236],[136.232529,34.111236],[136.229782,34.114079],[136.227036,34.115216],[136.225662,34.117489],[136.231155,34.117489],[136.234589,34.1209]]],[[[136.231155,34.112942],[136.232529,34.111236],[136.231155,34.108962],[136.232529,34.103845],[136.227722,34.106119],[136.227722,34.112373],[136.231155,34.112942]]],[[[136.242142,34.115216],[136.245575,34.114079],[136.245575,34.11351],[136.240768,34.110668],[136.238022,34.107825],[136.235275,34.107256],[136.235962,34.105551],[136.232529,34.106119],[136.233215,34.109531],[136.235962,34.108962],[136.237335,34.110099],[136.239395,34.112373],[136.239395,34.11351],[136.242142,34.115216]]]]}},{"type":"Feature","properties":{"layer_id":"bakumatsu_villages","name":"大原村","address":"紀伊 牟婁郡","source":"Geoshape 幕末期近世村領域データセット vector tiles (z7 extraction)","subarea_name":"近世村のおおよその範囲","feature_key":"village:K33G07S00365","accuracy_note":"2015年農業集落境界をもとに復元した概略範囲で、江戸時代の正確な村境ではありません"},"geometry":{"type":"Polygon","coordinates":[[[136.304626,34.232242],[136.307373,34.228268],[136.306,34.225429],[136.305313,34.219184],[136.302567,34.216345],[136.301193,34.21748],[136.296387,34.219184],[136.29158,34.219184],[136.290894,34.218048],[136.288834,34.218048],[136.286087,34.216912],[136.284027,34.216912],[136.277847,34.214073],[136.266861,34.214073],[136.266174,34.21237],[136.262054,34.21237],[136.258621,34.211234],[136.257248,34.211802],[136.252441,34.212938],[136.250381,34.218616],[136.251755,34.221455],[136.255875,34.22259],[136.257935,34.225429],[136.265488,34.228835],[136.277161,34.228835],[136.286774,34.225997],[136.290207,34.22259],[136.290894,34.223158],[136.290207,34.225429],[136.290894,34.225997],[136.295013,34.224861],[136.296387,34.228268],[136.302567,34.232242],[136.304626,34.232242]]]}},{"type":"Feature","properties":{"layer_id":"bakumatsu_villages","name":"小山浦","address":"紀伊 牟婁郡","source":"Geoshape 幕末期近世村領域データセット vector tiles (z7 extraction)","subarea_name":"近世村のおおよその範囲","feature_key":"village:K33G07S00337","accuracy_note":"2015年農業集落境界をもとに復元した概略範囲で、江戸時代の正確な村境ではありません"},"geometry":{"type":"Polygon","coordinates":[[[136.226349,34.106688],[136.232529,34.103845],[136.229095,34.102139],[136.227036,34.099297],[136.229095,34.098159],[136.233902,34.091336],[136.236649,34.08963],[136.236649,34.087924],[136.235962,34.086787],[136.225662,34.092473],[136.221542,34.091905],[136.215363,34.09361],[136.206436,34.090767],[136.20369,34.092473],[136.19957,34.093042],[136.18927,34.090199],[136.184464,34.093042],[136.183777,34.095316],[136.196136,34.09361],[136.198196,34.09361],[136.198883,34.094748],[136.19957,34.09361],[136.20163,34.095316],[136.20163,34.094179],[136.20369,34.095316],[136.205063,34.094748],[136.207809,34.097022],[136.208496,34.098159],[136.213303,34.097022],[136.215363,34.097591],[136.218109,34.101571],[136.218109,34.104982],[136.226349,34.106688]]]}},{"type":"Feature","properties":{"layer_id":"bakumatsu_villages","name":"小浦村","address":"紀伊 牟婁郡","source":"Geoshape 幕末期近世村領域データセット vector tiles (z7 extraction)","subarea_name":"近世村のおおよその範囲","feature_key":"village:K33G07S00336","accuracy_note":"2015年農業集落境界をもとに復元した概略範囲で、江戸時代の正確な村境ではありません"},"geometry":{"type":"Polygon","coordinates":[[[136.240768,34.128858],[136.244888,34.127721],[136.249695,34.12829],[136.253815,34.122037],[136.251755,34.117489],[136.245575,34.114079],[136.242142,34.115216],[136.245575,34.119195],[136.241455,34.118058],[136.241455,34.117489],[136.238708,34.116352],[136.234589,34.1209],[136.238022,34.124311],[136.238708,34.127721],[136.240768,34.128858]]]}},{"type":"Feature","properties":{"layer_id":"bakumatsu_villages","name":"島勝浦","address":"紀伊 牟婁郡","source":"Geoshape 幕末期近世村領域データセット vector tiles (z7 extraction)","subarea_name":"近世村のおおよその範囲","feature_key":"village:K33G07S00360","accuracy_note":"2015年農業集落境界をもとに復元した概略範囲で、江戸時代の正確な村境ではありません"},"geometry":{"type":"MultiPolygon","coordinates":[[[[136.28952,34.126584],[136.286774,34.125448],[136.282654,34.122037],[136.28334,34.118626],[136.2854,34.117489],[136.290894,34.118058],[136.288147,34.115216],[136.28746,34.110668],[136.281967,34.112942],[136.277161,34.112942],[136.277161,34.116921],[136.278534,34.118626],[136.277161,34.1209],[136.279221,34.123742],[136.282654,34.126016],[136.28952,34.126584]]],[[[136.28952,34.126584],[136.290894,34.127721],[136.292267,34.127153],[136.28952,34.126584]]],[[[136.30188,34.099865],[136.300507,34.100434],[136.298447,34.104414],[136.295013,34.104982],[136.292267,34.107825],[136.28952,34.107825],[136.28746,34.110668],[136.288147,34.115216],[136.288834,34.115784],[136.28952,34.114647],[136.292267,34.112942],[136.295013,34.112373],[136.295013,34.11351],[136.2957,34.112373],[136.298447,34.11351],[136.297073,34.114647],[136.294327,34.114079],[136.296387,34.115216],[136.2957,34.116921],[136.29776,34.117489],[136.29776,34.118626],[136.30394,34.116921],[136.305313,34.118058],[136.305313,34.119763],[136.306686,34.119763],[136.306686,34.118058],[136.31218,34.118626],[136.312866,34.115784],[136.315613,34.115784],[136.314926,34.114647],[136.311493,34.115216],[136.307373,34.11351],[136.307373,34.110099],[136.305313,34.108962],[136.305313,34.107825],[136.307373,34.105551],[136.306,34.105551],[136.30394,34.104414],[136.30188,34.101002],[136.302567,34.099865],[136.30188,34.099865]]]]}},{"type":"Feature","properties":{"layer_id":"bakumatsu_villages","name":"引本浦","address":"紀伊 牟婁郡","source":"Geoshape 幕末期近世村領域データセット vector tiles (z7 extraction)","subarea_name":"近世村のおおよその範囲","feature_key":"village:K33G07S00330","accuracy_note":"2015年農業集落境界をもとに復元した概略範囲で、江戸時代の正確な村境ではありません"},"geometry":{"type":"MultiPolygon","coordinates":[[[[136.253815,34.1209],[136.256561,34.119195],[136.255875,34.116352],[136.252441,34.112373],[136.248322,34.110668],[136.245575,34.114079],[136.251755,34.117489],[136.253815,34.1209]]],[[[136.269608,34.122037],[136.275787,34.112373],[136.275101,34.110099],[136.269608,34.107256],[136.263428,34.106119],[136.262054,34.104414],[136.257935,34.103277],[136.254501,34.099865],[136.254501,34.095316],[136.255188,34.091905],[136.257248,34.090199],[136.253815,34.088493],[136.254501,34.090199],[136.253128,34.090199],[136.253128,34.091336],[136.249008,34.095316],[136.250381,34.095885],[136.251068,34.098159],[136.247635,34.103277],[136.250381,34.104982],[136.253815,34.104414],[136.254501,34.106688],[136.259995,34.107825],[136.259995,34.108962],[136.261368,34.108962],[136.261368,34.110099],[136.266174,34.112942],[136.266174,34.114079],[136.264114,34.114079],[136.264114,34.115216],[136.264801,34.116352],[136.266174,34.116352],[136.266174,34.118058],[136.269608,34.116921],[136.268921,34.119195],[136.269608,34.122037]]],[[[136.245575,34.11351],[136.246948,34.112942],[136.248322,34.110668],[136.246948,34.110668],[136.246948,34.109531],[136.242828,34.109531],[136.240768,34.108393],[136.242828,34.106119],[136.235962,34.105551],[136.235275,34.107256],[136.238022,34.107825],[136.240768,34.110668],[136.245575,34.11351]]]]}},{"type":"Feature","properties":{"layer_id":"bakumatsu_villages","name":"江竜村","address":"紀伊 牟婁郡","source":"Geoshape 幕末期近世村領域データセット vector tiles (z7 extraction)","subarea_name":"近世村のおおよその範囲","feature_key":"village:K33G07S00367","accuracy_note":"2015年農業集落境界をもとに復元した概略範囲で、江戸時代の正確な村境ではありません"},"geometry":{"type":"Polygon","coordinates":[[[136.240082,34.248136],[136.240768,34.246433],[136.245575,34.24473],[136.249008,34.24473],[136.251068,34.243027],[136.256561,34.243027],[136.260681,34.240757],[136.268234,34.241892],[136.268921,34.243595],[136.270981,34.243027],[136.275101,34.237918],[136.268921,34.236783],[136.267548,34.23508],[136.263428,34.233945],[136.265488,34.228835],[136.257935,34.225429],[136.255875,34.22259],[136.251755,34.221455],[136.247635,34.22259],[136.245575,34.222023],[136.244202,34.223726],[136.239395,34.2277],[136.238022,34.229403],[136.238708,34.232242],[136.231155,34.239621],[136.227722,34.245865],[136.233215,34.247],[136.240082,34.248136]]]}},{"type":"Feature","properties":{"layer_id":"bakumatsu_villages","name":"河内村","address":"紀伊 牟婁郡","source":"Geoshape 幕末期近世村領域データセット vector tiles (z7 extraction)","subarea_name":"近世村のおおよその範囲","feature_key":"village:K33G07S00352","accuracy_note":"2015年農業集落境界をもとに復元した概略範囲で、江戸時代の正確な村境ではありません"},"geometry":{"type":"MultiPolygon","coordinates":[[[[136.196823,34.220887],[136.205063,34.218616],[136.206436,34.215777],[136.210556,34.213506],[136.222916,34.208963],[136.224289,34.206692],[136.227036,34.205556],[136.227722,34.20442],[136.235275,34.203284],[136.238708,34.200445],[136.238708,34.195901],[136.236649,34.193062],[136.237335,34.19079],[136.240768,34.189086],[136.247635,34.183406],[136.245575,34.180566],[136.243515,34.17943],[136.237335,34.173181],[136.239395,34.17034],[136.241455,34.160114],[136.243515,34.155],[136.240082,34.154432],[136.234589,34.151022],[136.233215,34.156704],[136.231155,34.156704],[136.226349,34.160682],[136.212616,34.158409],[136.209869,34.160682],[136.205063,34.16125],[136.204376,34.172045],[136.20163,34.172613],[136.198883,34.171476],[136.196136,34.173749],[136.192703,34.178293],[136.194077,34.182838],[136.190643,34.183974],[136.189957,34.186814],[136.185837,34.191358],[136.187897,34.19363],[136.192017,34.194198],[136.18927,34.199877],[136.18927,34.206692],[136.188583,34.210099],[136.19133,34.216912],[136.196823,34.220887]]],[[[136.243515,34.155],[136.242828,34.151591],[136.244202,34.148749],[136.242828,34.147044],[136.239395,34.148181],[136.239395,34.147044],[136.237335,34.148181],[136.234589,34.151022],[136.240082,34.154432],[136.243515,34.155]]]]}},{"type":"Feature","properties":{"layer_id":"bakumatsu_villages","name":"海野浦","address":"紀伊 牟婁郡","source":"Geoshape 幕末期近世村領域データセット vector tiles (z7 extraction)","subarea_name":"近世村のおおよその範囲","feature_key":"village:K33G07S00339","accuracy_note":"2015年農業集落境界をもとに復元した概略範囲で、江戸時代の正確な村境ではありません"},"geometry":{"type":"MultiPolygon","coordinates":[[[[136.30394,34.194765],[136.306,34.19079],[136.31012,34.189654],[136.31218,34.183974],[136.314926,34.182838],[136.314926,34.180566],[136.319046,34.180566],[136.314926,34.17943],[136.310806,34.179998],[136.30806,34.178293],[136.307373,34.180566],[136.305313,34.181134],[136.302567,34.179998],[136.30188,34.176589],[136.299133,34.181702],[136.290894,34.18795],[136.29364,34.19363],[136.2957,34.194765],[136.30188,34.193062],[136.30394,34.194765]]],[[[136.316986,34.191358],[136.321106,34.190222],[136.325912,34.19079],[136.327972,34.190222],[136.327286,34.186246],[136.331406,34.18511],[136.333466,34.181134],[136.330719,34.180566],[136.328659,34.182838],[136.327972,34.183974],[136.322479,34.186814],[136.320419,34.186246],[136.319733,34.18511],[136.319046,34.18511],[136.317673,34.182838],[136.317673,34.181134],[136.319046,34.180566],[136.315613,34.180566],[136.314926,34.182838],[136.31218,34.183974],[136.31012,34.189654],[136.316986,34.191358]]]]}},{"type":"Feature","properties":{"layer_id":"bakumatsu_villages","name":"白浦","address":"紀伊 牟婁郡","source":"Geoshape 幕末期近世村領域データセット vector tiles (z7 extraction)","subarea_name":"近世村のおおよその範囲","feature_key":"village:K33G07S00340","accuracy_note":"2015年農業集落境界をもとに復元した概略範囲で、江戸時代の正確な村境ではありません"},"geometry":{"type":"MultiPolygon","coordinates":[[[[136.277161,34.136815],[136.279221,34.136815],[136.278534,34.13511],[136.279907,34.134542],[136.279221,34.1317],[136.280594,34.130563],[136.2854,34.130563],[136.284714,34.128858],[136.286087,34.128858],[136.28746,34.129426],[136.286087,34.130563],[136.28746,34.130563],[136.28746,34.132268],[136.288834,34.132837],[136.28952,34.1317],[136.288834,34.129426],[136.290894,34.12829],[136.28952,34.127153],[136.282654,34.126016],[136.281967,34.127721],[136.278534,34.12829],[136.274414,34.1317],[136.277161,34.135678],[136.277161,34.136815]]],[[[136.2854,34.148749],[136.281281,34.14534],[136.280594,34.143067],[136.277847,34.142498],[136.276474,34.137952],[136.275787,34.141362],[136.274414,34.14193],[136.273727,34.145908],[136.275787,34.148181],[136.2854,34.148749]]]]}},{"type":"Feature","properties":{"layer_id":"bakumatsu_villages","name":"矢口浦","address":"紀伊 牟婁郡","source":"Geoshape 幕末期近世村領域データセット vector tiles (z7 extraction)","subarea_name":"近世村のおおよその範囲","feature_key":"village:K33G07S00355","accuracy_note":"2015年農業集落境界をもとに復元した概略範囲で、江戸時代の正確な村境ではありません"},"geometry":{"type":"MultiPolygon","coordinates":[[[[136.253128,34.133973],[136.251755,34.131132],[136.252441,34.129426],[136.260681,34.130563],[136.263428,34.129995],[136.265488,34.124879],[136.262741,34.125448],[136.261368,34.121469],[136.256561,34.119195],[136.255875,34.119763],[136.253815,34.1209],[136.249695,34.12829],[136.251068,34.132837],[136.253128,34.133973]]],[[[136.273041,34.152727],[136.275787,34.149886],[136.275101,34.147044],[136.273727,34.145908],[136.273727,34.143635],[136.275787,34.141362],[136.277161,34.135678],[136.274414,34.1317],[136.278534,34.12829],[136.281967,34.127721],[136.282654,34.126016],[136.279221,34.123742],[136.277161,34.1209],[136.278534,34.118626],[136.277161,34.116921],[136.277161,34.112942],[136.275787,34.112373],[136.269608,34.122037],[136.271667,34.120332],[136.275101,34.122037],[136.275787,34.123174],[136.271667,34.124311],[136.270981,34.127153],[136.272354,34.127153],[136.273041,34.127721],[136.267548,34.129426],[136.265488,34.124879],[136.263428,34.129995],[136.260681,34.130563],[136.252441,34.129426],[136.251755,34.131132],[136.253815,34.136247],[136.257935,34.137383],[136.257935,34.139657],[136.260681,34.145908],[136.273041,34.152727]]]]}},{"type":"Feature","properties":{"layer_id":"bakumatsu_villages","name":"船津村","address":"紀伊 牟婁郡","source":"Geoshape 幕末期近世村領域データセット vector tiles (z7 extraction)","subarea_name":"近世村のおおよその範囲","feature_key":"village:K33G07S00331","accuracy_note":"2015年農業集落境界をもとに復元した概略範囲で、江戸時代の正確な村境ではありません"},"geometry":{"type":"MultiPolygon","coordinates":[[[[136.212616,34.133405],[136.213989,34.132268],[136.222229,34.132837],[136.229782,34.131132],[136.224289,34.128858],[136.209183,34.126584],[136.203003,34.122037],[136.200943,34.124311],[136.19751,34.126584],[136.192703,34.133405],[136.212616,34.133405]]],[[[136.229782,34.131132],[136.231155,34.129426],[136.225662,34.124879],[136.224976,34.121469],[136.223602,34.120332],[136.225662,34.116352],[136.222229,34.115216],[136.218109,34.117489],[136.211243,34.11351],[136.209183,34.11351],[136.204376,34.116921],[136.202316,34.121469],[136.209183,34.126584],[136.224289,34.128858],[136.229782,34.131132]]],[[[136.231155,34.129426],[136.235275,34.126584],[136.238022,34.126016],[136.238022,34.124311],[136.234589,34.1209],[136.229782,34.116921],[136.225662,34.117489],[136.223602,34.120332],[136.224976,34.121469],[136.225662,34.124879],[136.231155,34.129426]]]]}},{"type":"Feature","properties":{"layer_id":"bakumatsu_villages","name":"道瀬浦","address":"紀伊 牟婁郡","source":"Geoshape 幕末期近世村領域データセット vector tiles (z7 extraction)","subarea_name":"近世村のおおよその範囲","feature_key":"village:K33G07S00333","accuracy_note":"2015年農業集落境界をもとに復元した概略範囲で、江戸時代の正確な村境ではありません"},"geometry":{"type":"Polygon","coordinates":[[[136.290894,34.18795],[136.2957,34.18511],[136.299133,34.181702],[136.29982,34.178861],[136.30188,34.176589],[136.298447,34.176021],[136.297073,34.173749],[136.298447,34.174317],[136.29776,34.173181],[136.297073,34.173181],[136.295013,34.171476],[136.2957,34.169772],[136.29776,34.169204],[136.299133,34.168068],[136.28952,34.169772],[136.288834,34.172613],[136.284714,34.177725],[136.279907,34.181134],[136.2854,34.187382],[136.290894,34.18795]]]}},{"type":"Feature","properties":{"layer_id":"bakumatsu_villages","name":"長島浦","address":"紀伊 牟婁郡","source":"Geoshape 幕末期近世村領域データセット vector tiles (z7 extraction)","subarea_name":"近世村のおおよその範囲","feature_key":"village:K33G07S00332","accuracy_note":"2015年農業集落境界をもとに復元した概略範囲で、江戸時代の正確な村境ではありません"},"geometry":{"type":"MultiPolygon","coordinates":[[[[136.325226,34.219751],[136.326599,34.218048],[136.325912,34.215777],[136.326599,34.21237],[136.331406,34.210099],[136.334152,34.206692],[136.332092,34.203284],[136.329346,34.202716],[136.327972,34.203852],[136.323853,34.205556],[136.319046,34.20442],[136.316986,34.208963],[136.316986,34.211234],[136.318359,34.212938],[136.319046,34.215777],[136.321106,34.218616],[136.325226,34.219751]]],[[[136.338272,34.202148],[136.337585,34.201581],[136.338959,34.201013],[136.336212,34.198173],[136.332092,34.198173],[136.330719,34.199309],[136.328659,34.198741],[136.327972,34.199877],[136.325226,34.197605],[136.321793,34.196469],[136.323166,34.195901],[136.321106,34.195901],[136.323166,34.19363],[136.324539,34.195333],[136.327286,34.195901],[136.329346,34.197037],[136.328659,34.194765],[136.330032,34.19363],[136.332779,34.195333],[136.330719,34.196469],[136.330719,34.197037],[136.336899,34.197605],[136.337585,34.197605],[136.338959,34.196469],[136.337585,34.191926],[136.333466,34.19079],[136.332092,34.188518],[136.332092,34.186814],[136.333466,34.184542],[136.336212,34.183406],[136.334839,34.181702],[136.333466,34.181134],[136.331406,34.18511],[136.327286,34.186246],[136.327972,34.190222],[136.325912,34.19079],[136.321106,34.190222],[136.316986,34.191358],[136.31012,34.189654],[136.306,34.19079],[136.30394,34.194765],[136.307373,34.197605],[136.308746,34.201013],[136.316986,34.202148],[136.319046,34.201581],[136.318359,34.203284],[136.319046,34.20442],[136.323166,34.205556],[136.327972,34.203852],[136.329346,34.202716],[136.332092,34.202716],[136.334152,34.206692],[136.338272,34.203852],[136.337585,34.202716],[136.338272,34.202148]]]]}},{"type":"Feature","properties":{"layer_id":"bakumatsu_villages","name":"馬瀬村","address":"紀伊 牟婁郡","source":"Geoshape 幕末期近世村領域データセット vector tiles (z7 extraction)","subarea_name":"近世村のおおよその範囲","feature_key":"village:K33G07S00350","accuracy_note":"2015年農業集落境界をもとに復元した概略範囲で、江戸時代の正確な村境ではありません"},"geometry":{"type":"MultiPolygon","coordinates":[[[[136.256561,34.18511],[136.259995,34.183406],[136.260681,34.181702],[136.257935,34.178293],[136.257935,34.173749],[136.259995,34.173181],[136.262054,34.169204],[136.259995,34.165227],[136.263428,34.164091],[136.264114,34.157841],[136.264801,34.156136],[136.268234,34.155],[136.267548,34.152727],[136.268921,34.151022],[136.264114,34.148181],[136.262054,34.145908],[136.257248,34.145908],[136.253128,34.144771],[136.251755,34.145908],[136.247635,34.14193],[136.248322,34.144203],[136.246948,34.144771],[136.244202,34.144203],[136.242828,34.142498],[136.242142,34.142498],[136.242828,34.147044],[136.244202,34.149318],[136.242828,34.151591],[136.243515,34.155568],[136.241455,34.160114],[136.239395,34.17034],[136.237335,34.173181],[136.243515,34.17943],[136.245575,34.180566],[136.247635,34.183406],[136.253128,34.183406],[136.256561,34.18511]]],[[[136.260681,34.145908],[136.257935,34.139657],[136.257935,34.137383],[136.253815,34.136247],[136.253128,34.133973],[136.251068,34.132837],[136.249008,34.135678],[136.245575,34.137952],[136.245575,34.140225],[136.247635,34.140793],[136.251755,34.145908],[136.253128,34.144771],[136.257248,34.145908],[136.260681,34.145908]]]]}},{"type":"Feature","properties":{"layer_id":"edo_post_stations","name":"荷坂峠","address":"","source":"CODH 江戸宿場データセット Version 1 (2026-08)","subarea_name":"熊野街道","feature_key":"post:R516-006"},"geometry":{"type":"Point","coordinates":[136.356501,34.239965]}},{"type":"Feature","properties":{"layer_id":"edo_post_stations","name":"馬瀬","address":"","source":"CODH 江戸宿場データセット Version 1 (2026-08)","subarea_name":"熊野街道","feature_key":"post:R516-007"},"geometry":{"type":"Point","coordinates":[136.2482,34.14637]}},{"type":"Feature","properties":{"layer_id":"edo_roads","name":"熊野街道","address":"伊勢神宮 → 熊野","source":"CODH 江戸主要街道データセット Version 4 (2026-08)","subarea_name":"江戸期の主要街道","feature_key":"road:R516"},"geometry":{"type":"LineString","coordinates":[[136.20157,34.09202],[136.20272,34.09301],[136.20277,34.09351],[136.20309,34.0936],[136.20342,34.09461],[136.20382,34.09513],[136.20363,34.09539],[136.20392,34.0958],[136.20376,34.0966],[136.20395,34.09711],[136.2046,34.09703],[136.20603,34.10139],[136.20653,34.10202],[136.21002,34.1034],[136.21138,34.10612],[136.21234,34.10612],[136.21344,34.1064],[136.21711,34.11007],[136.21977,34.11035],[136.22037,34.10979],[136.22201,34.1091],[136.22222,34.10879],[136.22287,34.10864],[136.22353,34.11007],[136.2234,34.11024],[136.22363,34.11089],[136.22381,34.11385],[136.22272,34.11462],[136.22055,34.11518],[136.21969,34.11577],[136.21943,34.11672],[136.21956,34.11801],[136.21883,34.12101],[136.21852,34.12174],[136.2175,34.12213],[136.21649,34.1222],[136.21604,34.12272],[136.21531,34.12308],[136.21497,34.12401],[136.215,34.12457],[136.21531,34.12507],[136.21508,34.12569],[136.21578,34.12727],[136.21563,34.12779],[136.21435,34.12857],[136.2138,34.12921],[136.21383,34.13049],[136.21453,34.13085],[136.21388,34.13353],[136.21404,34.13508],[136.21464,34.13526],[136.21537,34.13603],[136.21787,34.13735],[136.21907,34.13843],[136.22178,34.13938],[136.2229,34.14009],[136.22311,34.14153],[136.2241,34.14246],[136.22663,34.14363],[136.22968,34.14415],[136.23174,34.14343],[136.23244,34.14274],[136.23304,34.14257],[136.2338,34.14261],[136.23601,34.14173],[136.23906,34.14082],[136.24157,34.14147],[136.24308,34.14235],[136.24378,34.14356],[136.24475,34.14434],[136.24616,34.14445],[136.24738,34.14505],[136.24827,34.14598],[136.24973,34.1471],[136.25033,34.1479],[136.25098,34.14833],[136.25197,34.14837],[136.25273,34.14814],[136.25546,34.14978],[136.25768,34.15034],[136.25927,34.1512],[136.25945,34.15185],[136.26005,34.15254],[136.26068,34.15316],[136.26159,34.15349],[136.263,34.15569],[136.26521,34.15707],[136.26652,34.15739],[136.26819,34.15649],[136.26959,34.15726],[136.27004,34.15783],[136.27184,34.1588],[136.2728,34.15979],[136.27455,34.16022],[136.27643,34.16097],[136.27783,34.16201],[136.28021,34.1632],[136.2806,34.16363],[136.28101,34.16542],[136.28036,34.16626],[136.28041,34.16699],[136.28326,34.16915],[136.28552,34.16937],[136.29116,34.1706],[136.29183,34.17142],[136.29298,34.17167],[136.29533,34.1729],[136.29791,34.17536],[136.29838,34.17605],[136.2996,34.1762],[136.30054,34.17657],[136.30036,34.17715],[136.30096,34.17692],[136.30114,34.1772],[136.3008,34.1778],[136.30101,34.17806],[136.30172,34.17735],[136.30205,34.17866],[136.30187,34.17929],[136.30232,34.18002],[136.30291,34.18048],[136.30427,34.18099],[136.30458,34.18134],[136.30443,34.18198],[136.30487,34.18272],[136.3057,34.18328],[136.30729,34.18641],[136.30813,34.1871],[136.30894,34.18759],[136.30943,34.18736],[136.3099,34.18656],[136.31068,34.18647],[136.31175,34.18671],[136.31282,34.18634],[136.31415,34.18654],[136.3141,34.1874],[136.31439,34.18779],[136.31418,34.18841],[136.3136,34.18932],[136.31269,34.18953],[136.31196,34.19007],[136.31327,34.19208],[136.31329,34.19277],[136.31527,34.19456],[136.31569,34.19531],[136.31879,34.19712],[136.31997,34.19687],[136.32302,34.19702],[136.32547,34.19792],[136.32614,34.1985],[136.32664,34.19945],[136.32742,34.20023],[136.32815,34.2004],[136.33047,34.19945],[136.33146,34.19958],[136.33303,34.19932],[136.33324,34.19909],[136.33613,34.20152],[136.33668,34.20269],[136.33631,34.20351],[136.33444,34.20538],[136.336564,34.207833],[136.337147,34.208059],[136.33818,34.20846],[136.33891,34.20818],[136.33972,34.20761],[136.34204,34.20757],[136.34368,34.20686],[136.34407,34.20686],[136.34636,34.2082],[136.34782,34.20867],[136.34858,34.20934],[136.34897,34.21012],[136.34957,34.2104],[136.35051,34.21057],[136.35137,34.21141],[136.35236,34.21203],[136.3528,34.21255],[136.354,34.21333],[136.35486,34.21354],[136.35559,34.21346],[136.35705,34.214],[136.35724,34.21428],[136.35794,34.21434],[136.35958,34.21501],[136.36151,34.2152],[136.36201,34.21542],[136.36261,34.21527],[136.36467,34.21548],[136.36542,34.21531],[136.36592,34.21544],[136.36639,34.21529],[136.36667,34.21495],[136.36696,34.21518],[136.36686,34.21564],[136.36795,34.21551],[136.36899,34.21572],[136.37022,34.2162],[136.37191,34.21576]]}},{"type":"Feature","properties":{"layer_id":"edo_roads","name":"熊野街道【支路】","address":"田丸 → 長島","source":"CODH 江戸主要街道データセット Version 4 (2026-08)","subarea_name":"江戸期の主要街道","feature_key":"road:R516-1"},"geometry":{"type":"LineString","coordinates":[[136.357796,34.237155],[136.357587,34.237228],[136.357118,34.237485],[136.357201,34.237265],[136.356922,34.237401],[136.356846,34.237642],[136.356174,34.237642],[136.355477,34.237349],[136.35521,34.236867],[136.35502,34.236856],[136.355084,34.236531],[136.354653,34.23606],[136.354551,34.235526],[136.354184,34.235284],[136.353968,34.234991],[136.353714,34.234823],[136.353385,34.234268],[136.352916,34.23432],[136.352624,34.234215],[136.352434,34.234006],[136.352231,34.233964],[136.352384,34.233702],[136.352282,34.233398],[136.351839,34.233031],[136.351585,34.232759],[136.351306,34.232423],[136.350888,34.232151],[136.350799,34.231459],[136.350571,34.230956],[136.350609,34.230673],[136.350457,34.230443],[136.35014,34.23016],[136.350026,34.229636],[136.350102,34.229195],[136.350292,34.228776],[136.34995,34.227917],[136.350203,34.227424],[136.350229,34.227099],[136.350698,34.22603],[136.350596,34.225632],[136.350964,34.224479],[136.351078,34.223599],[136.351027,34.223399],[136.350558,34.222446],[136.350393,34.22189],[136.35019,34.221701],[136.350077,34.221481],[136.349975,34.221052],[136.349671,34.220339],[136.349367,34.219899],[136.348403,34.219364],[136.347668,34.21885],[136.346476,34.217792],[136.345881,34.217089],[136.345741,34.215758],[136.344093,34.214762],[136.343662,34.214385],[136.343206,34.214154],[136.342661,34.214081],[136.342344,34.213903],[136.341545,34.21318],[136.341051,34.212991],[136.340861,34.212173],[136.340569,34.211597],[136.340316,34.211345],[136.34005,34.210485],[136.339124,34.210119],[136.3383,34.209552],[136.337844,34.208819],[136.337204,34.208315],[136.337147,34.208059]]}},{"type":"Feature","properties":{"layer_id":"historical_sites_archaeology","name":"後山城跡","address":"三重県 北牟婁郡紀北町 小山浦","source":"Geoshape 日本歴史地名大系 施設・地点項目データセット 2025-05-15","subarea_name":"城跡","feature_key":"05_castle_ruins.geojson:240000333900","subtype":"城跡"},"geometry":{"type":"Point","coordinates":[136.22555,34.099607]}},{"type":"Feature","properties":{"layer_id":"historical_sites_archaeology","name":"船越遺跡","address":"三重県 北牟婁郡紀北町 島勝浦","source":"Geoshape 日本歴史地名大系 施設・地点項目データセット 2025-05-15","subarea_name":"遺跡","feature_key":"08_archaeological_sites.geojson:240000332600","subtype":"遺跡"},"geometry":{"type":"Point","coordinates":[136.282378,34.121144]}},{"type":"Feature","properties":{"layer_id":"historical_temples_shrines","name":"吉祥院","address":"三重県 度会郡大紀町 船木232番地","source":"Geoshape 日本歴史地名大系 施設・地点項目データセット 2025-05-15","subarea_name":"寺院","feature_key":"01_temples.geojson:240000333100","subtype":"寺院"},"geometry":{"type":"Point","coordinates":[136.236636,34.10599]}},{"type":"Feature","properties":{"layer_id":"historical_temples_shrines","name":"島勝神社","address":"三重県 北牟婁郡紀北町 島勝浦312番地","source":"Geoshape 日本歴史地名大系 施設・地点項目データセット 2025-05-15","subarea_name":"神社","feature_key":"02_shrines.geojson:240000332800","subtype":"神社"},"geometry":{"type":"Point","coordinates":[136.297244,34.111922]}},{"type":"Feature","properties":{"layer_id":"historical_temples_shrines","name":"長島神社","address":"三重県 北牟婁郡紀北町 長島1409番地","source":"Geoshape 日本歴史地名大系 施設・地点項目データセット 2025-05-15","subarea_name":"神社","feature_key":"02_shrines.geojson:240000331200","subtype":"神社"},"geometry":{"type":"Point","coordinates":[136.331896,34.200301]}}]}