{"type":"FeatureCollection","municipality_code":"26205","pref":"京都府","city":"宮津市","layer_counts":{"bakumatsu_villages":48,"civil_engineering_heritage":1,"historical_sites_archaeology":3,"historical_temples_shrines":27},"total_features":79,"features":[{"type":"Feature","properties":{"layer_id":"bakumatsu_villages","name":"上世屋村","address":"丹後 与謝郡","source":"Geoshape 幕末期近世村領域データセット vector tiles (z7 extraction)","subarea_name":"近世村のおおよその範囲","feature_key":"village:K44G04S00061","accuracy_note":"2015年農業集落境界をもとに復元した概略範囲で、江戸時代の正確な村境ではありません"},"geometry":{"type":"Polygon","coordinates":[[[135.182648,35.652275],[135.188828,35.649485],[135.190887,35.645021],[135.190887,35.641673],[135.199814,35.634419],[135.201874,35.634977],[135.2005,35.63107],[135.198441,35.630512],[135.197754,35.631628],[135.193634,35.628838],[135.192261,35.624931],[135.186768,35.619907],[135.186768,35.618791],[135.183334,35.616],[135.182648,35.614325],[135.177841,35.614884],[135.176468,35.617116],[135.172348,35.618791],[135.171661,35.620466],[135.173035,35.62214],[135.168915,35.626047],[135.172348,35.637767],[135.171661,35.642789],[135.177841,35.651717],[135.182648,35.652275]]]}},{"type":"Feature","properties":{"layer_id":"bakumatsu_villages","name":"上司町","address":"丹後 与謝郡","source":"Geoshape 幕末期近世村領域データセット vector tiles (z7 extraction)","subarea_name":"近世村のおおよその範囲","feature_key":"village:K44G04S00033","accuracy_note":"2015年農業集落境界をもとに復元した概略範囲で、江戸時代の正確な村境ではありません"},"geometry":{"type":"Polygon","coordinates":[[[135.22316,35.55625],[135.228653,35.554574],[135.232086,35.551781],[135.236893,35.553457],[135.237579,35.552899],[135.236206,35.551781],[135.237579,35.551781],[135.236206,35.550105],[135.237579,35.550664],[135.236206,35.548988],[135.237579,35.54396],[135.2314,35.542284],[135.228653,35.544519],[135.223846,35.540608],[135.219727,35.542284],[135.219727,35.555133],[135.22316,35.55625]]]}},{"type":"Feature","properties":{"layer_id":"bakumatsu_villages","name":"下世屋村","address":"丹後 与謝郡","source":"Geoshape 幕末期近世村領域データセット vector tiles (z7 extraction)","subarea_name":"近世村のおおよその範囲","feature_key":"village:K44G04S00058","accuracy_note":"2015年農業集落境界をもとに復元した概略範囲で、江戸時代の正確な村境ではありません"},"geometry":{"type":"Polygon","coordinates":[[[135.212173,35.643347],[135.21492,35.639999],[135.213547,35.636651],[135.215607,35.633302],[135.221786,35.629954],[135.230713,35.62828],[135.228653,35.626605],[135.228653,35.622698],[135.230026,35.621024],[135.22522,35.618233],[135.223846,35.619349],[135.21904,35.617116],[135.20668,35.616],[135.203934,35.616],[135.2005,35.618233],[135.198441,35.617116],[135.193634,35.618233],[135.188828,35.621582],[135.192261,35.624931],[135.193634,35.628838],[135.197754,35.631628],[135.198441,35.630512],[135.2005,35.63107],[135.201874,35.634977],[135.20256,35.634419],[135.207367,35.635535],[135.209427,35.634419],[135.212173,35.643347]]]}},{"type":"Feature","properties":{"layer_id":"bakumatsu_villages","name":"中村","address":"丹後 与謝郡","source":"Geoshape 幕末期近世村領域データセット vector tiles (z7 extraction)","subarea_name":"近世村のおおよその範囲","feature_key":"village:K44G04S00031","accuracy_note":"2015年農業集落境界をもとに復元した概略範囲で、江戸時代の正確な村境ではありません"},"geometry":{"type":"Polygon","coordinates":[[[135.240326,35.53949],[135.241699,35.537814],[135.241013,35.537255],[135.241013,35.536696],[135.238953,35.535579],[135.236206,35.531109],[135.232086,35.53055],[135.230713,35.528315],[135.230026,35.531109],[135.22728,35.533344],[135.230026,35.532785],[135.234146,35.537814],[135.240326,35.53949]]]}},{"type":"Feature","properties":{"layer_id":"bakumatsu_villages","name":"中津村","address":"丹後 与謝郡","source":"Geoshape 幕末期近世村領域データセット vector tiles (z7 extraction)","subarea_name":"近世村のおおよその範囲","feature_key":"village:K44G04S00034","accuracy_note":"2015年農業集落境界をもとに復元した概略範囲で、江戸時代の正確な村境ではありません"},"geometry":{"type":"Polygon","coordinates":[[[135.234146,35.562395],[135.234833,35.561278],[135.237579,35.560719],[135.239639,35.557926],[135.236206,35.552899],[135.234146,35.552899],[135.234146,35.551781],[135.223846,35.555692],[135.226593,35.558485],[135.234146,35.562395]]]}},{"type":"Feature","properties":{"layer_id":"bakumatsu_villages","name":"中野村","address":"丹後 与謝郡","source":"Geoshape 幕末期近世村領域データセット vector tiles (z7 extraction)","subarea_name":"近世村のおおよその範囲","feature_key":"village:K44G04S00051","accuracy_note":"2015年農業集落境界をもとに復元した概略範囲で、江戸時代の正確な村境ではありません"},"geometry":{"type":"Polygon","coordinates":[[[135.190887,35.589202],[135.192947,35.584176],[135.192947,35.581943],[135.188828,35.57915],[135.186081,35.580826],[135.184021,35.588085],[135.190887,35.589202]]]}},{"type":"Feature","properties":{"layer_id":"bakumatsu_villages","name":"今福村","address":"丹後 与謝郡","source":"Geoshape 幕末期近世村領域データセット vector tiles (z7 extraction)","subarea_name":"近世村のおおよその範囲","feature_key":"village:K44G04S00024","accuracy_note":"2015年農業集落境界をもとに復元した概略範囲で、江戸時代の正確な村境ではありません"},"geometry":{"type":"Polygon","coordinates":[[[135.193634,35.522167],[135.196381,35.52105],[135.201874,35.515461],[135.205994,35.514902],[135.2108,35.512666],[135.209427,35.51099],[135.211487,35.507636],[135.208054,35.504841],[135.207367,35.502605],[135.205994,35.502046],[135.20462,35.498692],[135.20668,35.495338],[135.205994,35.491984],[135.2005,35.490306],[135.195694,35.490306],[135.191574,35.499251],[135.192261,35.504841],[135.191574,35.508195],[135.188828,35.509313],[135.187454,35.512107],[135.185394,35.512666],[135.187454,35.517697],[135.188828,35.517138],[135.192261,35.518814],[135.193634,35.522167]]]}},{"type":"Feature","properties":{"layer_id":"bakumatsu_villages","name":"喜多村","address":"丹後 与謝郡","source":"Geoshape 幕末期近世村領域データセット vector tiles (z7 extraction)","subarea_name":"近世村のおおよその範囲","feature_key":"village:K44G04S00023","accuracy_note":"2015年農業集落境界をもとに復元した概略範囲で、江戸時代の正確な村境ではありません"},"geometry":{"type":"MultiPolygon","coordinates":[[[[135.186081,35.524403],[135.193634,35.522167],[135.192261,35.518814],[135.188828,35.517138],[135.187454,35.517697],[135.186768,35.515461],[135.181961,35.515461],[135.173035,35.510431],[135.167542,35.508754],[135.163422,35.505959],[135.161362,35.5054],[135.159988,35.506518],[135.160675,35.511549],[135.165482,35.515461],[135.166855,35.518255],[135.173721,35.52105],[135.176468,35.523285],[135.186081,35.524403]]],[[[135.186081,35.51602],[135.185394,35.512666],[135.188141,35.512107],[135.188828,35.509313],[135.177841,35.512666],[135.181961,35.515461],[135.186081,35.51602]]],[[[135.177841,35.512666],[135.180588,35.511549],[135.190887,35.509313],[135.192261,35.5054],[135.191574,35.503164],[135.192261,35.497015],[135.184021,35.502046],[135.181274,35.508754],[135.173721,35.510431],[135.177841,35.512666]]]]}},{"type":"Feature","properties":{"layer_id":"bakumatsu_villages","name":"外垣村","address":"丹後 与謝郡","source":"Geoshape 幕末期近世村領域データセット vector tiles (z7 extraction)","subarea_name":"近世村のおおよその範囲","feature_key":"village:K44G04S00069","accuracy_note":"2015年農業集落境界をもとに復元した概略範囲で、江戸時代の正確な村境ではありません"},"geometry":{"type":"Polygon","coordinates":[[[135.256805,35.671801],[135.256119,35.667338],[135.256119,35.661759],[135.254745,35.65897],[135.243759,35.661202],[135.236893,35.661202],[135.240326,35.665664],[135.243759,35.667338],[135.247879,35.665664],[135.251312,35.666222],[135.252686,35.665664],[135.252686,35.668454],[135.256805,35.671801]]]}},{"type":"Feature","properties":{"layer_id":"bakumatsu_villages","name":"大垣村","address":"丹後 与謝郡","source":"Geoshape 幕末期近世村領域データセット vector tiles (z7 extraction)","subarea_name":"近世村のおおよその範囲","feature_key":"village:K44G04S00052","accuracy_note":"2015年農業集落境界をもとに復元した概略範囲で、江戸時代の正確な村境ではありません"},"geometry":{"type":"Polygon","coordinates":[[[135.194321,35.594227],[135.197754,35.584735],[135.197754,35.581943],[135.196381,35.580826],[135.192947,35.581943],[135.192947,35.584176],[135.190887,35.589202],[135.194321,35.594227]]]}},{"type":"Feature","properties":{"layer_id":"bakumatsu_villages","name":"大島村","address":"丹後 与謝郡","source":"Geoshape 幕末期近世村領域データセット vector tiles (z7 extraction)","subarea_name":"近世村のおおよその範囲","feature_key":"village:K44G04S00086","accuracy_note":"2015年農業集落境界をもとに復元した概略範囲で、江戸時代の正確な村境ではありません"},"geometry":{"type":"Polygon","coordinates":[[[135.263672,35.662317],[135.262985,35.661202],[135.264359,35.660644],[135.262299,35.660644],[135.260239,35.663433],[135.256119,35.665107],[135.258865,35.67459],[135.256119,35.675147],[135.256805,35.678494],[135.258865,35.683514],[135.260239,35.684629],[135.262299,35.684072],[135.268478,35.67961],[135.266418,35.676263],[135.267105,35.676263],[135.267792,35.67459],[135.269852,35.67459],[135.272598,35.672916],[135.269852,35.670127],[135.273972,35.667338],[135.271912,35.66678],[135.269165,35.667896],[135.265732,35.665664],[135.262985,35.662875],[135.263672,35.662317]]]}},{"type":"Feature","properties":{"layer_id":"bakumatsu_villages","name":"奥波見村","address":"丹後 与謝郡","source":"Geoshape 幕末期近世村領域データセット vector tiles (z7 extraction)","subarea_name":"近世村のおおよその範囲","feature_key":"village:K44G04S00066","accuracy_note":"2015年農業集落境界をもとに復元した概略範囲で、江戸時代の正確な村境ではありません"},"geometry":{"type":"Polygon","coordinates":[[[135.209427,35.65618],[135.218353,35.651159],[135.22728,35.642789],[135.2314,35.636651],[135.230713,35.634419],[135.232773,35.633302],[135.234146,35.629954],[135.236206,35.62828],[135.2314,35.627721],[135.228653,35.624931],[135.228653,35.627163],[135.230713,35.62828],[135.221786,35.629954],[135.21904,35.63107],[135.21492,35.634419],[135.213547,35.636651],[135.21492,35.639999],[135.211487,35.643905],[135.212173,35.646695],[135.209427,35.650043],[135.209427,35.65618]]]}},{"type":"Feature","properties":{"layer_id":"bakumatsu_villages","name":"奥波見村","address":"丹後 与謝郡","source":"Geoshape 幕末期近世村領域データセット vector tiles (z7 extraction)","subarea_name":"近世村のおおよその範囲","feature_key":"village:K44G04S00085","accuracy_note":"2015年農業集落境界をもとに復元した概略範囲で、江戸時代の正確な村境ではありません"},"geometry":{"type":"MultiPolygon","coordinates":[[[[135.21698,35.664549],[135.224533,35.662875],[135.22728,35.662875],[135.230713,35.660644],[135.236893,35.661202],[135.238953,35.655065],[135.236893,35.652275],[135.236893,35.646137],[135.235519,35.644463],[135.2314,35.647811],[135.225906,35.648369],[135.223846,35.652275],[135.2211,35.65618],[135.212173,35.658412],[135.21286,35.661759],[135.21698,35.664549]]],[[[135.212173,35.658412],[135.220413,35.65618],[135.223846,35.652275],[135.225906,35.648369],[135.230713,35.647811],[135.234833,35.645021],[135.235519,35.643347],[135.233459,35.641673],[135.2314,35.636651],[135.22728,35.642789],[135.21904,35.651159],[135.209427,35.65618],[135.212173,35.658412]]]]}},{"type":"Feature","properties":{"layer_id":"bakumatsu_villages","name":"宮村","address":"丹後 与謝郡","source":"Geoshape 幕末期近世村領域データセット vector tiles (z7 extraction)","subarea_name":"近世村のおおよその範囲","feature_key":"village:K44G04S00025","accuracy_note":"2015年農業集落境界をもとに復元した概略範囲で、江戸時代の正確な村境ではありません"},"geometry":{"type":"MultiPolygon","coordinates":[[[[135.196381,35.532226],[135.199127,35.531667],[135.199127,35.529432],[135.20668,35.524962],[135.207367,35.521609],[135.20256,35.521609],[135.198441,35.525521],[135.196381,35.525521],[135.192947,35.527197],[135.195007,35.531667],[135.196381,35.532226]]],[[[135.192947,35.527197],[135.196381,35.525521],[135.198441,35.525521],[135.20256,35.521609],[135.207367,35.521609],[135.211487,35.520491],[135.21286,35.519932],[135.210114,35.513225],[135.201874,35.515461],[135.201187,35.517138],[135.196381,35.52105],[135.188828,35.523285],[135.189514,35.524962],[135.188828,35.526079],[135.192261,35.525521],[135.192947,35.527197]]]]}},{"type":"Feature","properties":{"layer_id":"bakumatsu_villages","name":"小寺村","address":"丹後 与謝郡","source":"Geoshape 幕末期近世村領域データセット vector tiles (z7 extraction)","subarea_name":"近世村のおおよその範囲","feature_key":"village:K44G04S00032","accuracy_note":"2015年農業集落境界をもとに復元した概略範囲で、江戸時代の正確な村境ではありません"},"geometry":{"type":"Polygon","coordinates":[[[135.22728,35.533344],[135.22316,35.537255],[135.224533,35.538931],[135.223846,35.540608],[135.228653,35.544519],[135.2314,35.542284],[135.237579,35.54396],[135.240326,35.53949],[135.234146,35.537814],[135.230026,35.532785],[135.22728,35.533344]]]}},{"type":"Feature","properties":{"layer_id":"bakumatsu_villages","name":"小松村","address":"丹後 与謝郡","source":"Geoshape 幕末期近世村領域データセット vector tiles (z7 extraction)","subarea_name":"近世村のおおよその範囲","feature_key":"village:K44G04S00049","accuracy_note":"2015年農業集落境界をもとに復元した概略範囲で、江戸時代の正確な村境ではありません"},"geometry":{"type":"Polygon","coordinates":[[[135.184021,35.588085],[135.184708,35.583618],[135.186768,35.580267],[135.182648,35.57915],[135.182648,35.582501],[135.184021,35.588085]]]}},{"type":"Feature","properties":{"layer_id":"bakumatsu_villages","name":"小田宿野村","address":"丹後 与謝郡","source":"Geoshape 幕末期近世村領域データセット vector tiles (z7 extraction)","subarea_name":"近世村のおおよその範囲","feature_key":"village:K44G04S00035","accuracy_note":"2015年農業集落境界をもとに復元した概略範囲で、江戸時代の正確な村境ではありません"},"geometry":{"type":"Polygon","coordinates":[[[135.261612,35.554016],[135.260925,35.554574],[135.254059,35.55625],[135.253372,35.552899],[135.249252,35.555692],[135.248566,35.557368],[135.251312,35.557926],[135.249939,35.558485],[135.251999,35.558485],[135.249939,35.561278],[135.247879,35.561836],[135.244446,35.561278],[135.242386,35.560719],[135.239639,35.557926],[135.237579,35.560719],[135.234833,35.561278],[135.234146,35.562395],[135.241013,35.566863],[135.245819,35.568539],[135.248566,35.568539],[135.250626,35.565746],[135.258179,35.565188],[135.260239,35.563512],[135.262299,35.563512],[135.265045,35.567422],[135.267792,35.56798],[135.269852,35.565746],[135.269165,35.564071],[135.273972,35.561836],[135.274658,35.560719],[135.264359,35.556809],[135.262299,35.554016],[135.261612,35.554016]]]}},{"type":"Feature","properties":{"layer_id":"bakumatsu_villages","name":"小田村","address":"丹後 与謝郡","source":"Geoshape 幕末期近世村領域データセット vector tiles (z7 extraction)","subarea_name":"近世村のおおよその範囲","feature_key":"village:K44G04S00022","accuracy_note":"2015年農業集落境界をもとに復元した概略範囲で、江戸時代の正確な村境ではありません"},"geometry":{"type":"MultiPolygon","coordinates":[[[[135.160675,35.511549],[135.159988,35.506518],[135.161362,35.5054],[135.162048,35.502605],[135.164108,35.500369],[135.164108,35.496456],[135.162735,35.493661],[135.158615,35.491425],[135.155182,35.487511],[135.149002,35.485275],[135.146942,35.481361],[135.144196,35.480242],[135.136642,35.481361],[135.137329,35.482479],[135.135956,35.484156],[135.137329,35.486393],[135.137329,35.489747],[135.140762,35.492543],[135.144196,35.497015],[135.146255,35.497015],[135.151062,35.501487],[135.151749,35.504841],[135.151062,35.509872],[135.153122,35.51099],[135.160675,35.511549]]],[[[135.136642,35.481361],[135.142822,35.480802],[135.149689,35.478565],[135.159302,35.478006],[135.162048,35.477447],[135.160675,35.472973],[135.161362,35.469618],[135.158615,35.465703],[135.160675,35.460111],[135.159988,35.456196],[135.159302,35.455636],[135.155182,35.457314],[135.153122,35.459551],[135.151062,35.458992],[135.148315,35.459551],[135.146255,35.462348],[135.146255,35.464026],[135.143509,35.466263],[135.132523,35.4685],[135.129776,35.470177],[135.124283,35.470177],[135.12291,35.47521],[135.124969,35.476888],[135.128403,35.477447],[135.136642,35.481361]]],[[[135.164108,35.496456],[135.168228,35.489188],[135.166168,35.485275],[135.168915,35.483597],[135.168915,35.480802],[135.168228,35.478565],[135.162048,35.477447],[135.159302,35.478006],[135.149689,35.478565],[135.144196,35.480242],[135.146942,35.481361],[135.149002,35.485275],[135.155182,35.487511],[135.158615,35.491425],[135.161362,35.492543],[135.164108,35.496456]]],[[[135.173721,35.510431],[135.181274,35.508754],[135.184021,35.502046],[135.192261,35.497015],[135.196381,35.489747],[135.190201,35.486952],[135.186768,35.48807],[135.182648,35.493102],[135.178528,35.502605],[135.173035,35.504841],[135.170288,35.509313],[135.173721,35.510431]]],[[[135.170288,35.509313],[135.173035,35.504841],[135.178528,35.502605],[135.182648,35.493102],[135.186768,35.48807],[135.190201,35.486952],[135.185394,35.486393],[135.176468,35.482479],[135.171661,35.479683],[135.168228,35.478565],[135.168915,35.483038],[135.166168,35.485275],[135.168228,35.489188],[135.164108,35.496456],[135.164108,35.500369],[135.162048,35.502605],[135.161362,35.5054],[135.164795,35.506518],[135.167542,35.508754],[135.170288,35.509313]]],[[[135.2005,35.490306],[135.201874,35.487511],[135.199814,35.485834],[135.201187,35.484156],[135.201187,35.48192],[135.192947,35.474092],[135.185394,35.470177],[135.185394,35.464026],[135.181961,35.461789],[135.172348,35.456755],[135.165482,35.456196],[135.163422,35.457314],[135.160675,35.457314],[135.160675,35.460111],[135.158615,35.465703],[135.161362,35.469618],[135.160675,35.472973],[135.162048,35.477447],[135.170288,35.479124],[135.185394,35.486393],[135.189514,35.486393],[135.196381,35.489747],[135.2005,35.490306]]]]}},{"type":"Feature","properties":{"layer_id":"bakumatsu_villages","name":"山中村","address":"丹後 与謝郡","source":"Geoshape 幕末期近世村領域データセット vector tiles (z7 extraction)","subarea_name":"近世村のおおよその範囲","feature_key":"village:K44G04S00028","accuracy_note":"2015年農業集落境界をもとに復元した概略範囲で、江戸時代の正確な村境ではありません"},"geometry":{"type":"Polygon","coordinates":[[[135.22316,35.537255],[135.230026,35.529991],[135.22934,35.526079],[135.230713,35.524962],[135.228653,35.520491],[135.22522,35.522167],[135.215607,35.521609],[135.220413,35.526079],[135.2211,35.531109],[135.22316,35.537255]]]}},{"type":"Feature","properties":{"layer_id":"bakumatsu_villages","name":"岩ヶ鼻村","address":"丹後 与謝郡","source":"Geoshape 幕末期近世村領域データセット vector tiles (z7 extraction)","subarea_name":"近世村のおおよその範囲","feature_key":"village:K44G04S00070","accuracy_note":"2015年農業集落境界をもとに復元した概略範囲で、江戸時代の正確な村境ではありません"},"geometry":{"type":"Polygon","coordinates":[[[135.256119,35.665107],[135.260239,35.663433],[135.262299,35.659528],[135.260925,35.65897],[135.258179,35.655065],[135.256119,35.65618],[135.245819,35.65618],[135.243759,35.657296],[135.236893,35.65897],[135.236893,35.661202],[135.243759,35.661202],[135.254745,35.65897],[135.256119,35.661759],[135.256119,35.665107]]]}},{"type":"Feature","properties":{"layer_id":"bakumatsu_villages","name":"島陰村","address":"丹後 与謝郡","source":"Geoshape 幕末期近世村領域データセット vector tiles (z7 extraction)","subarea_name":"近世村のおおよその範囲","feature_key":"village:K44G04S00036","accuracy_note":"2015年農業集落境界をもとに復元した概略範囲で、江戸時代の正確な村境ではありません"},"geometry":{"type":"Polygon","coordinates":[[[135.250626,35.5758],[135.249939,35.575241],[135.250626,35.570773],[135.254745,35.56798],[135.258179,35.567422],[135.260239,35.568539],[135.265045,35.567422],[135.262299,35.563512],[135.260239,35.563512],[135.258179,35.565188],[135.250626,35.565746],[135.248566,35.568539],[135.241699,35.567422],[135.241013,35.572449],[135.241699,35.574683],[135.249252,35.57915],[135.250626,35.578033],[135.252686,35.578033],[135.250626,35.576358],[135.250626,35.5758]]]}},{"type":"Feature","properties":{"layer_id":"bakumatsu_villages","name":"惣村","address":"丹後 与謝郡","source":"Geoshape 幕末期近世村領域データセット vector tiles (z7 extraction)","subarea_name":"近世村のおおよその範囲","feature_key":"village:K44G04S00026","accuracy_note":"2015年農業集落境界をもとに復元した概略範囲で、江戸時代の正確な村境ではありません"},"geometry":{"type":"MultiPolygon","coordinates":[[[[135.170288,35.563512],[135.175095,35.561278],[135.178528,35.561278],[135.181274,35.559043],[135.183334,35.559602],[135.184708,35.560719],[135.186081,35.559602],[135.188141,35.554574],[135.187454,35.550105],[135.179214,35.550664],[135.178528,35.549547],[135.175781,35.551223],[135.175095,35.553457],[135.170288,35.559043],[135.170288,35.563512]]],[[[135.20256,35.536138],[135.2108,35.53502],[135.2108,35.529991],[135.21286,35.526638],[135.214233,35.521609],[135.21286,35.519932],[135.211487,35.520491],[135.207367,35.521609],[135.20668,35.524962],[135.199127,35.529432],[135.199814,35.533344],[135.201187,35.535579],[135.20256,35.535579],[135.20256,35.536138]]]]}},{"type":"Feature","properties":{"layer_id":"bakumatsu_villages","name":"新宮村","address":"丹後 与謝郡","source":"Geoshape 幕末期近世村領域データセット vector tiles (z7 extraction)","subarea_name":"近世村のおおよその範囲","feature_key":"village:K44G04S00029","accuracy_note":"2015年農業集落境界をもとに復元した概略範囲で、江戸時代の正確な村境ではありません"},"geometry":{"type":"Polygon","coordinates":[[[135.235519,35.531109],[135.239639,35.529991],[135.243073,35.524403],[135.245819,35.522726],[135.251999,35.522726],[135.256805,35.52105],[135.257492,35.519373],[135.254059,35.51099],[135.247192,35.509872],[135.244446,35.508195],[135.241699,35.507636],[135.234833,35.509872],[135.234146,35.511549],[135.230713,35.508754],[135.22934,35.508195],[135.22728,35.505959],[135.22316,35.503723],[135.22316,35.501487],[135.2211,35.500928],[135.219727,35.498692],[135.219727,35.495897],[135.21904,35.493661],[135.209427,35.493661],[135.205994,35.491984],[135.20668,35.495338],[135.20462,35.498692],[135.205994,35.502046],[135.207367,35.502605],[135.208054,35.504841],[135.211487,35.507636],[135.209427,35.511549],[135.21492,35.521609],[135.224533,35.522167],[135.22934,35.520491],[135.230713,35.524962],[135.22934,35.526079],[135.232086,35.53055],[135.235519,35.531109]]]}},{"type":"Feature","properties":{"layer_id":"bakumatsu_villages","name":"日ヶ谷村","address":"丹後 与謝郡","source":"Geoshape 幕末期近世村領域データセット vector tiles (z7 extraction)","subarea_name":"近世村のおおよその範囲","feature_key":"village:K44G04S00075","accuracy_note":"2015年農業集落境界をもとに復元した概略範囲で、江戸時代の正確な村境ではありません"},"geometry":{"type":"MultiPolygon","coordinates":[[[[135.226593,35.689649],[135.236893,35.685187],[135.236206,35.684629],[135.237579,35.684072],[135.238953,35.681841],[135.240326,35.676821],[135.237579,35.672358],[135.232773,35.67459],[135.232086,35.676821],[135.224533,35.682398],[135.215607,35.682956],[135.216293,35.68686],[135.220413,35.687418],[135.222473,35.688533],[135.226593,35.689649]]],[[[135.243073,35.687418],[135.245132,35.683514],[135.247879,35.682956],[135.249939,35.680167],[135.251999,35.679052],[135.256805,35.678494],[135.256119,35.675147],[135.245819,35.675705],[135.244446,35.677379],[135.240326,35.676821],[135.238953,35.681841],[135.237579,35.684072],[135.236206,35.684629],[135.236893,35.685187],[135.239639,35.685187],[135.243073,35.687418]]],[[[135.262299,35.692437],[135.263672,35.689091],[135.262985,35.68686],[135.258865,35.682956],[135.256805,35.678494],[135.251999,35.679052],[135.249939,35.680167],[135.247879,35.682956],[135.245132,35.683514],[135.243073,35.687418],[135.245819,35.689091],[135.249939,35.68686],[135.251999,35.689091],[135.262299,35.692437]]],[[[135.21286,35.689649],[135.216293,35.68686],[135.21492,35.684629],[135.21698,35.67961],[135.215607,35.677936],[135.21698,35.674032],[135.21492,35.670685],[135.215607,35.668454],[135.215607,35.663991],[135.20874,35.657854],[135.205994,35.658412],[135.201874,35.662875],[135.20462,35.663991],[135.205307,35.665664],[135.197754,35.67459],[135.2005,35.677936],[135.203934,35.67961],[135.203247,35.681283],[135.20668,35.684072],[135.205994,35.687418],[135.212173,35.687976],[135.21286,35.689649]]],[[[135.215607,35.682956],[135.224533,35.682398],[135.232086,35.676821],[135.232773,35.67459],[135.237579,35.672358],[135.238953,35.675147],[135.243073,35.675705],[135.244446,35.67459],[135.243073,35.672916],[135.250626,35.665664],[135.247879,35.665664],[135.245132,35.667338],[135.243073,35.66678],[135.240326,35.665664],[135.236893,35.661202],[135.234146,35.661202],[135.230713,35.660644],[135.22728,35.662875],[135.223846,35.662875],[135.2211,35.664549],[135.21698,35.664549],[135.215607,35.663991],[135.215607,35.668454],[135.21492,35.670685],[135.21698,35.674032],[135.215607,35.677936],[135.21698,35.67961],[135.215607,35.682956]]],[[[135.244446,35.677379],[135.245819,35.675705],[135.256119,35.675705],[135.258865,35.67459],[135.258179,35.672358],[135.256805,35.671801],[135.252686,35.668454],[135.252686,35.665664],[135.251312,35.666222],[135.250626,35.665664],[135.243073,35.672916],[135.244446,35.67459],[135.243073,35.675705],[135.238953,35.675147],[135.240326,35.676821],[135.244446,35.677379]]]]}},{"type":"Feature","properties":{"layer_id":"bakumatsu_villages","name":"日置上村","address":"丹後 与謝郡","source":"Geoshape 幕末期近世村領域データセット vector tiles (z7 extraction)","subarea_name":"近世村のおおよその範囲","feature_key":"village:K44G04S00056","accuracy_note":"2015年農業集落境界をもとに復元した概略範囲で、江戸時代の正確な村境ではありません"},"geometry":{"type":"Polygon","coordinates":[[[135.233459,35.62214],[135.238953,35.619349],[135.239639,35.617675],[135.234833,35.616558],[135.232773,35.611534],[135.227966,35.608185],[135.22522,35.605394],[135.21904,35.608743],[135.21698,35.612093],[135.21286,35.612651],[135.20874,35.612093],[135.20668,35.614325],[135.20668,35.616],[135.21904,35.617116],[135.223846,35.619349],[135.22522,35.618233],[135.233459,35.62214]]]}},{"type":"Feature","properties":{"layer_id":"bakumatsu_villages","name":"日置浜村","address":"丹後 与謝郡","source":"Geoshape 幕末期近世村領域データセット vector tiles (z7 extraction)","subarea_name":"近世村のおおよその範囲","feature_key":"village:K44G04S00055","accuracy_note":"2015年農業集落境界をもとに復元した概略範囲で、江戸時代の正確な村境ではありません"},"geometry":{"type":"Polygon","coordinates":[[[135.21286,35.612651],[135.21698,35.612093],[135.21904,35.608743],[135.22522,35.605394],[135.22522,35.603719],[135.222473,35.601486],[135.22316,35.602602],[135.213547,35.598136],[135.212173,35.594227],[135.208054,35.598694],[135.203247,35.598694],[135.20668,35.60651],[135.209427,35.608185],[135.20874,35.612093],[135.21286,35.612651]]]}},{"type":"Feature","properties":{"layer_id":"bakumatsu_villages","name":"木子村","address":"丹後 与謝郡","source":"Geoshape 幕末期近世村領域データセット vector tiles (z7 extraction)","subarea_name":"近世村のおおよその範囲","feature_key":"village:K44G04S00063","accuracy_note":"2015年農業集落境界をもとに復元した概略範囲で、江戸時代の正確な村境ではありません"},"geometry":{"type":"Polygon","coordinates":[[[135.179901,35.670685],[135.184021,35.669012],[135.184708,35.667896],[135.192947,35.669569],[135.195007,35.667896],[135.196381,35.664549],[135.201874,35.662875],[135.20668,35.658412],[135.209427,35.658412],[135.21286,35.661759],[135.212173,35.657854],[135.209427,35.65618],[135.209427,35.649485],[135.205994,35.651159],[135.201874,35.651159],[135.199127,35.651717],[135.195007,35.651159],[135.193634,35.652275],[135.189514,35.648927],[135.182648,35.652275],[135.177841,35.651717],[135.175781,35.655622],[135.175781,35.656738],[135.179214,35.660086],[135.178528,35.661202],[135.176468,35.662875],[135.179214,35.666222],[135.179901,35.670685]]]}},{"type":"Feature","properties":{"layer_id":"bakumatsu_villages","name":"松尾村・東野村","address":"丹後 与謝郡","source":"Geoshape 幕末期近世村領域データセット vector tiles (z7 extraction)","subarea_name":"近世村のおおよその範囲","feature_key":"village:K44G04S00059,K44G04S00060","accuracy_note":"2015年農業集落境界をもとに復元した概略範囲で、江戸時代の正確な村境ではありません"},"geometry":{"type":"Polygon","coordinates":[[[135.195007,35.652275],[135.195007,35.651159],[135.198441,35.652275],[135.201874,35.651159],[135.205994,35.651159],[135.209427,35.649485],[135.212173,35.646695],[135.209427,35.634419],[135.207367,35.635535],[135.20256,35.634419],[135.199814,35.634419],[135.190887,35.642231],[135.190887,35.645021],[135.189514,35.648927],[135.193634,35.652275],[135.195007,35.652275]]]}},{"type":"Feature","properties":{"layer_id":"bakumatsu_villages","name":"江尻村","address":"丹後 与謝郡","source":"Geoshape 幕末期近世村領域データセット vector tiles (z7 extraction)","subarea_name":"近世村のおおよその範囲","feature_key":"village:K44G04S00053","accuracy_note":"2015年農業集落境界をもとに復元した概略範囲で、江戸時代の正確な村境ではありません"},"geometry":{"type":"MultiPolygon","coordinates":[[[[135.198441,35.582501],[135.199127,35.578592],[135.189514,35.566863],[135.186768,35.558485],[135.186081,35.559602],[135.186768,35.561278],[135.186081,35.562953],[135.187454,35.565746],[135.197067,35.577475],[135.196381,35.580826],[135.198441,35.582501]]],[[[135.207367,35.599252],[135.212173,35.594227],[135.212173,35.593669],[135.20874,35.591436],[135.20668,35.588085],[135.205994,35.583618],[135.20462,35.583618],[135.203934,35.581384],[135.199814,35.578592],[135.198441,35.582501],[135.201874,35.584176],[135.203934,35.586968],[135.201874,35.588644],[135.201187,35.594227],[135.198441,35.596461],[135.201187,35.598694],[135.207367,35.599252]]]]}},{"type":"Feature","properties":{"layer_id":"bakumatsu_villages","name":"波路村","address":"丹後 与謝郡","source":"Geoshape 幕末期近世村領域データセット vector tiles (z7 extraction)","subarea_name":"近世村のおおよその範囲","feature_key":"village:K44G04S00041","accuracy_note":"2015年農業集落境界をもとに復元した概略範囲で、江戸時代の正確な村境ではありません"},"geometry":{"type":"Polygon","coordinates":[[[135.2108,35.547871],[135.21492,35.547312],[135.219727,35.54396],[135.219727,35.542284],[135.223846,35.540608],[135.224533,35.538931],[135.22316,35.537255],[135.221786,35.538373],[135.215607,35.53502],[135.211487,35.534461],[135.20256,35.536138],[135.201874,35.537814],[135.20256,35.53949],[135.20462,35.53949],[135.20668,35.541166],[135.20874,35.54396],[135.2108,35.547871]]]}},{"type":"Feature","properties":{"layer_id":"bakumatsu_villages","name":"溝尻村","address":"丹後 与謝郡","source":"Geoshape 幕末期近世村領域データセット vector tiles (z7 extraction)","subarea_name":"近世村のおおよその範囲","feature_key":"village:K44G04S00048","accuracy_note":"2015年農業集落境界をもとに復元した概略範囲で、江戸時代の正確な村境ではありません"},"geometry":{"type":"Polygon","coordinates":[[[135.188141,35.580267],[135.188828,35.57915],[135.186081,35.577475],[135.184021,35.577475],[135.183334,35.5758],[135.181961,35.576917],[135.182648,35.578592],[135.186081,35.580267],[135.188141,35.580267]]]}},{"type":"Feature","properties":{"layer_id":"bakumatsu_villages","name":"獅子崎村","address":"丹後 与謝郡","source":"Geoshape 幕末期近世村領域データセット vector tiles (z7 extraction)","subarea_name":"近世村のおおよその範囲","feature_key":"village:K44G04S00040","accuracy_note":"2015年農業集落境界をもとに復元した概略範囲で、江戸時代の正確な村境ではありません"},"geometry":{"type":"Polygon","coordinates":[[[135.205994,35.561836],[135.209427,35.557926],[135.21286,35.557926],[135.21904,35.556809],[135.220413,35.550105],[135.21904,35.547312],[135.219727,35.54396],[135.21492,35.547312],[135.2108,35.547871],[135.210114,35.551781],[135.20874,35.553457],[135.203934,35.555692],[135.203934,35.559602],[135.205994,35.561836]]]}},{"type":"Feature","properties":{"layer_id":"bakumatsu_villages","name":"獅子村","address":"丹後 与謝郡","source":"Geoshape 幕末期近世村領域データセット vector tiles (z7 extraction)","subarea_name":"近世村のおおよその範囲","feature_key":"village:K44G04S00039","accuracy_note":"2015年農業集落境界をもとに復元した概略範囲で、江戸時代の正確な村境ではありません"},"geometry":{"type":"Polygon","coordinates":[[[135.22522,35.568539],[135.226593,35.56798],[135.225906,35.566305],[135.228653,35.564071],[135.234146,35.562395],[135.226593,35.558485],[135.223846,35.555692],[135.221786,35.55625],[135.219727,35.555133],[135.218353,35.556809],[135.209427,35.557926],[135.205994,35.561836],[135.207367,35.562953],[135.212173,35.562953],[135.215607,35.566305],[135.21904,35.566863],[135.2211,35.568539],[135.222473,35.567422],[135.22522,35.568539]]]}},{"type":"Feature","properties":{"layer_id":"bakumatsu_villages","name":"田中村・有田村","address":"丹後 与謝郡","source":"Geoshape 幕末期近世村領域データセット vector tiles (z7 extraction)","subarea_name":"近世村のおおよその範囲","feature_key":"village:K44G04S00014,K44G04S00015","accuracy_note":"2015年農業集落境界をもとに復元した概略範囲で、江戸時代の正確な村境ではありません"},"geometry":{"type":"Polygon","coordinates":[[[135.179214,35.534461],[135.181961,35.532226],[135.188141,35.533344],[135.189514,35.531109],[135.192261,35.529991],[135.191574,35.528315],[135.188828,35.526079],[135.189514,35.524962],[135.188828,35.523285],[135.183334,35.524403],[135.177155,35.523285],[135.173721,35.52105],[135.166855,35.518255],[135.166855,35.523844],[135.164795,35.526638],[135.165482,35.528873],[135.164795,35.532785],[135.174408,35.532226],[135.179214,35.534461]]]}},{"type":"Feature","properties":{"layer_id":"bakumatsu_villages","name":"田井村","address":"丹後 与謝郡","source":"Geoshape 幕末期近世村領域データセット vector tiles (z7 extraction)","subarea_name":"近世村のおおよその範囲","feature_key":"village:K44G04S00037","accuracy_note":"2015年農業集落境界をもとに復元した概略範囲で、江戸時代の正確な村境ではありません"},"geometry":{"type":"Polygon","coordinates":[[[135.241013,35.585852],[135.241013,35.58641],[135.240326,35.588085],[135.244446,35.588644],[135.245819,35.591436],[135.247192,35.590877],[135.248566,35.593111],[135.250626,35.594227],[135.250626,35.597019],[135.251999,35.599811],[135.253372,35.600369],[135.256119,35.598694],[135.256119,35.593111],[135.254745,35.591994],[135.256119,35.588644],[135.252686,35.588644],[135.249939,35.58976],[135.247192,35.587527],[135.247192,35.585293],[135.249252,35.584735],[135.247192,35.583618],[135.246506,35.582501],[135.249252,35.57915],[135.243073,35.574683],[135.240326,35.5758],[135.238266,35.573566],[135.236206,35.573007],[135.22728,35.575241],[135.230026,35.577475],[135.227966,35.585852],[135.22934,35.58641],[135.230026,35.584176],[135.233459,35.581943],[135.237579,35.581943],[135.241699,35.585293],[135.241013,35.585852]]]}},{"type":"Feature","properties":{"layer_id":"bakumatsu_villages","name":"田原村","address":"丹後 与謝郡","source":"Geoshape 幕末期近世村領域データセット vector tiles (z7 extraction)","subarea_name":"近世村のおおよその範囲","feature_key":"village:K44G04S00071","accuracy_note":"2015年農業集落境界をもとに復元した概略範囲で、江戸時代の正確な村境ではありません"},"geometry":{"type":"Polygon","coordinates":[[[135.267105,35.695225],[135.271912,35.693552],[135.272598,35.691322],[135.276031,35.691879],[135.276718,35.689649],[135.276031,35.683514],[135.269852,35.67961],[135.268478,35.67961],[135.262985,35.684072],[135.260239,35.684629],[135.263672,35.689091],[135.262299,35.692437],[135.267105,35.695225]]]}},{"type":"Feature","properties":{"layer_id":"bakumatsu_villages","name":"由良村","address":"丹後 加佐郡","source":"Geoshape 幕末期近世村領域データセット vector tiles (z7 extraction)","subarea_name":"近世村のおおよその範囲","feature_key":"village:K44G05S00053","accuracy_note":"2015年農業集落境界をもとに復元した概略範囲で、江戸時代の正確な村境ではありません"},"geometry":{"type":"MultiPolygon","coordinates":[[[[135.258179,35.53502],[135.261612,35.533903],[135.263672,35.534461],[135.264359,35.533344],[135.268478,35.533903],[135.269852,35.532226],[135.269165,35.53055],[135.272598,35.528873],[135.271912,35.524962],[135.282211,35.520491],[135.277405,35.521609],[135.274658,35.519373],[135.269165,35.518814],[135.266418,35.517138],[135.264359,35.517138],[135.261612,35.514902],[135.256119,35.507636],[135.254059,35.51099],[135.257492,35.519373],[135.256805,35.523285],[135.254059,35.531667],[135.254745,35.534461],[135.258179,35.53502]]],[[[135.277405,35.521609],[135.281525,35.520491],[135.279465,35.517697],[135.275345,35.516579],[135.272598,35.513784],[135.262299,35.509872],[135.259552,35.507077],[135.256119,35.507636],[135.261612,35.514902],[135.264359,35.517138],[135.266418,35.517138],[135.269165,35.518814],[135.274658,35.519373],[135.277405,35.521609]]],[[[135.282211,35.520491],[135.285645,35.517138],[135.288391,35.516579],[135.287704,35.514902],[135.284958,35.514343],[135.283585,35.515461],[135.282211,35.513784],[135.276718,35.512666],[135.264359,35.507077],[135.260239,35.505959],[135.262299,35.509872],[135.272598,35.513784],[135.275345,35.516579],[135.279465,35.517697],[135.282211,35.520491]]],[[[135.283585,35.515461],[135.284958,35.514343],[135.287704,35.514902],[135.287704,35.512107],[135.284271,35.512666],[135.282211,35.513784],[135.283585,35.515461]]]]}},{"type":"Feature","properties":{"layer_id":"bakumatsu_villages","name":"畑村","address":"丹後 与謝郡","source":"Geoshape 幕末期近世村領域データセット vector tiles (z7 extraction)","subarea_name":"近世村のおおよその範囲","feature_key":"village:K44G04S00057","accuracy_note":"2015年農業集落境界をもとに復元した概略範囲で、江戸時代の正確な村境ではありません"},"geometry":{"type":"Polygon","coordinates":[[[135.188828,35.621582],[135.193634,35.618233],[135.198441,35.617116],[135.2005,35.618233],[135.203934,35.616],[135.20668,35.616],[135.20668,35.614325],[135.209427,35.611534],[135.209427,35.607627],[135.20668,35.60651],[135.203247,35.598694],[135.2005,35.598694],[135.198441,35.596461],[135.196381,35.595902],[135.194321,35.598136],[135.188141,35.600369],[135.185394,35.604835],[135.182648,35.604277],[135.180588,35.607068],[135.182648,35.616],[135.186768,35.618791],[135.188828,35.621582]]]}},{"type":"Feature","properties":{"layer_id":"bakumatsu_villages","name":"皆原村","address":"丹後 与謝郡","source":"Geoshape 幕末期近世村領域データセット vector tiles (z7 extraction)","subarea_name":"近世村のおおよその範囲","feature_key":"village:K44G04S00027","accuracy_note":"2015年農業集落境界をもとに復元した概略範囲で、江戸時代の正確な村境ではありません"},"geometry":{"type":"Polygon","coordinates":[[[135.221786,35.538373],[135.22316,35.537255],[135.2211,35.531109],[135.220413,35.526079],[135.214233,35.52105],[135.213547,35.526079],[135.2108,35.529991],[135.2108,35.53502],[135.215607,35.53502],[135.221786,35.538373]]]}},{"type":"Feature","properties":{"layer_id":"bakumatsu_villages","name":"矢原村","address":"丹後 与謝郡","source":"Geoshape 幕末期近世村領域データセット vector tiles (z7 extraction)","subarea_name":"近世村のおおよその範囲","feature_key":"village:K44G04S00038","accuracy_note":"2015年農業集落境界をもとに復元した概略範囲で、江戸時代の正確な村境ではありません"},"geometry":{"type":"Polygon","coordinates":[[[135.240326,35.5758],[135.241699,35.575241],[135.241699,35.567422],[135.234146,35.562395],[135.228653,35.564071],[135.225906,35.566305],[135.226593,35.56798],[135.22522,35.568539],[135.22728,35.575241],[135.236206,35.573007],[135.238266,35.573566],[135.240326,35.5758]]]}},{"type":"Feature","properties":{"layer_id":"bakumatsu_villages","name":"石浦村","address":"丹後 加佐郡","source":"Geoshape 幕末期近世村領域データセット vector tiles (z7 extraction)","subarea_name":"近世村のおおよその範囲","feature_key":"village:K44G05S00052","accuracy_note":"2015年農業集落境界をもとに復元した概略範囲で、江戸時代の正確な村境ではありません"},"geometry":{"type":"MultiPolygon","coordinates":[[[[135.282211,35.513784],[135.284271,35.512666],[135.287704,35.512107],[135.287018,35.503164],[135.284958,35.503723],[135.278091,35.501487],[135.271912,35.500369],[135.267105,35.498133],[135.265732,35.498692],[135.262299,35.503723],[135.260239,35.504841],[135.260239,35.505959],[135.264359,35.507077],[135.276718,35.512666],[135.282211,35.513784]]],[[[135.284958,35.503723],[135.287018,35.503164],[135.287704,35.49981],[135.286331,35.499251],[135.284271,35.494779],[135.283585,35.490306],[135.273285,35.492543],[135.273972,35.493661],[135.271225,35.496456],[135.267105,35.498133],[135.271912,35.500369],[135.278091,35.501487],[135.284958,35.503723]]]]}},{"type":"Feature","properties":{"layer_id":"bakumatsu_villages","name":"脇村","address":"丹後 与謝郡","source":"Geoshape 幕末期近世村領域データセット vector tiles (z7 extraction)","subarea_name":"近世村のおおよその範囲","feature_key":"village:K44G04S00030","accuracy_note":"2015年農業集落境界をもとに復元した概略範囲で、江戸時代の正確な村境ではありません"},"geometry":{"type":"Polygon","coordinates":[[[135.241013,35.537255],[135.241699,35.537255],[135.241699,35.537814],[135.245132,35.535579],[135.248566,35.536138],[135.254745,35.534461],[135.254059,35.531667],[135.256805,35.523844],[135.256805,35.52105],[135.251999,35.522726],[135.245819,35.522726],[135.243073,35.524403],[135.239639,35.529991],[135.236206,35.531109],[135.238953,35.535579],[135.241013,35.537255]]]}},{"type":"Feature","properties":{"layer_id":"bakumatsu_villages","name":"里波見村","address":"丹後 与謝郡","source":"Geoshape 幕末期近世村領域データセット vector tiles (z7 extraction)","subarea_name":"近世村のおおよその範囲","feature_key":"village:K44G04S00067","accuracy_note":"2015年農業集落境界をもとに復元した概略範囲で、江戸時代の正確な村境ではありません"},"geometry":{"type":"Polygon","coordinates":[[[135.235519,35.644463],[135.238953,35.642789],[135.243759,35.642789],[135.247879,35.639999],[135.250626,35.639999],[135.245819,35.630512],[135.245819,35.627163],[135.246506,35.626047],[135.244446,35.624373],[135.244446,35.620466],[135.239639,35.617675],[135.238953,35.619349],[135.234146,35.62214],[135.230026,35.621024],[135.228653,35.622698],[135.228653,35.624931],[135.2314,35.627721],[135.236206,35.628838],[135.234146,35.629954],[135.230713,35.634977],[135.233459,35.641673],[135.235519,35.644463]]]}},{"type":"Feature","properties":{"layer_id":"bakumatsu_villages","name":"鍛冶村・猟師村・宮津城下","address":"丹後 与謝郡","source":"Geoshape 幕末期近世村領域データセット vector tiles (z7 extraction)","subarea_name":"近世村のおおよその範囲","feature_key":"village:K44G04S00020,K44G04S00021,K44G04S10001","accuracy_note":"2015年農業集落境界をもとに復元した概略範囲で、江戸時代の正確な村境ではありません"},"geometry":{"type":"MultiPolygon","coordinates":[[[[135.179214,35.550664],[135.187454,35.550105],[135.186768,35.547871],[135.190201,35.544519],[135.188141,35.544519],[135.186768,35.542284],[135.183334,35.541725],[135.179214,35.54396],[135.176468,35.54396],[135.177155,35.547871],[135.178528,35.549547],[135.179214,35.550664]]],[[[135.191574,35.545077],[135.192261,35.543401],[135.190887,35.544519],[135.190887,35.542842],[135.192261,35.542284],[135.192261,35.540608],[135.197754,35.53949],[135.199127,35.538373],[135.198441,35.537255],[135.201874,35.537814],[135.20256,35.536138],[135.2005,35.53502],[135.199127,35.531667],[135.196381,35.532226],[135.195007,35.531109],[135.192261,35.525521],[135.188828,35.526638],[135.191574,35.528315],[135.192261,35.529991],[135.189514,35.531109],[135.188141,35.533344],[135.181961,35.532226],[135.179214,35.534461],[135.174408,35.532226],[135.164795,35.532785],[135.167542,35.53502],[135.168915,35.541725],[135.173035,35.542284],[135.176468,35.54396],[135.179214,35.54396],[135.183334,35.541725],[135.186768,35.542284],[135.188141,35.544519],[135.191574,35.545077]]]]}},{"type":"Feature","properties":{"layer_id":"bakumatsu_villages","name":"長江村","address":"丹後 与謝郡","source":"Geoshape 幕末期近世村領域データセット vector tiles (z7 extraction)","subarea_name":"近世村のおおよその範囲","feature_key":"village:K44G04S00068","accuracy_note":"2015年農業集落境界をもとに復元した概略範囲で、江戸時代の正確な村境ではありません"},"geometry":{"type":"Polygon","coordinates":[[[135.236893,35.65897],[135.243759,35.657296],[135.245819,35.65618],[135.256119,35.65618],[135.257492,35.655065],[135.254059,35.650601],[135.254059,35.649485],[135.253372,35.650043],[135.251999,35.647811],[135.249939,35.640557],[135.247879,35.639999],[135.243759,35.642789],[135.238953,35.642789],[135.235519,35.644463],[135.236893,35.646137],[135.236893,35.652275],[135.238953,35.655065],[135.236893,35.65897]]]}},{"type":"Feature","properties":{"layer_id":"bakumatsu_villages","name":"難波野村","address":"丹後 与謝郡","source":"Geoshape 幕末期近世村領域データセット vector tiles (z7 extraction)","subarea_name":"近世村のおおよその範囲","feature_key":"village:K44G04S00054","accuracy_note":"2015年農業集落境界をもとに復元した概略範囲で、江戸時代の正確な村境ではありません"},"geometry":{"type":"Polygon","coordinates":[[[135.198441,35.596461],[135.201187,35.594227],[135.201874,35.588644],[135.203934,35.586968],[135.201874,35.584176],[135.198441,35.582501],[135.197067,35.582501],[135.197754,35.587527],[135.194321,35.594227],[135.196381,35.596461],[135.197067,35.595902],[135.198441,35.596461]]]}},{"type":"Feature","properties":{"layer_id":"bakumatsu_villages","name":"須津村","address":"丹後 与謝郡","source":"Geoshape 幕末期近世村領域データセット vector tiles (z7 extraction)","subarea_name":"近世村のおおよその範囲","feature_key":"village:K44G04S00016","accuracy_note":"2015年農業集落境界をもとに復元した概略範囲で、江戸時代の正確な村境ではありません"},"geometry":{"type":"Polygon","coordinates":[[[135.170288,35.563512],[135.170288,35.559043],[135.175095,35.553457],[135.175781,35.551223],[135.178528,35.549547],[135.177155,35.547871],[135.176468,35.544519],[135.173035,35.542284],[135.168915,35.541725],[135.167542,35.53502],[135.165482,35.532785],[135.157928,35.53055],[135.155182,35.53055],[135.151749,35.534461],[135.146942,35.537255],[135.144196,35.54396],[135.142136,35.54396],[135.139389,35.544519],[135.138016,35.547312],[135.138702,35.55234],[135.146255,35.559602],[135.147629,35.558485],[135.149002,35.558485],[135.157928,35.555133],[135.160675,35.557926],[135.162735,35.557926],[135.170288,35.563512]]]}},{"type":"Feature","properties":{"layer_id":"bakumatsu_villages","name":"駒倉村","address":"丹後 与謝郡","source":"Geoshape 幕末期近世村領域データセット vector tiles (z7 extraction)","subarea_name":"近世村のおおよその範囲","feature_key":"village:K44G04S00062","accuracy_note":"2015年農業集落境界をもとに復元した概略範囲で、江戸時代の正確な村境ではありません"},"geometry":{"type":"Polygon","coordinates":[[[135.175781,35.655622],[135.177841,35.651717],[135.171661,35.642789],[135.172348,35.637767],[135.168915,35.626605],[135.167542,35.626047],[135.162048,35.629954],[135.159988,35.629954],[135.160675,35.632186],[135.158615,35.634419],[135.159302,35.637767],[135.157928,35.643905],[135.163422,35.654507],[135.175781,35.655622]]]}},{"type":"Feature","properties":{"layer_id":"civil_engineering_heritage","name":"由良川橋りょう","address":"京都府/舞鶴市・宮津市","source":"土木学会 選奨土木遺産","subarea_name":"由良川橋りょうは、「建設当時国内最多径間を誇るコンクリート橋脚の鈑桁橋梁であり、築後90年を経るも保存状態が極めて良好である貴重な土木遺産」であります。","feature_key":"civil:353:由良川橋りょう","source_url":"https://committees.jsce.or.jp/heritage/node/871","accuracy_note":"公式地図の位置を優先して収録しています"},"geometry":{"type":"Point","coordinates":[135.287951,35.51085]}},{"type":"Feature","properties":{"layer_id":"historical_sites_archaeology","name":"喜多城跡","address":"京都府 宮津市 字喜多","source":"Geoshape 日本歴史地名大系 施設・地点項目データセット 2025-05-15","subarea_name":"城跡","feature_key":"05_castle_ruins.geojson:260000251400","subtype":"城跡"},"geometry":{"type":"Point","coordinates":[135.187604,35.509471]}},{"type":"Feature","properties":{"layer_id":"historical_sites_archaeology","name":"宮津城跡","address":"京都府 宮津市 字鶴賀","source":"Geoshape 日本歴史地名大系 施設・地点項目データセット 2025-05-15","subarea_name":"城跡","feature_key":"05_castle_ruins.geojson:260000247500","subtype":"城跡"},"geometry":{"type":"Point","coordinates":[135.198329,35.536533]}},{"type":"Feature","properties":{"layer_id":"historical_sites_archaeology","name":"嶺山城跡","address":"京都府 宮津市 字吉原","source":"Geoshape 日本歴史地名大系 施設・地点項目データセット 2025-05-15","subarea_name":"城跡","feature_key":"05_castle_ruins.geojson:260000261700","subtype":"城跡"},"geometry":{"type":"Point","coordinates":[135.199397,35.532217]}},{"type":"Feature","properties":{"layer_id":"historical_temples_shrines","name":"丹後国分寺跡","address":"京都府 宮津市 字国分","source":"Geoshape 日本歴史地名大系 施設・地点項目データセット 2025-05-15","subarea_name":"廃寺・廃社","feature_key":"03_abandoned_temples_shrines.geojson:260000254000","subtype":"廃寺・廃社"},"geometry":{"type":"Point","coordinates":[135.179519,35.578781]}},{"type":"Feature","properties":{"layer_id":"historical_temples_shrines","name":"仏性寺","address":"京都府 宮津市 字金屋谷879番地","source":"Geoshape 日本歴史地名大系 施設・地点項目データセット 2025-05-15","subarea_name":"寺院","feature_key":"01_temples.geojson:260000248300","subtype":"寺院"},"geometry":{"type":"Point","coordinates":[135.19145,35.535315]}},{"type":"Feature","properties":{"layer_id":"historical_temples_shrines","name":"和貴宮神社","address":"京都府 宮津市 字宮本428番地","source":"Geoshape 日本歴史地名大系 施設・地点項目データセット 2025-05-15","subarea_name":"神社","feature_key":"02_shrines.geojson:260000248900","subtype":"神社"},"geometry":{"type":"Point","coordinates":[135.194153,35.535397]}},{"type":"Feature","properties":{"layer_id":"historical_temples_shrines","name":"国清寺","address":"京都府 宮津市 字金屋谷486番地","source":"Geoshape 日本歴史地名大系 施設・地点項目データセット 2025-05-15","subarea_name":"寺院","feature_key":"01_temples.geojson:260000248500","subtype":"寺院"},"geometry":{"type":"Point","coordinates":[135.18956,35.534904]}},{"type":"Feature","properties":{"layer_id":"historical_temples_shrines","name":"多治神社","address":"京都府 南丹市 日吉町田原殿垣内日吉町田原55番地","source":"Geoshape 日本歴史地名大系 施設・地点項目データセット 2025-05-15","subarea_name":"神社","feature_key":"02_shrines.geojson:260000151900","subtype":"神社"},"geometry":{"type":"Point","coordinates":[135.26837,35.684714]}},{"type":"Feature","properties":{"layer_id":"historical_temples_shrines","name":"大乗寺","address":"京都府 宮津市 字中野480番地","source":"Geoshape 日本歴史地名大系 施設・地点項目データセット 2025-05-15","subarea_name":"寺院","feature_key":"01_temples.geojson:260000254500","subtype":"寺院"},"geometry":{"type":"Point","coordinates":[135.190023,35.582007]}},{"type":"Feature","properties":{"layer_id":"historical_temples_shrines","name":"大谷寺","address":"京都府 宮津市 字大垣88番地","source":"Geoshape 日本歴史地名大系 施設・地点項目データセット 2025-05-15","subarea_name":"寺院","feature_key":"01_temples.geojson:260000254900","subtype":"寺院"},"geometry":{"type":"Point","coordinates":[135.194869,35.583523]}},{"type":"Feature","properties":{"layer_id":"historical_temples_shrines","name":"大頂寺","address":"京都府 宮津市 字金屋谷883番地","source":"Geoshape 日本歴史地名大系 施設・地点項目データセット 2025-05-15","subarea_name":"寺院","feature_key":"01_temples.geojson:260000248400","subtype":"寺院"},"geometry":{"type":"Point","coordinates":[135.190399,35.534084]}},{"type":"Feature","properties":{"layer_id":"historical_temples_shrines","name":"如願寺","address":"京都府 宮津市 字宮町73番地","source":"Geoshape 日本歴史地名大系 施設・地点項目データセット 2025-05-15","subarea_name":"寺院","feature_key":"01_temples.geojson:260000249300","subtype":"寺院"},"geometry":{"type":"Point","coordinates":[135.188278,35.540188]}},{"type":"Feature","properties":{"layer_id":"historical_temples_shrines","name":"妙立寺","address":"京都府 宮津市 字中野268番地","source":"Geoshape 日本歴史地名大系 施設・地点項目データセット 2025-05-15","subarea_name":"寺院","feature_key":"01_temples.geojson:260000254600","subtype":"寺院"},"geometry":{"type":"Point","coordinates":[135.188228,35.582271]}},{"type":"Feature","properties":{"layer_id":"historical_temples_shrines","name":"成相寺","address":"京都府 宮津市 字成相寺339番地","source":"Geoshape 日本歴史地名大系 施設・地点項目データセット 2025-05-15","subarea_name":"寺院","feature_key":"01_temples.geojson:260000255200","subtype":"寺院"},"geometry":{"type":"Point","coordinates":[135.194458,35.596767]}},{"type":"Feature","properties":{"layer_id":"historical_temples_shrines","name":"日吉神社","address":"京都府 宮津市 字宮町1408番地","source":"Geoshape 日本歴史地名大系 施設・地点項目データセット 2025-05-15","subarea_name":"神社","feature_key":"02_shrines.geojson:260000249400","subtype":"神社"},"geometry":{"type":"Point","coordinates":[135.188278,35.540188]}},{"type":"Feature","properties":{"layer_id":"historical_temples_shrines","name":"普甲寺跡","address":"京都府 宮津市 字小田","source":"Geoshape 日本歴史地名大系 施設・地点項目データセット 2025-05-15","subarea_name":"廃寺・廃社","feature_key":"03_abandoned_temples_shrines.geojson:260000251700","subtype":"廃寺・廃社"},"geometry":{"type":"Point","coordinates":[135.168751,35.493753]}},{"type":"Feature","properties":{"layer_id":"historical_temples_shrines","name":"智恩寺","address":"京都府 宮津市 字文珠466番地","source":"Geoshape 日本歴史地名大系 施設・地点項目データセット 2025-05-15","subarea_name":"寺院","feature_key":"01_temples.geojson:260000253600","subtype":"寺院"},"geometry":{"type":"Point","coordinates":[135.183365,35.558655]}},{"type":"Feature","properties":{"layer_id":"historical_temples_shrines","name":"智源寺","address":"京都府 宮津市 字京街道769番地","source":"Geoshape 日本歴史地名大系 施設・地点項目データセット 2025-05-15","subarea_name":"寺院","feature_key":"01_temples.geojson:260000249100","subtype":"寺院"},"geometry":{"type":"Point","coordinates":[135.19133,35.532463]}},{"type":"Feature","properties":{"layer_id":"historical_temples_shrines","name":"犬の堂","address":"京都府 宮津市 字杉末","source":"Geoshape 日本歴史地名大系 施設・地点項目データセット 2025-05-15","subarea_name":"寺院","feature_key":"01_temples.geojson:260000249800","subtype":"寺院"},"geometry":{"type":"Point","coordinates":[135.189304,35.544931]}},{"type":"Feature","properties":{"layer_id":"historical_temples_shrines","name":"盛林寺","address":"京都府 宮津市 字喜多696番地","source":"Geoshape 日本歴史地名大系 施設・地点項目データセット 2025-05-15","subarea_name":"寺院","feature_key":"01_temples.geojson:260000251300","subtype":"寺院"},"geometry":{"type":"Point","coordinates":[135.183731,35.50565]}},{"type":"Feature","properties":{"layer_id":"historical_temples_shrines","name":"神宮寺","address":"京都府 宮津市 字中津259番地","source":"Geoshape 日本歴史地名大系 施設・地点項目データセット 2025-05-15","subarea_name":"寺院","feature_key":"01_temples.geojson:260000239900","subtype":"寺院"},"geometry":{"type":"Point","coordinates":[135.237747,35.555965]}},{"type":"Feature","properties":{"layer_id":"historical_temples_shrines","name":"神宮寺","address":"京都府 宮津市 字中津259番地","source":"Geoshape 日本歴史地名大系 施設・地点項目データセット 2025-05-15","subarea_name":"寺院","feature_key":"01_temples.geojson:260000252500","subtype":"寺院"},"geometry":{"type":"Point","coordinates":[135.237747,35.555965]}},{"type":"Feature","properties":{"layer_id":"historical_temples_shrines","name":"禅海寺","address":"京都府 宮津市 字日置4335番地","source":"Geoshape 日本歴史地名大系 施設・地点項目データセット 2025-05-15","subarea_name":"寺院","feature_key":"01_temples.geojson:260000255700","subtype":"寺院"},"geometry":{"type":"Point","coordinates":[135.222134,35.613001]}},{"type":"Feature","properties":{"layer_id":"historical_temples_shrines","name":"籠神社","address":"京都府 宮津市 字大垣430番地","source":"Geoshape 日本歴史地名大系 施設・地点項目データセット 2025-05-15","subarea_name":"神社","feature_key":"02_shrines.geojson:260000254800","subtype":"神社"},"geometry":{"type":"Point","coordinates":[135.196136,35.582565]}},{"type":"Feature","properties":{"layer_id":"historical_temples_shrines","name":"経王寺","address":"京都府 宮津市 字金屋谷866番地","source":"Geoshape 日本歴史地名大系 施設・地点項目データセット 2025-05-15","subarea_name":"寺院","feature_key":"01_temples.geojson:260000248600","subtype":"寺院"},"geometry":{"type":"Point","coordinates":[135.189234,35.535044]}},{"type":"Feature","properties":{"layer_id":"historical_temples_shrines","name":"荒木神社","address":"京都府 宮津市 字今福97番地","source":"Geoshape 日本歴史地名大系 施設・地点項目データセット 2025-05-15","subarea_name":"神社","feature_key":"02_shrines.geojson:260000175700","subtype":"神社"},"geometry":{"type":"Point","coordinates":[135.186951,35.512695]}},{"type":"Feature","properties":{"layer_id":"historical_temples_shrines","name":"見性寺","address":"京都府 宮津市 字小川759番地","source":"Geoshape 日本歴史地名大系 施設・地点項目データセット 2025-05-15","subarea_name":"寺院","feature_key":"01_temples.geojson:260000247900","subtype":"寺院"},"geometry":{"type":"Point","coordinates":[135.18924,35.535961]}},{"type":"Feature","properties":{"layer_id":"historical_temples_shrines","name":"金剛心院","address":"京都府 宮津市 字日置2268番地","source":"Geoshape 日本歴史地名大系 施設・地点項目データセット 2025-05-15","subarea_name":"寺院","feature_key":"01_temples.geojson:260000255600","subtype":"寺院"},"geometry":{"type":"Point","coordinates":[135.22049,35.61018]}},{"type":"Feature","properties":{"layer_id":"historical_temples_shrines","name":"金峰神社","address":"京都府 綾部市 於与岐町ヲナル89番地の1","source":"Geoshape 日本歴史地名大系 施設・地点項目データセット 2025-05-15","subarea_name":"神社","feature_key":"02_shrines.geojson:260000262000","subtype":"神社"},"geometry":{"type":"Point","coordinates":[135.199397,35.532217]}},{"type":"Feature","properties":{"layer_id":"historical_temples_shrines","name":"飯役社","address":"京都府 宮津市 字中野","source":"Geoshape 日本歴史地名大系 施設・地点項目データセット 2025-05-15","subarea_name":"神社","feature_key":"02_shrines.geojson:260000254400","subtype":"神社"},"geometry":{"type":"Point","coordinates":[135.187974,35.579575]}}]}