{"type":"FeatureCollection","municipality_code":"26366","pref":"京都府","city":"精華町","layer_counts":{"bakumatsu_villages":11,"historical_sites_archaeology":2,"historical_temples_shrines":2},"total_features":15,"features":[{"type":"Feature","properties":{"layer_id":"bakumatsu_villages","name":"下狛村","address":"山城 相楽郡","source":"Geoshape 幕末期近世村領域データセット vector tiles (z7 extraction)","subarea_name":"近世村のおおよその範囲","feature_key":"village:K31G08S00010","accuracy_note":"2015年農業集落境界をもとに復元した概略範囲で、江戸時代の正確な村境ではありません"},"geometry":{"type":"MultiPolygon","coordinates":[[[[135.771103,34.781664],[135.773163,34.779972],[135.774536,34.774332],[135.770416,34.770948],[135.76767,34.770948],[135.762177,34.776588],[135.758057,34.777716],[135.75943,34.779408],[135.76149,34.780536],[135.76355,34.779972],[135.771103,34.781664]]],[[[135.794449,34.7811],[135.794449,34.779408],[135.791702,34.778844],[135.791702,34.776024],[135.788956,34.776588],[135.790329,34.772076],[135.785522,34.772076],[135.786209,34.774332],[135.782776,34.777152],[135.774536,34.774332],[135.773163,34.779972],[135.780029,34.780536],[135.780029,34.778844],[135.782089,34.778844],[135.784149,34.780536],[135.786896,34.7811],[135.794449,34.7811]]],[[[135.782776,34.777152],[135.786209,34.774332],[135.785522,34.772076],[135.790329,34.772076],[135.790329,34.769256],[135.780029,34.768691],[135.776596,34.770384],[135.773849,34.770384],[135.77179,34.771512],[135.774536,34.774332],[135.782776,34.777152]]],[[[135.802689,34.783919],[135.802689,34.77828],[135.791702,34.777716],[135.791702,34.778844],[135.794449,34.779972],[135.794449,34.7811],[135.802689,34.783919]]],[[[135.802689,34.77828],[135.803375,34.77264],[135.797882,34.77264],[135.797195,34.76982],[135.795822,34.76982],[135.795822,34.768691],[135.790329,34.769256],[135.788956,34.776588],[135.791702,34.776024],[135.791702,34.777716],[135.802689,34.77828]]]]}},{"type":"Feature","properties":{"layer_id":"bakumatsu_villages","name":"乾谷村","address":"山城 相楽郡","source":"Geoshape 幕末期近世村領域データセット vector tiles (z7 extraction)","subarea_name":"近世村のおおよその範囲","feature_key":"village:K31G08S00018","accuracy_note":"2015年農業集落境界をもとに復元した概略範囲で、江戸時代の正確な村境ではありません"},"geometry":{"type":"Polygon","coordinates":[[[135.751877,34.745562],[135.75531,34.744998],[135.770416,34.744998],[135.770416,34.741612],[135.773849,34.741612],[135.774536,34.738791],[135.773849,34.736534],[135.775223,34.735406],[135.773163,34.73202],[135.773849,34.73202],[135.775223,34.729198],[135.774536,34.724684],[135.773163,34.724684],[135.773849,34.725812],[135.766983,34.725812],[135.76767,34.72807],[135.766296,34.731456],[135.758743,34.734277],[135.758743,34.73597],[135.75737,34.73597],[135.758057,34.741048],[135.752563,34.741048],[135.751877,34.743305],[135.751877,34.745562]]]}},{"type":"Feature","properties":{"layer_id":"bakumatsu_villages","name":"北稲八間村","address":"山城 相楽郡","source":"Geoshape 幕末期近世村領域データセット vector tiles (z7 extraction)","subarea_name":"近世村のおおよその範囲","feature_key":"village:K31G08S00011","accuracy_note":"2015年農業集落境界をもとに復元した概略範囲で、江戸時代の正確な村境ではありません"},"geometry":{"type":"Polygon","coordinates":[[[135.758057,34.777716],[135.762177,34.776588],[135.76767,34.770948],[135.772476,34.771512],[135.773849,34.770384],[135.776596,34.770384],[135.780029,34.768691],[135.792389,34.768691],[135.792389,34.764743],[135.791016,34.764743],[135.791016,34.763051],[135.781403,34.763615],[135.777969,34.761358],[135.775909,34.761923],[135.773849,34.76023],[135.769043,34.763615],[135.76149,34.764179],[135.762177,34.765307],[135.756683,34.766999],[135.753937,34.769256],[135.75737,34.773204],[135.756683,34.774332],[135.758743,34.776588],[135.758057,34.777716]]]}},{"type":"Feature","properties":{"layer_id":"bakumatsu_villages","name":"南稲八妻村","address":"山城 相楽郡","source":"Geoshape 幕末期近世村領域データセット vector tiles (z7 extraction)","subarea_name":"近世村のおおよその範囲","feature_key":"village:K31G08S00012","accuracy_note":"2015年農業集落境界をもとに復元した概略範囲で、江戸時代の正確な村境ではありません"},"geometry":{"type":"Polygon","coordinates":[[[135.76149,34.764179],[135.769043,34.763615],[135.773849,34.76023],[135.775909,34.761923],[135.777969,34.761358],[135.781403,34.763615],[135.786896,34.763051],[135.786209,34.76023],[135.788269,34.76023],[135.788269,34.756281],[135.786209,34.754589],[135.786896,34.754025],[135.779343,34.75064],[135.77179,34.750076],[135.77179,34.744998],[135.770416,34.744998],[135.76973,34.750076],[135.76561,34.748947],[135.764236,34.750076],[135.762177,34.749511],[135.760117,34.75064],[135.762177,34.754589],[135.76561,34.755717],[135.766296,34.758538],[135.764923,34.762487],[135.760803,34.762487],[135.760803,34.763615],[135.76149,34.764179]]]}},{"type":"Feature","properties":{"layer_id":"bakumatsu_villages","name":"山田村","address":"山城 相楽郡","source":"Geoshape 幕末期近世村領域データセット vector tiles (z7 extraction)","subarea_name":"近世村のおおよその範囲","feature_key":"village:K31G08S00019","accuracy_note":"2015年農業集落境界をもとに復元した概略範囲で、江戸時代の正確な村境ではありません"},"geometry":{"type":"Polygon","coordinates":[[[135.792389,34.742177],[135.791702,34.739356],[135.789642,34.738791],[135.793762,34.738227],[135.793762,34.736534],[135.790329,34.733149],[135.785522,34.733149],[135.778656,34.729763],[135.777283,34.727505],[135.777969,34.723555],[135.774536,34.724684],[135.775223,34.729198],[135.773849,34.73202],[135.773163,34.73202],[135.775223,34.735406],[135.773849,34.736534],[135.774536,34.738791],[135.778656,34.739356],[135.787582,34.738791],[135.790329,34.741612],[135.792389,34.742177]]]}},{"type":"Feature","properties":{"layer_id":"bakumatsu_villages","name":"東畑村","address":"山城 相楽郡","source":"Geoshape 幕末期近世村領域データセット vector tiles (z7 extraction)","subarea_name":"近世村のおおよその範囲","feature_key":"village:K31G08S00013","accuracy_note":"2015年農業集落境界をもとに復元した概略範囲で、江戸時代の正確な村境ではありません"},"geometry":{"type":"Polygon","coordinates":[[[135.758743,34.764743],[135.760803,34.763615],[135.760803,34.762487],[135.764923,34.762487],[135.766296,34.758538],[135.76561,34.755717],[135.762177,34.754589],[135.760117,34.75064],[135.762177,34.749511],[135.764236,34.750076],[135.76561,34.748947],[135.76973,34.750076],[135.770416,34.744998],[135.75531,34.744998],[135.749817,34.74669],[135.747757,34.746126],[135.745697,34.747255],[135.738831,34.748383],[135.736084,34.750076],[135.736771,34.752896],[135.738831,34.752896],[135.741577,34.75741],[135.742264,34.756281],[135.74707,34.756281],[135.74913,34.75741],[135.749817,34.760794],[135.751877,34.760794],[135.75531,34.764179],[135.758743,34.764743]]]}},{"type":"Feature","properties":{"layer_id":"bakumatsu_villages","name":"柘榴村","address":"山城 相楽郡","source":"Geoshape 幕末期近世村領域データセット vector tiles (z7 extraction)","subarea_name":"近世村のおおよその範囲","feature_key":"village:K31G08S00020","accuracy_note":"2015年農業集落境界をもとに復元した概略範囲で、江戸時代の正確な村境ではありません"},"geometry":{"type":"Polygon","coordinates":[[[135.749817,34.74669],[135.751877,34.745562],[135.751877,34.743305],[135.75325,34.741048],[135.758057,34.741048],[135.75737,34.73597],[135.758743,34.73597],[135.758743,34.734277],[135.766296,34.731456],[135.76767,34.72807],[135.766983,34.725812],[135.760803,34.726377],[135.756683,34.728634],[135.754623,34.72807],[135.754623,34.734277],[135.756683,34.736534],[135.748444,34.741612],[135.74707,34.743869],[135.747757,34.746126],[135.749817,34.74669]]]}},{"type":"Feature","properties":{"layer_id":"bakumatsu_villages","name":"植田村","address":"山城 相楽郡","source":"Geoshape 幕末期近世村領域データセット vector tiles (z7 extraction)","subarea_name":"近世村のおおよその範囲","feature_key":"village:K31G08S00015","accuracy_note":"2015年農業集落境界をもとに復元した概略範囲で、江戸時代の正確な村境ではありません"},"geometry":{"type":"Polygon","coordinates":[[[135.791702,34.758538],[135.791702,34.75741],[135.794449,34.756846],[135.794449,34.752896],[135.793076,34.752896],[135.792389,34.751768],[135.791016,34.752332],[135.791016,34.751204],[135.788269,34.750076],[135.787582,34.748383],[135.784836,34.748947],[135.775909,34.743869],[135.773849,34.741612],[135.770416,34.742177],[135.770416,34.744998],[135.77179,34.744998],[135.77179,34.750076],[135.779343,34.75064],[135.786896,34.754025],[135.786209,34.754589],[135.788269,34.756281],[135.788269,34.757974],[135.791702,34.758538]]]}},{"type":"Feature","properties":{"layer_id":"bakumatsu_villages","name":"祝園村","address":"山城 相楽郡","source":"Geoshape 幕末期近世村領域データセット vector tiles (z7 extraction)","subarea_name":"近世村のおおよその範囲","feature_key":"village:K31G08S00014","accuracy_note":"2015年農業集落境界をもとに復元した概略範囲で、江戸時代の正確な村境ではありません"},"geometry":{"type":"MultiPolygon","coordinates":[[[[135.794449,34.763051],[135.794449,34.761923],[135.797195,34.761923],[135.797195,34.757974],[135.788269,34.757974],[135.788269,34.76023],[135.786209,34.76023],[135.786896,34.763051],[135.794449,34.763051]]],[[[135.803375,34.77264],[135.804062,34.769256],[135.805435,34.766435],[135.801315,34.765871],[135.801315,34.764179],[135.799255,34.764179],[135.799255,34.763051],[135.791016,34.763051],[135.791016,34.764743],[135.792389,34.764743],[135.792389,34.768691],[135.795822,34.768691],[135.795822,34.76982],[135.797195,34.76982],[135.797882,34.77264],[135.803375,34.77264]]],[[[135.801315,34.764179],[135.800629,34.761358],[135.807495,34.761358],[135.807495,34.757974],[135.797195,34.757974],[135.797195,34.761923],[135.794449,34.761923],[135.794449,34.763051],[135.799255,34.763051],[135.799942,34.764179],[135.801315,34.764179]]],[[[135.805435,34.766435],[135.807495,34.761358],[135.800629,34.761358],[135.801315,34.765871],[135.805435,34.766435]]]]}},{"type":"Feature","properties":{"layer_id":"bakumatsu_villages","name":"菅井村","address":"山城 相楽郡","source":"Geoshape 幕末期近世村領域データセット vector tiles (z7 extraction)","subarea_name":"近世村のおおよその範囲","feature_key":"village:K31G08S00016","accuracy_note":"2015年農業集落境界をもとに復元した概略範囲で、江戸時代の正確な村境ではありません"},"geometry":{"type":"Polygon","coordinates":[[[135.791702,34.758538],[135.807495,34.757974],[135.804749,34.753461],[135.804749,34.751204],[135.795135,34.751204],[135.791702,34.748947],[135.787582,34.748947],[135.788269,34.750076],[135.791016,34.751204],[135.791016,34.752332],[135.792389,34.751768],[135.794449,34.753461],[135.794449,34.756846],[135.791702,34.75741],[135.791702,34.758538]]]}},{"type":"Feature","properties":{"layer_id":"bakumatsu_villages","name":"菱田村","address":"山城 相楽郡","source":"Geoshape 幕末期近世村領域データセット vector tiles (z7 extraction)","subarea_name":"近世村のおおよその範囲","feature_key":"village:K31G08S00009","accuracy_note":"2015年農業集落境界をもとに復元した概略範囲で、江戸時代の正確な村境ではありません"},"geometry":{"type":"MultiPolygon","coordinates":[[[[135.791702,34.790687],[135.791702,34.788995],[135.789642,34.787867],[135.794449,34.7811],[135.786896,34.7811],[135.784149,34.780536],[135.782776,34.778844],[135.780716,34.77828],[135.780029,34.780536],[135.782776,34.780536],[135.786209,34.784483],[135.786209,34.788995],[135.788269,34.788995],[135.788956,34.790123],[135.791702,34.790687]]],[[[135.791702,34.790687],[135.793076,34.790123],[135.794449,34.787867],[135.799942,34.790123],[135.802689,34.786175],[135.802689,34.783919],[135.794449,34.7811],[135.790329,34.787867],[135.791702,34.788995],[135.791702,34.790687]]]]}},{"type":"Feature","properties":{"layer_id":"historical_sites_archaeology","name":"大北城跡","address":"京都府 相楽郡精華町 大字菱田","source":"Geoshape 日本歴史地名大系 施設・地点項目データセット 2025-05-15","subarea_name":"城跡","feature_key":"05_castle_ruins.geojson:260000028500","subtype":"城跡"},"geometry":{"type":"Point","coordinates":[135.790317,34.781752]}},{"type":"Feature","properties":{"layer_id":"historical_sites_archaeology","name":"稲八妻城跡","address":"京都府 相楽郡精華町 大字南稲八妻","source":"Geoshape 日本歴史地名大系 施設・地点項目データセット 2025-05-15","subarea_name":"城跡","feature_key":"05_castle_ruins.geojson:260000028900","subtype":"城跡"},"geometry":{"type":"Point","coordinates":[135.778528,34.757673]}},{"type":"Feature","properties":{"layer_id":"historical_temples_shrines","name":"光明寺","address":"京都府 相楽郡精華町 大字乾谷北里内127番地","source":"Geoshape 日本歴史地名大系 施設・地点項目データセット 2025-05-15","subarea_name":"寺院","feature_key":"01_temples.geojson:260000205300","subtype":"寺院"},"geometry":{"type":"Point","coordinates":[135.770935,34.735935]}},{"type":"Feature","properties":{"layer_id":"historical_temples_shrines","name":"祝園神社","address":"京都府 相楽郡精華町 大字祝園小字柞ノ森大字祝園1番地","source":"Geoshape 日本歴史地名大系 施設・地点項目データセット 2025-05-15","subarea_name":"神社","feature_key":"02_shrines.geojson:260000029300","subtype":"神社"},"geometry":{"type":"Point","coordinates":[135.801586,34.768]}}]}