{"type":"FeatureCollection","municipality_code":"27103","pref":"大阪府","city":"大阪市福島区","layer_counts":{"historical_temples_shrines":2},"total_features":2,"features":[{"type":"Feature","properties":{"layer_id":"historical_temples_shrines","name":"極楽寺","address":"大阪府 大阪市 福島区玉川四丁目3番7号","source":"Geoshape 日本歴史地名大系 施設・地点項目データセット 2025-05-15","subarea_name":"寺院","feature_key":"01_temples.geojson:280000239100","subtype":"寺院"},"geometry":{"type":"Point","coordinates":[135.478195,34.68845]}},{"type":"Feature","properties":{"layer_id":"historical_temples_shrines","name":"福島天満宮","address":"大阪府 大阪市 福島区福島二丁目8番1号","source":"Geoshape 日本歴史地名大系 施設・地点項目データセット 2025-05-15","subarea_name":"神社","feature_key":"02_shrines.geojson:280000238500","subtype":"神社"},"geometry":{"type":"Point","coordinates":[135.487213,34.694626]}}]}