{"type":"FeatureCollection","municipality_code":"27116","pref":"大阪府","city":"大阪市生野区","layer_counts":{"bakumatsu_villages":8,"historical_sites_archaeology":1,"historical_temples_shrines":3},"total_features":12,"features":[{"type":"Feature","properties":{"layer_id":"bakumatsu_villages","name":"伊ヶ賀村","address":"河内 渋川郡","source":"Geoshape 幕末期近世村領域データセット vector tiles (z7 extraction)","subarea_name":"近世村のおおよその範囲","feature_key":"village:K34G12S00017","accuracy_note":"2015年農業集落境界をもとに復元した概略範囲で、江戸時代の正確な村境ではありません"},"geometry":{"type":"Polygon","coordinates":[[[135.557556,34.65072],[135.558243,34.649591],[135.560303,34.650155],[135.560989,34.643942],[135.55275,34.644507],[135.553436,34.645636],[135.552063,34.645636],[135.552063,34.648461],[135.55275,34.65072],[135.554123,34.65072],[135.554123,34.649591],[135.555496,34.65072],[135.557556,34.65072]]]}},{"type":"Feature","properties":{"layer_id":"bakumatsu_villages","name":"四条村","address":"河内 渋川郡","source":"Geoshape 幕末期近世村領域データセット vector tiles (z7 extraction)","subarea_name":"近世村のおおよその範囲","feature_key":"village:K34G12S00012","accuracy_note":"2015年農業集落境界をもとに復元した概略範囲で、江戸時代の正確な村境ではありません"},"geometry":{"type":"Polygon","coordinates":[[[135.54863,34.645072],[135.54863,34.641117],[135.553436,34.641682],[135.553436,34.638857],[135.55275,34.638857],[135.552063,34.636598],[135.554123,34.633773],[135.55069,34.633773],[135.545197,34.638293],[135.543823,34.642812],[135.545197,34.645072],[135.54863,34.645072]]]}},{"type":"Feature","properties":{"layer_id":"bakumatsu_villages","name":"大地村","address":"河内 渋川郡","source":"Geoshape 幕末期近世村領域データセット vector tiles (z7 extraction)","subarea_name":"近世村のおおよその範囲","feature_key":"village:K34G12S00013","accuracy_note":"2015年農業集落境界をもとに復元した概略範囲で、江戸時代の正確な村境ではありません"},"geometry":{"type":"Polygon","coordinates":[[[135.55275,34.65072],[135.552063,34.645636],[135.553436,34.645636],[135.553436,34.641682],[135.54863,34.641117],[135.54863,34.645072],[135.545197,34.645072],[135.54451,34.650155],[135.55275,34.65072]]]}},{"type":"Feature","properties":{"layer_id":"bakumatsu_villages","name":"林寺新家村・林寺村","address":"摂津 東成郡","source":"Geoshape 幕末期近世村領域データセット vector tiles (z7 extraction)","subarea_name":"近世村のおおよその範囲","feature_key":"village:K35G01S00009,K35G01S00010","accuracy_note":"2015年農業集落境界をもとに復元した概略範囲で、江戸時代の正確な村境ではありません"},"geometry":{"type":"Polygon","coordinates":[[[135.533524,34.65072],[135.535583,34.649591],[135.535583,34.648461],[135.537643,34.648461],[135.536957,34.641682],[135.534897,34.639422],[135.523911,34.648461],[135.525284,34.649591],[135.533524,34.65072]]]}},{"type":"Feature","properties":{"layer_id":"bakumatsu_villages","name":"田島村","address":"摂津 東成郡","source":"Geoshape 幕末期近世村領域データセット vector tiles (z7 extraction)","subarea_name":"近世村のおおよその範囲","feature_key":"village:K35G01S00008","accuracy_note":"2015年農業集落境界をもとに復元した概略範囲で、江戸時代の正確な村境ではありません"},"geometry":{"type":"Polygon","coordinates":[[[135.543137,34.65072],[135.54451,34.650155],[135.545197,34.645072],[135.543823,34.642812],[135.54451,34.640552],[135.536957,34.641682],[135.53833,34.650155],[135.543137,34.649591],[135.543137,34.65072]]]}},{"type":"Feature","properties":{"layer_id":"bakumatsu_villages","name":"矢柄村","address":"河内 渋川郡","source":"Geoshape 幕末期近世村領域データセット vector tiles (z7 extraction)","subarea_name":"近世村のおおよその範囲","feature_key":"village:K34G12S00016","accuracy_note":"2015年農業集落境界をもとに復元した概略範囲で、江戸時代の正確な村境ではありません"},"geometry":{"type":"Polygon","coordinates":[[[135.55275,34.656369],[135.558243,34.655804],[135.558929,34.65298],[135.561676,34.65298],[135.561676,34.650155],[135.558243,34.649591],[135.558243,34.65072],[135.555496,34.65072],[135.554123,34.649591],[135.554123,34.65072],[135.55275,34.65072],[135.55275,34.656369]]]}},{"type":"Feature","properties":{"layer_id":"bakumatsu_villages","name":"腹見村・大友村・中川村・片江村","address":"摂津 東成郡","source":"Geoshape 幕末期近世村領域データセット vector tiles (z7 extraction)","subarea_name":"近世村のおおよその範囲","feature_key":"village:K35G01S00011,K35G01S00012,K35G01S00013,K35G01S00014","accuracy_note":"2015年農業集落境界をもとに復元した概略範囲で、江戸時代の正確な村境ではありません"},"geometry":{"type":"Polygon","coordinates":[[[135.541763,34.665405],[135.55687,34.664276],[135.55687,34.663711],[135.560989,34.662582],[135.561676,34.658628],[135.563736,34.658628],[135.563049,34.656369],[135.55275,34.656369],[135.55275,34.657498],[135.55069,34.656369],[135.54245,34.656934],[135.541763,34.662017],[135.543823,34.662017],[135.541763,34.665405]]]}},{"type":"Feature","properties":{"layer_id":"bakumatsu_villages","name":"西足代村","address":"河内 渋川郡","source":"Geoshape 幕末期近世村領域データセット vector tiles (z7 extraction)","subarea_name":"近世村のおおよその範囲","feature_key":"village:K34G12S00014","accuracy_note":"2015年農業集落境界をもとに復元した概略範囲で、江戸時代の正確な村境ではありません"},"geometry":{"type":"Polygon","coordinates":[[[135.55275,34.657498],[135.55275,34.65072],[135.543137,34.65072],[135.54245,34.656934],[135.55069,34.656369],[135.55275,34.657498]]]}},{"type":"Feature","properties":{"layer_id":"historical_sites_archaeology","name":"御勝山古墳","address":"大阪府 大阪市生野区 勝山北三丁目","source":"Geoshape 日本歴史地名大系 施設・地点項目データセット 2025-05-15","subarea_name":"古墳","feature_key":"06_kofun.geojson:280000204100","subtype":"古墳"},"geometry":{"type":"Point","coordinates":[135.535982,34.654348]}},{"type":"Feature","properties":{"layer_id":"historical_temples_shrines","name":"瑞光寺","address":"大阪府 大阪市 生野区生野西三丁目7番6号","source":"Geoshape 日本歴史地名大系 施設・地点項目データセット 2025-05-15","subarea_name":"寺院","feature_key":"01_temples.geojson:280000191800","subtype":"寺院"},"geometry":{"type":"Point","coordinates":[135.527771,34.650265]}},{"type":"Feature","properties":{"layer_id":"historical_temples_shrines","name":"田島神社","address":"大阪府 大阪市 生野区田島三丁目5番34号","source":"Geoshape 日本歴史地名大系 施設・地点項目データセット 2025-05-15","subarea_name":"神社","feature_key":"02_shrines.geojson:280000205100","subtype":"神社"},"geometry":{"type":"Point","coordinates":[135.542343,34.647625]}},{"type":"Feature","properties":{"layer_id":"historical_temples_shrines","name":"舎利尊勝寺","address":"大阪府 大阪市 生野区舎利寺一丁目2番36号","source":"Geoshape 日本歴史地名大系 施設・地点項目データセット 2025-05-15","subarea_name":"寺院","feature_key":"01_temples.geojson:280000204700","subtype":"寺院"},"geometry":{"type":"Point","coordinates":[135.536072,34.651466]}}]}