{"type":"FeatureCollection","municipality_code":"27223","pref":"大阪府","city":"門真市","layer_counts":{"bakumatsu_villages":20,"historical_temples_shrines":7},"total_features":27,"features":[{"type":"Feature","properties":{"layer_id":"bakumatsu_villages","name":"三ッ島村","address":"河内 茨田郡","source":"Geoshape 幕末期近世村領域データセット vector tiles (z7 extraction)","subarea_name":"近世村のおおよその範囲","feature_key":"village:K34G09S00013","accuracy_note":"2015年農業集落境界をもとに復元した概略範囲で、江戸時代の正確な村境ではありません"},"geometry":{"type":"MultiPolygon","coordinates":[[[[135.591888,34.721862],[135.593262,34.721297],[135.593262,34.720169],[135.607681,34.720169],[135.599442,34.715089],[135.594635,34.71396],[135.589828,34.71396],[135.587082,34.711138],[135.586395,34.711703],[135.587082,34.712831],[135.589828,34.714525],[135.589142,34.716782],[135.591888,34.721862]]],[[[135.592575,34.724119],[135.593262,34.723555],[135.600815,34.723555],[135.608368,34.722426],[135.608368,34.720169],[135.593262,34.720169],[135.593262,34.721297],[135.591888,34.721862],[135.592575,34.724119]]]]}},{"type":"Feature","properties":{"layer_id":"bakumatsu_villages","name":"上島頭村","address":"河内 茨田郡","source":"Geoshape 幕末期近世村領域データセット vector tiles (z7 extraction)","subarea_name":"近世村のおおよその範囲","feature_key":"village:K34G09S00025","accuracy_note":"2015年農業集落境界をもとに復元した概略範囲で、江戸時代の正確な村境ではありません"},"geometry":{"type":"Polygon","coordinates":[[[135.609741,34.747255],[135.612488,34.744434],[135.611801,34.742177],[135.609055,34.742741],[135.606995,34.744998],[135.607681,34.747255],[135.608368,34.74669],[135.609741,34.747255]]]}},{"type":"Feature","properties":{"layer_id":"bakumatsu_villages","name":"上馬伏村","address":"河内 茨田郡","source":"Geoshape 幕末期近世村領域データセット vector tiles (z7 extraction)","subarea_name":"近世村のおおよその範囲","feature_key":"village:K34G09S00027","accuracy_note":"2015年農業集落境界をもとに復元した概略範囲で、江戸時代の正確な村境ではありません"},"geometry":{"type":"Polygon","coordinates":[[[135.617981,34.744434],[135.617981,34.73992],[135.616608,34.740484],[135.615234,34.736534],[135.615921,34.735406],[135.613174,34.735406],[135.611801,34.737098],[135.613174,34.738227],[135.611801,34.740484],[135.611801,34.744434],[135.617981,34.744434]]]}},{"type":"Feature","properties":{"layer_id":"bakumatsu_villages","name":"下島頭村","address":"河内 茨田郡","source":"Geoshape 幕末期近世村領域データセット vector tiles (z7 extraction)","subarea_name":"近世村のおおよその範囲","feature_key":"village:K34G09S00024","accuracy_note":"2015年農業集落境界をもとに復元した概略範囲で、江戸時代の正確な村境ではありません"},"geometry":{"type":"Polygon","coordinates":[[[135.609055,34.742741],[135.611801,34.742177],[135.611801,34.740484],[135.613174,34.738227],[135.611115,34.73597],[135.611115,34.733713],[135.612488,34.733713],[135.611801,34.721862],[135.613174,34.721862],[135.612488,34.720733],[135.608368,34.722426],[135.606308,34.722991],[135.605621,34.734841],[135.606308,34.73597],[135.607681,34.73597],[135.608368,34.739356],[135.609741,34.73992],[135.609055,34.742741]]]}},{"type":"Feature","properties":{"layer_id":"bakumatsu_villages","name":"下馬伏村","address":"河内 茨田郡","source":"Geoshape 幕末期近世村領域データセット vector tiles (z7 extraction)","subarea_name":"近世村のおおよその範囲","feature_key":"village:K34G09S00019","accuracy_note":"2015年農業集落境界をもとに復元した概略範囲で、江戸時代の正確な村境ではありません"},"geometry":{"type":"Polygon","coordinates":[[[135.611801,34.737098],[135.613174,34.735406],[135.615921,34.735406],[135.617294,34.727505],[135.617294,34.724684],[135.613174,34.724684],[135.613174,34.722426],[135.611801,34.722426],[135.611801,34.731456],[135.612488,34.731456],[135.612488,34.733713],[135.611115,34.733713],[135.611801,34.737098]]]}},{"type":"Feature","properties":{"layer_id":"bakumatsu_villages","name":"北島村","address":"河内 茨田郡","source":"Geoshape 幕末期近世村領域データセット vector tiles (z7 extraction)","subarea_name":"近世村のおおよその範囲","feature_key":"village:K34G09S00020","accuracy_note":"2015年農業集落境界をもとに復元した概略範囲で、江戸時代の正確な村境ではありません"},"geometry":{"type":"Polygon","coordinates":[[[135.605621,34.733149],[135.606995,34.722426],[135.600815,34.723555],[135.592575,34.723555],[135.594635,34.726377],[135.595322,34.730891],[135.602875,34.73202],[135.605621,34.733149]]]}},{"type":"Feature","properties":{"layer_id":"bakumatsu_villages","name":"尼ヶ崎新々田・尼ヶ崎新田","address":"河内 讃良郡","source":"Geoshape 幕末期近世村領域データセット vector tiles (z7 extraction)","subarea_name":"近世村のおおよその範囲","feature_key":"village:K34G08S00033,K34G08S00034","accuracy_note":"2015年農業集落境界をもとに復元した概略範囲で、江戸時代の正確な村境ではありません"},"geometry":{"type":"Polygon","coordinates":[[[135.620041,34.720733],[135.625534,34.71904],[135.622787,34.71396],[135.620728,34.714525],[135.620041,34.716218],[135.618668,34.716782],[135.618668,34.71904],[135.620041,34.720733]]]}},{"type":"Feature","properties":{"layer_id":"bakumatsu_villages","name":"岸和田村","address":"河内 茨田郡","source":"Geoshape 幕末期近世村領域データセット vector tiles (z7 extraction)","subarea_name":"近世村のおおよその範囲","feature_key":"village:K34G09S00018","accuracy_note":"2015年農業集落境界をもとに復元した概略範囲で、江戸時代の正確な村境ではありません"},"geometry":{"type":"MultiPolygon","coordinates":[[[[135.617981,34.740484],[135.621414,34.73992],[135.622787,34.736534],[135.621414,34.734841],[135.620728,34.730327],[135.621414,34.725812],[135.618668,34.725812],[135.617981,34.724119],[135.615234,34.736534],[135.616608,34.740484],[135.617981,34.740484]]],[[[135.621414,34.725812],[135.623474,34.723555],[135.623474,34.721862],[135.620728,34.721297],[135.619354,34.71904],[135.616608,34.720733],[135.612488,34.720733],[135.611801,34.722426],[135.613861,34.722426],[135.613174,34.724684],[135.617981,34.724119],[135.618668,34.725812],[135.621414,34.725812]]]]}},{"type":"Feature","properties":{"layer_id":"bakumatsu_villages","name":"巣本村","address":"河内 茨田郡","source":"Geoshape 幕末期近世村領域データセット vector tiles (z7 extraction)","subarea_name":"近世村のおおよその範囲","feature_key":"village:K34G09S00028","accuracy_note":"2015年農業集落境界をもとに復元した概略範囲で、江戸時代の正確な村境ではありません"},"geometry":{"type":"Polygon","coordinates":[[[135.617981,34.744434],[135.620041,34.743305],[135.621414,34.73992],[135.617981,34.740484],[135.617981,34.744434]]]}},{"type":"Feature","properties":{"layer_id":"bakumatsu_villages","name":"常称寺村","address":"河内 茨田郡","source":"Geoshape 幕末期近世村領域データセット vector tiles (z7 extraction)","subarea_name":"近世村のおおよその範囲","feature_key":"village:K34G09S00026","accuracy_note":"2015年農業集落境界をもとに復元した概略範囲で、江戸時代の正確な村境ではありません"},"geometry":{"type":"Polygon","coordinates":[[[135.605621,34.75064],[135.606995,34.750076],[135.607681,34.747255],[135.605621,34.74669],[135.604248,34.744434],[135.598068,34.742177],[135.598068,34.744998],[135.604248,34.745562],[135.606308,34.748947],[135.605621,34.75064]]]}},{"type":"Feature","properties":{"layer_id":"bakumatsu_villages","name":"打越村","address":"河内 茨田郡","source":"Geoshape 幕末期近世村領域データセット vector tiles (z7 extraction)","subarea_name":"近世村のおおよその範囲","feature_key":"village:K34G09S00021","accuracy_note":"2015年農業集落境界をもとに復元した概略範囲で、江戸時代の正確な村境ではありません"},"geometry":{"type":"Polygon","coordinates":[[[135.597382,34.738791],[135.602188,34.737663],[135.605621,34.735406],[135.605621,34.733149],[135.602875,34.73202],[135.595322,34.730891],[135.595322,34.733713],[135.597382,34.738791]]]}},{"type":"Feature","properties":{"layer_id":"bakumatsu_villages","name":"桑才村","address":"河内 茨田郡","source":"Geoshape 幕末期近世村領域データセット vector tiles (z7 extraction)","subarea_name":"近世村のおおよその範囲","feature_key":"village:K34G09S00007","accuracy_note":"2015年農業集落境界をもとに復元した概略範囲で、江戸時代の正確な村境ではありません"},"geometry":{"type":"Polygon","coordinates":[[[135.589142,34.734277],[135.588455,34.729763],[135.589142,34.730327],[135.590515,34.727505],[135.595322,34.727505],[135.591202,34.720733],[135.589828,34.721297],[135.585709,34.720169],[135.583649,34.722426],[135.578842,34.73202],[135.580902,34.734277],[135.589142,34.734277]]]}},{"type":"Feature","properties":{"layer_id":"bakumatsu_villages","name":"横地村","address":"河内 茨田郡","source":"Geoshape 幕末期近世村領域データセット vector tiles (z7 extraction)","subarea_name":"近世村のおおよその範囲","feature_key":"village:K34G09S00022","accuracy_note":"2015年農業集落境界をもとに復元した概略範囲で、江戸時代の正確な村境ではありません"},"geometry":{"type":"Polygon","coordinates":[[[135.602188,34.742741],[135.601501,34.738227],[135.597382,34.738791],[135.598068,34.742177],[135.602188,34.742741]]]}},{"type":"Feature","properties":{"layer_id":"bakumatsu_villages","name":"稗島村","address":"河内 茨田郡","source":"Geoshape 幕末期近世村領域データセット vector tiles (z7 extraction)","subarea_name":"近世村のおおよその範囲","feature_key":"village:K34G09S00005","accuracy_note":"2015年農業集落境界をもとに復元した概略範囲で、江戸時代の正確な村境ではありません"},"geometry":{"type":"Polygon","coordinates":[[[135.591888,34.721297],[135.589142,34.716782],[135.589828,34.714525],[135.587082,34.712831],[135.586395,34.711703],[135.585709,34.712267],[135.587082,34.716782],[135.585709,34.720169],[135.591888,34.721297]]]}},{"type":"Feature","properties":{"layer_id":"bakumatsu_villages","name":"野口村","address":"河内 茨田郡","source":"Geoshape 幕末期近世村領域データセット vector tiles (z7 extraction)","subarea_name":"近世村のおおよその範囲","feature_key":"village:K34G09S00023","accuracy_note":"2015年農業集落境界をもとに復元した概略範囲で、江戸時代の正確な村境ではありません"},"geometry":{"type":"Polygon","coordinates":[[[135.607681,34.747255],[135.606995,34.744998],[135.609055,34.742741],[135.609741,34.73992],[135.608368,34.739356],[135.607681,34.73597],[135.605621,34.735406],[135.601501,34.738227],[135.602188,34.742741],[135.600815,34.742741],[135.600815,34.743305],[135.604248,34.744434],[135.605621,34.74669],[135.607681,34.747255]]]}},{"type":"Feature","properties":{"layer_id":"bakumatsu_villages","name":"門真一番上村","address":"河内 茨田郡","source":"Geoshape 幕末期近世村領域データセット vector tiles (z7 extraction)","subarea_name":"近世村のおおよその範囲","feature_key":"village:K34G09S00048","accuracy_note":"2015年農業集落境界をもとに復元した概略範囲で、江戸時代の正確な村境ではありません"},"geometry":{"type":"Polygon","coordinates":[[[135.590515,34.748383],[135.598068,34.744998],[135.597382,34.738791],[135.596695,34.737098],[135.589142,34.737098],[135.585709,34.737663],[135.586395,34.747819],[135.590515,34.748383]]]}},{"type":"Feature","properties":{"layer_id":"bakumatsu_villages","name":"門真一番下村","address":"河内 茨田郡","source":"Geoshape 幕末期近世村領域データセット vector tiles (z7 extraction)","subarea_name":"近世村のおおよその範囲","feature_key":"village:K34G09S00047","accuracy_note":"2015年農業集落境界をもとに復元した概略範囲で、江戸時代の正確な村境ではありません"},"geometry":{"type":"Polygon","coordinates":[[[135.596695,34.737098],[135.595322,34.733149],[135.595322,34.727505],[135.590515,34.727505],[135.589142,34.730327],[135.588455,34.729763],[135.589142,34.737098],[135.596695,34.737098]]]}},{"type":"Feature","properties":{"layer_id":"bakumatsu_villages","name":"門真三番村","address":"河内 茨田郡","source":"Geoshape 幕末期近世村領域データセット vector tiles (z7 extraction)","subarea_name":"近世村のおおよその範囲","feature_key":"village:K34G09S00050","accuracy_note":"2015年農業集落境界をもとに復元した概略範囲で、江戸時代の正確な村境ではありません"},"geometry":{"type":"MultiPolygon","coordinates":[[[[135.579529,34.746126],[135.581589,34.742177],[135.576096,34.741612],[135.578842,34.743869],[135.579529,34.746126]]],[[[135.581589,34.742177],[135.582275,34.73992],[135.577469,34.739356],[135.575409,34.73992],[135.575409,34.741048],[135.581589,34.742177]]]]}},{"type":"Feature","properties":{"layer_id":"bakumatsu_villages","name":"門真二番村","address":"河内 茨田郡","source":"Geoshape 幕末期近世村領域データセット vector tiles (z7 extraction)","subarea_name":"近世村のおおよその範囲","feature_key":"village:K34G09S00049","accuracy_note":"2015年農業集落境界をもとに復元した概略範囲で、江戸時代の正確な村境ではありません"},"geometry":{"type":"Polygon","coordinates":[[[135.580902,34.748383],[135.584335,34.747819],[135.586395,34.747819],[135.585709,34.737663],[135.589142,34.737098],[135.589142,34.734277],[135.582275,34.734277],[135.581589,34.742177],[135.579529,34.747255],[135.580902,34.748383]]]}},{"type":"Feature","properties":{"layer_id":"bakumatsu_villages","name":"門真四番村","address":"河内 茨田郡","source":"Geoshape 幕末期近世村領域データセット vector tiles (z7 extraction)","subarea_name":"近世村のおおよその範囲","feature_key":"village:K34G09S00051","accuracy_note":"2015年農業集落境界をもとに復元した概略範囲で、江戸時代の正確な村境ではありません"},"geometry":{"type":"Polygon","coordinates":[[[135.576096,34.741612],[135.575409,34.73992],[135.577469,34.739356],[135.582275,34.73992],[135.582275,34.734277],[135.580215,34.733713],[135.578842,34.73202],[135.576096,34.734277],[135.576096,34.735406],[135.575409,34.737663],[135.571289,34.738227],[135.571289,34.740484],[135.571976,34.741048],[135.574722,34.740484],[135.576096,34.741612]]]}},{"type":"Feature","properties":{"layer_id":"historical_temples_shrines","name":"堤根神社","address":"大阪府 門真市 ひえ島町12番9号","source":"Geoshape 日本歴史地名大系 施設・地点項目データセット 2025-05-15","subarea_name":"神社","feature_key":"02_shrines.geojson:280000280600","subtype":"神社"},"geometry":{"type":"Point","coordinates":[135.590286,34.719379]}},{"type":"Feature","properties":{"layer_id":"historical_temples_shrines","name":"専隆寺","address":"大阪府 門真市 元町17番2号","source":"Geoshape 日本歴史地名大系 施設・地点項目データセット 2025-05-15","subarea_name":"寺院","feature_key":"01_temples.geojson:280000280100","subtype":"寺院"},"geometry":{"type":"Point","coordinates":[135.578094,34.738594]}},{"type":"Feature","properties":{"layer_id":"historical_temples_shrines","name":"常光寺","address":"大阪府 門真市 野里町24番5号","source":"Geoshape 日本歴史地名大系 施設・地点項目データセット 2025-05-15","subarea_name":"寺院","feature_key":"01_temples.geojson:280000059200","subtype":"寺院"},"geometry":{"type":"Point","coordinates":[135.604248,34.7411]}},{"type":"Feature","properties":{"layer_id":"historical_temples_shrines","name":"常光寺","address":"大阪府 門真市 野里町24番5号","source":"Geoshape 日本歴史地名大系 施設・地点項目データセット 2025-05-15","subarea_name":"寺院","feature_key":"01_temples.geojson:280000312800","subtype":"寺院"},"geometry":{"type":"Point","coordinates":[135.604248,34.7411]}},{"type":"Feature","properties":{"layer_id":"historical_temples_shrines","name":"常称寺","address":"大阪府 門真市 打越町5番12号","source":"Geoshape 日本歴史地名大系 施設・地点項目データセット 2025-05-15","subarea_name":"寺院","feature_key":"01_temples.geojson:280000284600","subtype":"寺院"},"geometry":{"type":"Point","coordinates":[135.596024,34.732693]}},{"type":"Feature","properties":{"layer_id":"historical_temples_shrines","name":"願得寺","address":"大阪府 門真市 御堂町8番23号","source":"Geoshape 日本歴史地名大系 施設・地点項目データセット 2025-05-15","subarea_name":"寺院","feature_key":"01_temples.geojson:280000279500","subtype":"寺院"},"geometry":{"type":"Point","coordinates":[135.596786,34.742813]}},{"type":"Feature","properties":{"layer_id":"historical_temples_shrines","name":"願泉寺","address":"大阪府 門真市 北島町15番5号","source":"Geoshape 日本歴史地名大系 施設・地点項目データセット 2025-05-15","subarea_name":"寺院","feature_key":"01_temples.geojson:280000222400","subtype":"寺院"},"geometry":{"type":"Point","coordinates":[135.595261,34.724449]}}]}