{"type":"FeatureCollection","municipality_code":"27230","pref":"大阪府","city":"交野市","layer_counts":{"bakumatsu_villages":9,"historical_sites_archaeology":5,"historical_temples_shrines":14},"total_features":28,"features":[{"type":"Feature","properties":{"layer_id":"bakumatsu_villages","name":"倉治村","address":"河内 交野郡","source":"Geoshape 幕末期近世村領域データセット vector tiles (z7 extraction)","subarea_name":"近世村のおおよその範囲","feature_key":"village:K34G10S00032","accuracy_note":"2015年農業集落境界をもとに復元した概略範囲で、江戸時代の正確な村境ではありません"},"geometry":{"type":"Polygon","coordinates":[[[135.679092,34.802528],[135.681839,34.800272],[135.685272,34.800836],[135.686646,34.799709],[135.695572,34.800836],[135.707932,34.798581],[135.708618,34.795762],[135.712738,34.795198],[135.712738,34.79407],[135.714111,34.79407],[135.714111,34.790123],[135.716171,34.788995],[135.714798,34.783356],[135.712738,34.782792],[135.711365,34.781664],[135.710678,34.781664],[135.709991,34.782792],[135.704498,34.783919],[135.703125,34.783356],[135.703125,34.784483],[135.701752,34.786739],[135.696259,34.787303],[135.697632,34.788995],[135.695572,34.789559],[135.696259,34.792378],[135.691452,34.79125],[135.684586,34.791814],[135.685272,34.792378],[135.683212,34.792378],[135.683899,34.793506],[135.683212,34.795762],[135.679092,34.796325],[135.679092,34.802528]]]}},{"type":"Feature","properties":{"layer_id":"bakumatsu_villages","name":"傍示村","address":"河内 交野郡","source":"Geoshape 幕末期近世村領域データセット vector tiles (z7 extraction)","subarea_name":"近世村のおおよその範囲","feature_key":"village:K34G10S00037","accuracy_note":"2015年農業集落境界をもとに復元した概略範囲で、江戸時代の正確な村境ではありません"},"geometry":{"type":"Polygon","coordinates":[[[135.709305,34.778844],[135.707245,34.774896],[135.705872,34.774332],[135.705872,34.77546],[135.704498,34.776024],[135.704498,34.77828],[135.709305,34.778844]]]}},{"type":"Feature","properties":{"layer_id":"bakumatsu_villages","name":"寺村","address":"河内 交野郡","source":"Geoshape 幕末期近世村領域データセット vector tiles (z7 extraction)","subarea_name":"近世村のおおよその範囲","feature_key":"village:K34G10S00038","accuracy_note":"2015年農業集落境界をもとに復元した概略範囲で、江戸時代の正確な村境ではありません"},"geometry":{"type":"Polygon","coordinates":[[[135.695572,34.789559],[135.697632,34.788995],[135.696259,34.787303],[135.699005,34.787303],[135.701752,34.786175],[135.703125,34.784483],[135.703125,34.783356],[135.704498,34.783919],[135.709991,34.782792],[135.710678,34.7811],[135.709305,34.780536],[135.709305,34.778844],[135.704498,34.77828],[135.704498,34.776588],[135.702438,34.77546],[135.701065,34.776024],[135.699692,34.774896],[135.696945,34.776024],[135.696945,34.774332],[135.690765,34.780536],[135.685272,34.779972],[135.685272,34.781664],[135.690079,34.781664],[135.695572,34.789559]]]}},{"type":"Feature","properties":{"layer_id":"bakumatsu_villages","name":"星田村","address":"河内 交野郡","source":"Geoshape 幕末期近世村領域データセット vector tiles (z7 extraction)","subarea_name":"近世村のおおよその範囲","feature_key":"village:K34G10S00004","accuracy_note":"2015年農業集落境界をもとに復元した概略範囲で、江戸時代の正確な村境ではありません"},"geometry":{"type":"Polygon","coordinates":[[[135.674286,34.778844],[135.679779,34.76982],[135.679092,34.769256],[135.677719,34.761923],[135.680466,34.759102],[135.683212,34.76023],[135.690765,34.757974],[135.688705,34.752896],[135.690765,34.751204],[135.688705,34.750076],[135.688019,34.747255],[135.688705,34.743869],[135.684586,34.742177],[135.683212,34.742741],[135.682526,34.745562],[135.679092,34.743869],[135.674973,34.745562],[135.674973,34.744434],[135.672913,34.744998],[135.671539,34.74669],[135.670166,34.744998],[135.668106,34.744998],[135.667419,34.746126],[135.663986,34.747255],[135.662613,34.749511],[135.66124,34.748947],[135.658493,34.752332],[135.659866,34.752332],[135.658493,34.754589],[135.657806,34.757974],[135.65918,34.757974],[135.658493,34.76023],[135.661926,34.766999],[135.66124,34.770948],[135.659866,34.77264],[135.65918,34.77546],[135.662613,34.776588],[135.667419,34.776588],[135.668793,34.778844],[135.674286,34.778844]]]}},{"type":"Feature","properties":{"layer_id":"bakumatsu_villages","name":"森村","address":"河内 交野郡","source":"Geoshape 幕末期近世村領域データセット vector tiles (z7 extraction)","subarea_name":"近世村のおおよその範囲","feature_key":"village:K34G10S00039","accuracy_note":"2015年農業集落境界をもとに復元した概略範囲で、江戸時代の正確な村境ではありません"},"geometry":{"type":"Polygon","coordinates":[[[135.682526,34.778844],[135.685272,34.780536],[135.690765,34.780536],[135.696259,34.77546],[135.697632,34.776024],[135.699692,34.774896],[135.701065,34.776024],[135.704498,34.776024],[135.705872,34.77546],[135.705872,34.774332],[135.707245,34.774896],[135.706558,34.772076],[135.709991,34.771512],[135.707932,34.769256],[135.708618,34.762487],[135.705185,34.761358],[135.702438,34.766999],[135.699692,34.767563],[135.696259,34.76982],[135.693512,34.76982],[135.690079,34.773204],[135.685272,34.774896],[135.682526,34.778844]]]}},{"type":"Feature","properties":{"layer_id":"bakumatsu_villages","name":"私市村","address":"河内 交野郡","source":"Geoshape 幕末期近世村領域データセット vector tiles (z7 extraction)","subarea_name":"近世村のおおよその範囲","feature_key":"village:K34G10S00036","accuracy_note":"2015年農業集落境界をもとに復元した概略範囲で、江戸時代の正確な村境ではありません"},"geometry":{"type":"Polygon","coordinates":[[[135.681152,34.779972],[135.685272,34.774896],[135.690079,34.773204],[135.691452,34.772076],[135.691452,34.770384],[135.702438,34.766999],[135.705185,34.761358],[135.708618,34.762487],[135.709991,34.761358],[135.708618,34.759102],[135.709991,34.754025],[135.707932,34.752332],[135.706558,34.748947],[135.704498,34.748947],[135.700378,34.751204],[135.697632,34.749511],[135.699005,34.745562],[135.694885,34.743305],[135.692825,34.743305],[135.688705,34.744998],[135.688019,34.747255],[135.688705,34.750076],[135.690765,34.751204],[135.688705,34.752896],[135.690765,34.757974],[135.683212,34.76023],[135.680466,34.759102],[135.677719,34.761923],[135.679092,34.769256],[135.679779,34.76982],[135.674286,34.778844],[135.678406,34.779408],[135.678406,34.779972],[135.681152,34.779972]]]}},{"type":"Feature","properties":{"layer_id":"bakumatsu_villages","name":"私部村","address":"河内 交野郡","source":"Geoshape 幕末期近世村領域データセット vector tiles (z7 extraction)","subarea_name":"近世村のおおよその範囲","feature_key":"village:K34G10S00035","accuracy_note":"2015年農業集落境界をもとに復元した概略範囲で、江戸時代の正確な村境ではありません"},"geometry":{"type":"Polygon","coordinates":[[[135.670166,34.792942],[135.674286,34.790687],[135.683899,34.792378],[135.685272,34.792378],[135.684586,34.791814],[135.688019,34.79125],[135.696259,34.792378],[135.695572,34.789559],[135.690079,34.781664],[135.685272,34.781664],[135.685272,34.780536],[135.682526,34.778844],[135.678406,34.779972],[135.677719,34.779408],[135.671539,34.778844],[135.670166,34.785611],[135.671539,34.786175],[135.669479,34.790123],[135.667419,34.792942],[135.670166,34.792942]]]}},{"type":"Feature","properties":{"layer_id":"bakumatsu_villages","name":"郡津村","address":"河内 交野郡","source":"Geoshape 幕末期近世村領域データセット vector tiles (z7 extraction)","subarea_name":"近世村のおおよその範囲","feature_key":"village:K34G10S00033","accuracy_note":"2015年農業集落境界をもとに復元した概略範囲で、江戸時代の正確な村境ではありません"},"geometry":{"type":"Polygon","coordinates":[[[135.676346,34.803655],[135.677032,34.801964],[135.679092,34.802528],[135.679092,34.796325],[135.683212,34.795762],[135.683899,34.793506],[135.683212,34.792378],[135.674286,34.790687],[135.670166,34.792942],[135.667419,34.792942],[135.663986,34.795762],[135.666733,34.796325],[135.665359,34.797453],[135.672913,34.799709],[135.673599,34.801964],[135.674973,34.801964],[135.676346,34.803655]]]}},{"type":"Feature","properties":{"layer_id":"bakumatsu_villages","name":"高山東村・東西高山村之内・高山西村","address":"大和 添下郡","source":"Geoshape 幕末期近世村領域データセット vector tiles (z7 extraction)","subarea_name":"近世村のおおよその範囲","feature_key":"village:K32G02S00052,K32G02S00053,K32G02S00054","accuracy_note":"2015年農業集落境界をもとに復元した概略範囲で、江戸時代の正確な村境ではありません"},"geometry":{"type":"MultiPolygon","coordinates":[[[[135.711365,34.781664],[135.716171,34.779972],[135.720291,34.774896],[135.726471,34.776024],[135.728531,34.77828],[135.729218,34.777716],[135.729218,34.774896],[135.727158,34.774896],[135.725784,34.76982],[135.720291,34.767563],[135.716858,34.763615],[135.713425,34.764179],[135.708618,34.764179],[135.707932,34.769256],[135.709991,34.772076],[135.707245,34.772076],[135.706558,34.77264],[135.709305,34.777716],[135.709305,34.780536],[135.711365,34.781664]]],[[[135.713425,34.764179],[135.716858,34.763615],[135.718231,34.760794],[135.716858,34.752896],[135.718918,34.748947],[135.725098,34.75064],[135.730591,34.75064],[135.729904,34.749511],[135.723724,34.745562],[135.722351,34.742741],[135.716858,34.740484],[135.712738,34.745562],[135.706558,34.748947],[135.707932,34.752332],[135.709991,34.754589],[135.708618,34.759102],[135.709991,34.760794],[135.708618,34.761923],[135.708618,34.764179],[135.713425,34.764179]]],[[[135.729218,34.774896],[135.730591,34.770384],[135.729904,34.766435],[135.731964,34.764179],[135.731964,34.75741],[135.733337,34.756846],[135.733337,34.755153],[135.736084,34.755717],[135.736084,34.75064],[135.727158,34.751204],[135.718918,34.748947],[135.716858,34.752896],[135.718231,34.760794],[135.716858,34.763615],[135.720291,34.767563],[135.725784,34.76982],[135.727158,34.774896],[135.729218,34.774896]]],[[[135.736084,34.75064],[135.738831,34.748383],[135.744324,34.747819],[135.741577,34.742741],[135.739517,34.742177],[135.738831,34.742741],[135.738144,34.741612],[135.736084,34.742177],[135.732651,34.739356],[135.730591,34.739356],[135.729218,34.738227],[135.727844,34.738227],[135.727844,34.739356],[135.717545,34.738791],[135.716858,34.740484],[135.722351,34.742741],[135.723724,34.745562],[135.729904,34.749511],[135.730591,34.75064],[135.736084,34.75064]]],[[[135.730591,34.739356],[135.729218,34.735406],[135.721664,34.733713],[135.722351,34.738791],[135.727844,34.739356],[135.727844,34.738227],[135.729218,34.738227],[135.730591,34.739356]]],[[[135.736084,34.742177],[135.737457,34.741612],[135.737457,34.737663],[135.736084,34.73597],[135.737457,34.729763],[135.727158,34.729763],[135.727158,34.727505],[135.724411,34.726941],[135.725098,34.725812],[135.716858,34.72807],[135.715485,34.730891],[135.716171,34.737663],[135.722351,34.738791],[135.721664,34.734277],[135.723724,34.733713],[135.729218,34.735406],[135.730591,34.739356],[135.732651,34.739356],[135.736084,34.742177]]]]}},{"type":"Feature","properties":{"layer_id":"historical_sites_archaeology","name":"交野城跡","address":"大阪府 交野市 私部五丁目","source":"Geoshape 日本歴史地名大系 施設・地点項目データセット 2025-05-15","subarea_name":"城跡","feature_key":"05_castle_ruins.geojson:280000271300","subtype":"城跡"},"geometry":{"type":"Point","coordinates":[135.68285,34.789182]}},{"type":"Feature","properties":{"layer_id":"historical_sites_archaeology","name":"倉治古墳群","address":"大阪府 交野市 東倉治三丁目","source":"Geoshape 日本歴史地名大系 施設・地点項目データセット 2025-05-15","subarea_name":"古墳","feature_key":"06_kofun.geojson:280000270600","subtype":"古墳"},"geometry":{"type":"Point","coordinates":[135.702963,34.795043]}},{"type":"Feature","properties":{"layer_id":"historical_sites_archaeology","name":"妙見山古墳","address":"大阪府 交野市 星田九丁目","source":"Geoshape 日本歴史地名大系 施設・地点項目データセット 2025-05-15","subarea_name":"古墳","feature_key":"06_kofun.geojson:280000272700","subtype":"古墳"},"geometry":{"type":"Point","coordinates":[135.679211,34.759024]}},{"type":"Feature","properties":{"layer_id":"historical_sites_archaeology","name":"徳川家康陣跡","address":"大阪府 交野市 星田八丁目","source":"Geoshape 日本歴史地名大系 施設・地点項目データセット 2025-05-15","subarea_name":"城跡","feature_key":"05_castle_ruins.geojson:280000272500","subtype":"城跡"},"geometry":{"type":"Point","coordinates":[135.668066,34.764056]}},{"type":"Feature","properties":{"layer_id":"historical_sites_archaeology","name":"星田遺跡","address":"大阪府 交野市 星田八丁目","source":"Geoshape 日本歴史地名大系 施設・地点項目データセット 2025-05-15","subarea_name":"遺跡","feature_key":"08_archaeological_sites.geojson:280000272600","subtype":"遺跡"},"geometry":{"type":"Point","coordinates":[135.668066,34.764056]}},{"type":"Feature","properties":{"layer_id":"historical_temples_shrines","name":"光通寺","address":"大阪府 交野市 大字私部五丁目16番5号","source":"Geoshape 日本歴史地名大系 施設・地点項目データセット 2025-05-15","subarea_name":"寺院","feature_key":"01_temples.geojson:280000271200","subtype":"寺院"},"geometry":{"type":"Point","coordinates":[135.681656,34.788853]}},{"type":"Feature","properties":{"layer_id":"historical_temples_shrines","name":"善通寺","address":"大阪府 交野市 大字倉治六丁目15番16号","source":"Geoshape 日本歴史地名大系 施設・地点項目データセット 2025-05-15","subarea_name":"寺院","feature_key":"01_temples.geojson:280000270500","subtype":"寺院"},"geometry":{"type":"Point","coordinates":[135.692245,34.796875]}},{"type":"Feature","properties":{"layer_id":"historical_temples_shrines","name":"宜春院","address":"大阪府 交野市 東倉治二丁目15番","source":"Geoshape 日本歴史地名大系 施設・地点項目データセット 2025-05-15","subarea_name":"寺院","feature_key":"01_temples.geojson:280000270700","subtype":"寺院"},"geometry":{"type":"Point","coordinates":[135.703674,34.790539]}},{"type":"Feature","properties":{"layer_id":"historical_temples_shrines","name":"小松寺跡","address":"大阪府 交野市 星田九丁目","source":"Geoshape 日本歴史地名大系 施設・地点項目データセット 2025-05-15","subarea_name":"廃寺・廃社","feature_key":"03_abandoned_temples_shrines.geojson:280000272800","subtype":"廃寺・廃社"},"geometry":{"type":"Point","coordinates":[135.673871,34.761785]}},{"type":"Feature","properties":{"layer_id":"historical_temples_shrines","name":"慈光寺","address":"大阪府 交野市 大字星田三丁目1番1号","source":"Geoshape 日本歴史地名大系 施設・地点項目データセット 2025-05-15","subarea_name":"寺院","feature_key":"01_temples.geojson:280000272400","subtype":"寺院"},"geometry":{"type":"Point","coordinates":[135.671707,34.766418]}},{"type":"Feature","properties":{"layer_id":"historical_temples_shrines","name":"明遍寺","address":"大阪府 交野市 郡津一丁目52番1号","source":"Geoshape 日本歴史地名大系 施設・地点項目データセット 2025-05-15","subarea_name":"寺院","feature_key":"01_temples.geojson:280000270300","subtype":"寺院"},"geometry":{"type":"Point","coordinates":[135.675201,34.794369]}},{"type":"Feature","properties":{"layer_id":"historical_temples_shrines","name":"星田寺","address":"大阪府 交野市 大字星田二丁目6番7号","source":"Geoshape 日本歴史地名大系 施設・地点項目データセット 2025-05-15","subarea_name":"寺院","feature_key":"01_temples.geojson:280000272300","subtype":"寺院"},"geometry":{"type":"Point","coordinates":[135.67247,34.765152]}},{"type":"Feature","properties":{"layer_id":"historical_temples_shrines","name":"無量光寺","address":"大阪府 交野市 大字私部五丁目8番2号","source":"Geoshape 日本歴史地名大系 施設・地点項目データセット 2025-05-15","subarea_name":"寺院","feature_key":"01_temples.geojson:280000271100","subtype":"寺院"},"geometry":{"type":"Point","coordinates":[135.681992,34.788391]}},{"type":"Feature","properties":{"layer_id":"historical_temples_shrines","name":"獅子窟寺","address":"大阪府 交野市 大字私市2387番地","source":"Geoshape 日本歴史地名大系 施設・地点項目データセット 2025-05-15","subarea_name":"寺院","feature_key":"01_temples.geojson:280000271900","subtype":"寺院"},"geometry":{"type":"Point","coordinates":[135.694321,34.769241]}},{"type":"Feature","properties":{"layer_id":"historical_temples_shrines","name":"磐船神社","address":"大阪府 交野市 大字私市九丁目19番","source":"Geoshape 日本歴史地名大系 施設・地点項目データセット 2025-05-15","subarea_name":"神社","feature_key":"02_shrines.geojson:280000272000","subtype":"神社"},"geometry":{"type":"Point","coordinates":[135.693985,34.747669]}},{"type":"Feature","properties":{"layer_id":"historical_temples_shrines","name":"神宮寺遺跡","address":"大阪府 交野市 神宮寺二丁目","source":"Geoshape 日本歴史地名大系 施設・地点項目データセット 2025-05-15","subarea_name":"廃寺・廃社","feature_key":"03_abandoned_temples_shrines.geojson:280000270800","subtype":"廃寺・廃社"},"geometry":{"type":"Point","coordinates":[135.699413,34.788968]}},{"type":"Feature","properties":{"layer_id":"historical_temples_shrines","name":"長宝寺跡","address":"大阪府 交野市 郡津一丁目","source":"Geoshape 日本歴史地名大系 施設・地点項目データセット 2025-05-15","subarea_name":"廃寺・廃社","feature_key":"03_abandoned_temples_shrines.geojson:280000270200","subtype":"廃寺・廃社"},"geometry":{"type":"Point","coordinates":[135.677527,34.792866]}},{"type":"Feature","properties":{"layer_id":"historical_temples_shrines","name":"開元寺跡","address":"大阪府 交野市 神宮寺二丁目","source":"Geoshape 日本歴史地名大系 施設・地点項目データセット 2025-05-15","subarea_name":"廃寺・廃社","feature_key":"03_abandoned_temples_shrines.geojson:280000270900","subtype":"廃寺・廃社"},"geometry":{"type":"Point","coordinates":[135.699308,34.788797]}},{"type":"Feature","properties":{"layer_id":"historical_temples_shrines","name":"須弥寺","address":"大阪府 交野市 森南三丁目32番","source":"Geoshape 日本歴史地名大系 施設・地点項目データセット 2025-05-15","subarea_name":"寺院","feature_key":"01_temples.geojson:280000271700","subtype":"寺院"},"geometry":{"type":"Point","coordinates":[135.690887,34.778919]}}]}