{"type":"FeatureCollection","municipality_code":"27322","pref":"大阪府","city":"能勢町","layer_counts":{"bakumatsu_villages":31,"historical_sites_archaeology":11,"historical_temples_shrines":10},"total_features":52,"features":[{"type":"Feature","properties":{"layer_id":"bakumatsu_villages","name":"上杉村","address":"摂津 能勢郡","source":"Geoshape 幕末期近世村領域データセット vector tiles (z7 extraction)","subarea_name":"近世村のおおよその範囲","feature_key":"village:K35G07S00003","accuracy_note":"2015年農業集落境界をもとに復元した概略範囲で、江戸時代の正確な村境ではありません"},"geometry":{"type":"Polygon","coordinates":[[[135.385208,34.959684],[135.391388,34.955181],[135.395508,34.950679],[135.397568,34.950116],[135.399628,34.947865],[135.403748,34.947302],[135.405121,34.944488],[135.403748,34.943925],[135.395508,34.944488],[135.392075,34.941674],[135.390015,34.943925],[135.388641,34.943925],[135.386581,34.946739],[135.387268,34.951242],[135.385895,34.951805],[135.385208,34.954619],[135.382462,34.955181],[135.385208,34.959684]]]}},{"type":"Feature","properties":{"layer_id":"bakumatsu_villages","name":"上田尻村","address":"摂津 能勢郡","source":"Geoshape 幕末期近世村領域データセット vector tiles (z7 extraction)","subarea_name":"近世村のおおよその範囲","feature_key":"village:K35G07S00028","accuracy_note":"2015年農業集落境界をもとに復元した概略範囲で、江戸時代の正確な村境ではありません"},"geometry":{"type":"MultiPolygon","coordinates":[[[[135.435333,34.972063],[135.43602,34.964748],[135.445633,34.960809],[135.44426,34.958558],[135.436707,34.956307],[135.432587,34.960246],[135.429153,34.960246],[135.427094,34.959121],[135.425034,34.958558],[135.422287,34.958558],[135.420914,34.960246],[135.422974,34.962497],[135.422974,34.968124],[135.432587,34.970938],[135.435333,34.972063]]],[[[135.4422,34.974314],[135.453186,34.973188],[135.453873,34.972063],[135.450439,34.970375],[135.451813,34.966436],[135.455933,34.964748],[135.454559,34.962497],[135.450439,34.961372],[135.44632,34.961935],[135.445633,34.960809],[135.43602,34.964748],[135.435333,34.972063],[135.439453,34.970375],[135.440826,34.973751],[135.4422,34.974314]]]]}},{"type":"Feature","properties":{"layer_id":"bakumatsu_villages","name":"上阿古谷村枝郷・上阿古谷村","address":"摂津 川辺郡","source":"Geoshape 幕末期近世村領域データセット vector tiles (z7 extraction)","subarea_name":"近世村のおおよその範囲","feature_key":"village:K35G11S00156,K35G11S00157","accuracy_note":"2015年農業集落境界をもとに復元した概略範囲で、江戸時代の正確な村境ではありません"},"geometry":{"type":"Polygon","coordinates":[[[135.381775,34.956307],[135.383148,34.954619],[135.385208,34.954619],[135.387268,34.950116],[135.386581,34.946739],[135.387955,34.944488],[135.393448,34.941674],[135.392075,34.937171],[135.389328,34.933793],[135.389328,34.929853],[135.386581,34.931542],[135.379715,34.930979],[135.379715,34.932667],[135.376282,34.937734],[135.372849,34.940548],[135.372849,34.942799],[135.370789,34.945614],[135.376282,34.956307],[135.377655,34.955744],[135.381775,34.956307]]]}},{"type":"Feature","properties":{"layer_id":"bakumatsu_villages","name":"下田尻村","address":"摂津 能勢郡","source":"Geoshape 幕末期近世村領域データセット vector tiles (z7 extraction)","subarea_name":"近世村のおおよその範囲","feature_key":"village:K35G07S00029","accuracy_note":"2015年農業集落境界をもとに復元した概略範囲で、江戸時代の正確な村境ではありません"},"geometry":{"type":"Polygon","coordinates":[[[135.432587,34.960246],[135.436707,34.956307],[135.431213,34.951242],[135.433273,34.947302],[135.428467,34.941674],[135.427094,34.937171],[135.422974,34.934919],[135.418167,34.934356],[135.416794,34.938296],[135.41748,34.939985],[135.41748,34.944488],[135.420227,34.954619],[135.422287,34.958558],[135.426407,34.958558],[135.429153,34.960246],[135.432587,34.960246]]]}},{"type":"Feature","properties":{"layer_id":"bakumatsu_villages","name":"下田村","address":"摂津 能勢郡","source":"Geoshape 幕末期近世村領域データセット vector tiles (z7 extraction)","subarea_name":"近世村のおおよその範囲","feature_key":"village:K35G07S00034","accuracy_note":"2015年農業集落境界をもとに復元した概略範囲で、江戸時代の正確な村境ではありません"},"geometry":{"type":"Polygon","coordinates":[[[135.410614,34.955744],[135.410614,34.951242],[135.407867,34.950116],[135.411301,34.944488],[135.408554,34.945614],[135.411301,34.943925],[135.410614,34.942799],[135.408554,34.942799],[135.405121,34.944488],[135.403748,34.947302],[135.399628,34.948428],[135.403061,34.955181],[135.410614,34.955744]]]}},{"type":"Feature","properties":{"layer_id":"bakumatsu_villages","name":"今西村","address":"摂津 能勢郡","source":"Geoshape 幕末期近世村領域データセット vector tiles (z7 extraction)","subarea_name":"近世村のおおよその範囲","feature_key":"village:K35G07S00005","accuracy_note":"2015年農業集落境界をもとに復元した概略範囲で、江戸時代の正確な村境ではありません"},"geometry":{"type":"Polygon","coordinates":[[[135.389328,34.977127],[135.394135,34.976002],[135.392761,34.973188],[135.393448,34.969812],[135.392761,34.968124],[135.392075,34.966999],[135.389328,34.966999],[135.383835,34.968124],[135.383835,34.96925],[135.387955,34.9715],[135.387955,34.974876],[135.389328,34.977127]]]}},{"type":"Feature","properties":{"layer_id":"bakumatsu_villages","name":"倉垣村","address":"摂津 能勢郡","source":"Geoshape 幕末期近世村領域データセット vector tiles (z7 extraction)","subarea_name":"近世村のおおよその範囲","feature_key":"village:K35G07S00031","accuracy_note":"2015年農業集落境界をもとに復元した概略範囲で、江戸時代の正確な村境ではありません"},"geometry":{"type":"MultiPolygon","coordinates":[[[[135.451813,35.002441],[135.459366,35.001878],[135.466919,34.997379],[135.466232,34.994004],[135.463486,34.991754],[135.460052,34.984441],[135.462112,34.977689],[135.457993,34.974314],[135.449066,34.990629],[135.44838,34.994566],[135.451126,34.995691],[135.452499,34.998504],[135.451813,35.002441]]],[[[135.455933,34.979377],[135.457993,34.974314],[135.455933,34.9715],[135.460052,34.96925],[135.460052,34.965874],[135.455933,34.964748],[135.451813,34.966436],[135.450439,34.970375],[135.453873,34.972063],[135.453186,34.978252],[135.454559,34.979377],[135.455933,34.979377]]],[[[135.466232,34.994004],[135.468292,34.988378],[135.480652,34.979377],[135.480652,34.977127],[135.476532,34.97994],[135.461426,34.978815],[135.460052,34.984441],[135.463486,34.991754],[135.466232,34.994004]]],[[[135.457993,34.974314],[135.460739,34.973751],[135.467606,34.970375],[135.476532,34.973751],[135.477219,34.9715],[135.475845,34.968124],[135.472412,34.968124],[135.471725,34.967562],[135.468292,34.96925],[135.466919,34.968687],[135.464859,34.96925],[135.463486,34.965874],[135.460052,34.965874],[135.460052,34.96925],[135.455933,34.9715],[135.455933,34.972063],[135.457993,34.974314]]],[[[135.477219,34.97994],[135.480652,34.977127],[135.481339,34.973188],[135.482712,34.972063],[135.482025,34.970375],[135.476532,34.968687],[135.477219,34.9715],[135.476532,34.973751],[135.467606,34.970375],[135.462799,34.973188],[135.457993,34.974314],[135.462112,34.977689],[135.461426,34.978815],[135.477219,34.97994]]]]}},{"type":"Feature","properties":{"layer_id":"bakumatsu_villages","name":"吉野村","address":"摂津 能勢郡","source":"Geoshape 幕末期近世村領域データセット vector tiles (z7 extraction)","subarea_name":"近世村のおおよその範囲","feature_key":"village:K35G07S00013","accuracy_note":"2015年農業集落境界をもとに復元した概略範囲で、江戸時代の正確な村境ではありません"},"geometry":{"type":"Polygon","coordinates":[[[135.466919,34.997379],[135.472412,34.994566],[135.476532,34.994566],[135.481339,34.995691],[135.482712,34.992879],[135.486832,34.992879],[135.488892,34.990066],[135.492325,34.989504],[135.493011,34.988378],[135.486145,34.985566],[135.482712,34.981628],[135.477905,34.981065],[135.467606,34.988378],[135.466232,34.994004],[135.466919,34.997379]]]}},{"type":"Feature","properties":{"layer_id":"bakumatsu_villages","name":"地黄村","address":"摂津 能勢郡","source":"Geoshape 幕末期近世村領域データセット vector tiles (z7 extraction)","subarea_name":"近世村のおおよその範囲","feature_key":"village:K35G07S00020","accuracy_note":"2015年農業集落境界をもとに復元した概略範囲で、江戸時代の正確な村境ではありません"},"geometry":{"type":"Polygon","coordinates":[[[135.468292,34.96925],[135.471725,34.967562],[135.472412,34.968124],[135.475845,34.968124],[135.478592,34.964748],[135.481339,34.963623],[135.480652,34.962497],[135.484085,34.960809],[135.484772,34.957433],[135.486832,34.957433],[135.482025,34.952368],[135.473099,34.951242],[135.460052,34.947865],[135.455933,34.948428],[135.456619,34.948991],[135.451126,34.950679],[135.451126,34.953493],[135.449753,34.95687],[135.450439,34.961372],[135.455246,34.96306],[135.457306,34.965311],[135.463486,34.965311],[135.464859,34.968687],[135.466919,34.968687],[135.468292,34.96925]]]}},{"type":"Feature","properties":{"layer_id":"bakumatsu_villages","name":"垂水村","address":"摂津 能勢郡","source":"Geoshape 幕末期近世村領域データセット vector tiles (z7 extraction)","subarea_name":"近世村のおおよその範囲","feature_key":"village:K35G07S00008","accuracy_note":"2015年農業集落境界をもとに復元した概略範囲で、江戸時代の正確な村境ではありません"},"geometry":{"type":"Polygon","coordinates":[[[135.379028,34.974314],[135.387268,34.970375],[135.383835,34.96925],[135.383835,34.968124],[135.378342,34.965311],[135.377655,34.968687],[135.374222,34.972063],[135.373535,34.973751],[135.379028,34.974314]]]}},{"type":"Feature","properties":{"layer_id":"bakumatsu_villages","name":"大里村","address":"摂津 能勢郡","source":"Geoshape 幕末期近世村領域データセット vector tiles (z7 extraction)","subarea_name":"近世村のおおよその範囲","feature_key":"village:K35G07S00039","accuracy_note":"2015年農業集落境界をもとに復元した概略範囲で、江戸時代の正確な村境ではありません"},"geometry":{"type":"Polygon","coordinates":[[[135.408554,34.98219],[135.412674,34.973751],[135.41954,34.970938],[135.418167,34.967562],[135.409927,34.966999],[135.410614,34.965874],[135.409241,34.965311],[135.407867,34.965874],[135.407181,34.969812],[135.405807,34.9715],[135.404434,34.9715],[135.403748,34.973751],[135.405121,34.981065],[135.408554,34.98219]]]}},{"type":"Feature","properties":{"layer_id":"bakumatsu_villages","name":"天王村","address":"摂津 能勢郡","source":"Geoshape 幕末期近世村領域データセット vector tiles (z7 extraction)","subarea_name":"近世村のおおよその範囲","feature_key":"village:K35G07S00009","accuracy_note":"2015年農業集落境界をもとに復元した概略範囲で、江戸時代の正確な村境ではありません"},"geometry":{"type":"Polygon","coordinates":[[[135.349503,35.051359],[135.359116,35.050235],[135.361862,35.047987],[135.361176,35.046862],[135.367355,35.044052],[135.370789,35.045738],[135.375595,35.044614],[135.377655,35.040679],[135.379715,35.039554],[135.379715,35.035619],[135.381775,35.032245],[135.381775,35.026623],[135.379715,35.025498],[135.379028,35.023811],[135.372849,35.024374],[135.361862,35.023249],[135.359116,35.021],[135.354996,35.020437],[135.354309,35.024936],[135.349503,35.02606],[135.348816,35.027185],[135.344009,35.025498],[135.339203,35.02606],[135.336456,35.032808],[135.333023,35.035619],[135.330963,35.035057],[135.32959,35.035619],[135.33783,35.044052],[135.341263,35.04349],[135.343323,35.045176],[135.346069,35.045176],[135.348816,35.0463],[135.349503,35.051359]]]}},{"type":"Feature","properties":{"layer_id":"bakumatsu_villages","name":"宿野村","address":"摂津 能勢郡","source":"Geoshape 幕末期近世村領域データセット vector tiles (z7 extraction)","subarea_name":"近世村のおおよその範囲","feature_key":"village:K35G07S00038","accuracy_note":"2015年農業集落境界をもとに復元した概略範囲で、江戸時代の正確な村境ではありません"},"geometry":{"type":"MultiPolygon","coordinates":[[[[135.409241,35.012002],[135.414047,35.008628],[135.418167,35.003003],[135.416794,34.994566],[135.418854,34.986691],[135.416794,34.982753],[135.418854,34.979377],[135.418167,34.978252],[135.418854,34.978252],[135.420227,34.972063],[135.41954,34.970938],[135.412674,34.973751],[135.409241,34.97994],[135.412674,34.993441],[135.408554,34.999066],[135.404434,35.001316],[135.403061,35.00694],[135.409241,35.012002]]],[[[135.418167,35.003003],[135.422974,35.001878],[135.427094,34.982753],[135.42572,34.980502],[135.429153,34.974876],[135.432587,34.973188],[135.432587,34.970938],[135.42366,34.968687],[135.422974,34.970375],[135.420227,34.972063],[135.418854,34.978252],[135.418167,34.978252],[135.418854,34.979377],[135.416794,34.982753],[135.418854,34.986691],[135.416794,34.994566],[135.418167,35.003003]]],[[[135.429153,35.006378],[135.427094,35.000191],[135.42778,34.998504],[135.42778,34.997379],[135.429153,34.996254],[135.42984,34.994004],[135.432587,34.990629],[135.4319,34.987253],[135.433273,34.984441],[135.431213,34.98219],[135.43396,34.980502],[135.436707,34.97994],[135.437393,34.978252],[135.432587,34.973188],[135.429153,34.975439],[135.42572,34.980502],[135.427094,34.982753],[135.422287,35.002441],[135.429153,35.006378]]],[[[135.43602,35.008628],[135.440826,35.007503],[135.4422,35.005816],[135.447693,35.005253],[135.451813,35.002441],[135.452499,34.999629],[135.451126,34.995691],[135.44838,34.994566],[135.449066,34.990066],[135.443573,34.985003],[135.443573,34.97994],[135.437393,34.978252],[135.436707,34.97994],[135.43396,34.980502],[135.431213,34.98219],[135.433273,34.984441],[135.4319,34.987253],[135.432587,34.990629],[135.42984,34.994004],[135.429153,34.996254],[135.42778,34.997379],[135.42778,34.998504],[135.427094,35.000191],[135.429153,35.006378],[135.43602,35.008628]]]]}},{"type":"Feature","properties":{"layer_id":"bakumatsu_villages","name":"山内村","address":"摂津 能勢郡","source":"Geoshape 幕末期近世村領域データセット vector tiles (z7 extraction)","subarea_name":"近世村のおおよその範囲","feature_key":"village:K35G07S00014","accuracy_note":"2015年農業集落境界をもとに復元した概略範囲で、江戸時代の正確な村境ではありません"},"geometry":{"type":"Polygon","coordinates":[[[135.449066,34.990629],[135.454559,34.980502],[135.453186,34.978252],[135.453186,34.973188],[135.441513,34.974314],[135.439453,34.970375],[135.434647,34.972063],[135.432587,34.970938],[135.433273,34.974314],[135.437393,34.978252],[135.443573,34.97994],[135.443573,34.985003],[135.449066,34.990629]]]}},{"type":"Feature","properties":{"layer_id":"bakumatsu_villages","name":"山田村","address":"摂津 能勢郡","source":"Geoshape 幕末期近世村領域データセット vector tiles (z7 extraction)","subarea_name":"近世村のおおよその範囲","feature_key":"village:K35G07S00010","accuracy_note":"2015年農業集落境界をもとに復元した概略範囲で、江戸時代の正確な村境ではありません"},"geometry":{"type":"Polygon","coordinates":[[[135.351562,35.005816],[135.353622,35.003566],[135.363922,35.001316],[135.372162,34.992879],[135.374908,34.990629],[135.374908,34.987816],[135.381088,34.97994],[135.385895,34.977689],[135.387955,34.976002],[135.388641,34.972626],[135.387268,34.970375],[135.379028,34.974314],[135.373535,34.973751],[135.371475,34.975439],[135.361862,34.977689],[135.359802,34.980502],[135.359116,34.983878],[135.355682,34.986128],[135.352249,34.990629],[135.353622,34.992316],[135.352249,34.994004],[135.352936,35.001316],[135.350876,35.004128],[135.351562,35.005816]]]}},{"type":"Feature","properties":{"layer_id":"bakumatsu_villages","name":"山辺村","address":"摂津 能勢郡","source":"Geoshape 幕末期近世村領域データセット vector tiles (z7 extraction)","subarea_name":"近世村のおおよその範囲","feature_key":"village:K35G07S00011","accuracy_note":"2015年農業集落境界をもとに復元した概略範囲で、江戸時代の正確な村境ではありません"},"geometry":{"type":"MultiPolygon","coordinates":[[[[135.372849,35.024374],[135.379028,35.023811],[135.379715,35.022687],[135.377655,35.021],[135.377655,35.018188],[135.380402,35.015376],[135.381088,35.010315],[135.388641,35.01144],[135.393448,35.00919],[135.396881,35.010877],[135.398941,35.008628],[135.403061,35.00694],[135.404434,35.001316],[135.400314,34.997379],[135.398941,34.992879],[135.396881,34.992316],[135.394135,34.988378],[135.390015,34.985003],[135.390701,34.98219],[135.394821,34.978252],[135.394135,34.976002],[135.389328,34.977127],[135.387955,34.974876],[135.385895,34.977689],[135.381088,34.97994],[135.374908,34.987816],[135.374908,34.990629],[135.372162,34.992879],[135.364609,35.001316],[135.353622,35.004128],[135.351562,35.005816],[135.354309,35.00694],[135.352936,35.012002],[135.354996,35.014252],[135.354996,35.020437],[135.359116,35.021],[135.361862,35.023249],[135.372849,35.024374]]],[[[135.404434,35.001316],[135.408554,34.999066],[135.412674,34.993441],[135.408554,34.98219],[135.405121,34.980502],[135.404434,34.975439],[135.403748,34.974314],[135.396881,34.972063],[135.392761,34.972063],[135.394821,34.977689],[135.390701,34.98219],[135.390015,34.985003],[135.394135,34.988378],[135.396881,34.992316],[135.398941,34.992879],[135.400314,34.997379],[135.404434,35.001316]]]]}},{"type":"Feature","properties":{"layer_id":"bakumatsu_villages","name":"平通村","address":"摂津 能勢郡","source":"Geoshape 幕末期近世村領域データセット vector tiles (z7 extraction)","subarea_name":"近世村のおおよその範囲","feature_key":"village:K35G07S00037","accuracy_note":"2015年農業集落境界をもとに復元した概略範囲で、江戸時代の正確な村境ではありません"},"geometry":{"type":"Polygon","coordinates":[[[135.420914,34.960246],[135.422287,34.958558],[135.420227,34.954619],[135.416794,34.942237],[135.415421,34.941111],[135.409927,34.939985],[135.409241,34.941674],[135.411987,34.942799],[135.407867,34.950116],[135.410614,34.951242],[135.410614,34.956307],[135.411301,34.957995],[135.410614,34.959121],[135.416107,34.959121],[135.420914,34.960246]]]}},{"type":"Feature","properties":{"layer_id":"bakumatsu_villages","name":"平野村","address":"摂津 能勢郡","source":"Geoshape 幕末期近世村領域データセット vector tiles (z7 extraction)","subarea_name":"近世村のおおよその範囲","feature_key":"village:K35G07S00001","accuracy_note":"2015年農業集落境界をもとに復元した概略範囲で、江戸時代の正確な村境ではありません"},"geometry":{"type":"Polygon","coordinates":[[[135.398254,34.960809],[135.403061,34.955181],[135.400314,34.948991],[135.397568,34.950116],[135.395508,34.950679],[135.391388,34.955181],[135.385208,34.959684],[135.385895,34.960246],[135.391388,34.960246],[135.393448,34.959121],[135.398254,34.960809]]]}},{"type":"Feature","properties":{"layer_id":"bakumatsu_villages","name":"杉原村","address":"摂津 能勢郡","source":"Geoshape 幕末期近世村領域データセット vector tiles (z7 extraction)","subarea_name":"近世村のおおよその範囲","feature_key":"village:K35G07S00030","accuracy_note":"2015年農業集落境界をもとに復元した概略範囲で、江戸時代の正確な村境ではありません"},"geometry":{"type":"Polygon","coordinates":[[[135.482712,34.981628],[135.484085,34.978815],[135.486832,34.976002],[135.486145,34.973751],[135.488205,34.967562],[135.490265,34.968124],[135.486145,34.964185],[135.485458,34.964185],[135.486832,34.966999],[135.483398,34.964748],[135.482025,34.965311],[135.481339,34.963623],[135.478592,34.964748],[135.475845,34.968124],[135.482025,34.970375],[135.482712,34.9715],[135.480652,34.975439],[135.480652,34.979377],[135.477905,34.981065],[135.482712,34.981628]]]}},{"type":"Feature","properties":{"layer_id":"bakumatsu_villages","name":"柏原村","address":"摂津 能勢郡","source":"Geoshape 幕末期近世村領域データセット vector tiles (z7 extraction)","subarea_name":"近世村のおおよその範囲","feature_key":"village:K35G07S00035","accuracy_note":"2015年農業集落境界をもとに復元した概略範囲で、江戸時代の正確な村境ではありません"},"geometry":{"type":"Polygon","coordinates":[[[135.420227,34.972063],[135.422974,34.970375],[135.42366,34.968687],[135.422974,34.962497],[135.4216,34.960809],[135.416107,34.959121],[135.410614,34.959121],[135.409241,34.965311],[135.410614,34.965874],[135.409927,34.966999],[135.418167,34.967562],[135.41954,34.970938],[135.420227,34.972063]]]}},{"type":"Feature","properties":{"layer_id":"bakumatsu_villages","name":"栗柄村","address":"摂津 能勢郡","source":"Geoshape 幕末期近世村領域データセット vector tiles (z7 extraction)","subarea_name":"近世村のおおよその範囲","feature_key":"village:K35G07S00012","accuracy_note":"2015年農業集落境界をもとに復元した概略範囲で、江戸時代の正確な村境ではありません"},"geometry":{"type":"Polygon","coordinates":[[[135.403748,34.974314],[135.404434,34.9715],[135.405807,34.9715],[135.407181,34.969812],[135.407181,34.965874],[135.402374,34.960246],[135.400314,34.965311],[135.397568,34.968124],[135.398941,34.972626],[135.403748,34.974314]]]}},{"type":"Feature","properties":{"layer_id":"bakumatsu_villages","name":"森上村","address":"摂津 能勢郡","source":"Geoshape 幕末期近世村領域データセット vector tiles (z7 extraction)","subarea_name":"近世村のおおよその範囲","feature_key":"village:K35G07S00004","accuracy_note":"2015年農業集落境界をもとに復元した概略範囲で、江戸時代の正確な村境ではありません"},"geometry":{"type":"Polygon","coordinates":[[[135.398941,34.972626],[135.397568,34.968124],[135.400314,34.965311],[135.402374,34.960246],[135.402374,34.958558],[135.401001,34.957433],[135.398941,34.960809],[135.396881,34.960809],[135.396194,34.964185],[135.393448,34.965874],[135.392761,34.967562],[135.393448,34.972063],[135.398941,34.972626]]]}},{"type":"Feature","properties":{"layer_id":"bakumatsu_villages","name":"片山村","address":"摂津 能勢郡","source":"Geoshape 幕末期近世村領域データセット vector tiles (z7 extraction)","subarea_name":"近世村のおおよその範囲","feature_key":"village:K35G07S00036","accuracy_note":"2015年農業集落境界をもとに復元した概略範囲で、江戸時代の正確な村境ではありません"},"geometry":{"type":"Polygon","coordinates":[[[135.408554,34.966436],[135.409241,34.965311],[135.409927,34.960809],[135.411301,34.957995],[135.410614,34.955744],[135.403061,34.955181],[135.401001,34.95687],[135.402374,34.958558],[135.402374,34.960246],[135.407181,34.965874],[135.408554,34.966436]]]}},{"type":"Feature","properties":{"layer_id":"bakumatsu_villages","name":"神山村","address":"摂津 能勢郡","source":"Geoshape 幕末期近世村領域データセット vector tiles (z7 extraction)","subarea_name":"近世村のおおよその範囲","feature_key":"village:K35G07S00006","accuracy_note":"2015年農業集落境界をもとに復元した概略範囲で、江戸時代の正確な村境ではありません"},"geometry":{"type":"Polygon","coordinates":[[[135.383835,34.968124],[135.389328,34.966999],[135.387955,34.963623],[135.385208,34.960246],[135.382462,34.955181],[135.381775,34.956307],[135.377655,34.955744],[135.375595,34.95687],[135.379028,34.963623],[135.378342,34.965311],[135.383835,34.968124]]]}},{"type":"Feature","properties":{"layer_id":"bakumatsu_villages","name":"稲地村","address":"摂津 能勢郡","source":"Geoshape 幕末期近世村領域データセット vector tiles (z7 extraction)","subarea_name":"近世村のおおよその範囲","feature_key":"village:K35G07S00002","accuracy_note":"2015年農業集落境界をもとに復元した概略範囲で、江戸時代の正確な村境ではありません"},"geometry":{"type":"Polygon","coordinates":[[[135.392761,34.967562],[135.393448,34.965874],[135.396194,34.964185],[135.396881,34.960809],[135.395508,34.959684],[135.393448,34.959121],[135.391388,34.960246],[135.387268,34.960246],[135.385208,34.959684],[135.387955,34.963623],[135.389328,34.966999],[135.392761,34.967562]]]}},{"type":"Feature","properties":{"layer_id":"bakumatsu_villages","name":"野間村内・中村","address":"摂津 能勢郡","source":"Geoshape 幕末期近世村領域データセット vector tiles (z7 extraction)","subarea_name":"近世村のおおよその範囲","feature_key":"village:K35G07S00015","accuracy_note":"2015年農業集落境界をもとに復元した概略範囲で、江戸時代の正確な村境ではありません"},"geometry":{"type":"Polygon","coordinates":[[[135.464172,34.948428],[135.464172,34.945051],[135.471039,34.941111],[135.475159,34.940548],[135.478592,34.942237],[135.476532,34.939422],[135.476532,34.935482],[135.474472,34.932667],[135.474472,34.930979],[135.473785,34.930416],[135.471039,34.92929],[135.466919,34.929853],[135.460739,34.926475],[135.456619,34.92929],[135.451813,34.930416],[135.455933,34.948428],[135.464172,34.948428]]]}},{"type":"Feature","properties":{"layer_id":"bakumatsu_villages","name":"野間村内・出野村","address":"摂津 能勢郡","source":"Geoshape 幕末期近世村領域データセット vector tiles (z7 extraction)","subarea_name":"近世村のおおよその範囲","feature_key":"village:K35G07S00017","accuracy_note":"2015年農業集落境界をもとに復元した概略範囲で、江戸時代の正確な村境ではありません"},"geometry":{"type":"MultiPolygon","coordinates":[[[[135.436707,34.956307],[135.439453,34.95293],[135.443573,34.951805],[135.450439,34.948428],[135.447693,34.946739],[135.447693,34.942237],[135.44426,34.937171],[135.441513,34.939422],[135.43808,34.937171],[135.434647,34.938859],[135.42778,34.936608],[135.42778,34.937171],[135.42984,34.938859],[135.42984,34.940548],[135.4319,34.941111],[135.434647,34.944488],[135.439453,34.944488],[135.4422,34.946739],[135.436707,34.947865],[135.434647,34.950116],[135.4319,34.950116],[135.431213,34.951242],[135.436707,34.956307]]],[[[135.434647,34.950116],[135.436707,34.947865],[135.4422,34.946739],[135.439453,34.944488],[135.434647,34.944488],[135.4319,34.941111],[135.42984,34.940548],[135.42984,34.938859],[135.42778,34.937171],[135.428467,34.941111],[135.433273,34.947302],[135.4319,34.950116],[135.434647,34.950116]]]]}},{"type":"Feature","properties":{"layer_id":"bakumatsu_villages","name":"野間村内・大原村","address":"摂津 能勢郡","source":"Geoshape 幕末期近世村領域データセット vector tiles (z7 extraction)","subarea_name":"近世村のおおよその範囲","feature_key":"village:K35G07S00019","accuracy_note":"2015年農業集落境界をもとに復元した概略範囲で、江戸時代の正確な村境ではありません"},"geometry":{"type":"Polygon","coordinates":[[[135.482025,34.952368],[135.480652,34.950679],[135.484772,34.946739],[135.482025,34.945614],[135.479279,34.945051],[135.477905,34.943362],[135.478592,34.942237],[135.475159,34.940548],[135.470352,34.941674],[135.464172,34.945051],[135.464172,34.947865],[135.469666,34.950679],[135.482025,34.952368]]]}},{"type":"Feature","properties":{"layer_id":"bakumatsu_villages","name":"野間村内・稲地村","address":"摂津 能勢郡","source":"Geoshape 幕末期近世村領域データセット vector tiles (z7 extraction)","subarea_name":"近世村のおおよその範囲","feature_key":"village:K35G07S00016","accuracy_note":"2015年農業集落境界をもとに復元した概略範囲で、江戸時代の正確な村境ではありません"},"geometry":{"type":"Polygon","coordinates":[[[135.453186,34.950116],[135.456619,34.948991],[135.455933,34.948428],[135.455246,34.940548],[135.453186,34.937734],[135.453186,34.93323],[135.451813,34.931542],[135.449066,34.934919],[135.447006,34.934919],[135.44426,34.937171],[135.447693,34.942237],[135.447693,34.947302],[135.453186,34.950116]]]}},{"type":"Feature","properties":{"layer_id":"bakumatsu_villages","name":"野間村内・西山村","address":"摂津 能勢郡","source":"Geoshape 幕末期近世村領域データセット vector tiles (z7 extraction)","subarea_name":"近世村のおおよその範囲","feature_key":"village:K35G07S00018","accuracy_note":"2015年農業集落境界をもとに復元した概略範囲で、江戸時代の正確な村境ではありません"},"geometry":{"type":"Polygon","coordinates":[[[135.44632,34.961935],[135.450439,34.961372],[135.450439,34.952368],[135.451126,34.950679],[135.453186,34.950116],[135.450439,34.948428],[135.443573,34.951805],[135.439453,34.95293],[135.436707,34.956307],[135.44426,34.958558],[135.44632,34.961935]]]}},{"type":"Feature","properties":{"layer_id":"bakumatsu_villages","name":"長谷村","address":"摂津 能勢郡","source":"Geoshape 幕末期近世村領域データセット vector tiles (z7 extraction)","subarea_name":"近世村のおおよその範囲","feature_key":"village:K35G07S00007","accuracy_note":"2015年農業集落境界をもとに復元した概略範囲で、江戸時代の正確な村境ではありません"},"geometry":{"type":"Polygon","coordinates":[[[135.358429,34.98219],[135.362549,34.977127],[135.370102,34.975439],[135.373535,34.973751],[135.374222,34.972063],[135.377655,34.968687],[135.379028,34.963623],[135.375595,34.956307],[135.372849,34.953493],[135.367355,34.956307],[135.363922,34.956307],[135.359802,34.954619],[135.357742,34.956307],[135.357742,34.957995],[135.353622,34.96306],[135.350189,34.963623],[135.348816,34.965311],[135.346069,34.964748],[135.344696,34.967562],[135.348129,34.972063],[135.348129,34.976002],[135.350189,34.980502],[135.352249,34.97994],[135.358429,34.98219]]]}},{"type":"Feature","properties":{"layer_id":"historical_sites_archaeology","name":"中筋遺跡","address":"大阪府 豊能郡能勢町 山辺","source":"Geoshape 日本歴史地名大系 施設・地点項目データセット 2025-05-15","subarea_name":"遺跡","feature_key":"08_archaeological_sites.geojson:280000094500","subtype":"遺跡"},"geometry":{"type":"Point","coordinates":[135.38864,35.000491]}},{"type":"Feature","properties":{"layer_id":"historical_sites_archaeology","name":"丸山城跡","address":"大阪府 豊能郡能勢町 地黄","source":"Geoshape 日本歴史地名大系 施設・地点項目データセット 2025-05-15","subarea_name":"城跡","feature_key":"05_castle_ruins.geojson:280000090100","subtype":"城跡"},"geometry":{"type":"Point","coordinates":[135.458938,34.959697]}},{"type":"Feature","properties":{"layer_id":"historical_sites_archaeology","name":"地黄北山遺跡","address":"大阪府 豊能郡能勢町 地黄","source":"Geoshape 日本歴史地名大系 施設・地点項目データセット 2025-05-15","subarea_name":"遺跡","feature_key":"08_archaeological_sites.geojson:280000090400","subtype":"遺跡"},"geometry":{"type":"Point","coordinates":[135.463933,34.955596]}},{"type":"Feature","properties":{"layer_id":"historical_sites_archaeology","name":"地黄陣屋跡","address":"大阪府 豊能郡能勢町 地黄","source":"Geoshape 日本歴史地名大系 施設・地点項目データセット 2025-05-15","subarea_name":"史跡","feature_key":"09_historic_sites.geojson:280000090200","subtype":"史跡"},"geometry":{"type":"Point","coordinates":[135.461833,34.957317]}},{"type":"Feature","properties":{"layer_id":"historical_sites_archaeology","name":"塩山古墳群","address":"大阪府 豊能郡能勢町 片山","source":"Geoshape 日本歴史地名大系 施設・地点項目データセット 2025-05-15","subarea_name":"古墳","feature_key":"06_kofun.geojson:280000092500","subtype":"古墳"},"geometry":{"type":"Point","coordinates":[135.4051,34.961619]}},{"type":"Feature","properties":{"layer_id":"historical_sites_archaeology","name":"大貝谷古墳群","address":"大阪府 豊能郡能勢町 倉垣","source":"Geoshape 日本歴史地名大系 施設・地点項目データセット 2025-05-15","subarea_name":"古墳","feature_key":"06_kofun.geojson:280000091000","subtype":"古墳"},"geometry":{"type":"Point","coordinates":[135.463933,34.973326]}},{"type":"Feature","properties":{"layer_id":"historical_sites_archaeology","name":"山辺城跡","address":"大阪府 豊能郡能勢町 山辺","source":"Geoshape 日本歴史地名大系 施設・地点項目データセット 2025-05-15","subarea_name":"城跡","feature_key":"05_castle_ruins.geojson:280000094400","subtype":"城跡"},"geometry":{"type":"Point","coordinates":[135.404694,34.980667]}},{"type":"Feature","properties":{"layer_id":"historical_sites_archaeology","name":"岐尼遺跡","address":"大阪府 豊能郡能勢町 今西","source":"Geoshape 日本歴史地名大系 施設・地点項目データセット 2025-05-15","subarea_name":"遺跡","feature_key":"08_archaeological_sites.geojson:280000093500","subtype":"遺跡"},"geometry":{"type":"Point","coordinates":[135.391028,34.970361]}},{"type":"Feature","properties":{"layer_id":"historical_sites_archaeology","name":"岩坪古墳","address":"大阪府 豊能郡能勢町 神山","source":"Geoshape 日本歴史地名大系 施設・地点項目データセット 2025-05-15","subarea_name":"古墳","feature_key":"06_kofun.geojson:280000093700","subtype":"古墳"},"geometry":{"type":"Point","coordinates":[135.384089,34.964149]}},{"type":"Feature","properties":{"layer_id":"historical_sites_archaeology","name":"狐塚古墳","address":"大阪府 豊能郡能勢町 森上","source":"Geoshape 日本歴史地名大系 施設・地点項目データセット 2025-05-15","subarea_name":"古墳","feature_key":"06_kofun.geojson:280000093200","subtype":"古墳"},"geometry":{"type":"Point","coordinates":[135.396869,34.969987]}},{"type":"Feature","properties":{"layer_id":"historical_sites_archaeology","name":"野間中古墳群","address":"大阪府 豊能郡能勢町 野間中","source":"Geoshape 日本歴史地名大系 施設・地点項目データセット 2025-05-15","subarea_name":"古墳","feature_key":"06_kofun.geojson:280000089200","subtype":"古墳"},"geometry":{"type":"Point","coordinates":[135.457199,34.947223]}},{"type":"Feature","properties":{"layer_id":"historical_temples_shrines","name":"久佐々神社","address":"大阪府 豊能郡能勢町 宿野274番地","source":"Geoshape 日本歴史地名大系 施設・地点項目データセット 2025-05-15","subarea_name":"神社","feature_key":"02_shrines.geojson:280000091700","subtype":"神社"},"geometry":{"type":"Point","coordinates":[135.417999,34.980942]}},{"type":"Feature","properties":{"layer_id":"historical_temples_shrines","name":"今養寺","address":"大阪府 豊能郡能勢町 野間西山312番地","source":"Geoshape 日本歴史地名大系 施設・地点項目データセット 2025-05-15","subarea_name":"寺院","feature_key":"01_temples.geojson:280000089700","subtype":"寺院"},"geometry":{"type":"Point","coordinates":[135.448029,34.953121]}},{"type":"Feature","properties":{"layer_id":"historical_temples_shrines","name":"報恩寺","address":"大阪府 豊能郡能勢町 地黄1175番地","source":"Geoshape 日本歴史地名大系 施設・地点項目データセット 2025-05-15","subarea_name":"寺院","feature_key":"01_temples.geojson:280000065300","subtype":"寺院"},"geometry":{"type":"Point","coordinates":[135.461884,34.963074]}},{"type":"Feature","properties":{"layer_id":"historical_temples_shrines","name":"大里廃寺跡","address":"大阪府 豊能郡能勢町 大里","source":"Geoshape 日本歴史地名大系 施設・地点項目データセット 2025-05-15","subarea_name":"廃寺・廃社","feature_key":"03_abandoned_temples_shrines.geojson:280000092000","subtype":"廃寺・廃社"},"geometry":{"type":"Point","coordinates":[135.411059,34.9678]}},{"type":"Feature","properties":{"layer_id":"historical_temples_shrines","name":"岐尼神社","address":"大阪府 豊能郡能勢町 森上103番地","source":"Geoshape 日本歴史地名大系 施設・地点項目データセット 2025-05-15","subarea_name":"神社","feature_key":"02_shrines.geojson:280000093100","subtype":"神社"},"geometry":{"type":"Point","coordinates":[135.394211,34.967506]}},{"type":"Feature","properties":{"layer_id":"historical_temples_shrines","name":"月峯寺","address":"大阪府 豊能郡能勢町 大里555番地","source":"Geoshape 日本歴史地名大系 施設・地点項目データセット 2025-05-15","subarea_name":"寺院","feature_key":"01_temples.geojson:280000091900","subtype":"寺院"},"geometry":{"type":"Point","coordinates":[135.407196,34.975956]}},{"type":"Feature","properties":{"layer_id":"historical_temples_shrines","name":"清普寺","address":"大阪府 豊能郡能勢町 地黄815番地","source":"Geoshape 日本歴史地名大系 施設・地点項目データセット 2025-05-15","subarea_name":"寺院","feature_key":"01_temples.geojson:280000090300","subtype":"寺院"},"geometry":{"type":"Point","coordinates":[135.453201,34.957569]}},{"type":"Feature","properties":{"layer_id":"historical_temples_shrines","name":"真如寺","address":"大阪府 豊能郡能勢町 地黄606番地","source":"Geoshape 日本歴史地名大系 施設・地点項目データセット 2025-05-15","subarea_name":"寺院","feature_key":"01_temples.geojson:280000090500","subtype":"寺院"},"geometry":{"type":"Point","coordinates":[135.466019,34.963032]}},{"type":"Feature","properties":{"layer_id":"historical_temples_shrines","name":"能勢妙見堂","address":"大阪府 豊能郡能勢町 野間中","source":"Geoshape 日本歴史地名大系 施設・地点項目データセット 2025-05-15","subarea_name":"寺院","feature_key":"01_temples.geojson:280000089300","subtype":"寺院"},"geometry":{"type":"Point","coordinates":[135.466478,34.92897]}},{"type":"Feature","properties":{"layer_id":"historical_temples_shrines","name":"野間神社","address":"大阪府 豊能郡能勢町 地黄399番地","source":"Geoshape 日本歴史地名大系 施設・地点項目データセット 2025-05-15","subarea_name":"神社","feature_key":"02_shrines.geojson:280000090000","subtype":"神社"},"geometry":{"type":"Point","coordinates":[135.456833,34.953186]}}]}