{"type":"FeatureCollection","municipality_code":"28109","pref":"兵庫県","city":"神戸市北区","layer_counts":{"bakumatsu_villages":60,"civil_engineering_heritage":1,"historical_sites_archaeology":7,"historical_temples_shrines":12},"total_features":80,"features":[{"type":"Feature","properties":{"layer_id":"bakumatsu_villages","name":"上大沢村","address":"摂津 有馬郡","source":"Geoshape 幕末期近世村領域データセット vector tiles (z7 extraction)","subarea_name":"近世村のおおよその範囲","feature_key":"village:K35G12S00057","accuracy_note":"2015年農業集落境界をもとに復元した概略範囲で、江戸時代の正確な村境ではありません"},"geometry":{"type":"MultiPolygon","coordinates":[[[[135.189514,34.860017],[135.189514,34.856637],[135.192947,34.851002],[135.194321,34.845367],[135.190887,34.845367],[135.190887,34.844803],[135.188141,34.84424],[135.188141,34.848748],[135.185394,34.849875],[135.181274,34.84593],[135.179214,34.846494],[135.181274,34.849312],[135.178528,34.851002],[135.179901,34.852692],[135.177155,34.856073],[135.177841,34.858327],[135.181961,34.863398],[135.185394,34.863961],[135.187454,34.860581],[135.189514,34.861708],[135.190201,34.860581],[135.189514,34.860017]]],[[[135.178528,34.851002],[135.181274,34.849312],[135.179214,34.846494],[135.181274,34.84593],[135.185394,34.849875],[135.187454,34.849312],[135.188141,34.84424],[135.179901,34.842549],[135.176468,34.839168],[135.173035,34.838604],[135.173035,34.836914],[135.170288,34.838041],[135.167542,34.834659],[135.167542,34.83635],[135.164795,34.83635],[135.166168,34.839168],[135.164795,34.844803],[135.167542,34.851002],[135.168228,34.850439],[135.171661,34.851002],[135.175095,34.849312],[135.178528,34.851002]]]]}},{"type":"Feature","properties":{"layer_id":"bakumatsu_villages","name":"上宅原村","address":"摂津 有馬郡","source":"Geoshape 幕末期近世村領域データセット vector tiles (z7 extraction)","subarea_name":"近世村のおおよその範囲","feature_key":"village:K35G12S00049","accuracy_note":"2015年農業集落境界をもとに復元した概略範囲で、江戸時代の正確な村境ではありません"},"geometry":{"type":"MultiPolygon","coordinates":[[[[135.211487,34.878608],[135.21492,34.875228],[135.218353,34.875792],[135.21904,34.874102],[135.212173,34.874102],[135.213547,34.871848],[135.20874,34.871848],[135.207367,34.870722],[135.20256,34.872412],[135.201187,34.876355],[135.205994,34.878045],[135.207367,34.877482],[135.209427,34.878608],[135.211487,34.878608]]],[[[135.203934,34.871848],[135.207367,34.870722],[135.20874,34.871285],[135.20874,34.866778],[135.208054,34.863961],[135.203934,34.860017],[135.203247,34.8572],[135.201187,34.85551],[135.199127,34.854946],[135.198441,34.856637],[135.199814,34.861144],[135.198441,34.863961],[135.2005,34.865088],[135.203934,34.871848]]],[[[135.217667,34.874102],[135.217667,34.872975],[135.213547,34.871285],[135.209427,34.854383],[135.208054,34.851002],[135.20462,34.850439],[135.203247,34.848185],[135.201187,34.847057],[135.199814,34.848185],[135.198441,34.854383],[135.201187,34.85551],[135.205307,34.861708],[135.208054,34.863961],[135.20874,34.871848],[135.213547,34.871848],[135.212173,34.874102],[135.217667,34.874102]]]]}},{"type":"Feature","properties":{"layer_id":"bakumatsu_villages","name":"上小名田村","address":"摂津 有馬郡","source":"Geoshape 幕末期近世村領域データセット vector tiles (z7 extraction)","subarea_name":"近世村のおおよその範囲","feature_key":"village:K35G12S00063","accuracy_note":"2015年農業集落境界をもとに復元した概略範囲で、江戸時代の正確な村境ではありません"},"geometry":{"type":"Polygon","coordinates":[[[135.2005,34.847057],[135.201874,34.843676],[135.20256,34.84424],[135.20462,34.842549],[135.205994,34.843676],[135.210114,34.840295],[135.208054,34.835786],[135.20668,34.835786],[135.205994,34.837477],[135.20462,34.837477],[135.199127,34.829023],[135.196381,34.826205],[135.192261,34.824514],[135.191574,34.826205],[135.188828,34.827332],[135.189514,34.827896],[135.188141,34.829587],[135.188828,34.83015],[135.186768,34.830714],[135.189514,34.835223],[135.188828,34.835786],[135.187454,34.840295],[135.190887,34.845367],[135.197754,34.845367],[135.2005,34.847057]]]}},{"type":"Feature","properties":{"layer_id":"bakumatsu_villages","name":"上津上村","address":"摂津 有馬郡","source":"Geoshape 幕末期近世村領域データセット vector tiles (z7 extraction)","subarea_name":"近世村のおおよその範囲","feature_key":"village:K35G12S00051","accuracy_note":"2015年農業集落境界をもとに復元した概略範囲で、江戸時代の正確な村境ではありません"},"geometry":{"type":"Polygon","coordinates":[[[135.181961,34.888747],[135.185394,34.887621],[135.185394,34.884804],[135.188141,34.884804],[135.191574,34.880862],[135.193634,34.881425],[135.195694,34.879735],[135.197067,34.879735],[135.197754,34.876355],[135.195007,34.874102],[135.193634,34.869595],[135.190201,34.869595],[135.188828,34.866778],[135.185394,34.867905],[135.184708,34.865651],[135.181274,34.866215],[135.178528,34.865088],[135.177155,34.867342],[135.175781,34.867342],[135.176468,34.869595],[135.181961,34.870722],[135.183334,34.873539],[135.183334,34.874102],[135.182648,34.874102],[135.178528,34.872412],[135.175781,34.876355],[135.178528,34.875228],[135.181274,34.879735],[135.180588,34.881988],[135.181961,34.884241],[135.179214,34.888184],[135.181961,34.888747]]]}},{"type":"Feature","properties":{"layer_id":"bakumatsu_villages","name":"上津下村","address":"摂津 有馬郡","source":"Geoshape 幕末期近世村領域データセット vector tiles (z7 extraction)","subarea_name":"近世村のおおよその範囲","feature_key":"village:K35G12S00050","accuracy_note":"2015年農業集落境界をもとに復元した概略範囲で、江戸時代の正確な村境ではありません"},"geometry":{"type":"Polygon","coordinates":[[[135.189514,34.860017],[135.190201,34.860581],[135.189514,34.861708],[135.187454,34.860581],[135.184708,34.865088],[135.185394,34.867905],[135.188828,34.866778],[135.190201,34.869595],[135.193634,34.869595],[135.195007,34.874102],[135.197754,34.875792],[135.197754,34.877482],[135.201187,34.876355],[135.203934,34.871848],[135.2005,34.865088],[135.198441,34.863961],[135.199814,34.861144],[135.198441,34.856637],[135.199127,34.854946],[135.198441,34.854383],[135.2005,34.847057],[135.197754,34.845367],[135.194321,34.84593],[135.192947,34.851002],[135.189514,34.856637],[135.189514,34.860017]]]}},{"type":"Feature","properties":{"layer_id":"bakumatsu_villages","name":"上谷上村","address":"摂津 八部郡","source":"Geoshape 幕末期近世村領域データセット vector tiles (z7 extraction)","subarea_name":"近世村のおおよその範囲","feature_key":"village:K35G08S00001","accuracy_note":"2015年農業集落境界をもとに復元した概略範囲で、江戸時代の正確な村境ではありません"},"geometry":{"type":"Polygon","coordinates":[[[135.170288,34.761923],[135.170975,34.764179],[135.169601,34.764179],[135.170288,34.766999],[135.172348,34.76982],[135.176468,34.771512],[135.177841,34.776024],[135.175781,34.778844],[135.175095,34.782792],[135.171661,34.785611],[135.173721,34.790687],[135.175781,34.789559],[135.176468,34.790123],[135.179901,34.786175],[135.181274,34.787303],[135.183334,34.785047],[135.185394,34.779972],[135.187454,34.779408],[135.188141,34.780536],[135.194321,34.782792],[135.199127,34.781664],[135.199127,34.779972],[135.197754,34.777152],[135.198441,34.77546],[135.201187,34.77546],[135.205994,34.76982],[135.209427,34.768127],[135.21492,34.763615],[135.215607,34.759102],[135.21492,34.757974],[135.203247,34.756846],[135.199127,34.755153],[135.199127,34.754589],[135.194321,34.753461],[135.195007,34.752332],[135.192947,34.751768],[135.191574,34.749511],[135.184708,34.745562],[135.181961,34.741048],[135.174408,34.738791],[135.176468,34.740484],[135.175095,34.744998],[135.176468,34.748383],[135.178528,34.744998],[135.181274,34.743869],[135.181961,34.744998],[135.179214,34.746126],[135.180588,34.748383],[135.178528,34.747819],[135.177155,34.748947],[135.177841,34.75064],[135.181274,34.750076],[135.181961,34.750076],[135.179901,34.751768],[135.177841,34.751204],[135.177841,34.754025],[135.174408,34.756281],[135.174408,34.76023],[135.170288,34.761923]],[[135.181961,34.750076],[135.182648,34.749511],[135.181961,34.751768],[135.181961,34.750076]]]}},{"type":"Feature","properties":{"layer_id":"bakumatsu_villages","name":"下司切畑村","address":"摂津 有馬郡","source":"Geoshape 幕末期近世村領域データセット vector tiles (z7 extraction)","subarea_name":"近世村のおおよその範囲","feature_key":"village:K35G12S00078","accuracy_note":"2015年農業集落境界をもとに復元した概略範囲で、江戸時代の正確な村境ではありません"},"geometry":{"type":"MultiPolygon","coordinates":[[[[135.217667,34.812676],[135.215607,34.809857],[135.21904,34.809293],[135.2211,34.810421],[135.22316,34.806474],[135.225906,34.803091],[135.22316,34.800836],[135.2211,34.801964],[135.219727,34.799709],[135.217667,34.797453],[135.21286,34.796889],[135.20668,34.791814],[135.203934,34.800272],[135.207367,34.805911],[135.210114,34.805911],[135.210114,34.807038],[135.2108,34.807038],[135.210114,34.808729],[135.208054,34.808729],[135.208054,34.809857],[135.210114,34.812112],[135.214233,34.810421],[135.214233,34.811548],[135.215607,34.810985],[135.217667,34.812676]]],[[[135.224533,34.815495],[135.22522,34.809293],[135.230026,34.808729],[135.234146,34.807602],[135.234146,34.806474],[135.241013,34.805347],[135.240326,34.803091],[135.239639,34.801964],[135.236206,34.803655],[135.232086,34.802528],[135.225906,34.803091],[135.22316,34.806474],[135.2211,34.810421],[135.21904,34.809293],[135.215607,34.809857],[135.217667,34.81324],[135.220413,34.81324],[135.221786,34.814931],[135.224533,34.815495]]]]}},{"type":"Feature","properties":{"layer_id":"bakumatsu_villages","name":"下司堀越村","address":"摂津 有馬郡","source":"Geoshape 幕末期近世村領域データセット vector tiles (z7 extraction)","subarea_name":"近世村のおおよその範囲","feature_key":"village:K35G12S00076","accuracy_note":"2015年農業集落境界をもとに復元した概略範囲で、江戸時代の正確な村境ではありません"},"geometry":{"type":"Polygon","coordinates":[[[135.207367,34.809293],[135.208054,34.808729],[135.210114,34.808729],[135.2108,34.807038],[135.210114,34.807038],[135.210114,34.805911],[135.207367,34.805911],[135.203934,34.800272],[135.20668,34.791814],[135.203934,34.790123],[135.2005,34.791814],[135.199814,34.79125],[135.197754,34.795198],[135.192947,34.795762],[135.190887,34.798017],[135.186768,34.798581],[135.186768,34.8014],[135.192261,34.801964],[135.197067,34.800836],[135.199814,34.808166],[135.201187,34.807602],[135.207367,34.809293]]]}},{"type":"Feature","properties":{"layer_id":"bakumatsu_villages","name":"下司岡場村","address":"摂津 有馬郡","source":"Geoshape 幕末期近世村領域データセット vector tiles (z7 extraction)","subarea_name":"近世村のおおよその範囲","feature_key":"village:K35G12S00077","accuracy_note":"2015年農業集落境界をもとに復元した概略範囲で、江戸時代の正確な村境ではありません"},"geometry":{"type":"MultiPolygon","coordinates":[[[[135.21492,34.825077],[135.222473,34.822259],[135.222473,34.823386],[135.223846,34.822823],[135.224533,34.82395],[135.225906,34.82395],[135.22522,34.822823],[135.22522,34.821132],[135.223846,34.820004],[135.221786,34.821695],[135.220413,34.818877],[135.213547,34.817186],[135.20874,34.820004],[135.209427,34.820568],[135.212173,34.820568],[135.212173,34.822823],[135.21492,34.825077]]],[[[135.22728,34.82395],[135.232086,34.819441],[135.232773,34.817749],[135.227966,34.818877],[135.22522,34.818313],[135.22522,34.816058],[135.2211,34.815495],[135.223846,34.818313],[135.223846,34.820004],[135.22522,34.821132],[135.22522,34.822259],[135.225906,34.823386],[135.22728,34.82395]]]]}},{"type":"Feature","properties":{"layer_id":"bakumatsu_villages","name":"下宅原村","address":"摂津 有馬郡","source":"Geoshape 幕末期近世村領域データセット vector tiles (z7 extraction)","subarea_name":"近世村のおおよその範囲","feature_key":"village:K35G12S00048","accuracy_note":"2015年農業集落境界をもとに復元した概略範囲で、江戸時代の正確な村境ではありません"},"geometry":{"type":"Polygon","coordinates":[[[135.218353,34.875792],[135.225906,34.873539],[135.224533,34.870722],[135.225906,34.869032],[135.224533,34.862834],[135.22316,34.862834],[135.222473,34.859454],[135.219727,34.8572],[135.218353,34.854383],[135.215607,34.858327],[135.21286,34.85551],[135.210114,34.85551],[135.213547,34.871285],[135.217667,34.872975],[135.217667,34.874102],[135.21904,34.874102],[135.218353,34.875792]]]}},{"type":"Feature","properties":{"layer_id":"bakumatsu_villages","name":"下小名田村","address":"摂津 有馬郡","source":"Geoshape 幕末期近世村領域データセット vector tiles (z7 extraction)","subarea_name":"近世村のおおよその範囲","feature_key":"village:K35G12S00064","accuracy_note":"2015年農業集落境界をもとに復元した概略範囲で、江戸時代の正確な村境ではありません"},"geometry":{"type":"Polygon","coordinates":[[[135.214233,34.840295],[135.214233,34.839168],[135.21286,34.838041],[135.205994,34.843676],[135.20462,34.842549],[135.20256,34.84424],[135.201874,34.843676],[135.2005,34.847057],[135.203247,34.848185],[135.205994,34.847057],[135.207367,34.848185],[135.20874,34.847057],[135.210114,34.848185],[135.213547,34.84593],[135.21698,34.845367],[135.217667,34.843676],[135.216293,34.839731],[135.214233,34.841422],[135.214233,34.840295]]]}},{"type":"Feature","properties":{"layer_id":"bakumatsu_villages","name":"下谷上村","address":"摂津 八部郡","source":"Geoshape 幕末期近世村領域データセット vector tiles (z7 extraction)","subarea_name":"近世村のおおよその範囲","feature_key":"village:K35G08S00002","accuracy_note":"2015年農業集落境界をもとに復元した概略範囲で、江戸時代の正確な村境ではありません"},"geometry":{"type":"MultiPolygon","coordinates":[[[[135.170288,34.761923],[135.174408,34.76023],[135.174408,34.756281],[135.177841,34.754025],[135.177841,34.751204],[135.179901,34.751768],[135.181961,34.750076],[135.181274,34.750076],[135.177841,34.75064],[135.177155,34.748947],[135.178528,34.747819],[135.180588,34.748383],[135.179214,34.746126],[135.181961,34.744998],[135.181274,34.743869],[135.178528,34.744998],[135.176468,34.748383],[135.175095,34.744998],[135.176468,34.740484],[135.174408,34.738791],[135.181961,34.741048],[135.184708,34.745562],[135.191574,34.749511],[135.192947,34.751768],[135.195007,34.752332],[135.198441,34.747255],[135.195694,34.744998],[135.196381,34.743869],[135.195694,34.741612],[135.197754,34.73597],[135.197067,34.734841],[135.179901,34.720169],[135.168915,34.717911],[135.169601,34.715089],[135.166855,34.711138],[135.164795,34.711138],[135.161362,34.708316],[135.161362,34.710009],[135.159988,34.709445],[135.157928,34.715089],[135.159302,34.716782],[135.157928,34.717911],[135.159988,34.719604],[135.158615,34.719604],[135.158615,34.725248],[135.159988,34.725248],[135.161362,34.727505],[135.164108,34.727505],[135.164795,34.729198],[135.168915,34.730327],[135.169601,34.731456],[135.167542,34.732584],[135.168228,34.734277],[135.172348,34.736534],[135.171661,34.738791],[135.169601,34.741612],[135.166168,34.742177],[135.170288,34.744434],[135.169601,34.74669],[135.167542,34.747819],[135.168915,34.748383],[135.171661,34.747819],[135.173721,34.750076],[135.170975,34.75064],[135.171661,34.752896],[135.170288,34.754025],[135.170288,34.753461],[135.162048,34.755717],[135.162735,34.752896],[135.158615,34.752896],[135.155869,34.751204],[135.156555,34.748947],[135.160675,34.746126],[135.159302,34.744434],[135.161362,34.744998],[135.159988,34.742741],[135.158615,34.741048],[135.157928,34.742741],[135.152435,34.742741],[135.153122,34.74669],[135.154495,34.74669],[135.151749,34.748383],[135.154495,34.750076],[135.155182,34.752332],[135.149689,34.755153],[135.151062,34.756846],[135.152435,34.756281],[135.154495,34.758538],[135.153122,34.760794],[135.152435,34.76023],[135.152435,34.760794],[135.151062,34.761358],[135.151749,34.764179],[135.150375,34.764179],[135.149002,34.766999],[135.151749,34.769256],[135.154495,34.767563],[135.153122,34.764743],[135.157928,34.768691],[135.157928,34.770948],[135.159302,34.773204],[135.159302,34.774896],[135.161362,34.77546],[135.164795,34.773768],[135.166168,34.776588],[135.168915,34.776588],[135.171661,34.780536],[135.171661,34.7811],[135.165482,34.781664],[135.165482,34.784483],[135.166855,34.787303],[135.173035,34.789559],[135.171661,34.785611],[135.175095,34.782792],[135.175781,34.778844],[135.177841,34.776588],[135.176468,34.771512],[135.172348,34.76982],[135.170288,34.766999],[135.169601,34.764179],[135.170975,34.764179],[135.170288,34.761923]]],[[[135.157928,34.717911],[135.156555,34.717347],[135.156555,34.720169],[135.157928,34.717911]]],[[[135.181961,34.750076],[135.181961,34.751768],[135.182648,34.749511],[135.181961,34.750076]]]]}},{"type":"Feature","properties":{"layer_id":"bakumatsu_villages","name":"中大沢村","address":"摂津 有馬郡","source":"Geoshape 幕末期近世村領域データセット vector tiles (z7 extraction)","subarea_name":"近世村のおおよその範囲","feature_key":"village:K35G12S00056","accuracy_note":"2015年農業集落境界をもとに復元した概略範囲で、江戸時代の正確な村境ではありません"},"geometry":{"type":"Polygon","coordinates":[[[135.164108,34.860017],[135.164795,34.858327],[135.168915,34.856073],[135.171661,34.854946],[135.174408,34.85551],[135.177841,34.854946],[135.179901,34.852692],[135.178528,34.851002],[135.175095,34.849312],[135.171661,34.851002],[135.168228,34.850439],[135.167542,34.851002],[135.164795,34.844803],[135.166168,34.839168],[135.165482,34.83635],[135.162735,34.83635],[135.159988,34.836914],[135.155182,34.841422],[135.157928,34.851566],[135.157242,34.852692],[135.157242,34.8572],[135.157928,34.8572],[135.158615,34.856073],[135.159302,34.85889],[135.160675,34.858327],[135.164108,34.860017]]]}},{"type":"Feature","properties":{"layer_id":"bakumatsu_villages","name":"中山村","address":"播磨 美嚢郡","source":"Geoshape 幕末期近世村領域データセット vector tiles (z7 extraction)","subarea_name":"近世村のおおよその範囲","feature_key":"village:K37G01S00112","accuracy_note":"2015年農業集落境界をもとに復元した概略範囲で、江戸時代の正確な村境ではありません"},"geometry":{"type":"Polygon","coordinates":[[[135.142136,34.824514],[135.144196,34.822259],[135.142822,34.817749],[135.143509,34.812112],[135.144196,34.808729],[135.147629,34.806474],[135.147629,34.804783],[135.146942,34.804219],[135.144196,34.805911],[135.142822,34.805347],[135.143509,34.803655],[135.141449,34.803091],[135.142136,34.801964],[135.138016,34.800272],[135.133209,34.803655],[135.135269,34.805911],[135.135956,34.811548],[135.133209,34.814367],[135.133209,34.816622],[135.136642,34.821132],[135.142136,34.824514]]]}},{"type":"Feature","properties":{"layer_id":"bakumatsu_villages","name":"中村","address":"摂津 八部郡","source":"Geoshape 幕末期近世村領域データセット vector tiles (z7 extraction)","subarea_name":"近世村のおおよその範囲","feature_key":"village:K35G08S00005","accuracy_note":"2015年農業集落境界をもとに復元した概略範囲で、江戸時代の正確な村境ではありません"},"geometry":{"type":"MultiPolygon","coordinates":[[[[135.129776,34.770948],[135.129089,34.770948],[135.128403,34.770384],[135.128403,34.768127],[135.129776,34.767563],[135.130463,34.765871],[135.131836,34.766999],[135.134583,34.765871],[135.134583,34.765307],[135.135956,34.765307],[135.133896,34.764743],[135.133896,34.763051],[135.137329,34.760794],[135.134583,34.757974],[135.133209,34.758538],[135.133896,34.755717],[135.133209,34.75064],[135.133896,34.748947],[135.131149,34.74669],[135.126343,34.745562],[135.127029,34.748947],[135.124283,34.760794],[135.123596,34.761358],[135.123596,34.763051],[135.126343,34.764179],[135.125656,34.765307],[135.127029,34.765307],[135.127716,34.766435],[135.124969,34.766999],[135.125656,34.767563],[135.124283,34.768691],[135.127029,34.771512],[135.126343,34.774332],[135.128403,34.77828],[135.126343,34.779408],[135.124283,34.781664],[135.125656,34.785611],[135.124283,34.787303],[135.123596,34.795198],[135.126343,34.798017],[135.128403,34.796889],[135.127716,34.793506],[135.132523,34.790123],[135.132523,34.780536],[135.129089,34.777152],[135.131836,34.774332],[135.129776,34.770948]]],[[[135.129776,34.770948],[135.131149,34.770948],[135.131149,34.770384],[135.129776,34.770384],[135.129776,34.770948]]]]}},{"type":"Feature","properties":{"layer_id":"bakumatsu_villages","name":"中村","address":"摂津 有馬郡","source":"Geoshape 幕末期近世村領域データセット vector tiles (z7 extraction)","subarea_name":"近世村のおおよその範囲","feature_key":"village:K35G12S00065","accuracy_note":"2015年農業集落境界をもとに復元した概略範囲で、江戸時代の正確な村境ではありません"},"geometry":{"type":"Polygon","coordinates":[[[135.215607,34.858327],[135.218353,34.854383],[135.21904,34.856637],[135.2211,34.8572],[135.22316,34.850439],[135.220413,34.846494],[135.220413,34.843676],[135.21904,34.84424],[135.21698,34.841986],[135.217667,34.84424],[135.215607,34.84593],[135.21492,34.845367],[135.210114,34.848185],[135.20874,34.847057],[135.207367,34.848185],[135.20668,34.847057],[135.20462,34.847057],[135.203247,34.848185],[135.203934,34.849875],[135.208054,34.851002],[135.210114,34.85551],[135.21286,34.85551],[135.215607,34.858327]]]}},{"type":"Feature","properties":{"layer_id":"bakumatsu_villages","name":"中村","address":"播磨 美嚢郡","source":"Geoshape 幕末期近世村領域データセット vector tiles (z7 extraction)","subarea_name":"近世村のおおよその範囲","feature_key":"village:K37G01S00095","accuracy_note":"2015年農業集落境界をもとに復元した概略範囲で、江戸時代の正確な村境ではありません"},"geometry":{"type":"Polygon","coordinates":[[[135.09201,34.826205],[135.091324,34.822259],[135.09407,34.819441],[135.098877,34.819441],[135.096817,34.815495],[135.09201,34.815495],[135.089951,34.813803],[135.088577,34.815495],[135.086517,34.814367],[135.083771,34.814367],[135.081024,34.817186],[135.085144,34.822259],[135.084457,34.824514],[135.086517,34.826205],[135.09201,34.826205]]]}},{"type":"Feature","properties":{"layer_id":"bakumatsu_villages","name":"中村田尾寺村","address":"摂津 有馬郡","source":"Geoshape 幕末期近世村領域データセット vector tiles (z7 extraction)","subarea_name":"近世村のおおよその範囲","feature_key":"village:K35G12S00072","accuracy_note":"2015年農業集落境界をもとに復元した概略範囲で、江戸時代の正確な村境ではありません"},"geometry":{"type":"Polygon","coordinates":[[[135.225906,34.83635],[135.22522,34.833532],[135.225906,34.833532],[135.22728,34.835786],[135.227966,34.835786],[135.228653,34.83635],[135.2314,34.835223],[135.230713,34.832968],[135.224533,34.832968],[135.224533,34.831278],[135.219727,34.831841],[135.21904,34.833532],[135.21698,34.832968],[135.21698,34.834096],[135.22522,34.83635],[135.225906,34.83635]]]}},{"type":"Feature","properties":{"layer_id":"bakumatsu_villages","name":"中村結場村","address":"摂津 有馬郡","source":"Geoshape 幕末期近世村領域データセット vector tiles (z7 extraction)","subarea_name":"近世村のおおよその範囲","feature_key":"village:K35G12S00071","accuracy_note":"2015年農業集落境界をもとに復元した概略範囲で、江戸時代の正確な村境ではありません"},"geometry":{"type":"Polygon","coordinates":[[[135.21904,34.833532],[135.219727,34.831841],[135.224533,34.831278],[135.224533,34.832968],[135.230713,34.832968],[135.230713,34.829023],[135.22934,34.827896],[135.227966,34.829587],[135.221786,34.829023],[135.21904,34.829587],[135.21904,34.831841],[135.21698,34.832968],[135.21904,34.833532]]]}},{"type":"Feature","properties":{"layer_id":"bakumatsu_villages","name":"中村西尾村","address":"摂津 有馬郡","source":"Geoshape 幕末期近世村領域データセット vector tiles (z7 extraction)","subarea_name":"近世村のおおよその範囲","feature_key":"village:K35G12S00070","accuracy_note":"2015年農業集落境界をもとに復元した概略範囲で、江戸時代の正確な村境ではありません"},"geometry":{"type":"Polygon","coordinates":[[[135.221786,34.821695],[135.22316,34.821132],[135.223846,34.818877],[135.2211,34.815495],[135.22522,34.816058],[135.22522,34.818313],[135.227966,34.818877],[135.232773,34.817749],[135.232773,34.81324],[135.241013,34.808729],[135.241699,34.807038],[135.241013,34.805347],[135.234146,34.806474],[135.234146,34.807602],[135.230026,34.808729],[135.22522,34.809293],[135.224533,34.815495],[135.221786,34.814931],[135.220413,34.81324],[135.217667,34.81324],[135.215607,34.810985],[135.21492,34.811548],[135.214233,34.810421],[135.210114,34.812112],[135.207367,34.809857],[135.205307,34.810421],[135.205307,34.812112],[135.201874,34.812676],[135.201187,34.81324],[135.20256,34.817186],[135.20462,34.818877],[135.208054,34.816622],[135.209427,34.817749],[135.20874,34.820004],[135.214233,34.817186],[135.220413,34.819441],[135.221786,34.821695]]]}},{"type":"Feature","properties":{"layer_id":"bakumatsu_villages","name":"中村馬場村","address":"摂津 有馬郡","source":"Geoshape 幕末期近世村領域データセット vector tiles (z7 extraction)","subarea_name":"近世村のおおよその範囲","feature_key":"village:K35G12S00073","accuracy_note":"2015年農業集落境界をもとに復元した概略範囲で、江戸時代の正確な村境ではありません"},"geometry":{"type":"Polygon","coordinates":[[[135.21904,34.831278],[135.21904,34.829587],[135.221786,34.829023],[135.227966,34.829587],[135.22934,34.827896],[135.230713,34.829023],[135.22934,34.826768],[135.230026,34.822259],[135.22728,34.82395],[135.225906,34.823386],[135.224533,34.82395],[135.223846,34.822823],[135.222473,34.823386],[135.222473,34.822259],[135.21492,34.825077],[135.215607,34.828459],[135.21904,34.831278]]]}},{"type":"Feature","properties":{"layer_id":"bakumatsu_villages","name":"二郎村","address":"摂津 有馬郡","source":"Geoshape 幕末期近世村領域データセット vector tiles (z7 extraction)","subarea_name":"近世村のおおよその範囲","feature_key":"village:K35G12S00067","accuracy_note":"2015年農業集落境界をもとに復元した概略範囲で、江戸時代の正確な村境ではありません"},"geometry":{"type":"MultiPolygon","coordinates":[[[[135.214233,34.840295],[135.214233,34.841422],[135.216293,34.839731],[135.21904,34.84424],[135.220413,34.843676],[135.2211,34.842549],[135.221786,34.843676],[135.223846,34.843113],[135.22522,34.84424],[135.226593,34.841986],[135.22728,34.841986],[135.227966,34.840295],[135.22934,34.839731],[135.22934,34.83635],[135.22728,34.835786],[135.225906,34.833532],[135.22522,34.833532],[135.225906,34.83635],[135.21698,34.834096],[135.2108,34.833532],[135.209427,34.835786],[135.208054,34.835786],[135.209427,34.837477],[135.209427,34.839731],[135.210114,34.840295],[135.21286,34.838041],[135.214233,34.839168],[135.214233,34.840295]]],[[[135.22934,34.856073],[135.232086,34.853819],[135.232773,34.84593],[135.2314,34.845367],[135.230026,34.846494],[135.228653,34.84593],[135.225906,34.848185],[135.22522,34.847621],[135.225906,34.845367],[135.22522,34.84424],[135.223846,34.843113],[135.221786,34.843676],[135.220413,34.843113],[135.220413,34.846494],[135.222473,34.850439],[135.222473,34.853819],[135.22934,34.856073]]],[[[135.225906,34.848185],[135.228653,34.84593],[135.230026,34.846494],[135.2314,34.845367],[135.232773,34.845367],[135.232086,34.836914],[135.2314,34.835223],[135.22934,34.83635],[135.22934,34.839731],[135.227966,34.840295],[135.22728,34.841986],[135.226593,34.841986],[135.22522,34.84424],[135.225906,34.845367],[135.22522,34.847621],[135.225906,34.848185]]]]}},{"type":"Feature","properties":{"layer_id":"bakumatsu_villages","name":"付物村","address":"摂津 有馬郡","source":"Geoshape 幕末期近世村領域データセット vector tiles (z7 extraction)","subarea_name":"近世村のおおよその範囲","feature_key":"village:K35G12S00061","accuracy_note":"2015年農業集落境界をもとに復元した概略範囲で、江戸時代の正確な村境ではありません"},"geometry":{"type":"Polygon","coordinates":[[[135.188828,34.822259],[135.189514,34.824514],[135.192261,34.824514],[135.195694,34.825641],[135.199127,34.829023],[135.203247,34.827896],[135.20462,34.825641],[135.2005,34.820004],[135.2005,34.816622],[135.197754,34.816622],[135.194321,34.815495],[135.195694,34.810421],[135.195007,34.809857],[135.192261,34.805911],[135.191574,34.803655],[135.192261,34.801964],[135.188141,34.801964],[135.186081,34.800272],[135.186768,34.798581],[135.190887,34.798017],[135.192947,34.795762],[135.197754,34.795198],[135.197754,34.793506],[135.191574,34.792378],[135.191574,34.788995],[135.190201,34.784483],[135.187454,34.783919],[135.186081,34.782228],[135.186768,34.779408],[135.184708,34.780536],[135.183334,34.785047],[135.181274,34.787303],[135.179901,34.786175],[135.176468,34.789559],[135.179214,34.79125],[135.181274,34.790687],[135.183334,34.79407],[135.184021,34.792942],[135.184021,34.794634],[135.184708,34.795198],[135.180588,34.798017],[135.179901,34.800836],[135.177841,34.801964],[135.177841,34.803655],[135.175781,34.804783],[135.176468,34.806474],[135.181274,34.807038],[135.181961,34.808166],[135.183334,34.81324],[135.189514,34.818313],[135.187454,34.818313],[135.189514,34.820004],[135.186768,34.820568],[135.188828,34.822259]]]}},{"type":"Feature","properties":{"layer_id":"bakumatsu_villages","name":"北僧尾村","address":"播磨 美嚢郡","source":"Geoshape 幕末期近世村領域データセット vector tiles (z7 extraction)","subarea_name":"近世村のおおよその範囲","feature_key":"village:K37G01S00103","accuracy_note":"2015年農業集落境界をもとに復元した概略範囲で、江戸時代の正確な村境ではありません"},"geometry":{"type":"Polygon","coordinates":[[[135.111237,34.846494],[135.11467,34.84593],[135.122223,34.838041],[135.130463,34.836914],[135.129089,34.835223],[135.120163,34.832405],[135.115356,34.832968],[135.11055,34.83015],[135.107117,34.831278],[135.10643,34.83015],[135.101624,34.829023],[135.10025,34.831278],[135.09613,34.829587],[135.096817,34.826768],[135.094757,34.826205],[135.09201,34.826205],[135.088577,34.826768],[135.09201,34.828459],[135.09201,34.832405],[135.094757,34.833532],[135.09613,34.832968],[135.100937,34.834659],[135.103683,34.838604],[135.105743,34.843676],[135.111237,34.846494]]]}},{"type":"Feature","properties":{"layer_id":"bakumatsu_villages","name":"南僧尾村","address":"播磨 美嚢郡","source":"Geoshape 幕末期近世村領域データセット vector tiles (z7 extraction)","subarea_name":"近世村のおおよその範囲","feature_key":"village:K37G01S00102","accuracy_note":"2015年農業集落境界をもとに復元した概略範囲で、江戸時代の正確な村境ではありません"},"geometry":{"type":"Polygon","coordinates":[[[135.131836,34.837477],[135.134583,34.835786],[135.134583,34.834659],[135.121536,34.832405],[135.121536,34.830714],[135.11879,34.829023],[135.116043,34.826768],[135.116043,34.825641],[135.113983,34.82395],[135.11467,34.823386],[135.113297,34.821132],[135.101624,34.823386],[135.100937,34.824514],[135.095444,34.826205],[135.097504,34.827332],[135.09613,34.83015],[135.10025,34.831841],[135.101624,34.829023],[135.10643,34.83015],[135.107117,34.831278],[135.11055,34.83015],[135.115356,34.832968],[135.120163,34.832405],[135.129089,34.835223],[135.131836,34.837477]]]}},{"type":"Feature","properties":{"layer_id":"bakumatsu_villages","name":"南萩原村・北萩原村","address":"播磨 美嚢郡","source":"Geoshape 幕末期近世村領域データセット vector tiles (z7 extraction)","subarea_name":"近世村のおおよその範囲","feature_key":"village:K37G01S00097,K37G01S00098","accuracy_note":"2015年農業集落境界をもとに復元した概略範囲で、江戸時代の正確な村境ではありません"},"geometry":{"type":"Polygon","coordinates":[[[135.101624,34.823386],[135.11055,34.821132],[135.113983,34.821695],[135.113983,34.820004],[135.11055,34.816622],[135.11261,34.814367],[135.111923,34.812676],[135.11467,34.810985],[135.113983,34.804219],[135.117416,34.801964],[135.124283,34.803091],[135.120163,34.798017],[135.117416,34.799145],[135.116043,34.800272],[135.113983,34.799709],[135.10849,34.8014],[135.10849,34.802528],[135.105743,34.805347],[135.105743,34.808729],[135.10025,34.812676],[135.100937,34.813803],[135.098877,34.814367],[135.099564,34.816058],[135.09819,34.817749],[135.101624,34.820004],[135.101624,34.823386]]]}},{"type":"Feature","properties":{"layer_id":"bakumatsu_villages","name":"原野村・与左衛門新田","address":"摂津 八部郡","source":"Geoshape 幕末期近世村領域データセット vector tiles (z7 extraction)","subarea_name":"近世村のおおよその範囲","feature_key":"village:K35G08S00003,K35G08S00048","accuracy_note":"2015年農業集落境界をもとに復元した概略範囲で、江戸時代の正確な村境ではありません"},"geometry":{"type":"Polygon","coordinates":[[[135.149689,34.792378],[135.159988,34.790687],[135.161362,34.79125],[135.166855,34.787303],[135.165482,34.784483],[135.165482,34.781664],[135.171661,34.7811],[135.168915,34.776588],[135.166168,34.776588],[135.164795,34.773768],[135.161362,34.77546],[135.159302,34.774896],[135.159302,34.773204],[135.157928,34.770948],[135.157928,34.768691],[135.153122,34.764743],[135.153809,34.767563],[135.153809,34.768127],[135.151749,34.769256],[135.149689,34.768127],[135.149002,34.766435],[135.151749,34.764179],[135.151062,34.763051],[135.149002,34.763051],[135.149002,34.761923],[135.148315,34.763051],[135.146942,34.761358],[135.145569,34.764179],[135.146255,34.765307],[135.143509,34.764179],[135.144196,34.762487],[135.140762,34.762487],[135.141449,34.758538],[135.139389,34.754025],[135.140076,34.75064],[135.139389,34.749511],[135.136642,34.750076],[135.135269,34.745562],[135.138016,34.743305],[135.138016,34.744998],[135.140076,34.746126],[135.141449,34.744998],[135.140762,34.743305],[135.128403,34.73992],[135.126343,34.745562],[135.131149,34.74669],[135.133896,34.749511],[135.133209,34.75064],[135.133896,34.755717],[135.133209,34.758538],[135.134583,34.757974],[135.137329,34.760794],[135.133896,34.763615],[135.133896,34.764743],[135.135956,34.765307],[135.135269,34.765871],[135.135269,34.767563],[135.136642,34.766999],[135.138016,34.768127],[135.138016,34.774896],[135.136642,34.776588],[135.140762,34.781664],[135.140762,34.782792],[135.138016,34.785047],[135.140762,34.787867],[135.141449,34.791814],[135.149689,34.792378]]]}},{"type":"Feature","properties":{"layer_id":"bakumatsu_villages","name":"吉尾村","address":"摂津 有馬郡","source":"Geoshape 幕末期近世村領域データセット vector tiles (z7 extraction)","subarea_name":"近世村のおおよその範囲","feature_key":"village:K35G12S00062","accuracy_note":"2015年農業集落境界をもとに復元した概略範囲で、江戸時代の正確な村境ではありません"},"geometry":{"type":"Polygon","coordinates":[[[135.205307,34.837477],[135.20668,34.835786],[135.209427,34.835786],[135.2108,34.833532],[135.21698,34.834096],[135.217667,34.832968],[135.21904,34.831841],[135.215607,34.828459],[135.215607,34.825641],[135.212173,34.822823],[135.212173,34.820568],[135.20874,34.820568],[135.208054,34.817186],[135.205994,34.821695],[135.20668,34.823386],[135.203934,34.824514],[135.20462,34.825641],[135.203247,34.827896],[135.199127,34.829023],[135.201874,34.832405],[135.203247,34.835786],[135.205307,34.837477]]]}},{"type":"Feature","properties":{"layer_id":"bakumatsu_villages","name":"唐櫃村","address":"摂津 有馬郡","source":"Geoshape 幕末期近世村領域データセット vector tiles (z7 extraction)","subarea_name":"近世村のおおよその範囲","feature_key":"village:K35G12S00080","accuracy_note":"2015年農業集落境界をもとに復元した概略範囲で、江戸時代の正確な村境ではありません"},"geometry":{"type":"MultiPolygon","coordinates":[[[[135.197754,34.793506],[135.198441,34.791814],[135.201187,34.791814],[135.203247,34.790123],[135.20668,34.791814],[135.2108,34.784483],[135.21286,34.783356],[135.216293,34.784483],[135.21904,34.782228],[135.219727,34.7811],[135.21904,34.780536],[135.2211,34.778844],[135.21904,34.777716],[135.218353,34.776588],[135.222473,34.770948],[135.219727,34.76982],[135.221786,34.762487],[135.215607,34.759102],[135.214233,34.764179],[135.205994,34.76982],[135.201187,34.77546],[135.198441,34.77546],[135.197754,34.776588],[135.199127,34.779972],[135.199127,34.781664],[135.194321,34.782792],[135.186768,34.779408],[135.186081,34.782228],[135.187454,34.783919],[135.190201,34.784483],[135.192261,34.792378],[135.197754,34.793506]]],[[[135.236206,34.803655],[135.239639,34.801964],[135.240326,34.803091],[135.242386,34.798581],[135.243759,34.798017],[135.241013,34.792378],[135.240326,34.786739],[135.243759,34.783356],[135.242386,34.7811],[135.243073,34.778844],[135.248566,34.776588],[135.247192,34.774896],[135.248566,34.773768],[135.249252,34.770948],[135.239639,34.769256],[135.234833,34.767563],[135.234146,34.765871],[135.2314,34.764179],[135.227966,34.764179],[135.221786,34.762487],[135.219727,34.76982],[135.222473,34.770948],[135.218353,34.776588],[135.2211,34.779408],[135.21904,34.780536],[135.219727,34.781664],[135.21698,34.784483],[135.21286,34.783356],[135.2108,34.784483],[135.20668,34.791814],[135.21286,34.796889],[135.217667,34.797453],[135.219727,34.799709],[135.2211,34.801964],[135.22316,34.800836],[135.225906,34.803091],[135.232086,34.802528],[135.236206,34.803655]]]]}},{"type":"Feature","properties":{"layer_id":"bakumatsu_villages","name":"坂本村","address":"摂津 八部郡","source":"Geoshape 幕末期近世村領域データセット vector tiles (z7 extraction)","subarea_name":"近世村のおおよその範囲","feature_key":"village:K35G08S00008","accuracy_note":"2015年農業集落境界をもとに復元した概略範囲で、江戸時代の正確な村境ではありません"},"geometry":{"type":"Polygon","coordinates":[[[135.11055,34.798017],[135.11261,34.796889],[135.123596,34.795198],[135.124283,34.787303],[135.125656,34.785611],[135.124283,34.781664],[135.125656,34.779408],[135.122223,34.776024],[135.123596,34.77264],[135.122223,34.766435],[135.119476,34.768127],[135.118103,34.766435],[135.117416,34.767563],[135.11673,34.765871],[135.115356,34.765871],[135.11261,34.764179],[135.111237,34.764743],[135.109177,34.763615],[135.105743,34.765307],[135.107803,34.768127],[135.107117,34.772076],[135.107803,34.777152],[135.10231,34.77828],[135.103683,34.780536],[135.10231,34.781664],[135.105057,34.785047],[135.100937,34.786739],[135.105743,34.79407],[135.107803,34.795198],[135.11055,34.798017]]]}},{"type":"Feature","properties":{"layer_id":"bakumatsu_villages","name":"塩田村","address":"摂津 有馬郡","source":"Geoshape 幕末期近世村領域データセット vector tiles (z7 extraction)","subarea_name":"近世村のおおよその範囲","feature_key":"village:K35G12S00046","accuracy_note":"2015年農業集落境界をもとに復元した概略範囲で、江戸時代の正確な村境ではありません"},"geometry":{"type":"MultiPolygon","coordinates":[[[[135.230026,34.873539],[135.230026,34.872975],[135.2314,34.871848],[135.227966,34.866778],[135.225906,34.869032],[135.22522,34.871285],[135.225906,34.873539],[135.227966,34.872975],[135.230026,34.873539]]],[[[135.238266,34.872412],[135.240326,34.867905],[135.233459,34.866215],[135.232773,34.867905],[135.22934,34.865651],[135.227966,34.866778],[135.22934,34.867905],[135.230026,34.870722],[135.2314,34.871285],[135.238266,34.872412]]],[[[135.243073,34.878045],[135.240326,34.876918],[135.239639,34.875228],[135.241013,34.873539],[135.238266,34.872412],[135.230713,34.871285],[135.2314,34.871848],[135.230026,34.872975],[135.232773,34.874102],[135.236206,34.877482],[135.243073,34.878045]]],[[[135.247192,34.875228],[135.246506,34.872975],[135.246506,34.871285],[135.244446,34.865088],[135.239639,34.865651],[135.234833,34.863961],[135.233459,34.866215],[135.240326,34.867905],[135.238266,34.872412],[135.246506,34.875228],[135.247192,34.875228]]],[[[135.232773,34.867905],[135.234833,34.863961],[135.239639,34.865651],[135.244446,34.865088],[135.243759,34.861144],[135.245132,34.860017],[135.243759,34.8572],[135.244446,34.853256],[135.243073,34.851566],[135.238266,34.860581],[135.232086,34.85889],[135.22934,34.865651],[135.232773,34.867905]]],[[[135.245819,34.879172],[135.247879,34.878045],[135.249252,34.872412],[135.247192,34.875228],[135.243759,34.874665],[135.241013,34.873539],[135.239639,34.875228],[135.240326,34.876918],[135.245819,34.879172]]]]}},{"type":"Feature","properties":{"layer_id":"bakumatsu_villages","name":"小河村","address":"摂津 八部郡","source":"Geoshape 幕末期近世村領域データセット vector tiles (z7 extraction)","subarea_name":"近世村のおおよその範囲","feature_key":"village:K35G08S00010","accuracy_note":"2015年農業集落境界をもとに復元した概略範囲で、江戸時代の正確な村境ではありません"},"geometry":{"type":"Polygon","coordinates":[[[135.092697,34.763051],[135.099564,34.758538],[135.098877,34.755717],[135.100937,34.755717],[135.101624,34.754025],[135.103683,34.754589],[135.103683,34.752896],[135.105057,34.752896],[135.10643,34.751204],[135.107803,34.751204],[135.10849,34.749511],[135.111237,34.749511],[135.113983,34.748383],[135.113983,34.744434],[135.109863,34.743869],[135.107803,34.742741],[135.107117,34.742741],[135.105743,34.738227],[135.102997,34.737663],[135.102997,34.73597],[135.10231,34.737098],[135.100937,34.735406],[135.09819,34.736534],[135.097504,34.737098],[135.098877,34.738227],[135.093384,34.740484],[135.095444,34.742177],[135.094757,34.743869],[135.092697,34.744998],[135.092697,34.748947],[135.091324,34.750076],[135.089951,34.754589],[135.087891,34.755717],[135.085831,34.759666],[135.087204,34.761358],[135.091324,34.761923],[135.092697,34.763051]]]}},{"type":"Feature","properties":{"layer_id":"bakumatsu_villages","name":"屏風村","address":"摂津 有馬郡","source":"Geoshape 幕末期近世村領域データセット vector tiles (z7 extraction)","subarea_name":"近世村のおおよその範囲","feature_key":"village:K35G12S00059","accuracy_note":"2015年農業集落境界をもとに復元した概略範囲で、江戸時代の正確な村境ではありません"},"geometry":{"type":"Polygon","coordinates":[[[135.168915,34.822259],[135.171661,34.820004],[135.173721,34.821695],[135.174408,34.821132],[135.175781,34.821695],[135.175781,34.820568],[135.177841,34.820004],[135.177155,34.817186],[135.179214,34.816622],[135.179901,34.815495],[135.182648,34.815495],[135.184021,34.813803],[135.181961,34.807602],[135.177155,34.807038],[135.175781,34.805347],[135.177841,34.803655],[135.177841,34.801964],[135.179901,34.800836],[135.180588,34.798017],[135.184708,34.795198],[135.184021,34.794634],[135.184708,34.793506],[135.184021,34.792942],[135.183334,34.79407],[135.181274,34.790687],[135.179214,34.79125],[135.176468,34.790123],[135.175781,34.789559],[135.173721,34.790687],[135.173035,34.788995],[135.166855,34.787303],[135.161362,34.79125],[135.163422,34.792378],[135.170288,34.79407],[135.170975,34.795762],[135.172348,34.79407],[135.173721,34.794634],[135.170288,34.799709],[135.170288,34.803091],[135.168228,34.805911],[135.168915,34.807602],[135.164795,34.809857],[135.163422,34.81324],[135.164108,34.814931],[135.162048,34.817186],[135.164108,34.820004],[135.165482,34.819441],[135.168915,34.822259]]]}},{"type":"Feature","properties":{"layer_id":"bakumatsu_villages","name":"岩谷村","address":"摂津 有馬郡","source":"Geoshape 幕末期近世村領域データセット vector tiles (z7 extraction)","subarea_name":"近世村のおおよその範囲","feature_key":"village:K35G12S00053","accuracy_note":"2015年農業集落境界をもとに復元した概略範囲で、江戸時代の正確な村境ではありません"},"geometry":{"type":"Polygon","coordinates":[[[135.175781,34.876355],[135.173721,34.877482],[135.173035,34.879172],[135.175095,34.880862],[135.172348,34.881988],[135.168228,34.880862],[135.166168,34.877482],[135.162048,34.877482],[135.157928,34.876355],[135.157242,34.878045],[135.155869,34.878608],[135.153809,34.883115],[135.156555,34.883115],[135.162048,34.885368],[135.165482,34.888747],[135.169601,34.891],[135.170288,34.88931],[135.172348,34.888184],[135.179214,34.888184],[135.181961,34.884241],[135.180588,34.881988],[135.181274,34.879735],[135.178528,34.875228],[135.175781,34.876355]]]}},{"type":"Feature","properties":{"layer_id":"bakumatsu_villages","name":"市原村","address":"摂津 有馬郡","source":"Geoshape 幕末期近世村領域データセット vector tiles (z7 extraction)","subarea_name":"近世村のおおよその範囲","feature_key":"village:K35G12S00052","accuracy_note":"2015年農業集落境界をもとに復元した概略範囲で、江戸時代の正確な村境ではありません"},"geometry":{"type":"Polygon","coordinates":[[[135.165482,34.872975],[135.166855,34.874102],[135.166855,34.876355],[135.166168,34.877482],[135.168228,34.880862],[135.173035,34.881988],[135.175095,34.880862],[135.173035,34.878608],[135.178528,34.872412],[135.183334,34.874102],[135.182648,34.870722],[135.176468,34.870158],[135.175781,34.867342],[135.173721,34.867905],[135.169601,34.866215],[135.167542,34.866778],[135.166855,34.869032],[135.163422,34.870158],[135.164795,34.871285],[135.164795,34.872412],[135.165482,34.872975]]]}},{"type":"Feature","properties":{"layer_id":"bakumatsu_villages","name":"平田村","address":"摂津 有馬郡","source":"Geoshape 幕末期近世村領域データセット vector tiles (z7 extraction)","subarea_name":"近世村のおおよその範囲","feature_key":"village:K35G12S00068","accuracy_note":"2015年農業集落境界をもとに復元した概略範囲で、江戸時代の正確な村境ではありません"},"geometry":{"type":"Polygon","coordinates":[[[135.238266,34.860581],[135.243759,34.849312],[135.242386,34.848185],[135.238953,34.847621],[135.232773,34.84593],[135.2314,34.851566],[135.232773,34.858327],[135.238266,34.860581]]]}},{"type":"Feature","properties":{"layer_id":"bakumatsu_villages","name":"日西原村","address":"摂津 有馬郡","source":"Geoshape 幕末期近世村領域データセット vector tiles (z7 extraction)","subarea_name":"近世村のおおよその範囲","feature_key":"village:K35G12S00055","accuracy_note":"2015年農業集落境界をもとに復元した概略範囲で、江戸時代の正確な村境ではありません"},"geometry":{"type":"MultiPolygon","coordinates":[[[[135.173721,34.867905],[135.175781,34.867342],[135.172348,34.866778],[135.173721,34.865088],[135.173035,34.864525],[135.171661,34.864525],[135.171661,34.862834],[135.170975,34.861708],[135.166168,34.861708],[135.164795,34.858327],[135.164795,34.859454],[135.163422,34.860017],[135.160675,34.858327],[135.159302,34.85889],[135.158615,34.856073],[135.157928,34.8572],[135.157242,34.8572],[135.155869,34.860017],[135.157242,34.861708],[135.155869,34.863961],[135.159302,34.865088],[135.159302,34.867905],[135.161362,34.865651],[135.164795,34.865651],[135.165482,34.867905],[135.169601,34.866215],[135.173721,34.867905]]],[[[135.172348,34.862271],[135.175095,34.861708],[135.174408,34.85889],[135.176468,34.854946],[135.171661,34.854946],[135.164795,34.858327],[135.166168,34.861708],[135.172348,34.862271]]],[[[135.177155,34.867342],[135.178528,34.865088],[135.181274,34.866215],[135.184708,34.866215],[135.185394,34.863961],[135.181274,34.862834],[135.177155,34.858327],[135.177155,34.856073],[135.177841,34.854946],[135.176468,34.854946],[135.174408,34.85889],[135.175095,34.861708],[135.171661,34.862271],[135.171661,34.864525],[135.173035,34.864525],[135.172348,34.866778],[135.177155,34.867342]]]]}},{"type":"Feature","properties":{"layer_id":"bakumatsu_villages","name":"木津村","address":"播磨 美嚢郡","source":"Geoshape 幕末期近世村領域データセット vector tiles (z7 extraction)","subarea_name":"近世村のおおよその範囲","feature_key":"village:K37G01S00099","accuracy_note":"2015年農業集落境界をもとに復元した概略範囲で、江戸時代の正確な村境ではありません"},"geometry":{"type":"Polygon","coordinates":[[[135.113297,34.819441],[135.115356,34.818877],[135.116043,34.817749],[135.118103,34.818313],[135.120163,34.816058],[135.123596,34.808729],[135.124283,34.803091],[135.117416,34.801964],[135.11467,34.803091],[135.113983,34.805347],[135.11467,34.807602],[135.11467,34.810985],[135.111923,34.812676],[135.11261,34.814367],[135.11055,34.816622],[135.113297,34.819441]]]}},{"type":"Feature","properties":{"layer_id":"bakumatsu_villages","name":"東下村","address":"摂津 八部郡","source":"Geoshape 幕末期近世村領域データセット vector tiles (z7 extraction)","subarea_name":"近世村のおおよその範囲","feature_key":"village:K35G08S00006","accuracy_note":"2015年農業集落境界をもとに復元した概略範囲で、江戸時代の正確な村境ではありません"},"geometry":{"type":"MultiPolygon","coordinates":[[[[135.124283,34.768691],[135.125656,34.767563],[135.124969,34.766999],[135.127716,34.766435],[135.127029,34.765307],[135.125656,34.765307],[135.126343,34.764179],[135.123596,34.763051],[135.123596,34.761358],[135.124283,34.760794],[135.127029,34.748947],[135.126343,34.745562],[135.126343,34.744434],[135.124969,34.743869],[135.120163,34.746126],[135.116043,34.743869],[135.113983,34.744434],[135.116043,34.744998],[135.11673,34.749511],[135.12085,34.754025],[135.120163,34.758538],[135.12291,34.761358],[135.121536,34.761923],[135.122223,34.762487],[135.121536,34.763615],[135.123596,34.765307],[135.12291,34.768127],[135.122223,34.769256],[135.123596,34.77264],[135.122223,34.776024],[135.125656,34.779408],[135.128403,34.77828],[135.128403,34.777152],[135.126343,34.774332],[135.127029,34.771512],[135.124283,34.768691]]],[[[135.12291,34.768127],[135.123596,34.765307],[135.121536,34.763615],[135.122223,34.762487],[135.121536,34.761923],[135.12291,34.761358],[135.120163,34.758538],[135.12085,34.754025],[135.11673,34.749511],[135.116043,34.744998],[135.113983,34.744434],[135.113983,34.748383],[135.11673,34.754589],[135.11467,34.76023],[135.116043,34.760794],[135.11673,34.761923],[135.115356,34.763051],[135.11467,34.762487],[135.11467,34.763615],[135.11261,34.761923],[135.11261,34.764743],[135.11673,34.765871],[135.117416,34.767563],[135.118103,34.766435],[135.119476,34.768127],[135.122223,34.766435],[135.12291,34.768127]]]]}},{"type":"Feature","properties":{"layer_id":"bakumatsu_villages","name":"柳谷村","address":"摂津 有馬郡","source":"Geoshape 幕末期近世村領域データセット vector tiles (z7 extraction)","subarea_name":"近世村のおおよその範囲","feature_key":"village:K35G12S00060","accuracy_note":"2015年農業集落境界をもとに復元した概略範囲で、江戸時代の正確な村境ではありません"},"geometry":{"type":"Polygon","coordinates":[[[135.203934,34.824514],[135.20668,34.823386],[135.205994,34.821695],[135.208054,34.817186],[135.207367,34.816622],[135.20462,34.818313],[135.201874,34.816058],[135.201187,34.813803],[135.201874,34.812676],[135.205307,34.812112],[135.205307,34.810421],[135.207367,34.810421],[135.207367,34.809293],[135.199814,34.808166],[135.197067,34.800836],[135.192261,34.801964],[135.191574,34.803655],[135.192261,34.805911],[135.195007,34.809857],[135.195694,34.810421],[135.194321,34.814931],[135.197754,34.816622],[135.2005,34.816622],[135.2005,34.820004],[135.203934,34.824514]]]}},{"type":"Feature","properties":{"layer_id":"bakumatsu_villages","name":"淡河・北畑村","address":"播磨 美嚢郡","source":"Geoshape 幕末期近世村領域データセット vector tiles (z7 extraction)","subarea_name":"近世村のおおよその範囲","feature_key":"village:K37G01S00101","accuracy_note":"2015年農業集落境界をもとに復元した概略範囲で、江戸時代の正確な村境ではありません"},"geometry":{"type":"Polygon","coordinates":[[[135.134583,34.834659],[135.133896,34.83015],[135.131836,34.827896],[135.130463,34.828459],[135.129776,34.827332],[135.126343,34.826768],[135.124969,34.823386],[135.11879,34.821695],[135.11879,34.820004],[135.113297,34.819441],[135.113983,34.820568],[135.113983,34.82395],[135.116043,34.825641],[135.116043,34.826768],[135.11879,34.829023],[135.121536,34.830714],[135.121536,34.832405],[135.134583,34.834659]]]}},{"type":"Feature","properties":{"layer_id":"bakumatsu_villages","name":"淡河・東畑村","address":"播磨 美嚢郡","source":"Geoshape 幕末期近世村領域データセット vector tiles (z7 extraction)","subarea_name":"近世村のおおよその範囲","feature_key":"village:K37G01S00111","accuracy_note":"2015年農業集落境界をもとに復元した概略範囲で、江戸時代の正確な村境ではありません"},"geometry":{"type":"Polygon","coordinates":[[[135.130463,34.828459],[135.131836,34.827332],[135.132523,34.827332],[135.132523,34.826205],[135.135956,34.825077],[135.138702,34.822823],[135.133896,34.818877],[135.133209,34.816622],[135.133209,34.814367],[135.135956,34.811548],[135.134583,34.804783],[135.129089,34.806474],[135.131149,34.808166],[135.130463,34.809857],[135.128403,34.813803],[135.128403,34.817186],[135.127029,34.822823],[135.125656,34.82395],[135.126343,34.826768],[135.129776,34.827332],[135.130463,34.828459]]]}},{"type":"Feature","properties":{"layer_id":"bakumatsu_villages","name":"淡河町","address":"播磨 美嚢郡","source":"Geoshape 幕末期近世村領域データセット vector tiles (z7 extraction)","subarea_name":"近世村のおおよその範囲","feature_key":"village:K37G01S00096","accuracy_note":"2015年農業集落境界をもとに復元した概略範囲で、江戸時代の正確な村境ではありません"},"geometry":{"type":"MultiPolygon","coordinates":[[[[135.087891,34.814367],[135.089951,34.812676],[135.091324,34.813803],[135.09407,34.81324],[135.094757,34.81324],[135.09613,34.810985],[135.095444,34.810421],[135.10231,34.806474],[135.103683,34.804219],[135.105743,34.804219],[135.105057,34.803655],[135.107117,34.803091],[135.107117,34.800272],[135.11055,34.798017],[135.10849,34.798017],[135.10643,34.796325],[135.099564,34.79407],[135.099564,34.795198],[135.101624,34.796325],[135.100937,34.797453],[135.101624,34.799145],[135.098877,34.803091],[135.09819,34.807038],[135.095444,34.806474],[135.094757,34.807602],[135.095444,34.808729],[135.091324,34.809293],[135.091324,34.810421],[135.090637,34.809857],[135.089951,34.810985],[135.089264,34.810985],[135.089264,34.812112],[135.085831,34.813803],[135.087891,34.814367]]],[[[135.09819,34.817749],[135.099564,34.816058],[135.098877,34.813803],[135.100937,34.813803],[135.10025,34.812676],[135.105743,34.808729],[135.105743,34.805347],[135.10849,34.802528],[135.10849,34.8014],[135.113983,34.799709],[135.11055,34.799709],[135.11055,34.798017],[135.107803,34.799709],[135.10643,34.801964],[135.107117,34.803091],[135.105057,34.803655],[135.105743,34.804219],[135.10437,34.804219],[135.10231,34.806474],[135.095444,34.810421],[135.09613,34.810985],[135.094757,34.81324],[135.09407,34.81324],[135.091324,34.813803],[135.089951,34.812676],[135.087891,34.814367],[135.086517,34.814367],[135.088577,34.815495],[135.089951,34.813803],[135.09201,34.815495],[135.096817,34.815495],[135.09819,34.817749]]],[[[135.09819,34.817749],[135.098877,34.819441],[135.09407,34.819441],[135.091324,34.822259],[135.09201,34.826205],[135.097504,34.825641],[135.101624,34.82395],[135.10231,34.822259],[135.101624,34.821695],[135.101624,34.820004],[135.09819,34.817749]]]]}},{"type":"Feature","properties":{"layer_id":"bakumatsu_villages","name":"深谷村","address":"摂津 有馬郡","source":"Geoshape 幕末期近世村領域データセット vector tiles (z7 extraction)","subarea_name":"近世村のおおよその範囲","feature_key":"village:K35G12S00058","accuracy_note":"2015年農業集落境界をもとに復元した概略範囲で、江戸時代の正確な村境ではありません"},"geometry":{"type":"MultiPolygon","coordinates":[[[[135.160675,34.821695],[135.164108,34.820004],[135.162048,34.817186],[135.164108,34.814931],[135.164108,34.813803],[135.163422,34.813803],[135.164108,34.810421],[135.164795,34.809293],[135.168915,34.807602],[135.168228,34.805911],[135.170288,34.803091],[135.170288,34.799709],[135.173721,34.794634],[135.172348,34.79407],[135.166168,34.799709],[135.165482,34.804783],[135.162735,34.807038],[135.164108,34.808166],[135.163422,34.809857],[135.161362,34.810421],[135.161362,34.811548],[135.159302,34.814931],[135.160675,34.821695]]],[[[135.170288,34.838041],[135.173035,34.836914],[135.172348,34.832968],[135.173721,34.829587],[135.176468,34.830714],[135.173721,34.829023],[135.174408,34.827332],[135.173035,34.827332],[135.174408,34.826205],[135.174408,34.822259],[135.171661,34.820004],[135.170288,34.820568],[135.166855,34.824514],[135.167542,34.826768],[135.166168,34.829587],[135.162735,34.831278],[135.162735,34.835786],[135.164108,34.836914],[135.167542,34.83635],[135.167542,34.834659],[135.170288,34.838041]]],[[[135.190887,34.844803],[135.187454,34.840295],[135.188828,34.835786],[135.189514,34.835223],[135.186768,34.830714],[135.179214,34.83015],[135.176468,34.832405],[135.172348,34.832968],[135.173035,34.838604],[135.176468,34.839168],[135.179901,34.842549],[135.186768,34.843113],[135.190887,34.844803]]],[[[135.188828,34.822259],[135.186768,34.820568],[135.189514,34.820004],[135.187454,34.818313],[135.189514,34.818313],[135.185394,34.814367],[135.184021,34.813803],[135.182648,34.815495],[135.179214,34.815495],[135.179214,34.816622],[135.177841,34.816622],[135.176468,34.817749],[135.177841,34.820004],[135.173721,34.821695],[135.174408,34.826205],[135.173035,34.827332],[135.174408,34.827332],[135.173721,34.829023],[135.176468,34.830714],[135.173721,34.829587],[135.172348,34.832968],[135.176468,34.832405],[135.179214,34.83015],[135.184708,34.831278],[135.188141,34.830714],[135.188141,34.829587],[135.189514,34.827896],[135.188828,34.827332],[135.191574,34.826205],[135.191574,34.824514],[135.189514,34.824514],[135.188828,34.822259]]]]}},{"type":"Feature","properties":{"layer_id":"bakumatsu_villages","name":"湯ノ山村","address":"摂津 有馬郡","source":"Geoshape 幕末期近世村領域データセット vector tiles (z7 extraction)","subarea_name":"近世村のおおよその範囲","feature_key":"village:K35G12S00081","accuracy_note":"2015年農業集落境界をもとに復元した概略範囲で、江戸時代の正確な村境ではありません"},"geometry":{"type":"Polygon","coordinates":[[[135.248566,34.808729],[135.250626,34.807602],[135.252686,34.804783],[135.255432,34.805911],[135.258865,34.805347],[135.260239,34.805911],[135.263672,34.803655],[135.264359,34.802528],[135.269852,34.802528],[135.268478,34.797453],[135.269852,34.796325],[135.269852,34.79407],[135.270538,34.792378],[135.268478,34.790687],[135.269165,34.790123],[135.268478,34.786175],[135.269165,34.783919],[135.267105,34.782228],[135.267105,34.7811],[135.265045,34.77828],[135.263672,34.77828],[135.262985,34.776588],[135.260925,34.77546],[135.260239,34.773768],[135.256119,34.771512],[135.251312,34.770384],[135.249252,34.770948],[135.248566,34.773768],[135.247192,34.774896],[135.248566,34.776588],[135.243073,34.778844],[135.242386,34.7811],[135.243759,34.783356],[135.240326,34.786739],[135.241013,34.792378],[135.243759,34.798017],[135.242386,34.798581],[135.240326,34.803091],[135.246506,34.804219],[135.248566,34.808729]]]}},{"type":"Feature","properties":{"layer_id":"bakumatsu_villages","name":"生田村・脇浜村・中村・熊内村・滝寺村・中尾村・筒井村・小野新田村・《脇浜村／中尾村／筒井村／熊内村／生田村／中村》立会","address":"摂津 菟原郡","source":"Geoshape 幕末期近世村領域データセット vector tiles (z7 extraction)","subarea_name":"近世村のおおよその範囲","feature_key":"village:K35G09S00001,K35G09S00002,K35G09S00003,K35G09S00004,K35G09S00005,K35G09S00006,K35G09S00007,K35G09S00011,K35G09S00052","accuracy_note":"2015年農業集落境界をもとに復元した概略範囲で、江戸時代の正確な村境ではありません"},"geometry":{"type":"Polygon","coordinates":[[[135.197067,34.734841],[135.198441,34.729763],[135.196381,34.724119],[135.201187,34.721297],[135.20256,34.717911],[135.208054,34.71904],[135.209427,34.714525],[135.218353,34.700413],[135.218353,34.698155],[135.214233,34.695332],[135.215607,34.694203],[135.214233,34.693074],[135.217667,34.690251],[135.207367,34.684605],[135.203247,34.687428],[135.20256,34.686299],[135.201874,34.684605],[135.198441,34.685169],[135.193634,34.694768],[135.193634,34.699848],[135.195694,34.704364],[135.195694,34.707751],[135.193634,34.70888],[135.193634,34.710574],[135.191574,34.710009],[135.189514,34.712267],[135.187454,34.712267],[135.184708,34.713396],[135.186768,34.714525],[135.186081,34.717911],[135.186768,34.718476],[135.185394,34.720169],[135.186768,34.721297],[135.186768,34.725248],[135.197067,34.734841]]]}},{"type":"Feature","properties":{"layer_id":"bakumatsu_villages","name":"生野村","address":"摂津 有馬郡","source":"Geoshape 幕末期近世村領域データセット vector tiles (z7 extraction)","subarea_name":"近世村のおおよその範囲","feature_key":"village:K35G12S00045","accuracy_note":"2015年農業集落境界をもとに復元した概略範囲で、江戸時代の正確な村境ではありません"},"geometry":{"type":"Polygon","coordinates":[[[135.278778,34.887057],[135.281525,34.884804],[135.284958,34.879172],[135.284958,34.876918],[135.286331,34.871285],[135.291824,34.866215],[135.291824,34.863961],[135.293198,34.861708],[135.291138,34.860581],[135.289078,34.85551],[135.288391,34.854946],[135.285645,34.856073],[135.283585,34.852692],[135.282211,34.852692],[135.282898,34.848748],[135.280151,34.847621],[135.277405,34.848185],[135.276031,34.847621],[135.274658,34.848185],[135.272598,34.847057],[135.269165,34.848748],[135.265045,34.848748],[135.259552,34.841986],[135.247879,34.845367],[135.243073,34.848185],[135.243759,34.8572],[135.245132,34.860017],[135.243759,34.861144],[135.243759,34.863398],[135.246506,34.871285],[135.246506,34.873539],[135.247192,34.875228],[135.249252,34.872412],[135.247879,34.878045],[135.251312,34.879735],[135.260925,34.885368],[135.278778,34.887057]]]}},{"type":"Feature","properties":{"layer_id":"bakumatsu_villages","name":"神田村","address":"播磨 美嚢郡","source":"Geoshape 幕末期近世村領域データセット vector tiles (z7 extraction)","subarea_name":"近世村のおおよその範囲","feature_key":"village:K37G01S00115","accuracy_note":"2015年農業集落境界をもとに復元した概略範囲で、江戸時代の正確な村境ではありません"},"geometry":{"type":"Polygon","coordinates":[[[135.155182,34.841422],[135.159988,34.836914],[135.162735,34.83635],[135.162735,34.831278],[135.166168,34.829587],[135.167542,34.826768],[135.166855,34.825077],[135.168915,34.822259],[135.159302,34.825077],[135.151062,34.824514],[135.149002,34.823386],[135.146942,34.825077],[135.144196,34.825077],[135.144196,34.825641],[135.145569,34.827332],[135.146942,34.827332],[135.148315,34.829587],[135.149689,34.831278],[135.149002,34.835223],[135.150375,34.83635],[135.151062,34.838604],[135.153809,34.840859],[135.155182,34.841422]]]}},{"type":"Feature","properties":{"layer_id":"bakumatsu_villages","name":"福地村","address":"摂津 八部郡","source":"Geoshape 幕末期近世村領域データセット vector tiles (z7 extraction)","subarea_name":"近世村のおおよその範囲","feature_key":"village:K35G08S00004","accuracy_note":"2015年農業集落境界をもとに復元した概略範囲で、江戸時代の正確な村境ではありません"},"geometry":{"type":"Polygon","coordinates":[[[135.129776,34.770948],[135.131836,34.774332],[135.129089,34.777152],[135.132523,34.780536],[135.132523,34.790123],[135.127716,34.79407],[135.128403,34.796889],[135.126343,34.798017],[135.127716,34.799145],[135.138016,34.794634],[135.137329,34.791814],[135.141449,34.790687],[135.140762,34.787867],[135.138016,34.785047],[135.140762,34.782228],[135.136642,34.776588],[135.138016,34.77546],[135.138702,34.772076],[135.138016,34.768127],[135.136642,34.766999],[135.135269,34.767563],[135.135269,34.765871],[135.135956,34.765307],[135.134583,34.765307],[135.134583,34.765871],[135.131836,34.766999],[135.130463,34.765871],[135.129776,34.767563],[135.128403,34.768127],[135.128403,34.770384],[135.129089,34.770948],[135.129776,34.770948]],[[135.129776,34.770948],[135.129776,34.770384],[135.131149,34.770384],[135.131149,34.770948],[135.129776,34.770948]]]}},{"type":"Feature","properties":{"layer_id":"bakumatsu_villages","name":"簾村","address":"摂津 有馬郡","source":"Geoshape 幕末期近世村領域データセット vector tiles (z7 extraction)","subarea_name":"近世村のおおよその範囲","feature_key":"village:K35G12S00054","accuracy_note":"2015年農業集落境界をもとに復元した概略範囲で、江戸時代の正確な村境ではありません"},"geometry":{"type":"Polygon","coordinates":[[[135.165482,34.872975],[135.164795,34.872412],[135.164795,34.871285],[135.163422,34.870158],[135.166855,34.869032],[135.166855,34.867342],[135.165482,34.867905],[135.164795,34.865651],[135.161362,34.865651],[135.159302,34.867905],[135.159302,34.865088],[135.155869,34.863961],[135.155869,34.867905],[135.157242,34.869032],[135.155869,34.871848],[135.156555,34.873539],[135.157928,34.876355],[135.165482,34.878045],[135.166855,34.876355],[135.166855,34.874102],[135.165482,34.872975]]]}},{"type":"Feature","properties":{"layer_id":"bakumatsu_villages","name":"草下部村","address":"摂津 有馬郡","source":"Geoshape 幕末期近世村領域データセット vector tiles (z7 extraction)","subarea_name":"近世村のおおよその範囲","feature_key":"village:K35G12S00066","accuracy_note":"2015年農業集落境界をもとに復元した概略範囲で、江戸時代の正確な村境ではありません"},"geometry":{"type":"MultiPolygon","coordinates":[[[[135.225906,34.868468],[135.227966,34.866778],[135.22522,34.862271],[135.22522,34.858327],[135.22728,34.85551],[135.222473,34.853819],[135.2211,34.85551],[135.2211,34.8572],[135.219727,34.8572],[135.222473,34.859454],[135.22316,34.862834],[135.224533,34.862834],[135.225906,34.868468]]],[[[135.226593,34.865088],[135.22934,34.863398],[135.22934,34.862271],[135.227966,34.861708],[135.230026,34.858327],[135.22728,34.85551],[135.22522,34.860017],[135.226593,34.865088]]],[[[135.230026,34.862271],[135.232773,34.857764],[135.232086,34.853819],[135.228653,34.856073],[135.230026,34.858327],[135.227966,34.861708],[135.230026,34.862271]]]]}},{"type":"Feature","properties":{"layer_id":"bakumatsu_villages","name":"藍那村","address":"摂津 八部郡","source":"Geoshape 幕末期近世村領域データセット vector tiles (z7 extraction)","subarea_name":"近世村のおおよその範囲","feature_key":"village:K35G08S00011","accuracy_note":"2015年農業集落境界をもとに復元した概略範囲で、江戸時代の正確な村境ではありません"},"geometry":{"type":"Polygon","coordinates":[[[135.102997,34.737098],[135.105743,34.738227],[135.10643,34.73992],[135.105743,34.741612],[135.107117,34.742741],[135.107803,34.742741],[135.109863,34.743869],[135.113983,34.744434],[135.115356,34.743869],[135.120163,34.746126],[135.124283,34.743869],[135.126343,34.744434],[135.128403,34.73992],[135.127716,34.738791],[135.129776,34.736534],[135.131836,34.731456],[135.128403,34.726941],[135.122223,34.725812],[135.120163,34.726377],[135.120163,34.724684],[135.118103,34.724119],[135.11879,34.722991],[135.11879,34.720733],[135.117416,34.720733],[135.118103,34.716782],[135.116043,34.717911],[135.113297,34.716218],[135.11055,34.717911],[135.107803,34.717911],[135.107117,34.719604],[135.105057,34.720733],[135.105743,34.71396],[135.105057,34.712267],[135.105743,34.712267],[135.105057,34.709445],[135.10231,34.709445],[135.101624,34.709445],[135.10231,34.713396],[135.100937,34.70888],[135.099564,34.708316],[135.098877,34.710009],[135.10025,34.711703],[135.09819,34.711703],[135.09819,34.713396],[135.097504,34.713396],[135.097504,34.711703],[135.095444,34.711138],[135.09819,34.710574],[135.096817,34.70888],[135.09819,34.707187],[135.09613,34.706058],[135.095444,34.709445],[135.095444,34.706058],[135.09407,34.704929],[135.092697,34.706622],[135.090637,34.708316],[135.092697,34.710009],[135.09407,34.712267],[135.093384,34.717911],[135.083771,34.726941],[135.085831,34.727505],[135.087204,34.729763],[135.089951,34.729763],[135.093384,34.73202],[135.09407,34.729763],[135.096817,34.728634],[135.09819,34.73202],[135.09613,34.734277],[135.096817,34.736534],[135.100937,34.735406],[135.10231,34.737098],[135.102997,34.737098]]]}},{"type":"Feature","properties":{"layer_id":"bakumatsu_villages","name":"行原村","address":"播磨 美嚢郡","source":"Geoshape 幕末期近世村領域データセット vector tiles (z7 extraction)","subarea_name":"近世村のおおよその範囲","feature_key":"village:K37G01S00100","accuracy_note":"2015年農業集落境界をもとに復元した概略範囲で、江戸時代の正確な村境ではありません"},"geometry":{"type":"Polygon","coordinates":[[[135.125656,34.82395],[135.127029,34.822823],[135.128403,34.817186],[135.128403,34.813803],[135.131149,34.808166],[135.126343,34.803655],[135.124283,34.803091],[135.124283,34.805347],[135.122223,34.812112],[135.118103,34.818313],[135.116043,34.817749],[135.115356,34.819441],[135.118103,34.820004],[135.11879,34.821695],[135.124969,34.823386],[135.125656,34.82395]]]}},{"type":"Feature","properties":{"layer_id":"bakumatsu_villages","name":"衝原村","address":"摂津 八部郡","source":"Geoshape 幕末期近世村領域データセット vector tiles (z7 extraction)","subarea_name":"近世村のおおよその範囲","feature_key":"village:K35G08S00009","accuracy_note":"2015年農業集落境界をもとに復元した概略範囲で、江戸時代の正確な村境ではありません"},"geometry":{"type":"Polygon","coordinates":[[[135.10231,34.789559],[135.100937,34.786175],[135.105057,34.785047],[135.10231,34.781664],[135.103683,34.780536],[135.10231,34.77828],[135.107803,34.777152],[135.107117,34.772076],[135.107803,34.768127],[135.105743,34.766435],[135.10643,34.765307],[135.10437,34.763615],[135.097504,34.765307],[135.092697,34.763051],[135.091324,34.761923],[135.087204,34.761358],[135.085831,34.759666],[135.080338,34.758538],[135.078278,34.76023],[135.076904,34.765307],[135.071411,34.764743],[135.067291,34.763051],[135.061798,34.764179],[135.064545,34.765871],[135.064545,34.767563],[135.065918,34.768127],[135.069351,34.767563],[135.070724,34.769256],[135.077591,34.771512],[135.077591,34.774332],[135.078964,34.774896],[135.082397,34.778844],[135.085831,34.779408],[135.087891,34.778844],[135.089951,34.779408],[135.092697,34.77828],[135.096817,34.778844],[135.097504,34.781664],[135.097504,34.787867],[135.10231,34.789559]]]}},{"type":"Feature","properties":{"layer_id":"bakumatsu_villages","name":"西下村","address":"摂津 八部郡","source":"Geoshape 幕末期近世村領域データセット vector tiles (z7 extraction)","subarea_name":"近世村のおおよその範囲","feature_key":"village:K35G08S00007","accuracy_note":"2015年農業集落境界をもとに復元した概略範囲で、江戸時代の正確な村境ではありません"},"geometry":{"type":"Polygon","coordinates":[[[135.10643,34.765307],[135.109177,34.763615],[135.111237,34.764743],[135.113297,34.764179],[135.11261,34.761923],[135.11467,34.763615],[135.11467,34.762487],[135.115356,34.763051],[135.11673,34.761923],[135.11467,34.758538],[135.11673,34.754589],[135.113983,34.748383],[135.111237,34.749511],[135.10849,34.749511],[135.107803,34.751204],[135.10643,34.751204],[135.105057,34.752896],[135.103683,34.752896],[135.103683,34.754589],[135.101624,34.754025],[135.100937,34.755717],[135.098877,34.755717],[135.099564,34.758538],[135.092697,34.763051],[135.097504,34.765307],[135.102997,34.763615],[135.10643,34.765307]]]}},{"type":"Feature","properties":{"layer_id":"bakumatsu_villages","name":"西代村・野田村・駒ヶ林村・西尻池村・東尻池村・池田村・長田村","address":"摂津 八部郡","source":"Geoshape 幕末期近世村領域データセット vector tiles (z7 extraction)","subarea_name":"近世村のおおよその範囲","feature_key":"village:K35G08S00022,K35G08S00023,K35G08S00024,K35G08S00025,K35G08S00026,K35G08S00027,K35G08S00028","accuracy_note":"2015年農業集落境界をもとに復元した概略範囲で、江戸時代の正確な村境ではありません"},"geometry":{"type":"Polygon","coordinates":[[[135.132523,34.694203],[135.138702,34.693638],[135.142136,34.690251],[135.144196,34.690251],[135.146942,34.687993],[135.149002,34.687993],[135.148315,34.686299],[135.151749,34.680088],[135.153809,34.679523],[135.153809,34.677264],[135.155869,34.677829],[135.155182,34.675006],[135.157928,34.672182],[135.157242,34.669923],[135.158615,34.668229],[135.156555,34.668229],[135.159302,34.665405],[135.159302,34.651285],[135.166168,34.65185],[135.166855,34.647896],[135.151062,34.646201],[135.149689,34.647896],[135.149689,34.649591],[135.149002,34.649026],[135.145569,34.647896],[135.149002,34.647331],[135.150375,34.646201],[135.146942,34.646201],[135.139389,34.642812],[135.137329,34.647331],[135.133896,34.65072],[135.141449,34.655804],[135.132523,34.664841],[135.132523,34.666535],[135.131149,34.667664],[135.131149,34.673312],[135.129089,34.672747],[135.127716,34.6767],[135.131836,34.677829],[135.131149,34.682346],[135.130463,34.68404],[135.126343,34.68404],[135.124969,34.685734],[135.124283,34.685169],[135.125656,34.682911],[135.124283,34.682346],[135.12291,34.68404],[135.125656,34.687993],[135.124969,34.689122],[135.126343,34.690816],[135.132523,34.694203]]]}},{"type":"Feature","properties":{"layer_id":"bakumatsu_villages","name":"西小部村・東小部村","address":"摂津 八部郡","source":"Geoshape 幕末期近世村領域データセット vector tiles (z7 extraction)","subarea_name":"近世村のおおよその範囲","feature_key":"village:K35G08S00012,K35G08S00013","accuracy_note":"2015年農業集落境界をもとに復元した概略範囲で、江戸時代の正確な村境ではありません"},"geometry":{"type":"MultiPolygon","coordinates":[[[[135.146255,34.765307],[135.145569,34.764179],[135.146942,34.761358],[135.148315,34.763051],[135.149002,34.761923],[135.149002,34.763051],[135.150375,34.763615],[135.151749,34.763051],[135.151062,34.761358],[135.152435,34.760794],[135.152435,34.76023],[135.153122,34.760794],[135.154495,34.758538],[135.152435,34.756281],[135.151062,34.756846],[135.149689,34.755153],[135.155182,34.752332],[135.154495,34.750076],[135.151749,34.748383],[135.154495,34.74669],[135.153122,34.74669],[135.152435,34.742741],[135.157928,34.742741],[135.158615,34.741048],[135.159988,34.742741],[135.161362,34.744998],[135.159302,34.744434],[135.160675,34.746126],[135.156555,34.748947],[135.155869,34.751204],[135.158615,34.752896],[135.162735,34.752896],[135.162048,34.755717],[135.170288,34.753461],[135.170288,34.754025],[135.171661,34.752896],[135.170975,34.75064],[135.173721,34.750076],[135.171661,34.747819],[135.168915,34.748383],[135.167542,34.747819],[135.169601,34.74669],[135.170288,34.744434],[135.166168,34.742177],[135.169601,34.741612],[135.171661,34.738791],[135.172348,34.736534],[135.168228,34.734277],[135.167542,34.732584],[135.169601,34.731456],[135.168915,34.730327],[135.164795,34.729198],[135.164108,34.727505],[135.161362,34.727505],[135.159988,34.725248],[135.158615,34.725248],[135.158615,34.719604],[135.159988,34.719604],[135.157928,34.717911],[135.156555,34.720169],[135.157242,34.721297],[135.155869,34.721862],[135.150375,34.719604],[135.148315,34.720733],[135.143509,34.71904],[135.141449,34.721297],[135.135269,34.724119],[135.132523,34.722426],[135.126343,34.721862],[135.121536,34.716782],[135.119476,34.717347],[135.119476,34.716218],[135.118103,34.716782],[135.117416,34.720733],[135.11879,34.720733],[135.11879,34.722991],[135.118103,34.724119],[135.120163,34.724684],[135.120163,34.726377],[135.127029,34.726377],[135.131836,34.731456],[135.129776,34.736534],[135.127716,34.738791],[135.128403,34.73992],[135.140762,34.743305],[135.141449,34.744998],[135.140076,34.746126],[135.138016,34.744998],[135.138016,34.743305],[135.135269,34.745562],[135.136642,34.750076],[135.139389,34.749511],[135.140076,34.75064],[135.139389,34.754025],[135.141449,34.758538],[135.140762,34.761923],[135.144196,34.762487],[135.143509,34.764179],[135.146255,34.765307]]],[[[135.157242,34.717911],[135.159302,34.716782],[135.157928,34.715089],[135.160675,34.70888],[135.159988,34.707187],[135.155182,34.706058],[135.150375,34.702671],[135.148315,34.699848],[135.144196,34.699848],[135.142822,34.696461],[135.141449,34.695897],[135.141449,34.697026],[135.140762,34.697026],[135.137329,34.694203],[135.132523,34.694768],[135.127029,34.69138],[135.124969,34.689122],[135.125656,34.687993],[135.123596,34.686299],[135.122223,34.687993],[135.119476,34.688557],[135.118103,34.69138],[135.119476,34.691945],[135.117416,34.695332],[135.115356,34.694203],[135.113297,34.695897],[135.111237,34.699848],[135.11261,34.700413],[135.111923,34.701542],[135.107117,34.7038],[135.109177,34.705493],[135.10849,34.708316],[135.109863,34.708316],[135.109177,34.709445],[135.11055,34.711138],[135.10849,34.711703],[135.10849,34.714525],[135.107803,34.711703],[135.10849,34.711138],[135.10849,34.710009],[135.107117,34.707751],[135.107117,34.707187],[135.10437,34.707751],[135.105743,34.712267],[135.105057,34.712267],[135.105743,34.71396],[135.105057,34.720733],[135.107117,34.719604],[135.107803,34.717911],[135.11055,34.717911],[135.113297,34.716218],[135.116043,34.717911],[135.119476,34.716218],[135.119476,34.717347],[135.121536,34.716782],[135.126343,34.721862],[135.132523,34.722426],[135.135269,34.724119],[135.141449,34.721297],[135.143509,34.71904],[135.148315,34.720733],[135.150375,34.719604],[135.155869,34.721862],[135.157242,34.721297],[135.156555,34.720169],[135.157242,34.717911]]]]}},{"type":"Feature","properties":{"layer_id":"bakumatsu_villages","name":"道場河原村","address":"摂津 有馬郡","source":"Geoshape 幕末期近世村領域データセット vector tiles (z7 extraction)","subarea_name":"近世村のおおよその範囲","feature_key":"village:K35G12S00047","accuracy_note":"2015年農業集落境界をもとに復元した概略範囲で、江戸時代の正確な村境ではありません"},"geometry":{"type":"Polygon","coordinates":[[[135.227966,34.866778],[135.230026,34.865088],[135.230713,34.862271],[135.22934,34.862271],[135.227966,34.865088],[135.226593,34.864525],[135.226593,34.865088],[135.227966,34.866778]]]}},{"type":"Feature","properties":{"layer_id":"bakumatsu_villages","name":"野寄村・田辺村・岡本村・田中村・小路村・北畑村・中野村・森村","address":"摂津 菟原郡","source":"Geoshape 幕末期近世村領域データセット vector tiles (z7 extraction)","subarea_name":"近世村のおおよその範囲","feature_key":"village:K35G09S00035,K35G09S00036,K35G09S00037,K35G09S00038,K35G09S00039,K35G09S00040,K35G09S00041,K35G09S00043","accuracy_note":"2015年農業集落境界をもとに復元した概略範囲で、江戸時代の正確な村境ではありません"},"geometry":{"type":"Polygon","coordinates":[[[135.266418,34.780536],[135.271912,34.76982],[135.280151,34.76023],[135.280838,34.753461],[135.280151,34.751768],[135.287018,34.748383],[135.289078,34.744998],[135.284271,34.744434],[135.288391,34.741048],[135.289764,34.741048],[135.290451,34.738791],[135.292511,34.737098],[135.292511,34.733713],[135.293198,34.733713],[135.294571,34.731456],[135.295944,34.731456],[135.295944,34.730327],[135.287704,34.726941],[135.289078,34.723555],[135.276718,34.719604],[135.276031,34.721297],[135.270538,34.719604],[135.266418,34.719604],[135.258179,34.730891],[135.259552,34.735406],[135.258179,34.737663],[135.259552,34.740484],[135.258179,34.746126],[135.261612,34.751768],[135.259552,34.754025],[135.260239,34.755153],[135.258179,34.757974],[135.258179,34.759102],[135.256119,34.76023],[135.254745,34.763051],[135.253372,34.763051],[135.259552,34.767563],[135.256119,34.771512],[135.260239,34.773768],[135.260925,34.77546],[135.262299,34.77546],[135.263672,34.777152],[135.263672,34.77828],[135.265045,34.77828],[135.266418,34.780536]]]}},{"type":"Feature","properties":{"layer_id":"bakumatsu_villages","name":"野瀬村","address":"播磨 美嚢郡","source":"Geoshape 幕末期近世村領域データセット vector tiles (z7 extraction)","subarea_name":"近世村のおおよその範囲","feature_key":"village:K37G01S00114","accuracy_note":"2015年農業集落境界をもとに復元した概略範囲で、江戸時代の正確な村境ではありません"},"geometry":{"type":"MultiPolygon","coordinates":[[[[135.156555,34.825077],[135.168915,34.822259],[135.166855,34.821132],[135.167542,34.820568],[135.165482,34.819441],[135.164108,34.820004],[135.159988,34.822259],[135.157242,34.820568],[135.155869,34.821695],[135.151749,34.820568],[135.150375,34.818313],[135.148315,34.818313],[135.146255,34.819441],[135.143509,34.820004],[135.144196,34.822259],[135.142136,34.824514],[135.146942,34.825077],[135.149002,34.823386],[135.151062,34.824514],[135.156555,34.825077]]],[[[135.11055,34.798017],[135.11055,34.799709],[135.116043,34.800272],[135.117416,34.799145],[135.120163,34.798017],[135.121536,34.799145],[135.12291,34.802528],[135.125656,34.803091],[135.129089,34.806474],[135.134583,34.804783],[135.133209,34.803655],[135.138016,34.800272],[135.142136,34.801964],[135.141449,34.803091],[135.143509,34.803655],[135.142822,34.805347],[135.144196,34.805911],[135.147629,34.804219],[135.147629,34.806474],[135.144196,34.808729],[135.143509,34.812112],[135.142822,34.819441],[135.144196,34.820004],[135.147629,34.818313],[135.150375,34.818313],[135.153122,34.821132],[135.155869,34.821695],[135.157242,34.820568],[135.159988,34.822259],[135.159302,34.814931],[135.161362,34.811548],[135.161362,34.810421],[135.163422,34.809857],[135.164108,34.808166],[135.162735,34.807038],[135.165482,34.804219],[135.166168,34.800272],[135.170975,34.795762],[135.170288,34.79407],[135.163422,34.792378],[135.159988,34.790687],[135.149689,34.792378],[135.140762,34.79125],[135.137329,34.791814],[135.138016,34.794634],[135.127716,34.799145],[135.124969,34.797453],[135.123596,34.795198],[135.11261,34.796889],[135.11055,34.798017]]],[[[135.11055,34.798017],[135.107803,34.795198],[135.105743,34.794634],[135.105743,34.792942],[135.10231,34.789559],[135.097504,34.788431],[135.097504,34.781664],[135.096817,34.778844],[135.09407,34.778844],[135.092697,34.782228],[135.09201,34.785611],[135.095444,34.786739],[135.093384,34.790123],[135.09407,34.79125],[135.097504,34.791814],[135.097504,34.792942],[135.10643,34.796325],[135.10849,34.798017],[135.11055,34.798017]]]]}},{"type":"Feature","properties":{"layer_id":"civil_engineering_heritage","name":"金慶橋","address":"神戸市北区","source":"土木学会 選奨土木遺産","subarea_name":"戦後の有料道路に架設された道路橋であり、構造用強度材としてアルミニウム合金が使用された貴重な土木遺産である。","feature_key":"civil:363:金慶橋","source_url":"https://committees.jsce.or.jp/heritage/node/978","accuracy_note":"公式地図の位置を優先して収録しています"},"geometry":{"type":"Point","coordinates":[135.25898,34.796289]}},{"type":"Feature","properties":{"layer_id":"historical_sites_archaeology","name":"上小名田遺跡","address":"兵庫県 神戸市北区 八多町上小名田","source":"Geoshape 日本歴史地名大系 施設・地点項目データセット 2025-05-15","subarea_name":"遺跡","feature_key":"08_archaeological_sites.geojson:290000031300","subtype":"遺跡"},"geometry":{"type":"Point","coordinates":[135.207221,34.835448]}},{"type":"Feature","properties":{"layer_id":"historical_sites_archaeology","name":"二郎宮ノ前遺跡","address":"兵庫県 神戸市北区 有野町二郎","source":"Geoshape 日本歴史地名大系 施設・地点項目データセット 2025-05-15","subarea_name":"遺跡","feature_key":"08_archaeological_sites.geojson:290000027000","subtype":"遺跡"},"geometry":{"type":"Point","coordinates":[135.22699,34.849047]}},{"type":"Feature","properties":{"layer_id":"historical_sites_archaeology","name":"宅原遺跡","address":"兵庫県 神戸市北区 長尾町宅原","source":"Geoshape 日本歴史地名大系 施設・地点項目データセット 2025-05-15","subarea_name":"遺跡","feature_key":"08_archaeological_sites.geojson:290000029100","subtype":"遺跡"},"geometry":{"type":"Point","coordinates":[135.223335,34.874022]}},{"type":"Feature","properties":{"layer_id":"historical_sites_archaeology","name":"有野城跡","address":"兵庫県 神戸市北区 藤原台北町一丁目","source":"Geoshape 日本歴史地名大系 施設・地点項目データセット 2025-05-15","subarea_name":"城跡","feature_key":"05_castle_ruins.geojson:290000026100","subtype":"城跡"},"geometry":{"type":"Point","coordinates":[135.222601,34.82544]}},{"type":"Feature","properties":{"layer_id":"historical_sites_archaeology","name":"有馬城跡","address":"兵庫県 神戸市北区 有野町唐櫃","source":"Geoshape 日本歴史地名大系 施設・地点項目データセット 2025-05-15","subarea_name":"城跡","feature_key":"05_castle_ruins.geojson:290000028100","subtype":"城跡"},"geometry":{"type":"Point","coordinates":[135.219673,34.780349]}},{"type":"Feature","properties":{"layer_id":"historical_sites_archaeology","name":"松原城跡","address":"兵庫県 神戸市北区 道場町日下部","source":"Geoshape 日本歴史地名大系 施設・地点項目データセット 2025-05-15","subarea_name":"城跡","feature_key":"05_castle_ruins.geojson:290000028600","subtype":"城跡"},"geometry":{"type":"Point","coordinates":[135.227574,34.866674]}},{"type":"Feature","properties":{"layer_id":"historical_sites_archaeology","name":"淡河城跡","address":"兵庫県 神戸市北区 淡河町淡河","source":"Geoshape 日本歴史地名大系 施設・地点項目データセット 2025-05-15","subarea_name":"城跡","feature_key":"05_castle_ruins.geojson:290000032100","subtype":"城跡"},"geometry":{"type":"Point","coordinates":[135.096605,34.812539]}},{"type":"Feature","properties":{"layer_id":"historical_temples_shrines","name":"丹生寺跡","address":"兵庫県 神戸市北区 山田町坂本","source":"Geoshape 日本歴史地名大系 施設・地点項目データセット 2025-05-15","subarea_name":"廃寺・廃社","feature_key":"03_abandoned_temples_shrines.geojson:290000024600","subtype":"廃寺・廃社"},"geometry":{"type":"Point","coordinates":[135.116717,34.785513]}},{"type":"Feature","properties":{"layer_id":"historical_temples_shrines","name":"八幡神社","address":"兵庫県 神戸市 北区山田町中字宮ノ片山田町中57番地","source":"Geoshape 日本歴史地名大系 施設・地点項目データセット 2025-05-15","subarea_name":"神社","feature_key":"02_shrines.geojson:290000025100","subtype":"神社"},"geometry":{"type":"Point","coordinates":[135.128405,34.757778]}},{"type":"Feature","properties":{"layer_id":"historical_temples_shrines","name":"八幡神社","address":"兵庫県 神戸市 北区淡河町勝雄35番地","source":"Geoshape 日本歴史地名大系 施設・地点項目データセット 2025-05-15","subarea_name":"神社","feature_key":"02_shrines.geojson:290000258400","subtype":"神社"},"geometry":{"type":"Point","coordinates":[135.088379,34.811974]}},{"type":"Feature","properties":{"layer_id":"historical_temples_shrines","name":"善福寺","address":"兵庫県 神戸市 北区有馬町1645番地","source":"Geoshape 日本歴史地名大系 施設・地点項目データセット 2025-05-15","subarea_name":"寺院","feature_key":"01_temples.geojson:290000028000","subtype":"寺院"},"geometry":{"type":"Point","coordinates":[135.244949,34.798347]}},{"type":"Feature","properties":{"layer_id":"historical_temples_shrines","name":"天満神社","address":"兵庫県 神戸市 北区大沢町簾292番地","source":"Geoshape 日本歴史地名大系 施設・地点項目データセット 2025-05-15","subarea_name":"神社","feature_key":"02_shrines.geojson:290000103100","subtype":"神社"},"geometry":{"type":"Point","coordinates":[135.159348,34.869514]}},{"type":"Feature","properties":{"layer_id":"historical_temples_shrines","name":"天満神社","address":"兵庫県 神戸市 北区大沢町簾292番地","source":"Geoshape 日本歴史地名大系 施設・地点項目データセット 2025-05-15","subarea_name":"神社","feature_key":"02_shrines.geojson:290000456700","subtype":"神社"},"geometry":{"type":"Point","coordinates":[135.159348,34.869514]}},{"type":"Feature","properties":{"layer_id":"historical_temples_shrines","name":"有間神社","address":"兵庫県 神戸市 北区有野町有野4435番地","source":"Geoshape 日本歴史地名大系 施設・地点項目データセット 2025-05-15","subarea_name":"神社","feature_key":"02_shrines.geojson:290000026700","subtype":"神社"},"geometry":{"type":"Point","coordinates":[135.217896,34.814148]}},{"type":"Feature","properties":{"layer_id":"historical_temples_shrines","name":"温泉寺","address":"兵庫県 神戸市 北区有馬町1639番地","source":"Geoshape 日本歴史地名大系 施設・地点項目データセット 2025-05-15","subarea_name":"寺院","feature_key":"01_temples.geojson:290000027800","subtype":"寺院"},"geometry":{"type":"Point","coordinates":[135.247742,34.794292]}},{"type":"Feature","properties":{"layer_id":"historical_temples_shrines","name":"湯泉神社","address":"兵庫県 神戸市 北区有馬町1908番地","source":"Geoshape 日本歴史地名大系 施設・地点項目データセット 2025-05-15","subarea_name":"神社","feature_key":"02_shrines.geojson:290000027900","subtype":"神社"},"geometry":{"type":"Point","coordinates":[135.248657,34.795578]}},{"type":"Feature","properties":{"layer_id":"historical_temples_shrines","name":"石峯寺","address":"兵庫県 神戸市 北区淡河町神影110番地","source":"Geoshape 日本歴史地名大系 施設・地点項目データセット 2025-05-15","subarea_name":"寺院","feature_key":"01_temples.geojson:290000033200","subtype":"寺院"},"geometry":{"type":"Point","coordinates":[135.137222,34.831394]}},{"type":"Feature","properties":{"layer_id":"historical_temples_shrines","name":"若王子神社","address":"兵庫県 神戸市 北区山田町福地字新地101番地","source":"Geoshape 日本歴史地名大系 施設・地点項目データセット 2025-05-15","subarea_name":"神社","feature_key":"02_shrines.geojson:290000025300","subtype":"神社"},"geometry":{"type":"Point","coordinates":[135.13658,34.771021]}},{"type":"Feature","properties":{"layer_id":"historical_temples_shrines","name":"豊歳神社","address":"兵庫県 神戸市 北区大沢町市原字月方631番地","source":"Geoshape 日本歴史地名大系 施設・地点項目データセット 2025-05-15","subarea_name":"神社","feature_key":"02_shrines.geojson:290000029900","subtype":"神社"},"geometry":{"type":"Point","coordinates":[135.169838,34.870637]}}]}