{"type":"FeatureCollection","municipality_code":"30205","pref":"和歌山県","city":"御坊市","layer_counts":{"bakumatsu_villages":19,"civil_engineering_heritage":1,"edo_post_stations":1,"edo_roads":1,"historical_sites_archaeology":19,"historical_temples_shrines":9},"total_features":50,"features":[{"type":"Feature","properties":{"layer_id":"bakumatsu_villages","name":"上富安村","address":"紀伊 日高郡","source":"Geoshape 幕末期近世村領域データセット vector tiles (z7 extraction)","subarea_name":"近世村のおおよその範囲","feature_key":"village:K33G06S00009","accuracy_note":"2015年農業集落境界をもとに復元した概略範囲で、江戸時代の正確な村境ではありません"},"geometry":{"type":"Polygon","coordinates":[[[135.173721,33.953043],[135.175095,33.951334],[135.176468,33.947347],[135.174408,33.94336],[135.175095,33.939942],[135.171661,33.938233],[135.168228,33.934815],[135.168915,33.929118],[135.168228,33.927978],[135.166855,33.928548],[135.165482,33.92399],[135.159302,33.92399],[135.158615,33.926269],[135.159302,33.932536],[135.155869,33.936524],[135.156555,33.941651],[135.159988,33.945638],[135.160675,33.950195],[135.166168,33.950195],[135.173721,33.953043]]]}},{"type":"Feature","properties":{"layer_id":"bakumatsu_villages","name":"上野村","address":"紀伊 日高郡","source":"Geoshape 幕末期近世村領域データセット vector tiles (z7 extraction)","subarea_name":"近世村のおおよその範囲","feature_key":"village:K33G06S00110","accuracy_note":"2015年農業集落境界をもとに復元した概略範囲で、江戸時代の正確な村境ではありません"},"geometry":{"type":"Polygon","coordinates":[[[135.192261,33.855021],[135.196381,33.85388],[135.199814,33.85388],[135.199814,33.851599],[135.20256,33.851029],[135.203247,33.845327],[135.201874,33.844186],[135.201874,33.842475],[135.199127,33.843045],[135.197067,33.840764],[135.198441,33.837342],[135.195694,33.836201],[135.194321,33.832209],[135.192261,33.830498],[135.192947,33.826505],[135.184021,33.825934],[135.184708,33.827646],[135.182648,33.827646],[135.182648,33.828216],[135.179214,33.828787],[135.175781,33.831068],[135.179901,33.83335],[135.179901,33.835631],[135.180588,33.837342],[135.181274,33.841905],[135.187454,33.844756],[135.190201,33.847608],[135.192261,33.855021]]]}},{"type":"Feature","properties":{"layer_id":"bakumatsu_villages","name":"下富安村","address":"紀伊 日高郡","source":"Geoshape 幕末期近世村領域データセット vector tiles (z7 extraction)","subarea_name":"近世村のおおよその範囲","feature_key":"village:K33G06S00010","accuracy_note":"2015年農業集落境界をもとに復元した概略範囲で、江戸時代の正確な村境ではありません"},"geometry":{"type":"MultiPolygon","coordinates":[[[[135.151062,33.918862],[135.152435,33.919432],[135.156555,33.919432],[135.157928,33.920572],[135.158615,33.917723],[135.157242,33.912594],[135.154495,33.911454],[135.154495,33.916013],[135.146942,33.913734],[135.142136,33.913734],[135.140762,33.914873],[135.146942,33.916583],[135.148315,33.918862],[135.151062,33.918862]]],[[[135.165482,33.92399],[135.166168,33.919432],[135.165482,33.916583],[135.167542,33.912024],[135.164795,33.910885],[135.165482,33.909175],[135.163422,33.909175],[135.161362,33.910315],[135.158615,33.910315],[135.158615,33.912594],[135.157242,33.912594],[135.158615,33.917723],[135.157928,33.920572],[135.159302,33.92399],[135.165482,33.92399]]]]}},{"type":"Feature","properties":{"layer_id":"bakumatsu_villages","name":"丸山村","address":"紀伊 日高郡","source":"Geoshape 幕末期近世村領域データセット vector tiles (z7 extraction)","subarea_name":"近世村のおおよその範囲","feature_key":"village:K33G06S00012","accuracy_note":"2015年農業集落境界をもとに復元した概略範囲で、江戸時代の正確な村境ではありません"},"geometry":{"type":"Polygon","coordinates":[[[135.154495,33.916013],[135.154495,33.911454],[135.158615,33.912594],[135.158615,33.910315],[135.154495,33.908605],[135.154495,33.906896],[135.149002,33.905756],[135.146942,33.906896],[135.143509,33.906896],[135.144196,33.909745],[135.142136,33.913734],[135.151062,33.914304],[135.154495,33.916013]]]}},{"type":"Feature","properties":{"layer_id":"bakumatsu_villages","name":"北塩屋浦","address":"紀伊 日高郡","source":"Geoshape 幕末期近世村領域データセット vector tiles (z7 extraction)","subarea_name":"近世村のおおよその範囲","feature_key":"village:K33G06S00107","accuracy_note":"2015年農業集落境界をもとに復元した概略範囲で、江戸時代の正確な村境ではありません"},"geometry":{"type":"MultiPolygon","coordinates":[[[[135.153122,33.875546],[135.153809,33.876687],[135.157928,33.875546],[135.159988,33.876687],[135.164108,33.877257],[135.166855,33.875546],[135.169601,33.869845],[135.171661,33.869275],[135.170288,33.867565],[135.165482,33.867565],[135.162735,33.869845],[135.157928,33.868705],[135.157928,33.870416],[135.156555,33.869845],[135.156555,33.871556],[135.153122,33.875546]]],[[[135.162735,33.885237],[135.165482,33.883527],[135.164795,33.882957],[135.168228,33.882957],[135.169601,33.881817],[135.170288,33.883527],[135.177155,33.882387],[135.178528,33.881817],[135.178528,33.877257],[135.177155,33.876687],[135.168915,33.875546],[135.166855,33.875546],[135.164108,33.877257],[135.159988,33.876687],[135.157928,33.875546],[135.153809,33.876687],[135.159302,33.881247],[135.162735,33.885237]]],[[[135.180588,33.881817],[135.181274,33.880107],[135.183334,33.881247],[135.184708,33.877257],[135.186081,33.877827],[135.187454,33.878967],[135.189514,33.877827],[135.195007,33.877827],[135.199127,33.880677],[135.199127,33.873836],[135.196381,33.873836],[135.195007,33.875546],[135.193634,33.875546],[135.189514,33.868135],[135.187454,33.870416],[135.186768,33.869845],[135.186768,33.870416],[135.181961,33.869845],[135.177841,33.870986],[135.175781,33.869275],[135.173035,33.868705],[135.172348,33.866995],[135.169601,33.867565],[135.171661,33.869275],[135.169601,33.869845],[135.166855,33.875546],[135.177155,33.876687],[135.178528,33.877257],[135.178528,33.881817],[135.180588,33.881817]]]]}},{"type":"Feature","properties":{"layer_id":"bakumatsu_villages","name":"南塩屋浦","address":"紀伊 日高郡","source":"Geoshape 幕末期近世村領域データセット vector tiles (z7 extraction)","subarea_name":"近世村のおおよその範囲","feature_key":"village:K33G06S00108","accuracy_note":"2015年農業集落境界をもとに復元した概略範囲で、江戸時代の正確な村境ではありません"},"geometry":{"type":"MultiPolygon","coordinates":[[[[135.159302,33.862433],[135.158615,33.864144],[135.157242,33.864144],[135.157242,33.863574],[135.154495,33.863574],[135.153122,33.865284],[135.158615,33.867565],[135.157928,33.868705],[135.162735,33.869845],[135.165482,33.867565],[135.166855,33.868135],[135.169601,33.867565],[135.170975,33.866995],[135.173035,33.868135],[135.173035,33.865854],[135.170288,33.864714],[135.170975,33.863574],[135.176468,33.859583],[135.173035,33.857872],[135.170288,33.857872],[135.165482,33.856732],[135.159988,33.859012],[135.158615,33.859012],[135.158615,33.860153],[135.159988,33.860153],[135.159302,33.861863],[135.159302,33.862433]]],[[[135.142822,33.863574],[135.146255,33.860723],[135.155182,33.862433],[135.155869,33.859583],[135.154495,33.858442],[135.147629,33.857302],[135.146255,33.857872],[135.145569,33.860723],[135.142822,33.863574]]],[[[135.178528,33.870986],[135.179901,33.868135],[135.186081,33.866425],[135.184021,33.858442],[135.181961,33.857872],[135.178528,33.859583],[135.175095,33.860153],[135.170288,33.864714],[135.173035,33.865854],[135.173035,33.868705],[135.175095,33.868705],[135.178528,33.870986]]]]}},{"type":"Feature","properties":{"layer_id":"bakumatsu_villages","name":"吉田村","address":"紀伊 日高郡","source":"Geoshape 幕末期近世村領域データセット vector tiles (z7 extraction)","subarea_name":"近世村のおおよその範囲","feature_key":"village:K33G06S00019","accuracy_note":"2015年農業集落境界をもとに復元した概略範囲で、江戸時代の正確な村境ではありません"},"geometry":{"type":"MultiPolygon","coordinates":[[[[135.175095,33.939942],[135.177155,33.933676],[135.170975,33.928548],[135.171661,33.92399],[135.174408,33.921711],[135.172348,33.919432],[135.172348,33.913734],[135.167542,33.912024],[135.165482,33.916583],[135.166168,33.919432],[135.164795,33.92342],[135.165482,33.925699],[135.166855,33.926269],[135.166855,33.928548],[135.168228,33.927978],[135.168915,33.929118],[135.168228,33.934815],[135.171661,33.938233],[135.175095,33.939942]]],[[[135.172348,33.913734],[135.173721,33.910315],[135.172348,33.904046],[135.175781,33.902906],[135.173035,33.897777],[135.168228,33.899487],[135.168915,33.900057],[135.167542,33.902336],[135.164108,33.901766],[135.164108,33.902906],[135.164795,33.905186],[135.163422,33.906896],[135.163422,33.909175],[135.165482,33.909175],[135.164795,33.910885],[135.172348,33.913734]]]]}},{"type":"Feature","properties":{"layer_id":"bakumatsu_villages","name":"名屋浦","address":"紀伊 日高郡","source":"Geoshape 幕末期近世村領域データセット vector tiles (z7 extraction)","subarea_name":"近世村のおおよその範囲","feature_key":"village:K33G06S00106","accuracy_note":"2015年農業集落境界をもとに復元した概略範囲で、江戸時代の正確な村境ではありません"},"geometry":{"type":"Polygon","coordinates":[[[135.153809,33.887517],[135.157242,33.886377],[135.159302,33.881247],[135.153809,33.877257],[135.153809,33.881247],[135.151749,33.886947],[135.153809,33.887517]]]}},{"type":"Feature","properties":{"layer_id":"bakumatsu_villages","name":"小松原村","address":"紀伊 日高郡","source":"Geoshape 幕末期近世村領域データセット vector tiles (z7 extraction)","subarea_name":"近世村のおおよその範囲","feature_key":"village:K33G06S00011","accuracy_note":"2015年農業集落境界をもとに復元した概略範囲で、江戸時代の正確な村境ではありません"},"geometry":{"type":"MultiPolygon","coordinates":[[[[135.146942,33.906896],[135.149002,33.905756],[135.151062,33.906326],[135.151749,33.904616],[135.146255,33.902906],[135.146255,33.901766],[135.144882,33.901766],[135.144196,33.903476],[135.145569,33.903476],[135.145569,33.904616],[135.144196,33.904616],[135.143509,33.906896],[135.146942,33.906896]]],[[[135.162735,33.910315],[135.163422,33.906896],[135.164795,33.906326],[135.163422,33.903476],[135.164108,33.901766],[135.159988,33.901197],[135.158615,33.901766],[135.159988,33.902336],[135.158615,33.902336],[135.158615,33.905186],[135.156555,33.904616],[135.155869,33.905756],[135.151749,33.904616],[135.151062,33.906326],[135.154495,33.906896],[135.154495,33.908605],[135.158615,33.910315],[135.162735,33.910315]]]]}},{"type":"Feature","properties":{"layer_id":"bakumatsu_villages","name":"岩内村","address":"紀伊 日高郡","source":"Geoshape 幕末期近世村領域データセット vector tiles (z7 extraction)","subarea_name":"近世村のおおよその範囲","feature_key":"village:K33G06S00021","accuracy_note":"2015年農業集落境界をもとに復元した概略範囲で、江戸時代の正確な村境ではありません"},"geometry":{"type":"Polygon","coordinates":[[[135.177841,33.895497],[135.182648,33.894927],[135.179901,33.892647],[135.175781,33.890937],[135.175781,33.888658],[135.175095,33.887517],[135.176468,33.882387],[135.170288,33.883527],[135.169601,33.881817],[135.168228,33.882957],[135.164795,33.882957],[135.165482,33.883527],[135.162735,33.885237],[135.170288,33.893787],[135.174408,33.892647],[135.175095,33.894357],[135.177841,33.894357],[135.177841,33.895497]]]}},{"type":"Feature","properties":{"layer_id":"bakumatsu_villages","name":"島村","address":"紀伊 日高郡","source":"Geoshape 幕末期近世村領域データセット vector tiles (z7 extraction)","subarea_name":"近世村のおおよその範囲","feature_key":"village:K33G06S00014","accuracy_note":"2015年農業集落境界をもとに復元した概略範囲で、江戸時代の正確な村境ではありません"},"geometry":{"type":"MultiPolygon","coordinates":[[[[135.159988,33.899487],[135.160675,33.895497],[135.158615,33.890937],[135.157928,33.890367],[135.155869,33.895497],[135.157242,33.898347],[135.159988,33.899487]]],[[[135.159988,33.893217],[135.162048,33.889227],[135.159302,33.888658],[135.158615,33.890937],[135.159988,33.893217]]],[[[135.168228,33.899487],[135.173035,33.897777],[135.166168,33.889227],[135.162048,33.889227],[135.159988,33.893217],[135.160675,33.896067],[135.159988,33.898347],[135.162048,33.897777],[135.164108,33.899487],[135.168228,33.899487]]]]}},{"type":"Feature","properties":{"layer_id":"bakumatsu_villages","name":"御坊村","address":"紀伊 日高郡","source":"Geoshape 幕末期近世村領域データセット vector tiles (z7 extraction)","subarea_name":"近世村のおおよその範囲","feature_key":"village:K33G06S00018","accuracy_note":"2015年農業集落境界をもとに復元した概略範囲で、江戸時代の正確な村境ではありません"},"geometry":{"type":"Polygon","coordinates":[[[135.158615,33.890937],[135.159302,33.888658],[135.156555,33.886377],[135.153809,33.887517],[135.153809,33.889227],[135.158615,33.890937]]]}},{"type":"Feature","properties":{"layer_id":"bakumatsu_villages","name":"明神川村","address":"紀伊 日高郡","source":"Geoshape 幕末期近世村領域データセット vector tiles (z7 extraction)","subarea_name":"近世村のおおよその範囲","feature_key":"village:K33G06S00080","accuracy_note":"2015年農業集落境界をもとに復元した概略範囲で、江戸時代の正確な村境ではありません"},"geometry":{"type":"MultiPolygon","coordinates":[[[[135.199127,33.877827],[135.2005,33.873836],[135.20874,33.873266],[135.210114,33.874406],[135.213547,33.873266],[135.214233,33.870416],[135.215607,33.869275],[135.214233,33.865284],[135.209427,33.864714],[135.205307,33.865854],[135.203934,33.867565],[135.197067,33.868705],[135.195007,33.866995],[135.192261,33.868705],[135.190887,33.868135],[135.190887,33.866425],[135.190201,33.866995],[135.189514,33.868135],[135.193634,33.874976],[135.195007,33.876117],[135.196381,33.873836],[135.199127,33.873836],[135.198441,33.876687],[135.199127,33.877827]]],[[[135.195007,33.866995],[135.196381,33.868705],[135.198441,33.868135],[135.199814,33.868705],[135.209427,33.864714],[135.214233,33.865284],[135.219727,33.864144],[135.221786,33.860723],[135.214233,33.860153],[135.210114,33.860723],[135.20874,33.861863],[135.205994,33.862433],[135.20256,33.865284],[135.195007,33.865854],[135.195007,33.866995]]]]}},{"type":"Feature","properties":{"layer_id":"bakumatsu_villages","name":"東財部村・財部村","address":"紀伊 日高郡","source":"Geoshape 幕末期近世村領域データセット vector tiles (z7 extraction)","subarea_name":"近世村のおおよその範囲","feature_key":"village:K33G06S00013,K33G06S00117","accuracy_note":"2015年農業集落境界をもとに復元した概略範囲で、江戸時代の正確な村境ではありません"},"geometry":{"type":"MultiPolygon","coordinates":[[[[135.149689,33.904046],[135.149002,33.902906],[135.149002,33.899487],[135.151062,33.900057],[135.151749,33.897207],[135.148315,33.896067],[135.146942,33.896067],[135.146255,33.897207],[135.144882,33.901766],[135.146255,33.901766],[135.146255,33.902906],[135.149689,33.904046]]],[[[135.151749,33.904616],[135.153809,33.899487],[135.151062,33.898347],[135.151062,33.900057],[135.149002,33.899487],[135.149002,33.902906],[135.151749,33.904616]]],[[[135.155869,33.905756],[135.156555,33.904616],[135.158615,33.905186],[135.158615,33.902336],[135.159988,33.902336],[135.158615,33.901766],[135.161362,33.901197],[135.159988,33.899487],[135.157242,33.898347],[135.155869,33.895497],[135.155869,33.897207],[135.154495,33.896067],[135.151749,33.896067],[135.151062,33.898347],[135.153809,33.899487],[135.151749,33.904616],[135.155869,33.905756]]],[[[135.164108,33.901766],[135.164795,33.900627],[135.162048,33.897777],[135.159988,33.898347],[135.159988,33.899487],[135.161362,33.901197],[135.164108,33.901766]]],[[[135.167542,33.902336],[135.168915,33.900057],[135.168228,33.898917],[135.164108,33.899487],[135.164108,33.901766],[135.167542,33.902336]]]]}},{"type":"Feature","properties":{"layer_id":"bakumatsu_villages","name":"楠井村","address":"紀伊 日高郡","source":"Geoshape 幕末期近世村領域データセット vector tiles (z7 extraction)","subarea_name":"近世村のおおよその範囲","feature_key":"village:K33G06S00111","accuracy_note":"2015年農業集落境界をもとに復元した概略範囲で、江戸時代の正確な村境ではありません"},"geometry":{"type":"Polygon","coordinates":[[[135.199127,33.843045],[135.201874,33.842475],[135.203247,33.840764],[135.20668,33.840194],[135.208054,33.836201],[135.207367,33.835061],[135.203934,33.83392],[135.201187,33.830498],[135.20256,33.824223],[135.199127,33.813384],[135.192947,33.815666],[135.195007,33.815666],[135.194321,33.816807],[135.193634,33.817378],[135.193634,33.816237],[135.192947,33.817378],[135.186081,33.819089],[135.184021,33.824223],[135.181274,33.825934],[135.184021,33.824794],[135.184021,33.825934],[135.187454,33.826505],[135.192947,33.826505],[135.192261,33.830498],[135.194321,33.832209],[135.195694,33.836201],[135.198441,33.837342],[135.197067,33.840764],[135.199127,33.843045]]]}},{"type":"Feature","properties":{"layer_id":"bakumatsu_villages","name":"熊野村","address":"紀伊 日高郡","source":"Geoshape 幕末期近世村領域データセット vector tiles (z7 extraction)","subarea_name":"近世村のおおよその範囲","feature_key":"village:K33G06S00022","accuracy_note":"2015年農業集落境界をもとに復元した概略範囲で、江戸時代の正確な村境ではありません"},"geometry":{"type":"Polygon","coordinates":[[[135.186768,33.896637],[135.192261,33.894927],[135.197754,33.890937],[135.197067,33.884667],[135.197754,33.882957],[135.199127,33.882387],[135.199127,33.880677],[135.195007,33.877827],[135.189514,33.877827],[135.187454,33.878967],[135.186081,33.877827],[135.184708,33.877257],[135.183334,33.881247],[135.181274,33.880107],[135.180588,33.881817],[135.177155,33.881817],[135.175781,33.883527],[135.175095,33.887517],[135.175781,33.888658],[135.175781,33.890937],[135.186768,33.896637]]]}},{"type":"Feature","properties":{"layer_id":"bakumatsu_villages","name":"薗浦","address":"紀伊 日高郡","source":"Geoshape 幕末期近世村領域データセット vector tiles (z7 extraction)","subarea_name":"近世村のおおよその範囲","feature_key":"village:K33G06S00016","accuracy_note":"2015年農業集落境界をもとに復元した概略範囲で、江戸時代の正確な村境ではありません"},"geometry":{"type":"MultiPolygon","coordinates":[[[[135.151749,33.897207],[135.151749,33.896067],[135.154495,33.896637],[135.156555,33.890367],[135.153809,33.889227],[135.153809,33.887517],[135.151749,33.886947],[135.148315,33.896637],[135.151749,33.897207]]],[[[135.155869,33.897207],[135.155869,33.895497],[135.157928,33.890937],[135.156555,33.890367],[135.154495,33.896637],[135.155182,33.896637],[135.155869,33.897207]]],[[[135.166168,33.889227],[135.162048,33.884667],[135.157242,33.886377],[135.159302,33.888658],[135.166168,33.889227]]],[[[135.157242,33.886377],[135.162048,33.884667],[135.159302,33.881247],[135.157242,33.886377]]]]}},{"type":"Feature","properties":{"layer_id":"bakumatsu_villages","name":"野口村","address":"紀伊 日高郡","source":"Geoshape 幕末期近世村領域データセット vector tiles (z7 extraction)","subarea_name":"近世村のおおよその範囲","feature_key":"village:K33G06S00023","accuracy_note":"2015年農業集落境界をもとに復元した概略範囲で、江戸時代の正確な村境ではありません"},"geometry":{"type":"MultiPolygon","coordinates":[[[[135.182648,33.907465],[135.186081,33.906896],[135.182648,33.900627],[135.175781,33.902906],[135.179214,33.907465],[135.182648,33.907465]]],[[[135.175781,33.902906],[135.187454,33.899487],[135.185394,33.896067],[135.181274,33.894927],[135.177841,33.895497],[135.177841,33.894357],[135.175095,33.894357],[135.174408,33.892647],[135.170288,33.893787],[135.173035,33.897777],[135.175781,33.902906]]],[[[135.186081,33.906896],[135.192261,33.902336],[135.195694,33.895497],[135.198441,33.892647],[135.197754,33.890937],[135.192261,33.894927],[135.186768,33.896637],[135.187454,33.899487],[135.183334,33.901197],[135.186081,33.906896]]]]}},{"type":"Feature","properties":{"layer_id":"bakumatsu_villages","name":"野島村","address":"紀伊 日高郡","source":"Geoshape 幕末期近世村領域データセット vector tiles (z7 extraction)","subarea_name":"近世村のおおよその範囲","feature_key":"village:K33G06S00109","accuracy_note":"2015年農業集落境界をもとに復元した概略範囲で、江戸時代の正確な村境ではありません"},"geometry":{"type":"MultiPolygon","coordinates":[[[[135.179214,33.859583],[135.174408,33.85331],[135.170975,33.851599],[135.170975,33.849318],[135.167542,33.847608],[135.164795,33.850459],[135.165482,33.851599],[135.165482,33.85274],[135.158615,33.859012],[135.159988,33.859012],[135.166168,33.856732],[135.170288,33.857872],[135.173035,33.857872],[135.176468,33.859583],[135.179214,33.859583]]],[[[135.167542,33.843045],[135.167542,33.843616],[135.162048,33.845327],[135.163422,33.847037],[135.167542,33.847608],[135.170975,33.849318],[135.170975,33.851599],[135.174408,33.85331],[135.178528,33.859012],[135.180588,33.859012],[135.181274,33.857872],[135.184021,33.858442],[135.191574,33.856732],[135.192261,33.855021],[135.190201,33.849889],[135.188141,33.849889],[135.185394,33.847608],[135.179901,33.847037],[135.179214,33.844756],[135.174408,33.840194],[135.173035,33.840764],[135.170288,33.841334],[135.168915,33.843045],[135.167542,33.842475],[135.167542,33.843045]]],[[[135.191574,33.851599],[135.189514,33.847037],[135.187454,33.844756],[135.181274,33.841905],[135.180588,33.837342],[135.179901,33.835631],[135.179901,33.83335],[135.175781,33.831068],[135.174408,33.832209],[135.173035,33.837342],[135.173035,33.837912],[135.174408,33.836772],[135.174408,33.837912],[135.175095,33.837912],[135.175095,33.841334],[135.179214,33.844756],[135.179901,33.847037],[135.186081,33.848178],[135.188141,33.849889],[135.190201,33.849889],[135.191574,33.851599]]]]}},{"type":"Feature","properties":{"layer_id":"civil_engineering_heritage","name":"紀州鉄道及び旧御坊臨港鉄道廃線部分","address":"和歌山県御坊市","source":"土木学会 選奨土木遺産","subarea_name":"紀州鉄道及び旧御坊臨港鉄道廃線部分は、開業から92年経過した今も往時の設備も使用して運行されており、廃止路線にも軌条等が残存する貴重な土木遺産です。","feature_key":"civil:404:紀州鉄道及び旧御坊臨港鉄道廃線部分","source_url":"https://committees.jsce.or.jp/heritage/node/1266","accuracy_note":"公式地図の位置を優先して収録しています"},"geometry":{"type":"Point","coordinates":[135.152978,33.886744]}},{"type":"Feature","properties":{"layer_id":"edo_post_stations","name":"御坊","address":"","source":"CODH 江戸宿場データセット Version 1 (2026-08)","subarea_name":"大辺路","feature_key":"post:R611-006"},"geometry":{"coordinates":[135.157999,33.888175],"type":"Point"}},{"type":"Feature","properties":{"layer_id":"edo_roads","name":"大辺路","address":"和歌山 → 熊野","source":"CODH 江戸主要街道データセット Version 4 (2026-08)","subarea_name":"江戸期の主要街道","feature_key":"road:R611"},"geometry":{"type":"LineString","coordinates":[[135.1589,33.92479],[135.16085,33.92429],[135.16148,33.92374],[135.16165,33.92322],[135.16151,33.92251],[135.16192,33.92191],[135.16275,33.92151],[135.16452,33.91962],[135.16493,33.91955],[135.16546,33.91976],[135.16625,33.91866],[135.16603,33.91824],[135.16596,33.91682],[135.16636,33.9167],[135.16817,33.91537],[135.16847,33.91494],[135.16878,33.91494],[135.16909,33.91403],[135.1704,33.91362],[135.17091,33.91312],[135.1695,33.9116],[135.16775,33.9109],[135.16699,33.91034],[135.16378,33.90938],[135.16376,33.90631],[135.16392,33.90605],[135.16381,33.9055],[135.16349,33.90547],[135.16346,33.90498],[135.16389,33.90396],[135.16421,33.90212],[135.16463,33.90197],[135.16522,33.90021],[135.17062,33.90026],[135.17202,33.89978],[135.17135,33.89791],[135.1747,33.89723],[135.17365,33.89479],[135.17419,33.89465],[135.17433,33.89362],[135.17477,33.89362],[135.17495,33.8934],[135.17443,33.89221],[135.17381,33.89183],[135.17203,33.89136],[135.17096,33.89044],[135.17048,33.88962],[135.16989,33.888],[135.16915,33.88685],[135.1689,33.88669],[135.16848,33.88572],[135.16779,33.88507],[135.16614,33.88294],[135.1665,33.88272],[135.1659,33.88197],[135.16633,33.8812],[135.16614,33.88082],[135.1662,33.88041],[135.166,33.87965],[135.16615,33.87916],[135.16644,33.87903],[135.16657,33.87849],[135.1669,33.87845],[135.16766,33.87659],[135.16745,33.87559],[135.16806,33.87315],[135.16646,33.87305],[135.16468,33.87332],[135.16463,33.87297],[135.16378,33.87238],[135.16338,33.87239],[135.16318,33.87259],[135.16275,33.87234],[135.16112,33.87197],[135.16123,33.87109],[135.161,33.87093],[135.161,33.8704],[135.16118,33.86985],[135.16184,33.86944],[135.16188,33.86894],[135.16158,33.86694],[135.16157,33.86444],[135.16195,33.8623],[135.16231,33.86155],[135.16239,33.86037],[135.1627,33.85994],[135.16249,33.85937],[135.16207,33.85924],[135.16197,33.85895],[135.16224,33.85823],[135.1639,33.85685],[135.1642,33.85633],[135.16432,33.85545],[135.16545,33.85466],[135.16621,33.85352],[135.16655,33.85265],[135.1671,33.8522],[135.16732,33.85138],[135.16713,33.84974],[135.1672,33.84889],[135.16745,33.84865],[135.16794,33.84642],[135.16831,33.84571],[135.1687,33.84545],[135.16999,33.84521],[135.1732,33.84101],[135.17527,33.84044],[135.17602,33.83754],[135.1773,33.83581],[135.17812,33.83516],[135.17877,33.83427],[135.17961,33.83268],[135.17978,33.83204],[135.1813,33.83076],[135.18191,33.82938],[135.18275,33.8284],[135.18511,33.82737],[135.1857,33.82684],[135.18661,33.82651],[135.18747,33.82498],[135.18893,33.82337],[135.18988,33.82308],[135.19168,33.82221],[135.1932,33.81923],[135.19379,33.8189],[135.19372,33.8184],[135.19439,33.81772],[135.1951,33.81715],[135.19669,33.8169]]}},{"type":"Feature","properties":{"layer_id":"historical_sites_archaeology","name":"上野王子跡","address":"和歌山県 御坊市 名田町上野","source":"Geoshape 日本歴史地名大系 施設・地点項目データセット 2025-05-15","subarea_name":"史跡","feature_key":"09_historic_sites.geojson:310000231100","subtype":"史跡"},"geometry":{"type":"Point","coordinates":[135.184549,33.827642]}},{"type":"Feature","properties":{"layer_id":"historical_sites_archaeology","name":"九海士王子跡","address":"和歌山県 御坊市 藤田町吉田","source":"Geoshape 日本歴史地名大系 施設・地点項目データセット 2025-05-15","subarea_name":"史跡","feature_key":"09_historic_sites.geojson:310000228600","subtype":"史跡"},"geometry":{"type":"Point","coordinates":[135.168952,33.911432]}},{"type":"Feature","properties":{"layer_id":"historical_sites_archaeology","name":"亀山城跡","address":"和歌山県 御坊市 湯川町丸山","source":"Geoshape 日本歴史地名大系 施設・地点項目データセット 2025-05-15","subarea_name":"城跡","feature_key":"05_castle_ruins.geojson:310000227400","subtype":"城跡"},"geometry":{"type":"Point","coordinates":[135.154661,33.910972]}},{"type":"Feature","properties":{"layer_id":"historical_sites_archaeology","name":"亀山遺跡","address":"和歌山県 御坊市 湯川町丸山","source":"Geoshape 日本歴史地名大系 施設・地点項目データセット 2025-05-15","subarea_name":"遺跡","feature_key":"08_archaeological_sites.geojson:310000227500","subtype":"遺跡"},"geometry":{"type":"Point","coordinates":[135.154661,33.910972]}},{"type":"Feature","properties":{"layer_id":"historical_sites_archaeology","name":"向山古墳群","address":"和歌山県 御坊市 湯川町富安","source":"Geoshape 日本歴史地名大系 施設・地点項目データセット 2025-05-15","subarea_name":"古墳","feature_key":"06_kofun.geojson:310000201600","subtype":"古墳"},"geometry":{"type":"Point","coordinates":[135.153786,33.918661]}},{"type":"Feature","properties":{"layer_id":"historical_sites_archaeology","name":"善童子王子跡","address":"和歌山県 御坊市 湯川町富安","source":"Geoshape 日本歴史地名大系 施設・地点項目データセット 2025-05-15","subarea_name":"史跡","feature_key":"09_historic_sites.geojson:310000228100","subtype":"史跡"},"geometry":{"type":"Point","coordinates":[135.162539,33.920993]}},{"type":"Feature","properties":{"layer_id":"historical_sites_archaeology","name":"堅田遺跡","address":"和歌山県 御坊市 湯川町財部","source":"Geoshape 日本歴史地名大系 施設・地点項目データセット 2025-05-15","subarea_name":"遺跡","feature_key":"08_archaeological_sites.geojson:310000226800","subtype":"遺跡"},"geometry":{"type":"Point","coordinates":[135.155298,33.900012]}},{"type":"Feature","properties":{"layer_id":"historical_sites_archaeology","name":"壁川崎遺跡","address":"和歌山県 御坊市 名田町野島","source":"Geoshape 日本歴史地名大系 施設・地点項目データセット 2025-05-15","subarea_name":"遺跡","feature_key":"08_archaeological_sites.geojson:310000230800","subtype":"遺跡"},"geometry":{"type":"Point","coordinates":[135.172846,33.85114]}},{"type":"Feature","properties":{"layer_id":"historical_sites_archaeology","name":"天田古墳群","address":"和歌山県 御坊市 塩屋町北塩屋","source":"Geoshape 日本歴史地名大系 施設・地点項目データセット 2025-05-15","subarea_name":"古墳","feature_key":"06_kofun.geojson:310000230000","subtype":"古墳"},"geometry":{"type":"Point","coordinates":[135.167175,33.880651]}},{"type":"Feature","properties":{"layer_id":"historical_sites_archaeology","name":"富安I遺跡","address":"和歌山県 御坊市 湯川町富安","source":"Geoshape 日本歴史地名大系 施設・地点項目データセット 2025-05-15","subarea_name":"遺跡","feature_key":"08_archaeological_sites.geojson:310000227800","subtype":"遺跡"},"geometry":{"type":"Point","coordinates":[135.165826,33.930531]}},{"type":"Feature","properties":{"layer_id":"historical_sites_archaeology","name":"小松原伝馬所跡","address":"和歌山県 御坊市 湯川町小松原","source":"Geoshape 日本歴史地名大系 施設・地点項目データセット 2025-05-15","subarea_name":"史跡","feature_key":"09_historic_sites.geojson:310000227000","subtype":"史跡"},"geometry":{"type":"Point","coordinates":[135.150502,33.90454]}},{"type":"Feature","properties":{"layer_id":"historical_sites_archaeology","name":"小松原遺跡","address":"和歌山県 御坊市 湯川町小松原","source":"Geoshape 日本歴史地名大系 施設・地点項目データセット 2025-05-15","subarea_name":"遺跡","feature_key":"08_archaeological_sites.geojson:310000227200","subtype":"遺跡"},"geometry":{"type":"Point","coordinates":[135.150502,33.90454]}},{"type":"Feature","properties":{"layer_id":"historical_sites_archaeology","name":"尾ノ崎遺跡","address":"和歌山県 御坊市 塩屋町南塩屋","source":"Geoshape 日本歴史地名大系 施設・地点項目データセット 2025-05-15","subarea_name":"遺跡","feature_key":"08_archaeological_sites.geojson:310000230300","subtype":"遺跡"},"geometry":{"type":"Point","coordinates":[135.158647,33.859343]}},{"type":"Feature","properties":{"layer_id":"historical_sites_archaeology","name":"岩内古墳群","address":"和歌山県 御坊市 岩内","source":"Geoshape 日本歴史地名大系 施設・地点項目データセット 2025-05-15","subarea_name":"古墳","feature_key":"06_kofun.geojson:310000229200","subtype":"古墳"},"geometry":{"type":"Point","coordinates":[135.170506,33.888033]}},{"type":"Feature","properties":{"layer_id":"historical_sites_archaeology","name":"岩内王子跡","address":"和歌山県 御坊市 岩内","source":"Geoshape 日本歴史地名大系 施設・地点項目データセット 2025-05-15","subarea_name":"史跡","feature_key":"09_historic_sites.geojson:310000229100","subtype":"史跡"},"geometry":{"type":"Point","coordinates":[135.170208,33.888652]}},{"type":"Feature","properties":{"layer_id":"historical_sites_archaeology","name":"愛徳山王子跡","address":"和歌山県 御坊市 藤田町吉田","source":"Geoshape 日本歴史地名大系 施設・地点項目データセット 2025-05-15","subarea_name":"史跡","feature_key":"09_historic_sites.geojson:310000228500","subtype":"史跡"},"geometry":{"type":"Point","coordinates":[135.166868,33.915188]}},{"type":"Feature","properties":{"layer_id":"historical_sites_archaeology","name":"祓井戸古墳群","address":"和歌山県 御坊市 名田町野島","source":"Geoshape 日本歴史地名大系 施設・地点項目データセット 2025-05-15","subarea_name":"古墳","feature_key":"06_kofun.geojson:310000230700","subtype":"古墳"},"geometry":{"type":"Point","coordinates":[135.16477,33.855186]}},{"type":"Feature","properties":{"layer_id":"historical_sites_archaeology","name":"秋葉山古墳群","address":"和歌山県 御坊市 名田町野島","source":"Geoshape 日本歴史地名大系 施設・地点項目データセット 2025-05-15","subarea_name":"古墳","feature_key":"06_kofun.geojson:310000230900","subtype":"古墳"},"geometry":{"type":"Point","coordinates":[135.172846,33.85114]}},{"type":"Feature","properties":{"layer_id":"historical_sites_archaeology","name":"阪東丘古墳群","address":"和歌山県 御坊市 藤田町吉田","source":"Geoshape 日本歴史地名大系 施設・地点項目データセット 2025-05-15","subarea_name":"古墳","feature_key":"06_kofun.geojson:310000228400","subtype":"古墳"},"geometry":{"type":"Point","coordinates":[135.170506,33.910362]}},{"type":"Feature","properties":{"layer_id":"historical_temples_shrines","name":"九品寺","address":"和歌山県 御坊市 湯川町小松原208番地","source":"Geoshape 日本歴史地名大系 施設・地点項目データセット 2025-05-15","subarea_name":"寺院","feature_key":"01_temples.geojson:310000227100","subtype":"寺院"},"geometry":{"type":"Point","coordinates":[135.162857,33.901859]}},{"type":"Feature","properties":{"layer_id":"historical_temples_shrines","name":"善妙寺","address":"和歌山県 御坊市 島123番地","source":"Geoshape 日本歴史地名大系 施設・地点項目データセット 2025-05-15","subarea_name":"寺院","feature_key":"01_temples.geojson:310000226100","subtype":"寺院"},"geometry":{"type":"Point","coordinates":[135.160355,33.894943]}},{"type":"Feature","properties":{"layer_id":"historical_temples_shrines","name":"塩屋王子神社","address":"和歌山県 御坊市 塩屋町北塩屋1144番地","source":"Geoshape 日本歴史地名大系 施設・地点項目データセット 2025-05-15","subarea_name":"神社","feature_key":"02_shrines.geojson:310000229700","subtype":"神社"},"geometry":{"type":"Point","coordinates":[135.161972,33.869862]}},{"type":"Feature","properties":{"layer_id":"historical_temples_shrines","name":"小竹八幡神社","address":"和歌山県 御坊市 薗642番地","source":"Geoshape 日本歴史地名大系 施設・地点項目データセット 2025-05-15","subarea_name":"神社","feature_key":"02_shrines.geojson:310000226500","subtype":"神社"},"geometry":{"type":"Point","coordinates":[135.154221,33.885681]}},{"type":"Feature","properties":{"layer_id":"historical_temples_shrines","name":"本願寺日高別院","address":"和歌山県 御坊市 御坊100番地","source":"Geoshape 日本歴史地名大系 施設・地点項目データセット 2025-05-15","subarea_name":"寺院","feature_key":"01_temples.geojson:310000225900","subtype":"寺院"},"geometry":{"type":"Point","coordinates":[135.157822,33.888325]}},{"type":"Feature","properties":{"layer_id":"historical_temples_shrines","name":"熊野神社","address":"和歌山県 御坊市 熊野987番地","source":"Geoshape 日本歴史地名大系 施設・地点項目データセット 2025-05-15","subarea_name":"神社","feature_key":"02_shrines.geojson:310000229400","subtype":"神社"},"geometry":{"type":"Point","coordinates":[135.180359,33.887512]}},{"type":"Feature","properties":{"layer_id":"historical_temples_shrines","name":"西円寺","address":"和歌山県 御坊市 湯川町富安1913番地1","source":"Geoshape 日本歴史地名大系 施設・地点項目データセット 2025-05-15","subarea_name":"寺院","feature_key":"01_temples.geojson:310000228000","subtype":"寺院"},"geometry":{"type":"Point","coordinates":[135.151794,33.916046]}},{"type":"Feature","properties":{"layer_id":"historical_temples_shrines","name":"須佐神社","address":"和歌山県 御坊市 塩屋町南塩屋1879番地","source":"Geoshape 日本歴史地名大系 施設・地点項目データセット 2025-05-15","subarea_name":"神社","feature_key":"02_shrines.geojson:310000230500","subtype":"神社"},"geometry":{"type":"Point","coordinates":[135.178925,33.868721]}},{"type":"Feature","properties":{"layer_id":"historical_temples_shrines","name":"鳳生寺","address":"和歌山県 御坊市 湯川町富安2133番地","source":"Geoshape 日本歴史地名大系 施設・地点項目データセット 2025-05-15","subarea_name":"寺院","feature_key":"01_temples.geojson:310000227900","subtype":"寺院"},"geometry":{"type":"Point","coordinates":[135.160492,33.915451]}}]}