{"type":"FeatureCollection","municipality_code":"32526","pref":"島根県","city":"西ノ島町","layer_counts":{"bakumatsu_villages":4,"historical_sites_archaeology":2,"historical_temples_shrines":2},"total_features":8,"features":[{"type":"Feature","properties":{"layer_id":"bakumatsu_villages","name":"別府村","address":"隠岐 知夫郡","source":"Geoshape 幕末期近世村領域データセット vector tiles (z7 extraction)","subarea_name":"近世村のおおよその範囲","feature_key":"village:K49G02S00004","accuracy_note":"2015年農業集落境界をもとに復元した概略範囲で、江戸時代の正確な村境ではありません"},"geometry":{"type":"Polygon","coordinates":[[[133.027267,36.138984],[133.027954,36.13732],[133.034134,36.13732],[133.036194,36.135102],[133.041,36.135657],[133.042374,36.134547],[133.043747,36.135657],[133.043747,36.133993],[133.04512,36.132884],[133.043747,36.132884],[133.04512,36.131775],[133.043747,36.13122],[133.045807,36.13122],[133.044434,36.130111],[133.04512,36.129556],[133.043747,36.129002],[133.044434,36.128447],[133.043747,36.127892],[133.045807,36.127892],[133.045807,36.129002],[133.046494,36.128447],[133.046494,36.129556],[133.049927,36.129556],[133.050613,36.126783],[133.04924,36.12401],[133.047867,36.113471],[133.045807,36.112917],[133.04512,36.111253],[133.044434,36.111253],[133.043747,36.111807],[133.041687,36.111253],[133.041,36.110143],[133.041687,36.109034],[133.039627,36.109034],[133.034134,36.1168],[133.030014,36.116245],[133.032074,36.123455],[133.029327,36.129556],[133.025208,36.131775],[133.023834,36.136211],[133.027267,36.136211],[133.025894,36.13732],[133.027267,36.138984]]]}},{"type":"Feature","properties":{"layer_id":"bakumatsu_villages","name":"宇賀村","address":"隠岐 知夫郡","source":"Geoshape 幕末期近世村領域データセット vector tiles (z7 extraction)","subarea_name":"近世村のおおよその範囲","feature_key":"village:K49G02S00005","accuracy_note":"2015年農業集落境界をもとに復元した概略範囲で、江戸時代の正確な村境ではありません"},"geometry":{"type":"MultiPolygon","coordinates":[[[[133.060913,36.133438],[133.0616,36.13122],[133.060226,36.129556],[133.060913,36.127338],[133.060226,36.126229],[133.06366,36.123455],[133.062973,36.122346],[133.060226,36.121237],[133.062973,36.112917],[133.05748,36.113471],[133.056107,36.112362],[133.05542,36.112362],[133.054047,36.112362],[133.054733,36.111807],[133.047867,36.113471],[133.04924,36.12401],[133.050613,36.127338],[133.049927,36.129556],[133.054733,36.132329],[133.054733,36.130665],[133.054047,36.129556],[133.054047,36.127338],[133.05542,36.127338],[133.056107,36.130111],[133.058853,36.130665],[133.05748,36.131775],[133.060913,36.133438]]],[[[133.066406,36.138429],[133.067093,36.131775],[133.06572,36.125119],[133.068466,36.121792],[133.069153,36.117909],[133.072586,36.11569],[133.069153,36.113471],[133.06778,36.115135],[133.065033,36.115135],[133.065033,36.114581],[133.062973,36.112917],[133.060913,36.117909],[133.060226,36.121237],[133.062973,36.122346],[133.06366,36.123455],[133.060226,36.126229],[133.060913,36.127338],[133.060226,36.129556],[133.0616,36.13122],[133.060913,36.133438],[133.065033,36.135657],[133.066406,36.138429]]],[[[133.089752,36.137875],[133.089066,36.135657],[133.090439,36.134547],[133.089066,36.133993],[133.089752,36.132884],[133.087006,36.132329],[133.088379,36.130111],[133.085632,36.130111],[133.087006,36.128447],[133.084946,36.127338],[133.087006,36.125674],[133.085632,36.125674],[133.084946,36.125119],[133.083572,36.125674],[133.081512,36.12401],[133.082199,36.123455],[133.079453,36.120128],[133.078766,36.119573],[133.078766,36.120682],[133.076706,36.119573],[133.076019,36.120128],[133.073273,36.117909],[133.072586,36.11569],[133.069153,36.117909],[133.068466,36.121792],[133.06572,36.125119],[133.067093,36.136211],[133.06572,36.138429],[133.067093,36.140647],[133.069153,36.141756],[133.068466,36.142865],[133.069839,36.142311],[133.069839,36.140093],[133.071213,36.141756],[133.071899,36.141756],[133.071899,36.140093],[133.074646,36.141756],[133.076019,36.141756],[133.078079,36.142865],[133.081512,36.142311],[133.080139,36.137875],[133.084259,36.138984],[133.084259,36.137875],[133.085632,36.138429],[133.087692,36.13732],[133.089752,36.137875]]],[[[133.089752,36.137875],[133.092499,36.139538],[133.091125,36.13732],[133.089752,36.137875]]]]}},{"type":"Feature","properties":{"layer_id":"bakumatsu_villages","name":"浦之郷村","address":"隠岐 知夫郡","source":"Geoshape 幕末期近世村領域データセット vector tiles (z7 extraction)","subarea_name":"近世村のおおよその範囲","feature_key":"village:K49G02S00002","accuracy_note":"2015年農業集落境界をもとに復元した概略範囲で、江戸時代の正確な村境ではありません"},"geometry":{"type":"MultiPolygon","coordinates":[[[[132.979889,36.095719],[132.981262,36.094609],[132.980576,36.092945],[132.977829,36.091835],[132.977829,36.09128],[132.982635,36.09017],[132.979202,36.08906],[132.979889,36.086286],[132.977142,36.085731],[132.975769,36.084066],[132.977142,36.083511],[132.978516,36.079627],[132.979202,36.078517],[132.982635,36.078517],[132.980576,36.077407],[132.981949,36.074077],[132.977829,36.072967],[132.975769,36.073522],[132.973709,36.075742],[132.972336,36.076852],[132.958603,36.072967],[132.956543,36.074632],[132.952423,36.075187],[132.95311,36.077407],[132.948303,36.076297],[132.94693,36.076852],[132.94693,36.078517],[132.945557,36.080182],[132.950363,36.080182],[132.950363,36.081847],[132.951736,36.082957],[132.950363,36.085731],[132.954483,36.086286],[132.95517,36.090725],[132.958603,36.090725],[132.958603,36.091835],[132.959976,36.09128],[132.959976,36.09239],[132.963409,36.091835],[132.964096,36.092945],[132.966843,36.09239],[132.966843,36.093499],[132.967529,36.09239],[132.969589,36.095164],[132.972336,36.094609],[132.979889,36.095719]]],[[[132.952423,36.064642],[132.947617,36.064087],[132.946243,36.065197],[132.945557,36.067417],[132.94899,36.068527],[132.950363,36.069637],[132.95105,36.074077],[132.953796,36.075187],[132.956543,36.075187],[132.95929,36.072412],[132.961349,36.072967],[132.961349,36.074077],[132.969589,36.076297],[132.972336,36.076852],[132.975769,36.074077],[132.976456,36.066862],[132.978516,36.062422],[132.977829,36.060201],[132.975769,36.059091],[132.973022,36.059646],[132.971649,36.057426],[132.964783,36.059091],[132.964096,36.060201],[132.962036,36.060756],[132.953796,36.059091],[132.953796,36.060756],[132.94899,36.062977],[132.952423,36.064642]],[[132.952423,36.064642],[132.954483,36.064642],[132.95517,36.065197],[132.952423,36.064642]]],[[[132.985382,36.092945],[132.982635,36.09239],[132.981949,36.09128],[132.982635,36.09017],[132.981262,36.09017],[132.977829,36.09128],[132.977829,36.091835],[132.980576,36.092945],[132.981262,36.094609],[132.980576,36.095719],[132.978516,36.096274],[132.972336,36.094609],[132.968903,36.095719],[132.968216,36.094609],[132.963409,36.096274],[132.964783,36.096828],[132.964096,36.097938],[132.961349,36.097383],[132.965469,36.100157],[132.965469,36.102931],[132.968903,36.103486],[132.970963,36.107369],[132.973022,36.108479],[132.984009,36.102376],[132.995682,36.099602],[133.001175,36.097938],[133.002548,36.095719],[133.005295,36.094609],[133.002548,36.091835],[133.000488,36.091835],[133.001175,36.09239],[133.000488,36.093499],[132.998428,36.092945],[132.999115,36.09128],[132.997742,36.090725],[132.994995,36.092945],[132.993622,36.092945],[132.992935,36.091835],[132.992935,36.092945],[132.989502,36.09239],[132.992249,36.088506],[132.990875,36.087396],[132.992935,36.084621],[132.991562,36.084066],[132.990875,36.085176],[132.984695,36.086841],[132.984009,36.090725],[132.985382,36.092945]],[[132.985382,36.092945],[132.986755,36.092945],[132.986755,36.093499],[132.985382,36.092945]]],[[[132.981949,36.074077],[132.983322,36.071857],[132.982635,36.071302],[132.985382,36.070192],[132.982635,36.069637],[132.982635,36.069082],[132.984695,36.069082],[132.984009,36.067972],[132.986755,36.066862],[132.985382,36.066862],[132.985382,36.065197],[132.987442,36.066307],[132.987442,36.064642],[132.988815,36.064087],[132.990189,36.060201],[132.992935,36.056871],[132.992249,36.05243],[132.994308,36.049099],[132.996368,36.047989],[132.997055,36.046323],[132.998428,36.046323],[132.999115,36.044102],[133.000488,36.044102],[132.997742,36.037995],[132.994995,36.041326],[132.989502,36.043547],[132.987442,36.046878],[132.984695,36.047989],[132.985382,36.048544],[132.986755,36.047989],[132.985382,36.049099],[132.981949,36.050209],[132.979202,36.051875],[132.974396,36.052985],[132.973709,36.055761],[132.974396,36.056316],[132.973022,36.056316],[132.973022,36.057426],[132.971649,36.057426],[132.973022,36.059646],[132.975769,36.059091],[132.977829,36.060201],[132.978516,36.062422],[132.976456,36.066862],[132.975769,36.073522],[132.977829,36.072967],[132.981949,36.074077]]]]}},{"type":"Feature","properties":{"layer_id":"bakumatsu_villages","name":"美田村","address":"隠岐 知夫郡","source":"Geoshape 幕末期近世村領域データセット vector tiles (z7 extraction)","subarea_name":"近世村のおおよその範囲","feature_key":"village:K49G02S00003","accuracy_note":"2015年農業集落境界をもとに復元した概略範囲で、江戸時代の正確な村境ではありません"},"geometry":{"type":"MultiPolygon","coordinates":[[[[133.014908,36.137875],[133.019714,36.134547],[133.020401,36.135102],[133.021088,36.136211],[133.021774,36.134547],[133.023834,36.134547],[133.023834,36.136211],[133.025208,36.131775],[133.026581,36.130111],[133.025894,36.126229],[133.021774,36.121237],[133.021774,36.112917],[133.016968,36.110143],[133.014221,36.10626],[133.008728,36.103486],[133.005981,36.105705],[133.005295,36.105705],[133.008041,36.099048],[133.005295,36.094609],[133.002548,36.095719],[133.001175,36.097938],[132.995682,36.099602],[132.984009,36.102376],[132.973022,36.108479],[132.976456,36.110698],[132.978516,36.113471],[132.977142,36.115135],[132.980576,36.114026],[132.980576,36.115135],[132.981949,36.114581],[132.982635,36.11569],[132.981262,36.117354],[132.983322,36.117909],[132.984009,36.116245],[132.985382,36.1168],[132.986755,36.115135],[132.986069,36.113471],[132.986755,36.111253],[132.985382,36.111253],[132.984009,36.109588],[132.984695,36.107924],[132.987442,36.109588],[132.989502,36.109588],[132.990875,36.113471],[132.994308,36.114581],[132.996368,36.113471],[132.997055,36.114581],[132.999802,36.114581],[133.001862,36.111253],[133.003235,36.111253],[133.003235,36.112362],[133.004608,36.110143],[133.003235,36.110143],[133.002548,36.109034],[133.005981,36.108479],[133.005981,36.112917],[133.007355,36.112917],[133.008041,36.114581],[133.008728,36.113471],[133.009415,36.115135],[133.012161,36.11569],[133.012848,36.1168],[133.012161,36.121237],[133.013535,36.127892],[133.012161,36.135657],[133.014908,36.137875]]],[[[133.025894,36.130665],[133.029327,36.129556],[133.032074,36.123455],[133.030014,36.116245],[133.030701,36.112362],[133.032074,36.109034],[133.032074,36.10515],[133.03688,36.098493],[133.031387,36.097383],[133.030701,36.100157],[133.025894,36.100157],[133.023148,36.101822],[133.015594,36.100157],[133.011475,36.100712],[133.008728,36.102931],[133.010101,36.104596],[133.014221,36.106815],[133.018341,36.111253],[133.021774,36.112917],[133.021774,36.121237],[133.025894,36.125674],[133.025894,36.130665]]],[[[133.034134,36.1168],[133.039627,36.109034],[133.04306,36.107369],[133.04306,36.106815],[133.039627,36.107369],[133.03894,36.10626],[133.042374,36.101267],[133.03688,36.098493],[133.032074,36.10515],[133.030014,36.116245],[133.034134,36.1168]]],[[[133.023148,36.101822],[133.025894,36.100157],[133.030701,36.100157],[133.031387,36.097383],[133.025208,36.096274],[133.023148,36.096274],[133.023834,36.097383],[133.022461,36.097383],[133.022461,36.096274],[133.019028,36.095719],[133.012161,36.097383],[133.012848,36.097938],[133.012161,36.100712],[133.016968,36.100157],[133.023148,36.101822]]],[[[133.023834,36.097383],[133.023148,36.096274],[133.032074,36.096828],[133.033447,36.086841],[133.030701,36.081292],[133.030701,36.077407],[133.008041,36.085176],[133.008041,36.086841],[133.005295,36.087396],[133.005981,36.088506],[133.005295,36.090725],[133.006668,36.092945],[133.010788,36.093499],[133.012161,36.094609],[133.012161,36.097383],[133.017654,36.095719],[133.022461,36.096274],[133.022461,36.097383],[133.023834,36.097383]]],[[[133.042374,36.101267],[133.04306,36.100712],[133.044434,36.100712],[133.045807,36.099048],[133.043747,36.097938],[133.044434,36.097383],[133.043747,36.097383],[133.043747,36.095719],[133.04718,36.094609],[133.048553,36.096274],[133.049927,36.096274],[133.05542,36.088506],[133.056793,36.082957],[133.054733,36.081292],[133.04512,36.077407],[133.039627,36.076297],[133.030701,36.077407],[133.030701,36.081292],[133.033447,36.086841],[133.031387,36.097383],[133.035507,36.097938],[133.042374,36.101267]]],[[[133.014221,36.073522],[133.012848,36.074077],[133.014221,36.074077],[133.014221,36.074632],[133.010101,36.075742],[133.008041,36.074077],[133.007355,36.074632],[133.008728,36.077962],[133.009415,36.077407],[133.010101,36.078517],[133.008041,36.082402],[133.005295,36.082402],[133.005295,36.084066],[133.007355,36.084066],[133.008041,36.085176],[133.030701,36.077407],[133.042374,36.076852],[133.049927,36.079072],[133.0513,36.075187],[133.050613,36.070747],[133.052673,36.070747],[133.052673,36.069082],[133.049927,36.065752],[133.04718,36.066307],[133.04718,36.064087],[133.045807,36.062422],[133.045807,36.061312],[133.042374,36.060756],[133.043747,36.061867],[133.042374,36.062977],[133.03894,36.062422],[133.037567,36.062422],[133.036194,36.065752],[133.034134,36.064642],[133.033447,36.063532],[133.031387,36.063532],[133.030014,36.065197],[133.029327,36.064642],[133.025894,36.065197],[133.022461,36.063532],[133.021774,36.065752],[133.014908,36.074077],[133.014221,36.073522]]]]}},{"type":"Feature","properties":{"layer_id":"historical_sites_archaeology","name":"兵庫遺跡","address":"島根県 隠岐郡西ノ島町 大字美田","source":"Geoshape 日本歴史地名大系 施設・地点項目データセット 2025-05-15","subarea_name":"遺跡","feature_key":"08_archaeological_sites.geojson:330000282100","subtype":"遺跡"},"geometry":{"type":"Point","coordinates":[133.029205,36.104804]}},{"type":"Feature","properties":{"layer_id":"historical_sites_archaeology","name":"高田山寺ノ峯経塚","address":"島根県 隠岐郡西ノ島町 大字美田","source":"Geoshape 日本歴史地名大系 施設・地点項目データセット 2025-05-15","subarea_name":"塚","feature_key":"07_mounds.geojson:330000282200","subtype":"塚"},"geometry":{"type":"Point","coordinates":[133.029205,36.104804]}},{"type":"Feature","properties":{"layer_id":"historical_temples_shrines","name":"焼火神社","address":"島根県 隠岐郡西ノ島町 大字美田1294番地","source":"Geoshape 日本歴史地名大系 施設・地点項目データセット 2025-05-15","subarea_name":"神社","feature_key":"02_shrines.geojson:330000282000","subtype":"神社"},"geometry":{"type":"Point","coordinates":[133.028848,36.073165]}},{"type":"Feature","properties":{"layer_id":"historical_temples_shrines","name":"由良比女神社","address":"島根県 隠岐郡西ノ島町 大字浦郷922番地","source":"Geoshape 日本歴史地名大系 施設・地点項目データセット 2025-05-15","subarea_name":"神社","feature_key":"02_shrines.geojson:330000282400","subtype":"神社"},"geometry":{"type":"Point","coordinates":[132.987893,36.092008]}}]}