{"type":"FeatureCollection","municipality_code":"36368","pref":"徳島県","city":"那賀町","layer_counts":{"bakumatsu_villages":64,"civil_engineering_heritage":2,"historical_sites_archaeology":3,"historical_temples_shrines":8},"total_features":77,"features":[{"type":"Feature","properties":{"layer_id":"bakumatsu_villages","name":"中山村","address":"阿波 那賀郡","source":"Geoshape 幕末期近世村領域データセット vector tiles (z7 extraction)","subarea_name":"近世村のおおよその範囲","feature_key":"village:K54G09S00041","accuracy_note":"2015年農業集落境界をもとに復元した概略範囲で、江戸時代の正確な村境ではありません"},"geometry":{"type":"MultiPolygon","coordinates":[[[[134.520035,33.874406],[134.522095,33.873266],[134.526215,33.873266],[134.528275,33.865284],[134.526215,33.860153],[134.534454,33.849889],[134.530334,33.847608],[134.528275,33.844186],[134.524841,33.842475],[134.522095,33.845327],[134.520721,33.849318],[134.512482,33.847037],[134.512482,33.85274],[134.511795,33.855021],[134.510422,33.855591],[134.512482,33.857302],[134.513168,33.861293],[134.515228,33.864714],[134.514542,33.870986],[134.520035,33.874406]]],[[[134.529648,33.873836],[134.537888,33.873266],[134.540634,33.856161],[134.544067,33.85217],[134.539261,33.85274],[134.536514,33.849889],[134.535141,33.849889],[134.526215,33.860153],[134.528275,33.865284],[134.526215,33.873266],[134.529648,33.873836]]],[[[134.539948,33.873266],[134.542694,33.870416],[134.545441,33.869275],[134.55574,33.869275],[134.555054,33.866425],[134.556427,33.864144],[134.555054,33.860723],[134.556427,33.855591],[134.55574,33.854451],[134.550934,33.855021],[134.545441,33.85217],[134.541321,33.854451],[134.537888,33.873266],[134.539948,33.873266]]]]}},{"type":"Feature","properties":{"layer_id":"bakumatsu_villages","name":"井谷村","address":"阿波 那賀郡","source":"Geoshape 幕末期近世村領域データセット vector tiles (z7 extraction)","subarea_name":"近世村のおおよその範囲","feature_key":"village:K54G09S00061","accuracy_note":"2015年農業集落境界をもとに復元した概略範囲で、江戸時代の正確な村境ではありません"},"geometry":{"type":"Polygon","coordinates":[[[134.434891,33.857872],[134.433517,33.849889],[134.437637,33.846467],[134.437637,33.844186],[134.441071,33.839623],[134.441757,33.837342],[134.440384,33.835631],[134.436264,33.836201],[134.429398,33.835631],[134.430771,33.831638],[134.429398,33.829927],[134.423218,33.840764],[134.423218,33.843045],[134.425278,33.847037],[134.426651,33.847608],[134.430771,33.851599],[134.432144,33.856161],[134.434891,33.857872]]]}},{"type":"Feature","properties":{"layer_id":"bakumatsu_villages","name":"仁宇村","address":"阿波 那賀郡","source":"Geoshape 幕末期近世村領域データセット vector tiles (z7 extraction)","subarea_name":"近世村のおおよその範囲","feature_key":"village:K54G09S00136","accuracy_note":"2015年農業集落境界をもとに復元した概略範囲で、江戸時代の正確な村境ではありません"},"geometry":{"type":"Polygon","coordinates":[[[134.478836,33.870986],[134.488449,33.869275],[134.489822,33.864144],[134.489822,33.861863],[134.491196,33.860723],[134.484329,33.860723],[134.480209,33.859012],[134.479523,33.856732],[134.482269,33.85274],[134.478149,33.848748],[134.472656,33.849318],[134.464417,33.85388],[134.463043,33.857872],[134.46373,33.861293],[134.462357,33.864714],[134.462357,33.868135],[134.46785,33.870416],[134.47197,33.868135],[134.473343,33.869845],[134.478836,33.870986]]]}},{"type":"Feature","properties":{"layer_id":"bakumatsu_villages","name":"入野村","address":"阿波 那賀郡","source":"Geoshape 幕末期近世村領域データセット vector tiles (z7 extraction)","subarea_name":"近世村のおおよその範囲","feature_key":"village:K54G09S00054","accuracy_note":"2015年農業集落境界をもとに復元した概略範囲で、江戸時代の正確な村境ではありません"},"geometry":{"type":"Polygon","coordinates":[[[134.458237,33.827646],[134.460983,33.823653],[134.46373,33.823082],[134.46579,33.820801],[134.462357,33.818519],[134.46167,33.813384],[134.45755,33.814525],[134.454803,33.813384],[134.45137,33.814525],[134.444504,33.80825],[134.441071,33.807679],[134.439697,33.80825],[134.438324,33.81966],[134.44725,33.821941],[134.450684,33.825364],[134.456177,33.827646],[134.458237,33.827646]]]}},{"type":"Feature","properties":{"layer_id":"bakumatsu_villages","name":"内山村","address":"阿波 那賀郡","source":"Geoshape 幕末期近世村領域データセット vector tiles (z7 extraction)","subarea_name":"近世村のおおよその範囲","feature_key":"village:K54G09S00058","accuracy_note":"2015年農業集落境界をもとに復元した概略範囲で、江戸時代の正確な村境ではありません"},"geometry":{"type":"Polygon","coordinates":[[[134.416351,33.860153],[134.420471,33.857872],[134.428711,33.859012],[134.431458,33.856161],[134.430771,33.851599],[134.426651,33.847608],[134.425278,33.847037],[134.422531,33.841905],[134.421158,33.840764],[134.418411,33.841334],[134.412918,33.839623],[134.406052,33.840764],[134.399185,33.845897],[134.395065,33.85331],[134.392319,33.85388],[134.395752,33.85388],[134.396439,33.855591],[134.397812,33.855021],[134.401245,33.856161],[134.403305,33.855021],[134.405365,33.856161],[134.406738,33.855591],[134.414291,33.860153],[134.416351,33.860153]]]}},{"type":"Feature","properties":{"layer_id":"bakumatsu_villages","name":"出原村","address":"阿波 海部郡","source":"Geoshape 幕末期近世村領域データセット vector tiles (z7 extraction)","subarea_name":"近世村のおおよその範囲","feature_key":"village:K54G08S00061","accuracy_note":"2015年農業集落境界をもとに復元した概略範囲で、江戸時代の正確な村境ではありません"},"geometry":{"type":"MultiPolygon","coordinates":[[[[134.193192,33.787137],[134.200745,33.786567],[134.202805,33.785425],[134.208298,33.786567],[134.207611,33.78143],[134.206238,33.779718],[134.207611,33.774581],[134.203491,33.77344],[134.202805,33.768874],[134.199371,33.767732],[134.200745,33.771728],[134.200058,33.774011],[134.193878,33.78143],[134.193192,33.787137]]],[[[134.211044,33.786567],[134.229584,33.78143],[134.228897,33.780289],[134.231644,33.775152],[134.231644,33.768874],[134.226837,33.76602],[134.226837,33.763736],[134.229584,33.761453],[134.229584,33.756886],[134.233704,33.754602],[134.230957,33.751177],[134.222717,33.747751],[134.219971,33.742613],[134.216537,33.742042],[134.213104,33.739758],[134.211044,33.740329],[134.205551,33.736903],[134.204178,33.734619],[134.201431,33.73519],[134.196625,33.7409],[134.194565,33.748322],[134.197998,33.751177],[134.198685,33.754602],[134.197998,33.756886],[134.202805,33.762595],[134.199371,33.767732],[134.202805,33.768874],[134.203491,33.77344],[134.207611,33.774011],[134.206238,33.779718],[134.207611,33.78143],[134.208298,33.786567],[134.211044,33.786567]]]]}},{"type":"Feature","properties":{"layer_id":"bakumatsu_villages","name":"出羽村","address":"阿波 那賀郡","source":"Geoshape 幕末期近世村領域データセット vector tiles (z7 extraction)","subarea_name":"近世村のおおよその範囲","feature_key":"village:K54G09S00090","accuracy_note":"2015年農業集落境界をもとに復元した概略範囲で、江戸時代の正確な村境ではありません"},"geometry":{"type":"Polygon","coordinates":[[[134.335327,33.864714],[134.33876,33.860723],[134.351807,33.857872],[134.350433,33.850459],[134.345627,33.845897],[134.344254,33.846467],[134.338074,33.838483],[134.334641,33.838483],[134.332581,33.836772],[134.329147,33.837342],[134.326401,33.836201],[134.325027,33.839053],[134.319534,33.844756],[134.320221,33.845897],[134.319534,33.848748],[134.314041,33.85388],[134.313354,33.855591],[134.308548,33.859012],[134.313354,33.860153],[134.322968,33.859583],[134.326401,33.864144],[134.335327,33.864714]]]}},{"type":"Feature","properties":{"layer_id":"bakumatsu_villages","name":"助村","address":"阿波 海部郡","source":"Geoshape 幕末期近世村領域データセット vector tiles (z7 extraction)","subarea_name":"近世村のおおよその範囲","feature_key":"village:K54G08S00059","accuracy_note":"2015年農業集落境界をもとに復元した概略範囲で、江戸時代の正確な村境ではありません"},"geometry":{"type":"MultiPolygon","coordinates":[[[[134.198685,33.832779],[134.200058,33.831068],[134.207611,33.827646],[134.207611,33.821941],[134.214478,33.807679],[134.215164,33.801974],[134.217224,33.801403],[134.216537,33.79855],[134.214478,33.796268],[134.211731,33.793985],[134.196625,33.792273],[134.193192,33.787137],[134.184952,33.789991],[134.180145,33.788279],[134.176025,33.78942],[134.169846,33.792844],[134.167786,33.795126],[134.167786,33.809391],[134.171906,33.816237],[134.166412,33.821941],[134.166412,33.828787],[134.167786,33.829357],[134.176712,33.828787],[134.183578,33.829927],[134.184952,33.831068],[134.191818,33.830498],[134.198685,33.832779]]],[[[134.23233,33.835631],[134.23233,33.831638],[134.23439,33.828787],[134.23439,33.820801],[134.235764,33.81966],[134.23851,33.811673],[134.239883,33.809961],[134.243317,33.80882],[134.24675,33.807109],[134.243317,33.804826],[134.243317,33.802544],[134.25087,33.799121],[134.254303,33.800262],[134.25705,33.797409],[134.253616,33.797409],[134.244003,33.794556],[134.243317,33.793985],[134.24675,33.791132],[134.245377,33.789991],[134.239883,33.795126],[134.23645,33.793985],[134.221344,33.800832],[134.215851,33.801403],[134.214478,33.807679],[134.207611,33.821941],[134.207611,33.827646],[134.213104,33.828787],[134.214478,33.831068],[134.221344,33.83335],[134.226151,33.832779],[134.228897,33.835061],[134.23233,33.835631]]],[[[134.217224,33.801403],[134.221344,33.800832],[134.22821,33.796838],[134.23645,33.793985],[134.237823,33.793985],[134.23439,33.790561],[134.226837,33.78942],[134.221344,33.791132],[134.217224,33.78942],[134.214478,33.791702],[134.210358,33.791702],[134.208298,33.789991],[134.208298,33.786567],[134.202805,33.785425],[134.200745,33.786567],[134.193192,33.787137],[134.196625,33.792273],[134.211731,33.793985],[134.214478,33.796268],[134.217224,33.801403]]],[[[134.239883,33.795126],[134.241257,33.794556],[134.245377,33.789991],[134.239883,33.787137],[134.235077,33.782001],[134.23233,33.782572],[134.229584,33.78143],[134.211044,33.786567],[134.208298,33.786567],[134.208984,33.790561],[134.210358,33.791702],[134.213791,33.791702],[134.217224,33.78942],[134.221344,33.791132],[134.226837,33.78942],[134.23439,33.790561],[134.237823,33.793985],[134.239883,33.795126]]]]}},{"type":"Feature","properties":{"layer_id":"bakumatsu_villages","name":"北川村","address":"阿波 海部郡","source":"Geoshape 幕末期近世村領域データセット vector tiles (z7 extraction)","subarea_name":"近世村のおおよその範囲","feature_key":"village:K54G08S00062","accuracy_note":"2015年農業集落境界をもとに復元した概略範囲で、江戸時代の正確な村境ではありません"},"geometry":{"type":"MultiPolygon","coordinates":[[[[134.077835,33.846467],[134.084702,33.844186],[134.087448,33.839053],[134.083328,33.83335],[134.085388,33.831068],[134.085388,33.828216],[134.088135,33.825934],[134.081268,33.819089],[134.086761,33.804826],[134.088821,33.797409],[134.090881,33.795697],[134.090881,33.791132],[134.092941,33.78942],[134.090195,33.787708],[134.088135,33.784854],[134.088135,33.778006],[134.086075,33.770586],[134.073029,33.760882],[134.064102,33.75289],[134.057236,33.750606],[134.055862,33.751748],[134.056549,33.758028],[134.058609,33.761453],[134.057236,33.764878],[134.058609,33.76602],[134.058609,33.776864],[134.057236,33.779147],[134.057922,33.78143],[134.055862,33.782001],[134.055176,33.784854],[134.049683,33.785996],[134.048996,33.787708],[134.045563,33.789991],[134.046249,33.799121],[134.040756,33.801974],[134.038696,33.804826],[134.033203,33.809391],[134.033203,33.812243],[134.036636,33.815096],[134.036636,33.820801],[134.032516,33.828787],[134.035263,33.830498],[134.038696,33.835061],[134.044189,33.83392],[134.048996,33.83449],[134.053802,33.837342],[134.060669,33.838483],[134.064102,33.840194],[134.064789,33.841334],[134.077835,33.846467]]],[[[134.094315,33.827075],[134.100494,33.825934],[134.109421,33.820801],[134.114914,33.820801],[134.116287,33.82023],[134.116287,33.818519],[134.113541,33.80882],[134.113541,33.802544],[134.120407,33.789991],[134.115601,33.780289],[134.111481,33.774581],[134.108734,33.776294],[134.103928,33.775723],[134.095001,33.771728],[134.090881,33.772869],[134.090195,33.769444],[134.087448,33.770015],[134.086761,33.770586],[134.088135,33.778006],[134.088135,33.784854],[134.090195,33.787708],[134.092941,33.78942],[134.090881,33.791132],[134.090881,33.795697],[134.088821,33.797409],[134.086761,33.804826],[134.081268,33.819089],[134.088135,33.825934],[134.094315,33.827075]]],[[[134.110107,33.776294],[134.113541,33.77344],[134.108734,33.769444],[134.106674,33.762595],[134.108734,33.757457],[134.112167,33.754031],[134.112167,33.750035],[134.109421,33.746039],[134.104614,33.742042],[134.096375,33.741471],[134.089508,33.734619],[134.089508,33.727766],[134.087448,33.723769],[134.076462,33.715202],[134.069595,33.712917],[134.066162,33.715773],[134.064789,33.719771],[134.068222,33.729479],[134.066162,33.734619],[134.061356,33.735761],[134.061356,33.7409],[134.058609,33.743755],[134.059296,33.746039],[134.057236,33.750606],[134.064102,33.75289],[134.073029,33.760882],[134.086761,33.770586],[134.090195,33.769444],[134.090881,33.772869],[134.095001,33.771728],[134.103928,33.775723],[134.110107,33.776294]]]]}},{"type":"Feature","properties":{"layer_id":"bakumatsu_villages","name":"南宇村","address":"阿波 海部郡","source":"Geoshape 幕末期近世村領域データセット vector tiles (z7 extraction)","subarea_name":"近世村のおおよその範囲","feature_key":"village:K54G08S00058","accuracy_note":"2015年農業集落境界をもとに復元した概略範囲で、江戸時代の正確な村境ではありません"},"geometry":{"type":"MultiPolygon","coordinates":[[[[134.184952,33.789991],[134.191818,33.787137],[134.189072,33.78086],[134.191818,33.774581],[134.188385,33.767732],[134.186325,33.769444],[134.184265,33.772298],[134.180145,33.774011],[134.181519,33.775723],[134.184265,33.774581],[134.180832,33.78086],[134.178772,33.788849],[134.184952,33.789991]]],[[[134.191818,33.774581],[134.194565,33.77344],[134.196625,33.769444],[134.198685,33.768303],[134.202805,33.762595],[134.197998,33.756886],[134.193878,33.758599],[134.190445,33.76602],[134.188385,33.767732],[134.191818,33.774581]]]]}},{"type":"Feature","properties":{"layer_id":"bakumatsu_villages","name":"受ノ谷村","address":"阿波 那賀郡","source":"Geoshape 幕末期近世村領域データセット vector tiles (z7 extraction)","subarea_name":"近世村のおおよその範囲","feature_key":"village:K54G09S00055","accuracy_note":"2015年農業集落境界をもとに復元した概略範囲で、江戸時代の正確な村境ではありません"},"geometry":{"type":"Polygon","coordinates":[[[134.423218,33.828216],[134.425964,33.826505],[134.429398,33.821941],[134.435577,33.823653],[134.438324,33.81966],[134.439697,33.80825],[134.439011,33.807109],[134.438324,33.80825],[134.436951,33.80825],[134.432831,33.807679],[134.428711,33.805397],[134.419785,33.80825],[134.412918,33.807679],[134.411545,33.809391],[134.410858,33.815666],[134.417725,33.820801],[134.419098,33.823653],[134.421158,33.824223],[134.421844,33.827646],[134.423218,33.828216]]]}},{"type":"Feature","properties":{"layer_id":"bakumatsu_villages","name":"古屋村","address":"阿波 海部郡","source":"Geoshape 幕末期近世村領域データセット vector tiles (z7 extraction)","subarea_name":"近世村のおおよその範囲","feature_key":"village:K54G08S00054","accuracy_note":"2015年農業集落境界をもとに復元した概略範囲で、江戸時代の正確な村境ではありません"},"geometry":{"type":"MultiPolygon","coordinates":[[[[134.35936,33.807679],[134.360733,33.799121],[134.356613,33.799121],[134.35318,33.800262],[134.347687,33.804256],[134.346313,33.805967],[134.35936,33.807679]]],[[[134.376526,33.807109],[134.377899,33.805397],[134.378586,33.797409],[134.376526,33.796838],[134.371719,33.79855],[134.370346,33.797979],[134.368286,33.796268],[134.368973,33.791702],[134.362106,33.791132],[134.36348,33.795126],[134.360733,33.799121],[134.360733,33.803685],[134.369659,33.801974],[134.373779,33.804256],[134.374466,33.807109],[134.376526,33.807109]]],[[[134.34288,33.806538],[134.346313,33.805967],[134.347687,33.804256],[134.35112,33.801403],[134.356613,33.799121],[134.349747,33.794556],[134.344254,33.791702],[134.341507,33.787137],[134.336014,33.783713],[134.335327,33.779718],[134.337387,33.776864],[134.331207,33.77344],[134.327774,33.778577],[134.327774,33.784284],[134.324341,33.792844],[134.329834,33.800262],[134.329834,33.804256],[134.3367,33.803685],[134.34288,33.806538]]],[[[134.360733,33.799121],[134.36348,33.795126],[134.362106,33.790561],[134.362793,33.786567],[134.35112,33.788279],[134.350433,33.785996],[134.34288,33.789991],[134.356613,33.799121],[134.360733,33.799121]]],[[[134.34288,33.789991],[134.350433,33.785996],[134.35112,33.788279],[134.362793,33.786567],[134.370346,33.775723],[134.375839,33.771157],[134.377213,33.76659],[134.381332,33.762024],[134.383392,33.755744],[134.373093,33.757457],[134.368973,33.755173],[134.366226,33.755744],[134.360046,33.762024],[134.358673,33.767161],[134.351807,33.772298],[134.341507,33.776294],[134.337387,33.776864],[134.335327,33.779718],[134.335327,33.783142],[134.341507,33.787137],[134.34288,33.789991]]],[[[134.337387,33.776864],[134.341507,33.776294],[134.351807,33.772298],[134.358673,33.767161],[134.360046,33.762024],[134.366913,33.755173],[134.368973,33.755173],[134.373093,33.757457],[134.383392,33.755744],[134.385452,33.75289],[134.384766,33.748893],[134.378586,33.744326],[134.369659,33.731764],[134.364853,33.728908],[134.36348,33.729479],[134.362106,33.731193],[134.357986,33.731764],[134.35524,33.728908],[134.351807,33.728908],[134.35112,33.73005],[134.34906,33.730621],[134.347,33.728908],[134.341507,33.727766],[134.33876,33.73005],[134.336014,33.730621],[134.333954,33.727766],[134.331207,33.727195],[134.327087,33.73005],[134.322281,33.730621],[134.319534,33.734619],[134.319534,33.742613],[134.325027,33.754602],[134.325714,33.764878],[134.322281,33.76659],[134.326401,33.770586],[134.331207,33.771728],[134.331894,33.774011],[134.337387,33.776864]]],[[[134.383392,33.748893],[134.388199,33.74661],[134.392319,33.740329],[134.395065,33.739758],[134.401245,33.739758],[134.401245,33.73519],[134.399185,33.731193],[134.399872,33.729479],[134.394379,33.724911],[134.377213,33.726053],[134.374466,33.727766],[134.368286,33.726624],[134.364166,33.728337],[134.364166,33.728908],[134.369659,33.731764],[134.378586,33.744326],[134.383392,33.748893]]]]}},{"type":"Feature","properties":{"layer_id":"bakumatsu_villages","name":"吉野村","address":"阿波 那賀郡","source":"Geoshape 幕末期近世村領域データセット vector tiles (z7 extraction)","subarea_name":"近世村のおおよその範囲","feature_key":"village:K54G09S00066","accuracy_note":"2015年農業集落境界をもとに復元した概略範囲で、江戸時代の正確な村境ではありません"},"geometry":{"type":"Polygon","coordinates":[[[134.478836,33.819089],[134.481583,33.818519],[134.482269,33.816807],[134.479523,33.815666],[134.476089,33.809961],[134.472656,33.807109],[134.468536,33.800262],[134.46579,33.799121],[134.454803,33.813384],[134.45755,33.814525],[134.46167,33.813384],[134.46991,33.813955],[134.473343,33.815096],[134.475403,33.817948],[134.478836,33.819089]]]}},{"type":"Feature","properties":{"layer_id":"bakumatsu_villages","name":"和舞田村","address":"阿波 海部郡","source":"Geoshape 幕末期近世村領域データセット vector tiles (z7 extraction)","subarea_name":"近世村のおおよその範囲","feature_key":"village:K54G08S00063","accuracy_note":"2015年農業集落境界をもとに復元した概略範囲で、江戸時代の正確な村境ではありません"},"geometry":{"type":"Polygon","coordinates":[[[134.191818,33.787137],[134.193192,33.786567],[134.193192,33.783142],[134.195938,33.778577],[134.200058,33.774011],[134.200745,33.771728],[134.198685,33.768303],[134.196625,33.769444],[134.194565,33.77344],[134.191818,33.774581],[134.189072,33.779718],[134.189758,33.783142],[134.191818,33.787137]]]}},{"type":"Feature","properties":{"layer_id":"bakumatsu_villages","name":"和食村","address":"阿波 那賀郡","source":"Geoshape 幕末期近世村領域データセット vector tiles (z7 extraction)","subarea_name":"近世村のおおよその範囲","feature_key":"village:K54G09S00042","accuracy_note":"2015年農業集落境界をもとに復元した概略範囲で、江戸時代の正確な村境ではありません"},"geometry":{"type":"MultiPolygon","coordinates":[[[[134.491882,33.872126],[134.496689,33.871556],[134.496689,33.865854],[134.498749,33.864714],[134.504242,33.864714],[134.504242,33.862433],[134.497375,33.860153],[134.491196,33.860723],[134.489822,33.861863],[134.489136,33.870416],[134.491882,33.872126]]],[[[134.510422,33.870416],[134.509735,33.868705],[134.509735,33.864714],[134.507675,33.864144],[134.506302,33.861863],[134.503555,33.861293],[134.504929,33.863574],[134.504242,33.864714],[134.498749,33.864714],[134.498062,33.865854],[134.501495,33.867565],[134.510422,33.870416]]],[[[134.497375,33.860153],[134.497375,33.856161],[134.493942,33.856161],[134.494629,33.860153],[134.497375,33.860153]]],[[[134.514542,33.870986],[134.515228,33.864714],[134.513168,33.861293],[134.512482,33.857302],[134.509048,33.857302],[134.504929,33.859012],[134.503555,33.861293],[134.506302,33.861863],[134.507675,33.864144],[134.509735,33.864714],[134.509735,33.869275],[134.511795,33.870986],[134.514542,33.870986]]],[[[134.504242,33.859583],[134.504929,33.859012],[134.509048,33.857302],[134.512482,33.857302],[134.510422,33.855591],[134.511795,33.855021],[134.512482,33.85274],[134.512482,33.847608],[134.506989,33.848178],[134.504929,33.85217],[134.501495,33.855021],[134.501495,33.857302],[134.504242,33.859583]]],[[[134.493942,33.856161],[134.501495,33.855021],[134.504929,33.85217],[134.506989,33.848178],[134.509048,33.847608],[134.513855,33.847608],[134.519348,33.849889],[134.521408,33.848748],[134.522095,33.845327],[134.524841,33.842475],[134.524155,33.836201],[134.518661,33.829927],[134.516602,33.828787],[134.514542,33.829357],[134.513168,33.830498],[134.509735,33.831068],[134.508362,33.832779],[134.506302,33.836772],[134.500809,33.837342],[134.499435,33.843045],[134.493942,33.850459],[134.493942,33.856161]]]]}},{"type":"Feature","properties":{"layer_id":"bakumatsu_villages","name":"和食町","address":"阿波 那賀郡","source":"Geoshape 幕末期近世村領域データセット vector tiles (z7 extraction)","subarea_name":"近世村のおおよその範囲","feature_key":"village:K54G09S00043","accuracy_note":"2015年農業集落境界をもとに復元した概略範囲で、江戸時代の正確な村境ではありません"},"geometry":{"type":"Polygon","coordinates":[[[134.503555,33.861863],[134.504242,33.859583],[134.501495,33.857302],[134.501495,33.855021],[134.497375,33.856161],[134.497375,33.860153],[134.503555,33.861863]]]}},{"type":"Feature","properties":{"layer_id":"bakumatsu_villages","name":"土佐町","address":"阿波 那賀郡","source":"Geoshape 幕末期近世村領域データセット vector tiles (z7 extraction)","subarea_name":"近世村のおおよその範囲","feature_key":"village:K54G09S00044","accuracy_note":"2015年農業集落境界をもとに復元した概略範囲で、江戸時代の正確な村境ではありません"},"geometry":{"type":"Polygon","coordinates":[[[134.491196,33.860723],[134.494629,33.860153],[134.493942,33.855591],[134.490509,33.856732],[134.491196,33.860723]]]}},{"type":"Feature","properties":{"layer_id":"bakumatsu_villages","name":"坂洲村","address":"阿波 那賀郡","source":"Geoshape 幕末期近世村領域データセット vector tiles (z7 extraction)","subarea_name":"近世村のおおよその範囲","feature_key":"village:K54G09S00083","accuracy_note":"2015年農業集落境界をもとに復元した概略範囲で、江戸時代の正確な村境ではありません"},"geometry":{"type":"MultiPolygon","coordinates":[[[[134.270782,33.843616],[134.287262,33.841905],[134.291382,33.839053],[134.291382,33.836201],[134.289322,33.831638],[134.274216,33.829927],[134.270782,33.828216],[134.267349,33.828216],[134.263229,33.829927],[134.258423,33.829357],[134.25499,33.830498],[134.252243,33.831068],[134.25087,33.832779],[134.24469,33.835631],[134.24263,33.836772],[134.24263,33.838483],[134.248123,33.841334],[134.25499,33.841334],[134.257736,33.839623],[134.262543,33.843045],[134.270782,33.843616]]],[[[134.289322,33.831638],[134.292755,33.829927],[134.297562,33.828216],[134.297562,33.827075],[134.294815,33.827075],[134.294815,33.825364],[134.287262,33.82023],[134.282455,33.82023],[134.278336,33.821941],[134.270782,33.828216],[134.272842,33.829927],[134.289322,33.831638]]],[[[134.291382,33.836201],[134.294815,33.831638],[134.296188,33.831638],[134.296875,33.832779],[134.298248,33.832209],[134.297562,33.827646],[134.289322,33.831638],[134.291382,33.836201]]],[[[134.300308,33.839623],[134.303055,33.839053],[134.301682,33.835061],[134.305115,33.832209],[134.314041,33.832779],[134.311981,33.827646],[134.302368,33.827646],[134.300995,33.826505],[134.297562,33.829927],[134.298248,33.832209],[134.296875,33.832779],[134.296188,33.831638],[134.294815,33.831638],[134.291382,33.836772],[134.293442,33.837912],[134.296875,33.837342],[134.300308,33.839623]]],[[[134.298248,33.828216],[134.300995,33.826505],[134.300308,33.817378],[134.303055,33.813384],[134.317474,33.812814],[134.320908,33.811102],[134.321594,33.80882],[134.321594,33.80825],[134.317474,33.807109],[134.315414,33.807109],[134.308548,33.804826],[134.303741,33.805967],[134.296875,33.811102],[134.291382,33.812814],[134.289322,33.815666],[134.287262,33.816807],[134.285889,33.81966],[134.291382,33.822512],[134.294815,33.825364],[134.294815,33.827075],[134.297562,33.827075],[134.298248,33.828216]]]]}},{"type":"Feature","properties":{"layer_id":"bakumatsu_villages","name":"大久保村","address":"阿波 那賀郡","source":"Geoshape 幕末期近世村領域データセット vector tiles (z7 extraction)","subarea_name":"近世村のおおよその範囲","feature_key":"village:K54G09S00065","accuracy_note":"2015年農業集落境界をもとに復元した概略範囲で、江戸時代の正確な村境ではありません"},"geometry":{"type":"MultiPolygon","coordinates":[[[[134.45137,33.814525],[134.454803,33.813384],[134.460983,33.804826],[134.465103,33.800832],[134.464417,33.799121],[134.450684,33.799691],[134.44725,33.79855],[134.44519,33.800262],[134.442444,33.799121],[134.440384,33.800832],[134.437637,33.801974],[134.438324,33.805967],[134.439697,33.80825],[134.441071,33.807679],[134.444504,33.80825],[134.45137,33.814525]]],[[[134.439011,33.801974],[134.442444,33.799121],[134.44519,33.800262],[134.44725,33.79855],[134.44313,33.789991],[134.441071,33.789991],[134.441757,33.793985],[134.440384,33.796838],[134.438324,33.79855],[134.438324,33.800832],[134.439011,33.801974]]],[[[134.458923,33.799691],[134.45755,33.790561],[134.45755,33.787708],[134.460297,33.783142],[134.465103,33.779718],[134.463043,33.776864],[134.460297,33.775723],[134.452744,33.775152],[134.443817,33.791132],[134.445877,33.797409],[134.447937,33.799121],[134.458923,33.799691]]]]}},{"type":"Feature","properties":{"layer_id":"bakumatsu_villages","name":"小仁宇村","address":"阿波 那賀郡","source":"Geoshape 幕末期近世村領域データセット vector tiles (z7 extraction)","subarea_name":"近世村のおおよその範囲","feature_key":"village:K54G09S00045","accuracy_note":"2015年農業集落境界をもとに復元した概略範囲で、江戸時代の正確な村境ではありません"},"geometry":{"type":"MultiPolygon","coordinates":[[[[134.487762,33.860723],[134.485703,33.857302],[134.486389,33.855591],[134.487762,33.854451],[134.489136,33.85388],[134.493942,33.855591],[134.493942,33.850459],[134.496002,33.847608],[134.493942,33.845327],[134.487076,33.848748],[134.480209,33.855021],[134.479523,33.857302],[134.480209,33.859012],[134.482956,33.860153],[134.487762,33.860723]]],[[[134.491196,33.860723],[134.490509,33.856732],[134.493942,33.855591],[134.490509,33.85388],[134.487762,33.854451],[134.485703,33.857302],[134.486389,33.859583],[134.487762,33.860723],[134.491196,33.860723]]]]}},{"type":"Feature","properties":{"layer_id":"bakumatsu_villages","name":"小浜村","address":"阿波 那賀郡","source":"Geoshape 幕末期近世村領域データセット vector tiles (z7 extraction)","subarea_name":"近世村のおおよその範囲","feature_key":"village:K54G09S00076","accuracy_note":"2015年農業集落境界をもとに復元した概略範囲で、江戸時代の正確な村境ではありません"},"geometry":{"type":"Polygon","coordinates":[[[134.370346,33.819089],[134.375839,33.816807],[134.386139,33.816807],[134.384766,33.810532],[134.374466,33.807109],[134.373779,33.804256],[134.369659,33.801974],[134.360733,33.803685],[134.35936,33.807679],[134.360046,33.80882],[134.370346,33.812243],[134.370346,33.819089]]]}},{"type":"Feature","properties":{"layer_id":"bakumatsu_villages","name":"小畠村","address":"阿波 那賀郡","source":"Geoshape 幕末期近世村領域データセット vector tiles (z7 extraction)","subarea_name":"近世村のおおよその範囲","feature_key":"village:K54G09S00086","accuracy_note":"2015年農業集落境界をもとに復元した概略範囲で、江戸時代の正確な村境ではありません"},"geometry":{"type":"Polygon","coordinates":[[[134.251556,33.886947],[134.253616,33.883527],[134.256363,33.882387],[134.258423,33.880107],[134.260483,33.869845],[134.263229,33.870416],[134.266663,33.861293],[134.260483,33.857872],[134.256363,33.857872],[134.25499,33.860723],[134.252243,33.861293],[134.251556,33.866995],[134.241943,33.870986],[134.23645,33.878967],[134.23645,33.879537],[134.243317,33.884097],[134.245377,33.886947],[134.251556,33.886947]]]}},{"type":"Feature","properties":{"layer_id":"bakumatsu_villages","name":"岩倉村","address":"阿波 那賀郡","source":"Geoshape 幕末期近世村領域データセット vector tiles (z7 extraction)","subarea_name":"近世村のおおよその範囲","feature_key":"village:K54G09S00087","accuracy_note":"2015年農業集落境界をもとに復元した概略範囲で、江戸時代の正確な村境ではありません"},"geometry":{"type":"MultiPolygon","coordinates":[[[[134.1465,33.869845],[134.154053,33.865854],[134.156799,33.866995],[134.164352,33.865854],[134.171219,33.868705],[134.176025,33.865284],[134.179459,33.860153],[134.184952,33.859583],[134.185638,33.857302],[134.189072,33.855021],[134.191818,33.848748],[134.193192,33.840764],[134.196625,33.836772],[134.198685,33.832779],[134.197998,33.832209],[134.191818,33.830498],[134.184952,33.831638],[134.183578,33.829927],[134.174652,33.828216],[134.167786,33.829357],[134.166412,33.828216],[134.167099,33.826505],[134.166412,33.821941],[134.162979,33.822512],[134.154053,33.820801],[134.145126,33.820801],[134.139633,33.815666],[134.128647,33.817948],[134.116287,33.818519],[134.115601,33.82023],[134.109421,33.820801],[134.100494,33.826505],[134.094315,33.827075],[134.088821,33.825934],[134.085388,33.828216],[134.085388,33.831068],[134.083328,33.83335],[134.087448,33.839053],[134.084702,33.844186],[134.087448,33.848178],[134.095001,33.855021],[134.110107,33.85331],[134.111481,33.856161],[134.124527,33.857872],[134.127274,33.860723],[134.131393,33.862433],[134.13414,33.865284],[134.136887,33.866425],[134.139633,33.865854],[134.143066,33.869275],[134.1465,33.869845]]],[[[134.193878,33.886377],[134.195938,33.885237],[134.197998,33.885237],[134.205551,33.881247],[134.208298,33.881247],[134.210358,33.876687],[134.211044,33.872696],[134.213791,33.869845],[134.216537,33.865854],[134.216537,33.861293],[134.220657,33.851029],[134.223404,33.850459],[134.227524,33.85331],[134.22821,33.849318],[134.231644,33.844756],[134.237823,33.839053],[134.23439,33.836201],[134.228897,33.835061],[134.227524,33.83335],[134.225464,33.832779],[134.221344,33.83335],[134.214478,33.831068],[134.213104,33.828787],[134.207611,33.827646],[134.200058,33.831068],[134.196625,33.837342],[134.193878,33.839623],[134.191818,33.848748],[134.189072,33.855021],[134.185638,33.857302],[134.184952,33.859583],[134.179459,33.860153],[134.176025,33.865284],[134.171219,33.868705],[134.172592,33.870416],[134.171906,33.872696],[134.176712,33.877827],[134.180145,33.878397],[134.182892,33.881247],[134.187012,33.882957],[134.190445,33.885807],[134.193878,33.886377]]],[[[134.23851,33.892077],[134.241943,33.891507],[134.245377,33.886947],[134.243317,33.884097],[134.23645,33.879537],[134.24057,33.872126],[134.241943,33.870986],[134.25087,33.867565],[134.252243,33.861293],[134.25499,33.860723],[134.25705,33.857872],[134.261169,33.858442],[134.260483,33.856732],[134.263229,33.855021],[134.259109,33.846467],[134.260483,33.840764],[134.258423,33.839623],[134.25499,33.841334],[134.248123,33.841334],[134.24263,33.838483],[134.237823,33.839053],[134.231644,33.844756],[134.22821,33.849318],[134.227524,33.85331],[134.223404,33.850459],[134.221344,33.850459],[134.216537,33.861293],[134.216537,33.865854],[134.213791,33.869845],[134.211044,33.872696],[134.210358,33.876687],[134.208298,33.881247],[134.211044,33.885807],[134.215851,33.886947],[134.221344,33.889227],[134.224777,33.889227],[134.226151,33.888087],[134.23027,33.888658],[134.23851,33.892077]]]]}},{"type":"Feature","properties":{"layer_id":"bakumatsu_villages","name":"平谷村","address":"阿波 海部郡","source":"Geoshape 幕末期近世村領域データセット vector tiles (z7 extraction)","subarea_name":"近世村のおおよその範囲","feature_key":"village:K54G08S00053","accuracy_note":"2015年農業集落境界をもとに復元した概略範囲で、江戸時代の正確な村境ではありません"},"geometry":{"type":"MultiPolygon","coordinates":[[[[134.237823,33.839053],[134.24263,33.838483],[134.24263,33.836772],[134.24469,33.835631],[134.25087,33.832779],[134.252243,33.831068],[134.25499,33.830498],[134.261169,33.822512],[134.261169,33.821371],[134.258423,33.82023],[134.25705,33.817948],[134.249496,33.812814],[134.24881,33.809391],[134.24675,33.807109],[134.243317,33.80882],[134.239883,33.809961],[134.237137,33.815096],[134.235764,33.81966],[134.23439,33.820801],[134.23439,33.828787],[134.23233,33.831638],[134.23233,33.835631],[134.235764,33.837342],[134.237823,33.839053]]],[[[134.25499,33.830498],[134.258423,33.829357],[134.263229,33.829927],[134.266663,33.828216],[134.270782,33.828216],[134.278336,33.821941],[134.274902,33.821371],[134.270782,33.819089],[134.269409,33.815666],[134.270782,33.811102],[134.270096,33.810532],[134.266663,33.811673],[134.265289,33.807109],[134.262543,33.810532],[134.261169,33.818519],[134.261169,33.822512],[134.25499,33.830498]]],[[[134.261169,33.821371],[134.263229,33.80882],[134.265289,33.807109],[134.272156,33.796268],[134.270096,33.794556],[134.263229,33.793414],[134.257736,33.796268],[134.254303,33.800262],[134.25087,33.799121],[134.246063,33.800832],[134.243317,33.802544],[134.24263,33.804256],[134.247437,33.807679],[134.249496,33.812814],[134.25705,33.817948],[134.258423,33.82023],[134.261169,33.821371]]],[[[134.279709,33.821941],[134.282455,33.82023],[134.285889,33.81966],[134.287262,33.816807],[134.290695,33.813384],[134.287262,33.809391],[134.287262,33.807679],[134.288635,33.807109],[134.285202,33.805967],[134.280396,33.805967],[134.272156,33.796268],[134.265289,33.806538],[134.265976,33.811102],[134.268036,33.811673],[134.270096,33.810532],[134.270782,33.810532],[134.269409,33.815666],[134.270782,33.819089],[134.274902,33.821371],[134.279709,33.821941]]],[[[134.292068,33.80825],[134.295502,33.806538],[134.297562,33.803115],[134.296875,33.800832],[134.289322,33.796838],[134.283829,33.796838],[134.277649,33.795126],[134.272156,33.796268],[134.280396,33.805967],[134.285202,33.805967],[134.292068,33.80825]]],[[[134.289322,33.796838],[134.294128,33.795697],[134.298248,33.792273],[134.298935,33.792844],[134.298248,33.790561],[134.300308,33.788279],[134.297562,33.787708],[134.297562,33.783142],[134.286575,33.788849],[134.279709,33.796268],[134.289322,33.796838]]],[[[134.297562,33.801974],[134.302368,33.799691],[134.300308,33.795126],[134.300308,33.793414],[134.298248,33.792273],[134.296188,33.794556],[134.289322,33.796838],[134.297562,33.801974]]],[[[134.279709,33.796268],[134.286575,33.788849],[134.298935,33.782001],[134.300995,33.78143],[134.301682,33.779718],[134.299622,33.776864],[134.292755,33.774581],[134.288635,33.776864],[134.287262,33.783713],[134.286575,33.785996],[134.279709,33.792844],[134.279709,33.794556],[134.277649,33.795126],[134.279709,33.796268]]],[[[134.272156,33.796268],[134.277649,33.795126],[134.279709,33.794556],[134.279709,33.792844],[134.286575,33.785996],[134.287262,33.783713],[134.287949,33.779147],[134.288635,33.776864],[134.292068,33.774581],[134.289322,33.767732],[134.283829,33.76602],[134.281082,33.763165],[134.273529,33.761453],[134.269409,33.771728],[134.268723,33.784284],[134.267349,33.788279],[134.263229,33.793414],[134.270096,33.794556],[134.272156,33.796268]]],[[[134.290695,33.813384],[134.292755,33.811673],[134.296875,33.811102],[134.303055,33.805967],[134.308548,33.804826],[134.305801,33.800832],[134.302368,33.799691],[134.297562,33.801974],[134.296875,33.805397],[134.294815,33.807679],[134.292068,33.80825],[134.288635,33.807109],[134.287262,33.807679],[134.287262,33.809391],[134.290695,33.813384]]],[[[134.321594,33.80825],[134.323654,33.804256],[134.322281,33.799121],[134.323654,33.792273],[134.322968,33.791702],[134.312668,33.794556],[134.307861,33.799691],[134.302368,33.799691],[134.305801,33.800832],[134.308548,33.804826],[134.315414,33.807679],[134.317474,33.807109],[134.321594,33.80825]]],[[[134.329834,33.804256],[134.329834,33.800262],[134.323654,33.792273],[134.322281,33.799121],[134.322968,33.802544],[134.323654,33.804256],[134.329834,33.804256]]],[[[134.299622,33.792273],[134.305115,33.789991],[134.307861,33.787137],[134.308548,33.782001],[134.307175,33.782572],[134.299622,33.787708],[134.298248,33.790561],[134.299622,33.792273]]],[[[134.306488,33.800262],[134.309235,33.799121],[134.312668,33.794556],[134.319534,33.792844],[134.317474,33.791702],[134.313354,33.791132],[134.305115,33.792844],[134.303055,33.791132],[134.298935,33.792844],[134.300308,33.793985],[134.300308,33.795126],[134.302368,33.799691],[134.306488,33.800262]]],[[[134.324341,33.792844],[134.327774,33.784284],[134.327774,33.778577],[134.331207,33.77344],[134.331207,33.771728],[134.326401,33.770586],[134.320908,33.774011],[134.316788,33.778577],[134.308548,33.782001],[134.307861,33.787137],[134.303055,33.791132],[134.303741,33.792273],[134.305801,33.792844],[134.313354,33.791132],[134.317474,33.791702],[134.319534,33.792844],[134.322968,33.791702],[134.324341,33.792844]]],[[[134.298248,33.787708],[134.301682,33.787137],[134.307175,33.782572],[134.316788,33.778577],[134.320908,33.774011],[134.326401,33.770586],[134.322281,33.76659],[134.325714,33.764878],[134.325027,33.753461],[134.319534,33.742613],[134.318848,33.738045],[134.320221,33.732906],[134.316101,33.731764],[134.311981,33.732335],[134.309921,33.731193],[134.305801,33.732335],[134.299622,33.731764],[134.294128,33.730621],[134.287949,33.727766],[134.283829,33.728908],[134.281769,33.731193],[134.285202,33.73519],[134.283829,33.743184],[134.281082,33.748893],[134.274902,33.754031],[134.273529,33.761453],[134.281082,33.763165],[134.283829,33.76602],[134.289322,33.767732],[134.292068,33.774581],[134.299622,33.776864],[134.301682,33.779718],[134.300995,33.78143],[134.298935,33.782001],[134.297562,33.783142],[134.298248,33.787708]]]]}},{"type":"Feature","properties":{"layer_id":"bakumatsu_villages","name":"平野村","address":"阿波 那賀郡","source":"Geoshape 幕末期近世村領域データセット vector tiles (z7 extraction)","subarea_name":"近世村のおおよその範囲","feature_key":"village:K54G09S00060","accuracy_note":"2015年農業集落境界をもとに復元した概略範囲で、江戸時代の正確な村境ではありません"},"geometry":{"type":"MultiPolygon","coordinates":[[[[134.437637,33.844186],[134.445877,33.839623],[134.447937,33.835631],[134.443817,33.835631],[134.44313,33.83449],[134.437637,33.83449],[134.434204,33.829927],[134.433517,33.826505],[134.429398,33.829927],[134.430771,33.831638],[134.429398,33.835631],[134.441071,33.835631],[134.441757,33.839053],[134.437637,33.844186]]],[[[134.442444,33.861293],[134.44725,33.85274],[134.446564,33.85217],[134.446564,33.851029],[134.44725,33.849889],[134.448624,33.844756],[134.450684,33.843045],[134.449997,33.83449],[134.44725,33.836201],[134.445877,33.839623],[134.437637,33.844186],[134.437637,33.846467],[134.433517,33.849889],[134.434891,33.857872],[134.436951,33.860153],[134.442444,33.861293]]],[[[134.446564,33.85274],[134.450684,33.851029],[134.452057,33.844186],[134.45755,33.841334],[134.458237,33.837912],[134.45343,33.836772],[134.45137,33.83392],[134.449997,33.83449],[134.450684,33.843045],[134.448624,33.844756],[134.44725,33.849889],[134.446564,33.851029],[134.446564,33.85274]]],[[[134.447937,33.835631],[134.45137,33.83392],[134.450684,33.832209],[134.452744,33.825934],[134.450684,33.825364],[134.44725,33.821941],[134.438324,33.81966],[134.433517,33.826505],[134.434204,33.829927],[134.437637,33.83449],[134.44313,33.83449],[134.443817,33.835631],[134.447937,33.835631]]],[[[134.45755,33.837912],[134.460983,33.837342],[134.462357,33.836201],[134.46167,33.830498],[134.452744,33.825934],[134.450684,33.832209],[134.452744,33.836772],[134.45755,33.837912]]]]}},{"type":"Feature","properties":{"layer_id":"bakumatsu_villages","name":"延野村","address":"阿波 那賀郡","source":"Geoshape 幕末期近世村領域データセット vector tiles (z7 extraction)","subarea_name":"近世村のおおよその範囲","feature_key":"village:K54G09S10001","accuracy_note":"2015年農業集落境界をもとに復元した概略範囲で、江戸時代の正確な村境ではありません"},"geometry":{"type":"MultiPolygon","coordinates":[[[[134.477463,33.824794],[134.479523,33.819089],[134.474716,33.817948],[134.473343,33.815096],[134.464417,33.813384],[134.46167,33.813384],[134.46373,33.82023],[134.471283,33.824794],[134.477463,33.824794]]],[[[134.477463,33.824794],[134.485016,33.824223],[134.480209,33.821371],[134.481583,33.820801],[134.481583,33.818519],[134.478836,33.819089],[134.477463,33.824794]]],[[[134.485016,33.823653],[134.486389,33.82023],[134.491882,33.81966],[134.496002,33.817378],[134.496002,33.814525],[134.491882,33.813955],[134.486389,33.816807],[134.482269,33.816807],[134.481583,33.820801],[134.480209,33.821371],[134.482956,33.823082],[134.485016,33.823653]]]]}},{"type":"Feature","properties":{"layer_id":"bakumatsu_villages","name":"当山村","address":"阿波 那賀郡","source":"Geoshape 幕末期近世村領域データセット vector tiles (z7 extraction)","subarea_name":"近世村のおおよその範囲","feature_key":"village:K54G09S00089","accuracy_note":"2015年農業集落境界をもとに復元した概略範囲で、江戸時代の正確な村境ではありません"},"geometry":{"type":"Polygon","coordinates":[[[134.320221,33.845897],[134.319534,33.844756],[134.321594,33.843616],[134.325714,33.837342],[134.326401,33.836201],[134.324341,33.835631],[134.318161,33.832779],[134.314728,33.832779],[134.309921,33.832209],[134.305115,33.832209],[134.301682,33.835061],[134.303055,33.839053],[134.305115,33.841334],[134.320221,33.845897]]]}},{"type":"Feature","properties":{"layer_id":"bakumatsu_villages","name":"折宇村","address":"阿波 海部郡","source":"Geoshape 幕末期近世村領域データセット vector tiles (z7 extraction)","subarea_name":"近世村のおおよその範囲","feature_key":"village:K54G08S00060","accuracy_note":"2015年農業集落境界をもとに復元した概略範囲で、江戸時代の正確な村境ではありません"},"geometry":{"type":"MultiPolygon","coordinates":[[[[134.162979,33.822512],[134.166412,33.821941],[134.171906,33.816237],[134.167786,33.809391],[134.167099,33.800262],[134.167786,33.795126],[134.169846,33.792844],[134.167099,33.792844],[134.161606,33.793985],[134.152679,33.790561],[134.1465,33.793414],[134.143066,33.793414],[134.14032,33.794556],[134.13826,33.796838],[134.136887,33.799691],[134.141693,33.811102],[134.139633,33.816237],[134.145126,33.820801],[134.154053,33.820801],[134.162979,33.822512]]],[[[134.116287,33.818519],[134.128647,33.817948],[134.139633,33.816237],[134.141693,33.811102],[134.136887,33.800262],[134.13826,33.796838],[134.143066,33.793414],[134.14444,33.786567],[134.149246,33.78143],[134.151993,33.775152],[134.156113,33.770015],[134.151306,33.764307],[134.14856,33.754602],[134.143753,33.748322],[134.1362,33.751177],[134.133453,33.750606],[134.134827,33.757457],[134.13208,33.765449],[134.131393,33.776294],[134.1259,33.782572],[134.119034,33.785996],[134.11972,33.791132],[134.113541,33.802544],[134.113541,33.80882],[134.116287,33.818519]]],[[[134.119034,33.785996],[134.1259,33.782572],[134.131393,33.776294],[134.131393,33.769444],[134.132767,33.761453],[134.134827,33.757457],[134.134827,33.753461],[134.133453,33.750606],[134.12796,33.749464],[134.12384,33.751177],[134.121094,33.754031],[134.117661,33.755744],[134.112167,33.754031],[134.108047,33.758599],[134.107361,33.765449],[134.110107,33.771157],[134.113541,33.77344],[134.111481,33.774581],[134.112167,33.775723],[134.119034,33.785996]]],[[[134.161606,33.793985],[134.169159,33.792844],[134.165726,33.78942],[134.164352,33.785996],[134.160919,33.782001],[134.158859,33.778006],[134.159546,33.771728],[134.157486,33.770586],[134.156799,33.768303],[134.155426,33.768874],[134.156799,33.770586],[134.155426,33.770015],[134.151993,33.775152],[134.15062,33.779147],[134.14444,33.786567],[134.143066,33.793414],[134.1465,33.793414],[134.152679,33.790561],[134.161606,33.793985]]],[[[134.167099,33.772298],[134.168472,33.771728],[134.170532,33.76602],[134.169846,33.764878],[134.167099,33.765449],[134.165726,33.764307],[134.168472,33.761453],[134.167099,33.759169],[134.168472,33.758599],[134.171906,33.759169],[134.174652,33.762595],[134.173279,33.765449],[134.176025,33.765449],[134.178085,33.762595],[134.177399,33.753461],[134.181519,33.750035],[134.189758,33.747751],[134.194565,33.748322],[134.196625,33.7409],[134.201431,33.73519],[134.204178,33.734619],[134.202118,33.728908],[134.206924,33.727766],[134.210358,33.722055],[134.207611,33.718057],[134.201431,33.716344],[134.195251,33.711775],[134.189758,33.711203],[134.186325,33.708347],[134.182892,33.707776],[134.176025,33.704349],[134.173965,33.703778],[134.169846,33.699208],[134.162292,33.696923],[134.164352,33.69121],[134.163666,33.688353],[134.160919,33.68721],[134.14856,33.686068],[134.147186,33.685496],[134.139633,33.690067],[134.134827,33.69121],[134.132767,33.694066],[134.1259,33.696351],[134.122467,33.696351],[134.11972,33.695209],[134.114227,33.696351],[134.105988,33.694066],[134.099121,33.694638],[134.095001,33.692924],[134.090195,33.693495],[134.081268,33.690638],[134.073029,33.690638],[134.066162,33.688924],[134.057922,33.69121],[134.056549,33.694066],[134.064789,33.698637],[134.063416,33.70035],[134.064102,33.706634],[134.066162,33.710061],[134.069595,33.711203],[134.069595,33.712917],[134.076462,33.715202],[134.087448,33.723769],[134.089508,33.727766],[134.089508,33.734619],[134.096375,33.741471],[134.104614,33.742042],[134.109421,33.746039],[134.112167,33.750035],[134.112167,33.754031],[134.116974,33.755744],[134.11972,33.755173],[134.1259,33.750035],[134.1362,33.751177],[134.143753,33.748322],[134.14856,33.754602],[134.151306,33.764307],[134.156113,33.770586],[134.155426,33.768874],[134.156799,33.767161],[134.158859,33.768303],[134.163666,33.76659],[134.165039,33.767161],[134.167099,33.772298]]]]}},{"type":"Feature","properties":{"layer_id":"bakumatsu_villages","name":"拝宮村","address":"阿波 那賀郡","source":"Geoshape 幕末期近世村領域データセット vector tiles (z7 extraction)","subarea_name":"近世村のおおよその範囲","feature_key":"village:K54G09S00080","accuracy_note":"2015年農業集落境界をもとに復元した概略範囲で、江戸時代の正確な村境ではありません"},"geometry":{"type":"MultiPolygon","coordinates":[[[[134.324341,33.835631],[134.325714,33.832779],[134.327774,33.831638],[134.327087,33.828216],[134.327774,33.827646],[134.3367,33.827075],[134.340134,33.826505],[134.339447,33.814525],[134.335327,33.812243],[134.329147,33.811673],[134.326401,33.809961],[134.321594,33.80882],[134.320908,33.811673],[134.314728,33.812814],[134.315414,33.815666],[134.313354,33.816237],[134.312668,33.820801],[134.318161,33.823082],[134.318161,33.832779],[134.324341,33.835631]]],[[[134.338074,33.838483],[134.339447,33.836772],[134.34288,33.835631],[134.344254,33.83392],[134.344254,33.830498],[134.341507,33.825934],[134.3367,33.827075],[134.327774,33.827646],[134.327087,33.828216],[134.327774,33.831638],[134.325714,33.832779],[134.324341,33.835631],[134.328461,33.837342],[134.332581,33.836772],[134.334641,33.838483],[134.338074,33.838483]]],[[[134.339447,33.814525],[134.342194,33.813384],[134.344254,33.806538],[134.3367,33.803685],[134.324341,33.804256],[134.322968,33.805397],[134.321594,33.80882],[134.326401,33.809961],[134.329147,33.811673],[134.335327,33.812243],[134.339447,33.814525]]]]}},{"type":"Feature","properties":{"layer_id":"bakumatsu_villages","name":"掛盤村","address":"阿波 那賀郡","source":"Geoshape 幕末期近世村領域データセット vector tiles (z7 extraction)","subarea_name":"近世村のおおよその範囲","feature_key":"village:K54G09S00082","accuracy_note":"2015年農業集落境界をもとに復元した概略範囲で、江戸時代の正確な村境ではありません"},"geometry":{"type":"MultiPolygon","coordinates":[[[[134.266663,33.861863],[134.271469,33.861293],[134.275589,33.859583],[134.276962,33.855021],[134.278336,33.855021],[134.271469,33.843616],[134.262543,33.843045],[134.260483,33.840764],[134.259109,33.846467],[134.261169,33.849889],[134.261856,33.85388],[134.263229,33.855021],[134.260483,33.856732],[134.261169,33.858442],[134.266663,33.860723],[134.266663,33.861863]]],[[[134.283829,33.855021],[134.289322,33.851599],[134.288635,33.849318],[134.290009,33.848748],[134.290009,33.845897],[134.286575,33.843616],[134.287262,33.841905],[134.271469,33.843616],[134.278336,33.855021],[134.283829,33.855021]]]]}},{"type":"Feature","properties":{"layer_id":"bakumatsu_villages","name":"日浦村","address":"阿波 那賀郡","source":"Geoshape 幕末期近世村領域データセット vector tiles (z7 extraction)","subarea_name":"近世村のおおよその範囲","feature_key":"village:K54G09S00071","accuracy_note":"2015年農業集落境界をもとに復元した概略範囲で、江戸時代の正確な村境ではありません"},"geometry":{"type":"Polygon","coordinates":[[[134.408798,33.812814],[134.408798,33.804826],[134.411545,33.79855],[134.408798,33.797409],[134.406738,33.793985],[134.402618,33.791702],[134.399185,33.791702],[134.397812,33.792844],[134.401932,33.796268],[134.402618,33.797409],[134.400558,33.800832],[134.397812,33.802544],[134.402618,33.80882],[134.403992,33.80882],[134.403305,33.809961],[134.406052,33.812814],[134.408798,33.812814]]]}},{"type":"Feature","properties":{"layer_id":"bakumatsu_villages","name":"朝生村","address":"阿波 那賀郡","source":"Geoshape 幕末期近世村領域データセット vector tiles (z7 extraction)","subarea_name":"近世村のおおよその範囲","feature_key":"village:K54G09S00049","accuracy_note":"2015年農業集落境界をもとに復元した概略範囲で、江戸時代の正確な村境ではありません"},"geometry":{"type":"Polygon","coordinates":[[[134.480896,33.840194],[134.482956,33.839053],[134.482269,33.836201],[134.484329,33.83449],[134.485703,33.83449],[134.486389,33.836201],[134.491882,33.83392],[134.493256,33.829357],[134.491882,33.828216],[134.489822,33.827646],[134.481583,33.831068],[134.478149,33.83335],[134.477463,33.837342],[134.478836,33.837342],[134.480896,33.840194]]]}},{"type":"Feature","properties":{"layer_id":"bakumatsu_villages","name":"木頭名村","address":"阿波 那賀郡","source":"Geoshape 幕末期近世村領域データセット vector tiles (z7 extraction)","subarea_name":"近世村のおおよその範囲","feature_key":"village:K54G09S00084","accuracy_note":"2015年農業集落境界をもとに復元した概略範囲で、江戸時代の正確な村境ではありません"},"geometry":{"type":"Polygon","coordinates":[[[134.308548,33.859012],[134.311981,33.857302],[134.320221,33.847608],[134.320221,33.845897],[134.318161,33.844756],[134.305801,33.841334],[134.303055,33.839053],[134.300308,33.839623],[134.296875,33.837342],[134.293442,33.837912],[134.291382,33.836772],[134.290695,33.839623],[134.287949,33.841334],[134.296875,33.845897],[134.295502,33.856732],[134.302368,33.859012],[134.305801,33.857872],[134.308548,33.859012]]]}},{"type":"Feature","properties":{"layer_id":"bakumatsu_villages","name":"木頭村","address":"阿波 那賀郡","source":"Geoshape 幕末期近世村領域データセット vector tiles (z7 extraction)","subarea_name":"近世村のおおよその範囲","feature_key":"village:K54G09S00081","accuracy_note":"2015年農業集落境界をもとに復元した概略範囲で、江戸時代の正確な村境ではありません"},"geometry":{"type":"Polygon","coordinates":[[[134.318161,33.832779],[134.318161,33.824223],[134.317474,33.822512],[134.314041,33.821941],[134.312668,33.820801],[134.313354,33.816237],[134.315414,33.815666],[134.314728,33.812814],[134.303055,33.813384],[134.300308,33.817378],[134.300308,33.820801],[134.301682,33.826505],[134.302368,33.827646],[134.311981,33.827646],[134.314728,33.832779],[134.318161,33.832779]]]}},{"type":"Feature","properties":{"layer_id":"bakumatsu_villages","name":"朴野村","address":"阿波 那賀郡","source":"Geoshape 幕末期近世村領域データセット vector tiles (z7 extraction)","subarea_name":"近世村のおおよその範囲","feature_key":"village:K54G09S00070","accuracy_note":"2015年農業集落境界をもとに復元した概略範囲で、江戸時代の正確な村境ではありません"},"geometry":{"type":"Polygon","coordinates":[[[134.410858,33.813384],[134.411545,33.809391],[134.412918,33.807679],[134.419785,33.80825],[134.428711,33.805397],[134.432831,33.807679],[134.436951,33.80825],[134.438324,33.80825],[134.439011,33.807109],[134.438324,33.79855],[134.440384,33.796838],[134.441757,33.792273],[134.441071,33.789991],[134.439697,33.792844],[134.434891,33.795126],[134.432831,33.799121],[134.430771,33.79855],[134.423904,33.794556],[134.417725,33.79855],[134.411545,33.79855],[134.408798,33.804826],[134.408798,33.812814],[134.410858,33.813384]]]}},{"type":"Feature","properties":{"layer_id":"bakumatsu_villages","name":"東尾村","address":"阿波 那賀郡","source":"Geoshape 幕末期近世村領域データセット vector tiles (z7 extraction)","subarea_name":"近世村のおおよその範囲","feature_key":"village:K54G09S00091","accuracy_note":"2015年農業集落境界をもとに復元した概略範囲で、江戸時代の正確な村境ではありません"},"geometry":{"type":"Polygon","coordinates":[[[134.356613,33.851599],[134.35936,33.849318],[134.360733,33.848748],[134.362793,33.847037],[134.364853,33.841334],[134.36142,33.840194],[134.3573,33.841334],[134.349747,33.836201],[134.350433,33.838483],[134.34906,33.838483],[134.34906,33.837342],[134.344254,33.836201],[134.34494,33.835631],[134.344254,33.83392],[134.34288,33.835631],[134.339447,33.836772],[134.338074,33.838483],[134.344254,33.846467],[134.345627,33.845897],[134.350433,33.850459],[134.356613,33.851599]]]}},{"type":"Feature","properties":{"layer_id":"bakumatsu_villages","name":"桜谷村","address":"阿波 那賀郡","source":"Geoshape 幕末期近世村領域データセット vector tiles (z7 extraction)","subarea_name":"近世村のおおよその範囲","feature_key":"village:K54G09S00075","accuracy_note":"2015年農業集落境界をもとに復元した概略範囲で、江戸時代の正確な村境ではありません"},"geometry":{"type":"Polygon","coordinates":[[[134.384766,33.810532],[134.381332,33.802544],[134.382019,33.79855],[134.378586,33.799121],[134.377899,33.805397],[134.375839,33.807679],[134.384766,33.810532]]]}},{"type":"Feature","properties":{"layer_id":"bakumatsu_villages","name":"榎谷村","address":"阿波 那賀郡","source":"Geoshape 幕末期近世村領域データセット vector tiles (z7 extraction)","subarea_name":"近世村のおおよその範囲","feature_key":"village:K54G09S00059","accuracy_note":"2015年農業集落境界をもとに復元した概略範囲で、江戸時代の正確な村境ではありません"},"geometry":{"type":"Polygon","coordinates":[[[134.452057,33.864144],[134.452744,33.85388],[134.460983,33.841334],[134.460983,33.837342],[134.458237,33.837912],[134.45755,33.841334],[134.452057,33.844186],[134.450684,33.851029],[134.44725,33.85274],[134.442444,33.861293],[134.448624,33.862433],[134.449997,33.861863],[134.452057,33.864144]]]}},{"type":"Feature","properties":{"layer_id":"bakumatsu_villages","name":"横石村","address":"阿波 那賀郡","source":"Geoshape 幕末期近世村領域データセット vector tiles (z7 extraction)","subarea_name":"近世村のおおよその範囲","feature_key":"village:K54G09S00069","accuracy_note":"2015年農業集落境界をもとに復元した概略範囲で、江戸時代の正確な村境ではありません"},"geometry":{"type":"MultiPolygon","coordinates":[[[[134.443817,33.791132],[134.452744,33.775152],[134.446564,33.774011],[134.445877,33.772869],[134.44725,33.768874],[134.448624,33.767732],[134.449997,33.767732],[134.44931,33.76659],[134.443817,33.763736],[134.439011,33.763736],[134.437637,33.762595],[134.432831,33.763736],[134.429398,33.763736],[134.425964,33.762024],[134.420471,33.757457],[134.421844,33.752319],[134.412231,33.741471],[134.408798,33.742613],[134.403992,33.741471],[134.401245,33.739758],[134.396439,33.739758],[134.392319,33.7409],[134.388885,33.746039],[134.384766,33.748893],[134.385452,33.75289],[134.391632,33.754602],[134.401245,33.762024],[134.408798,33.762595],[134.425278,33.772869],[134.428711,33.775723],[134.434891,33.785996],[134.439011,33.78942],[134.44313,33.789991],[134.443817,33.791132]]],[[[134.432831,33.799121],[134.434891,33.795126],[134.439697,33.792844],[134.441071,33.789991],[134.437637,33.788849],[134.432831,33.783713],[134.428711,33.775723],[134.426651,33.78143],[134.426651,33.787137],[134.421844,33.790561],[134.422531,33.795126],[134.424591,33.795126],[134.430771,33.79855],[134.432831,33.799121]]]]}},{"type":"Feature","properties":{"layer_id":"bakumatsu_villages","name":"檜曾根村","address":"阿波 那賀郡","source":"Geoshape 幕末期近世村領域データセット vector tiles (z7 extraction)","subarea_name":"近世村のおおよその範囲","feature_key":"village:K54G09S00079","accuracy_note":"2015年農業集落境界をもとに復元した概略範囲で、江戸時代の正確な村境ではありません"},"geometry":{"type":"Polygon","coordinates":[[[134.368973,33.836772],[134.372406,33.832209],[134.371033,33.829357],[134.371719,33.827075],[134.370346,33.819089],[134.360733,33.819089],[134.360733,33.81966],[134.353867,33.820801],[134.351807,33.82023],[134.348373,33.821941],[134.347687,33.824223],[134.349747,33.826505],[134.35318,33.827646],[134.35936,33.83335],[134.368973,33.836772]]]}},{"type":"Feature","properties":{"layer_id":"bakumatsu_villages","name":"水崎村","address":"阿波 那賀郡","source":"Geoshape 幕末期近世村領域データセット vector tiles (z7 extraction)","subarea_name":"近世村のおおよその範囲","feature_key":"village:K54G09S00074","accuracy_note":"2015年農業集落境界をもとに復元した概略範囲で、江戸時代の正確な村境ではありません"},"geometry":{"type":"Polygon","coordinates":[[[134.378586,33.799121],[134.383392,33.79855],[134.384766,33.792844],[134.386826,33.790561],[134.391632,33.788849],[134.392319,33.787137],[134.390259,33.785425],[134.398499,33.776294],[134.400558,33.770586],[134.401245,33.762024],[134.391632,33.754602],[134.385452,33.75289],[134.383392,33.755744],[134.381332,33.762024],[134.377213,33.76659],[134.375839,33.771728],[134.370346,33.775723],[134.362793,33.785425],[134.362106,33.791132],[134.368973,33.791702],[134.368286,33.796268],[134.371719,33.79855],[134.376526,33.796838],[134.378586,33.797409],[134.378586,33.799121]]]}},{"type":"Feature","properties":{"layer_id":"bakumatsu_villages","name":"沢谷村","address":"阿波 那賀郡","source":"Geoshape 幕末期近世村領域データセット vector tiles (z7 extraction)","subarea_name":"近世村のおおよその範囲","feature_key":"village:K54G09S00088","accuracy_note":"2015年農業集落境界をもとに復元した概略範囲で、江戸時代の正確な村境ではありません"},"geometry":{"type":"MultiPolygon","coordinates":[[[[134.272156,33.917723],[134.277649,33.915443],[134.281769,33.916013],[134.285889,33.915443],[134.285889,33.913734],[134.290009,33.906896],[134.294128,33.906896],[134.296188,33.909745],[134.298248,33.910885],[134.307861,33.906896],[134.310608,33.904046],[134.311981,33.900057],[134.316101,33.898347],[134.316101,33.894927],[134.318161,33.894357],[134.322281,33.888087],[134.305115,33.883527],[134.304428,33.884097],[134.298248,33.884667],[134.287949,33.883527],[134.283829,33.879537],[134.281082,33.878967],[134.279022,33.876687],[134.276276,33.876117],[134.276962,33.874976],[134.275589,33.870986],[134.276962,33.863004],[134.272842,33.864714],[134.264603,33.869845],[134.260483,33.874976],[134.25705,33.881817],[134.253616,33.883527],[134.252243,33.886377],[134.245377,33.886947],[134.241943,33.891507],[134.23851,33.892077],[134.23851,33.897777],[134.235764,33.900057],[134.23645,33.902336],[134.23233,33.904616],[134.23233,33.906326],[134.230957,33.908035],[134.24881,33.915443],[134.249496,33.917153],[134.253616,33.916583],[134.261856,33.917723],[134.272156,33.917723]]],[[[134.259796,33.876117],[134.266663,33.868705],[134.276962,33.863004],[134.274902,33.860153],[134.270782,33.861863],[134.266663,33.861863],[134.263229,33.870416],[134.260483,33.869845],[134.259796,33.876117]]],[[[134.304428,33.884097],[134.306488,33.881247],[134.303741,33.878967],[134.302368,33.875546],[134.296875,33.873266],[134.294128,33.870416],[134.289322,33.863574],[134.292068,33.860723],[134.290695,33.854451],[134.287949,33.855021],[134.285889,33.85388],[134.283142,33.855021],[134.277649,33.855021],[134.276276,33.855591],[134.274902,33.860153],[134.276962,33.863004],[134.275589,33.870986],[134.276962,33.874976],[134.276276,33.876117],[134.279022,33.876687],[134.281082,33.878967],[134.283829,33.879537],[134.289322,33.884097],[134.290695,33.883527],[134.292068,33.884097],[134.304428,33.884097]]],[[[134.322281,33.888087],[134.323654,33.886947],[134.325027,33.886947],[134.325714,33.882957],[134.321594,33.877827],[134.325714,33.874976],[134.326401,33.864144],[134.322968,33.859583],[134.312668,33.860153],[134.305801,33.857872],[134.302368,33.859012],[134.295502,33.856732],[134.296188,33.854451],[134.290695,33.854451],[134.292068,33.860723],[134.289322,33.863574],[134.294128,33.870416],[134.296875,33.873266],[134.302368,33.875546],[134.303741,33.878967],[134.306488,33.881247],[134.305115,33.883527],[134.322281,33.888087]]]]}},{"type":"Feature","properties":{"layer_id":"bakumatsu_villages","name":"海川村","address":"阿波 海部郡","source":"Geoshape 幕末期近世村領域データセット vector tiles (z7 extraction)","subarea_name":"近世村のおおよその範囲","feature_key":"village:K54G08S00057","accuracy_note":"2015年農業集落境界をもとに復元した概略範囲で、江戸時代の正確な村境ではありません"},"geometry":{"type":"MultiPolygon","coordinates":[[[[134.24675,33.791132],[134.249496,33.787708],[134.252243,33.787708],[134.253616,33.783713],[134.25293,33.782001],[134.25499,33.78143],[134.25499,33.778577],[134.250183,33.776294],[134.241943,33.779718],[134.237137,33.783713],[134.239883,33.787137],[134.24675,33.791132]]],[[[134.237137,33.783713],[134.241943,33.779718],[134.250183,33.776294],[134.255676,33.778577],[134.258423,33.772298],[134.25293,33.753461],[134.25499,33.741471],[134.249496,33.725482],[134.247437,33.723769],[134.24675,33.72434],[134.233704,33.7192],[134.229584,33.721484],[134.224091,33.721484],[134.222717,33.722626],[134.210358,33.722055],[134.206924,33.727766],[134.202805,33.728337],[134.202118,33.73005],[134.205551,33.736903],[134.211044,33.740329],[134.213104,33.739758],[134.216537,33.742042],[134.219971,33.742613],[134.222717,33.747751],[134.227524,33.749464],[134.233704,33.754031],[134.233704,33.755173],[134.229584,33.756886],[134.229584,33.761453],[134.226837,33.763736],[134.226837,33.76602],[134.231644,33.768874],[134.231644,33.775152],[134.228897,33.78086],[134.231644,33.782572],[134.235077,33.782001],[134.237137,33.783713]]],[[[134.25705,33.797409],[134.263229,33.793414],[134.263916,33.790561],[134.262543,33.786567],[134.259109,33.783713],[134.25499,33.78143],[134.25293,33.782001],[134.253616,33.783713],[134.252243,33.787708],[134.249496,33.787708],[134.248123,33.790561],[134.243317,33.793985],[134.248123,33.796268],[134.254303,33.797409],[134.25705,33.797409]]],[[[134.263229,33.793414],[134.267349,33.788279],[134.268723,33.784284],[134.269409,33.771728],[134.273529,33.761453],[134.274902,33.754031],[134.281082,33.748893],[134.283829,33.743184],[134.285202,33.734619],[134.281769,33.731193],[134.276276,33.728337],[134.270782,33.727766],[134.268036,33.724911],[134.265976,33.72434],[134.263229,33.720913],[134.258423,33.720913],[134.256363,33.7192],[134.250183,33.720342],[134.248123,33.721484],[134.247437,33.723769],[134.249496,33.725482],[134.25499,33.741471],[134.25293,33.753461],[134.258423,33.772298],[134.256363,33.777435],[134.25499,33.778577],[134.254303,33.78086],[134.262543,33.786567],[134.263916,33.790561],[134.263229,33.793414]]]]}},{"type":"Feature","properties":{"layer_id":"bakumatsu_villages","name":"牛輪村","address":"阿波 那賀郡","source":"Geoshape 幕末期近世村領域データセット vector tiles (z7 extraction)","subarea_name":"近世村のおおよその範囲","feature_key":"village:K54G09S00053","accuracy_note":"2015年農業集落境界をもとに復元した概略範囲で、江戸時代の正確な村境ではありません"},"geometry":{"type":"Polygon","coordinates":[[[134.469223,33.831638],[134.46991,33.829927],[134.471283,33.829927],[134.474716,33.825364],[134.471283,33.824794],[134.46579,33.820801],[134.46373,33.823082],[134.460983,33.823653],[134.458237,33.827646],[134.456177,33.827646],[134.46167,33.830498],[134.469223,33.831638]]]}},{"type":"Feature","properties":{"layer_id":"bakumatsu_villages","name":"百合村","address":"阿波 那賀郡","source":"Geoshape 幕末期近世村領域データセット vector tiles (z7 extraction)","subarea_name":"近世村のおおよその範囲","feature_key":"village:K54G09S00047","accuracy_note":"2015年農業集落境界をもとに復元した概略範囲で、江戸時代の正確な村境ではありません"},"geometry":{"type":"Polygon","coordinates":[[[134.486389,33.849318],[134.493942,33.845327],[134.496002,33.847608],[134.499435,33.843045],[134.500809,33.837342],[134.496689,33.835631],[134.493942,33.832209],[134.491882,33.83392],[134.486389,33.836201],[134.485703,33.83449],[134.484329,33.83449],[134.482269,33.836201],[134.482956,33.839053],[134.480896,33.840194],[134.478836,33.837342],[134.477463,33.837342],[134.477463,33.840194],[134.474716,33.841334],[134.483643,33.848748],[134.486389,33.849318]]]}},{"type":"Feature","properties":{"layer_id":"bakumatsu_villages","name":"百合谷村","address":"阿波 那賀郡","source":"Geoshape 幕末期近世村領域データセット vector tiles (z7 extraction)","subarea_name":"近世村のおおよその範囲","feature_key":"village:K54G09S00048","accuracy_note":"2015年農業集落境界をもとに復元した概略範囲で、江戸時代の正確な村境ではありません"},"geometry":{"type":"Polygon","coordinates":[[[134.500809,33.837342],[134.506302,33.836772],[134.508362,33.832779],[134.509735,33.831068],[134.513168,33.830498],[134.514542,33.829357],[134.509735,33.823082],[134.510422,33.82023],[134.509048,33.818519],[134.499435,33.827075],[134.497375,33.830498],[134.493942,33.832209],[134.496689,33.835631],[134.500809,33.837342]]]}},{"type":"Feature","properties":{"layer_id":"bakumatsu_villages","name":"相名村","address":"阿波 那賀郡","source":"Geoshape 幕末期近世村領域データセット vector tiles (z7 extraction)","subarea_name":"近世村のおおよその範囲","feature_key":"village:K54G09S00057","accuracy_note":"2015年農業集落境界をもとに復元した概略範囲で、江戸時代の正確な村境ではありません"},"geometry":{"type":"Polygon","coordinates":[[[134.427338,33.83392],[134.429398,33.829927],[134.432144,33.828216],[134.435577,33.823653],[134.429398,33.821941],[134.421158,33.831068],[134.427338,33.83392]]]}},{"type":"Feature","properties":{"layer_id":"bakumatsu_villages","name":"竹ヶ谷村","address":"阿波 那賀郡","source":"Geoshape 幕末期近世村領域データセット vector tiles (z7 extraction)","subarea_name":"近世村のおおよその範囲","feature_key":"village:K54G09S00092","accuracy_note":"2015年農業集落境界をもとに復元した概略範囲で、江戸時代の正確な村境ではありません"},"geometry":{"type":"Polygon","coordinates":[[[134.376526,33.856732],[134.379959,33.85331],[134.384079,33.851599],[134.389572,33.851599],[134.392319,33.85388],[134.395065,33.85331],[134.399872,33.844756],[134.406052,33.840764],[134.408112,33.840764],[134.407425,33.837912],[134.400558,33.835631],[134.398499,33.83392],[134.395752,33.832779],[134.391632,33.826505],[134.390945,33.827646],[134.384766,33.831068],[134.371719,33.832779],[134.367599,33.838483],[134.36554,33.840194],[134.362793,33.847037],[134.360733,33.848748],[134.364853,33.850459],[134.373093,33.855591],[134.376526,33.856732]]]}},{"type":"Feature","properties":{"layer_id":"bakumatsu_villages","name":"簗ノ上村","address":"阿波 那賀郡","source":"Geoshape 幕末期近世村領域データセット vector tiles (z7 extraction)","subarea_name":"近世村のおおよその範囲","feature_key":"village:K54G09S00062","accuracy_note":"2015年農業集落境界をもとに復元した概略範囲で、江戸時代の正確な村境ではありません"},"geometry":{"type":"Polygon","coordinates":[[[134.491882,33.83392],[134.497375,33.830498],[134.505615,33.820801],[134.508362,33.81966],[134.509048,33.818519],[134.507675,33.813384],[134.496689,33.815096],[134.496002,33.816807],[134.494629,33.817948],[134.489822,33.82023],[134.486389,33.82023],[134.485016,33.822512],[134.485016,33.824223],[134.487076,33.826505],[134.491882,33.828216],[134.493256,33.829357],[134.491882,33.83392]]]}},{"type":"Feature","properties":{"layer_id":"bakumatsu_villages","name":"臼ヶ谷村","address":"阿波 那賀郡","source":"Geoshape 幕末期近世村領域データセット vector tiles (z7 extraction)","subarea_name":"近世村のおおよその範囲","feature_key":"village:K54G09S00073","accuracy_note":"2015年農業集落境界をもとに復元した概略範囲で、江戸時代の正確な村境ではありません"},"geometry":{"type":"Polygon","coordinates":[[[134.372406,33.832209],[134.384766,33.831068],[134.390945,33.827646],[134.391632,33.826505],[134.387512,33.823653],[134.386139,33.816807],[134.375839,33.816807],[134.370346,33.819089],[134.371719,33.827075],[134.371033,33.829357],[134.372406,33.832209]]]}},{"type":"Feature","properties":{"layer_id":"bakumatsu_villages","name":"花瀬村","address":"阿波 那賀郡","source":"Geoshape 幕末期近世村領域データセット vector tiles (z7 extraction)","subarea_name":"近世村のおおよその範囲","feature_key":"village:K54G09S00068","accuracy_note":"2015年農業集落境界をもとに復元した概略範囲で、江戸時代の正確な村境ではありません"},"geometry":{"type":"MultiPolygon","coordinates":[[[[134.388885,33.804826],[134.397812,33.802544],[134.391632,33.794556],[134.392319,33.791702],[134.403992,33.783142],[134.398499,33.775723],[134.390259,33.785425],[134.392319,33.787137],[134.391632,33.788849],[134.386826,33.790561],[134.383392,33.797409],[134.385452,33.803685],[134.388885,33.804826]]],[[[134.397812,33.802544],[134.402618,33.797979],[134.401932,33.796268],[134.397812,33.792844],[134.400558,33.791132],[134.406738,33.793985],[134.410858,33.79855],[134.413605,33.799121],[134.412231,33.794556],[134.405365,33.788279],[134.403992,33.783142],[134.394379,33.789991],[134.391632,33.793414],[134.391632,33.795697],[134.397812,33.802544]]]]}},{"type":"Feature","properties":{"layer_id":"bakumatsu_villages","name":"菖蒲村","address":"阿波 那賀郡","source":"Geoshape 幕末期近世村領域データセット vector tiles (z7 extraction)","subarea_name":"近世村のおおよその範囲","feature_key":"village:K54G09S00077","accuracy_note":"2015年農業集落境界をもとに復元した概略範囲で、江戸時代の正確な村境ではありません"},"geometry":{"type":"Polygon","coordinates":[[[134.364853,33.841334],[134.368973,33.836772],[134.35936,33.83335],[134.35318,33.827646],[134.349747,33.826505],[134.347687,33.824223],[134.341507,33.825934],[134.344254,33.830498],[134.344254,33.83392],[134.34494,33.835631],[134.344254,33.836201],[134.34906,33.837342],[134.34906,33.838483],[134.350433,33.838483],[134.349747,33.836201],[134.3573,33.841334],[134.36142,33.840194],[134.364853,33.841334]]]}},{"type":"Feature","properties":{"layer_id":"bakumatsu_villages","name":"蔭谷村","address":"阿波 那賀郡","source":"Geoshape 幕末期近世村領域データセット vector tiles (z7 extraction)","subarea_name":"近世村のおおよその範囲","feature_key":"village:K54G09S00067","accuracy_note":"2015年農業集落境界をもとに復元した概略範囲で、江戸時代の正確な村境ではありません"},"geometry":{"type":"Polygon","coordinates":[[[134.413605,33.799121],[134.417725,33.79855],[134.422531,33.795126],[134.421844,33.790561],[134.426651,33.787137],[134.426651,33.78143],[134.428711,33.775723],[134.408798,33.762595],[134.401245,33.762024],[134.401932,33.764307],[134.398499,33.775723],[134.403992,33.782001],[134.405365,33.788279],[134.412231,33.794556],[134.413605,33.799121]]]}},{"type":"Feature","properties":{"layer_id":"bakumatsu_villages","name":"西宇村","address":"阿波 海部郡","source":"Geoshape 幕末期近世村領域データセット vector tiles (z7 extraction)","subarea_name":"近世村のおおよその範囲","feature_key":"village:K54G08S00064","accuracy_note":"2015年農業集落境界をもとに復元した概略範囲で、江戸時代の正確な村境ではありません"},"geometry":{"type":"MultiPolygon","coordinates":[[[[134.169846,33.792844],[134.177399,33.788849],[134.174652,33.78143],[134.171219,33.778006],[134.172592,33.772869],[134.171906,33.76659],[134.170532,33.76602],[134.168472,33.771728],[134.167099,33.772298],[134.164352,33.76659],[134.158859,33.768303],[134.157486,33.767161],[134.156113,33.767161],[134.157486,33.770586],[134.159546,33.771728],[134.158859,33.778006],[134.160919,33.782001],[134.164352,33.785996],[134.167099,33.791132],[134.169846,33.792844]]],[[[134.178772,33.788849],[134.180832,33.78086],[134.184265,33.775723],[134.184265,33.774581],[134.180832,33.775723],[134.180145,33.774011],[134.184265,33.772298],[134.186325,33.769444],[134.189758,33.767161],[134.193878,33.758599],[134.197998,33.756886],[134.198685,33.754602],[134.197998,33.751177],[134.194565,33.748322],[134.189758,33.747751],[134.180832,33.750606],[134.177399,33.754031],[134.178085,33.762595],[134.176025,33.765449],[134.173279,33.765449],[134.174652,33.762595],[134.171906,33.759169],[134.168472,33.758599],[134.167099,33.759169],[134.168472,33.761453],[134.165726,33.764307],[134.167099,33.765449],[134.169159,33.764878],[134.171906,33.76602],[134.172592,33.772869],[134.171219,33.778006],[134.174652,33.78143],[134.177399,33.788849],[134.178772,33.788849]]]]}},{"type":"Feature","properties":{"layer_id":"bakumatsu_villages","name":"西納村","address":"阿波 那賀郡","source":"Geoshape 幕末期近世村領域データセット vector tiles (z7 extraction)","subarea_name":"近世村のおおよその範囲","feature_key":"village:K54G09S00056","accuracy_note":"2015年農業集落境界をもとに復元した概略範囲で、江戸時代の正確な村境ではありません"},"geometry":{"type":"Polygon","coordinates":[[[134.423218,33.843045],[134.423218,33.840764],[134.427338,33.83392],[134.421158,33.831068],[134.423218,33.828216],[134.421844,33.827646],[134.421158,33.824223],[134.419098,33.823653],[134.417725,33.820801],[134.410858,33.815666],[134.410172,33.817378],[134.403992,33.82023],[134.402618,33.822512],[134.401932,33.826505],[134.391632,33.826505],[134.395752,33.832779],[134.398499,33.83392],[134.400558,33.835631],[134.407425,33.837912],[134.408112,33.840764],[134.412918,33.839623],[134.418411,33.841334],[134.421158,33.840764],[134.423218,33.843045]]]}},{"type":"Feature","properties":{"layer_id":"bakumatsu_villages","name":"谷内村","address":"阿波 那賀郡","source":"Geoshape 幕末期近世村領域データセット vector tiles (z7 extraction)","subarea_name":"近世村のおおよその範囲","feature_key":"village:K54G09S00052","accuracy_note":"2015年農業集落境界をもとに復元した概略範囲で、江戸時代の正確な村境ではありません"},"geometry":{"type":"Polygon","coordinates":[[[134.465103,33.842475],[134.46785,33.839623],[134.468536,33.840764],[134.474716,33.841334],[134.477463,33.840194],[134.476776,33.837912],[134.478149,33.83335],[134.475403,33.83392],[134.46167,33.830498],[134.462357,33.836201],[134.460297,33.840194],[134.462357,33.842475],[134.465103,33.842475]]]}},{"type":"Feature","properties":{"layer_id":"bakumatsu_villages","name":"鉢村","address":"阿波 那賀郡","source":"Geoshape 幕末期近世村領域データセット vector tiles (z7 extraction)","subarea_name":"近世村のおおよその範囲","feature_key":"village:K54G09S00064","accuracy_note":"2015年農業集落境界をもとに復元した概略範囲で、江戸時代の正確な村境ではありません"},"geometry":{"type":"Polygon","coordinates":[[[134.46991,33.802544],[134.470596,33.800832],[134.467163,33.795697],[134.46785,33.792844],[134.471283,33.789991],[134.46785,33.782572],[134.465103,33.779718],[134.460297,33.783142],[134.45755,33.787708],[134.45755,33.790561],[134.458923,33.799691],[134.46579,33.799121],[134.468536,33.800262],[134.46991,33.802544]]]}},{"type":"Feature","properties":{"layer_id":"bakumatsu_villages","name":"長安村","address":"阿波 那賀郡","source":"Geoshape 幕末期近世村領域データセット vector tiles (z7 extraction)","subarea_name":"近世村のおおよその範囲","feature_key":"village:K54G09S00078","accuracy_note":"2015年農業集落境界をもとに復元した概略範囲で、江戸時代の正確な村境ではありません"},"geometry":{"type":"Polygon","coordinates":[[[134.340134,33.826505],[134.347687,33.824223],[134.350433,33.82023],[134.370346,33.819089],[134.370346,33.812243],[134.364166,33.810532],[134.360046,33.80882],[134.35936,33.807679],[134.356613,33.807109],[134.346313,33.805967],[134.344254,33.806538],[134.342194,33.813384],[134.33876,33.815666],[134.340134,33.826505]]]}},{"type":"Feature","properties":{"layer_id":"bakumatsu_villages","name":"阿井村","address":"阿波 那賀郡","source":"Geoshape 幕末期近世村領域データセット vector tiles (z7 extraction)","subarea_name":"近世村のおおよその範囲","feature_key":"village:K54G09S00046","accuracy_note":"2015年農業集落境界をもとに復元した概略範囲で、江戸時代の正確な村境ではありません"},"geometry":{"type":"Polygon","coordinates":[[[134.464417,33.85388],[134.472656,33.849318],[134.477463,33.848178],[134.478836,33.850459],[134.480896,33.851029],[134.482269,33.85274],[134.486389,33.849318],[134.483643,33.848748],[134.474716,33.841334],[134.468536,33.840764],[134.46785,33.839623],[134.465103,33.841334],[134.463043,33.848178],[134.464417,33.85388]]]}},{"type":"Feature","properties":{"layer_id":"bakumatsu_villages","name":"阿津江村","address":"阿波 那賀郡","source":"Geoshape 幕末期近世村領域データセット vector tiles (z7 extraction)","subarea_name":"近世村のおおよその範囲","feature_key":"village:K54G09S00085","accuracy_note":"2015年農業集落境界をもとに復元した概略範囲で、江戸時代の正確な村境ではありません"},"geometry":{"type":"Polygon","coordinates":[[[134.287949,33.855021],[134.296188,33.854451],[134.296875,33.845897],[134.287262,33.841905],[134.286575,33.843616],[134.289322,33.845327],[134.290009,33.848178],[134.288635,33.849318],[134.289322,33.851599],[134.285889,33.85331],[134.285889,33.85388],[134.287949,33.855021]]]}},{"type":"Feature","properties":{"layer_id":"bakumatsu_villages","name":"雄村","address":"阿波 那賀郡","source":"Geoshape 幕末期近世村領域データセット vector tiles (z7 extraction)","subarea_name":"近世村のおおよその範囲","feature_key":"village:K54G09S00063","accuracy_note":"2015年農業集落境界をもとに復元した概略範囲で、江戸時代の正確な村境ではありません"},"geometry":{"type":"MultiPolygon","coordinates":[[[[134.486389,33.816807],[134.491882,33.813384],[134.495316,33.813955],[134.496689,33.815096],[134.507675,33.813384],[134.511795,33.806538],[134.504929,33.804256],[134.496689,33.805967],[134.485703,33.805397],[134.476776,33.801974],[134.47403,33.797409],[134.46991,33.802544],[134.472656,33.807109],[134.476089,33.809961],[134.479523,33.815666],[134.481583,33.816807],[134.486389,33.816807]]],[[[134.521408,33.80825],[134.527588,33.804256],[134.525528,33.800832],[134.519348,33.799691],[134.506302,33.795126],[134.504929,33.793985],[134.498749,33.792844],[134.490509,33.794556],[134.487762,33.793414],[134.480209,33.787137],[134.480209,33.782572],[134.478836,33.780289],[134.474716,33.778006],[134.46579,33.779718],[134.46785,33.782572],[134.471283,33.789991],[134.46785,33.792844],[134.467163,33.795697],[134.470596,33.800832],[134.47403,33.797409],[134.476776,33.801974],[134.485703,33.805397],[134.496689,33.805967],[134.504929,33.804256],[134.511795,33.806538],[134.518661,33.807109],[134.521408,33.80825]]]]}},{"type":"Feature","properties":{"layer_id":"bakumatsu_villages","name":"音谷村","address":"阿波 那賀郡","source":"Geoshape 幕末期近世村領域データセット vector tiles (z7 extraction)","subarea_name":"近世村のおおよその範囲","feature_key":"village:K54G09S00072","accuracy_note":"2015年農業集落境界をもとに復元した概略範囲で、江戸時代の正確な村境ではありません"},"geometry":{"type":"Polygon","coordinates":[[[134.396439,33.827075],[134.397812,33.826505],[134.401932,33.826505],[134.402618,33.821941],[134.403992,33.82023],[134.410172,33.817378],[134.410858,33.815666],[134.410858,33.813384],[134.406052,33.812814],[134.403305,33.809961],[134.403992,33.80882],[134.402618,33.80882],[134.397812,33.802544],[134.388885,33.804826],[134.385452,33.803685],[134.383392,33.79855],[134.382019,33.79855],[134.381332,33.802544],[134.385452,33.813384],[134.384766,33.815096],[134.386139,33.82023],[134.387512,33.823653],[134.390945,33.826505],[134.396439,33.827075]]]}},{"type":"Feature","properties":{"layer_id":"bakumatsu_villages","name":"馬路村","address":"阿波 那賀郡","source":"Geoshape 幕末期近世村領域データセット vector tiles (z7 extraction)","subarea_name":"近世村のおおよその範囲","feature_key":"village:K54G09S00050","accuracy_note":"2015年農業集落境界をもとに復元した概略範囲で、江戸時代の正確な村境ではありません"},"geometry":{"type":"Polygon","coordinates":[[[134.458237,33.865854],[134.462357,33.865284],[134.46373,33.861293],[134.463043,33.857872],[134.464417,33.855021],[134.463043,33.848178],[134.465103,33.842475],[134.462357,33.842475],[134.460983,33.841334],[134.452744,33.85388],[134.452057,33.864144],[134.458237,33.865854]]]}},{"type":"Feature","properties":{"layer_id":"bakumatsu_villages","name":"鮎川村","address":"阿波 那賀郡","source":"Geoshape 幕末期近世村領域データセット vector tiles (z7 extraction)","subarea_name":"近世村のおおよその範囲","feature_key":"village:K54G09S00051","accuracy_note":"2015年農業集落境界をもとに復元した概略範囲で、江戸時代の正確な村境ではありません"},"geometry":{"type":"Polygon","coordinates":[[[134.475403,33.83392],[134.478149,33.83335],[134.481583,33.831068],[134.489822,33.827646],[134.487076,33.826505],[134.485016,33.824223],[134.474716,33.825364],[134.471283,33.829927],[134.46991,33.829927],[134.469223,33.831638],[134.475403,33.83392]]]}},{"type":"Feature","properties":{"layer_id":"civil_engineering_heritage","name":"旧桜谷発電所","address":"徳島県/那賀郡那賀町桜谷","source":"土木学会 選奨土木遺産","subarea_name":"旧桜谷発電所は、明治４３年に自然地形を活用したダムの無い水力発電所として建設され、重厚な石積みの取水口などが現存する貴重な土木遺産であります。","feature_key":"civil:477:旧桜谷発電所","source_url":"https://committees.jsce.or.jp/heritage/node/795","accuracy_note":"公式地図の位置を優先して収録しています"},"geometry":{"type":"Point","coordinates":[134.379122,33.798138]}},{"type":"Feature","properties":{"layer_id":"civil_engineering_heritage","name":"木頭出原谷の鉄砲堰","address":"徳島県/ 那賀郡","source":"土木学会 選奨土木遺産","subarea_name":"練り石積みのアテ堰。中央部を一気に破堤させることで木材を押し流していた。 木組みの一時的なものが多く石積みは珍しい。","feature_key":"civil:472:木頭出原谷の鉄砲堰","source_url":"https://committees.jsce.or.jp/heritage/node/548","accuracy_note":"公式地図の位置を優先して収録しています"},"geometry":{"type":"Point","coordinates":[134.211148,33.756374]}},{"type":"Feature","properties":{"layer_id":"historical_sites_archaeology","name":"仁宇城跡","address":"徳島県 那賀郡那賀町 仁宇","source":"Geoshape 日本歴史地名大系 施設・地点項目データセット 2025-05-15","subarea_name":"城跡","feature_key":"05_castle_ruins.geojson:370000138400","subtype":"城跡"},"geometry":{"type":"Point","coordinates":[134.47948,33.852513]}},{"type":"Feature","properties":{"layer_id":"historical_sites_archaeology","name":"古屋岩陰遺跡","address":"徳島県 那賀郡那賀町 古屋","source":"Geoshape 日本歴史地名大系 施設・地点項目データセット 2025-05-15","subarea_name":"遺跡","feature_key":"08_archaeological_sites.geojson:370000145100","subtype":"遺跡"},"geometry":{"type":"Point","coordinates":[134.359124,33.793448]}},{"type":"Feature","properties":{"layer_id":"historical_sites_archaeology","name":"茨ヶ岡城跡","address":"徳島県 那賀郡那賀町 和食郷","source":"Geoshape 日本歴史地名大系 施設・地点項目データセット 2025-05-15","subarea_name":"城跡","feature_key":"05_castle_ruins.geojson:370000138200","subtype":"城跡"},"geometry":{"type":"Point","coordinates":[134.509523,33.857853]}},{"type":"Feature","properties":{"layer_id":"historical_temples_shrines","name":"八幡神社","address":"徳島県 那賀郡那賀町 和食郷字八幡原150番地","source":"Geoshape 日本歴史地名大系 施設・地点項目データセット 2025-05-15","subarea_name":"神社","feature_key":"02_shrines.geojson:370000054000","subtype":"神社"},"geometry":{"type":"Point","coordinates":[134.505966,33.85582]}},{"type":"Feature","properties":{"layer_id":"historical_temples_shrines","name":"八幡神社","address":"徳島県 那賀郡那賀町 和食郷字八幡原150番地","source":"Geoshape 日本歴史地名大系 施設・地点項目データセット 2025-05-15","subarea_name":"神社","feature_key":"02_shrines.geojson:370000062100","subtype":"神社"},"geometry":{"type":"Point","coordinates":[134.505966,33.85582]}},{"type":"Feature","properties":{"layer_id":"historical_temples_shrines","name":"八幡神社","address":"徳島県 名東郡佐那河内村 下字高樋79番地","source":"Geoshape 日本歴史地名大系 施設・地点項目データセット 2025-05-15","subarea_name":"神社","feature_key":"02_shrines.geojson:370000146400","subtype":"神社"},"geometry":{"type":"Point","coordinates":[134.234577,33.796462]}},{"type":"Feature","properties":{"layer_id":"historical_temples_shrines","name":"八幡神社","address":"徳島県 那賀郡那賀町 木頭和無田字ヨシノ31番地","source":"Geoshape 日本歴史地名大系 施設・地点項目データセット 2025-05-15","subarea_name":"神社","feature_key":"02_shrines.geojson:370000147300","subtype":"神社"},"geometry":{"type":"Point","coordinates":[134.1978,33.772964]}},{"type":"Feature","properties":{"layer_id":"historical_temples_shrines","name":"宇奈為神社","address":"徳島県 那賀郡那賀町 木頭字内ノ瀬1番地","source":"Geoshape 日本歴史地名大系 施設・地点項目データセット 2025-05-15","subarea_name":"神社","feature_key":"02_shrines.geojson:370000142300","subtype":"神社"},"geometry":{"type":"Point","coordinates":[134.304001,33.813503]}},{"type":"Feature","properties":{"layer_id":"historical_temples_shrines","name":"新田神社","address":"徳島県 那賀郡那賀町 雄字岡70番地","source":"Geoshape 日本歴史地名大系 施設・地点項目データセット 2025-05-15","subarea_name":"神社","feature_key":"02_shrines.geojson:370000140200","subtype":"神社"},"geometry":{"type":"Point","coordinates":[134.481018,33.812691]}},{"type":"Feature","properties":{"layer_id":"historical_temples_shrines","name":"蛭子神社","address":"徳島県 阿南市 原ケ崎町居屋敷原ケ崎町128番地","source":"Geoshape 日本歴史地名大系 施設・地点項目データセット 2025-05-15","subarea_name":"神社","feature_key":"02_shrines.geojson:370000138500","subtype":"神社"},"geometry":{"type":"Point","coordinates":[134.500142,33.859119]}},{"type":"Feature","properties":{"layer_id":"historical_temples_shrines","name":"金刀比羅神社","address":"徳島県 那賀郡那賀町 土佐165番地","source":"Geoshape 日本歴史地名大系 施設・地点項目データセット 2025-05-15","subarea_name":"神社","feature_key":"02_shrines.geojson:370000090300","subtype":"神社"},"geometry":{"type":"Point","coordinates":[134.492661,33.857265]}}]}