{"type":"FeatureCollection","municipality_code":"36383","pref":"徳島県","city":"牟岐町","layer_counts":{"bakumatsu_villages":8,"edo_roads":1,"historical_sites_archaeology":2,"historical_temples_shrines":1},"total_features":12,"features":[{"type":"Feature","properties":{"layer_id":"bakumatsu_villages","name":"中村","address":"阿波 海部郡","source":"Geoshape 幕末期近世村領域データセット vector tiles (z7 extraction)","subarea_name":"近世村のおおよその範囲","feature_key":"village:K54G08S00001","accuracy_note":"2015年農業集落境界をもとに復元した概略範囲で、江戸時代の正確な村境ではありません"},"geometry":{"type":"MultiPolygon","coordinates":[[[[134.405365,33.681497],[134.408112,33.67864],[134.414978,33.680925],[134.419785,33.677497],[134.422531,33.677497],[134.417725,33.670068],[134.418411,33.667211],[134.412918,33.663782],[134.412918,33.662639],[134.410858,33.659782],[134.407425,33.66664],[134.398499,33.668354],[134.396439,33.670068],[134.397125,33.674069],[134.400558,33.677497],[134.399872,33.680354],[134.405365,33.681497]]],[[[134.421844,33.666068],[134.421158,33.666068],[134.419785,33.666068],[134.417725,33.664925],[134.417725,33.663211],[134.417038,33.663782],[134.417038,33.662639],[134.417725,33.661496],[134.415665,33.659782],[134.417038,33.656924],[134.413605,33.655781],[134.410858,33.659782],[134.412918,33.662639],[134.412918,33.663782],[134.418411,33.667211],[134.417725,33.670068],[134.419785,33.674069],[134.421844,33.666068]]],[[[134.417038,33.662639],[134.419098,33.662639],[134.419785,33.663211],[134.420471,33.662068],[134.417038,33.662639]]]]}},{"type":"Feature","properties":{"layer_id":"bakumatsu_villages","name":"内妻村","address":"阿波 海部郡","source":"Geoshape 幕末期近世村領域データセット vector tiles (z7 extraction)","subarea_name":"近世村のおおよその範囲","feature_key":"village:K54G08S00003","accuracy_note":"2015年農業集落境界をもとに復元した概略範囲で、江戸時代の正確な村境ではありません"},"geometry":{"type":"Polygon","coordinates":[[[134.382706,33.686068],[134.390259,33.679211],[134.399872,33.680354],[134.400558,33.677497],[134.397125,33.674069],[134.396439,33.670068],[134.398499,33.668354],[134.407425,33.66664],[134.408798,33.665497],[134.408798,33.662639],[134.413605,33.655209],[134.409485,33.654638],[134.409485,33.656352],[134.407425,33.656352],[134.406738,33.658067],[134.405365,33.658067],[134.404678,33.659782],[134.402618,33.660353],[134.399185,33.656352],[134.397812,33.657495],[134.395065,33.656352],[134.395065,33.654638],[134.396439,33.653495],[134.396439,33.65178],[134.395752,33.650637],[134.394379,33.651208],[134.389572,33.650637],[134.387512,33.654066],[134.384079,33.654638],[134.382706,33.656924],[134.379272,33.658067],[134.373779,33.666068],[134.371719,33.666068],[134.369659,33.667211],[134.368973,33.669497],[134.371033,33.670068],[134.371033,33.671783],[134.373093,33.672354],[134.372406,33.673497],[134.371033,33.67464],[134.36554,33.675211],[134.364166,33.676926],[134.36142,33.677497],[134.362106,33.67864],[134.364166,33.680354],[134.36554,33.68264],[134.370346,33.681497],[134.376526,33.68264],[134.382706,33.686068]]]}},{"type":"Feature","properties":{"layer_id":"bakumatsu_villages","name":"川長村","address":"阿波 海部郡","source":"Geoshape 幕末期近世村領域データセット vector tiles (z7 extraction)","subarea_name":"近世村のおおよその範囲","feature_key":"village:K54G08S00020","accuracy_note":"2015年農業集落境界をもとに復元した概略範囲で、江戸時代の正確な村境ではありません"},"geometry":{"type":"Polygon","coordinates":[[[134.431458,33.686068],[134.435577,33.683782],[134.436264,33.676354],[134.432831,33.67464],[134.429398,33.669497],[134.423218,33.667783],[134.422531,33.666068],[134.419785,33.674069],[134.422531,33.677497],[134.419785,33.677497],[134.414978,33.680925],[134.423218,33.685496],[134.431458,33.686068]]]}},{"type":"Feature","properties":{"layer_id":"bakumatsu_villages","name":"橘村","address":"阿波 海部郡","source":"Geoshape 幕末期近世村領域データセット vector tiles (z7 extraction)","subarea_name":"近世村のおおよその範囲","feature_key":"village:K54G08S00017","accuracy_note":"2015年農業集落境界をもとに復元した概略範囲で、江戸時代の正確な村境ではありません"},"geometry":{"type":"MultiPolygon","coordinates":[[[[134.412231,33.719771],[134.421158,33.718629],[134.423904,33.715773],[134.426651,33.715773],[134.431458,33.712346],[134.432831,33.70949],[134.431458,33.703207],[134.432831,33.699208],[134.433517,33.699208],[134.433517,33.697494],[134.435577,33.695209],[134.434891,33.692924],[134.430084,33.693495],[134.425278,33.696923],[134.417725,33.698637],[134.414978,33.698065],[134.412918,33.701493],[134.406738,33.702635],[134.404678,33.703778],[134.404678,33.707205],[134.406052,33.70949],[134.403992,33.712917],[134.393692,33.714059],[134.392319,33.718629],[134.401932,33.718057],[134.412231,33.719771]]],[[[134.448624,33.723769],[134.452744,33.719771],[134.454803,33.7192],[134.454803,33.713488],[134.45755,33.708347],[134.456177,33.703778],[134.452744,33.702635],[134.44725,33.702064],[134.445877,33.699208],[134.441071,33.696923],[134.439011,33.699779],[134.432831,33.699208],[134.431458,33.703207],[134.432144,33.710632],[134.430084,33.713488],[134.427338,33.71463],[134.426651,33.715773],[134.434204,33.719771],[134.442444,33.720913],[134.448624,33.723769]]]]}},{"type":"Feature","properties":{"layer_id":"bakumatsu_villages","name":"河内村","address":"阿波 海部郡","source":"Geoshape 幕末期近世村領域データセット vector tiles (z7 extraction)","subarea_name":"近世村のおおよその範囲","feature_key":"village:K54G08S00019","accuracy_note":"2015年農業集落境界をもとに復元した概略範囲で、江戸時代の正確な村境ではありません"},"geometry":{"type":"MultiPolygon","coordinates":[[[[134.374466,33.708919],[134.375153,33.708347],[134.380646,33.708347],[134.384079,33.701493],[134.387512,33.698637],[134.388885,33.690638],[134.379959,33.683782],[134.370346,33.681497],[134.36554,33.68264],[134.364166,33.687782],[134.362106,33.689496],[134.36142,33.693495],[134.360046,33.696351],[134.364853,33.698637],[134.364853,33.70492],[134.369659,33.706063],[134.374466,33.708919]]],[[[134.393692,33.714059],[134.403305,33.712917],[134.406052,33.70949],[134.404678,33.707205],[134.405365,33.703207],[134.407425,33.702064],[134.412918,33.701493],[134.415665,33.698065],[134.410858,33.691781],[134.406738,33.688924],[134.401932,33.688353],[134.397125,33.685496],[134.397812,33.680354],[134.390259,33.679211],[134.382706,33.686068],[134.388885,33.691781],[134.387512,33.698637],[134.384079,33.701493],[134.380646,33.708347],[134.381332,33.711203],[134.386139,33.712346],[134.389572,33.711775],[134.393692,33.714059]]],[[[134.417725,33.698637],[134.421158,33.696923],[134.421844,33.688924],[134.419098,33.686639],[134.405365,33.681497],[134.399872,33.679783],[134.397812,33.680354],[134.397125,33.685496],[134.401932,33.688353],[134.406738,33.688924],[134.410858,33.691781],[134.415665,33.698065],[134.417725,33.698637]]],[[[134.425278,33.696923],[134.430084,33.693495],[134.434204,33.692924],[134.434204,33.692352],[134.430771,33.690638],[134.432144,33.688924],[134.431458,33.686068],[134.423218,33.685496],[134.417038,33.681497],[134.408112,33.67864],[134.405365,33.681497],[134.419098,33.686639],[134.421844,33.688924],[134.421158,33.696923],[134.425278,33.696923]]]]}},{"type":"Feature","properties":{"layer_id":"bakumatsu_villages","name":"灘村","address":"阿波 海部郡","source":"Geoshape 幕末期近世村領域データセット vector tiles (z7 extraction)","subarea_name":"近世村のおおよその範囲","feature_key":"village:K54G08S00021","accuracy_note":"2015年農業集落境界をもとに復元した概略範囲で、江戸時代の正確な村境ではありません"},"geometry":{"type":"Polygon","coordinates":[[[134.47403,33.694638],[134.475403,33.690638],[134.475403,33.685496],[134.47197,33.682068],[134.465103,33.680354],[134.46373,33.678068],[134.45961,33.675783],[134.456863,33.675783],[134.454803,33.673497],[134.452744,33.673497],[134.452057,33.671211],[134.450684,33.671783],[134.448624,33.67064],[134.44725,33.671211],[134.444504,33.668926],[134.441757,33.664354],[134.441071,33.666068],[134.438324,33.663211],[134.436951,33.664354],[134.436951,33.672926],[134.436264,33.673497],[134.437637,33.674069],[134.437637,33.678068],[134.436264,33.679783],[134.44313,33.680354],[134.454803,33.683211],[134.456863,33.684925],[134.46373,33.68721],[134.471283,33.694066],[134.47403,33.694638]]]}},{"type":"Feature","properties":{"layer_id":"bakumatsu_villages","name":"牟岐浦","address":"阿波 海部郡","source":"Geoshape 幕末期近世村領域データセット vector tiles (z7 extraction)","subarea_name":"近世村のおおよその範囲","feature_key":"village:K54G08S00002","accuracy_note":"2015年農業集落境界をもとに復元した概略範囲で、江戸時代の正確な村境ではありません"},"geometry":{"type":"MultiPolygon","coordinates":[[[[134.422531,33.666068],[134.422531,33.667211],[134.429398,33.669497],[134.432831,33.67464],[134.436264,33.676354],[134.436264,33.679783],[134.437637,33.678068],[134.437637,33.674069],[134.436264,33.673497],[134.436951,33.672926],[134.436951,33.664354],[134.432831,33.663782],[134.429398,33.664354],[134.426651,33.661496],[134.424591,33.660925],[134.424591,33.663782],[134.421844,33.663211],[134.425964,33.664925],[134.424591,33.664925],[134.423904,33.665497],[134.422531,33.666068]]],[[[134.422531,33.666068],[134.423218,33.664925],[134.421844,33.663782],[134.422531,33.666068]]],[[[134.424591,33.637489],[134.426651,33.635774],[134.425964,33.631201],[134.423904,33.629485],[134.421844,33.630629],[134.420471,33.635774],[134.421844,33.637489],[134.424591,33.635774],[134.423218,33.637489],[134.424591,33.637489]]],[[[134.485703,33.645492],[134.488449,33.644921],[134.489822,33.641491],[134.490509,33.642634],[134.492569,33.642063],[134.497375,33.638633],[134.500122,33.638633],[134.500122,33.640348],[134.504242,33.641491],[134.503555,33.638633],[134.500809,33.636918],[134.501495,33.634631],[134.496689,33.631772],[134.497375,33.630629],[134.489136,33.632344],[134.487076,33.634059],[134.485703,33.633487],[134.482956,33.633487],[134.481583,33.634631],[134.480896,33.636918],[134.481583,33.637489],[134.485016,33.636918],[134.486389,33.635203],[134.487762,33.636918],[134.487076,33.638061],[134.486389,33.636918],[134.482269,33.640919],[134.483643,33.640919],[134.482269,33.642634],[134.484329,33.643206],[134.484329,33.645492],[134.485703,33.645492]]],[[[134.449997,33.640348],[134.44931,33.638061],[134.448624,33.637489],[134.44725,33.638633],[134.44519,33.638633],[134.444504,33.639204],[134.44519,33.640348],[134.447937,33.639204],[134.449997,33.640348]]],[[[134.436951,33.639204],[134.436951,33.638061],[134.435577,33.638061],[134.435577,33.639204],[134.436951,33.639204]]],[[[134.495316,33.649494],[134.495316,33.64835],[134.493942,33.64835],[134.493942,33.649494],[134.495316,33.649494]]]]}},{"type":"Feature","properties":{"layer_id":"bakumatsu_villages","name":"辺川村","address":"阿波 海部郡","source":"Geoshape 幕末期近世村領域データセット vector tiles (z7 extraction)","subarea_name":"近世村のおおよその範囲","feature_key":"village:K54G08S00018","accuracy_note":"2015年農業集落境界をもとに復元した概略範囲で、江戸時代の正確な村境ではありません"},"geometry":{"type":"MultiPolygon","coordinates":[[[[134.439011,33.699779],[134.441071,33.696351],[134.439697,33.691781],[134.439697,33.685496],[134.441071,33.683211],[134.440384,33.679783],[134.436264,33.679783],[134.435577,33.684354],[134.431458,33.686068],[134.432144,33.688924],[134.430771,33.690638],[134.434204,33.692924],[134.435577,33.695209],[134.433517,33.697494],[134.433517,33.699208],[134.439011,33.699779]]],[[[134.456177,33.703778],[134.45961,33.698637],[134.460983,33.698065],[134.464417,33.694638],[134.469223,33.695209],[134.471283,33.694066],[134.463043,33.686639],[134.456863,33.684925],[134.454803,33.683211],[134.440384,33.679783],[134.441071,33.683211],[134.439697,33.685496],[134.441071,33.696923],[134.445877,33.699208],[134.44725,33.702064],[134.452744,33.702635],[134.456177,33.703778]]]]}},{"type":"Feature","properties":{"layer_id":"edo_roads","name":"土佐街道（東街道）","address":"徳島 → 高知","source":"CODH 江戸主要街道データセット Version 4 (2026-08)","subarea_name":"江戸期の主要街道","feature_key":"road:R816"},"geometry":{"type":"LineString","coordinates":[[134.38824,33.64965],[134.39144,33.65292],[134.39388,33.65429],[134.39616,33.65672],[134.39796,33.6583],[134.39952,33.65909],[134.40075,33.6592],[134.40215,33.66017],[134.40342,33.66041],[134.405,33.65993],[134.40589,33.65925],[134.40703,33.65951],[134.40795,33.66033],[134.40825,33.66115],[134.41143,33.66152],[134.41383,33.662],[134.41346,33.66367],[134.41454,33.66414],[134.41493,33.66462],[134.41609,33.66547],[134.41668,33.66636],[134.41874,33.66719],[134.41874,33.66851],[134.41839,33.66888],[134.41842,33.66998],[134.42032,33.67499],[134.42153,33.6766],[134.42175,33.67795],[134.42146,33.67863],[134.42149,33.67935],[134.42191,33.68003],[134.42191,33.68069],[134.42058,33.68375],[134.42054,33.68562],[134.42073,33.68596],[134.4213,33.68596],[134.42219,33.6871],[134.42451,33.68739],[134.42558,33.68794],[134.4272,33.68984],[134.42771,33.69005],[134.42907,33.68984],[134.42996,33.68995],[134.43183,33.69071],[134.43259,33.69129],[134.43509,33.69187],[134.43566,33.69335],[134.43564,33.69391],[134.43599,33.695],[134.43533,33.6971],[134.43479,33.69807],[134.43488,33.69914],[134.43514,33.69882],[134.43625,33.69919],[134.4365,33.69943],[134.43732,33.69958],[134.43796,33.70003],[134.43843,33.70008],[134.43938,33.70066],[134.44189,33.70143],[134.44388,33.70317],[134.44407,33.70378],[134.44531,33.70507],[134.44636,33.70528],[134.4481,33.70607],[134.45285,33.70728],[134.45326,33.70773],[134.45647,33.70726]]}},{"type":"Feature","properties":{"layer_id":"historical_sites_archaeology","name":"牟岐城跡","address":"徳島県 海部郡牟岐町 灘","source":"Geoshape 日本歴史地名大系 施設・地点項目データセット 2025-05-15","subarea_name":"城跡","feature_key":"05_castle_ruins.geojson:370000164600","subtype":"城跡"},"geometry":{"type":"Point","coordinates":[134.424173,33.669503]}},{"type":"Feature","properties":{"layer_id":"historical_sites_archaeology","name":"牟岐川口番所跡","address":"徳島県 海部郡牟岐町 大字牟岐浦","source":"Geoshape 日本歴史地名大系 施設・地点項目データセット 2025-05-15","subarea_name":"史跡","feature_key":"09_historic_sites.geojson:370000164000","subtype":"史跡"},"geometry":{"type":"Point","coordinates":[134.491304,33.639275]}},{"type":"Feature","properties":{"layer_id":"historical_temples_shrines","name":"八幡神社","address":"徳島県 名東郡佐那河内村 下字高樋79番地","source":"Geoshape 日本歴史地名大系 施設・地点項目データセット 2025-05-15","subarea_name":"神社","feature_key":"02_shrines.geojson:370000164100","subtype":"神社"},"geometry":{"type":"Point","coordinates":[134.491304,33.639275]}}]}