{"type":"FeatureCollection","municipality_code":"36388","pref":"徳島県","city":"海陽町","layer_counts":{"bakumatsu_villages":32,"edo_post_stations":1,"edo_roads":1,"historical_sites_archaeology":15,"historical_temples_shrines":5},"total_features":54,"features":[{"type":"Feature","properties":{"layer_id":"bakumatsu_villages","name":"中山村","address":"阿波 海部郡","source":"Geoshape 幕末期近世村領域データセット vector tiles (z7 extraction)","subarea_name":"近世村のおおよその範囲","feature_key":"village:K54G08S00035","accuracy_note":"2015年農業集落境界をもとに復元した概略範囲で、江戸時代の正確な村境ではありません"},"geometry":{"type":"Polygon","coordinates":[[[134.305801,33.621481],[134.309235,33.617478],[134.314041,33.615191],[134.313354,33.613476],[134.316788,33.604898],[134.318161,33.604326],[134.320908,33.60547],[134.323654,33.601466],[134.320221,33.601466],[134.319534,33.599179],[134.320908,33.595175],[134.320221,33.587739],[134.306488,33.582019],[134.304428,33.583163],[134.301682,33.587167],[134.302368,33.590027],[134.304428,33.593459],[134.309235,33.596319],[134.313354,33.603182],[134.309235,33.610616],[134.303741,33.612904],[134.304428,33.61805],[134.303741,33.620909],[134.305801,33.621481]]]}},{"type":"Feature","properties":{"layer_id":"bakumatsu_villages","name":"久保村","address":"阿波 海部郡","source":"Geoshape 幕末期近世村領域データセット vector tiles (z7 extraction)","subarea_name":"近世村のおおよその範囲","feature_key":"village:K54G08S00043","accuracy_note":"2015年農業集落境界をもとに復元した概略範囲で、江戸時代の正確な村境ではありません"},"geometry":{"type":"Polygon","coordinates":[[[134.303055,33.583163],[134.307861,33.582019],[134.310608,33.578587],[134.309235,33.578587],[134.308548,33.575154],[134.308548,33.57401],[134.307175,33.572294],[134.307861,33.570005],[134.304428,33.568861],[134.303055,33.566573],[134.301682,33.567717],[134.298935,33.565428],[134.296188,33.566],[134.296875,33.566573],[134.293442,33.568861],[134.294128,33.569433],[134.291382,33.573438],[134.290009,33.578015],[134.290695,33.579731],[134.293442,33.581447],[134.303055,33.583163]]]}},{"type":"Feature","properties":{"layer_id":"bakumatsu_villages","name":"久尾村","address":"阿波 海部郡","source":"Geoshape 幕末期近世村領域データセット vector tiles (z7 extraction)","subarea_name":"近世村のおおよその範囲","feature_key":"village:K54G08S00051","accuracy_note":"2015年農業集落境界をもとに復元した概略範囲で、江戸時代の正確な村境ではありません"},"geometry":{"type":"Polygon","coordinates":[[[134.200058,33.655781],[134.202118,33.652351],[134.201431,33.64835],[134.202805,33.646064],[134.202805,33.643777],[134.201431,33.642634],[134.202805,33.637489],[134.209671,33.630057],[134.211044,33.628914],[134.215851,33.631201],[134.219971,33.631201],[134.222717,33.632916],[134.231644,33.632344],[134.23233,33.631201],[134.231644,33.629485],[134.23233,33.626627],[134.239197,33.623768],[134.235077,33.612904],[134.23027,33.610616],[134.226151,33.606613],[134.228897,33.602038],[134.227524,33.594603],[134.229584,33.589455],[134.225464,33.587739],[134.217224,33.587739],[134.217224,33.589455],[134.208984,33.592315],[134.202118,33.592315],[134.184952,33.588883],[134.184265,33.587739],[134.178772,33.594603],[134.176025,33.594031],[134.170532,33.597463],[134.171219,33.599751],[134.169846,33.600894],[134.169846,33.60261],[134.175339,33.607757],[134.171906,33.610045],[134.164352,33.610616],[134.160233,33.612904],[134.158859,33.612332],[134.156113,33.61176],[134.151993,33.617478],[134.154739,33.623196],[134.152679,33.626055],[134.149246,33.627199],[134.149933,33.630629],[134.156113,33.633487],[134.158173,33.632916],[134.160919,33.635203],[134.165039,33.636346],[134.170532,33.642063],[134.176025,33.644921],[134.178085,33.644921],[134.183578,33.648922],[134.187698,33.649494],[134.193878,33.654638],[134.200058,33.655781]]]}},{"type":"Feature","properties":{"layer_id":"bakumatsu_villages","name":"吉田村","address":"阿波 海部郡","source":"Geoshape 幕末期近世村領域データセット vector tiles (z7 extraction)","subarea_name":"近世村のおおよその範囲","feature_key":"village:K54G08S00033","accuracy_note":"2015年農業集落境界をもとに復元した概略範囲で、江戸時代の正確な村境ではありません"},"geometry":{"type":"Polygon","coordinates":[[[134.322281,33.617478],[134.322281,33.614047],[134.322968,33.610616],[134.325027,33.608901],[134.321594,33.608901],[134.321594,33.606041],[134.317474,33.604898],[134.313354,33.613476],[134.314041,33.614619],[134.316788,33.615191],[134.322281,33.617478]]]}},{"type":"Feature","properties":{"layer_id":"bakumatsu_villages","name":"吉野村","address":"阿波 海部郡","source":"Geoshape 幕末期近世村領域データセット vector tiles (z7 extraction)","subarea_name":"近世村のおおよその範囲","feature_key":"village:K54G08S00030","accuracy_note":"2015年農業集落境界をもとに復元した概略範囲で、江戸時代の正確な村境ではありません"},"geometry":{"type":"Polygon","coordinates":[[[134.339447,33.62434],[134.338074,33.619194],[134.34082,33.608329],[134.338074,33.607757],[134.337387,33.604326],[134.335327,33.606613],[134.330521,33.606041],[134.327774,33.607185],[134.323654,33.610045],[134.322281,33.614047],[134.328461,33.614619],[134.331207,33.61805],[134.334641,33.620337],[134.334641,33.622053],[134.336014,33.620909],[134.335327,33.622624],[134.339447,33.62434]]]}},{"type":"Feature","properties":{"layer_id":"bakumatsu_villages","name":"四方原村","address":"阿波 海部郡","source":"Geoshape 幕末期近世村領域データセット vector tiles (z7 extraction)","subarea_name":"近世村のおおよその範囲","feature_key":"village:K54G08S00022","accuracy_note":"2015年農業集落境界をもとに復元した概略範囲で、江戸時代の正確な村境ではありません"},"geometry":{"type":"Polygon","coordinates":[[[134.342194,33.626055],[134.345627,33.622053],[134.352493,33.618622],[134.356613,33.618622],[134.357986,33.616907],[134.3573,33.612332],[134.357986,33.610045],[134.354553,33.606041],[134.351807,33.606613],[134.350433,33.603754],[134.349747,33.604326],[134.349747,33.604898],[134.347687,33.60547],[134.345627,33.607185],[134.34082,33.608329],[134.338074,33.619194],[134.338074,33.621481],[134.339447,33.62434],[134.342194,33.626055]]]}},{"type":"Feature","properties":{"layer_id":"bakumatsu_villages","name":"塩深村","address":"阿波 海部郡","source":"Geoshape 幕末期近世村領域データセット vector tiles (z7 extraction)","subarea_name":"近世村のおおよその範囲","feature_key":"village:K54G08S00049","accuracy_note":"2015年農業集落境界をもとに復元した概略範囲で、江戸時代の正確な村境ではありません"},"geometry":{"type":"Polygon","coordinates":[[[134.24263,33.575726],[134.24675,33.574582],[134.248123,33.575154],[134.251556,33.572294],[134.260483,33.569433],[134.259796,33.562568],[134.261856,33.556846],[134.257736,33.553412],[134.251556,33.55284],[134.24881,33.553412],[134.244003,33.555701],[134.241257,33.556273],[134.239883,33.553985],[134.237137,33.552268],[134.237137,33.553985],[134.231644,33.555701],[134.228897,33.55799],[134.22821,33.561423],[134.226151,33.56314],[134.22821,33.564284],[134.229584,33.569433],[134.231644,33.57115],[134.231644,33.572866],[134.233704,33.57401],[134.24263,33.575726]]]}},{"type":"Feature","properties":{"layer_id":"bakumatsu_villages","name":"多良村","address":"阿波 海部郡","source":"Geoshape 幕末期近世村領域データセット vector tiles (z7 extraction)","subarea_name":"近世村のおおよその範囲","feature_key":"village:K54G08S00031","accuracy_note":"2015年農業集落境界をもとに復元した概略範囲で、江戸時代の正確な村境ではありません"},"geometry":{"type":"Polygon","coordinates":[[[134.34082,33.608329],[134.345627,33.607185],[134.347687,33.60547],[134.349747,33.604898],[134.349747,33.604326],[134.35112,33.603754],[134.346313,33.600322],[134.341507,33.603754],[134.337387,33.604326],[134.338074,33.607757],[134.34082,33.608329]]]}},{"type":"Feature","properties":{"layer_id":"bakumatsu_villages","name":"大井村","address":"阿波 海部郡","source":"Geoshape 幕末期近世村領域データセット vector tiles (z7 extraction)","subarea_name":"近世村のおおよその範囲","feature_key":"village:K54G08S00034","accuracy_note":"2015年農業集落境界をもとに復元した概略範囲で、江戸時代の正確な村境ではありません"},"geometry":{"type":"MultiPolygon","coordinates":[[[[134.309235,33.637489],[134.317474,33.634059],[134.316101,33.629485],[134.311295,33.628342],[134.308548,33.629485],[134.307175,33.634631],[134.309235,33.637489]]],[[[134.328461,33.649494],[134.331207,33.64835],[134.335327,33.640348],[134.331207,33.636346],[134.329834,33.632344],[134.327774,33.631201],[134.326401,33.623196],[134.321594,33.622053],[134.318161,33.62434],[134.315414,33.621481],[134.310608,33.62434],[134.307861,33.62434],[134.307175,33.626055],[134.308548,33.629485],[134.311295,33.628342],[134.316101,33.630057],[134.317474,33.634059],[134.319534,33.635774],[134.322281,33.640348],[134.325714,33.641491],[134.325714,33.647207],[134.328461,33.649494]]]]}},{"type":"Feature","properties":{"layer_id":"bakumatsu_villages","name":"大里村","address":"阿波 海部郡","source":"Geoshape 幕末期近世村領域データセット vector tiles (z7 extraction)","subarea_name":"近世村のおおよその範囲","feature_key":"village:K54G08S00023","accuracy_note":"2015年農業集落境界をもとに復元した概略範囲で、江戸時代の正確な村境ではありません"},"geometry":{"type":"MultiPolygon","coordinates":[[[[134.360733,33.618622],[134.366913,33.616335],[134.367599,33.610045],[134.369659,33.608329],[134.36348,33.601466],[134.36142,33.596319],[134.3573,33.595747],[134.360046,33.597463],[134.35936,33.599179],[134.3573,33.599179],[134.357986,33.598607],[134.355927,33.596891],[134.346313,33.600322],[134.35112,33.603754],[134.351807,33.606613],[134.354553,33.606041],[134.357986,33.608901],[134.3573,33.612332],[134.358673,33.615763],[134.356613,33.618622],[134.360733,33.618622]]],[[[134.380646,33.619194],[134.383392,33.61805],[134.382019,33.616335],[134.383392,33.615191],[134.382706,33.614619],[134.379959,33.614047],[134.378586,33.612904],[134.377213,33.613476],[134.369659,33.608329],[134.368286,33.610045],[134.366913,33.616335],[134.368973,33.616335],[134.374466,33.619194],[134.377213,33.618622],[134.380646,33.619194]]]]}},{"type":"Feature","properties":{"layer_id":"bakumatsu_villages","name":"奥浦","address":"阿波 海部郡","source":"Geoshape 幕末期近世村領域データセット vector tiles (z7 extraction)","subarea_name":"近世村のおおよその範囲","feature_key":"village:K54G08S00025","accuracy_note":"2015年農業集落境界をもとに復元した概略範囲で、江戸時代の正確な村境ではありません"},"geometry":{"type":"Polygon","coordinates":[[[134.357986,33.595747],[134.357986,33.593459],[134.354553,33.591171],[134.35318,33.587167],[134.35112,33.587167],[134.346313,33.590027],[134.349747,33.599179],[134.3573,33.596891],[134.357986,33.598607],[134.3573,33.599179],[134.35936,33.599179],[134.360046,33.598035],[134.357986,33.595747]]]}},{"type":"Feature","properties":{"layer_id":"bakumatsu_villages","name":"宍喰浦","address":"阿波 海部郡","source":"Geoshape 幕末期近世村領域データセット vector tiles (z7 extraction)","subarea_name":"近世村のおおよその範囲","feature_key":"village:K54G08S00042","accuracy_note":"2015年農業集落境界をもとに復元した概略範囲で、江戸時代の正確な村境ではありません"},"geometry":{"type":"MultiPolygon","coordinates":[[[[134.344254,33.589455],[134.343567,33.585451],[134.340134,33.585451],[134.339447,33.586023],[134.33876,33.585451],[134.338074,33.586023],[134.337387,33.585451],[134.333267,33.585451],[134.331894,33.584879],[134.331894,33.582591],[134.333267,33.581447],[134.336014,33.583163],[134.341507,33.583735],[134.353867,33.583735],[134.36348,33.580303],[134.351807,33.578587],[134.347687,33.579159],[134.340134,33.578587],[134.333267,33.579731],[134.329147,33.582591],[134.323654,33.580875],[134.321594,33.583163],[134.317474,33.582019],[134.316788,33.579731],[134.319534,33.578587],[134.315414,33.576871],[134.312668,33.578015],[134.311295,33.577443],[134.307861,33.582019],[134.313354,33.584307],[134.315414,33.586023],[134.318161,33.586595],[134.318848,33.587739],[134.325027,33.587739],[134.329834,33.589455],[134.331894,33.588311],[134.333267,33.588883],[134.335327,33.588311],[134.34082,33.588311],[134.344254,33.589455]]],[[[134.309235,33.578587],[134.311295,33.577443],[134.311295,33.576871],[134.311981,33.576299],[134.310608,33.576299],[134.308548,33.571722],[134.307861,33.565428],[134.300308,33.566573],[134.301682,33.567717],[134.303055,33.566573],[134.304428,33.568861],[134.307861,33.570005],[134.307175,33.572294],[134.308548,33.57401],[134.308548,33.575154],[134.309235,33.578587]]],[[[134.300308,33.566573],[134.307861,33.565428],[134.308548,33.564284],[134.299622,33.565428],[134.300308,33.566573]]],[[[134.316101,33.546545],[134.317474,33.549407],[134.320221,33.547118],[134.319534,33.545973],[134.322281,33.544828],[134.321594,33.542539],[134.322281,33.541395],[134.323654,33.541395],[134.323654,33.54025],[134.319534,33.539678],[134.316788,33.541967],[134.317474,33.542539],[134.316788,33.543112],[134.316788,33.543684],[134.315414,33.545401],[134.318161,33.545401],[134.316101,33.546545]]],[[[134.305115,33.549407],[134.304428,33.55284],[134.306488,33.553412],[134.305801,33.553985],[134.303055,33.553985],[134.300308,33.555701],[134.299622,33.553985],[134.296188,33.553412],[134.296875,33.556846],[134.291382,33.561995],[134.293442,33.566],[134.292068,33.567145],[134.293442,33.568861],[134.296875,33.566573],[134.296188,33.566],[134.308548,33.564284],[134.309235,33.56314],[134.311295,33.562568],[134.309235,33.562568],[134.304428,33.56314],[134.304428,33.561995],[134.305115,33.562568],[134.309235,33.560851],[134.310608,33.561995],[134.311295,33.560851],[134.311981,33.562568],[134.313354,33.561423],[134.312668,33.559707],[134.314041,33.558562],[134.311981,33.556273],[134.314728,33.558562],[134.317474,33.557418],[134.316788,33.556273],[134.319534,33.555701],[134.315414,33.553985],[134.316101,33.551696],[134.313354,33.549979],[134.314728,33.54769],[134.313354,33.545973],[134.307175,33.547118],[134.308548,33.549407],[134.307175,33.550551],[134.305801,33.550551],[134.305115,33.549407]]]]}},{"type":"Feature","properties":{"layer_id":"bakumatsu_villages","name":"富田村","address":"阿波 海部郡","source":"Geoshape 幕末期近世村領域データセット vector tiles (z7 extraction)","subarea_name":"近世村のおおよその範囲","feature_key":"village:K54G08S00032","accuracy_note":"2015年農業集落境界をもとに復元した概略範囲で、江戸時代の正確な村境ではありません"},"geometry":{"type":"Polygon","coordinates":[[[134.310608,33.62434],[134.315414,33.621481],[134.318161,33.62434],[134.321594,33.622053],[134.326401,33.623196],[134.327087,33.621481],[134.322281,33.617478],[134.316788,33.615191],[134.314041,33.614619],[134.311981,33.616335],[134.309235,33.617478],[134.306488,33.619766],[134.305801,33.621481],[134.307861,33.62434],[134.310608,33.62434]]]}},{"type":"Feature","properties":{"layer_id":"bakumatsu_villages","name":"小川村","address":"阿波 海部郡","source":"Geoshape 幕末期近世村領域データセット vector tiles (z7 extraction)","subarea_name":"近世村のおおよその範囲","feature_key":"village:K54G08S00041","accuracy_note":"2015年農業集落境界をもとに復元した概略範囲で、江戸時代の正確な村境ではありません"},"geometry":{"type":"MultiPolygon","coordinates":[[[[134.305801,33.69121],[134.311295,33.687782],[134.316101,33.687782],[134.313354,33.686639],[134.307861,33.680354],[134.291382,33.67464],[134.290009,33.671211],[134.283829,33.668354],[134.277649,33.669497],[134.272842,33.668354],[134.269409,33.665497],[134.261169,33.668926],[134.251556,33.670068],[134.24675,33.674069],[134.254303,33.67464],[134.25705,33.677497],[134.261169,33.67864],[134.263229,33.680354],[134.268036,33.681497],[134.275589,33.680925],[134.282455,33.684925],[134.284515,33.68721],[134.287949,33.68721],[134.292068,33.686068],[134.294128,33.687782],[134.298248,33.687782],[134.305801,33.69121]]],[[[134.319534,33.732906],[134.322281,33.730621],[134.327087,33.73005],[134.331207,33.727195],[134.333954,33.727766],[134.336014,33.730621],[134.336014,33.727195],[134.328461,33.719771],[134.318161,33.70492],[134.316101,33.705491],[134.309235,33.702635],[134.305115,33.698637],[134.298935,33.699779],[134.292068,33.697494],[134.285889,33.699208],[134.281769,33.698637],[134.274902,33.70035],[134.268036,33.715773],[134.268036,33.718057],[134.264603,33.721484],[134.265976,33.72434],[134.268036,33.724911],[134.270782,33.727766],[134.275589,33.728337],[134.281769,33.731193],[134.283829,33.728908],[134.287949,33.727766],[134.294128,33.730621],[134.299622,33.731764],[134.305801,33.732335],[134.309921,33.731193],[134.311981,33.732335],[134.316101,33.731764],[134.319534,33.732906]]],[[[134.311981,33.703207],[134.311295,33.687782],[134.305801,33.69121],[134.298248,33.687782],[134.294128,33.687782],[134.292068,33.686068],[134.287949,33.68721],[134.284515,33.68721],[134.285889,33.687782],[134.290695,33.692352],[134.292068,33.697494],[134.298935,33.699779],[134.305115,33.698637],[134.308548,33.702064],[134.311981,33.703207]]],[[[134.316101,33.705491],[134.318161,33.70492],[134.325714,33.703207],[134.329834,33.703207],[134.333954,33.704349],[134.334641,33.701493],[134.332581,33.692924],[134.329834,33.690638],[134.325714,33.688924],[134.323654,33.690067],[134.320221,33.688353],[134.311295,33.687782],[134.310608,33.692924],[134.311981,33.703207],[134.316101,33.705491]]],[[[134.348373,33.692924],[134.351807,33.690638],[134.360733,33.688924],[134.362106,33.689496],[134.36348,33.688353],[134.35936,33.687782],[134.353867,33.683211],[134.353867,33.680925],[134.35112,33.678068],[134.341507,33.674069],[134.336014,33.669497],[134.327087,33.668926],[134.323654,33.667211],[134.314041,33.667211],[134.296188,33.669497],[134.290009,33.671211],[134.291382,33.67464],[134.297562,33.676354],[134.301682,33.679211],[134.305801,33.679783],[134.314728,33.68721],[134.320221,33.688353],[134.321594,33.689496],[134.325714,33.688924],[134.330521,33.690638],[134.34494,33.692924],[134.348373,33.692924]]],[[[134.357986,33.731764],[134.362106,33.731193],[134.364166,33.728908],[134.368286,33.726624],[134.374466,33.727766],[134.377213,33.726053],[134.394379,33.724911],[134.394379,33.723769],[134.391632,33.721484],[134.393692,33.713488],[134.389572,33.711775],[134.386139,33.712346],[134.381332,33.711203],[134.379959,33.708347],[134.373779,33.708919],[134.369659,33.706063],[134.364853,33.70492],[134.360046,33.704349],[134.354553,33.705491],[134.347,33.705491],[134.33876,33.706634],[134.329834,33.703207],[134.324341,33.703207],[134.318161,33.70492],[134.328461,33.719771],[134.336014,33.727195],[134.336014,33.730621],[134.33876,33.73005],[134.341507,33.727766],[134.347,33.728908],[134.34906,33.730621],[134.35112,33.73005],[134.351807,33.728908],[134.35524,33.728908],[134.357986,33.731764]]],[[[134.33876,33.706634],[134.347,33.705491],[134.354553,33.705491],[134.360046,33.704349],[134.364853,33.70492],[134.364853,33.698637],[134.360046,33.696351],[134.36142,33.693495],[134.362106,33.689496],[134.360733,33.688924],[134.351807,33.690638],[134.348373,33.692924],[134.34494,33.692924],[134.329834,33.690638],[134.332581,33.692924],[134.334641,33.701493],[134.333954,33.704349],[134.33876,33.706634]]]]}},{"type":"Feature","properties":{"layer_id":"bakumatsu_villages","name":"小谷村","address":"阿波 海部郡","source":"Geoshape 幕末期近世村領域データセット vector tiles (z7 extraction)","subarea_name":"近世村のおおよその範囲","feature_key":"village:K54G08S00052","accuracy_note":"2015年農業集落境界をもとに復元した概略範囲で、江戸時代の正確な村境ではありません"},"geometry":{"type":"MultiPolygon","coordinates":[[[[134.233017,33.611188],[134.24675,33.60547],[134.246063,33.595175],[134.251556,33.584307],[134.249496,33.583163],[134.24881,33.576871],[134.25293,33.57401],[134.253616,33.571722],[134.248123,33.575154],[134.24675,33.574582],[134.24263,33.575726],[134.235764,33.574582],[134.231644,33.572866],[134.230957,33.575154],[134.230957,33.579159],[134.228897,33.586595],[134.229584,33.590599],[134.227524,33.594603],[134.228897,33.602038],[134.226151,33.606041],[134.23027,33.610616],[134.233017,33.611188]]],[[[134.239197,33.623768],[134.244003,33.622053],[134.250183,33.622053],[134.25499,33.619766],[134.259796,33.619766],[134.263229,33.618622],[134.266663,33.619194],[134.268723,33.617478],[134.275589,33.616335],[134.279022,33.607185],[134.277649,33.604326],[134.274216,33.60261],[134.274902,33.597463],[134.280396,33.595175],[134.281082,33.591743],[134.282455,33.591171],[134.285202,33.591171],[134.285889,33.588883],[134.287262,33.588311],[134.287262,33.586595],[134.278336,33.584307],[134.266663,33.585451],[134.259796,33.582591],[134.251556,33.584307],[134.246063,33.595175],[134.24675,33.60547],[134.233017,33.611188],[134.235077,33.612904],[134.239197,33.623768]]]]}},{"type":"Feature","properties":{"layer_id":"bakumatsu_villages","name":"尾崎村","address":"阿波 海部郡","source":"Geoshape 幕末期近世村領域データセット vector tiles (z7 extraction)","subarea_name":"近世村のおおよその範囲","feature_key":"village:K54G08S00045","accuracy_note":"2015年農業集落境界をもとに復元した概略範囲で、江戸時代の正確な村境ではありません"},"geometry":{"type":"Polygon","coordinates":[[[134.281082,33.573438],[134.285202,33.572866],[134.285202,33.569433],[134.283829,33.567145],[134.285202,33.565428],[134.283142,33.564856],[134.281082,33.561423],[134.278336,33.559707],[134.273529,33.560851],[134.270096,33.55799],[134.270096,33.555129],[134.261856,33.556846],[134.259796,33.56314],[134.269409,33.562568],[134.274216,33.568289],[134.276962,33.568289],[134.278336,33.568861],[134.281082,33.573438]]]}},{"type":"Feature","properties":{"layer_id":"bakumatsu_villages","name":"平井村","address":"阿波 海部郡","source":"Geoshape 幕末期近世村領域データセット vector tiles (z7 extraction)","subarea_name":"近世村のおおよその範囲","feature_key":"village:K54G08S00040","accuracy_note":"2015年農業集落境界をもとに復元した概略範囲で、江戸時代の正確な村境ではありません"},"geometry":{"type":"MultiPolygon","coordinates":[[[[134.222717,33.722626],[134.224091,33.721484],[134.227524,33.722055],[134.230957,33.720913],[134.233704,33.718629],[134.235077,33.710061],[134.241943,33.702635],[134.24057,33.699208],[134.23645,33.696923],[134.237137,33.692924],[134.23027,33.689496],[134.231644,33.687782],[134.231644,33.683782],[134.23645,33.681497],[134.243317,33.679783],[134.24675,33.674069],[134.241943,33.672926],[134.235764,33.670068],[134.227524,33.669497],[134.220657,33.665497],[134.215164,33.665497],[134.212418,33.663211],[134.208984,33.662068],[134.204865,33.660353],[134.199371,33.655209],[134.193878,33.654638],[134.187698,33.649494],[134.183578,33.648922],[134.182892,33.651208],[134.178772,33.653495],[134.176025,33.653495],[134.171219,33.658067],[134.175339,33.662068],[134.171219,33.665497],[134.168472,33.671211],[134.172592,33.675211],[134.175339,33.676354],[134.174652,33.684354],[134.163666,33.688353],[134.164352,33.69121],[134.162292,33.696923],[134.169846,33.699208],[134.173965,33.703778],[134.176025,33.704349],[134.182892,33.707776],[134.186325,33.708347],[134.189758,33.711203],[134.195251,33.711775],[134.200745,33.716344],[134.207611,33.718057],[134.211044,33.722055],[134.222717,33.722626]]],[[[134.24675,33.72434],[134.248123,33.723197],[134.24881,33.720913],[134.25293,33.7192],[134.256363,33.7192],[134.258423,33.720913],[134.264603,33.721484],[134.268036,33.718057],[134.268036,33.715773],[134.270782,33.710632],[134.263916,33.707776],[134.263229,33.697494],[134.25705,33.683782],[134.262543,33.682068],[134.268036,33.681497],[134.263229,33.680354],[134.261169,33.67864],[134.25705,33.677497],[134.254303,33.67464],[134.24675,33.674069],[134.243317,33.679783],[134.23645,33.681497],[134.231644,33.683782],[134.231644,33.687782],[134.23027,33.689496],[134.237137,33.692924],[134.23645,33.696923],[134.24057,33.699208],[134.241943,33.702635],[134.235077,33.710061],[134.233704,33.718629],[134.230957,33.720913],[134.23439,33.719771],[134.24675,33.72434]]],[[[134.270782,33.710632],[134.274902,33.70035],[134.281769,33.698637],[134.285889,33.699208],[134.292068,33.697494],[134.290695,33.692924],[134.285889,33.687782],[134.274902,33.680925],[134.262543,33.682068],[134.25705,33.683782],[134.263229,33.697494],[134.263916,33.707776],[134.270782,33.710632]]]]}},{"type":"Feature","properties":{"layer_id":"bakumatsu_villages","name":"広岡村","address":"阿波 海部郡","source":"Geoshape 幕末期近世村領域データセット vector tiles (z7 extraction)","subarea_name":"近世村のおおよその範囲","feature_key":"village:K54G08S00047","accuracy_note":"2015年農業集落境界をもとに復元した概略範囲で、江戸時代の正確な村境ではありません"},"geometry":{"type":"Polygon","coordinates":[[[134.266663,33.585451],[134.274216,33.584307],[134.277649,33.577443],[134.276962,33.575154],[134.274902,33.573438],[134.265976,33.57401],[134.261856,33.572294],[134.263916,33.57401],[134.261856,33.577443],[134.261169,33.583163],[134.266663,33.585451]]]}},{"type":"Feature","properties":{"layer_id":"bakumatsu_villages","name":"日比原村","address":"阿波 海部郡","source":"Geoshape 幕末期近世村領域データセット vector tiles (z7 extraction)","subarea_name":"近世村のおおよその範囲","feature_key":"village:K54G08S00044","accuracy_note":"2015年農業集落境界をもとに復元した概略範囲で、江戸時代の正確な村境ではありません"},"geometry":{"type":"MultiPolygon","coordinates":[[[[134.287262,33.586595],[134.291382,33.584879],[134.292755,33.584879],[134.293442,33.581447],[134.290695,33.579731],[134.290009,33.578015],[134.292755,33.570578],[134.294128,33.569433],[134.292068,33.567145],[134.290009,33.567717],[134.290009,33.570578],[134.281082,33.573438],[134.276962,33.578587],[134.274216,33.584307],[134.280396,33.584307],[134.287262,33.586595]]],[[[134.285202,33.572866],[134.290009,33.570578],[134.290009,33.567717],[134.290695,33.566573],[134.290009,33.565428],[134.285202,33.565428],[134.283829,33.567145],[134.285202,33.569433],[134.285202,33.572866]]],[[[134.290009,33.567717],[134.292068,33.567145],[134.293442,33.566],[134.291382,33.56314],[134.291382,33.561995],[134.295502,33.55799],[134.289322,33.558562],[134.287262,33.560279],[134.283142,33.560279],[134.281082,33.561423],[134.283142,33.564856],[134.289322,33.565428],[134.290695,33.566573],[134.290009,33.567717]]]]}},{"type":"Feature","properties":{"layer_id":"bakumatsu_villages","name":"櫛川村","address":"阿波 海部郡","source":"Geoshape 幕末期近世村領域データセット vector tiles (z7 extraction)","subarea_name":"近世村のおおよその範囲","feature_key":"village:K54G08S00036","accuracy_note":"2015年農業集落境界をもとに復元した概略範囲で、江戸時代の正確な村境ではありません"},"geometry":{"type":"Polygon","coordinates":[[[134.303741,33.620909],[134.304428,33.61805],[134.303741,33.612904],[134.309235,33.610616],[134.313354,33.603182],[134.312668,33.603182],[134.311981,33.600894],[134.309235,33.596319],[134.304428,33.593459],[134.302368,33.590027],[134.301682,33.587167],[134.304428,33.583163],[134.293442,33.581447],[134.292755,33.584879],[134.291382,33.584879],[134.287262,33.586595],[134.287262,33.588311],[134.285889,33.588883],[134.285202,33.591171],[134.282455,33.591171],[134.281082,33.591743],[134.280396,33.595175],[134.274902,33.597463],[134.274216,33.60261],[134.277649,33.604326],[134.279022,33.607185],[134.275589,33.616335],[134.280396,33.61805],[134.283829,33.616907],[134.285889,33.618622],[134.292068,33.619194],[134.292755,33.619766],[134.296875,33.619194],[134.303741,33.620909]]]}},{"type":"Feature","properties":{"layer_id":"bakumatsu_villages","name":"浅川村・浅川浦","address":"阿波 海部郡","source":"Geoshape 幕末期近世村領域データセット vector tiles (z7 extraction)","subarea_name":"近世村のおおよその範囲","feature_key":"village:K54G08S00004,K54G08S00005","accuracy_note":"2015年農業集落境界をもとに復元した概略範囲で、江戸時代の正確な村境ではありません"},"geometry":{"type":"MultiPolygon","coordinates":[[[[134.377213,33.660925],[134.375153,33.660353],[134.373779,33.657495],[134.371033,33.655209],[134.371719,33.65178],[134.370346,33.650637],[134.371719,33.646064],[134.366913,33.647779],[134.362106,33.644349],[134.362106,33.640919],[134.368286,33.633487],[134.368973,33.631201],[134.370346,33.630629],[134.36554,33.631201],[134.36348,33.633487],[134.35936,33.634631],[134.352493,33.632916],[134.345627,33.631772],[134.34288,33.635203],[134.338074,33.635203],[134.340134,33.636918],[134.338074,33.639776],[134.335327,33.640348],[134.333954,33.642634],[134.332581,33.646636],[134.330521,33.648922],[134.331894,33.650637],[134.335327,33.652351],[134.341507,33.654066],[134.351807,33.663782],[134.349747,33.665497],[134.34906,33.667783],[134.347687,33.668354],[134.347687,33.671783],[134.34494,33.675783],[134.35112,33.678068],[134.353867,33.680925],[134.353867,33.683211],[134.35936,33.687782],[134.364166,33.687782],[134.36554,33.68264],[134.364166,33.680354],[134.36142,33.677497],[134.364166,33.676926],[134.36554,33.675211],[134.371033,33.67464],[134.373093,33.672354],[134.368973,33.669497],[134.368973,33.667783],[134.371719,33.666068],[134.373779,33.666068],[134.376526,33.662639],[134.377213,33.660925]]],[[[134.34288,33.635203],[134.346313,33.631772],[134.352493,33.632916],[134.354553,33.628914],[134.360046,33.629485],[134.360733,33.626055],[134.3573,33.62434],[134.352493,33.618622],[134.345627,33.622053],[134.33876,33.628914],[134.338074,33.635203],[134.34288,33.635203]]],[[[134.36348,33.628914],[134.362106,33.629485],[134.354553,33.628914],[134.352493,33.632916],[134.35936,33.634631],[134.36348,33.633487],[134.36554,33.631201],[134.366913,33.631772],[134.36554,33.630629],[134.366226,33.629485],[134.36348,33.628914]]],[[[134.360046,33.629485],[134.36348,33.628914],[134.362106,33.626627],[134.360733,33.626055],[134.360046,33.629485]]],[[[134.366913,33.647779],[134.371719,33.646064],[134.377899,33.639204],[134.375839,33.635203],[134.377213,33.634631],[134.377899,33.630057],[134.376526,33.632916],[134.373093,33.631772],[134.374466,33.634059],[134.370346,33.635203],[134.368286,33.633487],[134.362106,33.641491],[134.362106,33.644349],[134.36348,33.646064],[134.366913,33.647779]]],[[[134.377899,33.660925],[134.379272,33.658067],[134.382706,33.656924],[134.384079,33.654638],[134.387512,33.654066],[134.389572,33.650637],[134.388885,33.649494],[134.390945,33.64835],[134.387512,33.647207],[134.386139,33.645492],[134.386826,33.644349],[134.385452,33.643777],[134.384766,33.642063],[134.380646,33.640348],[134.380646,33.639776],[134.377899,33.639204],[134.371719,33.646064],[134.370346,33.650637],[134.371719,33.65178],[134.371033,33.655209],[134.373779,33.657495],[134.375153,33.660353],[134.377899,33.660925]]],[[[134.362793,33.626055],[134.362106,33.625483],[134.364166,33.625483],[134.364853,33.62434],[134.367599,33.625483],[134.371033,33.62434],[134.373093,33.624912],[134.375839,33.62434],[134.379272,33.625483],[134.386826,33.624912],[134.389572,33.623768],[134.388199,33.619766],[134.384766,33.620337],[134.382706,33.619194],[134.383392,33.61805],[134.380646,33.619194],[134.377213,33.618622],[134.374466,33.619194],[134.368973,33.616335],[134.360733,33.618622],[134.352493,33.618622],[134.3573,33.62434],[134.362106,33.626627],[134.362793,33.626055]]],[[[134.362793,33.626055],[134.36348,33.62777],[134.36348,33.626055],[134.362793,33.626055]]]]}},{"type":"Feature","properties":{"layer_id":"bakumatsu_villages","name":"熟田村","address":"阿波 海部郡","source":"Geoshape 幕末期近世村領域データセット vector tiles (z7 extraction)","subarea_name":"近世村のおおよその範囲","feature_key":"village:K54G08S00029","accuracy_note":"2015年農業集落境界をもとに復元した概略範囲で、江戸時代の正確な村境ではありません"},"geometry":{"type":"Polygon","coordinates":[[[134.335327,33.640348],[134.338074,33.639776],[134.340134,33.636918],[134.338074,33.635203],[134.33876,33.628914],[134.342194,33.626055],[134.342194,33.625483],[134.335327,33.622624],[134.336014,33.620909],[134.334641,33.622053],[134.334641,33.620337],[134.331207,33.61805],[134.328461,33.614619],[134.322281,33.614047],[134.322281,33.617478],[134.327087,33.621481],[134.326401,33.623196],[134.327774,33.631201],[134.329834,33.632344],[134.331207,33.636346],[134.335327,33.640348]]]}},{"type":"Feature","properties":{"layer_id":"bakumatsu_villages","name":"相川村","address":"阿波 海部郡","source":"Geoshape 幕末期近世村領域データセット vector tiles (z7 extraction)","subarea_name":"近世村のおおよその範囲","feature_key":"village:K54G08S00037","accuracy_note":"2015年農業集落境界をもとに復元した概略範囲で、江戸時代の正確な村境ではありません"},"geometry":{"type":"MultiPolygon","coordinates":[[[[134.290009,33.671211],[134.294128,33.659782],[134.294128,33.654638],[134.292755,33.65178],[134.286575,33.647779],[134.286575,33.643206],[134.282455,33.635774],[134.276276,33.636346],[134.261856,33.635774],[134.257736,33.637489],[134.25705,33.642063],[134.258423,33.647207],[134.266663,33.654638],[134.268036,33.664925],[134.272842,33.668354],[134.279022,33.669497],[134.283829,33.668354],[134.290009,33.671211]]],[[[134.24675,33.674069],[134.251556,33.670068],[134.261169,33.668926],[134.269409,33.665497],[134.267349,33.663782],[134.266663,33.654638],[134.258423,33.647207],[134.25705,33.642063],[134.257736,33.637489],[134.25087,33.640348],[134.24057,33.639776],[134.231644,33.632344],[134.222717,33.632916],[134.219971,33.631201],[134.215851,33.631201],[134.211044,33.628914],[134.206238,33.634059],[134.203491,33.636346],[134.201431,33.642634],[134.202805,33.643777],[134.201431,33.64835],[134.202118,33.652351],[134.200058,33.655781],[134.204865,33.660353],[134.208984,33.662068],[134.212418,33.663211],[134.215164,33.665497],[134.220657,33.665497],[134.227524,33.669497],[134.235764,33.670068],[134.241943,33.672926],[134.24675,33.674069]]],[[[134.25087,33.640348],[134.261856,33.635774],[134.276276,33.636346],[134.290695,33.634631],[134.297562,33.634631],[134.304428,33.637489],[134.308548,33.637489],[134.307175,33.634631],[134.308548,33.628342],[134.305801,33.621481],[134.296875,33.619194],[134.294815,33.619766],[134.289322,33.618622],[134.286575,33.618622],[134.283829,33.616907],[134.280396,33.61805],[134.275589,33.616335],[134.268723,33.617478],[134.266663,33.619194],[134.263229,33.61805],[134.259796,33.619766],[134.25499,33.619766],[134.250183,33.622053],[134.244003,33.622053],[134.235077,33.624912],[134.231644,33.627199],[134.23233,33.631201],[134.231644,33.632344],[134.24057,33.639776],[134.25087,33.640348]]],[[[134.294128,33.658067],[134.301682,33.651208],[134.296188,33.646636],[134.298248,33.635203],[134.290695,33.634631],[134.282455,33.635774],[134.286575,33.643206],[134.286575,33.647779],[134.294128,33.654066],[134.294128,33.658067]]],[[[134.301682,33.651208],[134.307175,33.647207],[134.305801,33.640919],[134.306488,33.637489],[134.298248,33.635203],[134.296188,33.646636],[134.301682,33.651208]]],[[[134.307175,33.647207],[134.308548,33.643777],[134.314041,33.639776],[134.311981,33.636346],[134.309921,33.638061],[134.306488,33.637489],[134.305801,33.640919],[134.307175,33.647207]]]]}},{"type":"Feature","properties":{"layer_id":"bakumatsu_villages","name":"神野村","address":"阿波 海部郡","source":"Geoshape 幕末期近世村領域データセット vector tiles (z7 extraction)","subarea_name":"近世村のおおよその範囲","feature_key":"village:K54G08S00039","accuracy_note":"2015年農業集落境界をもとに復元した概略範囲で、江戸時代の正確な村境ではありません"},"geometry":{"type":"Polygon","coordinates":[[[134.34494,33.675783],[134.347687,33.671783],[134.347687,33.668354],[134.34906,33.667783],[134.349747,33.665497],[134.351807,33.663782],[134.348373,33.663211],[134.343567,33.660353],[134.338074,33.660925],[134.330521,33.658639],[134.328461,33.65921],[134.320908,33.658639],[134.316101,33.654066],[134.314041,33.655209],[134.311295,33.654638],[134.310608,33.654066],[134.311295,33.65178],[134.309921,33.650065],[134.306488,33.65178],[134.301682,33.651208],[134.294128,33.658067],[134.290009,33.671211],[134.296188,33.669497],[134.311295,33.667783],[134.323654,33.667211],[134.327087,33.668926],[134.336014,33.669497],[134.341507,33.674069],[134.34494,33.675783]]]}},{"type":"Feature","properties":{"layer_id":"bakumatsu_villages","name":"船津村","address":"阿波 海部郡","source":"Geoshape 幕末期近世村領域データセット vector tiles (z7 extraction)","subarea_name":"近世村のおおよその範囲","feature_key":"village:K54G08S00050","accuracy_note":"2015年農業集落境界をもとに復元した概略範囲で、江戸時代の正確な村境ではありません"},"geometry":{"type":"Polygon","coordinates":[[[134.208984,33.592315],[134.217224,33.589455],[134.217224,33.587739],[134.225464,33.587167],[134.229584,33.589455],[134.228897,33.586595],[134.230957,33.579159],[134.230957,33.575154],[134.231644,33.57115],[134.229584,33.569433],[134.22821,33.564284],[134.226151,33.56314],[134.224091,33.563712],[134.219971,33.567145],[134.217224,33.567717],[134.206924,33.566],[134.200745,33.562568],[134.195251,33.560851],[134.192505,33.561995],[134.193878,33.565428],[134.195251,33.566573],[134.195251,33.568861],[134.191818,33.57401],[134.187698,33.576299],[134.186325,33.579159],[134.188385,33.582019],[134.185638,33.585451],[134.184952,33.588883],[134.201431,33.592315],[134.208984,33.592315]]]}},{"type":"Feature","properties":{"layer_id":"bakumatsu_villages","name":"芝村","address":"阿波 海部郡","source":"Geoshape 幕末期近世村領域データセット vector tiles (z7 extraction)","subarea_name":"近世村のおおよその範囲","feature_key":"village:K54G08S00028","accuracy_note":"2015年農業集落境界をもとに復元した概略範囲で、江戸時代の正確な村境ではありません"},"geometry":{"type":"Polygon","coordinates":[[[134.325027,33.608901],[134.330521,33.606041],[134.335327,33.606613],[134.3367,33.604326],[134.3367,33.603182],[134.331207,33.603754],[134.330521,33.603182],[134.329147,33.603182],[134.329147,33.602038],[134.323654,33.601466],[134.320908,33.60547],[134.322281,33.606613],[134.321594,33.608901],[134.325027,33.608901]]]}},{"type":"Feature","properties":{"layer_id":"bakumatsu_villages","name":"芥附村","address":"阿波 海部郡","source":"Geoshape 幕末期近世村領域データセット vector tiles (z7 extraction)","subarea_name":"近世村のおおよその範囲","feature_key":"village:K54G08S00046","accuracy_note":"2015年農業集落境界をもとに復元した概略範囲で、江戸時代の正確な村境ではありません"},"geometry":{"type":"Polygon","coordinates":[[[134.277649,33.577443],[134.281082,33.573438],[134.278336,33.568861],[134.276962,33.568289],[134.274216,33.568289],[134.269409,33.562568],[134.259796,33.56314],[134.260483,33.569433],[134.264603,33.568289],[134.266663,33.571722],[134.265976,33.57401],[134.274902,33.573438],[134.276962,33.575154],[134.277649,33.577443]]]}},{"type":"Feature","properties":{"layer_id":"bakumatsu_villages","name":"若松村","address":"阿波 海部郡","source":"Geoshape 幕末期近世村領域データセット vector tiles (z7 extraction)","subarea_name":"近世村のおおよその範囲","feature_key":"village:K54G08S00038","accuracy_note":"2015年農業集落境界をもとに復元した概略範囲で、江戸時代の正確な村境ではありません"},"geometry":{"type":"Polygon","coordinates":[[[134.351807,33.663782],[134.341507,33.654066],[134.335327,33.652351],[134.331894,33.650637],[134.330521,33.648922],[134.328461,33.649494],[134.326401,33.647779],[134.325714,33.641491],[134.322281,33.640348],[134.319534,33.635774],[134.316788,33.633487],[134.311981,33.635774],[134.314041,33.639776],[134.308548,33.643777],[134.307175,33.647779],[134.301682,33.651208],[134.306488,33.65178],[134.309921,33.650065],[134.311295,33.65178],[134.310608,33.654066],[134.311295,33.654638],[134.314041,33.655209],[134.316101,33.654066],[134.320908,33.658639],[134.328461,33.65921],[134.330521,33.658639],[134.338074,33.660925],[134.343567,33.660353],[134.348373,33.663211],[134.351807,33.663782]]]}},{"type":"Feature","properties":{"layer_id":"bakumatsu_villages","name":"角坂村","address":"阿波 海部郡","source":"Geoshape 幕末期近世村領域データセット vector tiles (z7 extraction)","subarea_name":"近世村のおおよその範囲","feature_key":"village:K54G08S00048","accuracy_note":"2015年農業集落境界をもとに復元した概略範囲で、江戸時代の正確な村境ではありません"},"geometry":{"type":"Polygon","coordinates":[[[134.263916,33.573438],[134.265976,33.57401],[134.266663,33.573438],[134.264603,33.568289],[134.260483,33.569433],[134.253616,33.571722],[134.25293,33.57401],[134.24881,33.576871],[134.249496,33.583163],[134.251556,33.584307],[134.259796,33.582591],[134.261169,33.583163],[134.261856,33.577443],[134.263916,33.57401],[134.263916,33.573438]]]}},{"type":"Feature","properties":{"layer_id":"bakumatsu_villages","name":"野江村","address":"阿波 海部郡","source":"Geoshape 幕末期近世村領域データセット vector tiles (z7 extraction)","subarea_name":"近世村のおおよその範囲","feature_key":"village:K54G08S00027","accuracy_note":"2015年農業集落境界をもとに復元した概略範囲で、江戸時代の正確な村境ではありません"},"geometry":{"type":"Polygon","coordinates":[[[134.331207,33.603754],[134.3367,33.603182],[134.333954,33.597463],[134.332581,33.588311],[134.329834,33.589455],[134.325027,33.587739],[134.320221,33.587739],[134.320908,33.595175],[134.319534,33.599179],[134.320221,33.601466],[134.329147,33.602038],[134.329147,33.603182],[134.330521,33.603182],[134.331207,33.603754]]]}},{"type":"Feature","properties":{"layer_id":"bakumatsu_villages","name":"鞆浦","address":"阿波 海部郡","source":"Geoshape 幕末期近世村領域データセット vector tiles (z7 extraction)","subarea_name":"近世村のおおよその範囲","feature_key":"village:K54G08S00024","accuracy_note":"2015年農業集落境界をもとに復元した概略範囲で、江戸時代の正確な村境ではありません"},"geometry":{"type":"MultiPolygon","coordinates":[[[[134.35318,33.587167],[134.354553,33.591171],[134.357986,33.593459],[134.357986,33.595175],[134.36142,33.596319],[134.36348,33.594031],[134.362106,33.594603],[134.362793,33.592315],[134.360733,33.592887],[134.360046,33.594603],[134.35936,33.592887],[134.360046,33.592315],[134.364166,33.591743],[134.36348,33.588883],[134.35318,33.587167]]],[[[134.35318,33.587167],[134.344254,33.585451],[134.344254,33.589455],[134.346313,33.590027],[134.35112,33.587167],[134.35318,33.587167]]]]}},{"type":"Feature","properties":{"layer_id":"bakumatsu_villages","name":"高園村","address":"阿波 海部郡","source":"Geoshape 幕末期近世村領域データセット vector tiles (z7 extraction)","subarea_name":"近世村のおおよその範囲","feature_key":"village:K54G08S00026","accuracy_note":"2015年農業集落境界をもとに復元した概略範囲で、江戸時代の正確な村境ではありません"},"geometry":{"type":"MultiPolygon","coordinates":[[[[134.337387,33.604326],[134.341507,33.603754],[134.345627,33.600894],[134.344254,33.599179],[134.34288,33.589455],[134.34082,33.588311],[134.335327,33.588311],[134.333267,33.588883],[134.332581,33.588311],[134.333954,33.597463],[134.3367,33.604326],[134.337387,33.604326]]],[[[134.345627,33.600894],[134.346313,33.600322],[134.349747,33.599179],[134.347687,33.593459],[134.346313,33.590027],[134.343567,33.590027],[134.34288,33.589455],[134.344254,33.599179],[134.345627,33.600894]]]]}},{"type":"Feature","properties":{"layer_id":"edo_post_stations","name":"高園","address":"","source":"CODH 江戸宿場データセット Version 1 (2026-08)","subarea_name":"土佐街道（東街道）","feature_key":"post:R816-004"},"geometry":{"coordinates":[134.341,33.59997],"type":"Point"}},{"type":"Feature","properties":{"layer_id":"edo_roads","name":"土佐街道（東街道）","address":"徳島 → 高知","source":"CODH 江戸主要街道データセット Version 4 (2026-08)","subarea_name":"江戸期の主要街道","feature_key":"road:R816"},"geometry":{"type":"LineString","coordinates":[[134.30289,33.55435],[134.30296,33.55569],[134.30337,33.55654],[134.30454,33.5572],[134.30514,33.55728],[134.30749,33.55844],[134.30755,33.55886],[134.30698,33.55995],[134.30644,33.56055],[134.30641,33.561],[134.30486,33.5614],[134.30426,33.56264],[134.3046,33.56303],[134.30521,33.56705],[134.30792,33.56912],[134.30831,33.57063],[134.30812,33.57166],[134.30955,33.57496],[134.31012,33.57504],[134.31015,33.5758],[134.31052,33.5758],[134.31044,33.57641],[134.31107,33.57646],[134.31107,33.57744],[134.31145,33.57884],[134.31249,33.57905],[134.31386,33.57968],[134.3144,33.58079],[134.31592,33.58071],[134.31826,33.58211],[134.32197,33.58282],[134.32349,33.58203],[134.32533,33.58232],[134.32622,33.58224],[134.32913,33.5828],[134.32961,33.58306],[134.3304,33.5842],[134.33103,33.58462],[134.33091,33.58515],[134.33024,33.58583],[134.33043,33.5861],[134.33075,33.58602],[134.33081,33.58644],[134.33236,33.58639],[134.33192,33.58747],[134.33252,33.5875],[134.33246,33.58826],[134.33553,33.58919],[134.33557,33.59048],[134.33528,33.59119],[134.33553,33.59238],[134.33506,33.59309],[134.33553,33.59381],[134.33693,33.59439],[134.33715,33.5951],[134.33636,33.59589],[134.33686,33.59703],[134.33658,33.59851],[134.33801,33.59919],[134.34038,33.5988],[134.34346,33.59906],[134.34767,33.6008],[134.35043,33.60291],[134.35122,33.60326],[134.35239,33.60521],[134.35344,33.61257],[134.35315,33.61416],[134.35284,33.61482],[134.35049,33.61608],[134.34973,33.61688],[134.34964,33.61814],[134.3491,33.61872],[134.34929,33.61938],[134.35274,33.62046],[134.35404,33.62102],[134.35395,33.62189],[134.35328,33.62342],[134.35398,33.62437],[134.36155,33.62653],[134.36143,33.62746],[134.36209,33.62804],[134.36323,33.62952],[134.3644,33.63004],[134.36447,33.63184],[134.36716,33.63284],[134.36802,33.63255],[134.36966,33.63437],[134.37163,33.63569],[134.37302,33.63551],[134.37413,33.63624],[134.37531,33.6363],[134.37657,33.63696],[134.37822,33.63994],[134.38009,33.64031],[134.38174,33.64033],[134.38253,33.64149],[134.38339,33.64181],[134.38408,33.64353],[134.38519,33.64405],[134.38576,33.64482],[134.38583,33.64566],[134.38541,33.64624],[134.38507,33.64759],[134.38621,33.64957],[134.38824,33.64965]]}},{"type":"Feature","properties":{"layer_id":"historical_sites_archaeology","name":"元越番所跡","address":"徳島県 海部郡海陽町 日比原","source":"Geoshape 日本歴史地名大系 施設・地点項目データセット 2025-05-15","subarea_name":"史跡","feature_key":"09_historic_sites.geojson:370000170800","subtype":"史跡"},"geometry":{"type":"Point","coordinates":[134.288161,33.573464]}},{"type":"Feature","properties":{"layer_id":"historical_sites_archaeology","name":"古目番所跡","address":"徳島県 海部郡海陽町 宍喰浦","source":"Geoshape 日本歴史地名大系 施設・地点項目データセット 2025-05-15","subarea_name":"史跡","feature_key":"09_historic_sites.geojson:370000170000","subtype":"史跡"},"geometry":{"type":"Point","coordinates":[134.304137,33.564592]}},{"type":"Feature","properties":{"layer_id":"historical_sites_archaeology","name":"吉田城跡","address":"徳島県 海部郡海陽町 吉田","source":"Geoshape 日本歴史地名大系 施設・地点項目データセット 2025-05-15","subarea_name":"城跡","feature_key":"05_castle_ruins.geojson:370000168900","subtype":"城跡"},"geometry":{"type":"Point","coordinates":[134.317742,33.610832]}},{"type":"Feature","properties":{"layer_id":"historical_sites_archaeology","name":"吉野城跡","address":"徳島県 海部郡海陽町 吉野","source":"Geoshape 日本歴史地名大系 施設・地点項目データセット 2025-05-15","subarea_name":"城跡","feature_key":"05_castle_ruins.geojson:370000166500","subtype":"城跡"},"geometry":{"type":"Point","coordinates":[134.329771,33.614292]}},{"type":"Feature","properties":{"layer_id":"historical_sites_archaeology","name":"大里古墳群","address":"徳島県 海部郡海陽町 大里","source":"Geoshape 日本歴史地名大系 施設・地点項目データセット 2025-05-15","subarea_name":"古墳","feature_key":"06_kofun.geojson:370000166100","subtype":"古墳"},"geometry":{"type":"Point","coordinates":[134.358612,33.602466]}},{"type":"Feature","properties":{"layer_id":"historical_sites_archaeology","name":"大里郷学校跡","address":"徳島県 海部郡海陽町 大里","source":"Geoshape 日本歴史地名大系 施設・地点項目データセット 2025-05-15","subarea_name":"史跡","feature_key":"09_historic_sites.geojson:370000165900","subtype":"史跡"},"geometry":{"type":"Point","coordinates":[134.363851,33.611441]}},{"type":"Feature","properties":{"layer_id":"historical_sites_archaeology","name":"宍喰古墳","address":"徳島県 海部郡海陽町 久保北田","source":"Geoshape 日本歴史地名大系 施設・地点項目データセット 2025-05-15","subarea_name":"古墳","feature_key":"06_kofun.geojson:370000170600","subtype":"古墳"},"geometry":{"type":"Point","coordinates":[134.300095,33.571358]}},{"type":"Feature","properties":{"layer_id":"historical_sites_archaeology","name":"宍喰川口番所跡","address":"徳島県 海部郡海陽町 宍喰浦","source":"Geoshape 日本歴史地名大系 施設・地点項目データセット 2025-05-15","subarea_name":"史跡","feature_key":"09_historic_sites.geojson:370000169600","subtype":"史跡"},"geometry":{"type":"Point","coordinates":[134.304959,33.564955]}},{"type":"Feature","properties":{"layer_id":"historical_sites_archaeology","name":"浅川川口番所跡","address":"徳島県 海部郡海陽町 浅川","source":"Geoshape 日本歴史地名大系 施設・地点項目データセット 2025-05-15","subarea_name":"史跡","feature_key":"09_historic_sites.geojson:370000165500","subtype":"史跡"},"geometry":{"type":"Point","coordinates":[134.352032,33.632521]}},{"type":"Feature","properties":{"layer_id":"historical_sites_archaeology","name":"海部城跡","address":"徳島県 海部郡海陽町 鞆浦","source":"Geoshape 日本歴史地名大系 施設・地点項目データセット 2025-05-15","subarea_name":"城跡","feature_key":"05_castle_ruins.geojson:370000167900","subtype":"城跡"},"geometry":{"type":"Point","coordinates":[134.357942,33.594492]}},{"type":"Feature","properties":{"layer_id":"historical_sites_archaeology","name":"海部郡代役所跡","address":"徳島県 海部郡海陽町 奥浦","source":"Geoshape 日本歴史地名大系 施設・地点項目データセット 2025-05-15","subarea_name":"史跡","feature_key":"09_historic_sites.geojson:370000168000","subtype":"史跡"},"geometry":{"type":"Point","coordinates":[134.353214,33.592605]}},{"type":"Feature","properties":{"layer_id":"historical_sites_archaeology","name":"竹ヶ島番所跡","address":"徳島県 海部郡海陽町 宍喰浦","source":"Geoshape 日本歴史地名大系 施設・地点項目データセット 2025-05-15","subarea_name":"史跡","feature_key":"09_historic_sites.geojson:370000170300","subtype":"史跡"},"geometry":{"type":"Point","coordinates":[134.304137,33.564592]}},{"type":"Feature","properties":{"layer_id":"historical_sites_archaeology","name":"芝遺跡","address":"徳島県 海部郡海陽町 野江","source":"Geoshape 日本歴史地名大系 施設・地点項目データセット 2025-05-15","subarea_name":"遺跡","feature_key":"08_archaeological_sites.geojson:370000168400","subtype":"遺跡"},"geometry":{"type":"Point","coordinates":[134.33025,33.602442]}},{"type":"Feature","properties":{"layer_id":"historical_sites_archaeology","name":"那佐川口番所跡","address":"徳島県 海部郡海陽町 宍喰浦","source":"Geoshape 日本歴史地名大系 施設・地点項目データセット 2025-05-15","subarea_name":"史跡","feature_key":"09_historic_sites.geojson:370000169900","subtype":"史跡"},"geometry":{"type":"Point","coordinates":[134.304137,33.564592]}},{"type":"Feature","properties":{"layer_id":"historical_sites_archaeology","name":"鞆浦川口番所跡","address":"徳島県 海部郡海陽町 鞆浦","source":"Geoshape 日本歴史地名大系 施設・地点項目データセット 2025-05-15","subarea_name":"史跡","feature_key":"09_historic_sites.geojson:370000167700","subtype":"史跡"},"geometry":{"type":"Point","coordinates":[134.357942,33.590474]}},{"type":"Feature","properties":{"layer_id":"historical_temples_shrines","name":"八坂神社","address":"徳島県 徳島市 大松町上野神大松町字72番地","source":"Geoshape 日本歴史地名大系 施設・地点項目データセット 2025-05-15","subarea_name":"神社","feature_key":"02_shrines.geojson:370000170500","subtype":"神社"},"geometry":{"type":"Point","coordinates":[134.304137,33.564592]}},{"type":"Feature","properties":{"layer_id":"historical_temples_shrines","name":"八幡神社","address":"徳島県 名東郡佐那河内村 下字高樋79番地","source":"Geoshape 日本歴史地名大系 施設・地点項目データセット 2025-05-15","subarea_name":"神社","feature_key":"02_shrines.geojson:370000166000","subtype":"神社"},"geometry":{"type":"Point","coordinates":[134.369286,33.611015]}},{"type":"Feature","properties":{"layer_id":"historical_temples_shrines","name":"円頓寺跡","address":"徳島県 海部郡海陽町 宍喰浦","source":"Geoshape 日本歴史地名大系 施設・地点項目データセット 2025-05-15","subarea_name":"廃寺・廃社","feature_key":"03_abandoned_temples_shrines.geojson:370000169700","subtype":"廃寺・廃社"},"geometry":{"type":"Point","coordinates":[134.304137,33.564592]}},{"type":"Feature","properties":{"layer_id":"historical_temples_shrines","name":"城満寺","address":"徳島県 海部郡海陽町 吉田字西沢吉田51番地","source":"Geoshape 日本歴史地名大系 施設・地点項目データセット 2025-05-15","subarea_name":"寺院","feature_key":"01_temples.geojson:370000169000","subtype":"寺院"},"geometry":{"type":"Point","coordinates":[134.316175,33.611197]}},{"type":"Feature","properties":{"layer_id":"historical_temples_shrines","name":"轟神社","address":"徳島県 阿南市 新野町北宮ノ久保4番地","source":"Geoshape 日本歴史地名大系 施設・地点項目データセット 2025-05-15","subarea_name":"神社","feature_key":"02_shrines.geojson:370000167200","subtype":"神社"},"geometry":{"type":"Point","coordinates":[134.254625,33.69847]}}]}