{"type":"FeatureCollection","municipality_code":"39386","pref":"高知県","city":"いの町","layer_counts":{"bakumatsu_villages":21,"civil_engineering_heritage":1,"edo_post_stations":1,"historical_sites_archaeology":8,"historical_temples_shrines":3},"total_features":34,"features":[{"type":"Feature","properties":{"layer_id":"bakumatsu_villages","name":"上八川村","address":"土佐 吾川郡","source":"Geoshape 幕末期近世村領域データセット vector tiles (z7 extraction)","subarea_name":"近世村のおおよその範囲","feature_key":"village:K57G05S00038","accuracy_note":"2015年農業集落境界をもとに復元した概略範囲で、江戸時代の正確な村境ではありません"},"geometry":{"type":"MultiPolygon","coordinates":[[[[133.313599,33.694638],[133.317032,33.692352],[133.314285,33.68721],[133.316345,33.67864],[133.314285,33.677497],[133.312912,33.677497],[133.317032,33.676354],[133.317719,33.675211],[133.318405,33.675211],[133.319778,33.672354],[133.316345,33.671211],[133.314285,33.671783],[133.312912,33.670068],[133.310165,33.668926],[133.309479,33.667211],[133.306732,33.667783],[133.303299,33.670068],[133.301239,33.672926],[133.301239,33.676926],[133.295059,33.681497],[133.293686,33.683211],[133.296432,33.686068],[133.301926,33.687782],[133.305359,33.691781],[133.308792,33.694066],[133.312912,33.693495],[133.313599,33.694638]]],[[[133.319778,33.672354],[133.320465,33.671211],[133.326645,33.671783],[133.331451,33.67064],[133.333511,33.668354],[133.334198,33.664354],[133.341751,33.663782],[133.346558,33.664925],[133.345871,33.659782],[133.347244,33.655209],[133.343124,33.650065],[133.340378,33.648922],[133.340378,33.647207],[133.336945,33.648922],[133.335571,33.650065],[133.332138,33.650637],[133.328705,33.654066],[133.313599,33.654638],[133.315659,33.656924],[133.310852,33.660925],[133.309479,33.663782],[133.309479,33.667211],[133.310165,33.668926],[133.312912,33.670068],[133.314285,33.671783],[133.316345,33.671211],[133.319778,33.672354]]],[[[133.324585,33.654066],[133.327332,33.651208],[133.330078,33.644921],[133.331451,33.645492],[133.334885,33.643206],[133.336258,33.640919],[133.335571,33.639204],[133.337631,33.635774],[133.338318,33.625483],[133.339691,33.622624],[133.339005,33.620337],[133.329391,33.615191],[133.324585,33.621481],[133.321838,33.622053],[133.321152,33.622624],[133.315659,33.623196],[133.315659,33.627199],[133.312912,33.632344],[133.312225,33.635203],[133.308105,33.636918],[133.310165,33.640348],[133.314972,33.637489],[133.318405,33.638633],[133.319778,33.643777],[133.317719,33.651208],[133.314972,33.654066],[133.324585,33.654066]]],[[[133.367157,33.670068],[133.36853,33.668926],[133.371964,33.660925],[133.37471,33.657495],[133.379517,33.655781],[133.38089,33.656924],[133.382263,33.655209],[133.384323,33.654638],[133.386383,33.651208],[133.38707,33.644349],[133.386383,33.642634],[133.383636,33.642063],[133.380203,33.639204],[133.371277,33.639204],[133.367844,33.636918],[133.363037,33.636918],[133.360291,33.643206],[133.358917,33.652923],[133.360291,33.656924],[133.356857,33.665497],[133.360291,33.667783],[133.363724,33.667783],[133.367157,33.670068]]],[[[133.388443,33.676926],[133.39119,33.663211],[133.400803,33.65178],[133.399429,33.648922],[133.399429,33.643206],[133.393936,33.639776],[133.38707,33.642063],[133.38707,33.644349],[133.386383,33.651208],[133.384323,33.654638],[133.382263,33.655209],[133.38089,33.656924],[133.379517,33.655781],[133.37471,33.657495],[133.371964,33.660925],[133.36853,33.668926],[133.367157,33.670068],[133.367157,33.671211],[133.37677,33.673497],[133.382263,33.674069],[133.388443,33.676926]]],[[[133.419342,33.687782],[133.420715,33.683211],[133.419342,33.68264],[133.420029,33.67864],[133.422775,33.675211],[133.424835,33.664354],[133.413849,33.661496],[133.413162,33.663782],[133.406982,33.668926],[133.406982,33.67464],[133.402863,33.683782],[133.404922,33.684925],[133.406982,33.684354],[133.410416,33.685496],[133.419342,33.687782]]],[[[133.402863,33.683782],[133.406982,33.67464],[133.406982,33.668926],[133.413162,33.663782],[133.413849,33.661496],[133.404236,33.655781],[133.400803,33.65178],[133.39119,33.663211],[133.390503,33.67064],[133.38913,33.671783],[133.388443,33.67464],[133.388443,33.676926],[133.391876,33.678068],[133.392563,33.680354],[133.395996,33.680925],[133.398056,33.680354],[133.401489,33.683782],[133.402863,33.683782]]],[[[133.328705,33.654066],[133.332138,33.650637],[133.335571,33.650065],[133.341064,33.646636],[133.342438,33.647779],[133.345871,33.647207],[133.346558,33.648922],[133.347931,33.648922],[133.347931,33.646636],[133.345871,33.644349],[133.349991,33.636918],[133.349991,33.634059],[133.352051,33.628914],[133.348618,33.628914],[133.339005,33.624912],[133.337631,33.635774],[133.335571,33.639204],[133.336258,33.640919],[133.332138,33.644921],[133.330078,33.644921],[133.327332,33.651208],[133.324585,33.654066],[133.328705,33.654066]]],[[[133.347244,33.655209],[133.347931,33.651208],[133.355484,33.638633],[133.356857,33.637489],[133.358231,33.638061],[133.360291,33.635774],[133.356171,33.632344],[133.354111,33.629485],[133.352051,33.628914],[133.349991,33.634059],[133.349991,33.636918],[133.345871,33.644349],[133.347931,33.646636],[133.347931,33.648922],[133.346558,33.648922],[133.345184,33.647207],[133.342438,33.647779],[133.341064,33.646636],[133.340378,33.64835],[133.343124,33.650065],[133.347244,33.655209]]],[[[133.352051,33.66664],[133.356857,33.665497],[133.360291,33.656924],[133.358917,33.652923],[133.360291,33.643206],[133.363037,33.636918],[133.360291,33.635774],[133.358231,33.638061],[133.356857,33.637489],[133.355484,33.638633],[133.347931,33.651208],[133.345871,33.659782],[133.346558,33.664925],[133.352051,33.66664]]],[[[133.423462,33.690067],[133.426895,33.688353],[133.428955,33.683782],[133.433762,33.680354],[133.437195,33.675211],[133.437195,33.671211],[133.431702,33.667211],[133.424835,33.664354],[133.422775,33.675211],[133.420029,33.67864],[133.419342,33.68264],[133.420715,33.683211],[133.419342,33.687782],[133.422775,33.688924],[133.423462,33.690067]]],[[[133.434448,33.694066],[133.435822,33.691781],[133.438568,33.69121],[133.442001,33.687782],[133.445435,33.686639],[133.445435,33.684925],[133.449554,33.676926],[133.448868,33.675211],[133.448868,33.672354],[133.437195,33.671211],[133.436508,33.676926],[133.428955,33.683782],[133.426895,33.688353],[133.423462,33.690067],[133.426208,33.691781],[133.429642,33.691781],[133.434448,33.694066]]]]}},{"type":"Feature","properties":{"layer_id":"bakumatsu_villages","name":"下八川村","address":"土佐 吾川郡","source":"Geoshape 幕末期近世村領域データセット vector tiles (z7 extraction)","subarea_name":"近世村のおおよその範囲","feature_key":"village:K57G05S00039","accuracy_note":"2015年農業集落境界をもとに復元した概略範囲で、江戸時代の正確な村境ではありません"},"geometry":{"type":"MultiPolygon","coordinates":[[[[133.295746,33.630057],[133.295746,33.626627],[133.297119,33.624912],[133.300552,33.624912],[133.301926,33.622624],[133.298492,33.615763],[133.288879,33.615191],[133.284073,33.618622],[133.285446,33.622624],[133.28476,33.625483],[133.295746,33.630057]]],[[[133.308105,33.636918],[133.312225,33.635203],[133.312912,33.632344],[133.315659,33.627199],[133.315659,33.623196],[133.313599,33.623768],[133.308105,33.622624],[133.306732,33.620909],[133.301239,33.620909],[133.301926,33.622624],[133.300552,33.624912],[133.297806,33.625483],[133.301239,33.627199],[133.303299,33.626055],[133.304672,33.627199],[133.306046,33.630057],[133.303299,33.632344],[133.305359,33.632344],[133.308105,33.636918]]],[[[133.306732,33.620909],[133.307419,33.61805],[133.309479,33.614619],[133.304672,33.614047],[133.303299,33.615763],[133.298492,33.615763],[133.301239,33.620909],[133.306732,33.620909]]],[[[133.284073,33.618622],[133.288879,33.615191],[133.298492,33.615763],[133.299179,33.612332],[133.296432,33.609473],[133.290253,33.607757],[133.286133,33.607757],[133.2827,33.610616],[133.284073,33.618622]]],[[[133.2827,33.610616],[133.286133,33.607757],[133.290253,33.607757],[133.296432,33.609473],[133.299179,33.603754],[133.295746,33.604898],[133.290939,33.599751],[133.286133,33.599751],[133.282013,33.600322],[133.279266,33.598035],[133.279953,33.602038],[133.27858,33.603754],[133.279266,33.608329],[133.2827,33.610616]]],[[[133.303299,33.615763],[133.304672,33.614047],[133.309479,33.614619],[133.310165,33.610045],[133.310165,33.608901],[133.305359,33.608901],[133.304672,33.606041],[133.299866,33.60261],[133.296432,33.608901],[133.299866,33.612332],[133.298492,33.615763],[133.303299,33.615763]]],[[[133.306046,33.606041],[133.307419,33.604326],[133.308105,33.60547],[133.308792,33.603754],[133.313599,33.599179],[133.310852,33.598035],[133.306046,33.597463],[133.301926,33.595747],[133.303299,33.592315],[133.297119,33.590027],[133.295746,33.587167],[133.294373,33.587739],[133.288879,33.586023],[133.285446,33.588883],[133.285446,33.591743],[133.279953,33.593459],[133.277893,33.595747],[133.282013,33.600322],[133.286133,33.599751],[133.290939,33.599751],[133.295746,33.604898],[133.299179,33.603754],[133.299866,33.60261],[133.304672,33.606041],[133.306046,33.606041]]],[[[133.313599,33.623768],[133.321152,33.622624],[133.321838,33.622053],[133.324585,33.621481],[133.330078,33.614047],[133.328018,33.61176],[133.329391,33.607185],[133.328705,33.60547],[133.327332,33.60547],[133.328018,33.602038],[133.324585,33.600894],[133.318405,33.600894],[133.313599,33.599179],[133.308792,33.603754],[133.308105,33.60547],[133.307419,33.604326],[133.306046,33.606041],[133.304672,33.606041],[133.305359,33.608901],[133.310165,33.608901],[133.310165,33.610045],[133.306732,33.620909],[133.308105,33.622624],[133.313599,33.623768]]]]}},{"type":"Feature","properties":{"layer_id":"bakumatsu_villages","name":"伊野村","address":"土佐 吾川郡","source":"Geoshape 幕末期近世村領域データセット vector tiles (z7 extraction)","subarea_name":"近世村のおおよその範囲","feature_key":"village:K57G05S00017","accuracy_note":"2015年農業集落境界をもとに復元した概略範囲で、江戸時代の正確な村境ではありません"},"geometry":{"type":"MultiPolygon","coordinates":[[[[133.423462,33.568861],[133.422775,33.559707],[133.418655,33.554557],[133.417969,33.551696],[133.415222,33.549407],[133.412476,33.551696],[133.417282,33.561423],[133.417969,33.565428],[133.423462,33.568861]]],[[[133.420029,33.555701],[133.424149,33.549979],[133.422775,33.548834],[133.420715,33.549979],[133.417969,33.547118],[133.415222,33.549407],[133.417969,33.551696],[133.420029,33.555701]]],[[[133.426895,33.559707],[133.436508,33.555701],[133.428955,33.549979],[133.428268,33.551123],[133.426895,33.550551],[133.426208,33.551123],[133.424149,33.549979],[133.420029,33.555701],[133.422775,33.559707],[133.426895,33.559707]]],[[[133.426208,33.551123],[133.426208,33.548834],[133.426895,33.54769],[133.424149,33.54769],[133.424149,33.546545],[133.420029,33.544828],[133.417969,33.547118],[133.420715,33.549979],[133.422775,33.548834],[133.424149,33.549979],[133.426208,33.551123]]],[[[133.428955,33.550551],[133.429642,33.54769],[133.427582,33.547118],[133.428268,33.545973],[133.423462,33.545973],[133.420715,33.544256],[133.420029,33.544828],[133.424835,33.547118],[133.424149,33.54769],[133.426895,33.54769],[133.426208,33.549979],[133.428955,33.550551]]],[[[133.433762,33.548262],[133.434448,33.545973],[133.429642,33.541395],[133.430328,33.539678],[133.428268,33.536816],[133.420715,33.544256],[133.423462,33.545973],[133.428268,33.545973],[133.427582,33.547118],[133.429642,33.54769],[133.433762,33.548262]]],[[[133.436508,33.555701],[133.437881,33.549407],[133.437195,33.548834],[133.437881,33.546545],[133.434448,33.545973],[133.433762,33.548262],[133.429642,33.54769],[133.428955,33.549979],[133.436508,33.555701]]],[[[133.442688,33.55799],[133.446808,33.551123],[133.437881,33.549407],[133.436508,33.555701],[133.442688,33.55799]]],[[[133.446808,33.551123],[133.448868,33.54769],[133.448868,33.543112],[133.444061,33.543112],[133.442001,33.541967],[133.434448,33.542539],[133.432388,33.543112],[133.434448,33.545973],[133.437881,33.546545],[133.437195,33.548834],[133.446808,33.551123]]],[[[133.432388,33.543112],[133.442688,33.541967],[133.441315,33.539678],[133.445435,33.535671],[133.441315,33.536244],[133.438568,33.535099],[133.439941,33.533382],[133.435135,33.53281],[133.433762,33.529375],[133.431015,33.528231],[133.428955,33.528231],[133.428268,33.536816],[133.430328,33.539678],[133.429642,33.541395],[133.432388,33.543112]]]]}},{"type":"Feature","properties":{"layer_id":"bakumatsu_villages","name":"八田村","address":"土佐 吾川郡","source":"Geoshape 幕末期近世村領域データセット vector tiles (z7 extraction)","subarea_name":"近世村のおおよその範囲","feature_key":"village:K57G05S00016","accuracy_note":"2015年農業集落境界をもとに復元した概略範囲で、江戸時代の正確な村境ではありません"},"geometry":{"type":"MultiPolygon","coordinates":[[[[133.435135,33.521361],[133.435135,33.517927],[133.431702,33.517354],[133.430328,33.520789],[133.435135,33.521361]]],[[[133.437881,33.518499],[133.437881,33.515064],[133.436508,33.513347],[133.437195,33.511057],[133.436508,33.510484],[133.431702,33.517354],[133.437881,33.518499]]],[[[133.441315,33.536244],[133.445435,33.535671],[133.445435,33.534527],[133.449554,33.529948],[133.448181,33.527086],[133.450241,33.524796],[133.437195,33.524796],[133.434448,33.520789],[133.430328,33.520789],[133.429642,33.523079],[133.428955,33.528231],[133.431015,33.528231],[133.433762,33.529375],[133.435135,33.53281],[133.439941,33.533382],[133.438568,33.535099],[133.441315,33.536244]]],[[[133.455734,33.525369],[133.457794,33.524796],[133.454361,33.521361],[133.452301,33.521934],[133.450928,33.524224],[133.455734,33.525369]]],[[[133.450241,33.524796],[133.445435,33.523651],[133.442688,33.520789],[133.437881,33.519644],[133.437881,33.518499],[133.435135,33.517927],[133.435135,33.521361],[133.437195,33.524796],[133.450241,33.524796]]],[[[133.450241,33.524796],[133.452988,33.521934],[133.452301,33.517354],[133.448868,33.514492],[133.441315,33.513919],[133.439941,33.512202],[133.437195,33.511057],[133.436508,33.513347],[133.437881,33.515064],[133.437195,33.516782],[133.437881,33.519644],[133.442688,33.520789],[133.445435,33.523651],[133.450241,33.524796]]]]}},{"type":"Feature","properties":{"layer_id":"bakumatsu_villages","name":"勝賀瀬村","address":"土佐 吾川郡","source":"Geoshape 幕末期近世村領域データセット vector tiles (z7 extraction)","subarea_name":"近世村のおおよその範囲","feature_key":"village:K57G05S00022","accuracy_note":"2015年農業集落境界をもとに復元した概略範囲で、江戸時代の正確な村境ではありません"},"geometry":{"type":"MultiPolygon","coordinates":[[[[133.339691,33.622624],[133.346558,33.616335],[133.356857,33.614047],[133.36235,33.610045],[133.338318,33.600322],[133.328705,33.606041],[133.328018,33.61176],[133.330078,33.613476],[133.330078,33.615763],[133.339005,33.620337],[133.339691,33.622624]]],[[[133.338318,33.600322],[133.352737,33.594031],[133.363037,33.591171],[133.365097,33.588883],[133.36441,33.585451],[133.360291,33.583735],[133.352051,33.588883],[133.339691,33.592315],[133.338318,33.600322]]],[[[133.36235,33.610045],[133.369904,33.604326],[133.378143,33.598035],[133.379517,33.592887],[133.369217,33.590599],[133.360977,33.591743],[133.352737,33.594031],[133.338318,33.600322],[133.36235,33.610045]]],[[[133.339691,33.592315],[133.352051,33.588883],[133.360291,33.583735],[133.37059,33.585451],[133.371964,33.579731],[133.36441,33.578015],[133.363037,33.580303],[133.359604,33.580303],[133.358231,33.581447],[133.344498,33.580875],[133.339691,33.592315]]],[[[133.379517,33.592887],[133.381577,33.581447],[133.371964,33.579731],[133.37059,33.585451],[133.363037,33.584307],[133.36441,33.585451],[133.365097,33.588311],[133.363037,33.591171],[133.369217,33.590599],[133.379517,33.592887]]],[[[133.357544,33.581447],[133.359604,33.580303],[133.355484,33.575726],[133.356171,33.566],[133.353424,33.567145],[133.345184,33.57401],[133.344498,33.580875],[133.357544,33.581447]]]]}},{"type":"Feature","properties":{"layer_id":"bakumatsu_villages","name":"十田村","address":"土佐 吾川郡","source":"Geoshape 幕末期近世村領域データセット vector tiles (z7 extraction)","subarea_name":"近世村のおおよその範囲","feature_key":"village:K57G05S00040","accuracy_note":"2015年農業集落境界をもとに復元した概略範囲で、江戸時代の正確な村境ではありません"},"geometry":{"type":"Polygon","coordinates":[[[133.277893,33.619194],[133.284073,33.618622],[133.2827,33.615763],[133.283386,33.611188],[133.279266,33.608329],[133.27858,33.603754],[133.27652,33.606041],[133.275833,33.604898],[133.27446,33.604898],[133.273087,33.606041],[133.273773,33.607757],[133.2724,33.608901],[133.26828,33.608901],[133.26622,33.612904],[133.267593,33.616335],[133.277893,33.619194]]]}},{"type":"Feature","properties":{"layer_id":"bakumatsu_villages","name":"大内村・鎌田村","address":"土佐 高岡郡","source":"Geoshape 幕末期近世村領域データセット vector tiles (z7 extraction)","subarea_name":"近世村のおおよその範囲","feature_key":"village:K57G06S00005","accuracy_note":"2015年農業集落境界をもとに復元した概略範囲で、江戸時代の正確な村境ではありません"},"geometry":{"type":"MultiPolygon","coordinates":[[[[133.421402,33.538533],[133.417282,33.534527],[133.418655,33.529375],[133.401489,33.527086],[133.396683,33.527086],[133.398743,33.53052],[133.413162,33.537961],[133.421402,33.538533]]],[[[133.428955,33.529948],[133.429642,33.523079],[133.426208,33.523651],[133.422775,33.521934],[133.420029,33.522506],[133.416595,33.521361],[133.413849,33.521934],[133.411102,33.520789],[133.407669,33.521361],[133.39325,33.519072],[133.393936,33.523079],[133.394623,33.525369],[133.396683,33.527086],[133.401489,33.527086],[133.428955,33.529948]]],[[[133.420029,33.544828],[133.424835,33.54025],[133.421402,33.538533],[133.413162,33.537961],[133.414536,33.541395],[133.417969,33.544828],[133.420029,33.544828]]],[[[133.424835,33.54025],[133.428268,33.536816],[133.428268,33.536244],[133.424149,33.535671],[133.422089,33.534527],[133.420715,33.536816],[133.421402,33.538533],[133.424835,33.54025]]],[[[133.420715,33.537388],[133.421402,33.535099],[133.424149,33.533382],[133.428955,33.53281],[133.428955,33.529948],[133.418655,33.529375],[133.417282,33.534527],[133.420715,33.537388]]],[[[133.428268,33.536244],[133.428955,33.53281],[133.424149,33.533382],[133.422089,33.534527],[133.424149,33.535671],[133.428268,33.536244]]]]}},{"type":"Feature","properties":{"layer_id":"bakumatsu_villages","name":"小野村","address":"土佐 吾川郡","source":"Geoshape 幕末期近世村領域データセット vector tiles (z7 extraction)","subarea_name":"近世村のおおよその範囲","feature_key":"village:K57G05S00020","accuracy_note":"2015年農業集落境界をもとに復元した概略範囲で、江戸時代の正確な村境ではありません"},"geometry":{"type":"Polygon","coordinates":[[[133.387756,33.583163],[133.398056,33.578587],[133.400803,33.571722],[133.402176,33.563712],[133.38501,33.566573],[133.381577,33.57401],[133.381577,33.581447],[133.387756,33.583163]]]}},{"type":"Feature","properties":{"layer_id":"bakumatsu_villages","name":"成山村","address":"土佐 土佐郡","source":"Geoshape 幕末期近世村領域データセット vector tiles (z7 extraction)","subarea_name":"近世村のおおよその範囲","feature_key":"village:K57G04S00020","accuracy_note":"2015年農業集落境界をもとに復元した概略範囲で、江戸時代の正確な村境ではありません"},"geometry":{"type":"MultiPolygon","coordinates":[[[[133.400803,33.593459],[133.404922,33.591743],[133.406982,33.589455],[133.410416,33.589455],[133.413162,33.587167],[133.413162,33.583163],[133.412476,33.582019],[133.413849,33.580875],[133.413849,33.580303],[133.412476,33.580875],[133.408356,33.580303],[133.398056,33.578587],[133.387756,33.583163],[133.381577,33.581447],[133.380203,33.588883],[133.385696,33.589455],[133.39119,33.592887],[133.400803,33.593459]]],[[[133.412476,33.580875],[133.417969,33.576299],[133.421402,33.576871],[133.423462,33.575726],[133.423462,33.568861],[133.417969,33.565428],[133.413849,33.568861],[133.402176,33.563712],[133.400803,33.571722],[133.398056,33.578587],[133.412476,33.580875]]]]}},{"type":"Feature","properties":{"layer_id":"bakumatsu_villages","name":"新別村","address":"土佐 吾川郡","source":"Geoshape 幕末期近世村領域データセット vector tiles (z7 extraction)","subarea_name":"近世村のおおよその範囲","feature_key":"village:K57G05S00034","accuracy_note":"2015年農業集落境界をもとに復元した概略範囲で、江戸時代の正確な村境ではありません"},"geometry":{"type":"MultiPolygon","coordinates":[[[[133.234634,33.639204],[133.234634,33.634059],[133.239441,33.626627],[133.240814,33.625483],[133.240814,33.624912],[133.239441,33.624912],[133.239441,33.615763],[133.244247,33.612332],[133.246307,33.608901],[133.242874,33.604898],[133.236008,33.60261],[133.233261,33.603754],[133.231888,33.60547],[133.227768,33.60547],[133.226395,33.606613],[133.226395,33.610616],[133.223648,33.612904],[133.223648,33.615763],[133.224335,33.618622],[133.221588,33.630057],[133.224335,33.634059],[133.228455,33.634631],[133.234634,33.639204]]],[[[133.234634,33.639204],[133.241501,33.638633],[133.244934,33.629485],[133.243561,33.622624],[133.245621,33.622624],[133.244934,33.621481],[133.251114,33.613476],[133.252487,33.611188],[133.246307,33.608901],[133.244247,33.612332],[133.239441,33.615763],[133.239441,33.624912],[133.240814,33.624912],[133.240814,33.625483],[133.239441,33.626627],[133.234634,33.634059],[133.234634,33.639204]]],[[[133.248367,33.641491],[133.251801,33.640919],[133.249741,33.636346],[133.251801,33.632344],[133.254547,33.629485],[133.25386,33.627199],[133.255234,33.626055],[133.255234,33.615191],[133.25386,33.610045],[133.252487,33.611188],[133.251114,33.613476],[133.244934,33.621481],[133.245621,33.622624],[133.243561,33.622624],[133.244934,33.629485],[133.241501,33.638633],[133.248367,33.641491]]],[[[133.26004,33.642634],[133.263474,33.642063],[133.266907,33.639204],[133.27034,33.635774],[133.271713,33.632344],[133.271713,33.631201],[133.27034,33.629485],[133.271713,33.629485],[133.2724,33.626627],[133.277893,33.619194],[133.267593,33.616335],[133.26622,33.612904],[133.259354,33.613476],[133.25592,33.61176],[133.25592,33.610045],[133.25386,33.610045],[133.255234,33.615191],[133.255234,33.626055],[133.25386,33.627199],[133.254547,33.629485],[133.251801,33.632344],[133.249741,33.636346],[133.251801,33.640919],[133.257294,33.641491],[133.26004,33.642634]]],[[[133.27034,33.635774],[133.275146,33.635203],[133.279266,33.632916],[133.282013,33.632916],[133.282013,33.628914],[133.28476,33.625483],[133.285446,33.622624],[133.284073,33.618622],[133.277893,33.619194],[133.2724,33.626627],[133.271713,33.629485],[133.27034,33.629485],[133.271713,33.631772],[133.27034,33.635774]]]]}},{"type":"Feature","properties":{"layer_id":"bakumatsu_villages","name":"枝川村","address":"土佐 土佐郡","source":"Geoshape 幕末期近世村領域データセット vector tiles (z7 extraction)","subarea_name":"近世村のおおよその範囲","feature_key":"village:K57G04S00016","accuracy_note":"2015年農業集落境界をもとに復元した概略範囲で、江戸時代の正確な村境ではありません"},"geometry":{"type":"MultiPolygon","coordinates":[[[[133.455048,33.572866],[133.454361,33.56314],[133.456421,33.557418],[133.455048,33.556846],[133.452301,33.551696],[133.449554,33.551696],[133.448181,33.562568],[133.447495,33.564856],[133.444061,33.565428],[133.444061,33.566573],[133.444748,33.568289],[133.446808,33.567717],[133.449554,33.571722],[133.455048,33.572866]]],[[[133.444061,33.565428],[133.447495,33.564856],[133.448181,33.562568],[133.449554,33.551696],[133.446808,33.551123],[133.442688,33.55799],[133.443375,33.561423],[133.446121,33.564284],[133.444061,33.565428]]],[[[133.458481,33.558562],[133.457794,33.556273],[133.459167,33.555129],[133.457108,33.553985],[133.457108,33.552268],[133.458481,33.551696],[133.459167,33.550551],[133.455048,33.543112],[133.448868,33.543112],[133.448868,33.54769],[133.446808,33.551123],[133.452301,33.551696],[133.455048,33.556846],[133.458481,33.558562]]],[[[133.457794,33.57401],[133.462601,33.573438],[133.465347,33.57115],[133.468781,33.566573],[133.471527,33.566573],[133.474274,33.56314],[133.47084,33.557418],[133.468094,33.555129],[133.458481,33.555701],[133.457794,33.556273],[133.458481,33.558562],[133.456421,33.557418],[133.455734,33.55799],[133.454361,33.56314],[133.455048,33.572866],[133.456421,33.572866],[133.457794,33.57401]]],[[[133.459854,33.556273],[133.468094,33.555129],[133.467407,33.550551],[133.468094,33.548834],[133.465347,33.545401],[133.462601,33.544256],[133.455048,33.543112],[133.459167,33.550551],[133.457108,33.553412],[133.459854,33.556273]]]]}},{"type":"Feature","properties":{"layer_id":"bakumatsu_villages","name":"柳ノ瀬村","address":"土佐 吾川郡","source":"Geoshape 幕末期近世村領域データセット vector tiles (z7 extraction)","subarea_name":"近世村のおおよその範囲","feature_key":"village:K57G05S00024","accuracy_note":"2015年農業集落境界をもとに復元した概略範囲で、江戸時代の正確な村境ではありません"},"geometry":{"type":"MultiPolygon","coordinates":[[[[133.328705,33.606041],[133.338318,33.600322],[133.319092,33.584307],[133.309479,33.581447],[133.304672,33.585451],[133.304672,33.590027],[133.303299,33.592315],[133.301926,33.595747],[133.306046,33.597463],[133.310852,33.598035],[133.317719,33.600894],[133.324585,33.600894],[133.328018,33.602038],[133.327332,33.60547],[133.328705,33.606041]]],[[[133.338318,33.600322],[133.339691,33.592315],[133.322525,33.57115],[133.313599,33.573438],[133.309479,33.581447],[133.319092,33.584307],[133.338318,33.600322]]],[[[133.339691,33.592315],[133.344498,33.580875],[133.337631,33.57401],[133.327332,33.566],[133.325272,33.569433],[133.322525,33.57115],[133.339691,33.592315]]],[[[133.344498,33.580875],[133.345871,33.564856],[133.341751,33.565428],[133.337631,33.561423],[133.331451,33.558562],[133.327332,33.566],[133.337631,33.57401],[133.344498,33.580875]]]]}},{"type":"Feature","properties":{"layer_id":"bakumatsu_villages","name":"楠ノ瀬村","address":"土佐 吾川郡","source":"Geoshape 幕末期近世村領域データセット vector tiles (z7 extraction)","subarea_name":"近世村のおおよその範囲","feature_key":"village:K57G05S00023","accuracy_note":"2015年農業集落境界をもとに復元した概略範囲で、江戸時代の正確な村境ではありません"},"geometry":{"type":"Polygon","coordinates":[[[133.345184,33.57401],[133.353424,33.567145],[133.356171,33.566],[133.356857,33.561995],[133.354111,33.559134],[133.347931,33.559134],[133.345871,33.564856],[133.345184,33.57401]]]}},{"type":"Feature","properties":{"layer_id":"bakumatsu_villages","name":"樅ノ木山村","address":"土佐 吾川郡","source":"Geoshape 幕末期近世村領域データセット vector tiles (z7 extraction)","subarea_name":"近世村のおおよその範囲","feature_key":"village:K57G05S00037","accuracy_note":"2015年農業集落境界をもとに復元した概略範囲で、江戸時代の正確な村境ではありません"},"geometry":{"type":"MultiPolygon","coordinates":[[[[133.239441,33.68264],[133.243561,33.680925],[133.246307,33.680925],[133.248367,33.679211],[133.249741,33.679783],[133.244247,33.673497],[133.243561,33.67064],[133.240814,33.667783],[133.245621,33.656924],[133.243561,33.65178],[133.242874,33.647779],[133.242188,33.647207],[133.242188,33.644921],[133.243561,33.644349],[133.244934,33.641491],[133.244247,33.639776],[133.241501,33.638633],[133.234634,33.639204],[133.233948,33.639776],[133.232574,33.642634],[133.233261,33.649494],[133.230515,33.653495],[133.229828,33.657495],[133.227081,33.65921],[133.225708,33.662068],[133.225708,33.666068],[133.227768,33.669497],[133.229141,33.675783],[133.226395,33.68264],[133.239441,33.68264]]],[[[133.254547,33.679783],[133.256607,33.67864],[133.256607,33.676354],[133.26004,33.671783],[133.25798,33.668354],[133.258667,33.660925],[133.257294,33.658067],[133.254547,33.657495],[133.25386,33.655781],[133.251801,33.655209],[133.245621,33.656924],[133.240814,33.667783],[133.243561,33.67064],[133.244247,33.673497],[133.249741,33.679783],[133.254547,33.679783]]],[[[133.258667,33.663782],[133.26828,33.656352],[133.267593,33.646636],[133.263474,33.642063],[133.26004,33.642634],[133.257294,33.641491],[133.251801,33.640919],[133.248367,33.641491],[133.244247,33.639776],[133.244934,33.641491],[133.243561,33.644349],[133.242188,33.644921],[133.242188,33.647207],[133.242874,33.647779],[133.243561,33.65178],[133.245621,33.656924],[133.251801,33.655209],[133.25386,33.655781],[133.254547,33.657495],[133.257294,33.658067],[133.258667,33.663782]]],[[[133.266907,33.681497],[133.27652,33.680925],[133.279953,33.679783],[133.275146,33.674069],[133.269653,33.67064],[133.263474,33.669497],[133.26004,33.671783],[133.255234,33.67864],[133.266907,33.681497]]],[[[133.279953,33.679783],[133.282013,33.67864],[133.2827,33.671783],[133.28064,33.67064],[133.28064,33.665497],[133.27858,33.662068],[133.267593,33.658067],[133.25798,33.664354],[133.25798,33.668354],[133.26004,33.671783],[133.263474,33.669497],[133.269653,33.67064],[133.275146,33.674069],[133.279953,33.679783]]],[[[133.2827,33.671783],[133.285446,33.663211],[133.283386,33.660353],[133.285446,33.654638],[133.289566,33.651208],[133.27858,33.646636],[133.273087,33.645492],[133.271027,33.644349],[133.26622,33.644349],[133.26828,33.648922],[133.267593,33.65178],[133.26828,33.656352],[133.267593,33.658067],[133.27858,33.662068],[133.28064,33.665497],[133.28064,33.67064],[133.2827,33.671783]]],[[[133.293686,33.683211],[133.295059,33.681497],[133.301239,33.676926],[133.301239,33.672926],[133.303299,33.670068],[133.309479,33.66664],[133.309479,33.663782],[133.310852,33.660925],[133.315659,33.656924],[133.313599,33.654638],[133.306732,33.656924],[133.296432,33.655209],[133.292313,33.651208],[133.289566,33.651208],[133.285446,33.654638],[133.283386,33.660353],[133.285446,33.663211],[133.2827,33.671783],[133.282013,33.67864],[133.283386,33.679211],[133.287506,33.68264],[133.293686,33.683211]]]]}},{"type":"Feature","properties":{"layer_id":"bakumatsu_villages","name":"池ノ内村","address":"土佐 土佐郡","source":"Geoshape 幕末期近世村領域データセット vector tiles (z7 extraction)","subarea_name":"近世村のおおよその範囲","feature_key":"village:K57G04S00015","accuracy_note":"2015年農業集落境界をもとに復元した概略範囲で、江戸時代の正確な村境ではありません"},"geometry":{"type":"MultiPolygon","coordinates":[[[[133.447495,33.543112],[133.447495,33.539105],[133.441315,33.539678],[133.442688,33.541967],[133.444061,33.543112],[133.447495,33.543112]]],[[[133.441315,33.539678],[133.450241,33.539105],[133.450241,33.533954],[133.453674,33.53052],[133.452301,33.528231],[133.449554,33.529948],[133.445435,33.534527],[133.444748,33.536816],[133.441315,33.539678]]],[[[133.462601,33.544256],[133.464661,33.539678],[133.455048,33.540822],[133.449554,33.538533],[133.447495,33.539105],[133.447495,33.543112],[133.462601,33.544256]]],[[[133.455048,33.540822],[133.464661,33.539678],[133.463287,33.536244],[133.457794,33.535099],[133.457794,33.533954],[133.455734,33.53281],[133.457794,33.527086],[133.457794,33.524796],[133.455734,33.525369],[133.450928,33.524224],[133.448181,33.527086],[133.449554,33.529948],[133.452301,33.528231],[133.453674,33.53052],[133.450241,33.533954],[133.450241,33.539105],[133.455048,33.540822]]]]}},{"type":"Feature","properties":{"layer_id":"bakumatsu_villages","name":"波川村","address":"土佐 高岡郡","source":"Geoshape 幕末期近世村領域データセット vector tiles (z7 extraction)","subarea_name":"近世村のおおよその範囲","feature_key":"village:K57G06S00006","accuracy_note":"2015年農業集落境界をもとに復元した概略範囲で、江戸時代の正確な村境ではありません"},"geometry":{"type":"MultiPolygon","coordinates":[[[[133.410416,33.55284],[133.414536,33.549979],[133.406296,33.548834],[133.403549,33.549979],[133.410416,33.55284]]],[[[133.403549,33.549979],[133.406296,33.548834],[133.409729,33.549407],[133.412476,33.54769],[133.409042,33.545401],[133.409042,33.544256],[133.412476,33.544256],[133.406982,33.543684],[133.407669,33.545401],[133.405609,33.545973],[133.402176,33.544828],[133.404236,33.54769],[133.402176,33.549407],[133.403549,33.549979]]],[[[133.414536,33.549979],[133.415222,33.549407],[133.412476,33.54769],[133.409729,33.549407],[133.413162,33.549407],[133.414536,33.549979]]],[[[133.415222,33.549407],[133.417282,33.547118],[133.415909,33.546545],[133.415909,33.545401],[133.413849,33.544256],[133.409042,33.544256],[133.409042,33.545401],[133.415222,33.549407]]],[[[133.405609,33.545973],[133.407669,33.545401],[133.406982,33.543684],[133.408356,33.541967],[133.404236,33.539678],[133.402863,33.537388],[133.400803,33.543684],[133.405609,33.545973]]],[[[133.417969,33.547118],[133.420029,33.544828],[133.417969,33.544828],[133.414536,33.541395],[133.413162,33.537961],[133.398743,33.53052],[133.399429,33.533382],[133.402176,33.534527],[133.404236,33.539678],[133.408356,33.541967],[133.406982,33.543684],[133.413849,33.544256],[133.417969,33.547118]]]]}},{"type":"Feature","properties":{"layer_id":"bakumatsu_villages","name":"津賀才村","address":"土佐 吾川郡","source":"Geoshape 幕末期近世村領域データセット vector tiles (z7 extraction)","subarea_name":"近世村のおおよその範囲","feature_key":"village:K57G05S00035","accuracy_note":"2015年農業集落境界をもとに復元した概略範囲で、江戸時代の正確な村境ではありません"},"geometry":{"type":"MultiPolygon","coordinates":[[[[133.27858,33.646636],[133.279953,33.643777],[133.27858,33.639776],[133.282013,33.632916],[133.279266,33.632916],[133.275146,33.635203],[133.27034,33.635774],[133.263474,33.642063],[133.26622,33.644349],[133.271027,33.644349],[133.273087,33.645492],[133.27858,33.646636]]],[[[133.292313,33.651208],[133.294373,33.643777],[133.297806,33.639204],[133.299866,33.630057],[133.295746,33.626627],[133.295746,33.630057],[133.28476,33.625483],[133.282013,33.628914],[133.282013,33.633487],[133.279266,33.638061],[133.27858,33.640348],[133.279953,33.643777],[133.27858,33.646636],[133.282013,33.648922],[133.292313,33.651208]]],[[[133.306732,33.656924],[133.313599,33.654638],[133.310165,33.650637],[133.305359,33.649494],[133.304672,33.640919],[133.301926,33.640919],[133.299179,33.639204],[133.297806,33.639204],[133.294373,33.643777],[133.292313,33.651208],[133.296432,33.655209],[133.306732,33.656924]]],[[[133.304672,33.640919],[133.308105,33.636918],[133.305359,33.632344],[133.303299,33.632344],[133.306046,33.630057],[133.304672,33.627199],[133.303299,33.626055],[133.301239,33.627199],[133.297119,33.624912],[133.295746,33.626627],[133.299866,33.630057],[133.297806,33.639204],[133.299179,33.639204],[133.301926,33.640919],[133.304672,33.640919]]],[[[133.313599,33.654638],[133.317719,33.651208],[133.319778,33.641491],[133.318405,33.638633],[133.317032,33.637489],[133.314972,33.637489],[133.310165,33.640348],[133.308105,33.636918],[133.304672,33.640919],[133.305359,33.649494],[133.310165,33.650637],[133.313599,33.654638]]]]}},{"type":"Feature","properties":{"layer_id":"bakumatsu_villages","name":"清水村","address":"土佐 吾川郡","source":"Geoshape 幕末期近世村領域データセット vector tiles (z7 extraction)","subarea_name":"近世村のおおよその範囲","feature_key":"village:K57G05S00036","accuracy_note":"2015年農業集落境界をもとに復元した概略範囲で、江戸時代の正確な村境ではありません"},"geometry":{"type":"MultiPolygon","coordinates":[[[[133.321838,33.714059],[133.330765,33.710632],[133.332138,33.707205],[133.338318,33.706063],[133.338318,33.695209],[133.332138,33.694638],[133.328705,33.69121],[133.325272,33.691781],[133.323212,33.690638],[133.317032,33.692352],[133.313599,33.694638],[133.315659,33.697494],[133.318405,33.698637],[133.320465,33.701493],[133.321152,33.703778],[133.317032,33.706063],[133.321838,33.714059]]],[[[133.317032,33.692352],[133.323212,33.690638],[133.322525,33.690067],[133.326645,33.680354],[133.325272,33.671783],[133.320465,33.671211],[133.318405,33.672926],[133.319778,33.674069],[133.318405,33.675211],[133.317719,33.675211],[133.317032,33.676354],[133.312912,33.677497],[133.314285,33.677497],[133.316345,33.67864],[133.314285,33.68721],[133.317032,33.692352]]],[[[133.347931,33.698637],[133.344498,33.692924],[133.344498,33.684925],[133.343124,33.683782],[133.344498,33.681497],[133.342438,33.679211],[133.338318,33.67864],[133.333511,33.684354],[133.331451,33.690067],[133.328705,33.69121],[133.332138,33.694638],[133.338318,33.695209],[133.339005,33.697494],[133.341751,33.696923],[133.344498,33.698637],[133.347931,33.698637]]],[[[133.36441,33.728908],[133.369217,33.726624],[133.367844,33.72434],[133.36853,33.7192],[133.37471,33.716915],[133.37471,33.715202],[133.380203,33.714059],[133.381577,33.70949],[133.38501,33.707776],[133.382263,33.703778],[133.37059,33.701493],[133.365097,33.703778],[133.359604,33.703778],[133.350677,33.700922],[133.347931,33.698637],[133.344498,33.698637],[133.341751,33.696923],[133.339005,33.697494],[133.338318,33.706063],[133.332138,33.707205],[133.330765,33.710632],[133.321838,33.714059],[133.322525,33.715773],[133.323898,33.718057],[133.335571,33.7192],[133.336945,33.720913],[133.342438,33.722626],[133.344498,33.72434],[133.351364,33.72434],[133.356171,33.726053],[133.361664,33.728337],[133.36441,33.728908]]],[[[133.365097,33.703778],[133.37059,33.701493],[133.367157,33.696351],[133.363037,33.694066],[133.36235,33.692352],[133.365784,33.686639],[133.36235,33.688353],[133.363037,33.686068],[133.358917,33.686639],[133.358917,33.685496],[133.355484,33.682068],[133.354797,33.682068],[133.354111,33.686068],[133.344498,33.681497],[133.343124,33.683782],[133.344498,33.684925],[133.344498,33.692924],[133.348618,33.699779],[133.359604,33.703778],[133.365097,33.703778]]],[[[133.325272,33.691781],[133.331451,33.690067],[133.333511,33.684354],[133.338318,33.679211],[133.337631,33.678068],[133.339005,33.67464],[133.341064,33.672926],[133.343124,33.668354],[133.346558,33.664925],[133.341751,33.663782],[133.334198,33.664354],[133.332825,33.670068],[133.325272,33.671783],[133.326645,33.680354],[133.322525,33.690067],[133.325272,33.691781]]],[[[133.347931,33.683211],[133.349304,33.67864],[133.347931,33.677497],[133.350677,33.677497],[133.353424,33.67464],[133.353424,33.671783],[133.356171,33.667783],[133.357544,33.66664],[133.356857,33.665497],[133.352051,33.66664],[133.346558,33.664925],[133.343124,33.668354],[133.341064,33.672926],[133.339005,33.67464],[133.337631,33.678068],[133.338318,33.67864],[133.342438,33.679211],[133.344498,33.681497],[133.347931,33.683211]]],[[[133.354111,33.686068],[133.356171,33.675783],[133.360291,33.667783],[133.357544,33.66664],[133.356171,33.667783],[133.352051,33.675783],[133.350677,33.677497],[133.348618,33.676926],[133.347244,33.677497],[133.349304,33.67864],[133.347931,33.683211],[133.354111,33.686068]]],[[[133.369904,33.688353],[133.37059,33.686068],[133.36853,33.683782],[133.373337,33.679211],[133.376083,33.673497],[133.367157,33.671211],[133.367157,33.670068],[133.363724,33.667783],[133.360291,33.667783],[133.354797,33.682068],[133.358231,33.684925],[133.358917,33.686639],[133.363037,33.686068],[133.36235,33.688353],[133.365097,33.686068],[133.365784,33.687782],[133.369904,33.688353]]],[[[133.38089,33.703778],[133.395996,33.70035],[133.400116,33.694638],[133.395996,33.684925],[133.395996,33.680925],[133.392563,33.680354],[133.391876,33.678068],[133.386383,33.675211],[133.382263,33.674069],[133.376083,33.673497],[133.373337,33.679211],[133.36853,33.683782],[133.37059,33.686068],[133.369904,33.688353],[133.365097,33.68721],[133.36235,33.692352],[133.363037,33.694066],[133.367157,33.696351],[133.37059,33.701493],[133.38089,33.703778]]]]}},{"type":"Feature","properties":{"layer_id":"bakumatsu_villages","name":"神谷村","address":"土佐 吾川郡","source":"Geoshape 幕末期近世村領域データセット vector tiles (z7 extraction)","subarea_name":"近世村のおおよその範囲","feature_key":"village:K57G05S00019","accuracy_note":"2015年農業集落境界をもとに復元した概略範囲で、江戸時代の正確な村境ではありません"},"geometry":{"type":"MultiPolygon","coordinates":[[[[133.382263,33.572294],[133.38501,33.566573],[133.38295,33.56314],[133.38295,33.560851],[133.380203,33.555701],[133.376083,33.557418],[133.371277,33.561995],[133.37677,33.564856],[133.382263,33.572294]]],[[[133.38295,33.560851],[133.387756,33.555129],[133.388443,33.551123],[133.38295,33.554557],[133.380203,33.555701],[133.38295,33.560851]]],[[[133.38501,33.566573],[133.389816,33.565428],[133.39119,33.557418],[133.395309,33.555701],[133.393936,33.547118],[133.388443,33.551123],[133.387756,33.555129],[133.38295,33.560851],[133.38295,33.56314],[133.38501,33.566573]]],[[[133.389816,33.565428],[133.402176,33.563712],[133.395309,33.555701],[133.39119,33.557418],[133.389816,33.565428]]]]}},{"type":"Feature","properties":{"layer_id":"bakumatsu_villages","name":"賀田村","address":"土佐 吾川郡","source":"Geoshape 幕末期近世村領域データセット vector tiles (z7 extraction)","subarea_name":"近世村のおおよその範囲","feature_key":"village:K57G05S00018","accuracy_note":"2015年農業集落境界をもとに復元した概略範囲で、江戸時代の正確な村境ではありません"},"geometry":{"type":"MultiPolygon","coordinates":[[[[133.413849,33.568861],[133.417969,33.565428],[133.417282,33.561423],[133.415909,33.558562],[133.402176,33.563712],[133.413849,33.568861]]],[[[133.402176,33.563712],[133.415909,33.558562],[133.412476,33.551696],[133.410416,33.55284],[133.408356,33.552268],[133.401489,33.548834],[133.397369,33.545401],[133.393936,33.547118],[133.395309,33.555701],[133.402176,33.563712]]]]}},{"type":"Feature","properties":{"layer_id":"bakumatsu_villages","name":"鹿敷村","address":"土佐 吾川郡","source":"Geoshape 幕末期近世村領域データセット vector tiles (z7 extraction)","subarea_name":"近世村のおおよその範囲","feature_key":"village:K57G05S00021","accuracy_note":"2015年農業集落境界をもとに復元した概略範囲で、江戸時代の正確な村境ではありません"},"geometry":{"type":"Polygon","coordinates":[[[133.381577,33.581447],[133.381577,33.57401],[133.382263,33.572294],[133.37677,33.564856],[133.371277,33.561995],[133.36647,33.564856],[133.363724,33.567717],[133.363037,33.572294],[133.36441,33.578015],[133.381577,33.581447]]]}},{"type":"Feature","properties":{"layer_id":"civil_engineering_heritage","name":"大橋ダム","address":"高知県/本川村","source":"土木学会 選奨土木遺産","subarea_name":"昭和15年に完成した、戦前では国内最大級の堤高を誇るコンクリート重力式ダム","feature_key":"civil:464:大橋ダム","source_url":"https://committees.jsce.or.jp/heritage/node/242","accuracy_note":"公式地図の位置を優先して収録しています"},"geometry":{"type":"Point","coordinates":[133.336796,33.77002]}},{"type":"Feature","properties":{"layer_id":"edo_post_stations","name":"伊野","address":"","source":"CODH 江戸宿場データセット Version 1 (2026-08)","feature_key":"post:R818-015"},"geometry":{"type":"Point","coordinates":[133.431689,33.544887]}},{"type":"Feature","properties":{"layer_id":"historical_sites_archaeology","name":"バーガ森北斜面遺跡","address":"高知県 吾川郡いの町 −","source":"Geoshape 日本歴史地名大系 施設・地点項目データセット 2025-05-15","subarea_name":"遺跡","feature_key":"08_archaeological_sites.geojson:400000129000","subtype":"遺跡"},"geometry":{"type":"Point","coordinates":[133.438757,33.543532]}},{"type":"Feature","properties":{"layer_id":"historical_sites_archaeology","name":"天神遺跡","address":"高知県 吾川郡いの町 新町","source":"Geoshape 日本歴史地名大系 施設・地点項目データセット 2025-05-15","subarea_name":"遺跡","feature_key":"08_archaeological_sites.geojson:400000128900","subtype":"遺跡"},"geometry":{"type":"Point","coordinates":[133.427115,33.548271]}},{"type":"Feature","properties":{"layer_id":"historical_sites_archaeology","name":"寺門遺跡","address":"高知県 吾川郡いの町 新町","source":"Geoshape 日本歴史地名大系 施設・地点項目データセット 2025-05-15","subarea_name":"遺跡","feature_key":"08_archaeological_sites.geojson:400000128800","subtype":"遺跡"},"geometry":{"type":"Point","coordinates":[133.427115,33.548271]}},{"type":"Feature","properties":{"layer_id":"historical_sites_archaeology","name":"岩滝ノ鼻遺跡","address":"高知県 吾川郡いの町 八田","source":"Geoshape 日本歴史地名大系 施設・地点項目データセット 2025-05-15","subarea_name":"遺跡","feature_key":"08_archaeological_sites.geojson:400000129300","subtype":"遺跡"},"geometry":{"type":"Point","coordinates":[133.442806,33.52216]}},{"type":"Feature","properties":{"layer_id":"historical_sites_archaeology","name":"手箱山雪屋跡","address":"高知県 吾川郡いの町 越裏門","source":"Geoshape 日本歴史地名大系 施設・地点項目データセット 2025-05-15","subarea_name":"史跡","feature_key":"09_historic_sites.geojson:400000090500","subtype":"史跡"},"geometry":{"type":"Point","coordinates":[133.223127,33.715534]}},{"type":"Feature","properties":{"layer_id":"historical_sites_archaeology","name":"枝川古墳群","address":"高知県 吾川郡いの町 枝川","source":"Geoshape 日本歴史地名大系 施設・地点項目データセット 2025-05-15","subarea_name":"古墳","feature_key":"06_kofun.geojson:400000127200","subtype":"古墳"},"geometry":{"type":"Point","coordinates":[133.457615,33.553435]}},{"type":"Feature","properties":{"layer_id":"historical_sites_archaeology","name":"波川城跡","address":"高知県 吾川郡いの町 波川","source":"Geoshape 日本歴史地名大系 施設・地点項目データセット 2025-05-15","subarea_name":"城跡","feature_key":"05_castle_ruins.geojson:400000129800","subtype":"城跡"},"geometry":{"type":"Point","coordinates":[133.409072,33.541411]}},{"type":"Feature","properties":{"layer_id":"historical_sites_archaeology","name":"鷹ノ巣山遺跡","address":"高知県 吾川郡いの町 越裏門","source":"Geoshape 日本歴史地名大系 施設・地点項目データセット 2025-05-15","subarea_name":"遺跡","feature_key":"08_archaeological_sites.geojson:400000090400","subtype":"遺跡"},"geometry":{"type":"Point","coordinates":[133.23438,33.744846]}},{"type":"Feature","properties":{"layer_id":"historical_temples_shrines","name":"峯泉寺跡","address":"高知県 吾川郡いの町 寺川","source":"Geoshape 日本歴史地名大系 施設・地点項目データセット 2025-05-15","subarea_name":"廃寺・廃社","feature_key":"03_abandoned_temples_shrines.geojson:400000090200","subtype":"廃寺・廃社"},"geometry":{"type":"Point","coordinates":[133.203768,33.760337]}},{"type":"Feature","properties":{"layer_id":"historical_temples_shrines","name":"椙本神社","address":"高知県 吾川郡いの町 字七丁ケ芝3093番地","source":"Geoshape 日本歴史地名大系 施設・地点項目データセット 2025-05-15","subarea_name":"神社","feature_key":"02_shrines.geojson:400000128700","subtype":"神社"},"geometry":{"type":"Point","coordinates":[133.421004,33.550637]}},{"type":"Feature","properties":{"layer_id":"historical_temples_shrines","name":"若宮神社","address":"高知県 吾川郡いの町 上八川上分6296番地","source":"Geoshape 日本歴史地名大系 施設・地点項目データセット 2025-05-15","subarea_name":"神社","feature_key":"02_shrines.geojson:400000131700","subtype":"神社"},"geometry":{"type":"Point","coordinates":[133.425064,33.67495]}}]}