{"type":"FeatureCollection","municipality_code":"40204","pref":"福岡県","city":"直方市","layer_counts":{"bakumatsu_villages":14,"edo_roads":1,"historical_sites_archaeology":2,"historical_temples_shrines":5},"total_features":22,"features":[{"type":"Feature","properties":{"layer_id":"bakumatsu_villages","name":"上境村","address":"筑前 鞍手郡","source":"Geoshape 幕末期近世村領域データセット vector tiles (z7 extraction)","subarea_name":"近世村のおおよその範囲","feature_key":"village:K62G04S00021","accuracy_note":"2015年農業集落境界をもとに復元した概略範囲で、江戸時代の正確な村境ではありません"},"geometry":{"type":"Polygon","coordinates":[[[130.757904,33.739187],[130.759277,33.738616],[130.758591,33.73005],[130.760651,33.730621],[130.760651,33.729479],[130.762024,33.729479],[130.762024,33.727766],[130.768204,33.728908],[130.77095,33.727766],[130.774384,33.723769],[130.76889,33.721484],[130.764084,33.720913],[130.762711,33.719771],[130.761337,33.720342],[130.751038,33.718057],[130.748978,33.720913],[130.740051,33.726624],[130.746231,33.73005],[130.748978,33.729479],[130.752411,33.729479],[130.754471,33.731764],[130.755844,33.738616],[130.757904,33.739187]]]}},{"type":"Feature","properties":{"layer_id":"bakumatsu_villages","name":"上新入村","address":"筑前 鞍手郡","source":"Geoshape 幕末期近世村領域データセット vector tiles (z7 extraction)","subarea_name":"近世村のおおよその範囲","feature_key":"village:K62G04S00034","accuracy_note":"2015年農業集落境界をもとに復元した概略範囲で、江戸時代の正確な村境ではありません"},"geometry":{"type":"MultiPolygon","coordinates":[[[[130.701599,33.756315],[130.705719,33.755173],[130.706406,33.753461],[130.705032,33.748322],[130.702286,33.74718],[130.701599,33.745468],[130.698166,33.74718],[130.694046,33.74718],[130.690613,33.746039],[130.68924,33.743755],[130.686493,33.743755],[130.685806,33.74661],[130.683746,33.748322],[130.68512,33.750606],[130.684433,33.752319],[130.693359,33.753461],[130.697479,33.756315],[130.701599,33.756315]]],[[[130.716705,33.750606],[130.713959,33.747751],[130.716705,33.743184],[130.716019,33.742042],[130.709152,33.739758],[130.707092,33.743184],[130.704346,33.743755],[130.702972,33.744897],[130.704346,33.74661],[130.706406,33.753461],[130.709152,33.754031],[130.709152,33.755173],[130.713959,33.756315],[130.717392,33.760311],[130.722198,33.755173],[130.722198,33.75289],[130.720139,33.752319],[130.717392,33.750606],[130.716705,33.750606]],[[130.716705,33.750606],[130.713272,33.752319],[130.713959,33.751177],[130.716705,33.750606]]]]}},{"type":"Feature","properties":{"layer_id":"bakumatsu_villages","name":"上頓野村","address":"筑前 鞍手郡","source":"Geoshape 幕末期近世村領域データセット vector tiles (z7 extraction)","subarea_name":"近世村のおおよその範囲","feature_key":"village:K62G04S00017","accuracy_note":"2015年農業集落境界をもとに復元した概略範囲で、江戸時代の正確な村境ではありません"},"geometry":{"type":"MultiPolygon","coordinates":[[[[130.762711,33.774581],[130.764084,33.772869],[130.762024,33.772298],[130.763397,33.769444],[130.765457,33.770586],[130.767517,33.770586],[130.766144,33.769444],[130.759964,33.76659],[130.757904,33.767161],[130.755157,33.76659],[130.753784,33.769444],[130.757217,33.770015],[130.760651,33.771728],[130.759964,33.774011],[130.762711,33.774581]]],[[[130.762024,33.767161],[130.762711,33.765449],[130.761337,33.764878],[130.761337,33.762595],[130.768204,33.765449],[130.77301,33.765449],[130.771637,33.762595],[130.769577,33.762024],[130.766144,33.763165],[130.761337,33.757457],[130.756531,33.763165],[130.755157,33.76659],[130.757904,33.767161],[130.762024,33.767161]]],[[[130.766144,33.769444],[130.76683,33.76602],[130.768204,33.765449],[130.761337,33.762595],[130.761337,33.764878],[130.762711,33.765449],[130.762024,33.767161],[130.766144,33.769444]]],[[[130.772324,33.786567],[130.783997,33.785425],[130.788116,33.780289],[130.790863,33.779147],[130.781937,33.775723],[130.778503,33.772298],[130.774384,33.772298],[130.769577,33.770586],[130.765457,33.770586],[130.763397,33.769444],[130.762024,33.772298],[130.764084,33.772869],[130.762711,33.774581],[130.767517,33.777435],[130.766144,33.782572],[130.769577,33.786567],[130.772324,33.786567]]],[[[130.77301,33.771728],[130.773697,33.770586],[130.776443,33.771157],[130.775757,33.770015],[130.775757,33.767732],[130.777817,33.76659],[130.777817,33.764878],[130.780563,33.762595],[130.774384,33.759169],[130.772324,33.763165],[130.77301,33.765449],[130.76683,33.76602],[130.766144,33.768874],[130.767517,33.770586],[130.77301,33.771728]]],[[[130.772324,33.763165],[130.774384,33.759169],[130.771637,33.753461],[130.762711,33.754602],[130.761337,33.757457],[130.766144,33.763165],[130.769577,33.762024],[130.772324,33.763165]]],[[[130.794296,33.780289],[130.798416,33.778006],[130.799789,33.77344],[130.801849,33.774011],[130.800476,33.76659],[130.799103,33.765449],[130.780563,33.762595],[130.777817,33.764878],[130.777817,33.76659],[130.775757,33.767732],[130.775757,33.770015],[130.776443,33.771157],[130.773697,33.770586],[130.77301,33.771728],[130.778503,33.772298],[130.781937,33.775723],[130.794296,33.780289]]]]}},{"type":"Feature","properties":{"layer_id":"bakumatsu_villages","name":"下境村","address":"筑前 鞍手郡","source":"Geoshape 幕末期近世村領域データセット vector tiles (z7 extraction)","subarea_name":"近世村のおおよその範囲","feature_key":"village:K62G04S00025","accuracy_note":"2015年農業集落境界をもとに復元した概略範囲で、江戸時代の正確な村境ではありません"},"geometry":{"type":"MultiPolygon","coordinates":[[[[130.727005,33.731764],[130.728378,33.73005],[130.729752,33.73005],[130.731125,33.728337],[130.733871,33.727766],[130.731812,33.725482],[130.730438,33.725482],[130.729065,33.72434],[130.729752,33.722055],[130.726318,33.722626],[130.726318,33.726053],[130.724945,33.727766],[130.727005,33.729479],[130.726318,33.731764],[130.727005,33.731764]]],[[[130.731812,33.749464],[130.733185,33.74661],[130.731812,33.736903],[130.734558,33.729479],[130.735931,33.727766],[130.741425,33.725482],[130.741425,33.724911],[130.736618,33.726624],[130.735931,33.722055],[130.728378,33.718057],[130.725632,33.71463],[130.724258,33.716915],[130.726318,33.718629],[130.726318,33.722626],[130.729752,33.722055],[130.729065,33.72434],[130.730438,33.725482],[130.731812,33.725482],[130.733871,33.727766],[130.731125,33.728337],[130.729752,33.73005],[130.728378,33.73005],[130.727005,33.731764],[130.724258,33.731764],[130.731125,33.743184],[130.731812,33.749464]]],[[[130.739365,33.745468],[130.742798,33.7409],[130.737305,33.739758],[130.737305,33.73519],[130.738678,33.734619],[130.733871,33.732335],[130.731812,33.736903],[130.732498,33.743184],[130.734558,33.742613],[130.739365,33.745468]]],[[[130.753098,33.745468],[130.749664,33.737474],[130.750351,33.73519],[130.744171,33.73519],[130.741425,33.732906],[130.737305,33.73519],[130.737305,33.739758],[130.742798,33.7409],[130.744858,33.738616],[130.749664,33.742042],[130.750351,33.745468],[130.753098,33.745468]]],[[[130.746231,33.735761],[130.746918,33.734619],[130.740738,33.73005],[130.740051,33.726624],[130.735245,33.728337],[130.733871,33.732335],[130.738678,33.734619],[130.741425,33.732906],[130.744171,33.73519],[130.746231,33.735761]]],[[[130.746231,33.735761],[130.750351,33.73519],[130.750351,33.731764],[130.751724,33.729479],[130.746231,33.73005],[130.740051,33.726624],[130.740051,33.73005],[130.744858,33.732906],[130.746918,33.734619],[130.746231,33.735761]]],[[[130.756531,33.745468],[130.758591,33.744326],[130.755157,33.737474],[130.754471,33.731764],[130.751724,33.729479],[130.750351,33.731764],[130.751038,33.734619],[130.749664,33.736903],[130.753098,33.745468],[130.756531,33.745468]]]]}},{"type":"Feature","properties":{"layer_id":"bakumatsu_villages","name":"下新入村","address":"筑前 鞍手郡","source":"Geoshape 幕末期近世村領域データセット vector tiles (z7 extraction)","subarea_name":"近世村のおおよその範囲","feature_key":"village:K62G04S00033","accuracy_note":"2015年農業集落境界をもとに復元した概略範囲で、江戸時代の正確な村境ではありません"},"geometry":{"type":"MultiPolygon","coordinates":[[[[130.692673,33.768303],[130.695419,33.767161],[130.694733,33.764878],[130.699539,33.762595],[130.701599,33.761453],[130.700912,33.760882],[130.702286,33.760311],[130.701599,33.758599],[130.682373,33.755173],[130.681,33.756886],[130.680313,33.765449],[130.681,33.76659],[130.685806,33.765449],[130.692673,33.768303]]],[[[130.707092,33.76602],[130.709152,33.764878],[130.708466,33.760311],[130.707092,33.759169],[130.700912,33.760882],[130.701599,33.761453],[130.699539,33.762595],[130.707092,33.76602]]],[[[130.702286,33.760311],[130.707092,33.759169],[130.706406,33.753461],[130.705719,33.755173],[130.701599,33.756315],[130.697479,33.756315],[130.693359,33.753461],[130.684433,33.752319],[130.682373,33.753461],[130.682373,33.755173],[130.700912,33.758028],[130.702286,33.760311]]],[[[130.711212,33.76659],[130.717392,33.760311],[130.713959,33.756315],[130.709152,33.755173],[130.709152,33.754031],[130.706406,33.753461],[130.707092,33.756315],[130.707092,33.758599],[130.708466,33.760311],[130.709152,33.764878],[130.711212,33.76659]]]]}},{"type":"Feature","properties":{"layer_id":"bakumatsu_villages","name":"中泉村","address":"筑前 鞍手郡","source":"Geoshape 幕末期近世村領域データセット vector tiles (z7 extraction)","subarea_name":"近世村のおおよその範囲","feature_key":"village:K62G04S00022","accuracy_note":"2015年農業集落境界をもとに復元した概略範囲で、江戸時代の正確な村境ではありません"},"geometry":{"type":"Polygon","coordinates":[[[130.736618,33.726624],[130.741425,33.724911],[130.741425,33.725482],[130.748978,33.720913],[130.751038,33.718057],[130.747604,33.716344],[130.748978,33.713488],[130.748978,33.711203],[130.746231,33.708919],[130.746918,33.70492],[130.744858,33.703778],[130.742798,33.700922],[130.739365,33.70035],[130.736618,33.701493],[130.736618,33.703207],[130.733871,33.705491],[130.731125,33.703778],[130.729065,33.703778],[130.729065,33.706634],[130.727005,33.706634],[130.727692,33.708919],[130.726318,33.710632],[130.725632,33.71463],[130.728378,33.718057],[130.735931,33.722055],[130.736618,33.726624]]]}},{"type":"Feature","properties":{"layer_id":"bakumatsu_villages","name":"山部村","address":"筑前 鞍手郡","source":"Geoshape 幕末期近世村領域データセット vector tiles (z7 extraction)","subarea_name":"近世村のおおよその範囲","feature_key":"village:K62G04S00029","accuracy_note":"2015年農業集落境界をもとに復元した概略範囲で、江戸時代の正確な村境ではありません"},"geometry":{"type":"MultiPolygon","coordinates":[[[[130.716705,33.750606],[130.717392,33.750606],[130.720139,33.752319],[130.723572,33.752319],[130.729065,33.754602],[130.731812,33.750035],[130.724258,33.748893],[130.725632,33.745468],[130.723572,33.746039],[130.720825,33.740329],[130.723572,33.731764],[130.719452,33.729479],[130.716705,33.731764],[130.713959,33.732335],[130.714645,33.735761],[130.710526,33.73519],[130.709839,33.736903],[130.709152,33.739758],[130.716019,33.742042],[130.716705,33.743184],[130.713959,33.747751],[130.716705,33.750606]]],[[[130.716705,33.750606],[130.713959,33.751177],[130.713272,33.752319],[130.716705,33.750606]]]]}},{"type":"Feature","properties":{"layer_id":"bakumatsu_villages","name":"感田村","address":"筑前 鞍手郡","source":"Geoshape 幕末期近世村領域データセット vector tiles (z7 extraction)","subarea_name":"近世村のおおよその範囲","feature_key":"village:K62G04S00014","accuracy_note":"2015年農業集落境界をもとに復元した概略範囲で、江戸時代の正確な村境ではありません"},"geometry":{"type":"MultiPolygon","coordinates":[[[[130.718079,33.778006],[130.720139,33.774581],[130.723572,33.76659],[130.719452,33.764878],[130.717392,33.767732],[130.716019,33.767161],[130.716705,33.763736],[130.714645,33.762595],[130.711212,33.76659],[130.713959,33.767732],[130.716705,33.772869],[130.715332,33.777435],[130.718079,33.778006]]],[[[130.724258,33.775723],[130.729065,33.774581],[130.733185,33.772869],[130.734558,33.771157],[130.732498,33.771157],[130.730438,33.769444],[130.731125,33.767161],[130.726318,33.765449],[130.727005,33.764307],[130.731812,33.76602],[130.733185,33.768874],[130.735245,33.768303],[130.736618,33.763736],[130.733185,33.764307],[130.731812,33.762024],[130.731125,33.763165],[130.725632,33.760882],[130.720139,33.774581],[130.724258,33.775723]]],[[[130.733185,33.772869],[130.738678,33.771157],[130.738678,33.768874],[130.735931,33.768303],[130.733185,33.768874],[130.731812,33.76602],[130.727005,33.764307],[130.726318,33.765449],[130.731125,33.767161],[130.730438,33.769444],[130.732498,33.771157],[130.734558,33.771157],[130.733185,33.772869]]],[[[130.733185,33.764307],[130.736618,33.763736],[130.737991,33.762024],[130.735245,33.761453],[130.737991,33.758599],[130.740051,33.759169],[130.740738,33.753461],[130.737305,33.75289],[130.733185,33.754031],[130.730438,33.753461],[130.725632,33.760882],[130.731125,33.763165],[130.731812,33.762024],[130.733185,33.764307]]],[[[130.745544,33.772298],[130.751724,33.770015],[130.742798,33.764878],[130.742111,33.761453],[130.739365,33.758599],[130.737991,33.758599],[130.736618,33.760311],[130.735931,33.75974],[130.735245,33.761453],[130.737991,33.762024],[130.735245,33.768303],[130.738678,33.768874],[130.738678,33.771157],[130.745544,33.772298]]],[[[130.751724,33.770015],[130.752411,33.768874],[130.753784,33.769444],[130.756531,33.763165],[130.751724,33.761453],[130.748291,33.756886],[130.740738,33.754031],[130.740051,33.75974],[130.742111,33.761453],[130.742111,33.764307],[130.751724,33.770015]]]]}},{"type":"Feature","properties":{"layer_id":"bakumatsu_villages","name":"植木村","address":"筑前 鞍手郡","source":"Geoshape 幕末期近世村領域データセット vector tiles (z7 extraction)","subarea_name":"近世村のおおよその範囲","feature_key":"village:K62G04S00006","accuracy_note":"2015年農業集落境界をもとに復元した概略範囲で、江戸時代の正確な村境ではありません"},"geometry":{"type":"MultiPolygon","coordinates":[[[[130.700226,33.790561],[130.701599,33.785996],[130.703659,33.786567],[130.705719,33.78143],[130.699539,33.779147],[130.697479,33.779147],[130.694733,33.784854],[130.696106,33.784854],[130.696793,33.787708],[130.699539,33.788849],[130.699539,33.789991],[130.700226,33.790561]]],[[[130.707092,33.796268],[130.710526,33.791702],[130.713959,33.787708],[130.713959,33.785425],[130.718079,33.778006],[130.713272,33.776864],[130.710526,33.779147],[130.707092,33.778577],[130.703659,33.786567],[130.701599,33.785996],[130.700226,33.791132],[130.702972,33.792844],[130.704346,33.795126],[130.707092,33.796268]]],[[[130.705719,33.78143],[130.707092,33.778577],[130.708466,33.771157],[130.699539,33.774581],[130.698166,33.778577],[130.705719,33.78143]]],[[[130.699539,33.774581],[130.708466,33.771157],[130.711212,33.76659],[130.709839,33.764878],[130.707779,33.764878],[130.707092,33.76602],[130.699539,33.762595],[130.694733,33.764878],[130.695419,33.767161],[130.698166,33.767732],[130.698853,33.769444],[130.699539,33.774581]]],[[[130.710526,33.779147],[130.713272,33.776864],[130.715332,33.777435],[130.716705,33.77344],[130.713959,33.768303],[130.711212,33.76659],[130.708466,33.770015],[130.707092,33.778577],[130.710526,33.779147]]]]}},{"type":"Feature","properties":{"layer_id":"bakumatsu_villages","name":"永満寺村","address":"筑前 鞍手郡","source":"Geoshape 幕末期近世村領域データセット vector tiles (z7 extraction)","subarea_name":"近世村のおおよその範囲","feature_key":"village:K62G04S00023","accuracy_note":"2015年農業集落境界をもとに復元した概略範囲で、江戸時代の正確な村境ではありません"},"geometry":{"type":"Polygon","coordinates":[[[130.762024,33.748322],[130.762711,33.744897],[130.773697,33.7409],[130.78537,33.734619],[130.78331,33.728908],[130.781937,33.727766],[130.77919,33.727766],[130.77713,33.726624],[130.773697,33.725482],[130.771637,33.727766],[130.768204,33.728908],[130.762024,33.727766],[130.762024,33.729479],[130.760651,33.729479],[130.760651,33.730621],[130.758591,33.73005],[130.759277,33.739187],[130.755844,33.738616],[130.758591,33.744326],[130.756531,33.745468],[130.760651,33.74661],[130.762024,33.748322]]]}},{"type":"Feature","properties":{"layer_id":"bakumatsu_villages","name":"畑村","address":"筑前 鞍手郡","source":"Geoshape 幕末期近世村領域データセット vector tiles (z7 extraction)","subarea_name":"近世村のおおよその範囲","feature_key":"village:K62G04S00024","accuracy_note":"2015年農業集落境界をもとに復元した概略範囲で、江戸時代の正確な村境ではありません"},"geometry":{"type":"Polygon","coordinates":[[[130.770264,33.752319],[130.773697,33.751748],[130.778503,33.747751],[130.78537,33.74661],[130.786743,33.743184],[130.788803,33.741471],[130.78743,33.734048],[130.78537,33.734619],[130.773697,33.7409],[130.762711,33.744897],[130.762024,33.748322],[130.762024,33.749464],[130.770264,33.752319]]]}},{"type":"Feature","properties":{"layer_id":"bakumatsu_villages","name":"直方村","address":"筑前 鞍手郡","source":"Geoshape 幕末期近世村領域データセット vector tiles (z7 extraction)","subarea_name":"近世村のおおよその範囲","feature_key":"village:K62G04S00030","accuracy_note":"2015年農業集落境界をもとに復元した概略範囲で、江戸時代の正確な村境ではありません"},"geometry":{"type":"Polygon","coordinates":[[[130.731812,33.750035],[130.731125,33.743184],[130.723572,33.731764],[130.720825,33.740329],[130.723572,33.746039],[130.725632,33.745468],[130.724258,33.748893],[130.731812,33.750035]]]}},{"type":"Feature","properties":{"layer_id":"bakumatsu_villages","name":"知古村","address":"筑前 鞍手郡","source":"Geoshape 幕末期近世村領域データセット vector tiles (z7 extraction)","subarea_name":"近世村のおおよその範囲","feature_key":"village:K62G04S00028","accuracy_note":"2015年農業集落境界をもとに復元した概略範囲で、江戸時代の正確な村境ではありません"},"geometry":{"type":"Polygon","coordinates":[[[130.717392,33.767732],[130.719452,33.764878],[130.723572,33.76659],[130.726318,33.759169],[130.729065,33.754602],[130.723572,33.752319],[130.722198,33.75289],[130.722198,33.755173],[130.714645,33.762595],[130.716705,33.763736],[130.716019,33.767161],[130.717392,33.767732]]]}},{"type":"Feature","properties":{"layer_id":"bakumatsu_villages","name":"頓野村","address":"筑前 鞍手郡","source":"Geoshape 幕末期近世村領域データセット vector tiles (z7 extraction)","subarea_name":"近世村のおおよその範囲","feature_key":"village:K62G04S00016","accuracy_note":"2015年農業集落境界をもとに復元した概略範囲で、江戸時代の正確な村境ではありません"},"geometry":{"type":"MultiPolygon","coordinates":[[[[130.747604,33.756886],[130.748978,33.754602],[130.747604,33.753461],[130.747604,33.751748],[130.731812,33.750035],[130.730438,33.753461],[130.733185,33.754031],[130.736618,33.75289],[130.740051,33.75289],[130.740738,33.754031],[130.747604,33.756886]]],[[[130.747604,33.751748],[130.747604,33.748322],[130.745544,33.74661],[130.742111,33.74718],[130.734558,33.742613],[130.732498,33.743184],[130.733185,33.74661],[130.731812,33.750035],[130.747604,33.751748]]],[[[130.757217,33.755744],[130.757904,33.754031],[130.747604,33.750606],[130.747604,33.753461],[130.748978,33.754031],[130.757217,33.755744]]],[[[130.756531,33.763165],[130.759964,33.75974],[130.757217,33.758028],[130.757217,33.755744],[130.748978,33.754031],[130.748291,33.757457],[130.750351,33.760882],[130.756531,33.763165]]],[[[130.758591,33.75289],[130.762024,33.750035],[130.759964,33.74661],[130.750351,33.745468],[130.750351,33.74661],[130.747604,33.746039],[130.745544,33.74661],[130.748978,33.751177],[130.758591,33.75289]]],[[[130.742111,33.74718],[130.747604,33.746039],[130.751038,33.746039],[130.748978,33.741471],[130.744858,33.738616],[130.739365,33.745468],[130.742111,33.74718]]],[[[130.799103,33.765449],[130.801849,33.760882],[130.801163,33.758028],[130.802536,33.753461],[130.801849,33.751177],[130.804596,33.750035],[130.805283,33.748893],[130.803909,33.74661],[130.803909,33.742042],[130.797043,33.739187],[130.79361,33.7409],[130.788116,33.739758],[130.788803,33.741471],[130.786743,33.743184],[130.78537,33.74661],[130.778503,33.747751],[130.77713,33.749464],[130.77301,33.752319],[130.76889,33.752319],[130.762024,33.749464],[130.758591,33.75289],[130.756531,33.75289],[130.757904,33.754031],[130.757217,33.758028],[130.759964,33.75974],[130.762711,33.755744],[130.762711,33.754602],[130.771637,33.753461],[130.774384,33.759169],[130.777817,33.761453],[130.784683,33.763736],[130.799103,33.765449]]]]}},{"type":"Feature","properties":{"layer_id":"edo_roads","name":"長崎街道","address":"大里 → 長崎","source":"CODH 江戸主要街道データセット Version 4 (2026-08)","subarea_name":"江戸期の主要街道","feature_key":"road:R900"},"geometry":{"type":"LineString","coordinates":[[130.71817,33.7299],[130.71935,33.73059],[130.72107,33.73024],[130.7215,33.73087],[130.72146,33.73209],[130.72174,33.73239],[130.722,33.73347],[130.72241,33.73364],[130.7225,33.73403],[130.72344,33.73495],[130.7239,33.73515],[130.72496,33.73727],[130.72685,33.7394],[130.72713,33.74002],[130.72706,33.74068],[130.72736,33.7411],[130.72744,33.742],[130.72701,33.74247],[130.72632,33.74392],[130.7261,33.74485],[130.72789,33.74527],[130.72778,33.74583],[130.72809,33.74591],[130.72767,33.74859],[130.73381,33.7489],[130.73294,33.7522],[130.73284,33.75537],[130.73224,33.75612],[130.73228,33.75693],[130.73284,33.75758],[130.73283,33.75851],[130.73216,33.75871],[130.73106,33.75877],[130.73042,33.75921],[130.72971,33.75971],[130.72906,33.7611],[130.72843,33.76154],[130.72675,33.76494],[130.72583,33.76609],[130.72387,33.76946],[130.72188,33.77451]]}},{"type":"Feature","properties":{"layer_id":"historical_sites_archaeology","name":"東蓮寺藩陣屋跡・直方藩陣屋跡","address":"福岡県 直方市 殿町","source":"Geoshape 日本歴史地名大系 施設・地点項目データセット 2025-05-15","subarea_name":"史跡","feature_key":"09_historic_sites.geojson:410000064400","subtype":"史跡"},"geometry":{"type":"Point","coordinates":[130.726897,33.743962]}},{"type":"Feature","properties":{"layer_id":"historical_sites_archaeology","name":"鷹取城跡","address":"福岡県 直方市 大字頓野","source":"Geoshape 日本歴史地名大系 施設・地点項目データセット 2025-05-15","subarea_name":"城跡","feature_key":"05_castle_ruins.geojson:410000066400","subtype":"城跡"},"geometry":{"type":"Point","coordinates":[130.791852,33.755381]}},{"type":"Feature","properties":{"layer_id":"historical_temples_shrines","name":"真如寺","address":"福岡県 直方市 大字植木407番地","source":"Geoshape 日本歴史地名大系 施設・地点項目データセット 2025-05-15","subarea_name":"寺院","feature_key":"01_temples.geojson:410000065700","subtype":"寺院"},"geometry":{"type":"Point","coordinates":[130.712631,33.769745]}},{"type":"Feature","properties":{"layer_id":"historical_temples_shrines","name":"空也堂","address":"福岡県 直方市 大字植木","source":"Geoshape 日本歴史地名大系 施設・地点項目データセット 2025-05-15","subarea_name":"寺院","feature_key":"01_temples.geojson:410000065800","subtype":"寺院"},"geometry":{"type":"Point","coordinates":[130.712427,33.773348]}},{"type":"Feature","properties":{"layer_id":"historical_temples_shrines","name":"西徳寺","address":"福岡県 直方市 大字山部540番地","source":"Geoshape 日本歴史地名大系 施設・地点項目データセット 2025-05-15","subarea_name":"寺院","feature_key":"01_temples.geojson:410000064700","subtype":"寺院"},"geometry":{"type":"Point","coordinates":[130.72287,33.747005]}},{"type":"Feature","properties":{"layer_id":"historical_temples_shrines","name":"随専寺","address":"福岡県 直方市 大字山部568番地","source":"Geoshape 日本歴史地名大系 施設・地点項目データセット 2025-05-15","subarea_name":"寺院","feature_key":"01_temples.geojson:410000064900","subtype":"寺院"},"geometry":{"type":"Point","coordinates":[130.722824,33.745602]}},{"type":"Feature","properties":{"layer_id":"historical_temples_shrines","name":"雲心寺","address":"福岡県 直方市 大字山部560番地","source":"Geoshape 日本歴史地名大系 施設・地点項目データセット 2025-05-15","subarea_name":"寺院","feature_key":"01_temples.geojson:410000064800","subtype":"寺院"},"geometry":{"type":"Point","coordinates":[130.723358,33.745998]}}]}