{"type":"FeatureCollection","municipality_code":"40216","pref":"福岡県","city":"小郡市","layer_counts":{"bakumatsu_villages":31,"edo_post_stations":1,"edo_roads":1,"historical_sites_archaeology":10,"historical_temples_shrines":6},"total_features":49,"features":[{"type":"Feature","properties":{"layer_id":"bakumatsu_villages","name":"三沢村","address":"筑後 御原郡","source":"Geoshape 幕末期近世村領域データセット vector tiles (z7 extraction)","subarea_name":"近世村のおおよその範囲","feature_key":"village:K63G10S00008","accuracy_note":"2015年農業集落境界をもとに復元した概略範囲で、江戸時代の正確な村境ではありません"},"geometry":{"type":"MultiPolygon","coordinates":[[[[130.54985,33.441755],[130.549164,33.43889],[130.557404,33.440036],[130.559464,33.43889],[130.563583,33.43889],[130.562897,33.438318],[130.560837,33.426857],[130.561523,33.421699],[130.563583,33.418834],[130.56221,33.416541],[130.56015,33.417687],[130.561523,33.415395],[130.556717,33.417687],[130.55191,33.421699],[130.54985,33.421699],[130.550537,33.421126],[130.548477,33.421699],[130.544357,33.433733],[130.542297,33.433733],[130.536804,33.430295],[130.534744,33.434879],[130.535431,33.436026],[130.534744,33.437745],[130.540237,33.441755],[130.542984,33.439463],[130.545044,33.441755],[130.546417,33.440609],[130.547104,33.441755],[130.54985,33.441755]]],[[[130.56015,33.414822],[130.559464,33.415395],[130.558777,33.414249],[130.556717,33.414249],[130.55603,33.413102],[130.556717,33.412529],[130.555344,33.411956],[130.54985,33.413102],[130.548477,33.411383],[130.540924,33.414822],[130.540924,33.421699],[130.537491,33.426284],[130.536804,33.430295],[130.542297,33.433733],[130.544357,33.433733],[130.548477,33.421699],[130.550537,33.421126],[130.54985,33.421699],[130.55191,33.421699],[130.55191,33.421126],[130.561523,33.414822],[130.56015,33.414822]]],[[[130.564957,33.438318],[130.56427,33.433733],[130.565643,33.428003],[130.563583,33.422272],[130.561523,33.422845],[130.560837,33.426857],[130.562897,33.438318],[130.564957,33.438318]]]]}},{"type":"Feature","properties":{"layer_id":"bakumatsu_villages","name":"上岩田村","address":"筑後 御原郡","source":"Geoshape 幕末期近世村領域データセット vector tiles (z7 extraction)","subarea_name":"近世村のおおよその範囲","feature_key":"village:K63G10S00015","accuracy_note":"2015年農業集落境界をもとに復元した概略範囲で、江戸時代の正確な村境ではありません"},"geometry":{"type":"MultiPolygon","coordinates":[[[[130.57869,33.400492],[130.57869,33.399919],[130.58075,33.398772],[130.58075,33.397626],[130.577316,33.395906],[130.578003,33.394759],[130.575943,33.392466],[130.573196,33.392466],[130.573196,33.394759],[130.56839,33.394759],[130.56839,33.395906],[130.569077,33.395332],[130.569763,33.397626],[130.571823,33.397626],[130.571136,33.399919],[130.575256,33.401638],[130.57663,33.401065],[130.57663,33.401638],[130.57869,33.400492]]],[[[130.57869,33.400492],[130.578003,33.401638],[130.579376,33.402785],[130.57869,33.400492]]]]}},{"type":"Feature","properties":{"layer_id":"bakumatsu_villages","name":"上東鯵坂村・下東鯵坂村","address":"筑後 御井郡","source":"Geoshape 幕末期近世村領域データセット vector tiles (z7 extraction)","subarea_name":"近世村のおおよその範囲","feature_key":"village:K63G09S00041,K63G09S00042","accuracy_note":"2015年農業集落境界をもとに復元した概略範囲で、江戸時代の正確な村境ではありません"},"geometry":{"type":"Polygon","coordinates":[[[130.560837,33.373545],[130.561523,33.370678],[130.565643,33.370678],[130.565643,33.372972],[130.567703,33.372972],[130.567703,33.371825],[130.56633,33.371825],[130.56633,33.368384],[130.564957,33.366664],[130.56633,33.366091],[130.56633,33.360356],[130.567017,33.360356],[130.56633,33.355767],[130.56221,33.355767],[130.56221,33.353473],[130.558777,33.353473],[130.556717,33.350606],[130.554657,33.351179],[130.552597,33.349458],[130.555344,33.356915],[130.55809,33.358062],[130.56015,33.36265],[130.55809,33.368384],[130.559464,33.367811],[130.56015,33.368958],[130.560837,33.368384],[130.561523,33.369531],[130.558777,33.369531],[130.55809,33.373545],[130.560837,33.373545]]]}},{"type":"Feature","properties":{"layer_id":"bakumatsu_villages","name":"上西鯵坂村","address":"筑後 御井郡","source":"Geoshape 幕末期近世村領域データセット vector tiles (z7 extraction)","subarea_name":"近世村のおおよその範囲","feature_key":"village:K63G09S00061","accuracy_note":"2015年農業集落境界をもとに復元した概略範囲で、江戸時代の正確な村境ではありません"},"geometry":{"type":"Polygon","coordinates":[[[130.56015,33.368958],[130.559464,33.367811],[130.558777,33.368958],[130.556717,33.368384],[130.556717,33.367811],[130.55191,33.367811],[130.551224,33.36265],[130.54985,33.360929],[130.54985,33.356341],[130.545731,33.351753],[130.545731,33.350032],[130.542984,33.351753],[130.543671,33.3529],[130.540924,33.354047],[130.536804,33.353473],[130.537491,33.354047],[130.540237,33.35462],[130.543671,33.354047],[130.545044,33.355767],[130.545044,33.362076],[130.551224,33.376412],[130.553284,33.376412],[130.55397,33.374692],[130.55809,33.374692],[130.558777,33.369531],[130.56015,33.368958]]]}},{"type":"Feature","properties":{"layer_id":"bakumatsu_villages","name":"下岩田村","address":"筑後 御原郡","source":"Geoshape 幕末期近世村領域データセット vector tiles (z7 extraction)","subarea_name":"近世村のおおよその範囲","feature_key":"village:K63G10S00016","accuracy_note":"2015年農業集落境界をもとに復元した概略範囲で、江戸時代の正確な村境ではありません"},"geometry":{"type":"Polygon","coordinates":[[[130.573196,33.394759],[130.573196,33.392466],[130.575943,33.392466],[130.575943,33.393613],[130.577316,33.393613],[130.577316,33.392466],[130.57869,33.392466],[130.57869,33.394186],[130.579376,33.393613],[130.583496,33.394186],[130.583496,33.393039],[130.585556,33.391319],[130.588989,33.392466],[130.586929,33.386733],[130.585556,33.38616],[130.584869,33.38444],[130.582809,33.383293],[130.582123,33.381573],[130.575943,33.381573],[130.575943,33.38272],[130.573883,33.382146],[130.573883,33.383866],[130.571823,33.38444],[130.571823,33.389026],[130.571136,33.391319],[130.569077,33.391893],[130.57045,33.391893],[130.57045,33.393613],[130.571823,33.393613],[130.571823,33.394759],[130.573196,33.394759]]]}},{"type":"Feature","properties":{"layer_id":"bakumatsu_villages","name":"下西鯵坂村","address":"筑後 御井郡","source":"Geoshape 幕末期近世村領域データセット vector tiles (z7 extraction)","subarea_name":"近世村のおおよその範囲","feature_key":"village:K63G09S00040","accuracy_note":"2015年農業集落境界をもとに復元した概略範囲で、江戸時代の正確な村境ではありません"},"geometry":{"type":"Polygon","coordinates":[[[130.55809,33.368384],[130.56015,33.36265],[130.55809,33.358062],[130.555344,33.356915],[130.552597,33.349458],[130.54985,33.348885],[130.54985,33.345443],[130.545731,33.345443],[130.545731,33.347164],[130.545044,33.34659],[130.546417,33.350606],[130.545731,33.350606],[130.545731,33.351753],[130.54985,33.356341],[130.54985,33.360929],[130.551224,33.36265],[130.55191,33.367811],[130.556717,33.367811],[130.556717,33.368384],[130.55809,33.368384]]]}},{"type":"Feature","properties":{"layer_id":"bakumatsu_villages","name":"乙隈村","address":"筑後 御原郡","source":"Geoshape 幕末期近世村領域データセット vector tiles (z7 extraction)","subarea_name":"近世村のおおよその範囲","feature_key":"village:K63G10S00004","accuracy_note":"2015年農業集落境界をもとに復元した概略範囲で、江戸時代の正確な村境ではありません"},"geometry":{"type":"Polygon","coordinates":[[[130.575943,33.43889],[130.58075,33.436599],[130.582123,33.437745],[130.58075,33.435453],[130.582809,33.433733],[130.583496,33.433733],[130.584869,33.432587],[130.584183,33.431441],[130.586243,33.430295],[130.583496,33.430295],[130.57869,33.42743],[130.573883,33.425711],[130.573196,33.428003],[130.575943,33.431441],[130.57251,33.436026],[130.57457,33.436026],[130.57457,33.43889],[130.575943,33.43889]]]}},{"type":"Feature","properties":{"layer_id":"bakumatsu_villages","name":"井上村","address":"筑後 御原郡","source":"Geoshape 幕末期近世村領域データセット vector tiles (z7 extraction)","subarea_name":"近世村のおおよその範囲","feature_key":"village:K63G10S00001","accuracy_note":"2015年農業集落境界をもとに復元した概略範囲で、江戸時代の正確な村境ではありません"},"geometry":{"type":"Polygon","coordinates":[[[130.586929,33.412529],[130.589676,33.41081],[130.588989,33.40909],[130.586929,33.408517],[130.588303,33.406797],[130.586243,33.406224],[130.586929,33.404504],[130.584869,33.405078],[130.57869,33.402785],[130.57869,33.400492],[130.57663,33.401638],[130.57663,33.401065],[130.575256,33.401638],[130.571136,33.399919],[130.57045,33.405078],[130.571136,33.404504],[130.571136,33.40737],[130.573196,33.40737],[130.573883,33.40909],[130.57663,33.408517],[130.581436,33.410236],[130.583496,33.411956],[130.586929,33.412529]]]}},{"type":"Feature","properties":{"layer_id":"bakumatsu_villages","name":"光行村","address":"筑後 御井郡","source":"Geoshape 幕末期近世村領域データセット vector tiles (z7 extraction)","subarea_name":"近世村のおおよその範囲","feature_key":"village:K63G09S00059","accuracy_note":"2015年農業集落境界をもとに復元した概略範囲で、江戸時代の正確な村境ではありません"},"geometry":{"type":"Polygon","coordinates":[[[130.569763,33.371252],[130.571823,33.370105],[130.571823,33.368384],[130.573196,33.368958],[130.573883,33.368384],[130.573196,33.367811],[130.57457,33.363797],[130.571823,33.362076],[130.571823,33.360356],[130.573883,33.360356],[130.573883,33.359209],[130.571136,33.358635],[130.571136,33.35462],[130.57045,33.355767],[130.569763,33.35462],[130.569763,33.355767],[130.56633,33.355767],[130.567017,33.360356],[130.56633,33.360356],[130.56633,33.366091],[130.564957,33.366664],[130.56633,33.368384],[130.56633,33.371252],[130.569763,33.371252]]]}},{"type":"Feature","properties":{"layer_id":"bakumatsu_villages","name":"力武村","address":"筑後 御原郡","source":"Geoshape 幕末期近世村領域データセット vector tiles (z7 extraction)","subarea_name":"近世村のおおよその範囲","feature_key":"village:K63G10S00007","accuracy_note":"2015年農業集落境界をもとに復元した概略範囲で、江戸時代の正確な村境ではありません"},"geometry":{"type":"Polygon","coordinates":[[[130.56839,33.425138],[130.573196,33.423418],[130.57251,33.420553],[130.573196,33.41998],[130.57045,33.416541],[130.571136,33.413102],[130.567703,33.413675],[130.56839,33.414822],[130.563583,33.415968],[130.56427,33.417114],[130.562897,33.417687],[130.563583,33.418834],[130.561523,33.422845],[130.563583,33.422272],[130.563583,33.425138],[130.56633,33.423992],[130.56839,33.425138]]]}},{"type":"Feature","properties":{"layer_id":"bakumatsu_villages","name":"古飯村","address":"筑後 御原郡","source":"Geoshape 幕末期近世村領域データセット vector tiles (z7 extraction)","subarea_name":"近世村のおおよその範囲","feature_key":"village:K63G10S00021","accuracy_note":"2015年農業集落境界をもとに復元した概略範囲で、江戸時代の正確な村境ではありません"},"geometry":{"type":"Polygon","coordinates":[[[130.575943,33.38272],[130.575943,33.381573],[130.582123,33.381573],[130.578003,33.374119],[130.578003,33.371252],[130.57251,33.371252],[130.57251,33.371825],[130.57045,33.371825],[130.573196,33.375266],[130.57251,33.378133],[130.57457,33.378706],[130.573196,33.379853],[130.573196,33.382146],[130.575256,33.382146],[130.575943,33.38272]]]}},{"type":"Feature","properties":{"layer_id":"bakumatsu_villages","name":"吹上村","address":"筑後 御原郡","source":"Geoshape 幕末期近世村領域データセット vector tiles (z7 extraction)","subarea_name":"近世村のおおよその範囲","feature_key":"village:K63G10S00002","accuracy_note":"2015年農業集落境界をもとに復元した概略範囲で、江戸時代の正確な村境ではありません"},"geometry":{"type":"MultiPolygon","coordinates":[[[[130.57251,33.411956],[130.571136,33.412529],[130.57045,33.416541],[130.573883,33.420553],[130.57457,33.422845],[130.575943,33.422845],[130.57457,33.424565],[130.58075,33.424565],[130.58075,33.421699],[130.57869,33.421699],[130.57869,33.418834],[130.583496,33.419407],[130.585556,33.418834],[130.585556,33.415968],[130.584183,33.415395],[130.58075,33.415395],[130.579376,33.413675],[130.577316,33.414249],[130.57663,33.413675],[130.57457,33.412529],[130.57457,33.41081],[130.573196,33.411383],[130.573196,33.411956],[130.57251,33.411956]]],[[[130.585556,33.417687],[130.593109,33.414249],[130.588303,33.411383],[130.586929,33.412529],[130.583496,33.411956],[130.582809,33.414249],[130.585556,33.415968],[130.585556,33.417687]]]]}},{"type":"Feature","properties":{"layer_id":"bakumatsu_villages","name":"大保村","address":"筑後 御原郡","source":"Geoshape 幕末期近世村領域データセット vector tiles (z7 extraction)","subarea_name":"近世村のおおよその範囲","feature_key":"village:K63G10S00009","accuracy_note":"2015年農業集落境界をもとに復元した概略範囲で、江戸時代の正確な村境ではありません"},"geometry":{"type":"MultiPolygon","coordinates":[[[[130.549164,33.412529],[130.552597,33.411383],[130.552597,33.409663],[130.55397,33.411383],[130.55809,33.40737],[130.557404,33.406797],[130.553284,33.406797],[130.551224,33.409663],[130.548477,33.411383],[130.549164,33.412529]]],[[[130.561523,33.416541],[130.562897,33.417687],[130.56427,33.417114],[130.563583,33.415968],[130.56839,33.414822],[130.567703,33.413675],[130.571136,33.413102],[130.571136,33.412529],[130.57251,33.411956],[130.571136,33.404504],[130.57045,33.406224],[130.562897,33.406224],[130.561523,33.408517],[130.55809,33.40737],[130.55397,33.411383],[130.553284,33.41081],[130.552597,33.411383],[130.549164,33.412529],[130.54985,33.413102],[130.554657,33.411956],[130.556717,33.412529],[130.55603,33.413102],[130.556717,33.414249],[130.558777,33.414249],[130.559464,33.415395],[130.56015,33.414822],[130.560837,33.414822],[130.561523,33.416541]]],[[[130.561523,33.416541],[130.56015,33.416541],[130.56015,33.417687],[130.561523,33.416541]]]]}},{"type":"Feature","properties":{"layer_id":"bakumatsu_villages","name":"大崎村","address":"筑後 御原郡","source":"Geoshape 幕末期近世村領域データセット vector tiles (z7 extraction)","subarea_name":"近世村のおおよその範囲","feature_key":"village:K63G10S00013","accuracy_note":"2015年農業集落境界をもとに復元した概略範囲で、江戸時代の正確な村境ではありません"},"geometry":{"type":"Polygon","coordinates":[[[130.564957,33.391893],[130.56633,33.388453],[130.565643,33.38616],[130.56221,33.383866],[130.55809,33.383293],[130.55603,33.380999],[130.55191,33.382146],[130.552597,33.391319],[130.564957,33.391893]]]}},{"type":"Feature","properties":{"layer_id":"bakumatsu_villages","name":"大板井村","address":"筑後 御原郡","source":"Geoshape 幕末期近世村領域データセット vector tiles (z7 extraction)","subarea_name":"近世村のおおよその範囲","feature_key":"village:K63G10S00010","accuracy_note":"2015年農業集落境界をもとに復元した概略範囲で、江戸時代の正確な村境ではありません"},"geometry":{"type":"Polygon","coordinates":[[[130.561523,33.408517],[130.562897,33.406224],[130.57045,33.406224],[130.571823,33.397626],[130.569763,33.397626],[130.569077,33.395332],[130.559464,33.395332],[130.558777,33.397052],[130.558777,33.401638],[130.557404,33.402212],[130.556717,33.405651],[130.554657,33.405651],[130.554657,33.406797],[130.561523,33.408517]]]}},{"type":"Feature","properties":{"layer_id":"bakumatsu_villages","name":"寺福童村","address":"筑後 御原郡","source":"Geoshape 幕末期近世村領域データセット vector tiles (z7 extraction)","subarea_name":"近世村のおおよその範囲","feature_key":"village:K63G10S00012","accuracy_note":"2015年農業集落境界をもとに復元した概略範囲で、江戸時代の正確な村境ではありません"},"geometry":{"type":"MultiPolygon","coordinates":[[[[130.552597,33.391319],[130.55191,33.38788],[130.548477,33.389026],[130.544357,33.38788],[130.545044,33.389026],[130.543671,33.389026],[130.543671,33.391319],[130.552597,33.391319]]],[[[130.546417,33.389026],[130.55191,33.38788],[130.55191,33.382146],[130.555344,33.380999],[130.55191,33.377559],[130.551224,33.380426],[130.547791,33.381573],[130.547104,33.383866],[130.546417,33.385013],[130.544357,33.385013],[130.543671,33.386733],[130.546417,33.389026]]]]}},{"type":"Feature","properties":{"layer_id":"bakumatsu_villages","name":"小板井村","address":"筑後 御原郡","source":"Geoshape 幕末期近世村領域データセット vector tiles (z7 extraction)","subarea_name":"近世村のおおよその範囲","feature_key":"village:K63G10S00011","accuracy_note":"2015年農業集落境界をもとに復元した概略範囲で、江戸時代の正確な村境ではありません"},"geometry":{"type":"Polygon","coordinates":[[[130.558777,33.397052],[130.559464,33.395332],[130.56839,33.395906],[130.567017,33.391893],[130.552597,33.391319],[130.552597,33.394759],[130.558777,33.397052]]]}},{"type":"Feature","properties":{"layer_id":"bakumatsu_villages","name":"小跡村・矢次村","address":"筑後 御原郡","source":"Geoshape 幕末期近世村領域データセット vector tiles (z7 extraction)","subarea_name":"近世村のおおよその範囲","feature_key":"village:K63G10S00022,K63G10S00023","accuracy_note":"2015年農業集落境界をもとに復元した概略範囲で、江戸時代の正確な村境ではありません"},"geometry":{"type":"Polygon","coordinates":[[[130.57251,33.38444],[130.573883,33.383866],[130.573883,33.382146],[130.573196,33.382146],[130.573196,33.379853],[130.57457,33.378706],[130.57251,33.378133],[130.57251,33.376986],[130.573196,33.376412],[130.57251,33.373545],[130.571136,33.373545],[130.569763,33.371252],[130.56633,33.371252],[130.567703,33.372972],[130.565643,33.372972],[130.565643,33.370678],[130.56427,33.370678],[130.56427,33.374692],[130.565643,33.374692],[130.56633,33.376412],[130.567703,33.376412],[130.567703,33.383293],[130.569763,33.383293],[130.569763,33.381573],[130.57251,33.381573],[130.571823,33.38444],[130.57251,33.38444]]]}},{"type":"Feature","properties":{"layer_id":"bakumatsu_villages","name":"小郡町","address":"筑後 御原郡","source":"Geoshape 幕末期近世村領域データセット vector tiles (z7 extraction)","subarea_name":"近世村のおおよその範囲","feature_key":"village:K63G10S00028","accuracy_note":"2015年農業集落境界をもとに復元した概略範囲で、江戸時代の正確な村境ではありません"},"geometry":{"type":"Polygon","coordinates":[[[130.540924,33.414822],[130.546417,33.412529],[130.551224,33.409663],[130.553284,33.406797],[130.554657,33.406797],[130.554657,33.405651],[130.556717,33.405651],[130.557404,33.402212],[130.558777,33.401638],[130.558777,33.397052],[130.552597,33.394759],[130.552597,33.391319],[130.541611,33.391319],[130.540924,33.414822]]]}},{"type":"Feature","properties":{"layer_id":"bakumatsu_villages","name":"干潟村","address":"筑後 御原郡","source":"Geoshape 幕末期近世村領域データセット vector tiles (z7 extraction)","subarea_name":"近世村のおおよその範囲","feature_key":"village:K63G10S00003","accuracy_note":"2015年農業集落境界をもとに復元した概略範囲で、江戸時代の正確な村境ではありません"},"geometry":{"type":"MultiPolygon","coordinates":[[[[130.57457,33.411956],[130.579376,33.41081],[130.582809,33.411383],[130.581436,33.410236],[130.57663,33.408517],[130.573883,33.40909],[130.573196,33.40737],[130.571136,33.407944],[130.571823,33.411383],[130.57251,33.411956],[130.573196,33.411383],[130.57457,33.41081],[130.57457,33.411956]]],[[[130.584183,33.415395],[130.582809,33.414249],[130.582809,33.412529],[130.583496,33.412529],[130.582809,33.411383],[130.579376,33.41081],[130.57457,33.411956],[130.577316,33.414822],[130.579376,33.413675],[130.58075,33.415395],[130.584183,33.415395]]],[[[130.597916,33.423418],[130.596542,33.414822],[130.595169,33.412529],[130.591049,33.410236],[130.588303,33.411383],[130.593109,33.414249],[130.586243,33.416541],[130.585556,33.418834],[130.57869,33.418834],[130.57869,33.421699],[130.58075,33.421699],[130.58075,33.424565],[130.573883,33.424565],[130.573883,33.425711],[130.57869,33.42743],[130.583496,33.430295],[130.588303,33.430295],[130.597916,33.423418]]]]}},{"type":"Feature","properties":{"layer_id":"bakumatsu_villages","name":"平方村","address":"筑後 御井郡","source":"Geoshape 幕末期近世村領域データセット vector tiles (z7 extraction)","subarea_name":"近世村のおおよその範囲","feature_key":"village:K63G09S00060","accuracy_note":"2015年農業集落境界をもとに復元した概略範囲で、江戸時代の正確な村境ではありません"},"geometry":{"type":"Polygon","coordinates":[[[130.57251,33.371825],[130.57251,33.371252],[130.577316,33.371252],[130.577316,33.369531],[130.57869,33.369531],[130.57869,33.367811],[130.577316,33.364944],[130.57869,33.366091],[130.57869,33.36265],[130.577316,33.36265],[130.577316,33.360356],[130.571823,33.355194],[130.57045,33.356341],[130.571136,33.359782],[130.573883,33.359209],[130.573883,33.360356],[130.571823,33.360356],[130.571823,33.362076],[130.57457,33.36437],[130.573196,33.367811],[130.573883,33.368384],[130.573196,33.368958],[130.571823,33.368384],[130.571823,33.370105],[130.569763,33.371252],[130.57045,33.371825],[130.57251,33.371825]]]}},{"type":"Feature","properties":{"layer_id":"bakumatsu_villages","name":"恋之段村・古賀村","address":"筑後 御井郡","source":"Geoshape 幕末期近世村領域データセット vector tiles (z7 extraction)","subarea_name":"近世村のおおよその範囲","feature_key":"village:K63G09S00056,K63G09S00057","accuracy_note":"2015年農業集落境界をもとに復元した概略範囲で、江戸時代の正確な村境ではありません"},"geometry":{"type":"Polygon","coordinates":[[[130.54985,33.348885],[130.552597,33.348311],[130.552597,33.347738],[130.560837,33.347738],[130.564957,33.34487],[130.562897,33.34487],[130.563583,33.343722],[130.562897,33.341428],[130.560837,33.341428],[130.557404,33.337986],[130.556717,33.337986],[130.555344,33.337412],[130.555344,33.334544],[130.55397,33.33397],[130.552597,33.335118],[130.549164,33.335691],[130.549164,33.33856],[130.550537,33.339707],[130.549164,33.340854],[130.54985,33.342002],[130.54985,33.343722],[130.547791,33.343722],[130.547104,33.345443],[130.54985,33.345443],[130.54985,33.348885]]]}},{"type":"Feature","properties":{"layer_id":"bakumatsu_villages","name":"東福童村","address":"筑後 御原郡","source":"Geoshape 幕末期近世村領域データセット vector tiles (z7 extraction)","subarea_name":"近世村のおおよその範囲","feature_key":"village:K63G10S00026","accuracy_note":"2015年農業集落境界をもとに復元した概略範囲で、江戸時代の正確な村境ではありません"},"geometry":{"type":"MultiPolygon","coordinates":[[[[130.548477,33.381573],[130.551224,33.380426],[130.55191,33.377559],[130.547104,33.366664],[130.542984,33.367237],[130.544357,33.372972],[130.545731,33.373545],[130.547791,33.377559],[130.546417,33.377559],[130.547104,33.379279],[130.545044,33.380999],[130.547104,33.380426],[130.548477,33.381573]]],[[[130.542984,33.367237],[130.547104,33.366664],[130.545044,33.362076],[130.545731,33.356341],[130.543671,33.354047],[130.540237,33.35462],[130.542297,33.359209],[130.542984,33.367237]]]]}},{"type":"Feature","properties":{"layer_id":"bakumatsu_villages","name":"松崎町","address":"筑後 御原郡","source":"Geoshape 幕末期近世村領域データセット vector tiles (z7 extraction)","subarea_name":"近世村のおおよその範囲","feature_key":"village:K63G10S10001","accuracy_note":"2015年農業集落境界をもとに復元した概略範囲で、江戸時代の正確な村境ではありません"},"geometry":{"type":"MultiPolygon","coordinates":[[[[130.588303,33.40737],[130.590363,33.406797],[130.591049,33.397626],[130.582123,33.396479],[130.57869,33.399345],[130.579376,33.402785],[130.584869,33.405078],[130.586929,33.404504],[130.586243,33.406224],[130.587616,33.406224],[130.588303,33.40737]]],[[[130.579376,33.393613],[130.579376,33.393039],[130.577316,33.392466],[130.577316,33.395906],[130.580063,33.398199],[130.582123,33.396479],[130.588989,33.397052],[130.591049,33.397052],[130.591049,33.395906],[130.586243,33.395906],[130.586243,33.394759],[130.581436,33.393613],[130.581436,33.394759],[130.579376,33.393613]]],[[[130.591049,33.395906],[130.588989,33.392466],[130.585556,33.391319],[130.583496,33.393039],[130.583496,33.394186],[130.586243,33.394759],[130.586243,33.395906],[130.591049,33.395906]]]]}},{"type":"Feature","properties":{"layer_id":"bakumatsu_villages","name":"横隈村","address":"筑後 御原郡","source":"Geoshape 幕末期近世村領域データセット vector tiles (z7 extraction)","subarea_name":"近世村のおおよその範囲","feature_key":"village:K63G10S00006","accuracy_note":"2015年農業集落境界をもとに復元した概略範囲で、江戸時代の正確な村境ではありません"},"geometry":{"type":"Polygon","coordinates":[[[130.56839,33.439463],[130.569077,33.437172],[130.571823,33.437745],[130.573883,33.436026],[130.57251,33.436026],[130.573196,33.434306],[130.575943,33.431441],[130.573196,33.426857],[130.57457,33.423992],[130.575943,33.423418],[130.573196,33.41998],[130.57251,33.420553],[130.573196,33.423418],[130.56839,33.425138],[130.564957,33.424565],[130.56427,33.425138],[130.565643,33.428003],[130.56427,33.433733],[130.564957,33.438318],[130.56839,33.439463]]]}},{"type":"Feature","properties":{"layer_id":"bakumatsu_villages","name":"津古村","address":"筑後 御原郡","source":"Geoshape 幕末期近世村領域データセット vector tiles (z7 extraction)","subarea_name":"近世村のおおよその範囲","feature_key":"village:K63G10S00005","accuracy_note":"2015年農業集落境界をもとに復元した概略範囲で、江戸時代の正確な村境ではありません"},"geometry":{"type":"Polygon","coordinates":[[[130.56633,33.446339],[130.571136,33.442901],[130.57251,33.441755],[130.571823,33.441182],[130.575943,33.440036],[130.575943,33.43889],[130.57457,33.43889],[130.57457,33.436026],[130.573883,33.435453],[130.571823,33.437745],[130.56839,33.437745],[130.56839,33.439463],[130.564957,33.438318],[130.562897,33.438318],[130.563583,33.43889],[130.559464,33.43889],[130.557404,33.440036],[130.549164,33.43889],[130.55191,33.444047],[130.553284,33.450349],[130.560837,33.448058],[130.564957,33.449204],[130.56633,33.446339]]]}},{"type":"Feature","properties":{"layer_id":"bakumatsu_villages","name":"用丸村・長松村","address":"筑後 御原郡","source":"Geoshape 幕末期近世村領域データセット vector tiles (z7 extraction)","subarea_name":"近世村のおおよその範囲","feature_key":"village:K63G10S00024,K63G10S00025","accuracy_note":"2015年農業集落境界をもとに復元した概略範囲で、江戸時代の正確な村境ではありません"},"geometry":{"type":"Polygon","coordinates":[[[130.562897,33.38444],[130.56427,33.381573],[130.565643,33.381573],[130.56633,33.380426],[130.56633,33.381573],[130.567703,33.381573],[130.567703,33.376412],[130.56633,33.376412],[130.565643,33.374692],[130.56427,33.374692],[130.56427,33.370678],[130.561523,33.370678],[130.560837,33.373545],[130.55397,33.374692],[130.553284,33.376412],[130.551224,33.376412],[130.555344,33.380999],[130.55809,33.383293],[130.562897,33.38444]]]}},{"type":"Feature","properties":{"layer_id":"bakumatsu_villages","name":"稲吉村","address":"筑後 御原郡","source":"Geoshape 幕末期近世村領域データセット vector tiles (z7 extraction)","subarea_name":"近世村のおおよその範囲","feature_key":"village:K63G10S00014","accuracy_note":"2015年農業集落境界をもとに復元した概略範囲で、江戸時代の正確な村境ではありません"},"geometry":{"type":"Polygon","coordinates":[[[130.571823,33.394759],[130.569077,33.391319],[130.571136,33.391319],[130.571823,33.389026],[130.57251,33.381573],[130.569763,33.381573],[130.569763,33.383293],[130.567703,33.383293],[130.567703,33.381573],[130.565643,33.380426],[130.565643,33.381573],[130.563583,33.38272],[130.562897,33.38444],[130.565643,33.38616],[130.56633,33.388453],[130.565643,33.391893],[130.567017,33.391893],[130.56839,33.394759],[130.571823,33.394759]]]}},{"type":"Feature","properties":{"layer_id":"bakumatsu_villages","name":"草場村・森村","address":"筑後 御井郡","source":"Geoshape 幕末期近世村領域データセット vector tiles (z7 extraction)","subarea_name":"近世村のおおよその範囲","feature_key":"village:K63G09S00017,K63G09S00055","accuracy_note":"2015年農業集落境界をもとに復元した概略範囲で、江戸時代の正確な村境ではありません"},"geometry":{"type":"Polygon","coordinates":[[[130.545731,33.347164],[130.547791,33.343722],[130.54985,33.343722],[130.54985,33.342002],[130.549164,33.340854],[130.550537,33.339707],[130.549164,33.33856],[130.549164,33.335691],[130.552597,33.335118],[130.55397,33.33397],[130.555344,33.334544],[130.556717,33.331676],[130.55603,33.329381],[130.54985,33.328807],[130.542984,33.324791],[130.545044,33.336265],[130.542984,33.341428],[130.539551,33.340854],[130.539551,33.341428],[130.541611,33.343149],[130.542297,33.34659],[130.545731,33.347164]]]}},{"type":"Feature","properties":{"layer_id":"bakumatsu_villages","name":"西福童村","address":"筑後 御原郡","source":"Geoshape 幕末期近世村領域データセット vector tiles (z7 extraction)","subarea_name":"近世村のおおよその範囲","feature_key":"village:K63G10S00027","accuracy_note":"2015年農業集落境界をもとに復元した概略範囲で、江戸時代の正確な村境ではありません"},"geometry":{"type":"Polygon","coordinates":[[[130.543671,33.391319],[130.543671,33.389026],[130.545044,33.389026],[130.544357,33.385013],[130.546417,33.385013],[130.547791,33.38272],[130.547104,33.380426],[130.545044,33.380999],[130.547104,33.379279],[130.546417,33.377559],[130.547791,33.377559],[130.543671,33.370105],[130.542297,33.359209],[130.540237,33.35462],[130.537491,33.354047],[130.540237,33.365517],[130.541611,33.366664],[130.541611,33.391319],[130.543671,33.391319]]]}},{"type":"Feature","properties":{"layer_id":"bakumatsu_villages","name":"赤川村","address":"筑後 御井郡","source":"Geoshape 幕末期近世村領域データセット vector tiles (z7 extraction)","subarea_name":"近世村のおおよその範囲","feature_key":"village:K63G09S00043","accuracy_note":"2015年農業集落境界をもとに復元した概略範囲で、江戸時代の正確な村境ではありません"},"geometry":{"type":"Polygon","coordinates":[[[130.540924,33.354047],[130.543671,33.3529],[130.542984,33.351753],[130.546417,33.350606],[130.545044,33.34659],[130.540924,33.346017],[130.537491,33.341428],[130.537491,33.342575],[130.535431,33.343149],[130.536804,33.353473],[130.540924,33.354047]]]}},{"type":"Feature","properties":{"layer_id":"edo_post_stations","name":"松崎町","address":"","source":"CODH 江戸宿場データセット Version 1 (2026-08)","subarea_name":"薩摩街道","feature_key":"post:R901-002"},"geometry":{"coordinates":[130.584976,33.395951],"type":"Point"}},{"type":"Feature","properties":{"layer_id":"edo_roads","name":"薩摩街道","address":"山家 → 鹿児島","source":"CODH 江戸主要街道データセット Version 4 (2026-08)","subarea_name":"江戸期の主要街道","feature_key":"road:R901"},"geometry":{"type":"LineString","coordinates":[[130.58024,33.4373],[130.58024,33.43551],[130.58151,33.43434],[130.58379,33.42979],[130.5843,33.42821],[130.58633,33.42725],[130.58519,33.42471],[130.58544,33.41964],[130.58709,33.41667],[130.58785,33.41593],[130.58658,33.41318],[130.58747,33.41149],[130.58683,33.41054],[130.58709,33.40927],[130.58696,33.40207],[130.58823,33.39816],[130.58544,33.3971],[130.58531,33.39265],[130.58443,33.39064],[130.58012,33.38778],[130.57695,33.38778],[130.57593,33.38704],[130.57543,33.38069],[130.57593,33.37889],[130.57428,33.37476],[130.57428,33.37064],[130.57492,33.36852],[130.57428,33.36757],[130.57517,33.36397],[130.57264,33.36312],[130.57048,33.35655],[130.57112,33.35518]]}},{"type":"Feature","properties":{"layer_id":"historical_sites_archaeology","name":"一ノ口遺跡","address":"福岡県 小郡市 美鈴が丘三丁目","source":"Geoshape 日本歴史地名大系 施設・地点項目データセット 2025-05-15","subarea_name":"遺跡","feature_key":"08_archaeological_sites.geojson:410000270000","subtype":"遺跡"},"geometry":{"type":"Point","coordinates":[130.54768,33.434387]}},{"type":"Feature","properties":{"layer_id":"historical_sites_archaeology","name":"三国丘陵遺跡群","address":"福岡県 小郡市 三沢","source":"Geoshape 日本歴史地名大系 施設・地点項目データセット 2025-05-15","subarea_name":"遺跡","feature_key":"08_archaeological_sites.geojson:410000269800","subtype":"遺跡"},"geometry":{"type":"Point","coordinates":[130.553683,33.419669]}},{"type":"Feature","properties":{"layer_id":"historical_sites_archaeology","name":"三沢遺跡群","address":"福岡県 小郡市 三沢","source":"Geoshape 日本歴史地名大系 施設・地点項目データセット 2025-05-15","subarea_name":"遺跡","feature_key":"08_archaeological_sites.geojson:410000269900","subtype":"遺跡"},"geometry":{"type":"Point","coordinates":[130.55987,33.43773]}},{"type":"Feature","properties":{"layer_id":"historical_sites_archaeology","name":"上岩田遺跡","address":"福岡県 小郡市 上岩田","source":"Geoshape 日本歴史地名大系 施設・地点項目データセット 2025-05-15","subarea_name":"遺跡","feature_key":"08_archaeological_sites.geojson:410000272000","subtype":"遺跡"},"geometry":{"type":"Point","coordinates":[130.580469,33.400073]}},{"type":"Feature","properties":{"layer_id":"historical_sites_archaeology","name":"大板井遺跡群","address":"福岡県 小郡市 大板井","source":"Geoshape 日本歴史地名大系 施設・地点項目データセット 2025-05-15","subarea_name":"遺跡","feature_key":"08_archaeological_sites.geojson:410000268600","subtype":"遺跡"},"geometry":{"type":"Point","coordinates":[130.564837,33.402448]}},{"type":"Feature","properties":{"layer_id":"historical_sites_archaeology","name":"小郡官衙遺跡","address":"福岡県 小郡市 小郡","source":"Geoshape 日本歴史地名大系 施設・地点項目データセット 2025-05-15","subarea_name":"遺跡","feature_key":"08_archaeological_sites.geojson:410000268400","subtype":"遺跡"},"geometry":{"type":"Point","coordinates":[130.556739,33.401093]}},{"type":"Feature","properties":{"layer_id":"historical_sites_archaeology","name":"山隈城跡","address":"福岡県 小郡市 干潟","source":"Geoshape 日本歴史地名大系 施設・地点項目データセット 2025-05-15","subarea_name":"城跡","feature_key":"05_castle_ruins.geojson:410000271400","subtype":"城跡"},"geometry":{"type":"Point","coordinates":[130.59809,33.423387]}},{"type":"Feature","properties":{"layer_id":"historical_sites_archaeology","name":"松崎館跡","address":"福岡県 小郡市 松崎","source":"Geoshape 日本歴史地名大系 施設・地点項目データセット 2025-05-15","subarea_name":"史跡","feature_key":"09_historic_sites.geojson:410000271600","subtype":"史跡"},"geometry":{"type":"Point","coordinates":[130.585191,33.397942]}},{"type":"Feature","properties":{"layer_id":"historical_sites_archaeology","name":"津古生掛古墳","address":"福岡県 小郡市 三国が丘三丁目","source":"Geoshape 日本歴史地名大系 施設・地点項目データセット 2025-05-15","subarea_name":"古墳","feature_key":"06_kofun.geojson:410000270500","subtype":"古墳"},"geometry":{"type":"Point","coordinates":[130.565671,33.441949]}},{"type":"Feature","properties":{"layer_id":"historical_sites_archaeology","name":"苅又窯跡群","address":"福岡県 小郡市 希みが丘六丁目","source":"Geoshape 日本歴史地名大系 施設・地点項目データセット 2025-05-15","subarea_name":"遺跡","feature_key":"08_archaeological_sites.geojson:410000270100","subtype":"遺跡"},"geometry":{"type":"Point","coordinates":[130.547362,33.440076]}},{"type":"Feature","properties":{"layer_id":"historical_temples_shrines","name":"井上廃寺","address":"福岡県 小郡市 井上","source":"Geoshape 日本歴史地名大系 施設・地点項目データセット 2025-05-15","subarea_name":"廃寺・廃社","feature_key":"03_abandoned_temples_shrines.geojson:410000270700","subtype":"廃寺・廃社"},"geometry":{"type":"Point","coordinates":[130.580084,33.405821]}},{"type":"Feature","properties":{"layer_id":"historical_temples_shrines","name":"如意輪寺","address":"福岡県 小郡市横隈 1729番地","source":"Geoshape 日本歴史地名大系 施設・地点項目データセット 2025-05-15","subarea_name":"寺院","feature_key":"01_temples.geojson:410000270300","subtype":"寺院"},"geometry":{"type":"Point","coordinates":[130.567261,33.426537]}},{"type":"Feature","properties":{"layer_id":"historical_temples_shrines","name":"媛社神社","address":"福岡県 小郡市大崎 1番地","source":"Geoshape 日本歴史地名大系 施設・地点項目データセット 2025-05-15","subarea_name":"神社","feature_key":"02_shrines.geojson:410000269000","subtype":"神社"},"geometry":{"type":"Point","coordinates":[130.563721,33.38834]}},{"type":"Feature","properties":{"layer_id":"historical_temples_shrines","name":"御勢大霊石神社","address":"福岡県 小郡市大保 1032番地","source":"Geoshape 日本歴史地名大系 施設・地点項目データセット 2025-05-15","subarea_name":"神社","feature_key":"02_shrines.geojson:410000269500","subtype":"神社"},"geometry":{"type":"Point","coordinates":[130.563461,33.411407]}},{"type":"Feature","properties":{"layer_id":"historical_temples_shrines","name":"竈門神社","address":"福岡県 小郡市三沢 127番地","source":"Geoshape 日本歴史地名大系 施設・地点項目データセット 2025-05-15","subarea_name":"神社","feature_key":"02_shrines.geojson:410000204000","subtype":"神社"},"geometry":{"type":"Point","coordinates":[130.554001,33.417164]}},{"type":"Feature","properties":{"layer_id":"historical_temples_shrines","name":"霊鷲寺","address":"福岡県 小郡市松崎 111番地1","source":"Geoshape 日本歴史地名大系 施設・地点項目データセット 2025-05-15","subarea_name":"寺院","feature_key":"01_temples.geojson:410000271700","subtype":"寺院"},"geometry":{"type":"Point","coordinates":[130.585999,33.401901]}}]}