{"type":"FeatureCollection","municipality_code":"40223","pref":"福岡県","city":"古賀市","layer_counts":{"bakumatsu_villages":15,"edo_post_stations":1,"historical_sites_archaeology":4,"historical_temples_shrines":1},"total_features":21,"features":[{"type":"Feature","properties":{"layer_id":"bakumatsu_villages","name":"久保村","address":"筑前 糟屋郡","source":"Geoshape 幕末期近世村領域データセット vector tiles (z7 extraction)","subarea_name":"近世村のおおよその範囲","feature_key":"village:K62G01S00076","accuracy_note":"2015年農業集落境界をもとに復元した概略範囲で、江戸時代の正確な村境ではありません"},"geometry":{"type":"MultiPolygon","coordinates":[[[[130.466766,33.754031],[130.477753,33.751748],[130.481186,33.752319],[130.485306,33.749464],[130.485992,33.750035],[130.488052,33.745468],[130.486679,33.743184],[130.481873,33.742613],[130.480499,33.740329],[130.477066,33.738616],[130.46814,33.7409],[130.461273,33.7409],[130.46196,33.742613],[130.466766,33.754031]]],[[[130.459213,33.7409],[130.460587,33.740329],[130.4599,33.739758],[130.459213,33.7409]]],[[[130.469513,33.740329],[130.477753,33.739187],[130.481186,33.737474],[130.480499,33.734619],[130.482559,33.73519],[130.483246,33.734619],[130.482559,33.734048],[130.483246,33.730621],[130.4702,33.729479],[130.470886,33.731764],[130.469513,33.731193],[130.467453,33.73519],[130.469513,33.740329]]],[[[130.482559,33.742042],[130.488739,33.743184],[130.491486,33.740329],[130.490799,33.739187],[130.492172,33.736903],[130.489426,33.739187],[130.485992,33.739187],[130.481873,33.738045],[130.477753,33.739187],[130.480499,33.740329],[130.482559,33.742042]]],[[[130.489426,33.739187],[130.491486,33.737474],[130.490799,33.734619],[130.488739,33.734619],[130.488739,33.732335],[130.486679,33.731764],[130.486679,33.729479],[130.483246,33.730621],[130.482559,33.734048],[130.483246,33.734619],[130.482559,33.73519],[130.480499,33.734619],[130.481186,33.737474],[130.479813,33.738045],[130.483246,33.738045],[130.485992,33.739187],[130.489426,33.739187]]]]}},{"type":"Feature","properties":{"layer_id":"bakumatsu_villages","name":"今在家村","address":"筑前 糟屋郡","source":"Geoshape 幕末期近世村領域データセット vector tiles (z7 extraction)","subarea_name":"近世村のおおよその範囲","feature_key":"village:K62G01S00074","accuracy_note":"2015年農業集落境界をもとに復元した概略範囲で、江戸時代の正確な村境ではありません"},"geometry":{"type":"Polygon","coordinates":[[[130.474319,33.724911],[130.477753,33.723197],[130.481186,33.722626],[130.481873,33.7192],[130.479126,33.719771],[130.476379,33.718057],[130.472946,33.718057],[130.470886,33.72434],[130.474319,33.724911]]]}},{"type":"Feature","properties":{"layer_id":"bakumatsu_villages","name":"古賀村","address":"筑前 糟屋郡","source":"Geoshape 幕末期近世村領域データセット vector tiles (z7 extraction)","subarea_name":"近世村のおおよその範囲","feature_key":"village:K62G01S00069","accuracy_note":"2015年農業集落境界をもとに復元した概略範囲で、江戸時代の正確な村境ではありません"},"geometry":{"type":"MultiPolygon","coordinates":[[[[130.460587,33.7409],[130.469513,33.740329],[130.467453,33.73519],[130.465393,33.731764],[130.462646,33.732335],[130.460587,33.728337],[130.457153,33.725482],[130.452347,33.724911],[130.448914,33.727195],[130.455093,33.732906],[130.457153,33.735761],[130.45784,33.736332],[130.457153,33.739187],[130.458527,33.738045],[130.460587,33.7409]]],[[[130.467453,33.73519],[130.469513,33.731193],[130.470886,33.731764],[130.469513,33.73005],[130.470886,33.728908],[130.4702,33.726624],[130.472946,33.718629],[130.4702,33.717486],[130.466766,33.722626],[130.467453,33.723769],[130.464706,33.724911],[130.463333,33.727195],[130.458527,33.726624],[130.462646,33.732335],[130.465393,33.731764],[130.467453,33.73519]]]]}},{"type":"Feature","properties":{"layer_id":"bakumatsu_villages","name":"小山田村","address":"筑前 糟屋郡","source":"Geoshape 幕末期近世村領域データセット vector tiles (z7 extraction)","subarea_name":"近世村のおおよその範囲","feature_key":"village:K62G01S00082","accuracy_note":"2015年農業集落境界をもとに復元した概略範囲で、江戸時代の正確な村境ではありません"},"geometry":{"type":"Polygon","coordinates":[[[130.495605,33.721484],[130.499039,33.718629],[130.507278,33.7192],[130.508652,33.717486],[130.511398,33.718057],[130.514832,33.714059],[130.514145,33.711203],[130.510025,33.710632],[130.507278,33.711775],[130.506592,33.712917],[130.499039,33.717486],[130.493546,33.716344],[130.494232,33.7192],[130.495605,33.719771],[130.495605,33.721484]]]}},{"type":"Feature","properties":{"layer_id":"bakumatsu_villages","name":"小竹村","address":"筑前 糟屋郡","source":"Geoshape 幕末期近世村領域データセット vector tiles (z7 extraction)","subarea_name":"近世村のおおよその範囲","feature_key":"village:K62G01S00063","accuracy_note":"2015年農業集落境界をもとに復元した概略範囲で、江戸時代の正確な村境ではありません"},"geometry":{"type":"Polygon","coordinates":[[[130.471573,33.703778],[130.473633,33.700922],[130.480499,33.700922],[130.482559,33.698637],[130.483246,33.694638],[130.477753,33.695209],[130.472946,33.694066],[130.466766,33.69578],[130.467453,33.698065],[130.465393,33.701493],[130.471573,33.703778]]]}},{"type":"Feature","properties":{"layer_id":"bakumatsu_villages","name":"庄村","address":"筑前 糟屋郡","source":"Geoshape 幕末期近世村領域データセット vector tiles (z7 extraction)","subarea_name":"近世村のおおよその範囲","feature_key":"village:K62G01S00068","accuracy_note":"2015年農業集落境界をもとに復元した概略範囲で、江戸時代の正確な村境ではありません"},"geometry":{"type":"Polygon","coordinates":[[[130.483246,33.730621],[130.486679,33.729479],[130.487366,33.728337],[130.490112,33.728337],[130.489426,33.726624],[130.481186,33.727766],[130.479126,33.727766],[130.475006,33.724911],[130.470886,33.72434],[130.4702,33.726624],[130.47226,33.729479],[130.483246,33.730621]]]}},{"type":"Feature","properties":{"layer_id":"bakumatsu_villages","name":"新原村","address":"筑前 糟屋郡","source":"Geoshape 幕末期近世村領域データセット vector tiles (z7 extraction)","subarea_name":"近世村のおおよその範囲","feature_key":"village:K62G01S00077","accuracy_note":"2015年農業集落境界をもとに復元した概略範囲で、江戸時代の正確な村境ではありません"},"geometry":{"type":"MultiPolygon","coordinates":[[[[130.481186,33.727766],[130.489426,33.726624],[130.477753,33.723197],[130.474319,33.724911],[130.479126,33.727766],[130.481186,33.727766]]],[[[130.489426,33.726624],[130.500412,33.725482],[130.500412,33.723769],[130.496979,33.722055],[130.495605,33.721484],[130.494232,33.718629],[130.486679,33.717486],[130.483932,33.7192],[130.481186,33.722626],[130.477753,33.723197],[130.489426,33.726624]]]]}},{"type":"Feature","properties":{"layer_id":"bakumatsu_villages","name":"筵内村","address":"筑前 糟屋郡","source":"Geoshape 幕末期近世村領域データセット vector tiles (z7 extraction)","subarea_name":"近世村のおおよその範囲","feature_key":"village:K62G01S00075","accuracy_note":"2015年農業集落境界をもとに復元した概略範囲で、江戸時代の正確な村境ではありません"},"geometry":{"type":"MultiPolygon","coordinates":[[[[130.494232,33.733477],[130.496979,33.732335],[130.496292,33.728908],[130.494919,33.728337],[130.494919,33.725482],[130.489426,33.726624],[130.490112,33.728337],[130.487366,33.728337],[130.486679,33.73005],[130.489426,33.730621],[130.488739,33.731764],[130.493546,33.732335],[130.494232,33.733477]]],[[[130.491486,33.748893],[130.493546,33.74718],[130.506592,33.741471],[130.501785,33.738045],[130.499039,33.732906],[130.496979,33.732335],[130.494232,33.733477],[130.493546,33.732335],[130.492172,33.732335],[130.488739,33.731764],[130.489426,33.730621],[130.486679,33.73005],[130.486679,33.731764],[130.488739,33.732335],[130.488739,33.734619],[130.490799,33.734619],[130.492172,33.738045],[130.490799,33.739187],[130.491486,33.740329],[130.489426,33.743184],[130.486679,33.743184],[130.488052,33.745468],[130.486679,33.748893],[130.488739,33.747751],[130.491486,33.748893]]],[[[130.506592,33.741471],[130.510025,33.740329],[130.518265,33.740329],[130.514832,33.733477],[130.509338,33.73005],[130.505219,33.724911],[130.494919,33.725482],[130.494919,33.728337],[130.496292,33.728908],[130.496979,33.732335],[130.499039,33.732906],[130.501785,33.738045],[130.506592,33.741471]]]]}},{"type":"Feature","properties":{"layer_id":"bakumatsu_villages","name":"米多比村","address":"筑前 糟屋郡","source":"Geoshape 幕末期近世村領域データセット vector tiles (z7 extraction)","subarea_name":"近世村のおおよその範囲","feature_key":"village:K62G01S00079","accuracy_note":"2015年農業集落境界をもとに復元した概略範囲で、江戸時代の正確な村境ではありません"},"geometry":{"type":"MultiPolygon","coordinates":[[[[130.512085,33.731193],[130.521011,33.73005],[130.517578,33.722055],[130.512772,33.72434],[130.512772,33.726624],[130.507278,33.727195],[130.512085,33.731193]]],[[[130.525818,33.731193],[130.526505,33.73005],[130.531311,33.726053],[130.534744,33.725482],[130.534744,33.721484],[130.536804,33.718629],[130.536118,33.710632],[130.532684,33.710061],[130.528564,33.714059],[130.521698,33.71463],[130.519638,33.721484],[130.517578,33.722055],[130.521011,33.73005],[130.525818,33.731193]]]]}},{"type":"Feature","properties":{"layer_id":"bakumatsu_villages","name":"薦野村","address":"筑前 糟屋郡","source":"Geoshape 幕末期近世村領域データセット vector tiles (z7 extraction)","subarea_name":"近世村のおおよその範囲","feature_key":"village:K62G01S00078","accuracy_note":"2015年農業集落境界をもとに復元した概略範囲で、江戸時代の正確な村境ではありません"},"geometry":{"type":"MultiPolygon","coordinates":[[[[130.518265,33.740329],[130.520325,33.738616],[130.522385,33.738616],[130.523758,33.736332],[130.526505,33.734619],[130.525818,33.731193],[130.521011,33.73005],[130.512085,33.731193],[130.514832,33.733477],[130.518265,33.740329]]],[[[130.518265,33.740329],[130.529251,33.739758],[130.534058,33.739187],[130.529251,33.727766],[130.526505,33.73005],[130.526505,33.734619],[130.523758,33.736332],[130.522385,33.738616],[130.520325,33.738616],[130.518265,33.740329]]],[[[130.534058,33.739187],[130.540237,33.738616],[130.542297,33.734619],[130.544357,33.733477],[130.548477,33.73005],[130.553284,33.728337],[130.55809,33.723769],[130.55809,33.720342],[130.547104,33.717486],[130.547791,33.71463],[130.545731,33.713488],[130.544357,33.710632],[130.540237,33.711203],[130.536118,33.710632],[130.536804,33.718629],[130.534744,33.721484],[130.534744,33.725482],[130.532684,33.725482],[130.529251,33.727766],[130.534058,33.739187]]]]}},{"type":"Feature","properties":{"layer_id":"bakumatsu_villages","name":"薬王寺村","address":"筑前 糟屋郡","source":"Geoshape 幕末期近世村領域データセット vector tiles (z7 extraction)","subarea_name":"近世村のおおよその範囲","feature_key":"village:K62G01S00080","accuracy_note":"2015年農業集落境界をもとに復元した概略範囲で、江戸時代の正確な村境ではありません"},"geometry":{"type":"Polygon","coordinates":[[[130.507278,33.727195],[130.512772,33.726624],[130.512772,33.72434],[130.519638,33.721484],[130.521698,33.71463],[130.528564,33.714059],[130.532684,33.710061],[130.529251,33.707205],[130.527191,33.707205],[130.527191,33.706063],[130.525131,33.702635],[130.519638,33.701493],[130.519638,33.703207],[130.514832,33.706063],[130.514145,33.711203],[130.514832,33.714059],[130.511398,33.717486],[130.508652,33.717486],[130.507278,33.7192],[130.499039,33.718629],[130.495605,33.721484],[130.496979,33.722055],[130.500412,33.723769],[130.500412,33.725482],[130.505219,33.724911],[130.507278,33.727195]]]}},{"type":"Feature","properties":{"layer_id":"bakumatsu_villages","name":"谷山村","address":"筑前 糟屋郡","source":"Geoshape 幕末期近世村領域データセット vector tiles (z7 extraction)","subarea_name":"近世村のおおよその範囲","feature_key":"village:K62G01S00081","accuracy_note":"2015年農業集落境界をもとに復元した概略範囲で、江戸時代の正確な村境ではありません"},"geometry":{"type":"Polygon","coordinates":[[[130.499039,33.717486],[130.506592,33.712917],[130.507278,33.711775],[130.510025,33.710632],[130.514145,33.711203],[130.514145,33.706634],[130.519638,33.703207],[130.519638,33.701493],[130.521011,33.699208],[130.520325,33.696351],[130.518265,33.695209],[130.518951,33.693495],[130.518265,33.692352],[130.514832,33.691781],[130.512772,33.688924],[130.511398,33.689496],[130.510712,33.687782],[130.507278,33.687782],[130.506592,33.688924],[130.504532,33.689496],[130.505219,33.690638],[130.503845,33.691781],[130.504532,33.694066],[130.502472,33.694638],[130.503159,33.705491],[130.496979,33.711203],[130.492172,33.714059],[130.492859,33.716344],[130.499039,33.717486]]]}},{"type":"Feature","properties":{"layer_id":"bakumatsu_villages","name":"青柳村","address":"筑前 糟屋郡","source":"Geoshape 幕末期近世村領域データセット vector tiles (z7 extraction)","subarea_name":"近世村のおおよその範囲","feature_key":"village:K62G01S00071","accuracy_note":"2015年農業集落境界をもとに復元した概略範囲で、江戸時代の正確な村境ではありません"},"geometry":{"type":"MultiPolygon","coordinates":[[[[130.47226,33.7192],[130.472946,33.718057],[130.475006,33.717486],[130.475006,33.715773],[130.477753,33.716344],[130.478439,33.713488],[130.475006,33.70949],[130.465393,33.715773],[130.46814,33.7192],[130.4702,33.717486],[130.47226,33.7192]]],[[[130.465393,33.715773],[130.475006,33.70949],[130.472946,33.70492],[130.467453,33.702635],[130.46814,33.708347],[130.463333,33.713488],[130.465393,33.715773]]],[[[130.479813,33.71463],[130.481873,33.711775],[130.488052,33.710061],[130.491486,33.707205],[130.492859,33.703207],[130.477066,33.706634],[130.474319,33.708347],[130.477753,33.713488],[130.479813,33.71463]]],[[[130.473633,33.705491],[130.480499,33.700922],[130.473633,33.700922],[130.470886,33.703778],[130.473633,33.705491]]],[[[130.474319,33.708347],[130.477066,33.706634],[130.492859,33.703207],[130.498352,33.698637],[130.497665,33.696923],[130.492859,33.692924],[130.490799,33.692352],[130.487366,33.694066],[130.484619,33.693495],[130.483246,33.694638],[130.482559,33.698637],[130.479813,33.701493],[130.473633,33.705491],[130.473633,33.707776],[130.474319,33.708347]]]]}},{"type":"Feature","properties":{"layer_id":"bakumatsu_villages","name":"青柳町・川原村","address":"筑前 糟屋郡","source":"Geoshape 幕末期近世村領域データセット vector tiles (z7 extraction)","subarea_name":"近世村のおおよその範囲","feature_key":"village:K62G01S00072,K62G01S00073","accuracy_note":"2015年農業集落境界をもとに復元した概略範囲で、江戸時代の正確な村境ではありません"},"geometry":{"type":"Polygon","coordinates":[[[130.481186,33.722626],[130.485306,33.718057],[130.486679,33.717486],[130.494232,33.718629],[130.493546,33.716344],[130.492172,33.714059],[130.496979,33.711203],[130.503159,33.705491],[130.502472,33.701493],[130.503159,33.699208],[130.502472,33.697494],[130.499725,33.697494],[130.494919,33.700922],[130.492859,33.703207],[130.491486,33.707205],[130.488739,33.70949],[130.481873,33.711775],[130.479813,33.71463],[130.478439,33.713488],[130.477753,33.716344],[130.475006,33.715773],[130.475006,33.717486],[130.479126,33.719771],[130.481873,33.7192],[130.481186,33.722626]]]}},{"type":"Feature","properties":{"layer_id":"bakumatsu_villages","name":"鹿部村","address":"筑前 糟屋郡","source":"Geoshape 幕末期近世村領域データセット vector tiles (z7 extraction)","subarea_name":"近世村のおおよその範囲","feature_key":"village:K62G01S00070","accuracy_note":"2015年農業集落境界をもとに復元した概略範囲で、江戸時代の正確な村境ではありません"},"geometry":{"type":"Polygon","coordinates":[[[130.463333,33.727195],[130.464706,33.724911],[130.467453,33.723769],[130.466766,33.722626],[130.468826,33.718629],[130.467453,33.718629],[130.463333,33.713488],[130.458527,33.7192],[130.446854,33.725482],[130.448914,33.727195],[130.452347,33.724911],[130.463333,33.727195]]]}},{"type":"Feature","properties":{"layer_id":"edo_post_stations","name":"青柳","address":"","source":"CODH 江戸宿場データセット Version 1 (2026-08)","feature_key":"post:R910-006"},"geometry":{"type":"Point","coordinates":[130.483,33.71596]}},{"type":"Feature","properties":{"layer_id":"historical_sites_archaeology","name":"永浦古墳群","address":"福岡県 古賀市 鹿部","source":"Geoshape 日本歴史地名大系 施設・地点項目データセット 2025-05-15","subarea_name":"古墳","feature_key":"06_kofun.geojson:410000139200","subtype":"古墳"},"geometry":{"type":"Point","coordinates":[130.46309,33.716395]}},{"type":"Feature","properties":{"layer_id":"historical_sites_archaeology","name":"馬渡・束ヶ浦遺跡","address":"福岡県 古賀市 青柳町","source":"Geoshape 日本歴史地名大系 施設・地点項目データセット 2025-05-15","subarea_name":"遺跡","feature_key":"08_archaeological_sites.geojson:410000140500","subtype":"遺跡"},"geometry":{"type":"Point","coordinates":[130.494905,33.707367]}},{"type":"Feature","properties":{"layer_id":"historical_sites_archaeology","name":"鹿部山遺跡","address":"福岡県 古賀市 美明一丁目","source":"Geoshape 日本歴史地名大系 施設・地点項目データセット 2025-05-15","subarea_name":"遺跡","feature_key":"08_archaeological_sites.geojson:410000139100","subtype":"遺跡"},"geometry":{"type":"Point","coordinates":[130.466037,33.722939]}},{"type":"Feature","properties":{"layer_id":"historical_sites_archaeology","name":"鹿部田渕遺跡","address":"福岡県 古賀市 美明二丁目","source":"Geoshape 日本歴史地名大系 施設・地点項目データセット 2025-05-15","subarea_name":"遺跡","feature_key":"08_archaeological_sites.geojson:410000139300","subtype":"遺跡"},"geometry":{"type":"Point","coordinates":[130.462033,33.722627]}},{"type":"Feature","properties":{"layer_id":"historical_temples_shrines","name":"五所八幡宮","address":"福岡県 古賀市 青柳1658番地","source":"Geoshape 日本歴史地名大系 施設・地点項目データセット 2025-05-15","subarea_name":"神社","feature_key":"02_shrines.geojson:410000140300","subtype":"神社"},"geometry":{"type":"Point","coordinates":[130.478543,33.70839]}}]}