{"type":"FeatureCollection","municipality_code":"40231","pref":"福岡県","city":"那珂川市","layer_counts":{"bakumatsu_villages":23,"historical_sites_archaeology":7},"total_features":30,"features":[{"type":"Feature","properties":{"layer_id":"bakumatsu_villages","name":"上梶原村","address":"筑前 那珂郡","source":"Geoshape 幕末期近世村領域データセット vector tiles (z7 extraction)","subarea_name":"近世村のおおよその範囲","feature_key":"village:K62G11S00003","accuracy_note":"2015年農業集落境界をもとに復元した概略範囲で、江戸時代の正確な村境ではありません"},"geometry":{"type":"Polygon","coordinates":[[[130.44548,33.502469],[130.446854,33.501896],[130.44754,33.500179],[130.450287,33.499033],[130.450974,33.496743],[130.450287,33.495598],[130.450974,33.492735],[130.453033,33.489299],[130.45166,33.486435],[130.453033,33.483572],[130.452347,33.481854],[130.45578,33.477272],[130.45578,33.476127],[130.45372,33.474981],[130.455093,33.470972],[130.45784,33.470972],[130.458527,33.471545],[130.46196,33.470399],[130.462646,33.469254],[130.465393,33.469826],[130.464706,33.467535],[130.46608,33.46639],[130.46402,33.465244],[130.46402,33.46238],[130.460587,33.461234],[130.459213,33.459516],[130.45372,33.46238],[130.453033,33.464098],[130.45166,33.463525],[130.448227,33.465244],[130.446854,33.468681],[130.444107,33.469254],[130.442047,33.47269],[130.439301,33.473836],[130.437927,33.477272],[130.433807,33.47899],[130.434494,33.479563],[130.432434,33.482427],[130.430374,33.483572],[130.429001,33.487008],[130.429001,33.492735],[130.431747,33.495025],[130.430374,33.495025],[130.431747,33.497316],[130.437241,33.495025],[130.44548,33.502469]]]}},{"type":"Feature","properties":{"layer_id":"bakumatsu_villages","name":"下梶原村","address":"筑前 那珂郡","source":"Geoshape 幕末期近世村領域データセット vector tiles (z7 extraction)","subarea_name":"近世村のおおよその範囲","feature_key":"village:K62G11S00004","accuracy_note":"2015年農業集落境界をもとに復元した概略範囲で、江戸時代の正確な村境ではありません"},"geometry":{"type":"Polygon","coordinates":[[[130.436554,33.507049],[130.438614,33.504187],[130.437927,33.501324],[130.442047,33.500751],[130.442047,33.499033],[130.437241,33.495025],[130.431747,33.497316],[130.431061,33.500179],[130.434494,33.504187],[130.435867,33.504759],[130.435867,33.503614],[130.437241,33.504187],[130.435181,33.507049],[130.436554,33.507049]]]}},{"type":"Feature","properties":{"layer_id":"bakumatsu_villages","name":"不入道村","address":"筑前 那珂郡","source":"Geoshape 幕末期近世村領域データセット vector tiles (z7 extraction)","subarea_name":"近世村のおおよその範囲","feature_key":"village:K62G11S00014","accuracy_note":"2015年農業集落境界をもとに復元した概略範囲で、江戸時代の正確な村境ではありません"},"geometry":{"type":"Polygon","coordinates":[[[130.433807,33.47899],[130.437927,33.477272],[130.439301,33.473836],[130.442047,33.47269],[130.442734,33.470972],[130.437927,33.469826],[130.430374,33.469826],[130.429001,33.466962],[130.426941,33.466962],[130.426941,33.465817],[130.424194,33.465817],[130.418015,33.470972],[130.417328,33.47269],[130.415268,33.472117],[130.414581,33.474408],[130.418015,33.474981],[130.419388,33.477845],[130.424881,33.475554],[130.428314,33.476127],[130.429688,33.474981],[130.431061,33.475554],[130.433807,33.47899]]]}},{"type":"Feature","properties":{"layer_id":"bakumatsu_villages","name":"中原村","address":"筑前 那珂郡","source":"Geoshape 幕末期近世村領域データセット vector tiles (z7 extraction)","subarea_name":"近世村のおおよその範囲","feature_key":"village:K62G11S00002","accuracy_note":"2015年農業集落境界をもとに復元した概略範囲で、江戸時代の正確な村境ではありません"},"geometry":{"type":"Polygon","coordinates":[[[130.433807,33.521361],[130.435181,33.520217],[130.435867,33.517354],[130.439301,33.513347],[130.448227,33.508767],[130.44754,33.506477],[130.446167,33.504187],[130.44136,33.506477],[130.439987,33.505904],[130.438614,33.509339],[130.436554,33.509339],[130.435867,33.511629],[130.434494,33.512202],[130.433807,33.516209],[130.432434,33.515637],[130.431747,33.518499],[130.433807,33.521361]]]}},{"type":"Feature","properties":{"layer_id":"bakumatsu_villages","name":"五ヶ山村","address":"筑前 那珂郡","source":"Geoshape 幕末期近世村領域データセット vector tiles (z7 extraction)","subarea_name":"近世村のおおよその範囲","feature_key":"village:K62G11S00016","accuracy_note":"2015年農業集落境界をもとに復元した概略範囲で、江戸時代の正確な村境ではありません"},"geometry":{"type":"MultiPolygon","coordinates":[[[[130.415268,33.441182],[130.419388,33.440036],[130.421448,33.438318],[130.425568,33.43889],[130.427628,33.436026],[130.431061,33.434306],[130.431061,33.432587],[130.435867,33.428576],[130.437241,33.425711],[130.44342,33.422272],[130.442734,33.419407],[130.444107,33.417687],[130.440674,33.414249],[130.44136,33.413102],[130.439301,33.411383],[130.440674,33.410236],[130.437927,33.405651],[130.436554,33.405078],[130.429001,33.408517],[130.422134,33.409663],[130.420074,33.41998],[130.415955,33.420553],[130.411835,33.41826],[130.410461,33.418834],[130.409088,33.420553],[130.404968,33.429722],[130.395355,33.428003],[130.397415,33.430868],[130.395355,33.432014],[130.397415,33.43316],[130.396042,33.434879],[130.395355,33.440609],[130.402908,33.437172],[130.404282,33.439463],[130.407028,33.437745],[130.409088,33.437745],[130.410461,33.439463],[130.411835,33.440036],[130.413208,33.439463],[130.415268,33.441182]]],[[[130.404968,33.429722],[130.409088,33.420553],[130.410461,33.418834],[130.411835,33.41826],[130.415955,33.420553],[130.420074,33.41998],[130.422134,33.409663],[130.429001,33.408517],[130.436554,33.405078],[130.437927,33.400492],[130.435181,33.399345],[130.431747,33.398772],[130.428314,33.397052],[130.421448,33.398772],[130.418015,33.401638],[130.413895,33.399345],[130.413208,33.396479],[130.410461,33.395332],[130.407028,33.398772],[130.407028,33.402212],[130.410461,33.403931],[130.415268,33.409663],[130.414581,33.410236],[130.416641,33.41081],[130.413208,33.411383],[130.407028,33.414249],[130.407028,33.415968],[130.404282,33.416541],[130.402222,33.420553],[130.400848,33.422272],[130.398102,33.422272],[130.397415,33.423418],[130.398788,33.425138],[130.396729,33.42743],[130.404968,33.429722]]]]}},{"type":"Feature","properties":{"layer_id":"bakumatsu_villages","name":"五郎丸村","address":"筑前 那珂郡","source":"Geoshape 幕末期近世村領域データセット vector tiles (z7 extraction)","subarea_name":"近世村のおおよその範囲","feature_key":"village:K62G11S00021","accuracy_note":"2015年農業集落境界をもとに復元した概略範囲で、江戸時代の正確な村境ではありません"},"geometry":{"type":"Polygon","coordinates":[[[130.426254,33.512774],[130.427628,33.515064],[130.429688,33.515637],[130.429688,33.511629],[130.431747,33.511629],[130.435181,33.505332],[130.434494,33.504187],[130.433121,33.505332],[130.432434,33.504187],[130.427628,33.508767],[130.426254,33.512774]]]}},{"type":"Feature","properties":{"layer_id":"bakumatsu_villages","name":"今光村","address":"筑前 那珂郡","source":"Geoshape 幕末期近世村領域データセット vector tiles (z7 extraction)","subarea_name":"近世村のおおよその範囲","feature_key":"village:K62G11S00019","accuracy_note":"2015年農業集落境界をもとに復元した概略範囲で、江戸時代の正確な村境ではありません"},"geometry":{"type":"Polygon","coordinates":[[[130.432434,33.524796],[130.433807,33.523079],[130.434494,33.521361],[130.432434,33.520217],[130.433121,33.519072],[130.431747,33.518499],[130.432434,33.515637],[130.427628,33.515064],[130.427628,33.518499],[130.426254,33.520217],[130.424881,33.520217],[130.422821,33.521361],[130.423508,33.523079],[130.426941,33.524796],[130.428314,33.523079],[130.432434,33.524796]]]}},{"type":"Feature","properties":{"layer_id":"bakumatsu_villages","name":"仲村","address":"筑前 那珂郡","source":"Geoshape 幕末期近世村領域データセット vector tiles (z7 extraction)","subarea_name":"近世村のおおよその範囲","feature_key":"village:K62G11S00018","accuracy_note":"2015年農業集落境界をもとに復元した概略範囲で、江戸時代の正確な村境ではありません"},"geometry":{"type":"Polygon","coordinates":[[[130.425568,33.512202],[130.426254,33.512774],[130.427628,33.508767],[130.432434,33.504187],[130.433121,33.505332],[130.434494,33.504187],[130.431061,33.499606],[130.427628,33.505904],[130.425568,33.506477],[130.424194,33.505332],[130.421448,33.506477],[130.421448,33.508767],[130.424881,33.510484],[130.425568,33.512202]]]}},{"type":"Feature","properties":{"layer_id":"bakumatsu_villages","name":"別所村","address":"筑前 那珂郡","source":"Geoshape 幕末期近世村領域データセット vector tiles (z7 extraction)","subarea_name":"近世村のおおよその範囲","feature_key":"village:K62G11S00009","accuracy_note":"2015年農業集落境界をもとに復元した概略範囲で、江戸時代の正確な村境ではありません"},"geometry":{"type":"MultiPolygon","coordinates":[[[[130.413208,33.486435],[130.415268,33.484145],[130.415955,33.481854],[130.414581,33.474408],[130.413208,33.475554],[130.410461,33.475554],[130.407028,33.476699],[130.404282,33.474981],[130.402908,33.474981],[130.402222,33.474408],[130.400162,33.476127],[130.398102,33.476127],[130.395355,33.480709],[130.396042,33.482999],[130.398788,33.481854],[130.400848,33.482999],[130.407028,33.481854],[130.411148,33.482999],[130.413208,33.486435]]],[[[130.412521,33.496743],[130.413895,33.49388],[130.418015,33.493307],[130.418701,33.492735],[130.420761,33.493307],[130.420074,33.492162],[130.418015,33.490444],[130.413895,33.491017],[130.413208,33.48529],[130.411148,33.482999],[130.407028,33.481854],[130.401535,33.482999],[130.402222,33.487008],[130.398788,33.492735],[130.399475,33.495025],[130.403595,33.494453],[130.412521,33.496743]]]]}},{"type":"Feature","properties":{"layer_id":"bakumatsu_villages","name":"南面里村","address":"筑前 那珂郡","source":"Geoshape 幕末期近世村領域データセット vector tiles (z7 extraction)","subarea_name":"近世村のおおよその範囲","feature_key":"village:K62G11S00011","accuracy_note":"2015年農業集落境界をもとに復元した概略範囲で、江戸時代の正確な村境ではありません"},"geometry":{"type":"Polygon","coordinates":[[[130.407028,33.476699],[130.410461,33.475554],[130.413208,33.475554],[130.414581,33.474408],[130.415268,33.472117],[130.410461,33.469826],[130.408401,33.465244],[130.406342,33.464671],[130.405655,33.462953],[130.403595,33.461234],[130.400848,33.452068],[130.398788,33.449204],[130.390549,33.453214],[130.387802,33.455506],[130.385742,33.458943],[130.386429,33.460661],[130.385742,33.46238],[130.387802,33.46639],[130.385742,33.468681],[130.388489,33.471545],[130.392609,33.473263],[130.396042,33.473263],[130.397415,33.472117],[130.407028,33.476699]]]}},{"type":"Feature","properties":{"layer_id":"bakumatsu_villages","name":"埋金村","address":"筑前 那珂郡","source":"Geoshape 幕末期近世村領域データセット vector tiles (z7 extraction)","subarea_name":"近世村のおおよその範囲","feature_key":"village:K62G11S00012","accuracy_note":"2015年農業集落境界をもとに復元した概略範囲で、江戸時代の正確な村境ではありません"},"geometry":{"type":"Polygon","coordinates":[[[130.442734,33.470972],[130.446854,33.468681],[130.448914,33.465244],[130.453033,33.464098],[130.45372,33.46238],[130.459213,33.459516],[130.457153,33.457797],[130.459213,33.455506],[130.45784,33.453214],[130.45784,33.451495],[130.4599,33.450349],[130.4599,33.447485],[130.45784,33.447485],[130.456467,33.449204],[130.453033,33.450922],[130.448227,33.450922],[130.44754,33.453787],[130.44342,33.452068],[130.438614,33.45436],[130.437927,33.456078],[130.433807,33.456651],[130.429001,33.461807],[130.426941,33.46238],[130.426254,33.464671],[130.424194,33.465817],[130.426941,33.465817],[130.426941,33.466962],[130.429001,33.466962],[130.430374,33.469826],[130.437927,33.469826],[130.442734,33.470972]]]}},{"type":"Feature","properties":{"layer_id":"bakumatsu_villages","name":"安徳村","address":"筑前 那珂郡","source":"Geoshape 幕末期近世村領域データセット vector tiles (z7 extraction)","subarea_name":"近世村のおおよその範囲","feature_key":"village:K62G11S00005","accuracy_note":"2015年農業集落境界をもとに復元した概略範囲で、江戸時代の正確な村境ではありません"},"geometry":{"type":"Polygon","coordinates":[[[130.428314,33.504187],[130.431061,33.498461],[130.430374,33.495025],[130.431747,33.495025],[130.429001,33.492735],[130.429001,33.489299],[130.424881,33.492735],[130.421448,33.49388],[130.418701,33.492735],[130.418015,33.493307],[130.420074,33.496743],[130.423508,33.499033],[130.423508,33.501324],[130.428314,33.504187]]]}},{"type":"Feature","properties":{"layer_id":"bakumatsu_villages","name":"山田村","address":"筑前 那珂郡","source":"Geoshape 幕末期近世村領域データセット vector tiles (z7 extraction)","subarea_name":"近世村のおおよその範囲","feature_key":"village:K62G11S00008","accuracy_note":"2015年農業集落境界をもとに復元した概略範囲で、江戸時代の正確な村境ではありません"},"geometry":{"type":"Polygon","coordinates":[[[130.421448,33.49388],[130.428314,33.490444],[130.430374,33.483572],[130.432434,33.482427],[130.434494,33.479563],[130.429688,33.474981],[130.428314,33.476127],[130.424881,33.475554],[130.419388,33.477845],[130.418015,33.474981],[130.414581,33.474408],[130.415955,33.481854],[130.415268,33.484145],[130.413208,33.487008],[130.413895,33.490444],[130.418701,33.491017],[130.420074,33.492162],[130.420761,33.49388],[130.421448,33.49388]]]}},{"type":"Feature","properties":{"layer_id":"bakumatsu_villages","name":"市瀬村","address":"筑前 那珂郡","source":"Geoshape 幕末期近世村領域データセット vector tiles (z7 extraction)","subarea_name":"近世村のおおよその範囲","feature_key":"village:K62G11S00015","accuracy_note":"2015年農業集落境界をもとに復元した概略範囲で、江戸時代の正確な村境ではありません"},"geometry":{"type":"MultiPolygon","coordinates":[[[[130.426941,33.46238],[130.429001,33.461807],[130.433807,33.456651],[130.437927,33.456078],[130.438614,33.45436],[130.44342,33.452068],[130.44754,33.453787],[130.448227,33.450922],[130.45578,33.449777],[130.45784,33.447485],[130.460587,33.446912],[130.460587,33.445193],[130.456467,33.442328],[130.45372,33.438318],[130.45372,33.436599],[130.448914,33.437172],[130.440674,33.441755],[130.429688,33.452641],[130.426941,33.449204],[130.420761,33.446912],[130.418701,33.440036],[130.414581,33.441182],[130.413208,33.439463],[130.412521,33.439463],[130.411148,33.443474],[130.415268,33.445766],[130.417328,33.449204],[130.419388,33.450349],[130.420074,33.45436],[130.424194,33.456651],[130.424194,33.457797],[130.426941,33.45837],[130.426941,33.46238]]],[[[130.429688,33.452641],[130.440674,33.441755],[130.448914,33.437172],[130.45578,33.436599],[130.45784,33.431441],[130.456467,33.429149],[130.460587,33.429722],[130.461273,33.428576],[130.45784,33.425711],[130.45784,33.41998],[130.44754,33.419407],[130.444107,33.417687],[130.442734,33.419407],[130.44342,33.422272],[130.437241,33.425711],[130.435867,33.428576],[130.431061,33.432587],[130.431061,33.434306],[130.427628,33.436026],[130.425568,33.43889],[130.421448,33.438318],[130.418701,33.440036],[130.420761,33.446912],[130.426941,33.449204],[130.429688,33.452641]]]]}},{"type":"Feature","properties":{"layer_id":"bakumatsu_villages","name":"後野村","address":"筑前 那珂郡","source":"Geoshape 幕末期近世村領域データセット vector tiles (z7 extraction)","subarea_name":"近世村のおおよその範囲","feature_key":"village:K62G11S00017","accuracy_note":"2015年農業集落境界をもとに復元した概略範囲で、江戸時代の正確な村境ではありません"},"geometry":{"type":"Polygon","coordinates":[[[130.403595,33.513919],[130.408401,33.512202],[130.410461,33.512774],[130.411148,33.512202],[130.412521,33.512774],[130.415955,33.512202],[130.418701,33.508194],[130.420761,33.509339],[130.421448,33.508767],[130.418701,33.504187],[130.416641,33.503614],[130.416641,33.500179],[130.412521,33.496743],[130.402222,33.494453],[130.398102,33.495598],[130.395355,33.496743],[130.388489,33.504187],[130.388489,33.505904],[130.389175,33.508194],[130.390549,33.508767],[130.393295,33.506477],[130.396042,33.507622],[130.398102,33.513347],[130.400162,33.512202],[130.400848,33.513919],[130.403595,33.513919]]]}},{"type":"Feature","properties":{"layer_id":"bakumatsu_villages","name":"恵子村","address":"筑前 那珂郡","source":"Geoshape 幕末期近世村領域データセット vector tiles (z7 extraction)","subarea_name":"近世村のおおよその範囲","feature_key":"village:K62G11S00024","accuracy_note":"2015年農業集落境界をもとに復元した概略範囲で、江戸時代の正確な村境ではありません"},"geometry":{"type":"Polygon","coordinates":[[[130.419388,33.516782],[130.420074,33.514492],[130.418701,33.513347],[130.419388,33.509912],[130.418701,33.509339],[130.417328,33.511629],[130.417328,33.510484],[130.415955,33.512202],[130.412521,33.512774],[130.413895,33.516209],[130.415955,33.515637],[130.419388,33.516782]]]}},{"type":"Feature","properties":{"layer_id":"bakumatsu_villages","name":"成竹村","address":"筑前 那珂郡","source":"Geoshape 幕末期近世村領域データセット vector tiles (z7 extraction)","subarea_name":"近世村のおおよその範囲","feature_key":"village:K62G11S00013","accuracy_note":"2015年農業集落境界をもとに復元した概略範囲で、江戸時代の正確な村境ではありません"},"geometry":{"type":"MultiPolygon","coordinates":[[[[130.416641,33.47269],[130.422821,33.466962],[130.417328,33.46639],[130.414581,33.459516],[130.409088,33.452068],[130.399475,33.449777],[130.400848,33.452068],[130.403595,33.461234],[130.405655,33.462953],[130.406342,33.464671],[130.408401,33.465244],[130.410461,33.469826],[130.416641,33.47269]]],[[[130.422821,33.466962],[130.426254,33.464671],[130.426941,33.45837],[130.424194,33.457797],[130.424194,33.456651],[130.420074,33.45436],[130.419388,33.450349],[130.417328,33.449204],[130.415268,33.445766],[130.411148,33.443474],[130.411835,33.440036],[130.410461,33.439463],[130.410461,33.438318],[130.407028,33.437745],[130.404282,33.439463],[130.404282,33.440609],[130.402222,33.443474],[130.399475,33.443474],[130.398788,33.445766],[130.398788,33.449204],[130.401535,33.450922],[130.405655,33.450922],[130.409088,33.452068],[130.414581,33.459516],[130.418015,33.466962],[130.422821,33.466962]]]]}},{"type":"Feature","properties":{"layer_id":"bakumatsu_villages","name":"東隈村","address":"筑前 那珂郡","source":"Geoshape 幕末期近世村領域データセット vector tiles (z7 extraction)","subarea_name":"近世村のおおよその範囲","feature_key":"village:K62G11S00006","accuracy_note":"2015年農業集落境界をもとに復元した概略範囲で、江戸時代の正確な村境ではありません"},"geometry":{"type":"Polygon","coordinates":[[[130.426254,33.506477],[130.428314,33.504759],[130.423508,33.501324],[130.422821,33.503041],[130.420074,33.503041],[130.419388,33.504759],[130.420761,33.506477],[130.424194,33.505332],[130.426254,33.506477]]]}},{"type":"Feature","properties":{"layer_id":"bakumatsu_villages","name":"松木村","address":"筑前 那珂郡","source":"Geoshape 幕末期近世村領域データセット vector tiles (z7 extraction)","subarea_name":"近世村のおおよその範囲","feature_key":"village:K62G11S00020","accuracy_note":"2015年農業集落境界をもとに復元した概略範囲で、江戸時代の正確な村境ではありません"},"geometry":{"type":"Polygon","coordinates":[[[130.433807,33.516209],[130.436554,33.509339],[130.438614,33.509339],[130.439987,33.505904],[130.44136,33.506477],[130.446167,33.504187],[130.444794,33.503614],[130.44548,33.502469],[130.442047,33.500179],[130.437927,33.501324],[130.437927,33.505332],[130.435181,33.507049],[130.437241,33.504759],[130.435867,33.503614],[130.431747,33.511629],[130.429688,33.511629],[130.429688,33.515637],[130.433807,33.516209]]]}},{"type":"Feature","properties":{"layer_id":"bakumatsu_villages","name":"片繩村","address":"筑前 那珂郡","source":"Geoshape 幕末期近世村領域データセット vector tiles (z7 extraction)","subarea_name":"近世村のおおよその範囲","feature_key":"village:K62G11S00022","accuracy_note":"2015年農業集落境界をもとに復元した概略範囲で、江戸時代の正確な村境ではありません"},"geometry":{"type":"Polygon","coordinates":[[[130.426254,33.53052],[130.427628,33.525941],[130.423508,33.523079],[130.422821,33.521361],[130.424881,33.520217],[130.426254,33.520217],[130.427628,33.518499],[130.427628,33.515064],[130.420074,33.514492],[130.419388,33.516782],[130.415955,33.515637],[130.413895,33.516209],[130.412521,33.512774],[130.408401,33.512202],[130.403595,33.515064],[130.403595,33.518499],[130.407715,33.521934],[130.410461,33.522506],[130.412521,33.524796],[130.414581,33.524796],[130.416641,33.523651],[130.420074,33.528231],[130.424194,33.528803],[130.424881,33.529948],[130.426254,33.53052]]]}},{"type":"Feature","properties":{"layer_id":"bakumatsu_villages","name":"西畑村","address":"筑前 那珂郡","source":"Geoshape 幕末期近世村領域データセット vector tiles (z7 extraction)","subarea_name":"近世村のおおよその範囲","feature_key":"village:K62G11S00010","accuracy_note":"2015年農業集落境界をもとに復元した概略範囲で、江戸時代の正確な村境ではありません"},"geometry":{"type":"Polygon","coordinates":[[[130.376816,33.508194],[130.380249,33.507622],[130.381622,33.505904],[130.385742,33.507622],[130.388489,33.507049],[130.388489,33.504187],[130.391922,33.501324],[130.393295,33.498461],[130.399475,33.495025],[130.398788,33.492735],[130.402222,33.487008],[130.402222,33.485863],[130.400848,33.484717],[130.401535,33.482999],[130.398788,33.481854],[130.396042,33.482999],[130.395355,33.480709],[130.397415,33.476699],[130.400162,33.476127],[130.402222,33.474408],[130.397415,33.472117],[130.396042,33.473263],[130.392609,33.473263],[130.388489,33.471545],[130.385742,33.468681],[130.380936,33.480709],[130.381622,33.484145],[130.380936,33.489299],[130.378189,33.493307],[130.378876,33.496743],[130.370636,33.504759],[130.376816,33.508194]]]}},{"type":"Feature","properties":{"layer_id":"bakumatsu_villages","name":"西隈村","address":"筑前 那珂郡","source":"Geoshape 幕末期近世村領域データセット vector tiles (z7 extraction)","subarea_name":"近世村のおおよその範囲","feature_key":"village:K62G11S00007","accuracy_note":"2015年農業集落境界をもとに復元した概略範囲で、江戸時代の正確な村境ではありません"},"geometry":{"type":"Polygon","coordinates":[[[130.419388,33.504759],[130.420074,33.503041],[130.423508,33.502469],[130.424194,33.500179],[130.420074,33.496743],[130.418015,33.493307],[130.413895,33.49388],[130.412521,33.496743],[130.416641,33.500179],[130.416641,33.503614],[130.419388,33.504759]]]}},{"type":"Feature","properties":{"layer_id":"bakumatsu_villages","name":"道善村","address":"筑前 那珂郡","source":"Geoshape 幕末期近世村領域データセット vector tiles (z7 extraction)","subarea_name":"近世村のおおよその範囲","feature_key":"village:K62G11S00023","accuracy_note":"2015年農業集落境界をもとに復元した概略範囲で、江戸時代の正確な村境ではありません"},"geometry":{"type":"MultiPolygon","coordinates":[[[[130.419388,33.509339],[130.419388,33.509912],[130.418701,33.513347],[130.420074,33.514492],[130.427628,33.515064],[130.422821,33.509339],[130.419388,33.509339]]],[[[130.418701,33.509339],[130.417328,33.510484],[130.417328,33.511629],[130.418701,33.509339]]],[[[130.419388,33.509339],[130.419388,33.508194],[130.418701,33.509339],[130.419388,33.509339]]]]}},{"type":"Feature","properties":{"layer_id":"historical_sites_archaeology","name":"一岳城跡","address":"福岡県 那珂川市 大字成竹","source":"Geoshape 日本歴史地名大系 施設・地点項目データセット 2025-05-15","subarea_name":"城跡","feature_key":"05_castle_ruins.geojson:410000194300","subtype":"城跡"},"geometry":{"type":"Point","coordinates":[130.411184,33.440207]}},{"type":"Feature","properties":{"layer_id":"historical_sites_archaeology","name":"安徳台遺跡群","address":" 福岡県 那珂川市 大字安徳","source":"Geoshape 日本歴史地名大系 施設・地点項目データセット 2025-05-15","subarea_name":"遺跡","feature_key":"08_archaeological_sites.geojson:410000191900","subtype":"遺跡"},"geometry":{"type":"Point","coordinates":[130.425927,33.495984]}},{"type":"Feature","properties":{"layer_id":"historical_sites_archaeology","name":"山田西遺跡","address":"福岡県 那珂川市 山田","source":"Geoshape 日本歴史地名大系 施設・地点項目データセット 2025-05-15","subarea_name":"遺跡","feature_key":"08_archaeological_sites.geojson:410000193400","subtype":"遺跡"},"geometry":{"type":"Point","coordinates":[130.423616,33.482515]}},{"type":"Feature","properties":{"layer_id":"historical_sites_archaeology","name":"岩戸亀尾城跡","address":"福岡県 那珂川市 大字市ノ瀬","source":"Geoshape 日本歴史地名大系 施設・地点項目データセット 2025-05-15","subarea_name":"城跡","feature_key":"05_castle_ruins.geojson:410000194400","subtype":"城跡"},"geometry":{"type":"Point","coordinates":[130.422257,33.439602]}},{"type":"Feature","properties":{"layer_id":"historical_sites_archaeology","name":"岩門城跡","address":"福岡県 那珂川市 大字安徳","source":"Geoshape 日本歴史地名大系 施設・地点項目データセット 2025-05-15","subarea_name":"城跡","feature_key":"05_castle_ruins.geojson:410000192000","subtype":"城跡"},"geometry":{"type":"Point","coordinates":[130.429627,33.489223]}},{"type":"Feature","properties":{"layer_id":"historical_sites_archaeology","name":"深原遺跡","address":"福岡県 那珂川市 中原東二丁目","source":"Geoshape 日本歴史地名大系 施設・地点項目データセット 2025-05-15","subarea_name":"遺跡","feature_key":"08_archaeological_sites.geojson:410000192200","subtype":"遺跡"},"geometry":{"type":"Point","coordinates":[130.44097,33.506704]}},{"type":"Feature","properties":{"layer_id":"historical_sites_archaeology","name":"鷲ヶ岳城跡","address":"福岡県 筑紫郡那珂川市 大字南面里","source":"Geoshape 日本歴史地名大系 施設・地点項目データセット 2025-05-15","subarea_name":"城跡","feature_key":"05_castle_ruins.geojson:410000193700","subtype":"城跡"},"geometry":{"type":"Point","coordinates":[130.398966,33.46459]}}]}