{"type":"FeatureCollection","municipality_code":"40342","pref":"福岡県","city":"篠栗町","layer_counts":{"bakumatsu_villages":10,"historical_sites_archaeology":1,"historical_temples_shrines":2},"total_features":13,"features":[{"type":"Feature","properties":{"layer_id":"bakumatsu_villages","name":"乙犬村","address":"筑前 糟屋郡","source":"Geoshape 幕末期近世村領域データセット vector tiles (z7 extraction)","subarea_name":"近世村のおおよその範囲","feature_key":"village:K62G01S00016","accuracy_note":"2015年農業集落境界をもとに復元した概略範囲で、江戸時代の正確な村境ではありません"},"geometry":{"type":"Polygon","coordinates":[[[130.505219,33.623196],[130.506592,33.616907],[130.511398,33.616907],[130.518951,33.614047],[130.518951,33.612332],[130.515518,33.612904],[130.515518,33.610045],[130.514832,33.610616],[130.514832,33.607757],[130.513458,33.606613],[130.505219,33.612332],[130.500412,33.613476],[130.499039,33.615191],[130.499039,33.619766],[130.497665,33.621481],[130.505219,33.623196]]]}},{"type":"Feature","properties":{"layer_id":"bakumatsu_villages","name":"和田村","address":"筑前 糟屋郡","source":"Geoshape 幕末期近世村領域データセット vector tiles (z7 extraction)","subarea_name":"近世村のおおよその範囲","feature_key":"village:K62G01S00008","accuracy_note":"2015年農業集落境界をもとに復元した概略範囲で、江戸時代の正確な村境ではありません"},"geometry":{"type":"Polygon","coordinates":[[[130.508652,33.638633],[130.511398,33.636918],[130.510025,33.634631],[130.510712,33.633487],[130.508652,33.630629],[130.508652,33.623768],[130.497665,33.621481],[130.496979,33.623196],[130.499725,33.623196],[130.499725,33.626627],[130.499039,33.62777],[130.496292,33.62777],[130.495605,33.630057],[130.497665,33.635203],[130.506592,33.636918],[130.508652,33.638633]]]}},{"type":"Feature","properties":{"layer_id":"bakumatsu_villages","name":"尾仲村","address":"筑前 糟屋郡","source":"Geoshape 幕末期近世村領域データセット vector tiles (z7 extraction)","subarea_name":"近世村のおおよその範囲","feature_key":"village:K62G01S00015","accuracy_note":"2015年農業集落境界をもとに復元した概略範囲で、江戸時代の正確な村境ではありません"},"geometry":{"type":"MultiPolygon","coordinates":[[[[130.513458,33.62434],[130.514145,33.623768],[130.518265,33.623768],[130.518265,33.622624],[130.516205,33.622624],[130.516891,33.622053],[130.519638,33.615763],[130.521011,33.615763],[130.521698,33.614619],[130.520325,33.614619],[130.519638,33.613476],[130.519638,33.614619],[130.518951,33.614047],[130.511398,33.616907],[130.506592,33.616907],[130.505905,33.623196],[130.513458,33.62434]]],[[[130.521698,33.624912],[130.524445,33.618622],[130.522385,33.61805],[130.522385,33.616907],[130.521011,33.616907],[130.519638,33.615763],[130.516205,33.622624],[130.518265,33.622624],[130.518265,33.623768],[130.514145,33.623768],[130.513458,33.62434],[130.521698,33.624912]]],[[[130.523758,33.625483],[130.525131,33.621481],[130.523758,33.620909],[130.521011,33.62434],[130.521698,33.624912],[130.523758,33.625483]]]]}},{"type":"Feature","properties":{"layer_id":"bakumatsu_villages","name":"津波黒村","address":"筑前 糟屋郡","source":"Geoshape 幕末期近世村領域データセット vector tiles (z7 extraction)","subarea_name":"近世村のおおよその範囲","feature_key":"village:K62G01S00009","accuracy_note":"2015年農業集落境界をもとに復元した概略範囲で、江戸時代の正確な村境ではありません"},"geometry":{"type":"Polygon","coordinates":[[[130.515518,33.639776],[130.519638,33.638061],[130.523758,33.639204],[130.525131,33.638061],[130.527191,33.638061],[130.527878,33.636918],[130.525818,33.634631],[130.524445,33.628914],[130.523071,33.628914],[130.523758,33.626627],[130.515518,33.629485],[130.514145,33.62777],[130.512772,33.62777],[130.513458,33.62434],[130.508652,33.623768],[130.508652,33.630629],[130.510712,33.633487],[130.510025,33.634631],[130.511398,33.636918],[130.513458,33.639776],[130.515518,33.639776]]]}},{"type":"Feature","properties":{"layer_id":"bakumatsu_villages","name":"田仲村","address":"筑前 糟屋郡","source":"Geoshape 幕末期近世村領域データセット vector tiles (z7 extraction)","subarea_name":"近世村のおおよその範囲","feature_key":"village:K62G01S00013","accuracy_note":"2015年農業集落境界をもとに復元した概略範囲で、江戸時代の正確な村境ではありません"},"geometry":{"type":"Polygon","coordinates":[[[130.516205,33.629485],[130.517578,33.628342],[130.523758,33.626627],[130.523758,33.625483],[130.513458,33.62434],[130.512772,33.62777],[130.516205,33.629485]]]}},{"type":"Feature","properties":{"layer_id":"bakumatsu_villages","name":"篠栗村","address":"筑前 糟屋郡","source":"Geoshape 幕末期近世村領域データセット vector tiles (z7 extraction)","subarea_name":"近世村のおおよその範囲","feature_key":"village:K62G01S00014","accuracy_note":"2015年農業集落境界をもとに復元した概略範囲で、江戸時代の正確な村境ではありません"},"geometry":{"type":"MultiPolygon","coordinates":[[[[130.523758,33.627199],[130.527191,33.626055],[130.528564,33.62434],[130.528564,33.620909],[130.524445,33.618622],[130.523758,33.620909],[130.525131,33.621481],[130.523758,33.627199]]],[[[130.530624,33.626055],[130.532684,33.624912],[130.532684,33.622624],[130.531998,33.622053],[130.536118,33.616335],[130.537491,33.615763],[130.538177,33.612904],[130.540237,33.611188],[130.541611,33.60547],[130.536118,33.606613],[130.531311,33.615191],[130.525131,33.617478],[130.524445,33.618622],[130.528564,33.620909],[130.527878,33.625483],[130.527191,33.626055],[130.530624,33.626055]]],[[[130.532684,33.624912],[130.535431,33.62434],[130.540924,33.622053],[130.544357,33.622053],[130.545731,33.615763],[130.542297,33.61176],[130.541611,33.60547],[130.540237,33.611188],[130.538177,33.612904],[130.537491,33.615763],[130.536118,33.616335],[130.531998,33.622053],[130.532684,33.624912]]],[[[130.553284,33.624912],[130.553284,33.623196],[130.552597,33.623196],[130.55191,33.622053],[130.555344,33.622053],[130.555344,33.620909],[130.55397,33.616335],[130.555344,33.606041],[130.557404,33.599751],[130.550537,33.599179],[130.546417,33.597463],[130.545731,33.601466],[130.543671,33.602038],[130.541611,33.60547],[130.542297,33.61176],[130.545731,33.615763],[130.544357,33.622053],[130.551224,33.623196],[130.553284,33.624912]]],[[[130.565643,33.647779],[130.569077,33.644349],[130.57251,33.641491],[130.57457,33.638633],[130.573196,33.635774],[130.575943,33.632344],[130.57045,33.62777],[130.56633,33.626055],[130.567017,33.622053],[130.564957,33.620909],[130.567017,33.619766],[130.569763,33.616907],[130.57045,33.614619],[130.567017,33.610616],[130.567017,33.607185],[130.56633,33.604898],[130.562897,33.603182],[130.560837,33.600894],[130.55809,33.599751],[130.555344,33.604898],[130.55397,33.61176],[130.55397,33.617478],[130.555344,33.620909],[130.555344,33.622053],[130.55191,33.622053],[130.552597,33.623196],[130.553284,33.623196],[130.55397,33.627199],[130.551224,33.635203],[130.552597,33.636918],[130.55191,33.642063],[130.555344,33.644349],[130.565643,33.647779]]],[[[130.57457,33.638633],[130.577316,33.638061],[130.582123,33.633487],[130.585556,33.632344],[130.586929,33.626627],[130.584183,33.620909],[130.582809,33.620337],[130.584183,33.619194],[130.591049,33.619194],[130.593796,33.616907],[130.596542,33.616335],[130.598602,33.613476],[130.596542,33.612904],[130.584869,33.602038],[130.584869,33.603754],[130.581436,33.608329],[130.580063,33.603182],[130.569077,33.607185],[130.567017,33.607185],[130.567017,33.610616],[130.57045,33.614619],[130.57045,33.616907],[130.567017,33.619766],[130.564957,33.620909],[130.567017,33.622053],[130.56633,33.626055],[130.57045,33.62777],[130.575943,33.632344],[130.573196,33.635774],[130.57457,33.638633]]]]}},{"type":"Feature","properties":{"layer_id":"bakumatsu_villages","name":"若杉村","address":"筑前 糟屋郡","source":"Geoshape 幕末期近世村領域データセット vector tiles (z7 extraction)","subarea_name":"近世村のおおよその範囲","feature_key":"village:K62G01S00017","accuracy_note":"2015年農業集落境界をもとに復元した概略範囲で、江戸時代の正確な村境ではありません"},"geometry":{"type":"Polygon","coordinates":[[[130.523758,33.618622],[130.525131,33.617478],[130.531311,33.615191],[130.536118,33.606613],[130.542297,33.60547],[130.543671,33.602038],[130.545731,33.601466],[130.546417,33.597463],[130.535431,33.595747],[130.530624,33.600894],[130.524445,33.600894],[130.522385,33.602038],[130.516205,33.603182],[130.513458,33.606613],[130.514832,33.607757],[130.514832,33.610616],[130.515518,33.610045],[130.515518,33.612904],[130.518951,33.612332],[130.518951,33.614619],[130.519638,33.613476],[130.520325,33.614619],[130.521698,33.614619],[130.521011,33.616907],[130.522385,33.616907],[130.522385,33.61805],[130.523758,33.618622]]]}},{"type":"Feature","properties":{"layer_id":"bakumatsu_villages","name":"萩尾村","address":"筑前 糟屋郡","source":"Geoshape 幕末期近世村領域データセット vector tiles (z7 extraction)","subarea_name":"近世村のおおよその範囲","feature_key":"village:K62G01S00003","accuracy_note":"2015年農業集落境界をもとに復元した概略範囲で、江戸時代の正確な村境ではありません"},"geometry":{"type":"Polygon","coordinates":[[[130.561523,33.666068],[130.565643,33.665497],[130.57045,33.663782],[130.575256,33.658067],[130.573883,33.654638],[130.571136,33.653495],[130.565643,33.647779],[130.555344,33.644349],[130.54985,33.641491],[130.545731,33.646636],[130.547791,33.647207],[130.547104,33.652923],[130.548477,33.654638],[130.548477,33.656924],[130.554657,33.659782],[130.560837,33.663782],[130.561523,33.666068]]]}},{"type":"Feature","properties":{"layer_id":"bakumatsu_villages","name":"金出村","address":"筑前 糟屋郡","source":"Geoshape 幕末期近世村領域データセット vector tiles (z7 extraction)","subarea_name":"近世村のおおよその範囲","feature_key":"village:K62G01S00011","accuracy_note":"2015年農業集落境界をもとに復元した概略範囲で、江戸時代の正確な村境ではありません"},"geometry":{"type":"Polygon","coordinates":[[[130.545731,33.646636],[130.549164,33.641491],[130.55191,33.642063],[130.552597,33.636918],[130.551224,33.635203],[130.55397,33.627199],[130.553284,33.624912],[130.551224,33.623196],[130.541611,33.622053],[130.531998,33.625483],[130.533371,33.628914],[130.531311,33.632344],[130.533371,33.634059],[130.534058,33.637489],[130.535431,33.639204],[130.536804,33.643777],[130.538177,33.643777],[130.540237,33.644921],[130.542984,33.644349],[130.545731,33.646636]]]}},{"type":"Feature","properties":{"layer_id":"bakumatsu_villages","name":"高田村","address":"筑前 糟屋郡","source":"Geoshape 幕末期近世村領域データセット vector tiles (z7 extraction)","subarea_name":"近世村のおおよその範囲","feature_key":"village:K62G01S00010","accuracy_note":"2015年農業集落境界をもとに復元した概略範囲で、江戸時代の正確な村境ではありません"},"geometry":{"type":"Polygon","coordinates":[[[130.534058,33.637489],[130.533371,33.634059],[130.531311,33.632344],[130.533371,33.630057],[130.532684,33.627199],[130.531998,33.625483],[130.527191,33.626055],[130.523758,33.626627],[130.523071,33.628914],[130.524445,33.628914],[130.525818,33.634631],[130.527878,33.636918],[130.534058,33.637489]]]}},{"type":"Feature","properties":{"layer_id":"historical_sites_archaeology","name":"高鳥居城跡","address":"福岡県 糟屋郡篠栗町 大字若杉","source":"Geoshape 日本歴史地名大系 施設・地点項目データセット 2025-05-15","subarea_name":"城跡","feature_key":"05_castle_ruins.geojson:410000131500","subtype":"城跡"},"geometry":{"type":"Point","coordinates":[130.525002,33.610757]}},{"type":"Feature","properties":{"layer_id":"historical_temples_shrines","name":"南蔵院","address":"福岡県 糟屋郡篠栗町 大字篠栗1035番地","source":"Geoshape 日本歴史地名大系 施設・地点項目データセット 2025-05-15","subarea_name":"寺院","feature_key":"01_temples.geojson:410000131800","subtype":"寺院"},"geometry":{"type":"Point","coordinates":[130.572952,33.619972]}},{"type":"Feature","properties":{"layer_id":"historical_temples_shrines","name":"太祖権現社","address":"福岡県 糟屋郡篠栗町 大字若杉","source":"Geoshape 日本歴史地名大系 施設・地点項目データセット 2025-05-15","subarea_name":"神社","feature_key":"02_shrines.geojson:410000131300","subtype":"神社"},"geometry":{"type":"Point","coordinates":[130.520965,33.611559]}}]}