{"type":"FeatureCollection","municipality_code":"40503","pref":"福岡県","city":"大刀洗町","layer_counts":{"bakumatsu_villages":18,"historical_sites_archaeology":2,"historical_temples_shrines":2},"total_features":22,"features":[{"type":"Feature","properties":{"layer_id":"bakumatsu_villages","name":"上高橋村","address":"筑後 御原郡","source":"Geoshape 幕末期近世村領域データセット vector tiles (z7 extraction)","subarea_name":"近世村のおおよその範囲","feature_key":"village:K63G10S00029","accuracy_note":"2015年農業集落境界をもとに復元した概略範囲で、江戸時代の正確な村境ではありません"},"geometry":{"type":"Polygon","coordinates":[[[130.605469,33.379853],[130.605469,33.373545],[130.606842,33.373545],[130.605469,33.371825],[130.593796,33.371252],[130.595169,33.371825],[130.595169,33.372398],[130.593796,33.372398],[130.595169,33.372972],[130.594482,33.379279],[130.602722,33.379279],[130.602722,33.379853],[130.605469,33.379853]]]}},{"type":"Feature","properties":{"layer_id":"bakumatsu_villages","name":"下高橋村","address":"筑後 御原郡","source":"Geoshape 幕末期近世村領域データセット vector tiles (z7 extraction)","subarea_name":"近世村のおおよその範囲","feature_key":"village:K63G10S00020","accuracy_note":"2015年農業集落境界をもとに復元した概略範囲で、江戸時代の正確な村境ではありません"},"geometry":{"type":"Polygon","coordinates":[[[130.591049,33.397052],[130.590363,33.383866],[130.591736,33.371825],[130.593796,33.371825],[130.593796,33.370678],[130.590363,33.370105],[130.590363,33.367237],[130.57869,33.367237],[130.57869,33.369531],[130.577316,33.369531],[130.578003,33.374119],[130.582123,33.380426],[130.582809,33.383293],[130.584869,33.38444],[130.585556,33.38616],[130.586929,33.386733],[130.588989,33.394186],[130.591049,33.397052]]]}},{"type":"Feature","properties":{"layer_id":"bakumatsu_villages","name":"今村","address":"筑後 御原郡","source":"Geoshape 幕末期近世村領域データセット vector tiles (z7 extraction)","subarea_name":"近世村のおおよその範囲","feature_key":"village:K63G10S00030","accuracy_note":"2015年農業集落境界をもとに復元した概略範囲で、江戸時代の正確な村境ではありません"},"geometry":{"type":"Polygon","coordinates":[[[130.605469,33.371825],[130.605469,33.367237],[130.590363,33.367237],[130.590363,33.370105],[130.593796,33.370678],[130.593796,33.371252],[130.605469,33.371825]]]}},{"type":"Feature","properties":{"layer_id":"bakumatsu_villages","name":"守部村","address":"筑後 御井郡","source":"Geoshape 幕末期近世村領域データセット vector tiles (z7 extraction)","subarea_name":"近世村のおおよその範囲","feature_key":"village:K63G09S00037","accuracy_note":"2015年農業集落境界をもとに復元した概略範囲で、江戸時代の正確な村境ではありません"},"geometry":{"type":"MultiPolygon","coordinates":[[[[130.632248,33.364944],[130.634308,33.36265],[130.634995,33.363223],[130.635681,33.361503],[130.635681,33.360356],[130.632935,33.359782],[130.634995,33.355767],[130.630875,33.3529],[130.628815,33.355767],[130.626755,33.36265],[130.632248,33.36265],[130.632248,33.364944]]],[[[130.632248,33.364944],[130.631561,33.366664],[130.630188,33.366664],[130.630188,33.367811],[130.631561,33.368958],[130.631561,33.367811],[130.633621,33.367811],[130.634995,33.368958],[130.636368,33.368958],[130.636368,33.367811],[130.633621,33.366091],[130.632248,33.366664],[130.632248,33.364944]]]]}},{"type":"Feature","properties":{"layer_id":"bakumatsu_villages","name":"山隈村","address":"筑後 御原郡","source":"Geoshape 幕末期近世村領域データセット vector tiles (z7 extraction)","subarea_name":"近世村のおおよその範囲","feature_key":"village:K63G10S00019","accuracy_note":"2015年農業集落境界をもとに復元した概略範囲で、江戸時代の正確な村境ではありません"},"geometry":{"type":"MultiPolygon","coordinates":[[[[130.598602,33.423418],[130.599976,33.421126],[130.604782,33.419407],[130.609589,33.412529],[130.597916,33.409663],[130.597916,33.41081],[130.597229,33.41081],[130.596542,33.413675],[130.595856,33.413675],[130.597916,33.423418],[130.598602,33.423418]]],[[[130.596542,33.413675],[130.597229,33.41081],[130.597916,33.41081],[130.597916,33.409663],[130.599289,33.410236],[130.597916,33.403358],[130.592422,33.402785],[130.591049,33.401065],[130.590363,33.406797],[130.587616,33.40737],[130.586929,33.408517],[130.588989,33.40909],[130.589676,33.41081],[130.591049,33.410236],[130.595169,33.411956],[130.595856,33.413675],[130.596542,33.413675]]],[[[130.602722,33.41081],[130.600662,33.405651],[130.602722,33.404504],[130.599976,33.402212],[130.600662,33.399919],[130.596542,33.403358],[130.597916,33.403358],[130.599289,33.410236],[130.602722,33.41081]]],[[[130.608902,33.412529],[130.611649,33.411383],[130.612335,33.410236],[130.610275,33.40909],[130.608215,33.406224],[130.605469,33.405078],[130.604095,33.403358],[130.600662,33.405651],[130.602722,33.41081],[130.608902,33.412529]]],[[[130.612335,33.410236],[130.611649,33.40909],[130.618515,33.402212],[130.615082,33.399919],[130.610275,33.395906],[130.609589,33.393613],[130.606842,33.390746],[130.600662,33.390746],[130.599289,33.391893],[130.600662,33.395906],[130.598602,33.399345],[130.599289,33.401065],[130.600662,33.399919],[130.599976,33.402212],[130.602722,33.404504],[130.604095,33.403358],[130.605469,33.405078],[130.608215,33.406224],[130.610275,33.40909],[130.612335,33.410236]]],[[[130.612335,33.410236],[130.611649,33.413102],[130.612335,33.414249],[130.613022,33.41081],[130.612335,33.410236]]]]}},{"type":"Feature","properties":{"layer_id":"bakumatsu_villages","name":"平田村・小島村","address":"筑後 御原郡","source":"Geoshape 幕末期近世村領域データセット vector tiles (z7 extraction)","subarea_name":"近世村のおおよその範囲","feature_key":"village:K63G10S00031,K63G10S00032","accuracy_note":"2015年農業集落境界をもとに復元した概略範囲で、江戸時代の正確な村境ではありません"},"geometry":{"type":"Polygon","coordinates":[[[130.614395,33.38272],[130.615082,33.377559],[130.614395,33.375266],[130.610962,33.374692],[130.611649,33.372972],[130.608215,33.372972],[130.608215,33.371825],[130.605469,33.371825],[130.606842,33.373545],[130.605469,33.373545],[130.605469,33.382146],[130.612335,33.382146],[130.612335,33.38272],[130.614395,33.38272]]]}},{"type":"Feature","properties":{"layer_id":"bakumatsu_villages","name":"床島村","address":"筑後 竹野郡","source":"Geoshape 幕末期近世村領域データセット vector tiles (z7 extraction)","subarea_name":"近世村のおおよその範囲","feature_key":"village:K63G07S00047","accuracy_note":"2015年農業集落境界をもとに復元した概略範囲で、江戸時代の正確な村境ではありません"},"geometry":{"type":"Polygon","coordinates":[[[130.652161,33.369531],[130.653534,33.368958],[130.653534,33.367811],[130.657654,33.366664],[130.65834,33.365517],[130.66658,33.36265],[130.66452,33.36265],[130.651474,33.363223],[130.647354,33.362076],[130.649414,33.368384],[130.651474,33.368384],[130.652161,33.369531]]]}},{"type":"Feature","properties":{"layer_id":"bakumatsu_villages","name":"徳次村・松木村・吉竹村・菅野村・友光村・千原村","address":"筑後 御井郡","source":"Geoshape 幕末期近世村領域データセット vector tiles (z7 extraction)","subarea_name":"近世村のおおよその範囲","feature_key":"village:K63G09S00067,K63G09S00068,K63G09S00069,K63G09S00070,K63G09S00071,K63G09S00072","accuracy_note":"2015年農業集落境界をもとに復元した概略範囲で、江戸時代の正確な村境ではありません"},"geometry":{"type":"MultiPolygon","coordinates":[[[[130.630188,33.366664],[130.628815,33.367237],[130.628128,33.369531],[130.626755,33.370105],[130.628815,33.374119],[130.638428,33.374119],[130.639114,33.371825],[130.647354,33.372972],[130.645981,33.370678],[130.638428,33.370678],[130.637054,33.368384],[130.634995,33.368958],[130.633621,33.367811],[130.631561,33.367811],[130.631561,33.368958],[130.630188,33.366664]]],[[[130.630188,33.366664],[130.631561,33.366664],[130.632248,33.363797],[130.629501,33.365517],[130.630188,33.366091],[130.630188,33.366664]]]]}},{"type":"Feature","properties":{"layer_id":"bakumatsu_villages","name":"本郷村","address":"筑後 御原郡","source":"Geoshape 幕末期近世村領域データセット vector tiles (z7 extraction)","subarea_name":"近世村のおおよその範囲","feature_key":"village:K63G10S00035","accuracy_note":"2015年農業集落境界をもとに復元した概略範囲で、江戸時代の正確な村境ではありません"},"geometry":{"type":"Polygon","coordinates":[[[130.630188,33.382146],[130.630188,33.380999],[130.631561,33.380426],[130.634308,33.380999],[130.634308,33.376986],[130.632935,33.374119],[130.628128,33.374119],[130.626068,33.375839],[130.624695,33.375839],[130.624695,33.376986],[130.625381,33.376986],[130.626068,33.382146],[130.630188,33.382146]]]}},{"type":"Feature","properties":{"layer_id":"bakumatsu_villages","name":"本郷町","address":"筑後 御原郡","source":"Geoshape 幕末期近世村領域データセット vector tiles (z7 extraction)","subarea_name":"近世村のおおよその範囲","feature_key":"village:K63G10S00034","accuracy_note":"2015年農業集落境界をもとに復元した概略範囲で、江戸時代の正確な村境ではありません"},"geometry":{"type":"MultiPolygon","coordinates":[[[[130.615082,33.399919],[130.618515,33.395906],[130.624008,33.394759],[130.621948,33.38616],[130.619888,33.385013],[130.617828,33.381573],[130.618515,33.378133],[130.617142,33.377559],[130.619888,33.375839],[130.617828,33.375839],[130.617828,33.373545],[130.614395,33.373545],[130.613708,33.372972],[130.611649,33.372972],[130.610962,33.374692],[130.614395,33.375266],[130.615082,33.377559],[130.614395,33.383866],[130.613708,33.383866],[130.613022,33.38616],[130.615082,33.387306],[130.615768,33.391893],[130.612335,33.397626],[130.615082,33.399919]]],[[[130.626068,33.387306],[130.628815,33.385586],[130.626068,33.382146],[130.625381,33.376986],[130.624695,33.376986],[130.624695,33.375839],[130.619888,33.375839],[130.617142,33.377559],[130.618515,33.378133],[130.617828,33.381573],[130.621948,33.387306],[130.626068,33.387306]]],[[[130.624008,33.394759],[130.624008,33.391893],[130.625381,33.390746],[130.629501,33.390746],[130.634308,33.389026],[130.632248,33.38616],[130.633621,33.380999],[130.631561,33.380426],[130.630188,33.380999],[130.630188,33.382146],[130.626068,33.382146],[130.628815,33.385586],[130.626068,33.387306],[130.622635,33.387306],[130.623322,33.394186],[130.624008,33.394759]]]]}},{"type":"Feature","properties":{"layer_id":"bakumatsu_villages","name":"江戸村・新田村・下川村","address":"筑後 御井郡","source":"Geoshape 幕末期近世村領域データセット vector tiles (z7 extraction)","subarea_name":"近世村のおおよその範囲","feature_key":"village:K63G09S00064,K63G09S00065,K63G09S00066","accuracy_note":"2015年農業集落境界をもとに復元した概略範囲で、江戸時代の正確な村境ではありません"},"geometry":{"type":"Polygon","coordinates":[[[130.626068,33.375839],[130.627441,33.374119],[130.628815,33.374119],[130.626755,33.370105],[130.628128,33.369531],[130.628815,33.367237],[130.623322,33.368958],[130.621948,33.367811],[130.616455,33.367811],[130.611649,33.366664],[130.612335,33.368958],[130.605469,33.368958],[130.605469,33.371825],[130.608215,33.371825],[130.608215,33.372972],[130.613708,33.372972],[130.614395,33.373545],[130.617828,33.373545],[130.617828,33.375839],[130.626068,33.375839]]]}},{"type":"Feature","properties":{"layer_id":"bakumatsu_villages","name":"甲条村","address":"筑後 御原郡","source":"Geoshape 幕末期近世村領域データセット vector tiles (z7 extraction)","subarea_name":"近世村のおおよその範囲","feature_key":"village:K63G10S00033","accuracy_note":"2015年農業集落境界をもとに復元した概略範囲で、江戸時代の正確な村境ではありません"},"geometry":{"type":"Polygon","coordinates":[[[130.612335,33.397626],[130.615768,33.391893],[130.615082,33.387306],[130.613022,33.38616],[130.614395,33.38272],[130.612335,33.38272],[130.612335,33.382146],[130.605469,33.382146],[130.605469,33.386733],[130.606842,33.391319],[130.609589,33.393613],[130.610275,33.395906],[130.612335,33.397626]]]}},{"type":"Feature","properties":{"layer_id":"bakumatsu_villages","name":"稲数村","address":"筑後 御原郡","source":"Geoshape 幕末期近世村領域データセット vector tiles (z7 extraction)","subarea_name":"近世村のおおよその範囲","feature_key":"village:K63G10S00036","accuracy_note":"2015年農業集落境界をもとに復元した概略範囲で、江戸時代の正確な村境ではありません"},"geometry":{"type":"MultiPolygon","coordinates":[[[[130.634308,33.389026],[130.638428,33.38788],[130.638428,33.380999],[130.639801,33.380999],[130.639114,33.379279],[130.641174,33.379279],[130.641174,33.376986],[130.641861,33.376986],[130.640488,33.374119],[130.639114,33.373545],[130.638428,33.374119],[130.632935,33.374119],[130.634308,33.376986],[130.634308,33.380999],[130.632248,33.38616],[130.634308,33.389026]]],[[[130.638428,33.38788],[130.644608,33.387306],[130.644608,33.38616],[130.645294,33.38616],[130.645294,33.383866],[130.646667,33.383866],[130.645981,33.38272],[130.643234,33.377559],[130.642548,33.378133],[130.641861,33.376986],[130.641174,33.376986],[130.641174,33.379279],[130.639114,33.379279],[130.639801,33.380999],[130.638428,33.380999],[130.638428,33.38788]]]]}},{"type":"Feature","properties":{"layer_id":"bakumatsu_villages","name":"西原村","address":"筑後 御井郡","source":"Geoshape 幕末期近世村領域データセット vector tiles (z7 extraction)","subarea_name":"近世村のおおよその範囲","feature_key":"village:K63G09S00038","accuracy_note":"2015年農業集落境界をもとに復元した概略範囲で、江戸時代の正確な村境ではありません"},"geometry":{"type":"Polygon","coordinates":[[[130.636368,33.368958],[130.637054,33.368384],[130.637054,33.362076],[130.641861,33.361503],[130.642548,33.360356],[130.634308,33.355194],[130.632935,33.359782],[130.635681,33.360356],[130.635681,33.361503],[130.634995,33.363223],[130.632248,33.363797],[130.632248,33.366664],[130.634995,33.366664],[130.636368,33.368958]]]}},{"type":"Feature","properties":{"layer_id":"bakumatsu_villages","name":"高樋村","address":"筑後 御原郡","source":"Geoshape 幕末期近世村領域データセット vector tiles (z7 extraction)","subarea_name":"近世村のおおよその範囲","feature_key":"village:K63G10S00018","accuracy_note":"2015年農業集落境界をもとに復元した概略範囲で、江戸時代の正確な村境ではありません"},"geometry":{"type":"Polygon","coordinates":[[[130.599289,33.397626],[130.600662,33.395906],[130.599289,33.391893],[130.600662,33.390746],[130.606842,33.390746],[130.605469,33.386733],[130.605469,33.379853],[130.602722,33.379853],[130.602722,33.379279],[130.594482,33.379279],[130.594482,33.38616],[130.592422,33.38616],[130.590363,33.383866],[130.591736,33.394186],[130.594482,33.394186],[130.595169,33.397052],[130.599289,33.397626]]]}},{"type":"Feature","properties":{"layer_id":"bakumatsu_villages","name":"高食村","address":"筑後 竹野郡","source":"Geoshape 幕末期近世村領域データセット vector tiles (z7 extraction)","subarea_name":"近世村のおおよその範囲","feature_key":"village:K63G07S00048","accuracy_note":"2015年農業集落境界をもとに復元した概略範囲で、江戸時代の正確な村境ではありません"},"geometry":{"type":"Polygon","coordinates":[[[130.652161,33.374119],[130.654221,33.372398],[130.651474,33.368384],[130.649414,33.368384],[130.649414,33.370105],[130.646667,33.370105],[130.646667,33.371825],[130.648727,33.373545],[130.652161,33.374119]]]}},{"type":"Feature","properties":{"layer_id":"bakumatsu_villages","name":"鳥飼村","address":"筑後 竹野郡","source":"Geoshape 幕末期近世村領域データセット vector tiles (z7 extraction)","subarea_name":"近世村のおおよその範囲","feature_key":"village:K63G07S00049","accuracy_note":"2015年農業集落境界をもとに復元した概略範囲で、江戸時代の正確な村境ではありません"},"geometry":{"type":"Polygon","coordinates":[[[130.646667,33.371252],[130.646667,33.370105],[130.649414,33.370105],[130.649414,33.367811],[130.648041,33.363797],[130.647354,33.362076],[130.642548,33.360356],[130.641861,33.361503],[130.637054,33.362076],[130.637054,33.368384],[130.638428,33.370678],[130.646667,33.371252]]]}},{"type":"Feature","properties":{"layer_id":"bakumatsu_villages","name":"鵜木村","address":"筑後 御原郡","source":"Geoshape 幕末期近世村領域データセット vector tiles (z7 extraction)","subarea_name":"近世村のおおよその範囲","feature_key":"village:K63G10S00017","accuracy_note":"2015年農業集落境界をもとに復元した概略範囲で、江戸時代の正確な村境ではありません"},"geometry":{"type":"MultiPolygon","coordinates":[[[[130.596542,33.403358],[130.597229,33.403358],[130.599289,33.401065],[130.599289,33.397626],[130.595856,33.398199],[130.595169,33.397052],[130.594482,33.394186],[130.591736,33.394186],[130.591049,33.401065],[130.592422,33.402785],[130.596542,33.403358]]],[[[130.594482,33.38616],[130.594482,33.379279],[130.595169,33.372972],[130.593796,33.372398],[130.595169,33.372398],[130.595169,33.371825],[130.592422,33.371252],[130.591049,33.383293],[130.592422,33.38616],[130.594482,33.38616]]]]}},{"type":"Feature","properties":{"layer_id":"historical_sites_archaeology","name":"三原城跡","address":"福岡県 三井郡大刀洗町 大字本郷","source":"Geoshape 日本歴史地名大系 施設・地点項目データセット 2025-05-15","subarea_name":"城跡","feature_key":"05_castle_ruins.geojson:410000261200","subtype":"城跡"},"geometry":{"type":"Point","coordinates":[130.622612,33.385694]}},{"type":"Feature","properties":{"layer_id":"historical_sites_archaeology","name":"下高橋官衙遺跡","address":"福岡県 三井郡大刀洗町 大字下高橋","source":"Geoshape 日本歴史地名大系 施設・地点項目データセット 2025-05-15","subarea_name":"遺跡","feature_key":"08_archaeological_sites.geojson:410000262300","subtype":"遺跡"},"geometry":{"type":"Point","coordinates":[130.589507,33.388254]}},{"type":"Feature","properties":{"layer_id":"historical_temples_shrines","name":"大堰神社","address":"福岡県 三井郡大刀洗町 大字冨多1302番地","source":"Geoshape 日本歴史地名大系 施設・地点項目データセット 2025-05-15","subarea_name":"神社","feature_key":"02_shrines.geojson:410000262800","subtype":"神社"},"geometry":{"type":"Point","coordinates":[130.627228,33.371017]}},{"type":"Feature","properties":{"layer_id":"historical_temples_shrines","name":"高良玉垂神社","address":"福岡県 柳川市 大字上宮永字石橋922の1番地","source":"Geoshape 日本歴史地名大系 施設・地点項目データセット 2025-05-15","subarea_name":"神社","feature_key":"02_shrines.geojson:410000261300","subtype":"神社"},"geometry":{"type":"Point","coordinates":[130.62268,33.383517]}}]}