{"type":"FeatureCollection","municipality_code":"44209","pref":"大分県","city":"豊後高田市","layer_counts":{"bakumatsu_villages":80,"historical_sites_archaeology":18,"historical_temples_shrines":17},"total_features":115,"features":[{"type":"Feature","properties":{"layer_id":"bakumatsu_villages","name":"一畑村","address":"豊後 国東郡","source":"Geoshape 幕末期近世村領域データセット vector tiles (z7 extraction)","subarea_name":"近世村のおおよその範囲","feature_key":"village:K59G01S00035","accuracy_note":"2015年農業集落境界をもとに復元した概略範囲で、江戸時代の正確な村境ではありません"},"geometry":{"type":"MultiPolygon","coordinates":[[[[131.567459,33.565428],[131.581879,33.55799],[131.576385,33.556846],[131.575699,33.555129],[131.574326,33.554557],[131.570206,33.550551],[131.567459,33.55799],[131.561279,33.558562],[131.567459,33.565428]]],[[[131.590805,33.582591],[131.592865,33.581447],[131.594925,33.581447],[131.596298,33.577443],[131.593552,33.57115],[131.594925,33.568289],[131.592865,33.567145],[131.592178,33.563712],[131.590118,33.559707],[131.588745,33.559134],[131.585999,33.559707],[131.581879,33.55799],[131.567459,33.565428],[131.568146,33.566],[131.573639,33.570005],[131.575699,33.573438],[131.585312,33.577443],[131.587372,33.580303],[131.590805,33.582591]]]]}},{"type":"Feature","properties":{"layer_id":"bakumatsu_villages","name":"三畑村","address":"豊後 国東郡","source":"Geoshape 幕末期近世村領域データセット vector tiles (z7 extraction)","subarea_name":"近世村のおおよその範囲","feature_key":"village:K59G01S00072","accuracy_note":"2015年農業集落境界をもとに復元した概略範囲で、江戸時代の正確な村境ではありません"},"geometry":{"type":"Polygon","coordinates":[[[131.574326,33.594031],[131.577759,33.591743],[131.577759,33.586595],[131.579132,33.583735],[131.578445,33.583735],[131.572952,33.576871],[131.568146,33.575726],[131.566086,33.577443],[131.568832,33.579159],[131.568832,33.580303],[131.566086,33.580875],[131.566772,33.582591],[131.566086,33.584307],[131.569519,33.584307],[131.569519,33.586595],[131.567459,33.586023],[131.565399,33.587739],[131.563339,33.587739],[131.562653,33.589455],[131.564713,33.590599],[131.574326,33.594031]]]}},{"type":"Feature","properties":{"layer_id":"bakumatsu_villages","name":"上来繩村","address":"豊後 国東郡","source":"Geoshape 幕末期近世村領域データセット vector tiles (z7 extraction)","subarea_name":"近世村のおおよその範囲","feature_key":"village:K59G01S00011","accuracy_note":"2015年農業集落境界をもとに復元した概略範囲で、江戸時代の正確な村境ではありません"},"geometry":{"type":"MultiPolygon","coordinates":[[[[131.445923,33.552268],[131.445923,33.549979],[131.443863,33.548834],[131.443176,33.546545],[131.439743,33.550551],[131.439743,33.551123],[131.445923,33.552268]]],[[[131.452789,33.553412],[131.454849,33.551123],[131.454849,33.548834],[131.449356,33.548262],[131.446609,33.549979],[131.445923,33.551123],[131.446609,33.553412],[131.452789,33.553412]]],[[[131.445923,33.551123],[131.446609,33.549979],[131.449356,33.548262],[131.454849,33.548834],[131.454849,33.545401],[131.457596,33.540822],[131.454849,33.535099],[131.452789,33.53281],[131.450043,33.536244],[131.447983,33.544256],[131.443176,33.546545],[131.443176,33.548262],[131.445923,33.549979],[131.445923,33.551123]]]]}},{"type":"Feature","properties":{"layer_id":"bakumatsu_villages","name":"上野村","address":"豊後 国東郡","source":"Geoshape 幕末期近世村領域データセット vector tiles (z7 extraction)","subarea_name":"近世村のおおよその範囲","feature_key":"village:K59G01S00032","accuracy_note":"2015年農業集落境界をもとに復元した概略範囲で、江戸時代の正確な村境ではありません"},"geometry":{"type":"Polygon","coordinates":[[[131.520081,33.512202],[131.520767,33.508194],[131.524887,33.509339],[131.5345,33.504187],[131.531067,33.502469],[131.531067,33.499033],[131.529007,33.501324],[131.525574,33.499033],[131.522827,33.498461],[131.520767,33.499606],[131.521454,33.503614],[131.517334,33.508194],[131.516647,33.510484],[131.520081,33.512202]]]}},{"type":"Feature","properties":{"layer_id":"bakumatsu_villages","name":"上黒土村","address":"豊後 国東郡","source":"Geoshape 幕末期近世村領域データセット vector tiles (z7 extraction)","subarea_name":"近世村のおおよその範囲","feature_key":"village:K59G01S00070","accuracy_note":"2015年農業集落境界をもとに復元した概略範囲で、江戸時代の正確な村境ではありません"},"geometry":{"type":"Polygon","coordinates":[[[131.55304,33.603182],[131.554413,33.595747],[131.558533,33.590599],[131.54892,33.590027],[131.54686,33.588311],[131.5448,33.599179],[131.549606,33.600322],[131.55304,33.603182]]]}},{"type":"Feature","properties":{"layer_id":"bakumatsu_villages","name":"下来繩村","address":"豊後 国東郡","source":"Geoshape 幕末期近世村領域データセット vector tiles (z7 extraction)","subarea_name":"近世村のおおよその範囲","feature_key":"village:K59G01S00010","accuracy_note":"2015年農業集落境界をもとに復元した概略範囲で、江戸時代の正確な村境ではありません"},"geometry":{"type":"MultiPolygon","coordinates":[[[[131.439056,33.551696],[131.441803,33.548834],[131.443176,33.546545],[131.441803,33.542539],[131.439056,33.541967],[131.43837,33.543112],[131.43631,33.541967],[131.43631,33.549407],[131.43837,33.550551],[131.439056,33.551696]]],[[[131.43425,33.549979],[131.43631,33.549407],[131.435623,33.541967],[131.439056,33.542539],[131.43837,33.540822],[131.435623,33.54025],[131.431503,33.548834],[131.43425,33.549979]]],[[[131.443176,33.547118],[131.447983,33.544256],[131.450043,33.536244],[131.452789,33.53281],[131.450729,33.529375],[131.447983,33.527658],[131.445236,33.531665],[131.441803,33.53281],[131.43631,33.539678],[131.435623,33.54025],[131.43837,33.540822],[131.439056,33.541967],[131.441803,33.542539],[131.443176,33.547118]]]]}},{"type":"Feature","properties":{"layer_id":"bakumatsu_villages","name":"下黒土村","address":"豊後 国東郡","source":"Geoshape 幕末期近世村領域データセット vector tiles (z7 extraction)","subarea_name":"近世村のおおよその範囲","feature_key":"village:K59G01S00071","accuracy_note":"2015年農業集落境界をもとに復元した概略範囲で、江戸時代の正確な村境ではありません"},"geometry":{"type":"MultiPolygon","coordinates":[[[[131.54274,33.599751],[131.5448,33.599179],[131.541367,33.590027],[131.535873,33.584307],[131.53656,33.580875],[131.529007,33.578015],[131.527634,33.578587],[131.525574,33.577443],[131.5242,33.582591],[131.520081,33.587739],[131.522141,33.587739],[131.525574,33.590599],[131.52832,33.590027],[131.531754,33.592315],[131.537247,33.594031],[131.54274,33.599751]]],[[[131.545486,33.599179],[131.54686,33.588311],[131.548233,33.590027],[131.555786,33.590599],[131.559219,33.590027],[131.563339,33.587739],[131.560593,33.586595],[131.559906,33.584879],[131.557159,33.583735],[131.549606,33.583163],[131.543427,33.580875],[131.53656,33.580875],[131.535873,33.584307],[131.541367,33.590027],[131.545486,33.599179]]]]}},{"type":"Feature","properties":{"layer_id":"bakumatsu_villages","name":"中伏村","address":"豊後 国東郡","source":"Geoshape 幕末期近世村領域データセット vector tiles (z7 extraction)","subarea_name":"近世村のおおよその範囲","feature_key":"village:K59G01S00046","accuracy_note":"2015年農業集落境界をもとに復元した概略範囲で、江戸時代の正確な村境ではありません"},"geometry":{"type":"Polygon","coordinates":[[[131.447983,33.575726],[131.448669,33.572866],[131.452103,33.57401],[131.452103,33.57115],[131.455536,33.567145],[131.447983,33.569433],[131.445923,33.569433],[131.441803,33.572866],[131.443176,33.572866],[131.446609,33.575726],[131.447983,33.575726]]]}},{"type":"Feature","properties":{"layer_id":"bakumatsu_villages","name":"中村","address":"豊後 国東郡","source":"Geoshape 幕末期近世村領域データセット vector tiles (z7 extraction)","subarea_name":"近世村のおおよその範囲","feature_key":"village:K59G01S00021","accuracy_note":"2015年農業集落境界をもとに復元した概略範囲で、江戸時代の正確な村境ではありません"},"geometry":{"type":"MultiPolygon","coordinates":[[[[131.514587,33.520217],[131.515961,33.517354],[131.518021,33.516782],[131.518707,33.513919],[131.515274,33.513347],[131.512527,33.510484],[131.510468,33.513347],[131.510468,33.515637],[131.511841,33.519072],[131.514587,33.520217]]],[[[131.518707,33.513919],[131.519394,33.512202],[131.516647,33.510484],[131.517334,33.508194],[131.514587,33.508767],[131.509781,33.507049],[131.512527,33.510484],[131.515274,33.513347],[131.518707,33.513919]]]]}},{"type":"Feature","properties":{"layer_id":"bakumatsu_villages","name":"佐古村","address":"豊後 国東郡","source":"Geoshape 幕末期近世村領域データセット vector tiles (z7 extraction)","subarea_name":"近世村のおおよその範囲","feature_key":"village:K59G01S00083","accuracy_note":"2015年農業集落境界をもとに復元した概略範囲で、江戸時代の正確な村境ではありません"},"geometry":{"type":"Polygon","coordinates":[[[131.527634,33.656924],[131.529694,33.653495],[131.531067,33.653495],[131.535187,33.647779],[131.541367,33.648922],[131.543427,33.647779],[131.5448,33.643206],[131.544113,33.642634],[131.546173,33.640919],[131.546173,33.639204],[131.53656,33.634059],[131.535187,33.634631],[131.531067,33.634059],[131.53038,33.635774],[131.52626,33.640919],[131.524887,33.647779],[131.520767,33.652351],[131.527634,33.656924]]]}},{"type":"Feature","properties":{"layer_id":"bakumatsu_villages","name":"佐野村","address":"豊後 国東郡","source":"Geoshape 幕末期近世村領域データセット vector tiles (z7 extraction)","subarea_name":"近世村のおおよその範囲","feature_key":"village:K59G01S00013","accuracy_note":"2015年農業集落境界をもとに復元した概略範囲で、江戸時代の正確な村境ではありません"},"geometry":{"type":"MultiPolygon","coordinates":[[[[131.467209,33.543684],[131.465836,33.541395],[131.465836,33.536244],[131.462402,33.532237],[131.458969,33.529948],[131.447983,33.527086],[131.454849,33.535099],[131.457596,33.540822],[131.467209,33.543684]]],[[[131.462402,33.532237],[131.462402,33.528231],[131.464462,33.527086],[131.466522,33.521934],[131.463089,33.521361],[131.453476,33.515064],[131.452103,33.518499],[131.448669,33.521361],[131.447296,33.525369],[131.447983,33.527086],[131.458969,33.529948],[131.462402,33.532237]]],[[[131.465836,33.537388],[131.467209,33.535099],[131.464462,33.53281],[131.462402,33.532237],[131.465836,33.537388]]],[[[131.467209,33.535099],[131.469269,33.533382],[131.469269,33.531665],[131.464462,33.53281],[131.467209,33.535099]]],[[[131.472702,33.544256],[131.474762,33.541395],[131.471329,33.535671],[131.469955,33.536816],[131.467209,33.537961],[131.465836,33.536816],[131.465836,33.541395],[131.467209,33.543684],[131.472702,33.544256]]],[[[131.467209,33.537961],[131.469955,33.536816],[131.468582,33.534527],[131.465836,33.536244],[131.467209,33.537961]]],[[[131.464462,33.53281],[131.469269,33.531665],[131.470642,33.521361],[131.466522,33.521934],[131.464462,33.527086],[131.462402,33.528231],[131.462402,33.532237],[131.464462,33.53281]]],[[[131.482315,33.542539],[131.478882,33.536816],[131.476135,33.535099],[131.474075,33.533954],[131.471329,33.535671],[131.474762,33.541967],[131.482315,33.542539]]],[[[131.490555,33.548262],[131.483688,33.532237],[131.478195,33.531092],[131.474075,33.533954],[131.478882,33.536816],[131.483002,33.543684],[131.490555,33.548262]]],[[[131.469955,33.536816],[131.473389,33.534527],[131.474762,33.53281],[131.478195,33.531092],[131.482315,33.531665],[131.484375,33.521361],[131.488495,33.518499],[131.489182,33.516782],[131.484375,33.510484],[131.473389,33.514492],[131.472015,33.516209],[131.469269,33.526513],[131.469955,33.53052],[131.469269,33.533382],[131.467896,33.533954],[131.469955,33.536816]]]]}},{"type":"Feature","properties":{"layer_id":"bakumatsu_villages","name":"入津原村","address":"豊後 国東郡","source":"Geoshape 幕末期近世村領域データセット vector tiles (z7 extraction)","subarea_name":"近世村のおおよその範囲","feature_key":"village:K59G01S00047","accuracy_note":"2015年農業集落境界をもとに復元した概略範囲で、江戸時代の正確な村境ではありません"},"geometry":{"type":"Polygon","coordinates":[[[131.448669,33.580303],[131.450729,33.578015],[131.452103,33.57401],[131.448669,33.572866],[131.448669,33.580303]]]}},{"type":"Feature","properties":{"layer_id":"bakumatsu_villages","name":"加礼川村","address":"豊後 国東郡","source":"Geoshape 幕末期近世村領域データセット vector tiles (z7 extraction)","subarea_name":"近世村のおおよその範囲","feature_key":"village:K59G01S00036","accuracy_note":"2015年農業集落境界をもとに復元した概略範囲で、江戸時代の正確な村境ではありません"},"geometry":{"type":"MultiPolygon","coordinates":[[[[131.537933,33.566],[131.537933,33.560279],[131.53656,33.559134],[131.531754,33.559134],[131.531067,33.560279],[131.531067,33.561995],[131.533127,33.564284],[131.535873,33.564856],[131.535873,33.566],[131.537933,33.566]]],[[[131.548233,33.570005],[131.55098,33.567145],[131.555099,33.569433],[131.553726,33.564856],[131.547546,33.56314],[131.54068,33.559707],[131.53656,33.559134],[131.537933,33.561423],[131.537933,33.566],[131.54068,33.566],[131.546173,33.570005],[131.548233,33.570005]]],[[[131.547546,33.56314],[131.556473,33.556846],[131.555099,33.556273],[131.555786,33.554557],[131.552353,33.553985],[131.55098,33.555701],[131.548233,33.555701],[131.547546,33.558562],[131.54068,33.559707],[131.547546,33.56314]]],[[[131.564713,33.572294],[131.563339,33.568861],[131.567459,33.565428],[131.564713,33.562568],[131.563339,33.559707],[131.561279,33.559134],[131.560593,33.55799],[131.557846,33.55799],[131.556473,33.556846],[131.550293,33.561995],[131.54686,33.56314],[131.552353,33.564284],[131.554413,33.565428],[131.555099,33.569433],[131.560593,33.570578],[131.564713,33.572294]]],[[[131.590805,33.582591],[131.588745,33.581447],[131.584625,33.576871],[131.575699,33.573438],[131.573639,33.570005],[131.568146,33.566],[131.567459,33.565428],[131.563339,33.569433],[131.564713,33.572294],[131.568146,33.575726],[131.572952,33.576871],[131.579132,33.583735],[131.581192,33.583735],[131.585312,33.582591],[131.588058,33.584879],[131.590805,33.582591]]]]}},{"type":"Feature","properties":{"layer_id":"bakumatsu_villages","name":"呉崎新田","address":"豊後 国東郡","source":"Geoshape 幕末期近世村領域データセット vector tiles (z7 extraction)","subarea_name":"近世村のおおよその範囲","feature_key":"village:K59G01S00050","accuracy_note":"2015年農業集落境界をもとに復元した概略範囲で、江戸時代の正確な村境ではありません"},"geometry":{"type":"MultiPolygon","coordinates":[[[[131.43425,33.583735],[131.43837,33.582019],[131.445236,33.578015],[131.445236,33.576871],[131.44249,33.577443],[131.441803,33.576871],[131.432877,33.581447],[131.43425,33.583735]]],[[[131.449356,33.598035],[131.446609,33.590027],[131.44043,33.592887],[131.44455,33.598035],[131.449356,33.598035]]],[[[131.44043,33.592887],[131.446609,33.590027],[131.447296,33.590599],[131.448669,33.589455],[131.447983,33.586595],[131.443863,33.588883],[131.439056,33.591171],[131.44043,33.592887]]],[[[131.449356,33.598035],[131.453476,33.597463],[131.452103,33.591743],[131.447983,33.593459],[131.449356,33.598035]]],[[[131.447983,33.593459],[131.452103,33.591743],[131.451416,33.588883],[131.447296,33.590599],[131.447983,33.593459]]],[[[131.439056,33.591171],[131.445923,33.587739],[131.445236,33.586023],[131.446609,33.585451],[131.445923,33.582591],[131.436996,33.586595],[131.43631,33.587167],[131.439056,33.591171]]],[[[131.43631,33.587167],[131.446609,33.582019],[131.445923,33.579159],[131.445236,33.578015],[131.439743,33.581447],[131.43425,33.583735],[131.43631,33.587167]]],[[[131.448669,33.589455],[131.451416,33.588883],[131.452103,33.586595],[131.450043,33.580303],[131.445923,33.582591],[131.446609,33.585451],[131.445236,33.586595],[131.445923,33.587739],[131.447983,33.586595],[131.448669,33.589455]]],[[[131.446609,33.582019],[131.450043,33.580303],[131.448669,33.580303],[131.447983,33.575726],[131.445236,33.576299],[131.44455,33.578015],[131.446609,33.582019]]],[[[131.43219,33.580303],[131.436996,33.576871],[131.443176,33.575154],[131.441116,33.57401],[131.431503,33.574582],[131.430817,33.576871],[131.43219,33.580303]]],[[[131.432877,33.581447],[131.441803,33.576871],[131.44249,33.577443],[131.446609,33.575726],[131.44455,33.57401],[131.441116,33.57401],[131.443176,33.575154],[131.43425,33.578587],[131.43219,33.580303],[131.432877,33.581447]]],[[[131.431503,33.574582],[131.44455,33.57401],[131.443176,33.572866],[131.44043,33.571722],[131.43837,33.567145],[131.436996,33.566573],[131.435623,33.569433],[131.432877,33.567717],[131.431503,33.568861],[131.43425,33.570578],[131.431503,33.574582]]]]}},{"type":"Feature","properties":{"layer_id":"bakumatsu_villages","name":"唐櫃村","address":"豊後 国東郡","source":"Geoshape 幕末期近世村領域データセット vector tiles (z7 extraction)","subarea_name":"近世村のおおよその範囲","feature_key":"village:K59G01S00084","accuracy_note":"2015年農業集落境界をもとに復元した概略範囲で、江戸時代の正確な村境ではありません"},"geometry":{"type":"Polygon","coordinates":[[[131.5345,33.660925],[131.53862,33.656924],[131.542053,33.64835],[131.535187,33.647779],[131.531067,33.653495],[131.529694,33.653495],[131.52832,33.655781],[131.53038,33.658067],[131.529694,33.659782],[131.53038,33.660353],[131.5345,33.660925]]]}},{"type":"Feature","properties":{"layer_id":"bakumatsu_villages","name":"城前村","address":"豊後 国東郡","source":"Geoshape 幕末期近世村領域データセット vector tiles (z7 extraction)","subarea_name":"近世村のおおよその範囲","feature_key":"village:K59G01S00067","accuracy_note":"2015年農業集落境界をもとに復元した概略範囲で、江戸時代の正確な村境ではありません"},"geometry":{"type":"Polygon","coordinates":[[[131.524887,33.602038],[131.5242,33.598035],[131.519394,33.593459],[131.518707,33.591171],[131.525574,33.578587],[131.525574,33.577443],[131.522827,33.575726],[131.516647,33.575154],[131.515961,33.576299],[131.515274,33.582591],[131.516647,33.587167],[131.514587,33.590027],[131.511841,33.590027],[131.508408,33.594031],[131.506348,33.594031],[131.508408,33.600894],[131.513214,33.598607],[131.522141,33.600322],[131.524887,33.602038]]]}},{"type":"Feature","properties":{"layer_id":"bakumatsu_villages","name":"堅来村","address":"豊後 国東郡","source":"Geoshape 幕末期近世村領域データセット vector tiles (z7 extraction)","subarea_name":"近世村のおおよその範囲","feature_key":"village:K59G01S00075","accuracy_note":"2015年農業集落境界をもとに復元した概略範囲で、江戸時代の正確な村境ではありません"},"geometry":{"type":"MultiPolygon","coordinates":[[[[131.495361,33.648922],[131.500854,33.644921],[131.495361,33.639776],[131.488495,33.644349],[131.485748,33.647779],[131.486435,33.648922],[131.489868,33.647207],[131.493988,33.643777],[131.497421,33.646064],[131.496048,33.646064],[131.495361,33.648922]]],[[[131.500854,33.644921],[131.511841,33.640919],[131.499481,33.635203],[131.495361,33.639776],[131.500854,33.644921]]],[[[131.512527,33.640919],[131.515274,33.635774],[131.505661,33.630629],[131.499481,33.635203],[131.512527,33.640919]]],[[[131.515274,33.635774],[131.518707,33.633487],[131.523514,33.631772],[131.513214,33.626055],[131.509781,33.626627],[131.505661,33.630629],[131.515274,33.635774]]]]}},{"type":"Feature","properties":{"layer_id":"bakumatsu_villages","name":"大力村","address":"豊後 国東郡","source":"Geoshape 幕末期近世村領域データセット vector tiles (z7 extraction)","subarea_name":"近世村のおおよその範囲","feature_key":"village:K59G01S00043","accuracy_note":"2015年農業集落境界をもとに復元した概略範囲で、江戸時代の正確な村境ではありません"},"geometry":{"type":"Polygon","coordinates":[[[131.518707,33.563712],[131.524887,33.559134],[131.529694,33.557418],[131.533813,33.557418],[131.535187,33.553985],[131.535187,33.550551],[131.531754,33.545401],[131.526947,33.546545],[131.525574,33.54769],[131.522141,33.546545],[131.515274,33.548262],[131.513214,33.54769],[131.509094,33.553412],[131.501541,33.554557],[131.494675,33.553985],[131.492615,33.556273],[131.485748,33.559134],[131.492615,33.560851],[131.495361,33.560851],[131.500854,33.562568],[131.503601,33.561995],[131.507721,33.563712],[131.518707,33.563712]]]}},{"type":"Feature","properties":{"layer_id":"bakumatsu_villages","name":"大岩屋村","address":"豊後 国東郡","source":"Geoshape 幕末期近世村領域データセット vector tiles (z7 extraction)","subarea_name":"近世村のおおよその範囲","feature_key":"village:K59G01S00068","accuracy_note":"2015年農業集落境界をもとに復元した概略範囲で、江戸時代の正確な村境ではありません"},"geometry":{"type":"Polygon","coordinates":[[[131.524887,33.600894],[131.53862,33.595747],[131.52832,33.590027],[131.525574,33.590599],[131.522141,33.587739],[131.520081,33.587739],[131.518707,33.591171],[131.519394,33.593459],[131.522827,33.595747],[131.524887,33.600894]]]}},{"type":"Feature","properties":{"layer_id":"bakumatsu_villages","name":"大平村","address":"豊後 国東郡","source":"Geoshape 幕末期近世村領域データセット vector tiles (z7 extraction)","subarea_name":"近世村のおおよその範囲","feature_key":"village:K59G01S00049","accuracy_note":"2015年農業集落境界をもとに復元した概略範囲で、江戸時代の正確な村境ではありません"},"geometry":{"type":"Polygon","coordinates":[[[131.474762,33.596319],[131.480255,33.594031],[131.488495,33.593459],[131.493301,33.590599],[131.498795,33.589455],[131.502914,33.587167],[131.509781,33.586023],[131.512527,33.584307],[131.515961,33.580303],[131.516647,33.575154],[131.511841,33.575726],[131.510468,33.578587],[131.507721,33.580303],[131.505661,33.579731],[131.504288,33.581447],[131.498795,33.582591],[131.494675,33.582019],[131.494675,33.583163],[131.490555,33.583163],[131.486435,33.584307],[131.480942,33.587739],[131.473389,33.590599],[131.472702,33.592887],[131.467896,33.592887],[131.467896,33.593459],[131.472015,33.596319],[131.474075,33.595175],[131.474762,33.596319]]]}},{"type":"Feature","properties":{"layer_id":"bakumatsu_villages","name":"大曲村・観音堂村","address":"豊後 国東郡","source":"Geoshape 幕末期近世村領域データセット vector tiles (z7 extraction)","subarea_name":"近世村のおおよその範囲","feature_key":"village:K59G01S00030,K59G01S00031","accuracy_note":"2015年農業集落境界をもとに復元した概略範囲で、江戸時代の正確な村境ではありません"},"geometry":{"type":"Polygon","coordinates":[[[131.529694,33.501324],[131.531067,33.499033],[131.53038,33.497316],[131.533127,33.49617],[131.533127,33.490444],[131.533813,33.486435],[131.535187,33.48529],[131.533813,33.482999],[131.535187,33.477272],[131.527634,33.477272],[131.524887,33.480136],[131.523514,33.489871],[131.522141,33.491017],[131.521454,33.49388],[131.522827,33.498461],[131.529694,33.501324]]]}},{"type":"Feature","properties":{"layer_id":"bakumatsu_villages","name":"大村","address":"豊後 国東郡","source":"Geoshape 幕末期近世村領域データセット vector tiles (z7 extraction)","subarea_name":"近世村のおおよその範囲","feature_key":"village:K59G01S00053","accuracy_note":"2015年農業集落境界をもとに復元した概略範囲で、江戸時代の正確な村境ではありません"},"geometry":{"type":"Polygon","coordinates":[[[131.465836,33.608901],[131.474762,33.606613],[131.479568,33.602038],[131.478195,33.600322],[131.479568,33.599751],[131.478195,33.596319],[131.480255,33.596319],[131.480942,33.594031],[131.474762,33.596319],[131.474075,33.595175],[131.472015,33.596319],[131.467209,33.598607],[131.468582,33.599179],[131.470642,33.60261],[131.469955,33.603754],[131.467896,33.60547],[131.464462,33.604898],[131.463089,33.606613],[131.465836,33.608901]]]}},{"type":"Feature","properties":{"layer_id":"bakumatsu_villages","name":"夷村","address":"豊後 国東郡","source":"Geoshape 幕末期近世村領域データセット vector tiles (z7 extraction)","subarea_name":"近世村のおおよその範囲","feature_key":"village:K59G01S00081","accuracy_note":"2015年農業集落境界をもとに復元した概略範囲で、江戸時代の正確な村境ではありません"},"geometry":{"type":"Polygon","coordinates":[[[131.554413,33.643777],[131.555099,33.638633],[131.557159,33.637489],[131.557846,33.634059],[131.557846,33.630629],[131.555786,33.628914],[131.555786,33.627199],[131.5448,33.622053],[131.539993,33.615191],[131.535873,33.613476],[131.535187,33.614047],[131.535873,33.619194],[131.53656,33.618622],[131.539993,33.625483],[131.54274,33.626627],[131.543427,33.628914],[131.5448,33.628914],[131.54892,33.631201],[131.552353,33.631201],[131.551666,33.632916],[131.548233,33.635774],[131.547546,33.638633],[131.54892,33.640919],[131.554413,33.643777]]]}},{"type":"Feature","properties":{"layer_id":"bakumatsu_villages","name":"奥畑村","address":"豊後 国東郡","source":"Geoshape 幕末期近世村領域データセット vector tiles (z7 extraction)","subarea_name":"近世村のおおよその範囲","feature_key":"village:K59G01S00014","accuracy_note":"2015年農業集落境界をもとに復元した概略範囲で、江戸時代の正確な村境ではありません"},"geometry":{"type":"Polygon","coordinates":[[[131.470642,33.521361],[131.472702,33.515064],[131.480942,33.512202],[131.483688,33.510484],[131.478195,33.509339],[131.474762,33.504187],[131.473389,33.504759],[131.469269,33.505332],[131.467896,33.506477],[131.464462,33.505904],[131.463089,33.508194],[131.456909,33.509339],[131.453476,33.515064],[131.463089,33.521361],[131.470642,33.521361]]]}},{"type":"Feature","properties":{"layer_id":"bakumatsu_villages","name":"小崎村","address":"豊後 国東郡","source":"Geoshape 幕末期近世村領域データセット vector tiles (z7 extraction)","subarea_name":"近世村のおおよその範囲","feature_key":"village:K59G01S00020","accuracy_note":"2015年農業集落境界をもとに復元した概略範囲で、江戸時代の正確な村境ではありません"},"geometry":{"type":"MultiPolygon","coordinates":[[[[131.510468,33.513919],[131.512527,33.510484],[131.509781,33.507049],[131.509094,33.509339],[131.501541,33.510484],[131.500168,33.509339],[131.498108,33.509339],[131.489868,33.505904],[131.475449,33.505904],[131.478195,33.509339],[131.485062,33.511629],[131.494675,33.509912],[131.502228,33.512774],[131.504288,33.512202],[131.510468,33.513919]]],[[[131.514587,33.521934],[131.514587,33.520217],[131.511841,33.519072],[131.510468,33.513919],[131.504288,33.512202],[131.502914,33.512774],[131.494675,33.509912],[131.485062,33.511629],[131.489182,33.516209],[131.496048,33.519644],[131.500854,33.519644],[131.504974,33.521934],[131.509781,33.518499],[131.514587,33.521934]]],[[[131.493301,33.507049],[131.494675,33.505904],[131.493988,33.503614],[131.494675,33.500751],[131.501541,33.496743],[131.498795,33.496743],[131.497421,33.494453],[131.496048,33.495025],[131.491241,33.492162],[131.487122,33.494453],[131.485748,33.494453],[131.484375,33.493307],[131.483002,33.493307],[131.482315,33.495598],[131.480255,33.496743],[131.480255,33.499606],[131.477509,33.500179],[131.477509,33.501324],[131.475449,33.503041],[131.474762,33.504187],[131.475449,33.505904],[131.489868,33.505904],[131.493301,33.507049]]],[[[131.500854,33.510484],[131.507034,33.509912],[131.507034,33.509339],[131.509094,33.509339],[131.513214,33.502469],[131.511154,33.503614],[131.507034,33.501324],[131.504288,33.497316],[131.501541,33.496743],[131.494675,33.500751],[131.493988,33.503614],[131.494675,33.505904],[131.493301,33.507049],[131.498108,33.509339],[131.500168,33.509339],[131.500854,33.510484]]]]}},{"type":"Feature","properties":{"layer_id":"bakumatsu_villages","name":"小池村","address":"豊後 国東郡","source":"Geoshape 幕末期近世村領域データセット vector tiles (z7 extraction)","subarea_name":"近世村のおおよその範囲","feature_key":"village:K59G01S00076","accuracy_note":"2015年農業集落境界をもとに復元した概略範囲で、江戸時代の正確な村境ではありません"},"geometry":{"type":"MultiPolygon","coordinates":[[[[131.493988,33.652351],[131.494675,33.654638],[131.498795,33.654638],[131.506348,33.651208],[131.511154,33.643777],[131.511841,33.640919],[131.501541,33.644921],[131.496048,33.64835],[131.495361,33.648922],[131.496735,33.650065],[131.496735,33.650637],[131.493988,33.652351]]],[[[131.493988,33.652351],[131.493988,33.65178],[131.493301,33.65178],[131.493988,33.652351]]]]}},{"type":"Feature","properties":{"layer_id":"bakumatsu_villages","name":"小河内村","address":"豊後 国東郡","source":"Geoshape 幕末期近世村領域データセット vector tiles (z7 extraction)","subarea_name":"近世村のおおよその範囲","feature_key":"village:K59G01S00073","accuracy_note":"2015年農業集落境界をもとに復元した概略範囲で、江戸時代の正確な村境ではありません"},"geometry":{"type":"Polygon","coordinates":[[[131.55304,33.603182],[131.557159,33.60261],[131.563339,33.599179],[131.568832,33.600894],[131.572952,33.600894],[131.572266,33.597463],[131.573639,33.594031],[131.564713,33.590599],[131.562653,33.588311],[131.558533,33.590599],[131.554413,33.595747],[131.55304,33.603182]]]}},{"type":"Feature","properties":{"layer_id":"bakumatsu_villages","name":"小田原村","address":"豊後 国東郡","source":"Geoshape 幕末期近世村領域データセット vector tiles (z7 extraction)","subarea_name":"近世村のおおよその範囲","feature_key":"village:K59G01S00018","accuracy_note":"2015年農業集落境界をもとに復元した概略範囲で、江戸時代の正確な村境ではありません"},"geometry":{"type":"MultiPolygon","coordinates":[[[[131.504288,33.554557],[131.492615,33.542539],[131.491241,33.543112],[131.489868,33.541395],[131.489182,33.544828],[131.490555,33.548262],[131.495361,33.550551],[131.496048,33.553412],[131.504288,33.554557]]],[[[131.504288,33.554557],[131.509094,33.553412],[131.513214,33.54769],[131.519394,33.547118],[131.513214,33.543112],[131.508408,33.540822],[131.507034,33.541395],[131.507034,33.543112],[131.502228,33.541967],[131.496735,33.543684],[131.495361,33.544828],[131.493988,33.544828],[131.504288,33.554557]]],[[[131.489182,33.543112],[131.491241,33.537961],[131.490555,33.533954],[131.483688,33.532237],[131.487808,33.542539],[131.489182,33.543112]]],[[[131.495361,33.544828],[131.494675,33.543112],[131.496735,33.541395],[131.496048,33.540822],[131.491241,33.537961],[131.489868,33.541395],[131.495361,33.544828]]],[[[131.496048,33.540822],[131.496048,33.535671],[131.498108,33.534527],[131.500854,33.525941],[131.498108,33.522506],[131.489182,33.516209],[131.488495,33.518499],[131.484375,33.521361],[131.482315,33.531665],[131.487122,33.533954],[131.490555,33.533954],[131.491241,33.537961],[131.496048,33.540822]]],[[[131.496048,33.544256],[131.502228,33.541967],[131.507034,33.543112],[131.507034,33.541395],[131.508408,33.540822],[131.497421,33.535099],[131.496048,33.535671],[131.496735,33.541395],[131.494675,33.543112],[131.496048,33.544256]]],[[[131.498108,33.534527],[131.502914,33.533954],[131.502228,33.531092],[131.503601,33.529375],[131.500854,33.525941],[131.498108,33.534527]]],[[[131.525574,33.54769],[131.526947,33.546545],[131.531067,33.545973],[131.514587,33.533382],[131.518021,33.529948],[131.518707,33.527086],[131.513214,33.528231],[131.507721,33.53052],[131.503601,33.529375],[131.502228,33.531092],[131.502914,33.534527],[131.500854,33.533954],[131.498108,33.535099],[131.508408,33.540822],[131.513214,33.543112],[131.519394,33.54769],[131.522141,33.546545],[131.525574,33.54769]]]]}},{"type":"Feature","properties":{"layer_id":"bakumatsu_villages","name":"小畑村","address":"豊後 国東郡","source":"Geoshape 幕末期近世村領域データセット vector tiles (z7 extraction)","subarea_name":"近世村のおおよその範囲","feature_key":"village:K59G01S00062","accuracy_note":"2015年農業集落境界をもとに復元した概略範囲で、江戸時代の正確な村境ではありません"},"geometry":{"type":"Polygon","coordinates":[[[131.523514,33.631772],[131.529694,33.629485],[131.535187,33.623196],[131.535187,33.614047],[131.53038,33.615763],[131.526947,33.61805],[131.526947,33.619194],[131.522827,33.622053],[131.513214,33.626055],[131.523514,33.631772]]]}},{"type":"Feature","properties":{"layer_id":"bakumatsu_villages","name":"山畑村","address":"豊後 国東郡","source":"Geoshape 幕末期近世村領域データセット vector tiles (z7 extraction)","subarea_name":"近世村のおおよその範囲","feature_key":"village:K59G01S00061","accuracy_note":"2015年農業集落境界をもとに復元した概略範囲で、江戸時代の正確な村境ではありません"},"geometry":{"type":"MultiPolygon","coordinates":[[[[131.513901,33.625483],[131.522827,33.622053],[131.526947,33.619194],[131.527634,33.617478],[131.518707,33.615191],[131.518707,33.609473],[131.515274,33.606041],[131.507034,33.608901],[131.506348,33.612904],[131.501541,33.614619],[131.509781,33.618622],[131.512527,33.623196],[131.514587,33.623768],[131.513901,33.625483]]],[[[131.527634,33.617478],[131.533813,33.614047],[131.535187,33.614047],[131.535187,33.611188],[131.537247,33.610045],[131.535873,33.606613],[131.53244,33.607757],[131.52626,33.607185],[131.5242,33.606613],[131.525574,33.603182],[131.522141,33.600322],[131.512527,33.598607],[131.509094,33.600894],[131.498795,33.602038],[131.497421,33.606041],[131.506348,33.608901],[131.515274,33.606041],[131.518707,33.609473],[131.518707,33.615191],[131.527634,33.617478]]]]}},{"type":"Feature","properties":{"layer_id":"bakumatsu_villages","name":"川原村","address":"豊後 国東郡","source":"Geoshape 幕末期近世村領域データセット vector tiles (z7 extraction)","subarea_name":"近世村のおおよその範囲","feature_key":"village:K59G01S00004","accuracy_note":"2015年農業集落境界をもとに復元した概略範囲で、江戸時代の正確な村境ではありません"},"geometry":{"type":"Polygon","coordinates":[[[131.451416,33.558562],[131.454163,33.55799],[131.455536,33.55799],[131.456909,33.554557],[131.459656,33.554557],[131.458969,33.550551],[131.456909,33.549979],[131.452103,33.553412],[131.446609,33.553412],[131.451416,33.558562]]]}},{"type":"Feature","properties":{"layer_id":"bakumatsu_villages","name":"常盤村","address":"豊後 国東郡","source":"Geoshape 幕末期近世村領域データセット vector tiles (z7 extraction)","subarea_name":"近世村のおおよその範囲","feature_key":"village:K59G01S00064","accuracy_note":"2015年農業集落境界をもとに復元した概略範囲で、江戸時代の正確な村境ではありません"},"geometry":{"type":"Polygon","coordinates":[[[131.486435,33.603754],[131.508408,33.600894],[131.507034,33.595175],[131.505661,33.594031],[131.502914,33.595175],[131.496048,33.595747],[131.492615,33.597463],[131.489868,33.596891],[131.487808,33.597463],[131.485748,33.602038],[131.486435,33.603754]]]}},{"type":"Feature","properties":{"layer_id":"bakumatsu_villages","name":"庄屋村","address":"豊後 国東郡","source":"Geoshape 幕末期近世村領域データセット vector tiles (z7 extraction)","subarea_name":"近世村のおおよその範囲","feature_key":"village:K59G01S00055","accuracy_note":"2015年農業集落境界をもとに復元した概略範囲で、江戸時代の正確な村境ではありません"},"geometry":{"type":"Polygon","coordinates":[[[131.489868,33.61176],[131.488495,33.606041],[131.485748,33.602038],[131.484375,33.60261],[131.482315,33.600322],[131.475449,33.606041],[131.486435,33.61176],[131.489868,33.61176]]]}},{"type":"Feature","properties":{"layer_id":"bakumatsu_villages","name":"徳六村","address":"豊後 国東郡","source":"Geoshape 幕末期近世村領域データセット vector tiles (z7 extraction)","subarea_name":"近世村のおおよその範囲","feature_key":"village:K59G01S00066","accuracy_note":"2015年農業集落境界をもとに復元した概略範囲で、江戸時代の正確な村境ではありません"},"geometry":{"type":"MultiPolygon","coordinates":[[[[131.479568,33.602038],[131.482315,33.600322],[131.481628,33.596891],[131.480255,33.595747],[131.478195,33.596319],[131.479568,33.599751],[131.478195,33.600322],[131.479568,33.602038]]],[[[131.485062,33.60261],[131.489868,33.595747],[131.488495,33.593459],[131.480942,33.594031],[131.480255,33.595747],[131.481628,33.596891],[131.481628,33.599751],[131.484375,33.60261],[131.485062,33.60261]]]]}},{"type":"Feature","properties":{"layer_id":"bakumatsu_villages","name":"志手村","address":"豊後 国東郡","source":"Geoshape 幕末期近世村領域データセット vector tiles (z7 extraction)","subarea_name":"近世村のおおよその範囲","feature_key":"village:K59G01S00007","accuracy_note":"2015年農業集落境界をもとに復元した概略範囲で、江戸時代の正確な村境ではありません"},"geometry":{"type":"Polygon","coordinates":[[[131.441803,33.572866],[131.443863,33.57115],[131.443176,33.569433],[131.445236,33.567145],[131.443176,33.561995],[131.44455,33.561995],[131.443863,33.560851],[131.441803,33.560851],[131.435623,33.564856],[131.432877,33.567717],[131.435623,33.569433],[131.436996,33.566573],[131.439056,33.567145],[131.441803,33.572866]]]}},{"type":"Feature","properties":{"layer_id":"bakumatsu_villages","name":"恵良村","address":"豊後 国東郡","source":"Geoshape 幕末期近世村領域データセット vector tiles (z7 extraction)","subarea_name":"近世村のおおよその範囲","feature_key":"village:K59G01S00056","accuracy_note":"2015年農業集落境界をもとに復元した概略範囲で、江戸時代の正確な村境ではありません"},"geometry":{"type":"Polygon","coordinates":[[[131.493301,33.612904],[131.492615,33.610616],[131.494675,33.606613],[131.497421,33.60547],[131.498795,33.602038],[131.486435,33.603754],[131.488495,33.606041],[131.489868,33.61176],[131.493301,33.612904]]]}},{"type":"Feature","properties":{"layer_id":"bakumatsu_villages","name":"払田村","address":"豊後 国東郡","source":"Geoshape 幕末期近世村領域データセット vector tiles (z7 extraction)","subarea_name":"近世村のおおよその範囲","feature_key":"village:K59G01S00044","accuracy_note":"2015年農業集落境界をもとに復元した概略範囲で、江戸時代の正確な村境ではありません"},"geometry":{"type":"Polygon","coordinates":[[[131.485748,33.567717],[131.485748,33.566],[131.481628,33.562568],[131.482315,33.561423],[131.485748,33.561423],[131.485748,33.559134],[131.478195,33.558562],[131.473389,33.557418],[131.473389,33.563712],[131.485748,33.567717]]]}},{"type":"Feature","properties":{"layer_id":"bakumatsu_villages","name":"新城村","address":"豊後 国東郡","source":"Geoshape 幕末期近世村領域データセット vector tiles (z7 extraction)","subarea_name":"近世村のおおよその範囲","feature_key":"village:K59G01S00038","accuracy_note":"2015年農業集落境界をもとに復元した概略範囲で、江戸時代の正確な村境ではありません"},"geometry":{"type":"MultiPolygon","coordinates":[[[[131.52832,33.565428],[131.52626,33.561995],[131.52626,33.561423],[131.5242,33.560279],[131.519394,33.563712],[131.523514,33.565428],[131.52832,33.565428]]],[[[131.52832,33.565428],[131.533127,33.564284],[131.531067,33.560279],[131.531754,33.559134],[131.53656,33.559134],[131.533813,33.557418],[131.52832,33.55799],[131.5242,33.560279],[131.52626,33.561423],[131.52626,33.561995],[131.52832,33.565428]]],[[[131.53656,33.559134],[131.545486,33.558562],[131.547546,33.558562],[131.548233,33.555701],[131.55098,33.555701],[131.552353,33.553985],[131.543427,33.552268],[131.539307,33.55284],[131.537247,33.555129],[131.5345,33.553985],[131.533813,33.557418],[131.53656,33.559134]]]]}},{"type":"Feature","properties":{"layer_id":"bakumatsu_villages","name":"有寺村","address":"豊後 国東郡","source":"Geoshape 幕末期近世村領域データセット vector tiles (z7 extraction)","subarea_name":"近世村のおおよその範囲","feature_key":"village:K59G01S00069","accuracy_note":"2015年農業集落境界をもとに復元した概略範囲で、江戸時代の正確な村境ではありません"},"geometry":{"type":"Polygon","coordinates":[[[131.53244,33.607757],[131.535873,33.606613],[131.54274,33.599751],[131.53862,33.595747],[131.531754,33.597463],[131.53038,33.599179],[131.525574,33.600322],[131.524887,33.601466],[131.525574,33.603182],[131.5242,33.606613],[131.52626,33.607185],[131.53244,33.607757]]]}},{"type":"Feature","properties":{"layer_id":"bakumatsu_villages","name":"松行村","address":"豊後 国東郡","source":"Geoshape 幕末期近世村領域データセット vector tiles (z7 extraction)","subarea_name":"近世村のおおよその範囲","feature_key":"village:K59G01S00039","accuracy_note":"2015年農業集落境界をもとに復元した概略範囲で、江戸時代の正確な村境ではありません"},"geometry":{"type":"Polygon","coordinates":[[[131.507721,33.579731],[131.513214,33.575154],[131.522827,33.575726],[131.522141,33.566573],[131.523514,33.564856],[131.520081,33.563712],[131.511841,33.564284],[131.509094,33.567717],[131.509094,33.574582],[131.506348,33.576299],[131.505661,33.575726],[131.505661,33.578587],[131.507721,33.579731]]]}},{"type":"Feature","properties":{"layer_id":"bakumatsu_villages","name":"梅木村","address":"豊後 国東郡","source":"Geoshape 幕末期近世村領域データセット vector tiles (z7 extraction)","subarea_name":"近世村のおおよその範囲","feature_key":"village:K59G01S00037","accuracy_note":"2015年農業集落境界をもとに復元した概略範囲で、江戸時代の正確な村境ではありません"},"geometry":{"type":"MultiPolygon","coordinates":[[[[131.537247,33.555129],[131.53862,33.55284],[131.543427,33.552268],[131.553726,33.553985],[131.557159,33.546545],[131.560593,33.543684],[131.543427,33.544256],[131.542053,33.546545],[131.541367,33.544828],[131.539307,33.545973],[131.535187,33.544256],[131.53244,33.545401],[131.535187,33.550551],[131.5345,33.553985],[131.537247,33.555129]]],[[[131.561279,33.558562],[131.567459,33.55799],[131.570206,33.550551],[131.568832,33.549407],[131.564713,33.548262],[131.562653,33.545401],[131.560593,33.544828],[131.560593,33.543684],[131.557159,33.546545],[131.553726,33.553985],[131.555786,33.554557],[131.555099,33.556273],[131.557846,33.55799],[131.559906,33.557418],[131.561279,33.558562]]]]}},{"type":"Feature","properties":{"layer_id":"bakumatsu_villages","name":"森村","address":"豊後 国東郡","source":"Geoshape 幕末期近世村領域データセット vector tiles (z7 extraction)","subarea_name":"近世村のおおよその範囲","feature_key":"village:K59G01S00012","accuracy_note":"2015年農業集落境界をもとに復元した概略範囲で、江戸時代の正確な村境ではありません"},"geometry":{"type":"MultiPolygon","coordinates":[[[[131.454849,33.551123],[131.456909,33.549979],[131.458969,33.549979],[131.458969,33.549407],[131.461029,33.549407],[131.463776,33.547118],[131.464462,33.545973],[131.463089,33.545973],[131.465836,33.543112],[131.457596,33.540822],[131.454849,33.545401],[131.454849,33.551123]]],[[[131.466522,33.552268],[131.466522,33.550551],[131.468582,33.549407],[131.469269,33.54769],[131.468582,33.546545],[131.467896,33.546545],[131.465836,33.549407],[131.458969,33.549407],[131.465149,33.551696],[131.466522,33.552268]]],[[[131.465836,33.549407],[131.467896,33.546545],[131.468582,33.546545],[131.467209,33.543684],[131.465836,33.543112],[131.463089,33.545973],[131.464462,33.545973],[131.463776,33.547118],[131.458969,33.549407],[131.465836,33.549407]]],[[[131.470642,33.553412],[131.471329,33.550551],[131.469269,33.54769],[131.468582,33.548262],[131.466522,33.552268],[131.470642,33.553412]]],[[[131.487808,33.551696],[131.495361,33.551123],[131.481628,33.542539],[131.474762,33.541967],[131.472702,33.544256],[131.472015,33.544256],[131.467209,33.543684],[131.471329,33.550551],[131.473389,33.548834],[131.478195,33.549407],[131.480255,33.548834],[131.487808,33.551696]]]]}},{"type":"Feature","properties":{"layer_id":"bakumatsu_villages","name":"楢林村","address":"豊後 国東郡","source":"Geoshape 幕末期近世村領域データセット vector tiles (z7 extraction)","subarea_name":"近世村のおおよその範囲","feature_key":"village:K59G01S00009","accuracy_note":"2015年農業集落境界をもとに復元した概略範囲で、江戸時代の正確な村境ではありません"},"geometry":{"type":"MultiPolygon","coordinates":[[[[131.430817,33.549407],[131.435623,33.540822],[131.433563,33.537961],[131.43219,33.537961],[131.430817,33.539678],[131.429443,33.544256],[131.428757,33.545973],[131.430817,33.549407]]],[[[131.429443,33.544256],[131.43219,33.537961],[131.43013,33.536816],[131.424637,33.537961],[131.429443,33.544256]]]]}},{"type":"Feature","properties":{"layer_id":"bakumatsu_villages","name":"樋口村","address":"豊後 国東郡","source":"Geoshape 幕末期近世村領域データセット vector tiles (z7 extraction)","subarea_name":"近世村のおおよその範囲","feature_key":"village:K59G01S00079","accuracy_note":"2015年農業集落境界をもとに復元した概略範囲で、江戸時代の正確な村境ではありません"},"geometry":{"type":"MultiPolygon","coordinates":[[[[131.520767,33.66664],[131.521454,33.664925],[131.525574,33.664354],[131.524887,33.663211],[131.52626,33.661496],[131.515274,33.658639],[131.513214,33.662639],[131.517334,33.663782],[131.519394,33.666068],[131.520767,33.66664]]],[[[131.529694,33.662639],[131.53038,33.658067],[131.52832,33.655781],[131.527634,33.656924],[131.520767,33.652351],[131.517334,33.653495],[131.515274,33.658639],[131.52626,33.661496],[131.529694,33.662639]]]]}},{"type":"Feature","properties":{"layer_id":"bakumatsu_villages","name":"横内村","address":"豊後 国東郡","source":"Geoshape 幕末期近世村領域データセット vector tiles (z7 extraction)","subarea_name":"近世村のおおよその範囲","feature_key":"village:K59G01S00060","accuracy_note":"2015年農業集落境界をもとに復元した概略範囲で、江戸時代の正確な村境ではありません"},"geometry":{"type":"Polygon","coordinates":[[[131.508408,33.62777],[131.509781,33.626627],[131.513901,33.625483],[131.514587,33.62434],[131.512527,33.623196],[131.509781,33.618622],[131.505661,33.616907],[131.500168,33.620337],[131.502228,33.62434],[131.500168,33.625483],[131.503601,33.625483],[131.505661,33.62777],[131.508408,33.62777]]]}},{"type":"Feature","properties":{"layer_id":"bakumatsu_villages","name":"横嶺村","address":"豊後 国東郡","source":"Geoshape 幕末期近世村領域データセット vector tiles (z7 extraction)","subarea_name":"近世村のおおよその範囲","feature_key":"village:K59G01S00019","accuracy_note":"2015年農業集落境界をもとに復元した概略範囲で、江戸時代の正確な村境ではありません"},"geometry":{"type":"Polygon","coordinates":[[[131.503601,33.529375],[131.504288,33.528231],[131.507034,33.527658],[131.507721,33.526513],[131.511841,33.525369],[131.514587,33.522506],[131.514587,33.521934],[131.509781,33.519644],[131.510468,33.518499],[131.504974,33.521934],[131.500854,33.519644],[131.496048,33.519644],[131.489182,33.516209],[131.499481,33.523651],[131.503601,33.529375]]]}},{"type":"Feature","properties":{"layer_id":"bakumatsu_villages","name":"水崎村","address":"豊前 宇佐郡","source":"Geoshape 幕末期近世村領域データセット vector tiles (z7 extraction)","subarea_name":"近世村のおおよその範囲","feature_key":"village:K58G01S00008","accuracy_note":"2015年農業集落境界をもとに復元した概略範囲で、江戸時代の正確な村境ではありません"},"geometry":{"type":"MultiPolygon","coordinates":[[[[131.413651,33.556273],[131.417084,33.555129],[131.41983,33.552268],[131.419144,33.547118],[131.418457,33.547118],[131.418457,33.549979],[131.417084,33.551696],[131.413651,33.55284],[131.412277,33.553985],[131.413651,33.556273]]],[[[131.424637,33.566573],[131.42395,33.560279],[131.424637,33.559134],[131.415024,33.559134],[131.415024,33.563712],[131.420517,33.566],[131.424637,33.566573]]],[[[131.42395,33.559134],[131.424637,33.556846],[131.419144,33.555701],[131.418457,33.556273],[131.417084,33.555129],[131.413651,33.556273],[131.415024,33.559134],[131.42395,33.559134]]],[[[131.424637,33.556846],[131.42189,33.553412],[131.421204,33.554557],[131.41983,33.552268],[131.417084,33.555129],[131.418457,33.556273],[131.419144,33.555701],[131.424637,33.556846]]],[[[131.424637,33.556846],[131.427383,33.555129],[131.42601,33.551696],[131.424637,33.551123],[131.424637,33.548262],[131.423264,33.549979],[131.421204,33.549979],[131.41983,33.548834],[131.421204,33.54769],[131.419144,33.547118],[131.41983,33.552268],[131.421204,33.554557],[131.42189,33.553412],[131.424637,33.556846]]]]}},{"type":"Feature","properties":{"layer_id":"bakumatsu_villages","name":"池部村","address":"豊後 国東郡","source":"Geoshape 幕末期近世村領域データセット vector tiles (z7 extraction)","subarea_name":"近世村のおおよその範囲","feature_key":"village:K59G01S00027","accuracy_note":"2015年農業集落境界をもとに復元した概略範囲で、江戸時代の正確な村境ではありません"},"geometry":{"type":"MultiPolygon","coordinates":[[[[131.507721,33.53052],[131.513214,33.528231],[131.519394,33.527086],[131.523514,33.529375],[131.527634,33.529375],[131.5242,33.528231],[131.521454,33.523651],[131.519394,33.523651],[131.518021,33.522506],[131.514587,33.521934],[131.511841,33.525369],[131.507721,33.526513],[131.507034,33.527658],[131.504288,33.528231],[131.503601,33.529375],[131.507721,33.53052]]],[[[131.527634,33.531092],[131.531754,33.53052],[131.533127,33.528803],[131.527634,33.522506],[131.523514,33.520217],[131.520767,33.515637],[131.518707,33.515064],[131.518021,33.516782],[131.515961,33.517354],[131.514587,33.520217],[131.514587,33.521934],[131.518021,33.522506],[131.519394,33.523651],[131.521454,33.523651],[131.5242,33.528231],[131.526947,33.529375],[131.527634,33.529948],[131.525574,33.529948],[131.527634,33.531092]]]]}},{"type":"Feature","properties":{"layer_id":"bakumatsu_villages","name":"浜村","address":"豊後 国東郡","source":"Geoshape 幕末期近世村領域データセット vector tiles (z7 extraction)","subarea_name":"近世村のおおよその範囲","feature_key":"village:K59G01S00054","accuracy_note":"2015年農業集落境界をもとに復元した概略範囲で、江戸時代の正確な村境ではありません"},"geometry":{"type":"MultiPolygon","coordinates":[[[[131.468582,33.616335],[131.471329,33.61805],[131.473389,33.621481],[131.476822,33.61805],[131.479568,33.616907],[131.481628,33.613476],[131.485748,33.613476],[131.487122,33.612332],[131.475449,33.606041],[131.467209,33.609473],[131.469269,33.612332],[131.467896,33.614047],[131.468582,33.614619],[131.469269,33.614619],[131.468582,33.616335]]],[[[131.467896,33.616335],[131.467209,33.616335],[131.463776,33.619766],[131.467896,33.616335]]]]}},{"type":"Feature","properties":{"layer_id":"bakumatsu_villages","name":"湯原村","address":"豊後 国東郡","source":"Geoshape 幕末期近世村領域データセット vector tiles (z7 extraction)","subarea_name":"近世村のおおよその範囲","feature_key":"village:K59G01S00065","accuracy_note":"2015年農業集落境界をもとに復元した概略範囲で、江戸時代の正確な村境ではありません"},"geometry":{"type":"Polygon","coordinates":[[[131.492615,33.597463],[131.496048,33.595747],[131.502914,33.595175],[131.507721,33.594031],[131.510468,33.591171],[131.511841,33.590027],[131.513901,33.590599],[131.516647,33.587167],[131.515274,33.580303],[131.512527,33.584307],[131.509781,33.586023],[131.502914,33.587167],[131.498795,33.589455],[131.495361,33.589455],[131.488495,33.593459],[131.490555,33.596319],[131.492615,33.597463]]]}},{"type":"Feature","properties":{"layer_id":"bakumatsu_villages","name":"熊野村・田ノ口村","address":"豊後 国東郡","source":"Geoshape 幕末期近世村領域データセット vector tiles (z7 extraction)","subarea_name":"近世村のおおよその範囲","feature_key":"village:K59G01S00028,K59G01S00029","accuracy_note":"2015年農業集落境界をもとに復元した概略範囲で、江戸時代の正確な村境ではありません"},"geometry":{"type":"Polygon","coordinates":[[[131.513901,33.502469],[131.515961,33.500751],[131.514587,33.499606],[131.516647,33.497888],[131.517334,33.49617],[131.520081,33.494453],[131.520767,33.495598],[131.522141,33.49617],[131.521454,33.49388],[131.523514,33.489299],[131.5242,33.481854],[131.527634,33.477272],[131.522827,33.475554],[131.518707,33.476699],[131.513901,33.480709],[131.511841,33.481281],[131.511841,33.491017],[131.515274,33.497316],[131.513214,33.498461],[131.513901,33.502469]]]}},{"type":"Feature","properties":{"layer_id":"bakumatsu_villages","name":"犬田村","address":"豊後 国東郡","source":"Geoshape 幕末期近世村領域データセット vector tiles (z7 extraction)","subarea_name":"近世村のおおよその範囲","feature_key":"village:K59G01S00008","accuracy_note":"2015年農業集落境界をもとに復元した概略範囲で、江戸時代の正確な村境ではありません"},"geometry":{"type":"MultiPolygon","coordinates":[[[[131.427383,33.555129],[131.429443,33.554557],[131.431503,33.551696],[131.428757,33.545973],[131.426697,33.547118],[131.424637,33.545973],[131.424637,33.551123],[131.42601,33.551696],[131.427383,33.555129]]],[[[131.426697,33.547118],[131.428757,33.545973],[131.429443,33.543684],[131.424637,33.538533],[131.423264,33.544256],[131.426697,33.547118]]]]}},{"type":"Feature","properties":{"layer_id":"bakumatsu_villages","name":"狩場村","address":"豊後 国東郡","source":"Geoshape 幕末期近世村領域データセット vector tiles (z7 extraction)","subarea_name":"近世村のおおよその範囲","feature_key":"village:K59G01S00074","accuracy_note":"2015年農業集落境界をもとに復元した概略範囲で、江戸時代の正確な村境ではありません"},"geometry":{"type":"MultiPolygon","coordinates":[[[[131.545486,33.622053],[131.557159,33.612332],[131.557846,33.608329],[131.559219,33.607185],[131.561966,33.600322],[131.557159,33.60261],[131.55304,33.603182],[131.549606,33.600322],[131.54274,33.599751],[131.535873,33.606613],[131.537247,33.610045],[131.535187,33.611188],[131.535187,33.613476],[131.54068,33.615763],[131.545486,33.622053]]],[[[131.555786,33.627199],[131.559906,33.623768],[131.564026,33.623768],[131.564026,33.621481],[131.565399,33.619766],[131.567459,33.620337],[131.568146,33.618622],[131.573639,33.619194],[131.575699,33.617478],[131.575699,33.615763],[131.578445,33.614047],[131.577759,33.612332],[131.575012,33.61176],[131.575012,33.607185],[131.571579,33.604326],[131.572952,33.601466],[131.564026,33.599179],[131.561966,33.600322],[131.559219,33.607185],[131.557846,33.608329],[131.557159,33.612332],[131.545486,33.622053],[131.555786,33.627199]]]]}},{"type":"Feature","properties":{"layer_id":"bakumatsu_villages","name":"田福村","address":"豊後 国東郡","source":"Geoshape 幕末期近世村領域データセット vector tiles (z7 extraction)","subarea_name":"近世村のおおよその範囲","feature_key":"village:K59G01S00003","accuracy_note":"2015年農業集落境界をもとに復元した概略範囲で、江戸時代の正確な村境ではありません"},"geometry":{"type":"MultiPolygon","coordinates":[[[[131.453476,33.567717],[131.462402,33.565428],[131.458282,33.563712],[131.458282,33.559707],[131.450043,33.56314],[131.450043,33.564856],[131.452103,33.564856],[131.453476,33.567717]]],[[[131.451416,33.562568],[131.458282,33.559707],[131.456909,33.557418],[131.451416,33.558562],[131.450043,33.556273],[131.448669,33.559134],[131.451416,33.562568]]]]}},{"type":"Feature","properties":{"layer_id":"bakumatsu_villages","name":"相原村","address":"豊後 国東郡","source":"Geoshape 幕末期近世村領域データセット vector tiles (z7 extraction)","subarea_name":"近世村のおおよその範囲","feature_key":"village:K59G01S00033","accuracy_note":"2015年農業集落境界をもとに復元した概略範囲で、江戸時代の正確な村境ではありません"},"geometry":{"type":"MultiPolygon","coordinates":[[[[131.553726,33.537388],[131.553726,33.533382],[131.550293,33.529375],[131.549606,33.523651],[131.547546,33.523079],[131.546173,33.520789],[131.54686,33.519072],[131.545486,33.514492],[131.544113,33.516209],[131.54274,33.515064],[131.53862,33.513919],[131.535873,33.513919],[131.539307,33.521361],[131.54686,33.531665],[131.548233,33.534527],[131.550293,33.536816],[131.553726,33.537388]]],[[[131.53862,33.531665],[131.542053,33.531092],[131.53862,33.525941],[131.522141,33.508194],[131.520767,33.508194],[131.518707,33.515064],[131.520767,33.515637],[131.523514,33.520217],[131.527634,33.522506],[131.535187,33.531092],[131.53862,33.531665]]],[[[131.548233,33.534527],[131.54686,33.531665],[131.539307,33.521361],[131.535873,33.513919],[131.53862,33.513919],[131.54274,33.515064],[131.53656,33.505904],[131.535187,33.505332],[131.5345,33.504187],[131.531067,33.506477],[131.52626,33.507622],[131.52626,33.508767],[131.522141,33.508194],[131.54068,33.528231],[131.544113,33.533954],[131.548233,33.534527]]]]}},{"type":"Feature","properties":{"layer_id":"bakumatsu_villages","name":"知恩寺村","address":"豊後 国東郡","source":"Geoshape 幕末期近世村領域データセット vector tiles (z7 extraction)","subarea_name":"近世村のおおよその範囲","feature_key":"village:K59G01S00015","accuracy_note":"2015年農業集落境界をもとに復元した概略範囲で、江戸時代の正確な村境ではありません"},"geometry":{"type":"Polygon","coordinates":[[[131.493988,33.554557],[131.496048,33.553412],[131.495361,33.551123],[131.487808,33.551696],[131.480255,33.548834],[131.478195,33.549407],[131.472702,33.548834],[131.469955,33.553412],[131.473389,33.553985],[131.482315,33.552268],[131.487808,33.553985],[131.493988,33.554557]]]}},{"type":"Feature","properties":{"layer_id":"bakumatsu_villages","name":"算所村","address":"豊後 国東郡","source":"Geoshape 幕末期近世村領域データセット vector tiles (z7 extraction)","subarea_name":"近世村のおおよその範囲","feature_key":"village:K59G01S00045","accuracy_note":"2015年農業集落境界をもとに復元した概略範囲で、江戸時代の正確な村境ではありません"},"geometry":{"type":"Polygon","coordinates":[[[131.447983,33.569433],[131.453476,33.567717],[131.452103,33.564856],[131.450043,33.564856],[131.450043,33.562568],[131.448669,33.56314],[131.446609,33.564284],[131.445923,33.566],[131.447983,33.569433]]]}},{"type":"Feature","properties":{"layer_id":"bakumatsu_villages","name":"築地村","address":"豊後 国東郡","source":"Geoshape 幕末期近世村領域データセット vector tiles (z7 extraction)","subarea_name":"近世村のおおよその範囲","feature_key":"village:K59G01S00040","accuracy_note":"2015年農業集落境界をもとに復元した概略範囲で、江戸時代の正確な村境ではありません"},"geometry":{"type":"Polygon","coordinates":[[[131.506348,33.576299],[131.509094,33.574582],[131.509094,33.567717],[131.511841,33.564284],[131.507721,33.563712],[131.503601,33.561995],[131.500854,33.562568],[131.497421,33.561423],[131.497421,33.56314],[131.499481,33.563712],[131.500168,33.566573],[131.505661,33.566573],[131.505661,33.567717],[131.500854,33.567145],[131.500854,33.568289],[131.501541,33.57115],[131.503601,33.571722],[131.501541,33.572294],[131.506348,33.576299]]]}},{"type":"Feature","properties":{"layer_id":"bakumatsu_villages","name":"羽根村","address":"豊後 国東郡","source":"Geoshape 幕末期近世村領域データセット vector tiles (z7 extraction)","subarea_name":"近世村のおおよその範囲","feature_key":"village:K59G01S00077","accuracy_note":"2015年農業集落境界をもとに復元した概略範囲で、江戸時代の正確な村境ではありません"},"geometry":{"type":"MultiPolygon","coordinates":[[[[131.497421,33.66664],[131.499481,33.66664],[131.501541,33.665497],[131.511841,33.657495],[131.511154,33.656924],[131.511154,33.655781],[131.496735,33.664354],[131.497421,33.66664]]],[[[131.496735,33.664354],[131.507721,33.657495],[131.506348,33.656924],[131.503601,33.657495],[131.502914,33.657495],[131.503601,33.658639],[131.501541,33.65921],[131.502228,33.659782],[131.499481,33.660925],[131.496735,33.664354]]],[[[131.505661,33.657495],[131.506348,33.656924],[131.505661,33.655209],[131.507721,33.652923],[131.506348,33.651208],[131.496735,33.655209],[131.498795,33.656352],[131.503601,33.655781],[131.504974,33.656924],[131.502914,33.657495],[131.505661,33.657495]]],[[[131.507721,33.657495],[131.511154,33.655781],[131.507721,33.652923],[131.505661,33.655209],[131.507721,33.657495]]],[[[131.509781,33.654638],[131.511154,33.65178],[131.513214,33.651208],[131.516647,33.64835],[131.511154,33.648922],[131.508408,33.647779],[131.506348,33.651208],[131.509781,33.654638]]],[[[131.512527,33.657495],[131.514587,33.654638],[131.520767,33.652351],[131.525574,33.646064],[131.522827,33.644349],[131.520081,33.644349],[131.513214,33.651208],[131.511154,33.65178],[131.509781,33.654638],[131.510468,33.654638],[131.511154,33.656924],[131.512527,33.657495]]],[[[131.511154,33.648922],[131.517334,33.64835],[131.520081,33.644349],[131.525574,33.644921],[131.52626,33.640919],[131.531067,33.635203],[131.527634,33.630057],[131.523514,33.631772],[131.518707,33.633487],[131.515274,33.635774],[131.511154,33.642063],[131.511154,33.643206],[131.509781,33.646064],[131.508408,33.647779],[131.511154,33.648922]]]]}},{"type":"Feature","properties":{"layer_id":"bakumatsu_villages","name":"臼野村","address":"豊後 国東郡","source":"Geoshape 幕末期近世村領域データセット vector tiles (z7 extraction)","subarea_name":"近世村のおおよその範囲","feature_key":"village:K59G01S00059","accuracy_note":"2015年農業集落境界をもとに復元した概略範囲で、江戸時代の正確な村境ではありません"},"geometry":{"type":"MultiPolygon","coordinates":[[[[131.474762,33.629485],[131.480942,33.628342],[131.483688,33.626627],[131.483688,33.622624],[131.476822,33.622053],[131.472702,33.622624],[131.474762,33.626627],[131.474762,33.629485]]],[[[131.480942,33.634631],[131.484375,33.632344],[131.482315,33.630629],[131.479568,33.632916],[131.479568,33.633487],[131.478882,33.633487],[131.479568,33.634631],[131.480942,33.634631]]],[[[131.485062,33.64835],[131.488495,33.644349],[131.495361,33.639204],[131.492615,33.639776],[131.488495,33.639204],[131.482315,33.640919],[131.480942,33.642634],[131.484375,33.644921],[131.483688,33.643777],[131.485748,33.644349],[131.485062,33.64835]]],[[[131.480255,33.639776],[131.480942,33.642634],[131.482315,33.640919],[131.488495,33.639204],[131.492615,33.639776],[131.493301,33.639204],[131.491241,33.637489],[131.485748,33.636346],[131.483002,33.634059],[131.480942,33.634631],[131.483002,33.635203],[131.483688,33.637489],[131.483002,33.639204],[131.482315,33.638061],[131.480255,33.639776]]],[[[131.495361,33.639204],[131.499481,33.635203],[131.496735,33.635203],[131.494675,33.632344],[131.490555,33.630629],[131.487808,33.631772],[131.485748,33.636346],[131.491241,33.637489],[131.493301,33.639204],[131.495361,33.639204]]],[[[131.485748,33.636346],[131.487808,33.631772],[131.490555,33.630629],[131.492615,33.631201],[131.490555,33.628914],[131.489182,33.625483],[131.482315,33.630629],[131.484375,33.632344],[131.483002,33.634059],[131.485748,33.636346]]],[[[131.478195,33.632916],[131.480942,33.631772],[131.488495,33.626055],[131.497421,33.622053],[131.505661,33.616907],[131.501541,33.614619],[131.499481,33.615763],[131.496048,33.616907],[131.484375,33.623768],[131.482315,33.62777],[131.474762,33.629485],[131.474762,33.630629],[131.478195,33.632916]]],[[[131.491928,33.630629],[131.497421,33.628914],[131.492615,33.62434],[131.489182,33.625483],[131.490555,33.628914],[131.491928,33.630629]]],[[[131.498795,33.635203],[131.505661,33.629485],[131.504288,33.628914],[131.497421,33.628914],[131.496048,33.630057],[131.492615,33.630057],[131.491928,33.631201],[131.495361,33.632916],[131.496735,33.635203],[131.498795,33.635203]]],[[[131.505661,33.629485],[131.508408,33.62777],[131.505661,33.62777],[131.503601,33.625483],[131.500168,33.625483],[131.502228,33.62434],[131.500168,33.620337],[131.492615,33.62434],[131.497421,33.628914],[131.504288,33.628914],[131.505661,33.629485]]]]}},{"type":"Feature","properties":{"layer_id":"bakumatsu_villages","name":"臼野村之内・泊村","address":"豊後 国東郡","source":"Geoshape 幕末期近世村領域データセット vector tiles (z7 extraction)","subarea_name":"近世村のおおよその範囲","feature_key":"village:K59G01S00058","accuracy_note":"2015年農業集落境界をもとに復元した概略範囲で、江戸時代の正確な村境ではありません"},"geometry":{"type":"MultiPolygon","coordinates":[[[[131.484375,33.623768],[131.493988,33.618622],[131.476822,33.61805],[131.473389,33.621481],[131.472702,33.622624],[131.483002,33.622624],[131.484375,33.623768]]],[[[131.493988,33.618622],[131.496048,33.616907],[131.499481,33.615763],[131.491928,33.612332],[131.487122,33.612332],[131.485748,33.613476],[131.481628,33.613476],[131.479568,33.616907],[131.476822,33.61805],[131.493988,33.618622]]]]}},{"type":"Feature","properties":{"layer_id":"bakumatsu_villages","name":"芝崎村","address":"豊後 国東郡","source":"Geoshape 幕末期近世村領域データセット vector tiles (z7 extraction)","subarea_name":"近世村のおおよその範囲","feature_key":"village:K59G01S00002","accuracy_note":"2015年農業集落境界をもとに復元した概略範囲で、江戸時代の正確な村境ではありません"},"geometry":{"type":"MultiPolygon","coordinates":[[[[131.443863,33.57115],[131.447296,33.568861],[131.445923,33.566],[131.446609,33.564284],[131.448669,33.56314],[131.447983,33.561995],[131.445923,33.561423],[131.443176,33.561995],[131.445236,33.567145],[131.443176,33.569433],[131.443863,33.57115]]],[[[131.448669,33.56314],[131.451416,33.562568],[131.448669,33.559134],[131.445923,33.561423],[131.447983,33.561995],[131.448669,33.56314]]],[[[131.44455,33.561995],[131.445923,33.561423],[131.450043,33.55799],[131.450043,33.556273],[131.446609,33.553412],[131.443863,33.555701],[131.441803,33.560851],[131.443863,33.560851],[131.44455,33.561995]]]]}},{"type":"Feature","properties":{"layer_id":"bakumatsu_villages","name":"草地村","address":"豊後 国東郡","source":"Geoshape 幕末期近世村領域データセット vector tiles (z7 extraction)","subarea_name":"近世村のおおよその範囲","feature_key":"village:K59G01S00048","accuracy_note":"2015年農業集落境界をもとに復元した概略範囲で、江戸時代の正確な村境ではありません"},"geometry":{"type":"MultiPolygon","coordinates":[[[[131.464462,33.588883],[131.466522,33.587739],[131.469955,33.587167],[131.468582,33.584879],[131.467209,33.584879],[131.466522,33.583163],[131.458282,33.582591],[131.458282,33.583163],[131.453476,33.582019],[131.451416,33.583163],[131.451416,33.588311],[131.464462,33.588883]]],[[[131.466522,33.583163],[131.460342,33.579731],[131.458969,33.578015],[131.453476,33.578015],[131.450043,33.580303],[131.451416,33.583163],[131.454849,33.582019],[131.458282,33.583163],[131.458282,33.582591],[131.466522,33.583163]]],[[[131.461716,33.593459],[131.472702,33.592887],[131.473389,33.590599],[131.480255,33.587739],[131.481628,33.585451],[131.473389,33.584879],[131.469269,33.586023],[131.469955,33.586595],[131.469955,33.587167],[131.464462,33.588883],[131.461716,33.591743],[131.461716,33.593459]]],[[[131.468582,33.584879],[131.474762,33.579159],[131.483688,33.579159],[131.483688,33.575726],[131.478882,33.575726],[131.476135,33.576299],[131.467896,33.575154],[131.463776,33.575726],[131.464462,33.576871],[131.456223,33.577443],[131.458969,33.578015],[131.460342,33.579731],[131.466522,33.582591],[131.467209,33.584879],[131.468582,33.584879]]],[[[131.480942,33.587739],[131.486435,33.584307],[131.490555,33.583163],[131.494675,33.583163],[131.494675,33.582019],[131.490555,33.580303],[131.483688,33.579159],[131.474762,33.579159],[131.468582,33.584879],[131.469269,33.586023],[131.473389,33.584879],[131.481628,33.585451],[131.480255,33.587739],[131.480942,33.587739]]],[[[131.450043,33.580303],[131.452103,33.578015],[131.456223,33.577443],[131.456909,33.57115],[131.453476,33.572866],[131.453476,33.574582],[131.452789,33.574582],[131.452103,33.57401],[131.450729,33.578015],[131.449356,33.579731],[131.450043,33.580303]]],[[[131.453476,33.574582],[131.453476,33.572866],[131.456909,33.57115],[131.455536,33.570005],[131.455536,33.567717],[131.452789,33.569433],[131.452103,33.57401],[131.452789,33.574582],[131.453476,33.574582]]],[[[131.456223,33.577443],[131.464462,33.576871],[131.461029,33.575154],[131.460342,33.57401],[131.462402,33.572866],[131.459656,33.572294],[131.456223,33.567717],[131.455536,33.567717],[131.455536,33.570005],[131.456909,33.57115],[131.456223,33.577443]]],[[[131.463776,33.576299],[131.467896,33.575154],[131.467896,33.57401],[131.464462,33.573438],[131.464462,33.57115],[131.469269,33.569433],[131.475449,33.564284],[131.467896,33.56314],[131.463089,33.565428],[131.456223,33.567717],[131.459656,33.572294],[131.462402,33.572866],[131.460342,33.57401],[131.461029,33.575154],[131.463776,33.576299]]],[[[131.476135,33.576299],[131.478882,33.575726],[131.483688,33.575726],[131.485748,33.57401],[131.490555,33.572294],[131.492615,33.572294],[131.493988,33.57115],[131.491241,33.569433],[131.488495,33.570005],[131.484375,33.568289],[131.485062,33.567717],[131.482315,33.567145],[131.475449,33.564284],[131.469269,33.569433],[131.464462,33.57115],[131.464462,33.573438],[131.467896,33.57401],[131.467896,33.575154],[131.476135,33.576299]]],[[[131.495361,33.582591],[131.504288,33.581447],[131.505661,33.579731],[131.508408,33.579731],[131.505661,33.578587],[131.505661,33.575726],[131.501541,33.572294],[131.494675,33.569433],[131.491241,33.569433],[131.493988,33.57115],[131.492615,33.572294],[131.486435,33.57401],[131.483688,33.575726],[131.483688,33.579159],[131.490555,33.580303],[131.495361,33.582591]]]]}},{"type":"Feature","properties":{"layer_id":"bakumatsu_villages","name":"荒尾村","address":"豊後 国東郡","source":"Geoshape 幕末期近世村領域データセット vector tiles (z7 extraction)","subarea_name":"近世村のおおよその範囲","feature_key":"village:K59G01S00041","accuracy_note":"2015年農業集落境界をもとに復元した概略範囲で、江戸時代の正確な村境ではありません"},"geometry":{"type":"Polygon","coordinates":[[[131.503601,33.572294],[131.501541,33.57115],[131.500854,33.567717],[131.504288,33.567145],[131.505661,33.567717],[131.504974,33.566573],[131.500168,33.566573],[131.499481,33.563712],[131.497421,33.56314],[131.497421,33.561423],[131.495361,33.560851],[131.485748,33.559134],[131.485748,33.561423],[131.482315,33.561423],[131.481628,33.562568],[131.485748,33.566],[131.484375,33.568289],[131.488495,33.570005],[131.495361,33.569433],[131.500854,33.572294],[131.503601,33.572294]]]}},{"type":"Feature","properties":{"layer_id":"bakumatsu_villages","name":"菊山村・真木村","address":"豊後 国東郡","source":"Geoshape 幕末期近世村領域データセット vector tiles (z7 extraction)","subarea_name":"近世村のおおよその範囲","feature_key":"village:K59G01S00023,K59G01S00024","accuracy_note":"2015年農業集落境界をもとに復元した概略範囲で、江戸時代の正確な村境ではありません"},"geometry":{"type":"Polygon","coordinates":[[[131.517334,33.508194],[131.521454,33.503614],[131.520767,33.499606],[131.522827,33.498461],[131.522141,33.49617],[131.520767,33.495598],[131.520767,33.494453],[131.516647,33.49617],[131.516647,33.497888],[131.514587,33.499606],[131.515961,33.500751],[131.513214,33.502469],[131.515961,33.503614],[131.516647,33.507049],[131.517334,33.508194]]]}},{"type":"Feature","properties":{"layer_id":"bakumatsu_villages","name":"蕗村","address":"豊後 国東郡","source":"Geoshape 幕末期近世村領域データセット vector tiles (z7 extraction)","subarea_name":"近世村のおおよその範囲","feature_key":"village:K59G01S00034","accuracy_note":"2015年農業集落境界をもとに復元した概略範囲で、江戸時代の正確な村境ではありません"},"geometry":{"type":"MultiPolygon","coordinates":[[[[131.531067,33.545973],[131.531754,33.545401],[131.533127,33.544828],[131.535187,33.541395],[131.53862,33.539678],[131.53862,33.536244],[131.544113,33.533954],[131.544113,33.53281],[131.542053,33.531092],[131.53862,33.531665],[131.535187,33.531092],[131.533127,33.528231],[131.531754,33.53052],[131.527634,33.531092],[131.518707,33.527086],[131.516647,33.531092],[131.513901,33.53281],[131.514587,33.533954],[131.531067,33.545973]]],[[[131.542053,33.546545],[131.543427,33.544256],[131.560593,33.543684],[131.558533,33.54025],[131.557159,33.54025],[131.556473,33.539105],[131.554413,33.537388],[131.550293,33.536816],[131.547546,33.534527],[131.544113,33.533954],[131.53862,33.536244],[131.53862,33.539678],[131.535187,33.541395],[131.533127,33.544828],[131.535187,33.544256],[131.539307,33.545973],[131.541367,33.544828],[131.542053,33.546545]]]]}},{"type":"Feature","properties":{"layer_id":"bakumatsu_villages","name":"西畑村","address":"豊後 国東郡","source":"Geoshape 幕末期近世村領域データセット vector tiles (z7 extraction)","subarea_name":"近世村のおおよその範囲","feature_key":"village:K59G01S00057","accuracy_note":"2015年農業集落境界をもとに復元した概略範囲で、江戸時代の正確な村境ではありません"},"geometry":{"type":"Polygon","coordinates":[[[131.500168,33.615763],[131.506348,33.612904],[131.507034,33.608901],[131.495361,33.606041],[131.492615,33.610616],[131.493301,33.612904],[131.500168,33.615763]]]}},{"type":"Feature","properties":{"layer_id":"bakumatsu_villages","name":"見目村","address":"豊後 国東郡","source":"Geoshape 幕末期近世村領域データセット vector tiles (z7 extraction)","subarea_name":"近世村のおおよその範囲","feature_key":"village:K59G01S00080","accuracy_note":"2015年農業集落境界をもとに復元した概略範囲で、江戸時代の正確な村境ではありません"},"geometry":{"type":"MultiPolygon","coordinates":[[[[131.522827,33.675211],[131.524887,33.674069],[131.525574,33.672926],[131.52832,33.672354],[131.52832,33.669497],[131.527634,33.668926],[131.525574,33.671211],[131.521454,33.675211],[131.521454,33.676354],[131.522141,33.675211],[131.522827,33.675211]]],[[[131.527634,33.668926],[131.53038,33.666068],[131.524887,33.663211],[131.525574,33.666068],[131.5242,33.668354],[131.525574,33.668926],[131.527634,33.668926]]],[[[131.525574,33.68264],[131.526947,33.682068],[131.527634,33.682068],[131.533813,33.672354],[131.53656,33.669497],[131.535873,33.667211],[131.533813,33.666068],[131.529007,33.669497],[131.52832,33.672354],[131.529694,33.67464],[131.52832,33.676926],[131.5242,33.680925],[131.522141,33.68264],[131.522141,33.684354],[131.523514,33.684354],[131.524887,33.68264],[131.525574,33.68264]]],[[[131.541367,33.679211],[131.54274,33.678068],[131.54274,33.677497],[131.544113,33.677497],[131.54892,33.66664],[131.542053,33.667783],[131.537247,33.669497],[131.533813,33.672354],[131.52832,33.681497],[131.531067,33.680354],[131.533813,33.676926],[131.535187,33.676926],[131.537247,33.680354],[131.54068,33.679211],[131.541367,33.679211]]],[[[131.54274,33.678068],[131.54274,33.679211],[131.543427,33.67864],[131.54274,33.678068]]],[[[131.52832,33.669497],[131.533813,33.666068],[131.53244,33.665497],[131.5345,33.664354],[131.533127,33.662639],[131.53038,33.665497],[131.527634,33.668926],[131.52832,33.669497]]],[[[131.53038,33.666068],[131.5345,33.660925],[131.53038,33.660353],[131.529694,33.662639],[131.52626,33.661496],[131.524887,33.663211],[131.53038,33.666068]]],[[[131.53656,33.669497],[131.542053,33.667783],[131.54892,33.66664],[131.549606,33.65921],[131.541367,33.660925],[131.537247,33.658639],[131.5345,33.660925],[131.533127,33.662639],[131.5345,33.664354],[131.53244,33.665497],[131.535873,33.667211],[131.53656,33.669497]]],[[[131.541367,33.660925],[131.54686,33.660353],[131.549606,33.65921],[131.551666,33.650637],[131.554413,33.64835],[131.556473,33.644349],[131.55304,33.642634],[131.55098,33.642063],[131.548233,33.640919],[131.547546,33.638633],[131.544113,33.642634],[131.5448,33.643206],[131.543427,33.647207],[131.542053,33.64835],[131.539993,33.655209],[131.537247,33.658639],[131.541367,33.660925]]]]}},{"type":"Feature","properties":{"layer_id":"bakumatsu_villages","name":"野部村","address":"豊後 国東郡","source":"Geoshape 幕末期近世村領域データセット vector tiles (z7 extraction)","subarea_name":"近世村のおおよその範囲","feature_key":"village:K59G01S00005","accuracy_note":"2015年農業集落境界をもとに復元した概略範囲で、江戸時代の正確な村境ではありません"},"geometry":{"type":"MultiPolygon","coordinates":[[[[131.463089,33.565428],[131.465836,33.563712],[131.465149,33.560851],[131.461029,33.557418],[131.458969,33.554557],[131.456909,33.553985],[131.455536,33.55799],[131.456909,33.557418],[131.458282,33.559707],[131.458282,33.562568],[131.458969,33.563712],[131.463089,33.565428]]],[[[131.465149,33.560851],[131.465149,33.556846],[131.465836,33.556846],[131.465149,33.551696],[131.458969,33.549979],[131.459656,33.555701],[131.465149,33.560851]]]]}},{"type":"Feature","properties":{"layer_id":"bakumatsu_villages","name":"金屋村・和田新田","address":"豊後 国東郡","source":"Geoshape 幕末期近世村領域データセット vector tiles (z7 extraction)","subarea_name":"近世村のおおよその範囲","feature_key":"village:K59G01S00052,K59G01S00063","accuracy_note":"2015年農業集落境界をもとに復元した概略範囲で、江戸時代の正確な村境ではありません"},"geometry":{"type":"Polygon","coordinates":[[[131.461716,33.619194],[131.469269,33.612332],[131.466522,33.608901],[131.463089,33.606613],[131.464462,33.604898],[131.467896,33.60547],[131.469955,33.603754],[131.470642,33.60261],[131.468582,33.599179],[131.467209,33.598607],[131.472015,33.596319],[131.467896,33.592887],[131.464462,33.593459],[131.464462,33.594603],[131.454163,33.598607],[131.445236,33.607185],[131.461716,33.619194]]]}},{"type":"Feature","properties":{"layer_id":"bakumatsu_villages","name":"長小野村","address":"豊後 国東郡","source":"Geoshape 幕末期近世村領域データセット vector tiles (z7 extraction)","subarea_name":"近世村のおおよその範囲","feature_key":"village:K59G01S00082","accuracy_note":"2015年農業集落境界をもとに復元した概略範囲で、江戸時代の正確な村境ではありません"},"geometry":{"type":"Polygon","coordinates":[[[131.546173,33.639204],[131.547546,33.638633],[131.548233,33.635774],[131.551666,33.632916],[131.552353,33.631201],[131.54892,33.631201],[131.5448,33.628914],[131.543427,33.628914],[131.54274,33.626627],[131.54068,33.626627],[131.537933,33.623768],[131.53656,33.618622],[131.535187,33.623196],[131.531754,33.628342],[131.527634,33.630057],[131.52832,33.631772],[131.531067,33.634059],[131.535187,33.634631],[131.53656,33.634059],[131.546173,33.639204]]]}},{"type":"Feature","properties":{"layer_id":"bakumatsu_villages","name":"長岩屋村","address":"豊後 国東郡","source":"Geoshape 幕末期近世村領域データセット vector tiles (z7 extraction)","subarea_name":"近世村のおおよその範囲","feature_key":"village:K59G01S00042","accuracy_note":"2015年農業集落境界をもとに復元した概略範囲で、江戸時代の正確な村境ではありません"},"geometry":{"type":"MultiPolygon","coordinates":[[[[131.539307,33.580875],[131.546173,33.570005],[131.54068,33.566],[131.535873,33.566],[131.535873,33.564856],[131.533127,33.564284],[131.523514,33.565428],[131.522141,33.566573],[131.522827,33.575154],[131.527634,33.578587],[131.529007,33.578015],[131.535873,33.580875],[131.539307,33.580875]]],[[[131.565399,33.587739],[131.567459,33.586023],[131.569519,33.586595],[131.569519,33.584307],[131.566086,33.584307],[131.566772,33.582591],[131.566086,33.580875],[131.568832,33.580303],[131.568832,33.579159],[131.566086,33.577443],[131.568146,33.575726],[131.565399,33.572866],[131.560593,33.570578],[131.554413,33.569433],[131.552353,33.567145],[131.550293,33.567717],[131.548233,33.570005],[131.546173,33.570005],[131.539307,33.580875],[131.543427,33.580875],[131.549606,33.583163],[131.557159,33.583735],[131.561279,33.587167],[131.565399,33.587739]]]]}},{"type":"Feature","properties":{"layer_id":"bakumatsu_villages","name":"間戸村","address":"豊後 国東郡","source":"Geoshape 幕末期近世村領域データセット vector tiles (z7 extraction)","subarea_name":"近世村のおおよその範囲","feature_key":"village:K59G01S00022","accuracy_note":"2015年農業集落境界をもとに復元した概略範囲で、江戸時代の正確な村境ではありません"},"geometry":{"type":"Polygon","coordinates":[[[131.514587,33.508767],[131.517334,33.508194],[131.516647,33.507049],[131.515961,33.503614],[131.513214,33.502469],[131.509781,33.507049],[131.514587,33.508767]]]}},{"type":"Feature","properties":{"layer_id":"bakumatsu_villages","name":"陽平村・薗木村","address":"豊後 国東郡","source":"Geoshape 幕末期近世村領域データセット vector tiles (z7 extraction)","subarea_name":"近世村のおおよその範囲","feature_key":"village:K59G01S00025,K59G01S00026","accuracy_note":"2015年農業集落境界をもとに復元した概略範囲で、江戸時代の正確な村境ではありません"},"geometry":{"type":"Polygon","coordinates":[[[131.511154,33.503614],[131.513901,33.502469],[131.513214,33.498461],[131.515274,33.497316],[131.511841,33.491017],[131.511841,33.481281],[131.508408,33.480709],[131.505661,33.481854],[131.504288,33.485863],[131.502914,33.485863],[131.500168,33.488153],[131.493301,33.490444],[131.492615,33.492162],[131.491241,33.492162],[131.496048,33.495025],[131.497421,33.494453],[131.498795,33.496743],[131.504288,33.497316],[131.507034,33.501324],[131.511154,33.503614]]]}},{"type":"Feature","properties":{"layer_id":"bakumatsu_villages","name":"雷村","address":"豊後 国東郡","source":"Geoshape 幕末期近世村領域データセット vector tiles (z7 extraction)","subarea_name":"近世村のおおよその範囲","feature_key":"village:K59G01S00006","accuracy_note":"2015年農業集落境界をもとに復元した概略範囲で、江戸時代の正確な村境ではありません"},"geometry":{"type":"MultiPolygon","coordinates":[[[[131.473389,33.563712],[131.474075,33.55799],[131.471329,33.556273],[131.470642,33.555129],[131.469269,33.555701],[131.468582,33.554557],[131.465149,33.556846],[131.464462,33.561423],[131.465836,33.563712],[131.468582,33.562568],[131.473389,33.563712]]],[[[131.465836,33.556846],[131.468582,33.555129],[131.469269,33.555701],[131.470642,33.555129],[131.470642,33.554557],[131.465149,33.551696],[131.465149,33.554557],[131.465836,33.556846]]]]}},{"type":"Feature","properties":{"layer_id":"bakumatsu_villages","name":"香々地村","address":"豊後 国東郡","source":"Geoshape 幕末期近世村領域データセット vector tiles (z7 extraction)","subarea_name":"近世村のおおよその範囲","feature_key":"village:K59G01S00078","accuracy_note":"2015年農業集落境界をもとに復元した概略範囲で、江戸時代の正確な村境ではありません"},"geometry":{"type":"MultiPolygon","coordinates":[[[[131.521454,33.673497],[131.522827,33.672926],[131.523514,33.670068],[131.522141,33.670068],[131.522141,33.671211],[131.520767,33.67064],[131.521454,33.670068],[131.518021,33.669497],[131.518021,33.670068],[131.520081,33.671211],[131.521454,33.673497]]],[[[131.5242,33.669497],[131.525574,33.668926],[131.5242,33.668354],[131.5242,33.669497]]],[[[131.521454,33.674069],[131.522827,33.673497],[131.523514,33.671783],[131.521454,33.674069]]],[[[131.521454,33.675211],[131.527634,33.668926],[131.525574,33.668926],[131.521454,33.675211]]],[[[131.504288,33.671783],[131.506348,33.67064],[131.507721,33.671783],[131.512527,33.666068],[131.513214,33.662639],[131.517334,33.653495],[131.508408,33.660925],[131.497421,33.667211],[131.498795,33.667211],[131.498108,33.668926],[131.499481,33.671783],[131.504288,33.671783]]],[[[131.506348,33.675211],[131.510468,33.673497],[131.511841,33.672354],[131.513214,33.672926],[131.511841,33.671783],[131.514587,33.67064],[131.514587,33.669497],[131.518021,33.670068],[131.520767,33.66664],[131.517334,33.663782],[131.513214,33.662639],[131.512527,33.666068],[131.507721,33.671783],[131.506348,33.675211]]],[[[131.522141,33.671211],[131.522141,33.670068],[131.523514,33.670068],[131.525574,33.66664],[131.525574,33.664354],[131.521454,33.664925],[131.518707,33.667783],[131.518707,33.669497],[131.521454,33.670068],[131.520767,33.671211],[131.522141,33.671211]]]]}},{"type":"Feature","properties":{"layer_id":"bakumatsu_villages","name":"高宇田村","address":"豊後 国東郡","source":"Geoshape 幕末期近世村領域データセット vector tiles (z7 extraction)","subarea_name":"近世村のおおよその範囲","feature_key":"village:K59G01S00016","accuracy_note":"2015年農業集落境界をもとに復元した概略範囲で、江戸時代の正確な村境ではありません"},"geometry":{"type":"Polygon","coordinates":[[[131.490555,33.557418],[131.493301,33.555701],[131.493988,33.554557],[131.487808,33.553985],[131.482315,33.552268],[131.477509,33.553412],[131.473389,33.553985],[131.472015,33.553412],[131.469955,33.553985],[131.470642,33.556273],[131.473389,33.557418],[131.478195,33.556846],[131.478882,33.554557],[131.479568,33.554557],[131.485062,33.555129],[131.490555,33.557418]]]}},{"type":"Feature","properties":{"layer_id":"bakumatsu_villages","name":"高田村","address":"豊後 国東郡","source":"Geoshape 幕末期近世村領域データセット vector tiles (z7 extraction)","subarea_name":"近世村のおおよその範囲","feature_key":"village:K59G01S00001","accuracy_note":"2015年農業集落境界をもとに復元した概略範囲で、江戸時代の正確な村境ではありません"},"geometry":{"type":"MultiPolygon","coordinates":[[[[131.427383,33.567145],[131.429443,33.562568],[131.42395,33.560279],[131.424637,33.566573],[131.427383,33.567145]]],[[[131.431503,33.568861],[131.435623,33.564856],[131.434937,33.564284],[131.43013,33.56314],[131.427383,33.567145],[131.42807,33.568289],[131.431503,33.568861]]],[[[131.427383,33.567145],[131.43013,33.56314],[131.43219,33.564284],[131.434937,33.564284],[131.435623,33.564856],[131.43631,33.564284],[131.43631,33.561423],[131.434937,33.560279],[131.43013,33.561423],[131.429443,33.562568],[131.427383,33.567145]]],[[[131.43631,33.564284],[131.439056,33.562568],[131.43837,33.561423],[131.44043,33.559134],[131.43837,33.556846],[131.434937,33.558562],[131.435623,33.559707],[131.43425,33.560279],[131.43631,33.561423],[131.43631,33.564284]]],[[[131.429443,33.562568],[131.43013,33.561423],[131.435623,33.559707],[131.43425,33.55799],[131.431503,33.558562],[131.42807,33.557418],[131.429443,33.554557],[131.42395,33.557418],[131.42395,33.559134],[131.424637,33.559134],[131.42395,33.560279],[131.42601,33.561423],[131.429443,33.562568]]],[[[131.434937,33.558562],[131.44043,33.555701],[131.43837,33.554557],[131.43837,33.550551],[131.435623,33.549407],[131.43425,33.549979],[131.431503,33.548834],[131.430817,33.549407],[131.431503,33.551696],[131.43013,33.553412],[131.42807,33.557418],[131.434937,33.558562]]],[[[131.439056,33.562568],[131.44249,33.560279],[131.443176,33.556846],[131.441116,33.556846],[131.441116,33.555701],[131.43837,33.556846],[131.44043,33.559134],[131.43837,33.561423],[131.439056,33.562568]]],[[[131.443176,33.556846],[131.44455,33.555129],[131.443863,33.553412],[131.44249,33.554557],[131.439056,33.551696],[131.43837,33.554557],[131.441803,33.555701],[131.441116,33.556846],[131.443176,33.556846]]],[[[131.44455,33.555129],[131.446609,33.553412],[131.441116,33.551123],[131.439056,33.551696],[131.44249,33.554557],[131.443863,33.553412],[131.44455,33.555129]]]]}},{"type":"Feature","properties":{"layer_id":"bakumatsu_villages","name":"鴨尾村","address":"豊後 国東郡","source":"Geoshape 幕末期近世村領域データセット vector tiles (z7 extraction)","subarea_name":"近世村のおおよその範囲","feature_key":"village:K59G01S00017","accuracy_note":"2015年農業集落境界をもとに復元した概略範囲で、江戸時代の正確な村境ではありません"},"geometry":{"type":"Polygon","coordinates":[[[131.485748,33.559134],[131.490555,33.557418],[131.485062,33.555129],[131.479568,33.554557],[131.478882,33.554557],[131.478195,33.556846],[131.473389,33.557418],[131.478195,33.558562],[131.485748,33.559134]]]}},{"type":"Feature","properties":{"layer_id":"bakumatsu_villages","name":"鹿伏新田","address":"豊後 国東郡","source":"Geoshape 幕末期近世村領域データセット vector tiles (z7 extraction)","subarea_name":"近世村のおおよその範囲","feature_key":"village:K59G01S00051","accuracy_note":"2015年農業集落境界をもとに復元した概略範囲で、江戸時代の正確な村境ではありません"},"geometry":{"type":"Polygon","coordinates":[[[131.454163,33.598607],[131.464462,33.594603],[131.464462,33.593459],[131.461029,33.592887],[131.464462,33.588883],[131.451416,33.588311],[131.454163,33.598607]]]}},{"type":"Feature","properties":{"layer_id":"historical_sites_archaeology","name":"イド山古墳群","address":"大分県 豊後高田市 新栄","source":"Geoshape 日本歴史地名大系 施設・地点項目データセット 2025-05-15","subarea_name":"古墳","feature_key":"06_kofun.geojson:450000100700","subtype":"古墳"},"geometry":{"type":"Point","coordinates":[131.450635,33.567355]}},{"type":"Feature","properties":{"layer_id":"historical_sites_archaeology","name":"カワラガマ遺跡","address":"大分県 豊後高田市 佐野","source":"Geoshape 日本歴史地名大系 施設・地点項目データセット 2025-05-15","subarea_name":"遺跡","feature_key":"08_archaeological_sites.geojson:450000104400","subtype":"遺跡"},"geometry":{"type":"Point","coordinates":[131.478469,33.537499]}},{"type":"Feature","properties":{"layer_id":"historical_sites_archaeology","name":"信重遺跡","address":"大分県 豊後高田市 香々地","source":"Geoshape 日本歴史地名大系 施設・地点項目データセット 2025-05-15","subarea_name":"遺跡","feature_key":"08_archaeological_sites.geojson:450000085000","subtype":"遺跡"},"geometry":{"type":"Point","coordinates":[131.525363,33.668511]}},{"type":"Feature","properties":{"layer_id":"historical_sites_archaeology","name":"入津原丸山古墳","address":"大分県 豊後高田市 新栄","source":"Geoshape 日本歴史地名大系 施設・地点項目データセット 2025-05-15","subarea_name":"古墳","feature_key":"06_kofun.geojson:450000100600","subtype":"古墳"},"geometry":{"type":"Point","coordinates":[131.449066,33.575644]}},{"type":"Feature","properties":{"layer_id":"historical_sites_archaeology","name":"善根津古墳群","address":"大分県 豊後高田市 香々地","source":"Geoshape 日本歴史地名大系 施設・地点項目データセット 2025-05-15","subarea_name":"古墳","feature_key":"06_kofun.geojson:450000084500","subtype":"古墳"},"geometry":{"type":"Point","coordinates":[131.518775,33.664163]}},{"type":"Feature","properties":{"layer_id":"historical_sites_archaeology","name":"大塚古墳","address":"大分県 豊後高田市 西真玉","source":"Geoshape 日本歴史地名大系 施設・地点項目データセット 2025-05-15","subarea_name":"古墳","feature_key":"06_kofun.geojson:450000086400","subtype":"古墳"},"geometry":{"type":"Point","coordinates":[131.465669,33.600962]}},{"type":"Feature","properties":{"layer_id":"historical_sites_archaeology","name":"屋山城跡","address":"大分県 豊後高田市 加礼川","source":"Geoshape 日本歴史地名大系 施設・地点項目データセット 2025-05-15","subarea_name":"城跡","feature_key":"05_castle_ruins.geojson:450000103400","subtype":"城跡"},"geometry":{"type":"Point","coordinates":[131.553835,33.568456]}},{"type":"Feature","properties":{"layer_id":"historical_sites_archaeology","name":"志手金比羅古墳","address":"大分県 豊後高田市 玉津","source":"Geoshape 日本歴史地名大系 施設・地点項目データセット 2025-05-15","subarea_name":"古墳","feature_key":"06_kofun.geojson:450000100200","subtype":"古墳"},"geometry":{"type":"Point","coordinates":[131.440625,33.569108]}},{"type":"Feature","properties":{"layer_id":"historical_sites_archaeology","name":"本松房跡","address":"大分県 豊後高田市 黒土","source":"Geoshape 日本歴史地名大系 施設・地点項目データセット 2025-05-15","subarea_name":"史跡","feature_key":"09_historic_sites.geojson:450000088200","subtype":"史跡"},"geometry":{"type":"Point","coordinates":[131.549989,33.591241]}},{"type":"Feature","properties":{"layer_id":"historical_sites_archaeology","name":"森貝塚","address":"大分県 豊後高田市 森","source":"Geoshape 日本歴史地名大系 施設・地点項目データセット 2025-05-15","subarea_name":"遺跡","feature_key":"08_archaeological_sites.geojson:450000104200","subtype":"遺跡"},"geometry":{"type":"Point","coordinates":[131.458766,33.544908]}},{"type":"Feature","properties":{"layer_id":"historical_sites_archaeology","name":"烏帽子岳城跡","address":"大分県 豊後高田市 田染小崎879","source":"Geoshape 日本歴史地名大系 施設・地点項目データセット 2025-05-15","subarea_name":"城跡","feature_key":"05_castle_ruins.geojson:450000218200","subtype":"城跡"},"geometry":{"type":"Point","coordinates":[131.497344,33.494522]}},{"type":"Feature","properties":{"layer_id":"historical_sites_archaeology","name":"熊野磨崖仏","address":"大分県 豊後高田市 田染平野","source":"Geoshape 日本歴史地名大系 施設・地点項目データセット 2025-05-15","subarea_name":"史跡","feature_key":"09_historic_sites.geojson:450000106300","subtype":"史跡"},"geometry":{"type":"Point","coordinates":[131.525781,33.478219]}},{"type":"Feature","properties":{"layer_id":"historical_sites_archaeology","name":"福真磨崖仏","address":"大分県 豊後高田市 黒土","source":"Geoshape 日本歴史地名大系 施設・地点項目データセット 2025-05-15","subarea_name":"史跡","feature_key":"09_historic_sites.geojson:450000088000","subtype":"史跡"},"geometry":{"type":"Point","coordinates":[131.533355,33.584835]}},{"type":"Feature","properties":{"layer_id":"historical_sites_archaeology","name":"穴瀬横穴群","address":"大分県 豊後高田市 美和","source":"Geoshape 日本歴史地名大系 施設・地点項目データセット 2025-05-15","subarea_name":"古墳","feature_key":"06_kofun.geojson:450000101800","subtype":"古墳"},"geometry":{"type":"Point","coordinates":[131.471712,33.55678]}},{"type":"Feature","properties":{"layer_id":"historical_sites_archaeology","name":"野内古墳","address":"大分県 豊後高田市 西真玉","source":"Geoshape 日本歴史地名大系 施設・地点項目データセット 2025-05-15","subarea_name":"古墳","feature_key":"06_kofun.geojson:450000086300","subtype":"古墳"},"geometry":{"type":"Point","coordinates":[131.459278,33.597495]}},{"type":"Feature","properties":{"layer_id":"historical_sites_archaeology","name":"鞍懸城跡","address":"大分県 豊後高田市 佐野","source":"Geoshape 日本歴史地名大系 施設・地点項目データセット 2025-05-15","subarea_name":"城跡","feature_key":"05_castle_ruins.geojson:450000104500","subtype":"城跡"},"geometry":{"type":"Point","coordinates":[131.473111,33.536817]}},{"type":"Feature","properties":{"layer_id":"historical_sites_archaeology","name":"高田城跡","address":"大分県 豊後高田市 玉津","source":"Geoshape 日本歴史地名大系 施設・地点項目データセット 2025-05-15","subarea_name":"城跡","feature_key":"05_castle_ruins.geojson:450000099800","subtype":"城跡"},"geometry":{"type":"Point","coordinates":[131.444934,33.563336]}},{"type":"Feature","properties":{"layer_id":"historical_sites_archaeology","name":"高田役所跡","address":"大分県 豊後高田市 玉津","source":"Geoshape 日本歴史地名大系 施設・地点項目データセット 2025-05-15","subarea_name":"史跡","feature_key":"09_historic_sites.geojson:450000099900","subtype":"史跡"},"geometry":{"type":"Point","coordinates":[131.444934,33.563336]}},{"type":"Feature","properties":{"layer_id":"historical_temples_shrines","name":"二宮八幡社","address":"大分県 豊後高田市 田染真中1019番地","source":"Geoshape 日本歴史地名大系 施設・地点項目データセット 2025-05-15","subarea_name":"神社","feature_key":"02_shrines.geojson:450000307500","subtype":"神社"},"geometry":{"type":"Point","coordinates":[131.511359,33.506519]}},{"type":"Feature","properties":{"layer_id":"historical_temples_shrines","name":"伝乗寺跡","address":"大分県 豊後高田市 田染真中","source":"Geoshape 日本歴史地名大系 施設・地点項目データセット 2025-05-15","subarea_name":"廃寺・廃社","feature_key":"03_abandoned_temples_shrines.geojson:450000105600","subtype":"廃寺・廃社"},"geometry":{"type":"Point","coordinates":[131.516814,33.514766]}},{"type":"Feature","properties":{"layer_id":"historical_temples_shrines","name":"六所神社","address":"大分県 中津市 本耶馬渓町東谷5125番地","source":"Geoshape 日本歴史地名大系 施設・地点項目データセット 2025-05-15","subarea_name":"神社","feature_key":"02_shrines.geojson:450000085400","subtype":"神社"},"geometry":{"type":"Point","coordinates":[131.518775,33.664163]}},{"type":"Feature","properties":{"layer_id":"historical_temples_shrines","name":"別宮八幡社","address":"大分県 豊後高田市 香々地3596番地","source":"Geoshape 日本歴史地名大系 施設・地点項目データセット 2025-05-15","subarea_name":"神社","feature_key":"02_shrines.geojson:450000084400","subtype":"神社"},"geometry":{"type":"Point","coordinates":[131.525299,33.669884]}},{"type":"Feature","properties":{"layer_id":"historical_temples_shrines","name":"天念寺","address":"大分県 豊後高田市 長岩屋1152番地","source":"Geoshape 日本歴史地名大系 施設・地点項目データセット 2025-05-15","subarea_name":"寺院","feature_key":"01_temples.geojson:450000103000","subtype":"寺院"},"geometry":{"type":"Point","coordinates":[131.541166,33.578629]}},{"type":"Feature","properties":{"layer_id":"historical_temples_shrines","name":"富貴寺","address":"大分県 豊後高田市 田染蕗2395番地","source":"Geoshape 日本歴史地名大系 施設・地点項目データセット 2025-05-15","subarea_name":"寺院","feature_key":"01_temples.geojson:450000107200","subtype":"寺院"},"geometry":{"type":"Point","coordinates":[131.528915,33.537804]}},{"type":"Feature","properties":{"layer_id":"historical_temples_shrines","name":"岩脇寺","address":"大分県 豊後高田市 田染横嶺1130番地","source":"Geoshape 日本歴史地名大系 施設・地点項目データセット 2025-05-15","subarea_name":"寺院","feature_key":"01_temples.geojson:450000105000","subtype":"寺院"},"geometry":{"type":"Point","coordinates":[131.50882,33.524372]}},{"type":"Feature","properties":{"layer_id":"historical_temples_shrines","name":"弥勒寺跡","address":"大分県 豊後高田市 城前","source":"Geoshape 日本歴史地名大系 施設・地点項目データセット 2025-05-15","subarea_name":"廃寺・廃社","feature_key":"03_abandoned_temples_shrines.geojson:450000087300","subtype":"廃寺・廃社"},"geometry":{"type":"Point","coordinates":[131.518775,33.585388]}},{"type":"Feature","properties":{"layer_id":"historical_temples_shrines","name":"応暦寺","address":"大分県 豊後高田市 大岩屋401番地","source":"Geoshape 日本歴史地名大系 施設・地点項目データセット 2025-05-15","subarea_name":"寺院","feature_key":"01_temples.geojson:450000087500","subtype":"寺院"},"geometry":{"type":"Point","coordinates":[131.525101,33.59301]}},{"type":"Feature","properties":{"layer_id":"historical_temples_shrines","name":"田笛神社","address":"大分県 豊後高田市 界398番地","source":"Geoshape 日本歴史地名大系 施設・地点項目データセット 2025-05-15","subarea_name":"神社","feature_key":"02_shrines.geojson:450000101200","subtype":"神社"},"geometry":{"type":"Point","coordinates":[131.429977,33.548901]}},{"type":"Feature","properties":{"layer_id":"historical_temples_shrines","name":"真玉八幡社","address":"大分県 豊後高田市 西真玉","source":"Geoshape 日本歴史地名大系 施設・地点項目データセット 2025-05-15","subarea_name":"神社","feature_key":"02_shrines.geojson:450000086700","subtype":"神社"},"geometry":{"type":"Point","coordinates":[131.478658,33.599441]}},{"type":"Feature","properties":{"layer_id":"historical_temples_shrines","name":"真玉寺","address":"大分県 豊後高田市 西真玉3105番地","source":"Geoshape 日本歴史地名大系 施設・地点項目データセット 2025-05-15","subarea_name":"寺院","feature_key":"01_temples.geojson:450000086800","subtype":"寺院"},"geometry":{"type":"Point","coordinates":[131.475677,33.60181]}},{"type":"Feature","properties":{"layer_id":"historical_temples_shrines","name":"身濯神社","address":"大分県 豊後高田市 黒土1480番地","source":"Geoshape 日本歴史地名大系 施設・地点項目データセット 2025-05-15","subarea_name":"神社","feature_key":"02_shrines.geojson:450000087900","subtype":"神社"},"geometry":{"type":"Point","coordinates":[131.541641,33.587345]}},{"type":"Feature","properties":{"layer_id":"historical_temples_shrines","name":"都甲八幡社","address":"大分県 豊後高田市 築地","source":"Geoshape 日本歴史地名大系 施設・地点項目データセット 2025-05-15","subarea_name":"神社","feature_key":"02_shrines.geojson:450000102500","subtype":"神社"},"geometry":{"type":"Point","coordinates":[131.510298,33.566314]}},{"type":"Feature","properties":{"layer_id":"historical_temples_shrines","name":"金宗院跡","address":"大分県 豊後高田市 松行","source":"Geoshape 日本歴史地名大系 施設・地点項目データセット 2025-05-15","subarea_name":"廃寺・廃社","feature_key":"03_abandoned_temples_shrines.geojson:450000102700","subtype":"廃寺・廃社"},"geometry":{"type":"Point","coordinates":[131.515029,33.566803]}},{"type":"Feature","properties":{"layer_id":"historical_temples_shrines","name":"長安寺","address":"大分県 豊後高田市 加礼川635番地","source":"Geoshape 日本歴史地名大系 施設・地点項目データセット 2025-05-15","subarea_name":"寺院","feature_key":"01_temples.geojson:450000103300","subtype":"寺院"},"geometry":{"type":"Point","coordinates":[131.548496,33.567866]}},{"type":"Feature","properties":{"layer_id":"historical_temples_shrines","name":"霊仙寺","address":"大分県 豊後高田市 香々地1015番地","source":"Geoshape 日本歴史地名大系 施設・地点項目データセット 2025-05-15","subarea_name":"寺院","feature_key":"01_temples.geojson:450000085300","subtype":"寺院"},"geometry":{"type":"Point","coordinates":[131.535553,33.658997]}}]}