{"type":"FeatureCollection","municipality_code":"45441","pref":"宮崎県","city":"高千穂町","layer_counts":{"bakumatsu_villages":10,"civil_engineering_heritage":1,"historical_sites_archaeology":3,"historical_temples_shrines":7},"total_features":21,"features":[{"type":"Feature","properties":{"layer_id":"bakumatsu_villages","name":"三田井村","address":"日向 臼杵郡","source":"Geoshape 幕末期近世村領域データセット vector tiles (z7 extraction)","subarea_name":"近世村のおおよその範囲","feature_key":"village:K66G01S00061","accuracy_note":"2015年農業集落境界をもとに復元した概略範囲で、江戸時代の正確な村境ではありません"},"geometry":{"type":"MultiPolygon","coordinates":[[[[131.304474,32.727798],[131.307907,32.721443],[131.301727,32.717977],[131.297607,32.717399],[131.296234,32.714511],[131.288681,32.718555],[131.289368,32.722021],[131.298981,32.723176],[131.304474,32.727798]]],[[[131.30722,32.720866],[131.309967,32.714511],[131.30722,32.715089],[131.305847,32.713355],[131.300354,32.711622],[131.299667,32.713933],[131.296234,32.714511],[131.297607,32.717399],[131.301727,32.717977],[131.30722,32.720866]]],[[[131.30722,32.715089],[131.312027,32.713355],[131.312714,32.711044],[131.298981,32.709889],[131.300354,32.711622],[131.305847,32.713355],[131.30722,32.715089]]],[[[131.304474,32.710467],[131.30722,32.709889],[131.308594,32.706422],[131.305161,32.703533],[131.305847,32.698911],[131.301041,32.700067],[131.300354,32.703533],[131.298294,32.704111],[131.298981,32.709889],[131.302414,32.709311],[131.304474,32.710467]]],[[[131.316833,32.732419],[131.31752,32.72722],[131.31546,32.719132],[131.312714,32.720288],[131.31134,32.722021],[131.307907,32.721443],[131.304474,32.727798],[131.30722,32.730108],[131.316833,32.732419]]],[[[131.31134,32.722021],[131.312714,32.720288],[131.31546,32.719132],[131.312027,32.713355],[131.30928,32.715666],[131.30722,32.720866],[131.307907,32.721443],[131.31134,32.722021]]],[[[131.318207,32.71971],[131.324387,32.716244],[131.32164,32.715666],[131.320267,32.713355],[131.314774,32.708733],[131.309967,32.707578],[131.310654,32.711044],[131.312714,32.711044],[131.3134,32.716244],[131.31546,32.719132],[131.316833,32.717977],[131.318207,32.71971]]],[[[131.32164,32.734151],[131.328506,32.733574],[131.328506,32.731841],[131.326447,32.728953],[131.32164,32.727798],[131.316833,32.717977],[131.31546,32.719132],[131.31752,32.72722],[131.316833,32.732419],[131.32164,32.734151]]],[[[131.331253,32.734151],[131.330566,32.723176],[131.325073,32.722599],[131.322327,32.723176],[131.318207,32.720866],[131.32164,32.727798],[131.326447,32.728953],[131.328506,32.731263],[131.328506,32.733574],[131.331253,32.734151]]],[[[131.330566,32.723176],[131.330566,32.71971],[131.324387,32.716244],[131.318207,32.720866],[131.322327,32.723176],[131.325073,32.722599],[131.330566,32.723176]]],[[[131.314774,32.7018],[131.31134,32.704111],[131.309967,32.707578],[131.314087,32.708156],[131.320267,32.713355],[131.324387,32.707],[131.320953,32.705267],[131.320953,32.7018],[131.318893,32.700644],[131.31958,32.698333],[131.316833,32.701222],[131.314774,32.7018]]],[[[131.310654,32.711044],[131.309967,32.707578],[131.31134,32.704111],[131.314774,32.7018],[131.312714,32.7018],[131.31134,32.698333],[131.30928,32.697177],[131.305847,32.698911],[131.305161,32.703533],[131.308594,32.706422],[131.30722,32.709889],[131.308594,32.711044],[131.310654,32.711044]]],[[[131.330566,32.71971],[131.328506,32.707578],[131.324387,32.707],[131.320267,32.713933],[131.32164,32.715666],[131.330566,32.71971]]],[[[131.335373,32.71971],[131.336746,32.709311],[131.334,32.708156],[131.332626,32.708733],[131.328506,32.707578],[131.328506,32.709889],[131.330566,32.71971],[131.335373,32.71971]]],[[[131.341553,32.724909],[131.343613,32.719132],[131.342926,32.715089],[131.344299,32.712778],[131.341553,32.711044],[131.338806,32.711044],[131.336746,32.709311],[131.335373,32.714511],[131.335373,32.71971],[131.336746,32.723176],[131.341553,32.724909]]],[[[131.346359,32.72722],[131.347733,32.724909],[131.350479,32.722021],[131.349792,32.71971],[131.351166,32.720288],[131.351852,32.718555],[131.351852,32.717399],[131.347733,32.717977],[131.344299,32.712778],[131.342926,32.715089],[131.343613,32.719132],[131.341553,32.724909],[131.344986,32.72722],[131.346359,32.72722]]]]}},{"type":"Feature","properties":{"layer_id":"bakumatsu_villages","name":"上野村","address":"日向 臼杵郡","source":"Geoshape 幕末期近世村領域データセット vector tiles (z7 extraction)","subarea_name":"近世村のおおよその範囲","feature_key":"village:K66G01S00066","accuracy_note":"2015年農業集落境界をもとに復元した概略範囲で、江戸時代の正確な村境ではありません"},"geometry":{"type":"MultiPolygon","coordinates":[[[[131.303101,32.798819],[131.303787,32.797664],[131.302414,32.797087],[131.30722,32.79247],[131.305847,32.784388],[131.305847,32.780347],[131.303101,32.775151],[131.303101,32.773419],[131.301727,32.772265],[131.300354,32.764759],[131.298981,32.764759],[131.290054,32.766491],[131.291428,32.774574],[131.287308,32.791315],[131.291428,32.795356],[131.303101,32.798819]]],[[[131.287994,32.763027],[131.290741,32.759562],[131.290054,32.756675],[131.279755,32.756675],[131.280441,32.759562],[131.279068,32.760139],[131.279068,32.760717],[131.279755,32.761294],[131.280441,32.760139],[131.287994,32.763027]]],[[[131.290054,32.756675],[131.287308,32.750323],[131.281128,32.750323],[131.275635,32.752055],[131.279755,32.756675],[131.290054,32.756675]]],[[[131.275635,32.752055],[131.281128,32.750323],[131.287308,32.750323],[131.287994,32.745703],[131.285934,32.74166],[131.286621,32.73935],[131.285934,32.738772],[131.275635,32.737039],[131.274948,32.737039],[131.274948,32.741082],[131.274261,32.74166],[131.274261,32.745125],[131.272888,32.74628],[131.273575,32.748013],[131.272888,32.749745],[131.275635,32.752055]]],[[[131.286621,32.73935],[131.289368,32.733574],[131.285248,32.730108],[131.285248,32.727798],[131.277695,32.727798],[131.275635,32.728953],[131.274261,32.732996],[131.274948,32.737039],[131.278381,32.737039],[131.285934,32.738772],[131.286621,32.73935]]],[[[131.290054,32.766491],[131.300354,32.764759],[131.300354,32.763027],[131.296234,32.760139],[131.292801,32.761294],[131.290741,32.760717],[131.287994,32.763027],[131.289368,32.763604],[131.290054,32.766491]]],[[[131.298294,32.760717],[131.298294,32.754365],[131.292114,32.753788],[131.288681,32.752055],[131.290741,32.760717],[131.298294,32.760717]]],[[[131.31134,32.767646],[131.31134,32.762449],[131.314087,32.754365],[131.3134,32.752633],[131.312027,32.754942],[131.30722,32.757252],[131.305847,32.761872],[131.301041,32.760717],[131.301727,32.763027],[131.304474,32.765336],[131.31134,32.767646]]],[[[131.301727,32.760717],[131.300354,32.757252],[131.301727,32.752633],[131.300354,32.7509],[131.296921,32.7509],[131.298294,32.760717],[131.300354,32.762449],[131.301727,32.761872],[131.301727,32.760717]]],[[[131.305847,32.761872],[131.30722,32.757252],[131.312027,32.754942],[131.3134,32.752633],[131.306534,32.753788],[131.301727,32.75321],[131.300354,32.757252],[131.302414,32.761294],[131.305847,32.761872]]],[[[131.298294,32.754365],[131.296921,32.7509],[131.295547,32.750323],[131.296234,32.748013],[131.295547,32.747435],[131.296921,32.74397],[131.295547,32.741082],[131.296234,32.73935],[131.290741,32.738772],[131.286621,32.73935],[131.285934,32.741082],[131.287994,32.745703],[131.287308,32.750323],[131.288681,32.752055],[131.292114,32.753788],[131.298294,32.754365]]],[[[131.296234,32.73935],[131.297607,32.737039],[131.296234,32.735884],[131.296921,32.734151],[131.295547,32.733574],[131.296921,32.732419],[131.294861,32.732996],[131.295547,32.731263],[131.292801,32.727798],[131.291428,32.728953],[131.289368,32.72722],[131.287308,32.72953],[131.286621,32.727798],[131.285248,32.727798],[131.285248,32.730108],[131.289368,32.733574],[131.286621,32.73935],[131.290741,32.738772],[131.296234,32.73935]]],[[[131.300354,32.7509],[131.299667,32.749168],[131.301041,32.746858],[131.300354,32.742237],[131.301041,32.741082],[131.300354,32.738772],[131.296234,32.73935],[131.295547,32.741082],[131.296921,32.74397],[131.295547,32.746858],[131.296234,32.74859],[131.295547,32.750323],[131.296921,32.7509],[131.300354,32.7509]]],[[[131.308594,32.753788],[131.3134,32.752633],[131.302414,32.746858],[131.300354,32.746858],[131.299667,32.749168],[131.300354,32.751478],[131.303787,32.753788],[131.308594,32.753788]]],[[[131.340179,32.807476],[131.33812,32.78612],[131.338806,32.783811],[131.341553,32.780925],[131.339493,32.778038],[131.332626,32.778615],[131.326447,32.777461],[131.316833,32.772842],[131.312027,32.769955],[131.31134,32.767646],[131.304474,32.765336],[131.301727,32.763027],[131.301727,32.761872],[131.300354,32.761872],[131.300354,32.762449],[131.301727,32.772265],[131.303101,32.773419],[131.303101,32.775151],[131.305847,32.780347],[131.305847,32.784388],[131.30722,32.790738],[131.306534,32.793047],[131.302414,32.797087],[131.303787,32.797664],[131.303101,32.798819],[131.31134,32.803436],[131.32164,32.806899],[131.327133,32.807476],[131.340179,32.807476]]],[[[131.332626,32.778615],[131.339493,32.778038],[131.337433,32.775729],[131.339493,32.773419],[131.338806,32.768223],[131.337433,32.764759],[131.334,32.760717],[131.314087,32.752633],[131.314087,32.75552],[131.31134,32.762449],[131.312027,32.769378],[131.31752,32.773419],[131.32782,32.778038],[131.332626,32.778615]]]]}},{"type":"Feature","properties":{"layer_id":"bakumatsu_villages","name":"下野村","address":"日向 臼杵郡","source":"Geoshape 幕末期近世村領域データセット vector tiles (z7 extraction)","subarea_name":"近世村のおおよその範囲","feature_key":"village:K66G01S00062","accuracy_note":"2015年農業集落境界をもとに復元した概略範囲で、江戸時代の正確な村境ではありません"},"geometry":{"type":"MultiPolygon","coordinates":[[[[131.3134,32.752633],[131.31546,32.746858],[131.314087,32.743392],[131.300354,32.743392],[131.301041,32.746858],[131.3134,32.752633]]],[[[131.300354,32.743392],[131.310654,32.742815],[131.3134,32.732419],[131.30928,32.730686],[131.302414,32.737039],[131.300354,32.743392]]],[[[131.301727,32.741082],[131.302414,32.737039],[131.30928,32.730686],[131.306534,32.72953],[131.297607,32.722599],[131.289368,32.722021],[131.289368,32.72722],[131.291428,32.728953],[131.292801,32.727798],[131.295547,32.731263],[131.294861,32.732996],[131.296921,32.732419],[131.295547,32.733574],[131.296921,32.734151],[131.296234,32.735884],[131.297607,32.737039],[131.296234,32.73935],[131.300354,32.738772],[131.301727,32.741082]]],[[[131.334,32.760717],[131.334,32.753788],[131.332626,32.745703],[131.323013,32.74397],[131.31546,32.746858],[131.3134,32.752633],[131.334,32.760717]]],[[[131.316833,32.743392],[131.316147,32.74166],[131.31752,32.741082],[131.318207,32.737039],[131.320953,32.734151],[131.31752,32.732996],[131.3134,32.732419],[131.310654,32.742815],[131.316833,32.743392]]],[[[131.31546,32.746858],[131.3237,32.74397],[131.332626,32.745703],[131.331253,32.740505],[131.331253,32.734151],[131.328506,32.733574],[131.320953,32.734151],[131.31958,32.735884],[131.31752,32.741082],[131.316147,32.74166],[131.316833,32.743392],[131.314087,32.743392],[131.31546,32.746858]]]]}},{"type":"Feature","properties":{"layer_id":"bakumatsu_villages","name":"五ヶ所村","address":"日向 臼杵郡","source":"Geoshape 幕末期近世村領域データセット vector tiles (z7 extraction)","subarea_name":"近世村のおおよその範囲","feature_key":"village:K66G01S00068","accuracy_note":"2015年農業集落境界をもとに復元した概略範囲で、江戸時代の正確な村境ではありません"},"geometry":{"type":"MultiPolygon","coordinates":[[[[131.265335,32.826519],[131.272202,32.824211],[131.271515,32.817864],[131.273575,32.813824],[131.281128,32.809785],[131.277008,32.810362],[131.271515,32.805745],[131.265335,32.804013],[131.255035,32.805168],[131.254349,32.805745],[131.254349,32.809785],[131.257095,32.813824],[131.255035,32.815555],[131.255035,32.81671],[131.257782,32.818441],[131.262589,32.818441],[131.264648,32.820749],[131.263962,32.821903],[131.264648,32.823057],[131.265335,32.826519]]],[[[131.285248,32.831712],[131.288681,32.830558],[131.290741,32.82825],[131.301041,32.829981],[131.309967,32.82825],[131.301727,32.82248],[131.296921,32.820749],[131.290054,32.813824],[131.283875,32.809785],[131.280441,32.810362],[131.273575,32.813824],[131.271515,32.817864],[131.272202,32.824211],[131.272888,32.825942],[131.274261,32.825942],[131.274261,32.827673],[131.275635,32.828827],[131.280441,32.829981],[131.285248,32.831712]]],[[[131.33194,32.83402],[131.33606,32.832866],[131.340179,32.833443],[131.343613,32.831135],[131.349106,32.824788],[131.350479,32.817287],[131.347733,32.813824],[131.349106,32.810939],[131.340179,32.807476],[131.327133,32.807476],[131.32164,32.806899],[131.31134,32.803436],[131.305847,32.799973],[131.291428,32.795356],[131.283188,32.798242],[131.268768,32.801705],[131.265335,32.804013],[131.271515,32.805745],[131.277008,32.810362],[131.284561,32.810362],[131.291428,32.814401],[131.296921,32.820749],[131.301727,32.82248],[131.309967,32.82825],[131.316833,32.828827],[131.320267,32.829404],[131.322327,32.828827],[131.329193,32.833443],[131.33194,32.83402]]]]}},{"type":"Feature","properties":{"layer_id":"bakumatsu_villages","name":"向山村","address":"日向 臼杵郡","source":"Geoshape 幕末期近世村領域データセット vector tiles (z7 extraction)","subarea_name":"近世村のおおよその範囲","feature_key":"village:K66G01S00064","accuracy_note":"2015年農業集落境界をもとに復元した概略範囲で、江戸時代の正確な村境ではありません"},"geometry":{"type":"MultiPolygon","coordinates":[[[[131.291428,32.707],[131.296234,32.705845],[131.298294,32.704111],[131.300354,32.703533],[131.301041,32.700067],[131.305847,32.698911],[131.294861,32.686198],[131.294174,32.695444],[131.291428,32.707]]],[[[131.314774,32.7018],[131.31134,32.694288],[131.30722,32.689665],[131.303787,32.688509],[131.298981,32.680996],[131.291428,32.678685],[131.294861,32.686198],[131.305847,32.698911],[131.308594,32.697755],[131.309967,32.697755],[131.312714,32.7018],[131.314774,32.7018]]],[[[131.314774,32.7018],[131.316833,32.701222],[131.31958,32.698333],[131.31546,32.692555],[131.314087,32.676951],[131.295547,32.673483],[131.290741,32.675795],[131.291428,32.678685],[131.298981,32.680996],[131.303787,32.688509],[131.30722,32.689665],[131.31134,32.694288],[131.314774,32.7018]]],[[[131.290741,32.675795],[131.301727,32.671171],[131.305161,32.668859],[131.30722,32.665391],[131.307907,32.65672],[131.303787,32.652095],[131.295547,32.658454],[131.290054,32.658454],[131.283188,32.65961],[131.281128,32.65961],[131.277695,32.657876],[131.268082,32.65672],[131.266708,32.663078],[131.267395,32.667125],[131.290741,32.675795]]],[[[131.282501,32.65961],[131.290054,32.658454],[131.295547,32.658454],[131.303787,32.652095],[131.301727,32.639953],[131.299667,32.637062],[131.299667,32.633014],[131.292114,32.634171],[131.289368,32.635906],[131.287308,32.634749],[131.283875,32.637062],[131.281815,32.637062],[131.277695,32.638797],[131.267395,32.641109],[131.266708,32.642266],[131.268082,32.644579],[131.266708,32.647469],[131.268768,32.65036],[131.268082,32.656141],[131.272202,32.657298],[131.277695,32.657876],[131.282501,32.65961]]],[[[131.31752,32.694288],[131.322327,32.690243],[131.322327,32.683886],[131.324387,32.682152],[131.322327,32.679841],[131.314087,32.678685],[131.31546,32.692555],[131.31752,32.694288]]],[[[131.324387,32.682152],[131.32782,32.680996],[131.327133,32.678107],[131.32782,32.676951],[131.32576,32.674061],[131.32576,32.672327],[131.322327,32.671171],[131.314774,32.675795],[131.314087,32.678685],[131.322327,32.679841],[131.324387,32.682152]]],[[[131.314087,32.676951],[131.322327,32.671171],[131.32164,32.668859],[131.314087,32.665391],[131.31134,32.666547],[131.306534,32.666547],[131.305161,32.668859],[131.296234,32.673483],[131.298294,32.674061],[131.314087,32.676951]]],[[[131.32164,32.668859],[131.323013,32.666547],[131.320267,32.664235],[131.31958,32.661922],[131.31752,32.660766],[131.316147,32.649204],[131.314087,32.646891],[131.314774,32.644579],[131.310654,32.638218],[131.309967,32.629545],[131.305847,32.629545],[131.304474,32.63128],[131.299667,32.633014],[131.302414,32.644],[131.303787,32.652673],[131.307907,32.65672],[131.307907,32.6625],[131.306534,32.666547],[131.31134,32.666547],[131.314087,32.665391],[131.32164,32.668859]]]]}},{"type":"Feature","properties":{"layer_id":"bakumatsu_villages","name":"山裏村","address":"日向 臼杵郡","source":"Geoshape 幕末期近世村領域データセット vector tiles (z7 extraction)","subarea_name":"近世村のおおよその範囲","feature_key":"village:K66G01S00060","accuracy_note":"2015年農業集落境界をもとに復元した概略範囲で、江戸時代の正確な村境ではありません"},"geometry":{"type":"MultiPolygon","coordinates":[[[[131.41571,32.813824],[131.421204,32.812093],[131.41983,32.809207],[131.421204,32.805168],[131.419144,32.803436],[131.41983,32.798242],[131.417084,32.797087],[131.401978,32.794201],[131.397858,32.787852],[131.394424,32.78612],[131.393051,32.783234],[131.385498,32.778038],[131.377945,32.783234],[131.371765,32.78612],[131.376572,32.787852],[131.375885,32.790161],[131.379318,32.793624],[131.379318,32.795356],[131.372452,32.801128],[131.366272,32.804013],[131.368332,32.806322],[131.374512,32.80863],[131.378632,32.809785],[131.383438,32.809207],[131.388931,32.812093],[131.394424,32.811516],[131.399918,32.813824],[131.405411,32.81267],[131.408157,32.81267],[131.410217,32.813824],[131.41571,32.813824]]],[[[131.371765,32.78612],[131.377945,32.783234],[131.385498,32.778038],[131.384811,32.771687],[131.382065,32.769378],[131.383438,32.767646],[131.379318,32.763604],[131.374512,32.763604],[131.368332,32.769378],[131.368332,32.775151],[131.371078,32.780925],[131.371765,32.78612]]],[[[131.384125,32.767646],[131.386185,32.767068],[131.388245,32.767068],[131.396484,32.762449],[131.403351,32.762449],[131.400604,32.756097],[131.401978,32.749168],[131.401291,32.747435],[131.399918,32.74628],[131.399231,32.740505],[131.390305,32.738772],[131.386185,32.742815],[131.380692,32.742237],[131.371765,32.743392],[131.369705,32.742815],[131.372452,32.746858],[131.372452,32.749168],[131.375885,32.752055],[131.375885,32.754365],[131.378632,32.756675],[131.379318,32.758985],[131.381378,32.760717],[131.380692,32.764181],[131.380692,32.765914],[131.384125,32.767646]]],[[[131.418457,32.797664],[131.41571,32.795356],[131.415024,32.787852],[131.408844,32.783234],[131.410217,32.780347],[131.406097,32.772265],[131.407471,32.769955],[131.403351,32.762449],[131.396484,32.762449],[131.388245,32.767068],[131.383438,32.767646],[131.382065,32.769378],[131.384811,32.771687],[131.385498,32.778038],[131.393051,32.783234],[131.394424,32.78612],[131.397858,32.787852],[131.401978,32.794201],[131.418457,32.797664]]],[[[131.421204,32.81267],[131.423264,32.809207],[131.43219,32.799973],[131.435623,32.793624],[131.434937,32.787852],[131.430817,32.778615],[131.431503,32.774574],[131.412964,32.769955],[131.406784,32.769955],[131.406097,32.772265],[131.410217,32.780347],[131.408844,32.783234],[131.415024,32.787852],[131.41571,32.795356],[131.41983,32.798819],[131.419144,32.803436],[131.421204,32.805168],[131.41983,32.809207],[131.421204,32.81267]]],[[[131.439056,32.789006],[131.441116,32.778615],[131.431503,32.774574],[131.430817,32.778615],[131.43219,32.783811],[131.433563,32.78612],[131.439056,32.789006]]],[[[131.474762,32.837481],[131.485748,32.821903],[131.487808,32.821326],[131.492615,32.816133],[131.502228,32.814978],[131.502914,32.813824],[131.501541,32.810939],[131.504974,32.809207],[131.507034,32.806322],[131.511154,32.80459],[131.517334,32.801128],[131.515274,32.795933],[131.512527,32.791892],[131.510468,32.790161],[131.508408,32.785543],[131.507721,32.781502],[131.509781,32.778038],[131.508408,32.774574],[131.504288,32.773419],[131.499481,32.774574],[131.496048,32.772842],[131.490555,32.773997],[131.486435,32.775729],[131.478882,32.776883],[131.474075,32.775729],[131.469269,32.773419],[131.461716,32.772265],[131.432877,32.774574],[131.441116,32.778615],[131.439056,32.788429],[131.433563,32.78612],[131.435623,32.79247],[131.43425,32.79651],[131.42189,32.810939],[131.421204,32.81267],[131.42395,32.813824],[131.425323,32.81671],[131.428757,32.81671],[131.430817,32.818441],[131.431503,32.821903],[131.435623,32.825942],[131.43631,32.828827],[131.443176,32.830558],[131.454163,32.829404],[131.455536,32.830558],[131.464462,32.831135],[131.474762,32.837481]]],[[[131.393051,32.731263],[131.402664,32.730686],[131.422577,32.725487],[131.43013,32.724909],[131.443863,32.718555],[131.453476,32.716822],[131.456909,32.713933],[131.456223,32.710467],[131.450729,32.705267],[131.441803,32.703533],[131.441116,32.700644],[131.443176,32.6966],[131.443863,32.694288],[131.441803,32.692555],[131.43631,32.691399],[131.43425,32.692555],[131.431503,32.698911],[131.430817,32.703533],[131.430817,32.7122],[131.428757,32.713355],[131.423264,32.713355],[131.414337,32.711044],[131.407471,32.707578],[131.401978,32.706422],[131.391678,32.705845],[131.385498,32.703533],[131.380005,32.716244],[131.380005,32.717977],[131.388245,32.728953],[131.393051,32.731263]]],[[[131.483002,32.776306],[131.487808,32.775729],[131.490555,32.773997],[131.487808,32.771687],[131.487808,32.767068],[131.483002,32.764759],[131.481628,32.760139],[131.485062,32.758985],[131.488495,32.756675],[131.487122,32.751478],[131.489868,32.74859],[131.488495,32.744547],[131.478195,32.745125],[131.466522,32.748013],[131.455536,32.747435],[131.44249,32.749168],[131.43837,32.751478],[131.434937,32.754942],[131.423264,32.760139],[131.412277,32.769955],[131.431503,32.774574],[131.463089,32.772265],[131.475449,32.776306],[131.483002,32.776306]]],[[[131.412277,32.769955],[131.423264,32.760139],[131.434937,32.754942],[131.43837,32.751478],[131.44249,32.749168],[131.455536,32.747435],[131.466522,32.748013],[131.478195,32.745125],[131.488495,32.744547],[131.487808,32.742815],[131.480942,32.738772],[131.483002,32.735884],[131.482315,32.732419],[131.484375,32.72953],[131.483002,32.728953],[131.484375,32.724909],[131.482315,32.723176],[131.467896,32.733574],[131.456909,32.732996],[131.455536,32.728953],[131.44455,32.718555],[131.43013,32.724909],[131.422577,32.725487],[131.402664,32.730686],[131.393051,32.731263],[131.394424,32.735307],[131.399918,32.738772],[131.399918,32.74628],[131.401291,32.747435],[131.401978,32.749168],[131.400604,32.756097],[131.406784,32.769955],[131.412277,32.769955]]]]}},{"type":"Feature","properties":{"layer_id":"bakumatsu_villages","name":"岩戸村","address":"日向 臼杵郡","source":"Geoshape 幕末期近世村領域データセット vector tiles (z7 extraction)","subarea_name":"近世村のおおよその範囲","feature_key":"village:K66G01S00073","accuracy_note":"2015年農業集落境界をもとに復元した概略範囲で、江戸時代の正確な村境ではありません"},"geometry":{"type":"MultiPolygon","coordinates":[[[[131.349106,32.810939],[131.356659,32.80459],[131.363525,32.803436],[131.366272,32.804013],[131.370392,32.802282],[131.379318,32.795356],[131.379318,32.793624],[131.375885,32.790161],[131.376572,32.787852],[131.371765,32.785543],[131.371078,32.780925],[131.367645,32.771687],[131.368332,32.768223],[131.372452,32.764759],[131.373825,32.764759],[131.374512,32.763027],[131.370392,32.75783],[131.360779,32.758985],[131.356659,32.758407],[131.357346,32.761294],[131.352539,32.762449],[131.347046,32.761294],[131.346359,32.761872],[131.344986,32.760717],[131.340179,32.765336],[131.337433,32.765914],[131.339493,32.773419],[131.337433,32.775729],[131.341553,32.780925],[131.338806,32.783811],[131.33812,32.78612],[131.340179,32.807476],[131.349106,32.810939]]],[[[131.337433,32.765914],[131.340179,32.765336],[131.344986,32.760717],[131.346359,32.761872],[131.354599,32.762449],[131.357346,32.761294],[131.356659,32.758407],[131.360779,32.758985],[131.370392,32.75783],[131.364899,32.754365],[131.364212,32.747435],[131.356659,32.750323],[131.352539,32.749168],[131.345673,32.75552],[131.338806,32.758407],[131.334,32.75783],[131.334,32.760717],[131.337433,32.765914]]],[[[131.334,32.749168],[131.346359,32.745125],[131.348419,32.73935],[131.33194,32.737039],[131.331253,32.740505],[131.334,32.749168]]],[[[131.349792,32.738772],[131.345673,32.731263],[131.33812,32.734151],[131.331253,32.734151],[131.33194,32.737039],[131.333313,32.737617],[131.349792,32.738772]]],[[[131.338806,32.758407],[131.345673,32.75552],[131.353226,32.74859],[131.354599,32.745125],[131.353226,32.74166],[131.351166,32.738772],[131.349792,32.738772],[131.348419,32.739927],[131.346359,32.745125],[131.334,32.749168],[131.334,32.75783],[131.338806,32.758407]]],[[[131.33812,32.734151],[131.345673,32.731263],[131.344986,32.72722],[131.343613,32.726065],[131.336746,32.723176],[131.334,32.719132],[131.330566,32.71971],[131.331253,32.734151],[131.33812,32.734151]]],[[[131.350479,32.738772],[131.351852,32.737617],[131.351166,32.735307],[131.347733,32.731263],[131.349792,32.728953],[131.348419,32.724332],[131.347733,32.724909],[131.346359,32.72722],[131.344986,32.72722],[131.347046,32.735307],[131.349792,32.738772],[131.350479,32.738772]]],[[[131.342239,32.7122],[131.347046,32.700067],[131.334,32.698333],[131.325073,32.704689],[131.325073,32.707578],[131.328506,32.707578],[131.332626,32.708733],[131.334686,32.708156],[131.33812,32.710467],[131.341553,32.711044],[131.342239,32.7122]]],[[[131.380692,32.764181],[131.381378,32.760717],[131.379318,32.758985],[131.378632,32.756675],[131.375885,32.754365],[131.375885,32.752055],[131.372452,32.749168],[131.372452,32.746858],[131.369705,32.742815],[131.366959,32.74397],[131.364212,32.747435],[131.364212,32.752633],[131.366272,32.75552],[131.368332,32.756097],[131.370392,32.75783],[131.374512,32.763604],[131.380692,32.764181]]],[[[131.355972,32.750323],[131.362839,32.748013],[131.369705,32.742815],[131.369019,32.739927],[131.364212,32.739927],[131.363525,32.73935],[131.361465,32.739927],[131.358719,32.739927],[131.354599,32.737617],[131.351852,32.737617],[131.351166,32.738772],[131.354599,32.744547],[131.353226,32.749168],[131.355972,32.750323]]],[[[131.351852,32.737617],[131.354599,32.737039],[131.356659,32.732996],[131.364899,32.730686],[131.360092,32.728953],[131.355286,32.728375],[131.351852,32.72953],[131.349792,32.728953],[131.347733,32.731263],[131.350479,32.734729],[131.351852,32.737617]]],[[[131.371765,32.743392],[131.380692,32.742237],[131.386185,32.742815],[131.390305,32.738772],[131.399231,32.740505],[131.399918,32.73935],[131.394424,32.735307],[131.392365,32.730686],[131.388245,32.72953],[131.386871,32.72722],[131.377258,32.732419],[131.366272,32.730686],[131.356659,32.732996],[131.354599,32.738772],[131.356659,32.738194],[131.358719,32.739927],[131.361465,32.739927],[131.363525,32.73935],[131.369019,32.739927],[131.369019,32.74166],[131.369705,32.74166],[131.369705,32.742815],[131.371765,32.743392]]],[[[131.377258,32.732419],[131.386871,32.72722],[131.384125,32.724332],[131.380005,32.716244],[131.377945,32.716244],[131.377258,32.717399],[131.367645,32.714511],[131.353912,32.720288],[131.349792,32.71971],[131.350479,32.722021],[131.348419,32.724332],[131.349792,32.728953],[131.351852,32.72953],[131.360092,32.728953],[131.364899,32.730686],[131.377258,32.732419]]],[[[131.351852,32.720866],[131.355972,32.71971],[131.367645,32.714511],[131.364899,32.706422],[131.363525,32.706422],[131.362152,32.708733],[131.360092,32.709889],[131.354599,32.710467],[131.347733,32.712778],[131.345673,32.714511],[131.347046,32.717399],[131.351852,32.717977],[131.351166,32.720288],[131.351852,32.720866]]],[[[131.345673,32.714511],[131.348419,32.7122],[131.362152,32.708733],[131.363525,32.706422],[131.362839,32.704689],[131.360092,32.704111],[131.357346,32.698333],[131.353912,32.698333],[131.350479,32.700067],[131.347046,32.700067],[131.342239,32.7122],[131.344299,32.712778],[131.345673,32.714511]]]]}},{"type":"Feature","properties":{"layer_id":"bakumatsu_villages","name":"押方村","address":"日向 臼杵郡","source":"Geoshape 幕末期近世村領域データセット vector tiles (z7 extraction)","subarea_name":"近世村のおおよその範囲","feature_key":"village:K66G01S00063","accuracy_note":"2015年農業集落境界をもとに復元した概略範囲で、江戸時代の正確な村境ではありません"},"geometry":{"type":"MultiPolygon","coordinates":[[[[131.263275,32.742815],[131.268082,32.74166],[131.272202,32.742237],[131.274948,32.741082],[131.274261,32.732996],[131.275635,32.728953],[131.273575,32.728953],[131.271515,32.726642],[131.259842,32.726642],[131.255035,32.724909],[131.254349,32.723176],[131.252975,32.72722],[131.253662,32.730686],[131.257782,32.734729],[131.257782,32.735884],[131.259842,32.736462],[131.261902,32.74166],[131.263275,32.742815]]],[[[131.266022,32.72722],[131.271515,32.726642],[131.269455,32.720866],[131.270142,32.715666],[131.266708,32.716244],[131.263275,32.713933],[131.257095,32.714511],[131.255722,32.716244],[131.251602,32.719132],[131.253662,32.722021],[131.254349,32.724332],[131.257095,32.726065],[131.266022,32.72722]]],[[[131.251602,32.719132],[131.255722,32.716244],[131.257095,32.714511],[131.256409,32.7122],[131.261215,32.7018],[131.253662,32.697755],[131.248169,32.698911],[131.241989,32.697177],[131.241302,32.699489],[131.237869,32.701222],[131.236496,32.703533],[131.231003,32.705845],[131.239243,32.711622],[131.242676,32.714511],[131.244736,32.714511],[131.245422,32.716822],[131.248169,32.716244],[131.250229,32.717399],[131.251602,32.719132]]],[[[131.287308,32.728953],[131.289368,32.72722],[131.289368,32.722021],[131.286621,32.722021],[131.281128,32.719132],[131.278381,32.715666],[131.270142,32.715666],[131.269455,32.720866],[131.271515,32.72722],[131.273575,32.728953],[131.275635,32.728953],[131.286621,32.727798],[131.286621,32.728953],[131.287308,32.728953]]],[[[131.266708,32.716244],[131.270142,32.715666],[131.270828,32.715666],[131.273575,32.706422],[131.268768,32.702956],[131.264648,32.7018],[131.261215,32.7018],[131.256409,32.7122],[131.257095,32.714511],[131.263275,32.713933],[131.266708,32.716244]]],[[[131.278381,32.708733],[131.281128,32.707],[131.278381,32.705267],[131.277695,32.7018],[131.280441,32.69371],[131.275635,32.692555],[131.270142,32.694866],[131.265335,32.695444],[131.262589,32.693132],[131.258469,32.700067],[131.259842,32.701222],[131.268768,32.702956],[131.271515,32.704111],[131.272202,32.705845],[131.278381,32.708733]]],[[[131.278381,32.715666],[131.282501,32.713355],[131.281815,32.707578],[131.281128,32.707],[131.279068,32.708733],[131.273575,32.706422],[131.270828,32.715666],[131.278381,32.715666]]],[[[131.289368,32.722021],[131.287994,32.719132],[131.292114,32.716244],[131.290054,32.7122],[131.291428,32.707],[131.290741,32.705267],[131.287994,32.705267],[131.285934,32.703533],[131.281128,32.707],[131.282501,32.713355],[131.278381,32.715666],[131.281128,32.719132],[131.286621,32.722021],[131.289368,32.722021]]],[[[131.292114,32.716244],[131.300354,32.712778],[131.297607,32.704689],[131.296234,32.705845],[131.291428,32.707],[131.290054,32.7122],[131.292114,32.716244]]],[[[131.258469,32.700067],[131.262589,32.693132],[131.259842,32.691399],[131.259842,32.682152],[131.252289,32.676951],[131.246109,32.674639],[131.239243,32.672905],[131.237183,32.674061],[131.235123,32.680418],[131.231689,32.683308],[131.22551,32.68562],[131.22757,32.688509],[131.233749,32.689087],[131.237869,32.692555],[131.246796,32.696022],[131.241989,32.697177],[131.248169,32.698911],[131.253662,32.697755],[131.258469,32.700067]]],[[[131.265335,32.695444],[131.270142,32.694866],[131.275635,32.692555],[131.280441,32.69371],[131.274948,32.688509],[131.274948,32.683308],[131.266708,32.668281],[131.264648,32.670593],[131.257095,32.670593],[131.252289,32.676373],[131.254349,32.678685],[131.259842,32.682152],[131.259842,32.691399],[131.265335,32.695444]]],[[[131.291428,32.707],[131.294174,32.695444],[131.294861,32.687931],[131.294174,32.683308],[131.290741,32.677529],[131.290741,32.675795],[131.267395,32.667125],[131.266708,32.668281],[131.274948,32.683308],[131.274948,32.688509],[131.280441,32.693132],[131.279068,32.698911],[131.277695,32.700067],[131.278381,32.705267],[131.281128,32.707],[131.285934,32.703533],[131.287994,32.705267],[131.290741,32.705267],[131.291428,32.707]]]]}},{"type":"Feature","properties":{"layer_id":"bakumatsu_villages","name":"河内村","address":"日向 臼杵郡","source":"Geoshape 幕末期近世村領域データセット vector tiles (z7 extraction)","subarea_name":"近世村のおおよその範囲","feature_key":"village:K66G01S00067","accuracy_note":"2015年農業集落境界をもとに復元した概略範囲で、江戸時代の正確な村境ではありません"},"geometry":{"type":"MultiPolygon","coordinates":[[[[131.244736,32.786697],[131.252975,32.780925],[131.251602,32.775729],[131.248169,32.777461],[131.246109,32.777461],[131.241989,32.772842],[131.237183,32.777461],[131.234436,32.780925],[131.237183,32.784965],[131.241989,32.785543],[131.244736,32.786697]]],[[[131.248169,32.777461],[131.253662,32.773997],[131.252975,32.7688],[131.246109,32.769378],[131.245422,32.771687],[131.241989,32.772842],[131.246109,32.777461],[131.248169,32.777461]]],[[[131.252975,32.780925],[131.257095,32.779193],[131.256409,32.776883],[131.255035,32.776883],[131.253662,32.773997],[131.251602,32.775729],[131.252975,32.780925]]],[[[131.259155,32.776883],[131.262589,32.771687],[131.259842,32.77111],[131.258469,32.769378],[131.252975,32.7688],[131.255035,32.776883],[131.259155,32.776883]]],[[[131.264648,32.80459],[131.265335,32.804013],[131.268768,32.801705],[131.283188,32.798242],[131.291428,32.795356],[131.287994,32.79247],[131.287308,32.790738],[131.274261,32.788429],[131.259842,32.778038],[131.259155,32.776883],[131.256409,32.776883],[131.257095,32.779193],[131.244736,32.786697],[131.246109,32.790738],[131.244736,32.794201],[131.246109,32.797087],[131.247482,32.801128],[131.251602,32.801705],[131.254349,32.80459],[131.264648,32.80459]]],[[[131.281128,32.790161],[131.273575,32.782656],[131.270828,32.776306],[131.270828,32.770533],[131.268768,32.769378],[131.264648,32.7688],[131.259842,32.775151],[131.259842,32.778038],[131.272888,32.787275],[131.281128,32.790161]]],[[[131.245422,32.769378],[131.252975,32.7688],[131.252975,32.766491],[131.255035,32.764759],[131.255722,32.763027],[131.257095,32.762449],[131.245422,32.759562],[131.241302,32.760717],[131.245422,32.766491],[131.245422,32.769378]]],[[[131.236496,32.758407],[131.252975,32.752055],[131.255035,32.75321],[131.256409,32.747435],[131.262589,32.742815],[131.259842,32.736462],[131.256409,32.735307],[131.254349,32.735307],[131.246796,32.74397],[131.242676,32.743392],[131.234436,32.744547],[131.233749,32.747435],[131.235123,32.751478],[131.233749,32.753788],[131.236496,32.756097],[131.236496,32.758407]]]]}},{"type":"Feature","properties":{"layer_id":"bakumatsu_villages","name":"田原村","address":"日向 臼杵郡","source":"Geoshape 幕末期近世村領域データセット vector tiles (z7 extraction)","subarea_name":"近世村のおおよその範囲","feature_key":"village:K66G01S00065","accuracy_note":"2015年農業集落境界をもとに復元した概略範囲で、江戸時代の正確な村境ではありません"},"geometry":{"type":"MultiPolygon","coordinates":[[[[131.287308,32.790738],[131.290741,32.776306],[131.283188,32.772842],[131.281815,32.769378],[131.279068,32.77111],[131.278381,32.7688],[131.276321,32.770533],[131.271515,32.7688],[131.270828,32.770533],[131.270828,32.776306],[131.274948,32.783811],[131.281128,32.790161],[131.287308,32.790738]]],[[[131.257095,32.762449],[131.259155,32.75783],[131.256409,32.756097],[131.255035,32.75321],[131.252975,32.752055],[131.236496,32.758407],[131.239243,32.758407],[131.241302,32.760717],[131.245422,32.759562],[131.257095,32.762449]]],[[[131.262589,32.771687],[131.265335,32.7688],[131.268768,32.769378],[131.270828,32.770533],[131.271515,32.769378],[131.270828,32.764759],[131.258469,32.760139],[131.252975,32.766491],[131.252975,32.7688],[131.258469,32.769378],[131.261215,32.771687],[131.262589,32.771687]]],[[[131.270828,32.764759],[131.274948,32.760139],[131.272888,32.75783],[131.272888,32.756097],[131.266708,32.752055],[131.266022,32.753788],[131.263962,32.753788],[131.261215,32.756675],[131.259842,32.756675],[131.258469,32.760139],[131.270828,32.764759]]],[[[131.279068,32.760717],[131.279068,32.760139],[131.280441,32.759562],[131.279755,32.756675],[131.272888,32.749745],[131.273575,32.748013],[131.272888,32.74628],[131.270828,32.74628],[131.270142,32.74859],[131.268082,32.749745],[131.266708,32.752055],[131.272888,32.756097],[131.272888,32.75783],[131.274948,32.760139],[131.279068,32.760717]]],[[[131.279755,32.761294],[131.274948,32.760139],[131.270828,32.765336],[131.271515,32.7688],[131.276321,32.770533],[131.278381,32.7688],[131.277695,32.765914],[131.280441,32.761872],[131.279755,32.761294]]],[[[131.290741,32.776306],[131.291428,32.774574],[131.289368,32.763604],[131.280441,32.760139],[131.280441,32.762449],[131.279068,32.763027],[131.277695,32.765914],[131.279068,32.7688],[131.278381,32.77111],[131.279068,32.77111],[131.281815,32.769378],[131.283188,32.772842],[131.290741,32.776306]]],[[[131.259155,32.75783],[131.263275,32.754365],[131.266022,32.753788],[131.268082,32.749745],[131.270142,32.74859],[131.270828,32.74628],[131.272888,32.746858],[131.274261,32.745125],[131.274261,32.74166],[131.271515,32.742237],[131.268082,32.74166],[131.262589,32.742815],[131.257782,32.74628],[131.255035,32.749168],[131.255722,32.754942],[131.259155,32.75783]]]]}},{"type":"Feature","properties":{"layer_id":"civil_engineering_heritage","name":"鹿狩戸橋","address":"宮崎県西臼杵郡","source":"土木学会 選奨土木遺産","subarea_name":"鹿狩戸橋は、戦前に九州で建設された唯一のソリッドリブアーチ形式の鋼橋で、著名な橋梁設計者増田淳が設計した貴重な土木遺産です。","feature_key":"civil:548:鹿狩戸橋","accuracy_note":"公式地図の位置を優先して収録しています"},"geometry":{"type":"Point","coordinates":[131.332551,32.708668]}},{"type":"Feature","properties":{"layer_id":"historical_sites_archaeology","name":"土呂久鉱山跡","address":"宮崎県 西臼杵郡高千穂町 大字岩戸","source":"Geoshape 日本歴史地名大系 施設・地点項目データセット 2025-05-15","subarea_name":"史跡","feature_key":"09_historic_sites.geojson:460000050600","subtype":"史跡"},"geometry":{"type":"Point","coordinates":[131.348444,32.733231]}},{"type":"Feature","properties":{"layer_id":"historical_sites_archaeology","name":"宮ノ前第二遺跡","address":"宮崎県 西臼杵郡高千穂町 大字三田井","source":"Geoshape 日本歴史地名大系 施設・地点項目データセット 2025-05-15","subarea_name":"遺跡","feature_key":"08_archaeological_sites.geojson:460000049900","subtype":"遺跡"},"geometry":{"type":"Point","coordinates":[131.308199,32.710434]}},{"type":"Feature","properties":{"layer_id":"historical_sites_archaeology","name":"陣内遺跡","address":"宮崎県 西臼杵郡高千穂町 大字三田井","source":"Geoshape 日本歴史地名大系 施設・地点項目データセット 2025-05-15","subarea_name":"遺跡","feature_key":"08_archaeological_sites.geojson:460000049800","subtype":"遺跡"},"geometry":{"type":"Point","coordinates":[131.309783,32.718857]}},{"type":"Feature","properties":{"layer_id":"historical_temples_shrines","name":"二上神社","address":"宮崎県 西臼杵郡高千穂町 大字押方2375番地1","source":"Geoshape 日本歴史地名大系 施設・地点項目データセット 2025-05-15","subarea_name":"神社","feature_key":"02_shrines.geojson:460000050100","subtype":"神社"},"geometry":{"type":"Point","coordinates":[131.267242,32.686871]}},{"type":"Feature","properties":{"layer_id":"historical_temples_shrines","name":"天岩戸神社","address":"宮崎県 西臼杵郡高千穂町 大字岩戸1073番地1","source":"Geoshape 日本歴史地名大系 施設・地点項目データセット 2025-05-15","subarea_name":"神社","feature_key":"02_shrines.geojson:460000050400","subtype":"神社"},"geometry":{"type":"Point","coordinates":[131.350677,32.734581]}},{"type":"Feature","properties":{"layer_id":"historical_temples_shrines","name":"槵触神社","address":"宮崎県 西臼杵郡高千穂町 大字三田井713番地","source":"Geoshape 日本歴史地名大系 施設・地点項目データセット 2025-05-15","subarea_name":"神社","feature_key":"02_shrines.geojson:460000049600","subtype":"神社"},"geometry":{"type":"Point","coordinates":[131.316483,32.710754]}},{"type":"Feature","properties":{"layer_id":"historical_temples_shrines","name":"泉福寺","address":"宮崎県 西臼杵郡高千穂町 大字岩戸405番地","source":"Geoshape 日本歴史地名大系 施設・地点項目データセット 2025-05-15","subarea_name":"寺院","feature_key":"01_temples.geojson:460000050500","subtype":"寺院"},"geometry":{"type":"Point","coordinates":[131.340347,32.730164]}},{"type":"Feature","properties":{"layer_id":"historical_temples_shrines","name":"祖母嶽神社","address":"宮崎県 西臼杵郡高千穂町 大字五ケ所1662番地","source":"Geoshape 日本歴史地名大系 施設・地点項目データセット 2025-05-15","subarea_name":"神社","feature_key":"02_shrines.geojson:460000051800","subtype":"神社"},"geometry":{"type":"Point","coordinates":[131.277969,32.81134]}},{"type":"Feature","properties":{"layer_id":"historical_temples_shrines","name":"高千穂神社","address":"宮崎県 西臼杵郡高千穂町 大字三田井1037番地","source":"Geoshape 日本歴史地名大系 施設・地点項目データセット 2025-05-15","subarea_name":"神社","feature_key":"02_shrines.geojson:460000049500","subtype":"神社"},"geometry":{"type":"Point","coordinates":[131.299942,32.705448]}},{"type":"Feature","properties":{"layer_id":"historical_temples_shrines","name":"鶏足寺跡","address":"宮崎県 西臼杵郡高千穂町 大字下野","source":"Geoshape 日本歴史地名大系 施設・地点項目データセット 2025-05-15","subarea_name":"廃寺・廃社","feature_key":"03_abandoned_temples_shrines.geojson:460000051000","subtype":"廃寺・廃社"},"geometry":{"type":"Point","coordinates":[131.326015,32.748021]}}]}