{"type":"FeatureCollection","features":[{"type":"Feature","properties":{"municipality_code":"01516"},"geometry":{"type":"Polygon","coordinates":[[[141.767817,45.265433],[141.766931,45.263839],[141.767928,45.262574],[141.767079,45.259257],[141.769284,45.258019],[141.76963,45.256941],[141.7723,45.256609],[141.770995,45.254436],[141.77275,45.252931],[141.773645,45.250402],[141.772892,45.248206],[141.775411,45.24736],[141.77573,45.244611],[141.779812,45.243674],[141.778553,45.241353],[141.778916,45.238856],[141.781857,45.239153],[141.783837,45.238123],[141.783381,45.236691],[141.784113,45.235216],[141.76985,45.228091],[141.78095,45.217106],[141.798734,45.199892],[141.822006,45.211602],[141.82582,45.207711],[141.821513,45.205884],[141.826353,45.201624],[141.830115,45.203634],[141.836566,45.200714],[141.822728,45.193617],[141.830748,45.186045],[141.831188,45.185731],[141.832408,45.187827],[141.835209,45.189483],[141.846445,45.193404],[141.848827,45.193309],[141.850451,45.191909],[141.855322,45.193299],[141.863326,45.189564],[141.863038,45.176289],[141.901985,45.176832],[141.902077,45.18167],[141.901231,45.18263],[141.902593,45.182719],[141.902257,45.184901],[141.9029,45.186589],[141.901752,45.190797],[141.903908,45.192462],[141.902981,45.194869],[141.898941,45.195022],[141.906672,45.195946],[141.913041,45.20062],[141.913823,45.203211],[141.923936,45.209098],[141.924475,45.211651],[141.927992,45.213273],[141.93377,45.217933],[141.934952,45.219871],[141.937409,45.221046],[141.937473,45.222419],[141.941182,45.224794],[141.944276,45.226171],[141.949979,45.225236],[141.950883,45.224272],[141.952726,45.225415],[141.956354,45.226214],[141.957884,45.224423],[141.961216,45.225217],[141.965001,45.225067],[141.967156,45.225913],[141.968895,45.228123],[141.978625,45.232068],[141.990505,45.231142],[141.993872,45.231791],[141.994399,45.234546],[141.99675,45.235816],[141.997292,45.232949],[142.000099,45.231142],[141.996303,45.226991],[142.000289,45.224941],[142.000547,45.224124],[142.002318,45.223917],[142.001131,45.221292],[141.998529,45.219291],[141.996127,45.21884],[141.99509,45.214549],[141.99268,45.211224],[141.989359,45.209282],[141.986398,45.209324],[141.979942,45.206729],[141.97803,45.204373],[141.981142,45.201792],[141.983918,45.201575],[141.983982,45.198971],[141.987244,45.198195],[141.986516,45.196465],[141.987454,45.194988],[141.987088,45.193503],[141.989105,45.192318],[141.992704,45.191998],[141.992571,45.190667],[141.994118,45.189506],[141.992438,45.187545],[141.992177,45.183991],[141.996129,45.183829],[142.000717,45.181449],[142.005522,45.180727],[142.0055,45.179071],[142.004634,45.177781],[142.004847,45.174318],[142.008731,45.165424],[142.009741,45.164478],[142.0094,45.16259],[142.010132,45.161885],[142.010039,45.160267],[142.011339,45.159001],[142.011499,45.154263],[142.016757,45.150767],[142.017865,45.147305],[142.019361,45.146408],[142.018635,45.143534],[142.014371,45.138943],[142.006194,45.1364],[142.007025,45.134658],[142.006838,45.133096],[142.004478,45.131172],[142.002338,45.130281],[141.998774,45.130696],[141.996244,45.129992],[141.993193,45.127946],[141.99268,45.125975],[141.98746,45.123691],[141.989019,45.116755],[141.987372,45.113294],[141.988037,45.1115],[141.986524,45.108336],[141.990874,45.10567],[141.990851,45.104145],[141.992253,45.101113],[141.997124,45.100921],[141.999545,45.101658],[142.00419,45.100548],[142.003975,45.099613],[142.004938,45.097818],[142.004092,45.096914],[142.004059,45.095163],[142.005215,45.093375],[142.004295,45.091188],[142.003063,45.090265],[142.003531,45.088817],[142.000725,45.086847],[141.998455,45.083693],[141.994561,45.082586],[141.991374,45.085574],[141.990064,45.085357],[141.988083,45.086264],[141.983596,45.083276],[141.981507,45.083029],[141.980151,45.079313],[141.977413,45.077848],[141.977845,45.076583],[141.975767,45.074725],[141.969974,45.072625],[141.966334,45.073834],[141.963084,45.075864],[141.96409,45.077181],[141.963131,45.078159],[141.959444,45.079001],[141.956465,45.078712],[141.948216,45.075774],[141.946076,45.075923],[141.944364,45.077683],[141.944604,45.079403],[141.943389,45.07972],[141.940461,45.078091],[141.938877,45.080154],[141.936912,45.081136],[141.934468,45.080303],[141.934238,45.081272],[141.935179,45.082687],[141.932447,45.08418],[141.927417,45.082593],[141.925897,45.082719],[141.924835,45.081239],[141.922648,45.080121],[141.91763,45.079795],[141.914479,45.081006],[141.904839,45.079623],[141.896601,45.077491],[141.893651,45.07797],[141.892147,45.079753],[141.888283,45.078641],[141.885271,45.079075],[141.882428,45.078533],[141.868128,45.085118],[141.836153,45.051283],[141.833354,45.050018],[141.828875,45.049827],[141.824807,45.051833],[141.821803,45.049487],[141.819833,45.048889],[141.81889,45.049092],[141.817711,45.050776],[141.814319,45.050024],[141.81038,45.051948],[141.806798,45.050227],[141.80492,45.048463],[141.802973,45.0494],[141.802213,45.048494],[141.798608,45.050307],[141.795573,45.050856],[141.792585,45.05043],[141.791474,45.051343],[141.789132,45.051158],[141.786227,45.052935],[141.783862,45.051812],[141.780927,45.051984],[141.779588,45.054174],[141.775359,45.057696],[141.772683,45.05637],[141.768697,45.0574],[141.767564,45.060244],[141.767845,45.064618],[141.766947,45.066641],[141.768203,45.069047],[141.764863,45.074198],[141.759555,45.074654],[141.757426,45.076529],[141.748315,45.076128],[141.748497,45.080736],[141.7347,45.079907],[141.675458,45.049264],[141.665388,45.032185],[141.663476,45.031326],[141.635097,45.077631],[141.630897,45.083077],[141.629327,45.085795],[141.628916,45.086787],[141.58864,45.150826],[141.584296,45.160035],[141.578247,45.176091],[141.581913,45.177701],[141.583161,45.176418],[141.585893,45.176645],[141.586688,45.174858],[141.588234,45.173763],[141.591376,45.173497],[141.592544,45.172521],[141.599987,45.17354],[141.601032,45.173087],[141.600455,45.172047],[141.600779,45.170917],[141.602797,45.169118],[141.605864,45.169703],[141.606348,45.172089],[141.605883,45.174313],[141.604654,45.174999],[141.602739,45.17457],[141.600551,45.175079],[141.598603,45.178377],[141.601014,45.182448],[141.599569,45.18523],[141.603483,45.186525],[141.603767,45.187548],[141.602354,45.189699],[141.598148,45.190073],[141.593056,45.194196],[141.593493,45.196593],[141.595633,45.198653],[141.596436,45.20094],[141.597774,45.20098],[141.599534,45.199743],[141.602008,45.199914],[141.602563,45.200791],[141.604896,45.20085],[141.60736,45.203565],[141.61668,45.205258],[141.620684,45.20899],[141.625529,45.210433],[141.629374,45.208892],[141.633155,45.210059],[141.634763,45.212681],[141.636183,45.213739],[141.638572,45.214058],[141.640364,45.216959],[141.642491,45.217594],[141.643337,45.21895],[141.648336,45.220716],[141.651789,45.221094],[141.656179,45.223243],[141.657522,45.227806],[141.655811,45.232924],[141.657044,45.234228],[141.662701,45.2366],[141.668909,45.238691],[141.674371,45.238295],[141.681493,45.240378],[141.683874,45.240109],[141.684619,45.238433],[141.690955,45.237976],[141.695686,45.240464],[141.697156,45.240501],[141.702354,45.236357],[141.707177,45.234843],[141.707634,45.232692],[141.708695,45.231586],[141.711207,45.231216],[141.713161,45.231393],[141.71449,45.233223],[141.717855,45.234999],[141.720785,45.234788],[141.72311,45.23694],[141.728616,45.237474],[141.731338,45.236081],[141.731209,45.238913],[141.729817,45.242832],[141.729946,45.246922],[141.734339,45.251485],[141.736423,45.252064],[141.737991,45.254659],[141.734359,45.261057],[141.734952,45.26354],[141.734387,45.264993],[141.736857,45.266223],[141.740507,45.265754],[141.742313,45.267409],[141.746976,45.266881],[141.747783,45.268001],[141.748624,45.267693],[141.750459,45.270116],[141.763211,45.274044],[141.765206,45.273859],[141.765449,45.271969],[141.76741,45.270447],[141.765061,45.26865],[141.767817,45.265433]]]}}]}