{"type":"FeatureCollection","features":[{"type":"Feature","properties":{},"geometry":{"type":"MultiPolygon","coordinates":[[[[140.776144,42.527367],[140.772322,42.529987],[140.772764,42.530244],[140.773525,42.52974],[140.776144,42.527367]]],[[[140.750401,42.555006],[140.75072,42.554279],[140.749918,42.554754],[140.750401,42.555006]]],[[[140.776144,42.527367],[140.77751,42.528948],[140.776492,42.529619],[140.775303,42.529367],[140.776029,42.529969],[140.774843,42.53077],[140.776559,42.532278],[140.770727,42.540157],[140.764477,42.546513],[140.756068,42.55245],[140.756013,42.553116],[140.754241,42.553685],[140.751608,42.555143],[140.750401,42.555006],[140.750864,42.555781],[140.744433,42.557417],[140.742743,42.559569],[140.734753,42.564824],[140.732684,42.568054],[140.728454,42.569483],[140.725698,42.571848],[140.726836,42.572919],[140.726401,42.573444],[140.731,42.575044],[140.731319,42.575977],[140.733668,42.577426],[140.733869,42.578596],[140.739876,42.578456],[140.741291,42.580741],[140.745281,42.582598],[140.745388,42.58394],[140.748128,42.584514],[140.748306,42.594642],[140.759847,42.593987],[140.762341,42.601328],[140.758139,42.602945],[140.755915,42.601303],[140.751786,42.601809],[140.749909,42.603891],[140.748371,42.608444],[140.743131,42.611437],[140.742078,42.614334],[140.742643,42.61631],[140.73698,42.623348],[140.737419,42.632243],[140.734171,42.632434],[140.732747,42.634109],[140.730365,42.63388],[140.728312,42.635116],[140.729064,42.636653],[140.7333,42.636515],[140.734012,42.637455],[140.740565,42.639632],[140.742536,42.641035],[140.742647,42.644109],[140.74413,42.645808],[140.748734,42.649173],[140.754106,42.650878],[140.754981,42.652239],[140.75501,42.653545],[140.754275,42.653692],[140.755468,42.654723],[140.75443,42.655565],[140.755114,42.656401],[140.754478,42.65668],[140.75477,42.658038],[140.754038,42.658892],[140.755187,42.659491],[140.756334,42.659349],[140.756279,42.660329],[140.757878,42.662338],[140.759168,42.660917],[140.760943,42.660591],[140.760499,42.659866],[140.762126,42.657687],[140.764444,42.658131],[140.764478,42.661185],[140.769661,42.6613],[140.772165,42.659512],[140.772832,42.661643],[140.777974,42.660882],[140.778011,42.662971],[140.779243,42.664743],[140.779353,42.66645],[140.777977,42.6685],[140.779386,42.669066],[140.779367,42.669734],[140.783523,42.670526],[140.787236,42.669844],[140.788403,42.671255],[140.789835,42.671328],[140.791387,42.669922],[140.794454,42.669224],[140.79849,42.669813],[140.800417,42.67174],[140.803453,42.672584],[140.804339,42.673943],[140.807052,42.67449],[140.808776,42.676844],[140.811629,42.67675],[140.811661,42.678083],[140.814098,42.677188],[140.81565,42.678334],[140.818025,42.677828],[140.822399,42.680625],[140.823519,42.67986],[140.827117,42.680381],[140.82969,42.681714],[140.82995,42.682474],[140.831929,42.682287],[140.834908,42.683709],[140.837762,42.683808],[140.837997,42.684568],[140.843334,42.686479],[140.841746,42.687151],[140.842319,42.688338],[140.84435,42.689401],[140.846084,42.692864],[140.848448,42.69465],[140.848057,42.69515],[140.848922,42.696619],[140.852239,42.698384],[140.85727,42.699494],[140.866691,42.696083],[140.88306,42.692418],[140.883407,42.691702],[140.888531,42.689661],[140.890617,42.687676],[140.898147,42.688109],[140.902779,42.68675],[140.905813,42.687237],[140.908373,42.686141],[140.919371,42.688499],[140.925744,42.686563],[140.926296,42.685577],[140.927921,42.684913],[140.943849,42.684098],[140.953276,42.680091],[140.954786,42.678427],[140.954778,42.67686],[140.95634,42.675234],[140.966077,42.672532],[140.967509,42.670902],[140.970333,42.669282],[140.968864,42.666607],[140.968839,42.664251],[140.971891,42.661659],[140.970559,42.660307],[140.966586,42.65849],[140.96651,42.653189],[140.962091,42.650763],[140.96205,42.646763],[140.960676,42.644624],[140.957936,42.641358],[140.932568,42.645519],[140.928996,42.645628],[140.92343,42.644569],[140.918438,42.64517],[140.913568,42.642738],[140.910507,42.638418],[140.910352,42.636999],[140.911647,42.636153],[140.912222,42.630523],[140.911283,42.627096],[140.908667,42.625424],[140.907113,42.623066],[140.843183,42.603639],[140.830089,42.565274],[140.825558,42.542457],[140.822749,42.543963],[140.817461,42.543416],[140.810255,42.540716],[140.806439,42.536913],[140.803757,42.537569],[140.797254,42.535419],[140.798081,42.533435],[140.788665,42.531474],[140.787232,42.529941],[140.780457,42.527011],[140.779491,42.524513],[140.773139,42.520389],[140.772594,42.520303],[140.771242,42.522381],[140.772778,42.52348],[140.772713,42.524471],[140.776144,42.527367]]]]}}]}