{"type":"FeatureCollection","features":[{"type":"Feature","properties":{},"geometry":{"type":"Polygon","coordinates":[[[143.372911,43.200213],[143.373556,43.199038],[143.375714,43.198487],[143.375949,43.197514],[143.374491,43.195691],[143.374658,43.192653],[143.37336,43.192143],[143.374258,43.191153],[143.372223,43.189785],[143.391924,43.187588],[143.389507,43.184325],[143.388447,43.176266],[143.390207,43.141643],[143.40267,43.129478],[143.405566,43.119435],[143.415761,43.115442],[143.386857,43.085805],[143.380011,43.085045],[143.377036,43.085573],[143.373806,43.083603],[143.365102,43.082078],[143.363838,43.082663],[143.359455,43.082538],[143.358829,43.081807],[143.356746,43.081633],[143.354386,43.078649],[143.350325,43.077819],[143.344248,43.079349],[143.343667,43.080366],[143.342046,43.080661],[143.333319,43.080722],[143.330577,43.081957],[143.328826,43.084181],[143.324093,43.086996],[143.326621,43.089621],[143.326864,43.090873],[143.328996,43.092574],[143.329399,43.096925],[143.327472,43.098495],[143.328436,43.099839],[143.326951,43.103179],[143.327068,43.106965],[143.325483,43.107807],[143.325068,43.109449],[143.321951,43.110353],[143.324003,43.111697],[143.325013,43.113126],[143.324802,43.114262],[143.249736,43.123517],[143.241003,43.084168],[143.221364,43.086431],[143.221069,43.085329],[143.202716,43.088684],[143.20282,43.090741],[143.202009,43.092729],[143.20371,43.095012],[143.203345,43.097078],[143.205051,43.099395],[143.204751,43.101203],[143.207841,43.103503],[143.20908,43.107066],[143.211011,43.108772],[143.212892,43.112626],[143.215144,43.121535],[143.217081,43.124873],[143.216949,43.125871],[143.21469,43.12808],[143.21507,43.131391],[143.211956,43.133908],[143.214184,43.137816],[143.212615,43.139489],[143.212591,43.140823],[143.150476,43.152417],[143.146469,43.156839],[143.139552,43.161291],[143.133547,43.163713],[143.133283,43.165618],[143.130295,43.166304],[143.129605,43.168066],[143.12683,43.170883],[143.122767,43.173293],[143.122214,43.175331],[143.118573,43.179431],[143.117567,43.181678],[143.119281,43.184871],[143.11877,43.186163],[143.119484,43.188467],[143.11894,43.189709],[143.121047,43.192016],[143.121093,43.194531],[143.120388,43.196039],[143.121478,43.196502],[143.121803,43.198193],[143.120203,43.199699],[143.119807,43.202383],[143.117664,43.20317],[143.115562,43.205221],[143.116643,43.207818],[143.115827,43.210885],[143.117181,43.212669],[143.115564,43.213695],[143.114637,43.215971],[143.111616,43.218551],[143.110353,43.222981],[143.107986,43.224176],[143.107644,43.227196],[143.108339,43.228655],[143.103352,43.234698],[143.099576,43.241094],[143.100802,43.243833],[143.101976,43.244771],[143.102187,43.245721],[143.10138,43.246554],[143.10289,43.249515],[143.260265,43.220117],[143.259064,43.217342],[143.255691,43.213987],[143.372911,43.200213]]]}}]}