{"type":"FeatureCollection","features":[{"type":"Feature","properties":{},"geometry":{"type":"Polygon","coordinates":[[[143.448644,43.100759],[143.454847,43.092479],[143.469643,43.078101],[143.473387,43.077255],[143.475884,43.075027],[143.477736,43.074756],[143.479348,43.072767],[143.48078,43.073808],[143.498859,43.062931],[143.510655,43.056716],[143.557453,43.076042],[143.559945,43.074116],[143.562156,43.072002],[143.558159,43.067554],[143.562493,43.063351],[143.561829,43.062123],[143.563175,43.060005],[143.562701,43.055264],[143.565099,43.049368],[143.568058,43.047851],[143.570218,43.048185],[143.5705,43.046386],[143.573824,43.04431],[143.57352,43.042998],[143.574584,43.040793],[143.579788,43.040756],[143.581331,43.040104],[143.581131,43.038356],[143.58221,43.035665],[143.584085,43.035536],[143.588438,43.032881],[143.590362,43.032681],[143.591191,43.029073],[143.591016,43.027516],[143.588208,43.026224],[143.588548,43.022086],[143.587187,43.020655],[143.585345,43.020384],[143.584361,43.01904],[143.585373,43.016696],[143.582544,43.01362],[143.582762,43.012029],[143.584276,43.01114],[143.584396,43.009825],[143.58112,43.008653],[143.579156,43.008882],[143.578766,43.005601],[143.577343,43.004963],[143.577512,43.00351],[143.574441,43.00205],[143.576318,43.000709],[143.57519,42.998351],[143.576663,42.996577],[143.575749,42.995756],[143.576041,42.994633],[143.577431,42.993311],[143.576255,42.991571],[143.579211,42.988198],[143.576255,42.987784],[143.577855,42.984537],[143.577413,42.983337],[143.578608,42.982233],[143.582315,42.982275],[143.581812,42.980661],[143.583207,42.978734],[143.582327,42.9773],[143.582886,42.975322],[143.579552,42.975519],[143.575355,42.974269],[143.574873,42.973638],[143.576218,42.972041],[143.573102,42.970466],[143.571537,42.967311],[143.569583,42.96614],[143.565204,42.96543],[143.564844,42.961949],[143.567654,42.95306],[143.568117,42.947791],[143.570216,42.947961],[143.576919,42.946265],[143.577556,42.9405],[143.579598,42.937268],[143.579934,42.935028],[143.577921,42.933677],[143.57845,42.927802],[143.572935,42.924402],[143.572522,42.922283],[143.570024,42.919624],[143.569773,42.915465],[143.568794,42.914273],[143.569021,42.912679],[143.568214,42.911447],[143.563766,42.909731],[143.560665,42.909669],[143.559321,42.905567],[143.555085,42.904573],[143.552023,42.901047],[143.550176,42.90019],[143.549013,42.896534],[143.550958,42.893952],[143.513356,42.881345],[143.490025,42.876169],[143.488389,42.877694],[143.481647,42.874732],[143.480003,42.876353],[143.443447,42.873849],[143.428253,42.895061],[143.417155,42.906216],[143.409457,42.911466],[143.388366,42.921397],[143.383877,42.925037],[143.378705,42.931031],[143.378846,42.932046],[143.381215,42.934665],[143.380736,42.937936],[143.374414,42.942852],[143.366149,42.942229],[143.361949,42.94045],[143.358394,42.94094],[143.347664,42.940169],[143.340438,42.941226],[143.332148,42.939697],[143.320884,42.936268],[143.320608,42.938116],[143.322784,42.941509],[143.323154,42.943759],[143.31994,42.94855],[143.321857,42.951557],[143.325431,42.953716],[143.325642,42.956369],[143.324296,42.959119],[143.325484,42.963195],[143.330263,42.966539],[143.332268,42.966258],[143.336562,42.968016],[143.340221,42.967011],[143.34215,42.964991],[143.350931,42.966972],[143.352571,42.96836],[143.355818,42.968003],[143.358453,42.96949],[143.362682,42.969053],[143.367163,42.969975],[143.367288,42.971219],[143.368629,42.972269],[143.3708,42.976167],[143.370558,42.977401],[143.368503,42.979399],[143.367821,42.982687],[143.371255,42.985054],[143.37167,42.986723],[143.373375,42.987226],[143.373607,42.989629],[143.374917,42.990306],[143.375346,42.991444],[143.373724,42.993116],[143.373911,42.994415],[143.37069,42.996815],[143.37048,42.998502],[143.371848,43.000039],[143.370437,43.001039],[143.369214,43.003988],[143.367474,43.004487],[143.367484,43.005784],[143.364927,43.007495],[143.366234,43.010034],[143.363981,43.015813],[143.361923,43.018189],[143.363014,43.018873],[143.363707,43.020949],[143.359576,43.022936],[143.358937,43.025814],[143.356886,43.026413],[143.35388,43.026109],[143.351863,43.027396],[143.35483,43.029367],[143.354951,43.0308],[143.35639,43.0319],[143.357313,43.03409],[143.356036,43.035893],[143.35674,43.03706],[143.355973,43.039],[143.352159,43.040976],[143.351739,43.045346],[143.349215,43.046219],[143.348609,43.050101],[143.34673,43.052111],[143.345612,43.05664],[143.344702,43.057538],[143.341573,43.057864],[143.340657,43.059904],[143.341155,43.061551],[143.340189,43.062927],[143.341183,43.066121],[143.340283,43.068456],[143.340941,43.070274],[143.343678,43.071791],[143.342596,43.075816],[143.343356,43.0766],[143.343419,43.078785],[143.344248,43.079349],[143.350325,43.077819],[143.354386,43.078649],[143.356746,43.081633],[143.358829,43.081807],[143.359455,43.082538],[143.363838,43.082663],[143.365102,43.082078],[143.373806,43.083603],[143.377036,43.085573],[143.380011,43.085045],[143.386857,43.085805],[143.415761,43.115442],[143.424531,43.112044],[143.427041,43.109429],[143.443744,43.100021],[143.448644,43.100759]]]}}]}