{"type":"FeatureCollection","features":[{"type":"Feature","properties":{},"geometry":{"type":"Polygon","coordinates":[[[140.526231,40.717945],[140.528527,40.716305],[140.527771,40.715825],[140.529154,40.714249],[140.532922,40.711481],[140.534573,40.708756],[140.536593,40.707508],[140.536177,40.706937],[140.53691,40.705997],[140.542537,40.702999],[140.544436,40.700987],[140.547059,40.700288],[140.548747,40.695486],[140.546323,40.694765],[140.546058,40.694114],[140.545042,40.691188],[140.545793,40.691003],[140.544962,40.687962],[140.545804,40.687971],[140.545343,40.686732],[140.541523,40.687593],[140.540071,40.687268],[140.543255,40.684601],[140.541866,40.684226],[140.542106,40.68355],[140.541444,40.683153],[140.5438,40.680636],[140.543306,40.679983],[140.544645,40.679488],[140.544266,40.677124],[140.545498,40.676345],[140.547269,40.676827],[140.54598,40.675983],[140.547982,40.674778],[140.549242,40.67491],[140.549043,40.67144],[140.550324,40.669717],[140.551559,40.670728],[140.553636,40.676116],[140.554236,40.677003],[140.555263,40.676784],[140.556216,40.678612],[140.555367,40.680659],[140.555517,40.684069],[140.554605,40.684219],[140.559176,40.688068],[140.564462,40.688657],[140.568207,40.687831],[140.571629,40.689457],[140.57824,40.687322],[140.579015,40.685078],[140.577874,40.684786],[140.578368,40.679921],[140.576612,40.679896],[140.576552,40.677187],[140.575289,40.67763],[140.572024,40.672331],[140.571321,40.67259],[140.567469,40.674433],[140.567143,40.67267],[140.565976,40.672801],[140.56581,40.671618],[140.566608,40.671315],[140.565689,40.669727],[140.563448,40.669115],[140.563353,40.667588],[140.563058,40.668057],[140.562346,40.667323],[140.561407,40.667617],[140.557925,40.663237],[140.558465,40.660858],[140.557816,40.659515],[140.553888,40.662031],[140.551654,40.660618],[140.549725,40.662421],[140.547908,40.660893],[140.54768,40.659167],[140.545363,40.658894],[140.542597,40.659485],[140.538794,40.659133],[140.534952,40.6616],[140.534333,40.660947],[140.530918,40.662945],[140.531126,40.660403],[140.530538,40.659255],[140.528343,40.659236],[140.527586,40.660235],[140.526232,40.65964],[140.522449,40.661467],[140.522976,40.657074],[140.519885,40.650732],[140.518393,40.650711],[140.517688,40.648724],[140.516073,40.649003],[140.514796,40.646266],[140.515914,40.645206],[140.510818,40.645301],[140.510414,40.644478],[140.509514,40.644525],[140.509375,40.643103],[140.506364,40.642991],[140.502085,40.641266],[140.497051,40.642621],[140.495367,40.644518],[140.494436,40.650234],[140.487865,40.6521],[140.482897,40.651537],[140.48044,40.645776],[140.478706,40.645468],[140.476691,40.646265],[140.476435,40.64852],[140.475399,40.649054],[140.474122,40.651517],[140.473577,40.651928],[140.471765,40.650815],[140.467234,40.655352],[140.465452,40.661051],[140.464539,40.661629],[140.460579,40.661528],[140.46218,40.668486],[140.465464,40.670514],[140.467613,40.671624],[140.467914,40.669346],[140.472151,40.666172],[140.475261,40.666336],[140.478631,40.668819],[140.477472,40.66994],[140.47913,40.671122],[140.478184,40.673921],[140.478697,40.675153],[140.478127,40.676179],[140.476579,40.67659],[140.474643,40.680009],[140.476699,40.679986],[140.477826,40.681449],[140.479152,40.681813],[140.479426,40.683072],[140.482352,40.683711],[140.483223,40.682281],[140.485318,40.683095],[140.488169,40.680824],[140.488513,40.683913],[140.489468,40.683408],[140.489384,40.684273],[140.490233,40.684691],[140.490127,40.68358],[140.492063,40.684583],[140.492748,40.685596],[140.491784,40.686074],[140.493176,40.689146],[140.491563,40.690765],[140.491516,40.696124],[140.492599,40.697339],[140.49301,40.699496],[140.494835,40.699836],[140.49478,40.701466],[140.495487,40.700972],[140.498278,40.702254],[140.499087,40.701148],[140.500712,40.702599],[140.501493,40.704384],[140.501145,40.707067],[140.502253,40.70651],[140.502658,40.709464],[140.504452,40.70934],[140.504396,40.708778],[140.505555,40.708678],[140.50548,40.707753],[140.506583,40.707677],[140.506247,40.704828],[140.507673,40.704751],[140.507524,40.702345],[140.510921,40.701636],[140.509658,40.699952],[140.510009,40.698674],[140.511914,40.698311],[140.512688,40.699481],[140.514271,40.699472],[140.518318,40.696054],[140.518432,40.691685],[140.519676,40.692193],[140.527684,40.689152],[140.522146,40.69193],[140.520402,40.69435],[140.520705,40.69513],[140.522002,40.69484],[140.52236,40.695783],[140.523336,40.695556],[140.524401,40.698438],[140.527294,40.697813],[140.528359,40.700066],[140.525014,40.708264],[140.525216,40.711111],[140.523507,40.713703],[140.523109,40.715761],[140.520591,40.718816],[140.521121,40.721962],[140.525131,40.719901],[140.526231,40.717945]]]}}]}