{"type":"FeatureCollection","features":[{"type":"Feature","properties":{"municipality_code":"06322"},"geometry":{"type":"Polygon","coordinates":[[[140.032351,38.539583],[140.035736,38.53274],[140.036151,38.524988],[140.037121,38.523674],[140.036913,38.521292],[140.038674,38.519607],[140.039024,38.518033],[140.03555,38.5171],[140.035498,38.512962],[140.037419,38.510637],[140.036568,38.509279],[140.037023,38.507964],[140.034989,38.505495],[140.038621,38.504189],[140.039141,38.501231],[140.04136,38.501105],[140.041732,38.499316],[140.046087,38.498679],[140.050348,38.4963],[140.052556,38.497371],[140.056138,38.497655],[140.056902,38.499929],[140.059874,38.498978],[140.062997,38.500192],[140.066515,38.504489],[140.069859,38.504148],[140.074533,38.505009],[140.074773,38.506553],[140.079233,38.510769],[140.086738,38.512558],[140.089665,38.51222],[140.096565,38.508662],[140.098031,38.506828],[140.102796,38.503519],[140.104174,38.500896],[140.105769,38.501028],[140.113372,38.494465],[140.118301,38.493302],[140.122341,38.493692],[140.122854,38.495184],[140.126604,38.496964],[140.124268,38.497877],[140.12306,38.50095],[140.125019,38.504231],[140.137251,38.508303],[140.138674,38.507914],[140.142093,38.508908],[140.143862,38.51098],[140.147319,38.513197],[140.151156,38.514055],[140.15346,38.510421],[140.160692,38.50717],[140.163686,38.504994],[140.164572,38.502193],[140.168117,38.501229],[140.170926,38.499343],[140.170721,38.498121],[140.174586,38.49547],[140.176809,38.49222],[140.176006,38.489928],[140.17854,38.489863],[140.179576,38.486812],[140.185608,38.480372],[140.185268,38.478266],[140.188689,38.475707],[140.185944,38.472384],[140.184226,38.472193],[140.182523,38.471028],[140.18156,38.469216],[140.182138,38.46733],[140.180064,38.461252],[140.185082,38.452566],[140.186252,38.448914],[140.185432,38.441317],[140.190681,38.438438],[140.191564,38.434766],[140.193095,38.435724],[140.196817,38.436342],[140.200941,38.433531],[140.198718,38.43076],[140.197804,38.421974],[140.195704,38.418954],[140.196066,38.416071],[140.194523,38.415131],[140.194987,38.413946],[140.193125,38.411205],[140.196524,38.410279],[140.197587,38.408521],[140.200438,38.406473],[140.205296,38.406063],[140.205414,38.403474],[140.204787,38.402675],[140.203273,38.402485],[140.198396,38.403484],[140.197931,38.402426],[140.195968,38.401646],[140.190629,38.403603],[140.188291,38.403749],[140.186533,38.400853],[140.181337,38.39975],[140.173331,38.401899],[140.170392,38.401808],[140.168918,38.400868],[140.166161,38.400511],[140.162371,38.403363],[140.157226,38.402249],[140.154716,38.402479],[140.153825,38.403197],[140.150314,38.401837],[140.147805,38.402527],[140.146959,38.403564],[140.143596,38.403947],[140.140421,38.407691],[140.13921,38.406282],[140.137297,38.405731],[140.135783,38.403818],[140.132334,38.402823],[140.127921,38.404334],[140.122563,38.403455],[140.120792,38.403801],[140.116558,38.401596],[140.114339,38.403182],[140.113821,38.404427],[140.112052,38.404429],[140.105668,38.407179],[140.100106,38.406217],[140.096659,38.406776],[140.092884,38.405927],[140.089316,38.406507],[140.087781,38.405243],[140.083889,38.404463],[140.082921,38.403024],[140.081035,38.40252],[140.079737,38.399887],[140.078015,38.398569],[140.071555,38.396007],[140.069251,38.393125],[140.067266,38.392957],[140.067026,38.391098],[140.067664,38.389606],[140.06714,38.384873],[140.063678,38.383625],[140.06352,38.381996],[140.062424,38.381722],[140.062236,38.380898],[140.056373,38.384453],[140.050259,38.386324],[140.048615,38.386168],[140.047627,38.387811],[140.047621,38.389449],[140.045936,38.391557],[140.041722,38.392761],[140.039026,38.396885],[140.035385,38.398991],[140.033531,38.399124],[140.028171,38.401616],[140.023244,38.40484],[140.019732,38.403917],[140.017665,38.400559],[140.013527,38.399857],[140.013144,38.39719],[140.012252,38.396658],[140.012369,38.393814],[140.011528,38.391604],[140.012361,38.388992],[140.011182,38.387199],[140.009548,38.386502],[140.010782,38.384044],[140.005335,38.380079],[140.007724,38.375966],[140.010274,38.375336],[140.011707,38.374143],[140.009961,38.372742],[140.009719,38.370898],[140.008616,38.369621],[140.010099,38.368647],[140.011295,38.365833],[140.008991,38.36193],[140.008866,38.360492],[140.010056,38.359504],[140.006594,38.351459],[140.008299,38.348055],[140.008597,38.346651],[140.007904,38.345213],[140.009021,38.342999],[140.007527,38.340124],[140.010425,38.337192],[140.009679,38.335447],[140.008283,38.334976],[140.006699,38.33319],[140.002923,38.333278],[140.002413,38.332126],[140.00004,38.331916],[139.997774,38.330397],[139.996567,38.330378],[139.995548,38.331848],[139.992693,38.333145],[139.991931,38.332549],[139.992007,38.329953],[139.988251,38.328521],[139.988398,38.323602],[139.9873,38.323415],[139.986824,38.321129],[139.983372,38.320182],[139.983006,38.319294],[139.981521,38.319536],[139.979277,38.318042],[139.977966,38.317989],[139.972196,38.314199],[139.971178,38.314252],[139.971144,38.314874],[139.967003,38.314619],[139.962935,38.315782],[139.961044,38.314864],[139.962103,38.311514],[139.959051,38.309653],[139.956593,38.309412],[139.954574,38.307601],[139.954358,38.305279],[139.95254,38.30319],[139.952358,38.301354],[139.951104,38.300444],[139.951967,38.298074],[139.951632,38.293386],[139.949199,38.290888],[139.947245,38.285688],[139.945708,38.284189],[139.947016,38.281632],[139.946211,38.280537],[139.946404,38.27723],[139.94506,38.273389],[139.940954,38.272169],[139.938229,38.269474],[139.9361,38.269383],[139.927098,38.266506],[139.925311,38.266568],[139.92375,38.265761],[139.921428,38.262884],[139.917603,38.265115],[139.915771,38.266899],[139.915282,38.269343],[139.911332,38.272594],[139.901095,38.276008],[139.899887,38.275809],[139.898007,38.278039],[139.898403,38.282531],[139.899799,38.287287],[139.898871,38.293156],[139.889729,38.299209],[139.888506,38.300963],[139.879308,38.303433],[139.879173,38.306346],[139.876806,38.31041],[139.876775,38.313068],[139.87599,38.313514],[139.874798,38.316778],[139.876881,38.319679],[139.881944,38.323953],[139.882905,38.32625],[139.887621,38.328338],[139.889068,38.330041],[139.89235,38.332004],[139.895751,38.330918],[139.897753,38.332243],[139.898267,38.334992],[139.902938,38.339924],[139.902734,38.342114],[139.904605,38.345804],[139.902339,38.348509],[139.906843,38.353298],[139.910269,38.355239],[139.910872,38.35757],[139.914383,38.361771],[139.913556,38.362701],[139.914971,38.365134],[139.91742,38.366896],[139.911839,38.372963],[139.91232,38.374671],[139.909888,38.379369],[139.91066,38.380881],[139.910352,38.382462],[139.911875,38.383981],[139.912837,38.386346],[139.916612,38.387471],[139.917458,38.389085],[139.919148,38.390019],[139.921277,38.393533],[139.916951,38.402181],[139.916969,38.406104],[139.916301,38.407919],[139.914373,38.410403],[139.916047,38.412738],[139.916047,38.416096],[139.917061,38.418272],[139.922196,38.418593],[139.924026,38.419822],[139.92727,38.420362],[139.928134,38.422326],[139.929841,38.423354],[139.929577,38.426761],[139.931356,38.428846],[139.93206,38.431606],[139.933784,38.433278],[139.935074,38.433585],[139.933494,38.434153],[139.934488,38.435608],[139.933128,38.438798],[139.934225,38.44221],[139.933105,38.4465],[139.933416,38.448163],[139.926496,38.448991],[139.925049,38.449968],[139.924171,38.452036],[139.924875,38.453023],[139.924843,38.455059],[139.929201,38.459679],[139.927931,38.461892],[139.928839,38.464179],[139.927603,38.465285],[139.932541,38.469641],[139.931713,38.47082],[139.929674,38.471699],[139.929291,38.474051],[139.927874,38.474005],[139.928635,38.477576],[139.926159,38.479694],[139.930724,38.481808],[139.932442,38.484489],[139.939965,38.486186],[139.942166,38.488903],[139.941908,38.489909],[139.937649,38.49274],[139.937106,38.49384],[139.934567,38.494537],[139.935117,38.496674],[139.933624,38.498031],[139.932688,38.500576],[139.933015,38.501665],[139.93202,38.502284],[139.935541,38.504875],[139.936963,38.504114],[139.940357,38.504521],[139.943034,38.507013],[139.944962,38.506192],[139.947564,38.506489],[139.948108,38.508052],[139.951772,38.510003],[139.950098,38.511683],[139.950921,38.513037],[139.953464,38.513224],[139.954293,38.515358],[139.957134,38.51658],[139.96459,38.518377],[139.966956,38.520948],[139.974661,38.523267],[139.980856,38.527312],[139.9832,38.530016],[139.986703,38.531938],[139.989038,38.534805],[139.993161,38.536839],[139.993217,38.538166],[139.995224,38.537844],[140.00029,38.539422],[140.003245,38.5414],[140.007634,38.53932],[140.01155,38.541653],[140.012846,38.543204],[140.016652,38.544734],[140.02618,38.546815],[140.032351,38.539583]]]}}]}