{"type":"FeatureCollection","features":[{"type":"Feature","properties":{"municipality_code":"06321"},"geometry":{"type":"Polygon","coordinates":[[[140.269651,38.473497],[140.271092,38.472735],[140.272732,38.473134],[140.273727,38.471792],[140.27829,38.471639],[140.280212,38.470024],[140.290555,38.468708],[140.293272,38.466197],[140.297099,38.464242],[140.303199,38.465922],[140.302197,38.463336],[140.306019,38.459993],[140.307355,38.460883],[140.310896,38.459245],[140.31301,38.4589],[140.313212,38.459631],[140.314336,38.459447],[140.317967,38.457467],[140.319711,38.458441],[140.321697,38.458416],[140.322421,38.458043],[140.322022,38.457055],[140.327402,38.456317],[140.329035,38.455438],[140.332475,38.456217],[140.332724,38.457802],[140.337021,38.457677],[140.342911,38.455691],[140.345265,38.457564],[140.345841,38.455418],[140.347066,38.452972],[140.344251,38.451783],[140.341913,38.449488],[140.33789,38.448486],[140.33891,38.446635],[140.33789,38.446269],[140.340483,38.441944],[140.339497,38.440075],[140.3384,38.439857],[140.339142,38.439482],[140.338489,38.437788],[140.338921,38.435074],[140.345934,38.430379],[140.345657,38.428907],[140.343396,38.425919],[140.327807,38.424943],[140.32702,38.422491],[140.328239,38.422116],[140.329125,38.420622],[140.332217,38.420783],[140.332693,38.421907],[140.335286,38.423697],[140.337757,38.423915],[140.337258,38.422382],[140.338078,38.422164],[140.336979,38.418965],[140.337736,38.418565],[140.337636,38.414643],[140.336328,38.413136],[140.341043,38.411719],[140.341148,38.405656],[140.338691,38.403393],[140.337089,38.403933],[140.336299,38.402567],[140.334478,38.403694],[140.332991,38.401576],[140.333334,38.400281],[140.331266,38.398727],[140.328832,38.392655],[140.33352,38.389335],[140.333122,38.38471],[140.325602,38.382975],[140.325526,38.379978],[140.322797,38.375177],[140.321968,38.37534],[140.319708,38.380686],[140.306501,38.383141],[140.306851,38.38435],[140.303483,38.38499],[140.303777,38.386046],[140.301485,38.387007],[140.301928,38.387637],[140.300385,38.388234],[140.301001,38.389182],[140.289824,38.394534],[140.29124,38.39863],[140.289046,38.399215],[140.29048,38.404612],[140.290249,38.405192],[140.287946,38.405138],[140.287842,38.408808],[140.284629,38.408672],[140.283534,38.412379],[140.274701,38.410702],[140.274921,38.409881],[140.268165,38.410289],[140.26847,38.411354],[140.270595,38.412755],[140.269466,38.413933],[140.271418,38.41517],[140.26946,38.415704],[140.270341,38.417522],[140.269022,38.418242],[140.269724,38.419022],[140.267164,38.421377],[140.265359,38.42444],[140.262632,38.424721],[140.260408,38.426342],[140.261579,38.427859],[140.260881,38.428828],[140.261076,38.430673],[140.257816,38.434275],[140.256934,38.439859],[140.255313,38.441666],[140.255881,38.447568],[140.254384,38.450968],[140.254804,38.452796],[140.257022,38.454943],[140.260778,38.456578],[140.261686,38.457626],[140.261955,38.459583],[140.261003,38.460365],[140.26331,38.464712],[140.260879,38.466203],[140.260624,38.467024],[140.2563,38.468145],[140.254631,38.470564],[140.254436,38.472108],[140.259391,38.472938],[140.262956,38.472575],[140.265209,38.473609],[140.269651,38.473497]]]}}]}