{"type":"FeatureCollection","features":[{"type":"Feature","properties":{},"geometry":{"type":"Polygon","coordinates":[[[139.903903,38.106147],[139.906909,38.099677],[139.913618,38.098319],[139.916404,38.101039],[139.923303,38.1013],[139.92719,38.097139],[139.928507,38.098339],[139.928318,38.099315],[139.929946,38.100588],[139.931987,38.099878],[139.938526,38.095827],[139.941562,38.094856],[139.942046,38.094081],[139.941379,38.093007],[139.945803,38.09114],[139.947578,38.086865],[139.949085,38.087079],[139.954318,38.085699],[139.957361,38.086893],[139.967154,38.088613],[139.970828,38.08779],[139.975774,38.088127],[139.981374,38.089904],[139.984412,38.091644],[139.984642,38.09082],[139.98742,38.090532],[139.987331,38.089422],[139.990325,38.089133],[139.990234,38.088043],[139.992946,38.087786],[139.992831,38.086792],[139.996357,38.086495],[139.996164,38.08495],[139.998758,38.084831],[139.998744,38.083956],[140.000676,38.083751],[140.000798,38.082946],[140.001941,38.083589],[140.002231,38.083029],[140.003711,38.083181],[140.003303,38.081989],[140.005683,38.08142],[140.006115,38.082619],[140.011405,38.081417],[140.011014,38.080212],[140.01558,38.079284],[140.013375,38.074465],[140.014086,38.074265],[140.014073,38.071381],[140.016052,38.071233],[140.017637,38.070179],[140.020746,38.071059],[140.023999,38.069982],[140.022044,38.065528],[140.022864,38.064986],[140.022203,38.06423],[140.023144,38.063657],[140.023899,38.06145],[140.020774,38.053061],[140.023296,38.048183],[140.026368,38.045494],[140.024561,38.045003],[140.024871,38.044092],[140.028091,38.044937],[140.028877,38.0443],[140.028189,38.043826],[140.02963,38.04252],[140.028634,38.04164],[140.029696,38.041472],[140.029609,38.040539],[140.03296,38.036978],[140.032202,38.035941],[140.032033,38.033169],[140.03318,38.031511],[140.035345,38.030738],[140.034741,38.028192],[140.035982,38.025255],[140.034013,38.023975],[140.030135,38.024013],[140.028386,38.023146],[140.028106,38.020787],[140.026784,38.019476],[140.026558,38.017485],[140.023493,38.015462],[140.023291,38.014059],[140.018827,38.013132],[140.017768,38.01068],[140.014329,38.010733],[140.01234,38.008872],[140.008836,38.008864],[140.006422,38.010021],[140.002706,38.009727],[140.001121,38.010639],[139.998313,38.00964],[139.996654,38.009999],[139.994904,38.009029],[139.993587,38.009241],[139.989766,38.006753],[139.98245,38.008796],[139.978064,38.00794],[139.976197,38.006805],[139.976374,38.003798],[139.97555,38.002972],[139.97616,38.001112],[139.974566,38.000131],[139.972849,38.00006],[139.971821,37.998407],[139.968281,37.998758],[139.967947,37.996578],[139.968571,37.995721],[139.962452,37.986991],[139.964221,37.984205],[139.963219,37.982766],[139.963678,37.981436],[139.961509,37.977921],[139.962252,37.975459],[139.963579,37.974576],[139.961936,37.972304],[139.964394,37.970626],[139.961214,37.96827],[139.959161,37.968015],[139.95878,37.96687],[139.956763,37.965854],[139.956508,37.964129],[139.953754,37.962156],[139.952147,37.959369],[139.952318,37.952669],[139.950953,37.951696],[139.952729,37.949539],[139.952468,37.947799],[139.946902,37.947231],[139.94371,37.948211],[139.939601,37.947402],[139.938974,37.948199],[139.933893,37.949714],[139.93153,37.949137],[139.931721,37.945713],[139.924056,37.941814],[139.92425,37.940148],[139.921829,37.936239],[139.922279,37.934143],[139.923964,37.93209],[139.923589,37.931134],[139.926114,37.928443],[139.928614,37.927152],[139.932453,37.92732],[139.934354,37.926136],[139.937265,37.926832],[139.942498,37.924244],[139.941188,37.921382],[139.941998,37.91784],[139.943564,37.916747],[139.94436,37.915061],[139.944601,37.912255],[139.945825,37.909334],[139.945157,37.9081],[139.946304,37.906177],[139.945346,37.904916],[139.936701,37.903569],[139.935704,37.900731],[139.936219,37.899669],[139.935475,37.898703],[139.938613,37.895383],[139.938,37.892328],[139.93857,37.8908],[139.938399,37.886626],[139.939151,37.884671],[139.941967,37.880756],[139.947672,37.876877],[139.949511,37.874829],[139.946785,37.871347],[139.944318,37.870626],[139.943231,37.869561],[139.942483,37.867761],[139.938779,37.866632],[139.936388,37.861052],[139.936301,37.858512],[139.938136,37.856638],[139.936223,37.855179],[139.935566,37.852829],[139.935113,37.850869],[139.936067,37.848574],[139.93493,37.843787],[139.935753,37.839871],[139.939228,37.832291],[139.937247,37.828198],[139.932582,37.829396],[139.927941,37.827526],[139.927726,37.826029],[139.930201,37.82543],[139.92953,37.82454],[139.930069,37.822473],[139.927363,37.821115],[139.928046,37.819456],[139.925198,37.816045],[139.925431,37.814037],[139.92481,37.813516],[139.917874,37.813345],[139.916227,37.814424],[139.912015,37.8138],[139.907364,37.81543],[139.902621,37.813781],[139.898815,37.810282],[139.891879,37.810251],[139.889045,37.811072],[139.886603,37.809159],[139.882278,37.810902],[139.879431,37.810272],[139.878776,37.811735],[139.876153,37.81325],[139.876406,37.817332],[139.873766,37.816491],[139.872579,37.816817],[139.870537,37.818969],[139.868701,37.819494],[139.867761,37.821792],[139.866379,37.823087],[139.863667,37.824796],[139.857701,37.826541],[139.855969,37.825885],[139.853609,37.823477],[139.851843,37.823274],[139.850574,37.821301],[139.844135,37.819306],[139.841419,37.816497],[139.840264,37.816489],[139.837859,37.814498],[139.836118,37.814462],[139.834547,37.815597],[139.832417,37.815396],[139.829969,37.814836],[139.82662,37.811908],[139.824893,37.813214],[139.821598,37.811996],[139.817723,37.808277],[139.816058,37.80761],[139.813281,37.804002],[139.810014,37.803239],[139.804221,37.805421],[139.803888,37.810754],[139.802561,37.813871],[139.803402,37.815164],[139.794728,37.817819],[139.793254,37.820839],[139.790667,37.821661],[139.78891,37.823133],[139.788202,37.826665],[139.782939,37.831971],[139.779954,37.831616],[139.776413,37.829948],[139.773156,37.830045],[139.771401,37.828431],[139.769211,37.828773],[139.762991,37.826701],[139.757881,37.824622],[139.755407,37.822134],[139.74105,37.820277],[139.738239,37.823163],[139.738302,37.824966],[139.736823,37.82746],[139.736021,37.827993],[139.732626,37.830643],[139.731768,37.830706],[139.733605,37.833847],[139.735624,37.835072],[139.73567,37.83844],[139.736562,37.840122],[139.740928,37.841727],[139.744176,37.845044],[139.746238,37.849707],[139.749425,37.852971],[139.751481,37.860236],[139.758652,37.858492],[139.763651,37.863767],[139.768748,37.867029],[139.771619,37.866993],[139.775756,37.868767],[139.776703,37.872561],[139.778176,37.874457],[139.777769,37.878576],[139.786329,37.879537],[139.789903,37.884062],[139.792469,37.884276],[139.794844,37.886084],[139.798103,37.887198],[139.800972,37.886619],[139.806635,37.887607],[139.809831,37.888737],[139.811368,37.890057],[139.812194,37.891644],[139.811263,37.898112],[139.807323,37.900309],[139.805837,37.902729],[139.807519,37.903957],[139.807484,37.905217],[139.811813,37.911841],[139.814199,37.911878],[139.817519,37.915606],[139.821369,37.916372],[139.825723,37.919644],[139.82587,37.922731],[139.825104,37.923918],[139.82561,37.924525],[139.828513,37.92529],[139.829147,37.924161],[139.833695,37.922606],[139.836674,37.926723],[139.841806,37.926447],[139.843007,37.925589],[139.845851,37.926442],[139.848473,37.930401],[139.848248,37.93519],[139.853981,37.93771],[139.8538,37.940424],[139.854944,37.942892],[139.853785,37.944654],[139.853518,37.950552],[139.857581,37.954574],[139.861374,37.955382],[139.856045,37.955867],[139.854596,37.958388],[139.850295,37.95945],[139.850829,37.960514],[139.852583,37.960947],[139.853688,37.962313],[139.851015,37.964941],[139.853319,37.966215],[139.85227,37.967539],[139.853117,37.968774],[139.852698,37.969815],[139.856054,37.973434],[139.856314,37.979033],[139.860128,37.977294],[139.864794,37.978576],[139.866226,37.979627],[139.869853,37.979836],[139.881178,37.978014],[139.888361,37.980477],[139.890621,37.981893],[139.896801,37.983195],[139.898291,37.982854],[139.899724,37.989167],[139.903328,37.991677],[139.903676,37.993589],[139.901509,37.998104],[139.902072,37.999357],[139.903373,37.999759],[139.904828,38.002025],[139.910579,38.00551],[139.914276,38.006653],[139.916837,38.005712],[139.919616,38.009211],[139.918776,38.010279],[139.919069,38.011526],[139.922719,38.012225],[139.923036,38.015024],[139.921487,38.021089],[139.922538,38.024354],[139.922015,38.029424],[139.919067,38.034826],[139.919553,38.035623],[139.918339,38.036002],[139.917343,38.038671],[139.917392,38.04171],[139.918232,38.042624],[139.916767,38.044214],[139.916757,38.046389],[139.91795,38.047918],[139.91691,38.049894],[139.908579,38.052161],[139.907916,38.053356],[139.909619,38.055361],[139.908833,38.056587],[139.910478,38.065989],[139.909014,38.06723],[139.907504,38.070324],[139.9052,38.072424],[139.903873,38.072779],[139.900043,38.076895],[139.893874,38.077753],[139.891639,38.080715],[139.889169,38.082178],[139.886467,38.086783],[139.888982,38.088946],[139.88898,38.093128],[139.888304,38.094851],[139.889296,38.095549],[139.888876,38.099383],[139.893481,38.101317],[139.895158,38.10315],[139.895,38.105416],[139.898481,38.107239],[139.900923,38.107239],[139.903903,38.106147]]]}}]}