{"type":"FeatureCollection","features":[{"type":"Feature","properties":{},"geometry":{"type":"Polygon","coordinates":[[[140.122809,37.259771],[140.125091,37.260057],[140.128426,37.257115],[140.131126,37.256323],[140.132005,37.255398],[140.140251,37.253931],[140.141813,37.252191],[140.141464,37.250374],[140.142705,37.24801],[140.147041,37.245632],[140.147726,37.244596],[140.154214,37.243558],[140.15568,37.243943],[140.15686,37.242461],[140.158247,37.242153],[140.165163,37.243572],[140.166099,37.242356],[140.167489,37.242632],[140.170158,37.241546],[140.174543,37.242904],[140.178848,37.245431],[140.183918,37.244944],[140.184901,37.242321],[140.189544,37.240951],[140.192312,37.238929],[140.194958,37.238591],[140.199553,37.236402],[140.201145,37.237838],[140.2037,37.237246],[140.20528,37.235602],[140.205681,37.233843],[140.2074,37.233609],[140.208208,37.231903],[140.207798,37.230623],[140.210608,37.229442],[140.210827,37.228397],[140.214234,37.228328],[140.217364,37.227095],[140.219337,37.227333],[140.22279,37.225731],[140.224061,37.22426],[140.2252,37.223986],[140.22965,37.225662],[140.231757,37.224792],[140.233497,37.225319],[140.23543,37.222077],[140.236867,37.221571],[140.239063,37.221953],[140.241902,37.220485],[140.244897,37.221137],[140.246756,37.222736],[140.254067,37.219949],[140.258619,37.219607],[140.269223,37.219912],[140.269754,37.219213],[140.272836,37.220087],[140.272902,37.221409],[140.27942,37.220936],[140.280539,37.219998],[140.28405,37.220076],[140.28672,37.218657],[140.287193,37.219116],[140.289938,37.218145],[140.289889,37.214193],[140.292209,37.213224],[140.292849,37.212216],[140.293263,37.213198],[140.294156,37.213189],[140.29404,37.210777],[140.295636,37.211988],[140.296594,37.211458],[140.295997,37.209882],[140.293514,37.20939],[140.295361,37.20839],[140.295102,37.201644],[140.296479,37.202112],[140.3017,37.198907],[140.296098,37.193442],[140.293278,37.18879],[140.288612,37.191604],[140.28282,37.191147],[140.279163,37.192401],[140.275771,37.192365],[140.27497,37.191268],[140.269067,37.190981],[140.267032,37.19003],[140.262681,37.190296],[140.259885,37.189018],[140.258748,37.189347],[140.258695,37.190238],[140.257903,37.190614],[140.254902,37.189072],[140.253864,37.19017],[140.252415,37.189121],[140.252514,37.186717],[140.250464,37.185488],[140.249545,37.185682],[140.249133,37.187269],[140.245848,37.187317],[140.245304,37.185933],[140.243843,37.186934],[140.240178,37.186354],[140.239417,37.185471],[140.239898,37.182929],[140.235996,37.182046],[140.234903,37.180776],[140.237629,37.179985],[140.23848,37.178917],[140.247517,37.176003],[140.252336,37.17284],[140.255923,37.171831],[140.257867,37.172183],[140.261178,37.168137],[140.26812,37.166839],[140.272501,37.166984],[140.274301,37.16789],[140.27667,37.167626],[140.277377,37.166196],[140.273581,37.165011],[140.273936,37.164144],[140.273087,37.163871],[140.27504,37.161963],[140.278077,37.160432],[140.279433,37.161082],[140.279992,37.159992],[140.278303,37.156859],[140.273504,37.158737],[140.272359,37.157247],[140.272741,37.155217],[140.271006,37.154284],[140.270791,37.151188],[140.269208,37.14974],[140.266475,37.14891],[140.266388,37.147396],[140.273274,37.144831],[140.276829,37.142692],[140.278822,37.139653],[140.27867,37.138916],[140.280253,37.138437],[140.284427,37.140775],[140.292864,37.139769],[140.293807,37.138303],[140.292398,37.133654],[140.292934,37.131368],[140.295386,37.128519],[140.293471,37.126135],[140.297264,37.127781],[140.305556,37.123674],[140.309218,37.123352],[140.314919,37.120592],[140.31494,37.122712],[140.316253,37.122771],[140.316327,37.123612],[140.320225,37.123451],[140.320544,37.124654],[140.324209,37.123387],[140.32474,37.121337],[140.325386,37.121094],[140.326515,37.122486],[140.327483,37.12195],[140.328711,37.122562],[140.330033,37.121184],[140.339889,37.123145],[140.342072,37.121349],[140.346464,37.120233],[140.346213,37.119646],[140.351573,37.120825],[140.353752,37.117689],[140.35931,37.117293],[140.363003,37.119556],[140.362189,37.120906],[140.363822,37.121451],[140.367114,37.12105],[140.370248,37.122239],[140.380737,37.124167],[140.387079,37.126481],[140.387489,37.124948],[140.390725,37.122125],[140.396122,37.121337],[140.403942,37.121461],[140.404719,37.119705],[140.40595,37.12047],[140.407875,37.1172],[140.408974,37.11677],[140.411302,37.117005],[140.412661,37.116244],[140.412907,37.11077],[140.412003,37.109887],[140.412023,37.107832],[140.406731,37.106185],[140.401448,37.102071],[140.400713,37.100223],[140.39778,37.099022],[140.397661,37.097571],[140.393284,37.094582],[140.393772,37.09205],[140.391955,37.091761],[140.389559,37.089727],[140.383228,37.090137],[140.379547,37.086224],[140.379027,37.084579],[140.376008,37.084402],[140.375158,37.083086],[140.373456,37.083036],[140.372674,37.081444],[140.37298,37.080484],[140.370549,37.076258],[140.36726,37.076669],[140.364697,37.076036],[140.363389,37.077452],[140.362045,37.07687],[140.360468,37.074703],[140.356655,37.075869],[140.354619,37.074361],[140.354281,37.07329],[140.355844,37.070563],[140.354432,37.06879],[140.35437,37.067291],[140.355537,37.066841],[140.355642,37.0653],[140.359957,37.064606],[140.362709,37.062667],[140.361005,37.062965],[140.360758,37.062203],[140.357306,37.063474],[140.357104,37.062539],[140.355401,37.062589],[140.355458,37.063424],[140.354631,37.063517],[140.353853,37.063428],[140.353684,37.062634],[140.35221,37.062638],[140.352176,37.063556],[140.350866,37.063561],[140.350448,37.058975],[140.351608,37.058766],[140.351288,37.057508],[140.352159,37.057303],[140.351871,37.056182],[140.352696,37.055979],[140.353383,37.054611],[140.352629,37.051363],[140.354451,37.049421],[140.351274,37.046221],[140.349311,37.046114],[140.348264,37.046785],[140.348218,37.047866],[140.346479,37.047729],[140.346488,37.050268],[140.343398,37.050302],[140.342009,37.051772],[140.33189,37.050348],[140.330469,37.051111],[140.329224,37.049879],[140.324996,37.04836],[140.323917,37.046812],[140.321579,37.047351],[140.319328,37.043868],[140.315621,37.042498],[140.316462,37.040522],[140.319208,37.039545],[140.32012,37.037384],[140.318131,37.033382],[140.313529,37.031473],[140.312926,37.030038],[140.313659,37.028754],[140.313132,37.027683],[140.313782,37.026816],[140.313548,37.024804],[140.315049,37.022508],[140.314722,37.02138],[140.315514,37.020192],[140.314945,37.019656],[140.313252,37.019566],[140.309713,37.016754],[140.306235,37.016451],[140.303585,37.017453],[140.29973,37.017404],[140.295481,37.020158],[140.283659,37.015322],[140.275122,37.014027],[140.270623,37.011084],[140.270651,37.010151],[140.268928,37.008642],[140.266967,37.003098],[140.267539,37.000071],[140.263411,37.000658],[140.26232,37.002206],[140.263002,37.004045],[140.260064,37.00522],[140.257582,37.005276],[140.252431,37.007892],[140.251375,37.009187],[140.252031,37.010275],[140.251092,37.010786],[140.251136,37.013615],[140.248929,37.018499],[140.250264,37.022062],[140.249209,37.023687],[140.249794,37.024928],[140.248917,37.025876],[140.244017,37.025324],[140.242681,37.023988],[140.240456,37.023648],[140.237477,37.024057],[140.232514,37.023071],[140.230399,37.024149],[140.22464,37.023806],[140.221737,37.019785],[140.220222,37.019614],[140.219969,37.018489],[140.21812,37.019043],[140.217649,37.020788],[140.214533,37.01964],[140.211939,37.019856],[140.208973,37.022949],[140.203066,37.023964],[140.201604,37.025541],[140.201469,37.026878],[140.199272,37.028353],[140.198809,37.031305],[140.199492,37.032542],[140.195579,37.036528],[140.198471,37.038198],[140.199824,37.042795],[140.19915,37.043744],[140.199768,37.047694],[140.197933,37.050572],[140.194806,37.051731],[140.193053,37.055627],[140.190636,37.056668],[140.191569,37.057931],[140.19338,37.058281],[140.194571,37.060238],[140.19411,37.062204],[140.194599,37.063432],[140.193376,37.065109],[140.18587,37.067656],[140.185789,37.06858],[140.184518,37.069304],[140.177748,37.069045],[140.174472,37.071711],[140.172705,37.07032],[140.16937,37.073408],[140.168947,37.075532],[140.166019,37.078377],[140.164184,37.079475],[140.15834,37.080579],[140.155958,37.082814],[140.154721,37.08526],[140.152946,37.086002],[140.15352,37.087127],[140.157419,37.089416],[140.156175,37.091413],[140.149363,37.092556],[140.149298,37.093517],[140.156578,37.09766],[140.156474,37.096477],[140.158489,37.094798],[140.164194,37.093662],[140.166152,37.092357],[140.164988,37.094918],[140.166767,37.096877],[140.168443,37.097166],[140.167757,37.098728],[140.165158,37.100314],[140.164082,37.100219],[140.163426,37.102011],[140.167499,37.105933],[140.169293,37.104382],[140.170517,37.105049],[140.172404,37.104465],[140.172885,37.105217],[140.174233,37.105121],[140.178471,37.107186],[140.180498,37.106445],[140.182568,37.108639],[140.18137,37.109717],[140.179611,37.108729],[140.178239,37.109536],[140.178508,37.110399],[140.180008,37.110845],[140.176752,37.115098],[140.184671,37.116343],[140.183882,37.115818],[140.184384,37.115341],[140.185275,37.115988],[140.185648,37.119608],[140.18812,37.120111],[140.189659,37.122261],[140.19052,37.122073],[140.190853,37.123229],[140.188819,37.124489],[140.188669,37.126444],[140.187744,37.126356],[140.187704,37.127129],[140.187174,37.126296],[140.184925,37.126985],[140.183743,37.128727],[140.183414,37.127875],[140.179059,37.127493],[140.179643,37.12837],[140.178155,37.128824],[140.178065,37.129697],[140.186882,37.132462],[140.18936,37.130478],[140.192816,37.134332],[140.194624,37.134827],[140.195548,37.136386],[140.198719,37.135269],[140.201032,37.136973],[140.199591,37.138139],[140.200942,37.138742],[140.200696,37.141238],[140.204408,37.14201],[140.204139,37.14316],[140.204911,37.143712],[140.203768,37.145879],[140.204374,37.147765],[140.206116,37.148321],[140.207254,37.150661],[140.206295,37.152074],[140.208401,37.153956],[140.207668,37.155737],[140.207878,37.157327],[140.21073,37.159845],[140.209636,37.160621],[140.210471,37.162806],[140.209142,37.166304],[140.209561,37.167499],[140.2021,37.168164],[140.197673,37.170746],[140.194451,37.171216],[140.189524,37.174875],[140.184885,37.175437],[140.184644,37.176256],[140.185769,37.177682],[140.187218,37.182243],[140.187309,37.184543],[140.180396,37.187187],[140.177932,37.188931],[140.174724,37.189463],[140.172581,37.190629],[140.170688,37.192252],[140.170576,37.195403],[140.168752,37.197277],[140.166097,37.198796],[140.164637,37.198764],[140.158209,37.201379],[140.155877,37.204196],[140.151652,37.206789],[140.151543,37.209562],[140.148449,37.211493],[140.146214,37.212014],[140.143319,37.208751],[140.14308,37.20492],[140.143861,37.202923],[140.14293,37.200658],[140.141263,37.199268],[140.140051,37.199416],[140.137502,37.202431],[140.137385,37.203942],[140.138276,37.204824],[140.136773,37.207495],[140.134109,37.209524],[140.134442,37.212101],[140.131867,37.215292],[140.131878,37.216331],[140.121506,37.223438],[140.119571,37.22535],[140.11873,37.227699],[140.116151,37.229493],[140.11515,37.231139],[140.112096,37.232057],[140.107121,37.235784],[140.100839,37.238114],[140.099588,37.240115],[140.100058,37.241074],[140.099468,37.242837],[140.101463,37.242386],[140.102203,37.243322],[140.101583,37.246004],[140.09997,37.247598],[140.099275,37.251705],[140.102174,37.253059],[140.103875,37.2552],[140.108577,37.255861],[140.112155,37.257512],[140.113035,37.258737],[140.112669,37.259678],[140.114611,37.261704],[140.122809,37.259771]]]}}]}