{"type":"FeatureCollection","features":[{"type":"Feature","properties":{"municipality_code":"07344"},"geometry":{"type":"MultiPolygon","coordinates":[[[[140.302377,37.22581],[140.302299,37.222157],[140.300081,37.222823],[140.302377,37.22581]]],[[[140.293969,37.252452],[140.292922,37.252059],[140.292342,37.252134],[140.292697,37.252785],[140.293969,37.252452]]],[[[140.041802,37.332226],[140.050657,37.330162],[140.052027,37.330595],[140.05685,37.327948],[140.061816,37.327928],[140.063685,37.327042],[140.06792,37.324333],[140.069619,37.31939],[140.075647,37.317218],[140.079257,37.317661],[140.080009,37.319393],[140.081709,37.320878],[140.087748,37.32284],[140.089134,37.321579],[140.092029,37.320981],[140.093488,37.318442],[140.095769,37.318209],[140.098296,37.3199],[140.102699,37.320886],[140.106254,37.319162],[140.105936,37.318073],[140.107172,37.317002],[140.107267,37.314558],[140.108616,37.314136],[140.109095,37.312754],[140.111484,37.310907],[140.116025,37.311532],[140.117389,37.308554],[140.116379,37.306676],[140.117972,37.3043],[140.124085,37.299746],[140.129201,37.29985],[140.131952,37.300946],[140.138504,37.299994],[140.144987,37.292729],[140.147806,37.291463],[140.14812,37.289796],[140.151042,37.288888],[140.155265,37.285163],[140.160918,37.283494],[140.163172,37.282014],[140.164967,37.282254],[140.168558,37.280903],[140.17304,37.281501],[140.17457,37.278829],[140.17869,37.27637],[140.1814,37.275929],[140.182974,37.276492],[140.185762,37.275372],[140.187818,37.275863],[140.189369,37.274932],[140.190018,37.272921],[140.192942,37.271054],[140.195866,37.270508],[140.197032,37.269349],[140.19881,37.269959],[140.199718,37.272723],[140.202338,37.272929],[140.202541,37.274688],[140.203916,37.273282],[140.20751,37.273604],[140.207051,37.269691],[140.209941,37.26742],[140.215353,37.268804],[140.217941,37.267876],[140.219879,37.26829],[140.22041,37.267042],[140.223714,37.266719],[140.225563,37.264758],[140.228031,37.265318],[140.237625,37.261661],[140.240325,37.262294],[140.245263,37.261087],[140.245904,37.259343],[140.248448,37.25724],[140.248933,37.25743],[140.248687,37.259001],[140.250161,37.259252],[140.250906,37.257762],[140.253407,37.257988],[140.25693,37.255861],[140.260711,37.255949],[140.261795,37.256917],[140.266768,37.256221],[140.267296,37.254986],[140.265265,37.254951],[140.265768,37.254374],[140.269381,37.254436],[140.269497,37.253849],[140.270907,37.254035],[140.274258,37.252117],[140.276952,37.252215],[140.276632,37.250658],[140.277446,37.251125],[140.277446,37.252054],[140.279571,37.252768],[140.280673,37.251332],[140.28061,37.25346],[140.284039,37.254678],[140.29447,37.249098],[140.297458,37.246411],[140.305187,37.247227],[140.3057,37.246113],[140.307937,37.246727],[140.309366,37.245123],[140.313414,37.245129],[140.313468,37.246038],[140.317286,37.246038],[140.314504,37.243815],[140.314115,37.235732],[140.31299,37.232932],[140.30989,37.234579],[140.309696,37.237581],[140.306101,37.236696],[140.302513,37.234381],[140.301801,37.233582],[140.302013,37.232705],[140.303208,37.232671],[140.302852,37.229925],[140.301732,37.227835],[140.301882,37.226487],[140.300135,37.223993],[140.298144,37.223524],[140.297764,37.225125],[140.29657,37.224848],[140.295985,37.225809],[140.294389,37.226367],[140.294631,37.225386],[140.293274,37.226369],[140.292033,37.225038],[140.287315,37.223796],[140.28312,37.225452],[140.281012,37.223523],[140.280925,37.220715],[140.27942,37.220936],[140.272902,37.221409],[140.272836,37.220087],[140.269754,37.219213],[140.269223,37.219912],[140.258619,37.219607],[140.254067,37.219949],[140.246756,37.222736],[140.244897,37.221137],[140.241902,37.220485],[140.239063,37.221953],[140.236867,37.221571],[140.23543,37.222077],[140.233497,37.225319],[140.231757,37.224792],[140.22965,37.225662],[140.2252,37.223986],[140.224061,37.22426],[140.22279,37.225731],[140.219337,37.227333],[140.217364,37.227095],[140.214234,37.228328],[140.210827,37.228397],[140.210608,37.229442],[140.207798,37.230623],[140.208208,37.231903],[140.2074,37.233609],[140.205681,37.233843],[140.20528,37.235602],[140.2037,37.237246],[140.201145,37.237838],[140.199553,37.236402],[140.194958,37.238591],[140.192312,37.238929],[140.189544,37.240951],[140.184901,37.242321],[140.183918,37.244944],[140.178848,37.245431],[140.174543,37.242904],[140.170158,37.241546],[140.167489,37.242632],[140.166099,37.242356],[140.165163,37.243572],[140.158247,37.242153],[140.15686,37.242461],[140.15568,37.243943],[140.154214,37.243558],[140.147726,37.244596],[140.147041,37.245632],[140.142705,37.24801],[140.141464,37.250374],[140.141813,37.252191],[140.140251,37.253931],[140.132005,37.255398],[140.131126,37.256323],[140.128426,37.257115],[140.125091,37.260057],[140.122809,37.259771],[140.114611,37.261704],[140.112669,37.259678],[140.113035,37.258737],[140.112155,37.257512],[140.108577,37.255861],[140.103875,37.2552],[140.102174,37.253059],[140.099275,37.251705],[140.09997,37.247598],[140.101583,37.246004],[140.102203,37.243322],[140.101463,37.242386],[140.099468,37.242837],[140.096586,37.241312],[140.092773,37.242094],[140.086236,37.246548],[140.086059,37.244166],[140.089711,37.239914],[140.088499,37.238044],[140.086144,37.236603],[140.088228,37.23496],[140.089205,37.233],[140.086484,37.231067],[140.085469,37.228699],[140.083081,37.226428],[140.077137,37.227452],[140.074508,37.225105],[140.071874,37.223976],[140.071621,37.222928],[140.072691,37.221827],[140.071607,37.219471],[140.073514,37.216836],[140.073307,37.213962],[140.071342,37.209958],[140.068824,37.210399],[140.06728,37.211871],[140.063599,37.213184],[140.062262,37.212519],[140.061263,37.208954],[140.059459,37.208833],[140.056748,37.207102],[140.052042,37.208183],[140.048637,37.203172],[140.043446,37.205536],[140.039206,37.206101],[140.035455,37.204433],[140.031461,37.200624],[140.026537,37.200563],[140.017609,37.196946],[140.014612,37.19693],[140.011664,37.198442],[140.005451,37.197547],[139.999515,37.199681],[139.996985,37.19836],[139.996358,37.196506],[139.993661,37.196349],[139.990552,37.198222],[139.988163,37.19816],[139.98602,37.200947],[139.982127,37.201938],[139.978951,37.202969],[139.977215,37.204977],[139.973042,37.203913],[139.967918,37.206907],[139.965761,37.207056],[139.961881,37.210449],[139.961276,37.212491],[139.95935,37.213781],[139.957694,37.216871],[139.95381,37.218042],[139.951042,37.217869],[139.947887,37.221347],[139.948426,37.222928],[139.948005,37.227945],[139.950678,37.23067],[139.950673,37.233046],[139.951969,37.234781],[139.95204,37.236037],[139.953828,37.237061],[139.954826,37.236566],[139.957778,37.237491],[139.958634,37.23867],[139.957986,37.239986],[139.959481,37.241882],[139.96373,37.242604],[139.964922,37.245521],[139.966398,37.246754],[139.964472,37.249838],[139.968189,37.255689],[139.969197,37.259757],[139.964524,37.26562],[139.962408,37.272625],[139.964942,37.273547],[139.970307,37.2729],[139.978589,37.273585],[139.975738,37.28281],[139.976127,37.283746],[139.982548,37.290095],[139.986976,37.291833],[139.987069,37.294124],[139.989491,37.294893],[139.991901,37.297196],[139.99116,37.298739],[139.992998,37.303356],[139.992842,37.306797],[139.993795,37.307979],[139.995377,37.308061],[139.999086,37.309994],[139.999272,37.311147],[140.000166,37.311608],[139.99924,37.312612],[140.000468,37.313664],[140.000356,37.315625],[140.001387,37.318541],[140.005688,37.319269],[140.007337,37.321025],[140.01246,37.322999],[140.014312,37.323809],[140.01377,37.326194],[140.01444,37.330112],[140.019197,37.331146],[140.019511,37.336885],[140.021304,37.339198],[140.024872,37.341874],[140.028781,37.341125],[140.031602,37.338611],[140.035984,37.336766],[140.041802,37.332226]]],[[[140.306231,37.238938],[140.305952,37.238315],[140.306684,37.238009],[140.306099,37.237689],[140.307389,37.237721],[140.306231,37.238938]]],[[[140.303655,37.23799],[140.303505,37.238839],[140.302459,37.238245],[140.303655,37.23799]]]]}}]}