{"type":"FeatureCollection","features":[{"type":"Feature","properties":{},"geometry":{"type":"Polygon","coordinates":[[[139.816479,36.225063],[139.815689,36.219537],[139.815936,36.216472],[139.820314,36.210644],[139.820809,36.207066],[139.822283,36.20525],[139.830953,36.200882],[139.831255,36.204526],[139.830627,36.208327],[139.829347,36.210499],[139.828429,36.21748],[139.835231,36.218252],[139.840412,36.219879],[139.842798,36.222937],[139.844627,36.222702],[139.844624,36.218703],[139.846099,36.216055],[139.847693,36.216242],[139.849259,36.213631],[139.853948,36.21338],[139.854369,36.21141],[139.853687,36.206207],[139.85626,36.20516],[139.857971,36.201772],[139.863215,36.198354],[139.864499,36.196593],[139.864384,36.193441],[139.865955,36.1919],[139.863309,36.187387],[139.860524,36.187289],[139.860785,36.183837],[139.861639,36.183181],[139.861689,36.181254],[139.86293,36.178951],[139.862043,36.177646],[139.856362,36.179443],[139.854117,36.186035],[139.851398,36.185214],[139.852573,36.183244],[139.850606,36.182534],[139.851182,36.179147],[139.852192,36.177891],[139.851897,36.175784],[139.853147,36.172979],[139.853205,36.17055],[139.854269,36.168701],[139.850631,36.160614],[139.854565,36.155203],[139.853077,36.154281],[139.853686,36.152396],[139.855119,36.151126],[139.856683,36.151647],[139.856292,36.147181],[139.852771,36.148053],[139.849017,36.14554],[139.847856,36.147993],[139.847237,36.14786],[139.845305,36.14968],[139.835548,36.150231],[139.830551,36.154973],[139.827016,36.155082],[139.826967,36.153917],[139.826251,36.154439],[139.82636,36.153747],[139.825558,36.15365],[139.826299,36.1528],[139.826967,36.153917],[139.828851,36.149966],[139.829568,36.14999],[139.829725,36.151896],[139.828243,36.152393],[139.828972,36.153376],[139.830502,36.152758],[139.830612,36.150646],[139.83128,36.150682],[139.831268,36.149772],[139.830102,36.149614],[139.82913,36.147483],[139.828098,36.147155],[139.828073,36.145881],[139.829313,36.144598],[139.829349,36.141273],[139.823916,36.140803],[139.818618,36.137605],[139.813893,36.136786],[139.809773,36.138981],[139.806276,36.13872],[139.806205,36.141455],[139.807319,36.141999],[139.806433,36.14324],[139.806961,36.149618],[139.806474,36.151212],[139.803239,36.151448],[139.803144,36.154326],[139.802286,36.155827],[139.80111,36.155291],[139.801691,36.154735],[139.787519,36.154685],[139.787744,36.153737],[139.784771,36.153286],[139.785056,36.15222],[139.78214,36.154209],[139.780896,36.153357],[139.776362,36.15357],[139.77584,36.152468],[139.77469,36.152102],[139.774679,36.149489],[139.776884,36.149062],[139.780337,36.145681],[139.781773,36.142748],[139.782057,36.138183],[139.780741,36.134705],[139.780231,36.1339],[139.776296,36.134836],[139.767951,36.134883],[139.766351,36.135439],[139.763668,36.138111],[139.762163,36.138466],[139.760574,36.129925],[139.761332,36.130375],[139.761451,36.128563],[139.759055,36.126104],[139.752749,36.129973],[139.746421,36.131966],[139.730558,36.132741],[139.721172,36.13221],[139.710128,36.135945],[139.703025,36.145102],[139.69574,36.157109],[139.694169,36.165931],[139.691196,36.172482],[139.691629,36.181592],[139.694287,36.190514],[139.693641,36.191676],[139.688366,36.195388],[139.68771,36.197094],[139.687938,36.199682],[139.688841,36.202074],[139.690553,36.205365],[139.693077,36.206564],[139.696245,36.205852],[139.698617,36.206473],[139.69875,36.203882],[139.70122,36.203312],[139.702464,36.204016],[139.706467,36.201857],[139.708419,36.207128],[139.708135,36.208674],[139.706526,36.209038],[139.706924,36.210563],[139.715857,36.209671],[139.716521,36.211014],[139.718962,36.211522],[139.720181,36.211323],[139.720124,36.207663],[139.727536,36.205843],[139.726825,36.204056],[139.72748,36.201581],[139.748271,36.211088],[139.760034,36.219236],[139.77475,36.223697],[139.780863,36.226487],[139.785003,36.226686],[139.785693,36.227798],[139.821602,36.239704],[139.822274,36.234774],[139.81935,36.227518],[139.816479,36.225063]]]}}]}