{"type":"FeatureCollection","features":[{"type":"Feature","properties":{"municipality_code":"08341"},"geometry":{"type":"MultiPolygon","coordinates":[[[[140.610593,36.465042],[140.614795,36.465509],[140.61337,36.464717],[140.610593,36.465042]]],[[[140.610593,36.465042],[140.609558,36.462741],[140.608353,36.452017],[140.610228,36.443642],[140.611729,36.442851],[140.609135,36.442151],[140.608877,36.441059],[140.609399,36.440432],[140.615171,36.441768],[140.627294,36.441521],[140.627571,36.437593],[140.627189,36.4312],[140.619384,36.431254],[140.619391,36.431969],[140.616731,36.431994],[140.61659,36.431262],[140.610015,36.431303],[140.60998,36.427975],[140.608258,36.428351],[140.608093,36.424461],[140.595667,36.429334],[140.591591,36.426723],[140.590738,36.429721],[140.58905,36.42996],[140.587221,36.431376],[140.58669,36.432665],[140.587837,36.433652],[140.587075,36.434057],[140.584801,36.433192],[140.583635,36.433784],[140.58445,36.435608],[140.583017,36.436961],[140.58116,36.435286],[140.572301,36.43439],[140.569372,36.436052],[140.563586,36.435929],[140.554368,36.438841],[140.554709,36.439517],[140.552552,36.441065],[140.553006,36.443547],[140.552353,36.443669],[140.552097,36.447488],[140.547601,36.448461],[140.544169,36.447634],[140.544415,36.448651],[140.542698,36.453534],[140.54266,36.456706],[140.542788,36.458686],[140.542456,36.45918],[140.541944,36.462317],[140.540407,36.463428],[140.540811,36.464006],[140.539384,36.465995],[140.541317,36.468915],[140.544148,36.470555],[140.541667,36.475183],[140.544085,36.476541],[140.547882,36.476857],[140.550253,36.481832],[140.549906,36.485302],[140.556069,36.487153],[140.560875,36.491591],[140.564752,36.4917],[140.566277,36.49428],[140.571387,36.493899],[140.577083,36.495845],[140.582075,36.493648],[140.584278,36.494651],[140.590588,36.494049],[140.591766,36.491964],[140.591166,36.489394],[140.596418,36.487565],[140.602332,36.482543],[140.605952,36.481858],[140.609688,36.482459],[140.613895,36.481649],[140.613651,36.480775],[140.61418,36.480665],[140.611544,36.476419],[140.610385,36.469339],[140.60972,36.468948],[140.610745,36.468279],[140.612862,36.468008],[140.612622,36.467062],[140.610456,36.467678],[140.610593,36.465042]]]]}}]}