{"type":"FeatureCollection","features":[{"type":"Feature","properties":{},"geometry":{"type":"Polygon","coordinates":[[[139.803519,36.386971],[139.804234,36.384646],[139.804037,36.380531],[139.811562,36.377741],[139.811912,36.375762],[139.811198,36.376038],[139.810498,36.375327],[139.811947,36.374003],[139.809588,36.370317],[139.810149,36.370113],[139.814668,36.374731],[139.815731,36.374192],[139.816314,36.374796],[139.818387,36.373588],[139.819275,36.374694],[139.821081,36.374163],[139.820448,36.373239],[139.821526,36.372577],[139.824698,36.373032],[139.83101,36.370885],[139.835181,36.370505],[139.840768,36.368122],[139.84225,36.365547],[139.843189,36.365205],[139.841681,36.358925],[139.842955,36.358409],[139.841822,36.354985],[139.842477,36.354731],[139.8433,36.356179],[139.844218,36.355866],[139.842717,36.351783],[139.845142,36.350764],[139.84881,36.35208],[139.856574,36.359567],[139.856749,36.359036],[139.858432,36.359269],[139.859187,36.356327],[139.861429,36.354521],[139.862554,36.356634],[139.869398,36.360089],[139.869877,36.35507],[139.870583,36.355243],[139.870909,36.358218],[139.872051,36.352265],[139.872406,36.351724],[139.873835,36.352295],[139.872642,36.351212],[139.872692,36.350404],[139.874683,36.350218],[139.875389,36.350986],[139.875319,36.350169],[139.878033,36.350397],[139.877974,36.351007],[139.882445,36.351539],[139.881853,36.350683],[139.883569,36.351362],[139.886284,36.350313],[139.88635,36.353482],[139.888864,36.353512],[139.888861,36.356006],[139.893738,36.356142],[139.894724,36.357531],[139.894409,36.359805],[139.891806,36.360041],[139.888888,36.358958],[139.88886,36.362521],[139.890141,36.362472],[139.890211,36.364696],[139.892705,36.364893],[139.89911,36.364506],[139.898587,36.363413],[139.903423,36.362343],[139.902852,36.360201],[139.904806,36.355633],[139.905536,36.355712],[139.906888,36.358664],[139.912304,36.362283],[139.907234,36.355899],[139.909237,36.35222],[139.9145,36.347822],[139.910082,36.337347],[139.913019,36.334985],[139.911665,36.332646],[139.912696,36.326192],[139.910274,36.310086],[139.914676,36.309912],[139.914769,36.307858],[139.910747,36.301202],[139.904258,36.297927],[139.903001,36.298643],[139.900549,36.299055],[139.899891,36.301473],[139.897446,36.300139],[139.89528,36.300738],[139.895255,36.30191],[139.894281,36.301935],[139.894281,36.304253],[139.896159,36.304391],[139.899046,36.306309],[139.896635,36.309755],[139.895068,36.308988],[139.894457,36.309711],[139.891668,36.309087],[139.890027,36.310509],[139.885061,36.311904],[139.881225,36.309555],[139.878717,36.310797],[139.878513,36.314009],[139.882556,36.320643],[139.88067,36.322964],[139.874663,36.323165],[139.8752,36.320622],[139.874457,36.320896],[139.87212,36.318247],[139.872682,36.317873],[139.87247,36.31508],[139.870891,36.315069],[139.870118,36.313843],[139.868293,36.314427],[139.867435,36.313851],[139.864671,36.315587],[139.86259,36.313079],[139.857969,36.310747],[139.848971,36.311485],[139.845613,36.308069],[139.845298,36.306438],[139.842859,36.304391],[139.841642,36.301332],[139.839529,36.300232],[139.835349,36.293497],[139.835276,36.291387],[139.836554,36.287338],[139.841386,36.278324],[139.841685,36.275902],[139.834953,36.270385],[139.833741,36.26736],[139.831555,36.264616],[139.827361,36.248858],[139.822295,36.241756],[139.821602,36.239704],[139.785693,36.227798],[139.785681,36.230486],[139.788125,36.235037],[139.787321,36.23646],[139.787298,36.239009],[139.784858,36.239599],[139.783935,36.242033],[139.785329,36.245794],[139.784996,36.249061],[139.785842,36.250786],[139.786904,36.250796],[139.786991,36.254385],[139.785039,36.255149],[139.779109,36.253829],[139.777811,36.25615],[139.775694,36.24964],[139.774257,36.247559],[139.774108,36.24096],[139.770334,36.240729],[139.766469,36.241831],[139.765789,36.240907],[139.765025,36.241179],[139.765681,36.24453],[139.764803,36.244471],[139.764526,36.245403],[139.762279,36.24583],[139.759859,36.247636],[139.758483,36.247479],[139.757147,36.244949],[139.745724,36.245067],[139.745437,36.245878],[139.742421,36.246807],[139.740691,36.247194],[139.740153,36.246714],[139.737693,36.248352],[139.73877,36.251385],[139.73786,36.252398],[139.740616,36.254915],[139.742379,36.254656],[139.74331,36.255917],[139.745749,36.255673],[139.744754,36.257714],[139.745319,36.258266],[139.744412,36.258895],[139.743074,36.258157],[139.744574,36.260817],[139.740214,36.260805],[139.738849,36.25676],[139.736563,36.258965],[139.733079,36.257785],[139.732221,36.258181],[139.7324,36.258776],[139.736014,36.261074],[139.732247,36.263086],[139.730546,36.260608],[139.72854,36.260147],[139.725563,36.257561],[139.729378,36.253598],[139.72812,36.252782],[139.729141,36.251746],[139.726208,36.249994],[139.727778,36.247904],[139.720644,36.244826],[139.721034,36.243087],[139.716778,36.24183],[139.726601,36.24382],[139.717109,36.239942],[139.715009,36.240568],[139.71308,36.239954],[139.707479,36.235903],[139.710006,36.233177],[139.707571,36.231762],[139.70611,36.229865],[139.706811,36.22622],[139.706375,36.225487],[139.702845,36.226229],[139.701599,36.231531],[139.698,36.231039],[139.696963,36.229885],[139.695416,36.223315],[139.691654,36.22644],[139.691577,36.229508],[139.689245,36.229324],[139.687462,36.231705],[139.687717,36.232531],[139.689679,36.232968],[139.690193,36.237588],[139.692314,36.24038],[139.692178,36.241289],[139.694022,36.241986],[139.694452,36.240712],[139.695642,36.240505],[139.699687,36.244204],[139.699706,36.250592],[139.697128,36.251468],[139.699045,36.254938],[139.700027,36.259222],[139.702845,36.257548],[139.705829,36.258253],[139.708424,36.257848],[139.708629,36.2588],[139.707745,36.259996],[139.708692,36.261756],[139.707596,36.262796],[139.709632,36.263784],[139.712582,36.262118],[139.713263,36.262581],[139.714116,36.261763],[139.715051,36.262415],[139.716461,36.260579],[139.715547,36.259962],[139.717076,36.258579],[139.720987,36.260519],[139.723294,36.262818],[139.725304,36.266334],[139.726169,36.266636],[139.725114,36.267482],[139.726343,36.268363],[139.725136,36.269357],[139.725745,36.270003],[139.721556,36.274101],[139.721697,36.276369],[139.725282,36.279702],[139.727331,36.285746],[139.729593,36.288579],[139.73043,36.288381],[139.731132,36.289241],[139.73272,36.292884],[139.732072,36.294076],[139.731575,36.293454],[139.728628,36.293869],[139.72839,36.295473],[139.725381,36.296613],[139.724364,36.301234],[139.72571,36.303309],[139.724332,36.305764],[139.724418,36.30921],[139.733294,36.311827],[139.732981,36.317336],[139.730411,36.323769],[139.733641,36.330198],[139.734928,36.330091],[139.735148,36.32858],[139.737559,36.328611],[139.737801,36.326677],[139.746615,36.326438],[139.746585,36.329483],[139.745664,36.329477],[139.746124,36.330344],[139.744807,36.331761],[139.744937,36.333769],[139.742836,36.335961],[139.743117,36.337347],[139.744123,36.337361],[139.744372,36.338597],[139.745247,36.338489],[139.746032,36.34189],[139.745396,36.341993],[139.745924,36.344127],[139.744039,36.344422],[139.7444,36.348141],[139.74983,36.345608],[139.749874,36.346467],[139.75348,36.346652],[139.753531,36.349157],[139.754733,36.349164],[139.754909,36.353916],[139.756424,36.354381],[139.75661,36.355652],[139.757857,36.355882],[139.758654,36.354902],[139.75988,36.354772],[139.761569,36.355341],[139.762598,36.352253],[139.765384,36.352873],[139.767696,36.359907],[139.766475,36.360116],[139.767701,36.367096],[139.773784,36.367266],[139.773676,36.370347],[139.775071,36.370431],[139.775006,36.371689],[139.776557,36.371904],[139.776615,36.373384],[139.778596,36.373881],[139.779348,36.37602],[139.790541,36.375797],[139.796376,36.376877],[139.796744,36.381153],[139.795532,36.384658],[139.797181,36.388758],[139.803519,36.386971]]]}}]}