{"type":"FeatureCollection","features":[{"type":"Feature","properties":{"municipality_code":"10384"},"geometry":{"type":"Polygon","coordinates":[[[138.95129,36.256592],[138.95226,36.256622],[138.952295,36.258714],[138.954841,36.259821],[138.957048,36.258254],[138.957139,36.256852],[138.957989,36.256822],[138.957255,36.255234],[138.958349,36.25477],[138.957386,36.252712],[138.953537,36.251318],[138.953397,36.247197],[138.955521,36.244459],[138.956449,36.241292],[138.956119,36.238324],[138.960606,36.234061],[138.960531,36.232965],[138.958836,36.232884],[138.958346,36.228887],[138.95901,36.227667],[138.962,36.22659],[138.962212,36.224837],[138.963484,36.223241],[138.962812,36.221029],[138.953014,36.218286],[138.952631,36.215859],[138.950604,36.214894],[138.947965,36.210564],[138.946796,36.209987],[138.94651,36.207686],[138.945199,36.205707],[138.945607,36.203965],[138.942919,36.199261],[138.942803,36.198085],[138.940959,36.197907],[138.936803,36.199043],[138.929244,36.197446],[138.926886,36.194499],[138.924729,36.194369],[138.923187,36.195263],[138.917993,36.193098],[138.9133,36.193317],[138.911485,36.192727],[138.909729,36.190506],[138.904702,36.187284],[138.902125,36.180783],[138.896393,36.176701],[138.890653,36.174463],[138.887976,36.170471],[138.884452,36.16838],[138.881235,36.169063],[138.878144,36.168103],[138.875654,36.16954],[138.870289,36.170145],[138.865091,36.168506],[138.861591,36.168691],[138.857711,36.165676],[138.851567,36.164705],[138.848504,36.162832],[138.847291,36.162885],[138.844326,36.16013],[138.826683,36.157974],[138.825849,36.159856],[138.826207,36.162627],[138.828045,36.166569],[138.826661,36.170021],[138.830644,36.17287],[138.830211,36.177728],[138.831138,36.178441],[138.838472,36.179733],[138.841902,36.183754],[138.845217,36.184421],[138.845643,36.185921],[138.849236,36.188511],[138.850204,36.192209],[138.84963,36.193438],[138.850637,36.195377],[138.857968,36.198187],[138.857508,36.201099],[138.858545,36.20318],[138.861324,36.202804],[138.866433,36.204556],[138.875471,36.202618],[138.877151,36.203552],[138.878711,36.205177],[138.877677,36.206525],[138.877851,36.208253],[138.880397,36.213868],[138.877731,36.215848],[138.877005,36.217463],[138.878414,36.220687],[138.881336,36.223341],[138.881074,36.224908],[138.884519,36.224777],[138.887444,36.226226],[138.891761,36.225368],[138.892637,36.226251],[138.896093,36.225393],[138.900511,36.226198],[138.902511,36.230727],[138.903519,36.237611],[138.905093,36.238039],[138.90524,36.24012],[138.90376,36.240919],[138.905986,36.241917],[138.905073,36.242982],[138.906428,36.24322],[138.905766,36.244973],[138.907725,36.245589],[138.906161,36.246145],[138.906378,36.246751],[138.908346,36.24751],[138.909511,36.241513],[138.911991,36.2421],[138.913374,36.243297],[138.916305,36.243645],[138.917374,36.245425],[138.918528,36.245172],[138.919259,36.246814],[138.919396,36.247511],[138.918569,36.247954],[138.918795,36.249884],[138.920584,36.251997],[138.921104,36.254987],[138.920549,36.25643],[138.921963,36.260034],[138.930984,36.260851],[138.933977,36.265574],[138.941928,36.266776],[138.944132,36.267954],[138.946504,36.267867],[138.947175,36.266898],[138.94689,36.265096],[138.947997,36.263738],[138.952524,36.262979],[138.951228,36.261034],[138.95129,36.256592]]]}}]}