{"type":"FeatureCollection","features":[{"type":"Feature","properties":{},"geometry":{"type":"MultiPolygon","coordinates":[[[[139.636109,35.887006],[139.63362,35.886757],[139.632529,35.888223],[139.633316,35.888728],[139.633213,35.889635],[139.636109,35.887006]]],[[[139.642408,35.891189],[139.641949,35.892091],[139.643353,35.892489],[139.643812,35.893515],[139.644861,35.893484],[139.644074,35.891861],[139.642408,35.891189]]],[[[139.636109,35.887006],[139.636818,35.887249],[139.635919,35.88919],[139.636896,35.889551],[139.637422,35.888717],[139.640189,35.889863],[139.640151,35.890399],[139.641818,35.890261],[139.642408,35.891189],[139.644468,35.888715],[139.64505,35.888864],[139.644954,35.889848],[139.647253,35.889833],[139.647127,35.89131],[139.646509,35.891586],[139.647042,35.892875],[139.645108,35.896715],[139.646153,35.897128],[139.645193,35.898836],[139.64289,35.898137],[139.642808,35.898674],[139.645478,35.901683],[139.648303,35.901481],[139.648482,35.899782],[139.649165,35.8985],[139.649783,35.89863],[139.652105,35.894155],[139.660892,35.893827],[139.665252,35.894692],[139.662538,35.890398],[139.665545,35.885622],[139.666551,35.886645],[139.668761,35.882413],[139.668691,35.881686],[139.667194,35.881179],[139.668165,35.879004],[139.666726,35.878856],[139.667662,35.875069],[139.667077,35.873677],[139.667837,35.87251],[139.664328,35.868757],[139.665486,35.862498],[139.66634,35.861317],[139.667627,35.859806],[139.664901,35.858106],[139.666352,35.857233],[139.66741,35.853899],[139.665888,35.851113],[139.664016,35.850359],[139.664559,35.848793],[139.662976,35.848663],[139.662864,35.846876],[139.658983,35.84704],[139.657897,35.846428],[139.656736,35.848969],[139.65535,35.850225],[139.649348,35.850275],[139.649835,35.854397],[139.648,35.854584],[139.647551,35.856054],[139.645275,35.85491],[139.645406,35.856605],[139.643543,35.857409],[139.64344,35.858385],[139.640192,35.858106],[139.64007,35.865523],[139.64271,35.866059],[139.645688,35.867965],[139.645632,35.868608],[139.64492,35.868884],[139.644036,35.867549],[139.642585,35.867696],[139.642491,35.868481],[139.641598,35.86841],[139.641764,35.86923],[139.639955,35.869287],[139.639438,35.870927],[139.63808,35.870924],[139.638242,35.874384],[139.63705,35.881542],[139.64103,35.882958],[139.640537,35.883764],[139.63853,35.883287],[139.636109,35.887006]]]]}}]}