{"type":"FeatureCollection","features":[{"type":"Feature","properties":{},"geometry":{"type":"Polygon","coordinates":[[[139.635919,35.88919],[139.636818,35.887249],[139.636109,35.887006],[139.633213,35.889635],[139.633316,35.888728],[139.632529,35.888223],[139.63362,35.886757],[139.636109,35.887006],[139.63853,35.883287],[139.640537,35.883764],[139.64103,35.882958],[139.63705,35.881542],[139.638242,35.874384],[139.63808,35.870924],[139.639438,35.870927],[139.639955,35.869287],[139.641764,35.86923],[139.641598,35.86841],[139.642491,35.868481],[139.642585,35.867696],[139.644036,35.867549],[139.64492,35.868884],[139.645632,35.868608],[139.645688,35.867965],[139.64271,35.866059],[139.64007,35.865523],[139.640192,35.858106],[139.63946,35.857135],[139.639797,35.854869],[139.639113,35.854349],[139.638589,35.858383],[139.636286,35.860376],[139.634352,35.863493],[139.631883,35.862847],[139.631336,35.865293],[139.629693,35.866127],[139.627479,35.865456],[139.627131,35.866503],[139.625887,35.866163],[139.624929,35.868476],[139.624021,35.868924],[139.624083,35.869799],[139.625053,35.870241],[139.624655,35.871751],[139.621296,35.872534],[139.621023,35.870627],[139.61981,35.869956],[139.62129,35.869295],[139.621215,35.868634],[139.618827,35.869137],[139.613577,35.87732],[139.60432,35.878077],[139.604569,35.881489],[139.609134,35.88215],[139.60891,35.883233],[139.61049,35.88451],[139.606485,35.888182],[139.60427,35.888609],[139.606248,35.889875],[139.607411,35.896013],[139.611604,35.89523],[139.612126,35.893999],[139.619914,35.894248],[139.622601,35.893119],[139.621282,35.896374],[139.622004,35.896567],[139.619665,35.901225],[139.622315,35.902248],[139.622763,35.90123],[139.62507,35.901609],[139.628218,35.896326],[139.628902,35.896417],[139.628852,35.897999],[139.631701,35.896122],[139.632771,35.894358],[139.633567,35.894388],[139.635919,35.88919]]]}}]}