{"type":"FeatureCollection","features":[{"type":"Feature","properties":{"municipality_code":"11223"},"geometry":{"type":"Polygon","coordinates":[[[139.688806,35.828949],[139.698305,35.828242],[139.709844,35.826309],[139.709732,35.825023],[139.708259,35.825094],[139.708199,35.823597],[139.707504,35.823617],[139.707298,35.819259],[139.701772,35.818983],[139.702489,35.816966],[139.699514,35.815322],[139.696175,35.816368],[139.695611,35.815128],[139.693484,35.816053],[139.691727,35.813738],[139.688193,35.814249],[139.688092,35.815226],[139.68471,35.81605],[139.685625,35.818593],[139.684798,35.819445],[139.684279,35.81885],[139.680293,35.818569],[139.676816,35.821545],[139.670688,35.822061],[139.667038,35.823602],[139.66542,35.824667],[139.665658,35.826869],[139.663285,35.829011],[139.668015,35.832838],[139.668158,35.835677],[139.6771,35.832695],[139.688806,35.828949]]]}}]}