{"type":"FeatureCollection","features":[{"type":"Feature","properties":{},"geometry":{"type":"Polygon","coordinates":[[[139.835233,35.964869],[139.835003,35.960247],[139.837768,35.953906],[139.846452,35.94099],[139.849285,35.938349],[139.845097,35.935926],[139.842981,35.936262],[139.839768,35.938891],[139.835014,35.938748],[139.831646,35.94015],[139.830247,35.939608],[139.835785,35.934495],[139.839661,35.933306],[139.840146,35.934331],[139.84137,35.933847],[139.839638,35.927775],[139.838551,35.927948],[139.837138,35.927034],[139.836848,35.924496],[139.837917,35.923371],[139.836564,35.922586],[139.836106,35.915347],[139.840789,35.91799],[139.843158,35.915326],[139.842554,35.914862],[139.843122,35.9142],[139.842208,35.91364],[139.842681,35.913179],[139.84518,35.913336],[139.848626,35.911891],[139.84228,35.908122],[139.837272,35.906137],[139.836194,35.907251],[139.833727,35.907886],[139.828218,35.907152],[139.825132,35.907611],[139.822304,35.909776],[139.819868,35.914514],[139.817512,35.915378],[139.807477,35.916642],[139.805726,35.917806],[139.804526,35.920251],[139.805071,35.923635],[139.809074,35.926641],[139.816153,35.928615],[139.817685,35.929877],[139.818245,35.931759],[139.814278,35.936666],[139.810623,35.939707],[139.802429,35.941428],[139.804323,35.943991],[139.803926,35.945694],[139.805984,35.946932],[139.805184,35.949384],[139.806362,35.951866],[139.804985,35.954394],[139.805589,35.954904],[139.809412,35.952909],[139.820675,35.965968],[139.82284,35.964007],[139.825291,35.964244],[139.827407,35.965324],[139.829314,35.964994],[139.828617,35.966233],[139.831006,35.966733],[139.83075,35.967431],[139.833326,35.968967],[139.835233,35.964869]]]}}]}