{"type":"FeatureCollection","features":[{"type":"Feature","properties":{"municipality_code":"13218"},"geometry":{"type":"Polygon","coordinates":[[[139.325524,35.753954],[139.326444,35.754427],[139.327377,35.752924],[139.328913,35.753607],[139.329381,35.752378],[139.331552,35.753114],[139.331931,35.751699],[139.333529,35.751938],[139.333681,35.751072],[139.335773,35.751146],[139.336535,35.751932],[139.337056,35.75131],[139.337757,35.751949],[139.338737,35.75011],[139.342635,35.749844],[139.342326,35.746146],[139.345519,35.747073],[139.35207,35.74124],[139.353332,35.742534],[139.350428,35.745141],[139.349898,35.747725],[139.354663,35.745599],[139.356198,35.745031],[139.354907,35.742769],[139.358699,35.741126],[139.3584,35.740337],[139.359873,35.739579],[139.358776,35.73872],[139.359004,35.737331],[139.352923,35.736093],[139.353459,35.733058],[139.352326,35.732594],[139.353347,35.727959],[139.354138,35.727963],[139.355299,35.726298],[139.355045,35.725078],[139.352941,35.724837],[139.352976,35.723532],[139.351573,35.722143],[139.346635,35.721658],[139.346273,35.720946],[139.341616,35.721309],[139.338594,35.718948],[139.339446,35.717389],[139.338859,35.715865],[139.332483,35.712612],[139.332255,35.714007],[139.331227,35.713461],[139.328448,35.723697],[139.328605,35.727671],[139.321985,35.732727],[139.320154,35.733242],[139.316933,35.742863],[139.313865,35.747124],[139.317482,35.749067],[139.318797,35.7507],[139.321584,35.750375],[139.321164,35.751696],[139.32284,35.752557],[139.322055,35.753599],[139.324924,35.754845],[139.325524,35.753954]]]}}]}