{"type":"FeatureCollection","features":[{"type":"Feature","properties":{"municipality_code":"14342"},"geometry":{"type":"Polygon","coordinates":[[[139.250849,35.328805],[139.256796,35.319475],[139.257288,35.315928],[139.258026,35.315057],[139.26329,35.315902],[139.264612,35.314807],[139.26518,35.310578],[139.266423,35.309414],[139.266308,35.304861],[139.269274,35.297287],[139.251478,35.293356],[139.234046,35.286517],[139.233449,35.287839],[139.235085,35.288576],[139.235013,35.289684],[139.233927,35.289612],[139.234257,35.290253],[139.236176,35.290087],[139.236694,35.288561],[139.237621,35.288881],[139.236783,35.290407],[139.237436,35.292789],[139.236006,35.292645],[139.235755,35.293339],[139.236636,35.293906],[139.237501,35.296177],[139.235687,35.296847],[139.235315,35.298817],[139.235999,35.300072],[139.237029,35.300449],[139.237465,35.299819],[139.238036,35.30078],[139.238319,35.304455],[139.236519,35.307509],[139.236877,35.308804],[139.236212,35.310761],[139.237158,35.311601],[139.238103,35.314813],[139.235527,35.317425],[139.234367,35.317712],[139.232929,35.31982],[139.236587,35.320948],[139.238977,35.324166],[139.243086,35.326604],[139.245216,35.328871],[139.246819,35.328675],[139.24927,35.329849],[139.250849,35.328805]]]}}]}