{"type":"FeatureCollection","features":[{"type":"Feature","properties":{},"geometry":{"type":"Polygon","coordinates":[[[136.931812,36.685069],[136.932194,36.686272],[136.934546,36.684946],[136.935026,36.682706],[136.936633,36.682476],[136.936771,36.683474],[136.938363,36.683888],[136.938497,36.685285],[136.940458,36.685307],[136.941503,36.681411],[136.943397,36.682346],[136.942953,36.684277],[136.944558,36.684305],[136.944896,36.679419],[136.950081,36.679904],[136.950996,36.676547],[136.952424,36.675936],[136.952404,36.67411],[136.951334,36.67423],[136.951601,36.673442],[136.952784,36.673653],[136.953445,36.671701],[136.952136,36.67145],[136.952296,36.670934],[136.953564,36.671193],[136.954198,36.670537],[136.955408,36.670748],[136.955746,36.66984],[136.956717,36.670057],[136.957063,36.666686],[136.956414,36.665608],[136.958097,36.664979],[136.956146,36.664588],[136.956217,36.660596],[136.958427,36.66024],[136.96535,36.659626],[136.966087,36.664876],[136.970403,36.664957],[136.970639,36.665894],[136.970869,36.664066],[136.973809,36.664848],[136.974541,36.667814],[136.97801,36.670749],[136.983948,36.669369],[136.987392,36.670566],[136.989669,36.669327],[136.989929,36.666136],[136.988486,36.664317],[136.989426,36.663891],[136.986856,36.663238],[136.986856,36.66254],[136.988011,36.662269],[136.987366,36.661539],[136.986703,36.65691],[136.989929,36.656456],[136.99354,36.658531],[136.997706,36.659035],[136.997984,36.659971],[137.007506,36.659206],[137.008204,36.667107],[137.008624,36.667954],[137.010594,36.66836],[137.010009,36.670121],[137.010695,36.670414],[137.011427,36.672777],[137.017567,36.671333],[137.021444,36.672548],[137.023169,36.671995],[137.023429,36.670731],[137.022116,36.666417],[137.030455,36.663571],[137.03188,36.664384],[137.033728,36.663621],[137.032646,36.662465],[137.032632,36.660284],[137.03614,36.658845],[137.036631,36.659613],[137.038492,36.65836],[137.041589,36.658223],[137.042745,36.656953],[137.043417,36.659096],[137.047106,36.659759],[137.048648,36.655142],[137.051178,36.655431],[137.051568,36.654091],[137.054273,36.652135],[137.053034,36.651905],[137.051823,36.65022],[137.051655,36.646054],[137.058592,36.644926],[137.060103,36.642906],[137.064245,36.640963],[137.065366,36.638397],[137.060833,36.635614],[137.060273,36.634319],[137.057953,36.632744],[137.057873,36.631404],[137.056481,36.63009],[137.056499,36.626798],[137.054982,36.624663],[137.055389,36.622822],[137.053777,36.622101],[137.05462,36.619938],[137.05612,36.618634],[137.055848,36.616288],[137.053352,36.613248],[137.053206,36.609832],[137.054293,36.608248],[137.053192,36.604663],[137.053304,36.603297],[137.054356,36.602685],[137.053992,36.600462],[137.049642,36.600648],[137.048966,36.599432],[137.049721,36.597954],[137.048926,36.595957],[137.049351,36.594383],[137.046433,36.592818],[137.044426,36.589638],[137.045175,36.586889],[137.044618,36.586076],[137.045758,36.585321],[137.045619,36.584478],[137.043366,36.582316],[137.039657,36.580223],[137.040658,36.574831],[137.0394,36.573384],[137.040776,36.570419],[137.037261,36.565239],[137.037999,36.562938],[137.037571,36.558917],[137.038256,36.556364],[137.037047,36.550394],[137.03747,36.544715],[137.036871,36.541641],[137.036126,36.540989],[137.021739,36.541162],[137.019358,36.542539],[137.016071,36.542213],[137.010484,36.543681],[137.0029,36.544011],[137.004307,36.546664],[137.002514,36.547475],[137.003772,36.549633],[137.004783,36.549889],[137.004435,36.550415],[137.001845,36.551006],[137.000662,36.552],[136.99496,36.551872],[136.99275,36.554345],[136.990084,36.554521],[136.988117,36.557911],[136.988916,36.560324],[136.988321,36.561255],[136.984009,36.560661],[136.980409,36.564134],[136.979587,36.565776],[136.978589,36.565583],[136.978809,36.568095],[136.976034,36.570124],[136.975793,36.571219],[136.973844,36.571853],[136.973414,36.572374],[136.974139,36.572506],[136.974359,36.573484],[136.971983,36.574749],[136.973522,36.576986],[136.969005,36.578899],[136.969368,36.579597],[136.970663,36.578921],[136.971672,36.58103],[136.970511,36.582117],[136.971093,36.582841],[136.969371,36.583651],[136.970396,36.585034],[136.959964,36.592722],[136.95986,36.593775],[136.962229,36.594287],[136.958554,36.598561],[136.957331,36.597954],[136.954673,36.59895],[136.954021,36.598035],[136.952666,36.598091],[136.953555,36.599501],[136.951276,36.600587],[136.950437,36.599899],[136.947284,36.601485],[136.947667,36.602126],[136.950536,36.600804],[136.950911,36.601249],[136.945313,36.605149],[136.941246,36.605351],[136.938551,36.607058],[136.938194,36.606282],[136.935857,36.607146],[136.934724,36.606786],[136.934643,36.607571],[136.930899,36.610216],[136.930085,36.609515],[136.92633,36.611249],[136.923764,36.612139],[136.925768,36.61496],[136.923606,36.61606],[136.924179,36.616829],[136.922957,36.617221],[136.923223,36.617949],[136.922266,36.618186],[136.922042,36.617484],[136.916636,36.619359],[136.916137,36.619771],[136.916553,36.620986],[136.912993,36.622247],[136.912278,36.621302],[136.91217,36.621964],[136.909882,36.621093],[136.909566,36.621647],[136.908801,36.621356],[136.907138,36.621751],[136.907354,36.622531],[136.90603,36.622606],[136.906331,36.623596],[136.907587,36.623947],[136.907188,36.626741],[136.909964,36.628701],[136.910693,36.63404],[136.911456,36.634631],[136.911504,36.634034],[136.913972,36.633776],[136.919701,36.638752],[136.918561,36.639388],[136.919023,36.640426],[136.921634,36.640149],[136.922301,36.64149],[136.919642,36.641931],[136.917206,36.641273],[136.915416,36.643844],[136.916025,36.645538],[136.912726,36.648631],[136.914057,36.650175],[136.913736,36.650831],[136.912089,36.651172],[136.915864,36.653521],[136.917613,36.655601],[136.91586,36.658033],[136.917007,36.658619],[136.915686,36.659105],[136.918294,36.660302],[136.917606,36.661204],[136.91572,36.660355],[136.914892,36.660807],[136.914602,36.662619],[136.916942,36.662862],[136.915142,36.663281],[136.913862,36.665086],[136.914923,36.665714],[136.914533,36.666286],[136.91805,36.667601],[136.916216,36.669051],[136.91636,36.670506],[136.916936,36.67123],[136.919807,36.67145],[136.920271,36.674582],[136.921724,36.674459],[136.921916,36.676544],[136.923555,36.676444],[136.923323,36.674216],[136.924866,36.674101],[136.924561,36.673248],[136.936136,36.672505],[136.936068,36.671707],[136.937588,36.671593],[136.937656,36.672524],[136.934338,36.673478],[136.934739,36.676935],[136.931032,36.677454],[136.931071,36.678192],[136.928174,36.678839],[136.92825,36.679985],[136.926443,36.681058],[136.926787,36.681774],[136.925323,36.68242],[136.924833,36.683973],[136.923419,36.684713],[136.923781,36.685099],[136.927587,36.686358],[136.931812,36.685069]]]}}]}