{"type":"FeatureCollection","features":[{"type":"Feature","properties":{},"geometry":{"type":"Polygon","coordinates":[[[136.50208,36.479049],[136.503495,36.479464],[136.503524,36.47884],[136.506767,36.477641],[136.510645,36.477414],[136.510795,36.476517],[136.517525,36.478337],[136.522049,36.477021],[136.52469,36.473857],[136.532121,36.472049],[136.533246,36.473371],[136.534011,36.473263],[136.534163,36.474041],[136.535599,36.473957],[136.535799,36.474923],[136.537199,36.474719],[136.537608,36.475623],[136.539562,36.475135],[136.539798,36.476186],[136.541175,36.475785],[136.542802,36.481766],[136.544377,36.481766],[136.554191,36.479422],[136.56072,36.476142],[136.562526,36.474446],[136.571001,36.472005],[136.571474,36.470708],[136.575276,36.470259],[136.575462,36.469415],[136.577184,36.468642],[136.582922,36.468074],[136.589904,36.469238],[136.593698,36.467059],[136.594318,36.464677],[136.597335,36.462424],[136.597496,36.46161],[136.601516,36.46019],[136.601246,36.458198],[136.580861,36.460153],[136.580156,36.462118],[136.573622,36.462168],[136.57337,36.460142],[136.522945,36.462234],[136.523557,36.466304],[136.519151,36.466981],[136.519095,36.467877],[136.516848,36.468201],[136.510216,36.467276],[136.493125,36.460949],[136.488846,36.462005],[136.487039,36.46409],[136.480719,36.468212],[136.482209,36.469043],[136.486392,36.474791],[136.487059,36.474402],[136.487921,36.4753],[136.48922,36.479565],[136.488047,36.480102],[136.488311,36.481034],[136.490703,36.480852],[136.493158,36.482007],[136.50208,36.479049]]]}}]}