{"type":"FeatureCollection","features":[{"type":"Feature","properties":{},"geometry":{"type":"MultiPolygon","coordinates":[[[[136.126574,36.198902],[136.126271,36.198431],[136.123043,36.197684],[136.126574,36.198902]]],[[[136.120634,36.253544],[136.120974,36.250519],[136.116921,36.250018],[136.117446,36.252846],[136.118991,36.252835],[136.119185,36.253488],[136.12019,36.252676],[136.120634,36.253544]]],[[[136.147418,36.254858],[136.146435,36.256282],[136.147311,36.255681],[136.147418,36.254858]]],[[[136.126574,36.198902],[136.121791,36.201247],[136.122227,36.202001],[136.127216,36.208967],[136.132026,36.213943],[136.132138,36.216452],[136.129634,36.219074],[136.131075,36.219969],[136.134723,36.220752],[136.134997,36.22145],[136.134223,36.224014],[136.133397,36.224448],[136.132653,36.223749],[136.131562,36.224508],[136.13317,36.228401],[136.132424,36.230247],[136.131405,36.230486],[136.130543,36.232449],[136.128409,36.233466],[136.12505,36.237423],[136.126175,36.238012],[136.125999,36.238754],[136.126977,36.238634],[136.128136,36.239013],[136.13072,36.239299],[136.131466,36.240468],[136.130702,36.241258],[136.130959,36.242106],[136.129086,36.242904],[136.127975,36.245115],[136.124786,36.246459],[136.123979,36.248056],[136.122955,36.249643],[136.12609,36.251238],[136.128113,36.250544],[136.133516,36.251576],[136.135352,36.25072],[136.138164,36.250447],[136.139772,36.251002],[136.140586,36.252749],[136.142557,36.252542],[136.14328,36.253361],[136.144021,36.252267],[136.145372,36.251623],[136.146165,36.253419],[136.147271,36.253728],[136.147418,36.254858],[136.147739,36.255265],[136.148908,36.254792],[136.148485,36.25407],[136.149411,36.252591],[136.150551,36.25263],[136.151071,36.252463],[136.153201,36.253174],[136.152952,36.25391],[136.153575,36.25354],[136.157723,36.250161],[136.158986,36.250081],[136.159211,36.2507],[136.160063,36.249836],[136.162465,36.249831],[136.164258,36.250273],[136.164191,36.250871],[136.165601,36.250705],[136.174907,36.253646],[136.183182,36.25762],[136.184805,36.25475],[136.182893,36.251707],[136.181186,36.250714],[136.184259,36.248414],[136.184528,36.249838],[136.189015,36.249593],[136.191486,36.251677],[136.193469,36.250249],[136.19548,36.251203],[136.197131,36.249008],[136.198992,36.248602],[136.200696,36.2461],[136.198462,36.246077],[136.193688,36.240956],[136.194654,36.238567],[136.196359,36.238476],[136.196661,36.237515],[136.196076,36.237331],[136.196907,36.235654],[136.194357,36.233867],[136.194404,36.235039],[136.193419,36.234086],[136.190929,36.234154],[136.1904,36.233377],[136.188899,36.234014],[136.188932,36.231271],[136.187571,36.230295],[136.186614,36.230167],[136.186512,36.231418],[136.184417,36.232944],[136.183581,36.232639],[136.183544,36.231331],[136.181342,36.23158],[136.181175,36.230717],[136.182425,36.228885],[136.184359,36.228975],[136.184951,36.22832],[136.183907,36.222992],[136.182128,36.223165],[136.18216,36.224141],[136.174794,36.221797],[136.175444,36.220259],[136.174014,36.217248],[136.171793,36.216208],[136.169504,36.216419],[136.167618,36.21464],[136.166801,36.212605],[136.166745,36.209112],[136.168064,36.209534],[136.168719,36.21224],[136.175482,36.21129],[136.175115,36.209824],[136.176517,36.209587],[136.176206,36.207827],[136.175296,36.207842],[136.174799,36.206331],[136.172876,36.206504],[136.172672,36.203166],[136.173717,36.202698],[136.17276,36.198802],[136.176016,36.198244],[136.175658,36.196944],[136.178185,36.196488],[136.178348,36.194377],[136.1806,36.193952],[136.180488,36.192905],[136.190297,36.192911],[136.190453,36.190184],[136.195192,36.189313],[136.19676,36.191154],[136.210592,36.19187],[136.210728,36.190288],[136.211826,36.190334],[136.213084,36.188969],[136.214334,36.189054],[136.2152,36.189471],[136.214987,36.190271],[136.215894,36.190443],[136.215531,36.192429],[136.218593,36.192268],[136.219266,36.193744],[136.222869,36.194227],[136.223278,36.196657],[136.228629,36.197315],[136.228979,36.195477],[136.230267,36.195143],[136.230255,36.194007],[136.23635,36.193253],[136.235897,36.192077],[136.237392,36.19166],[136.235489,36.190147],[136.237219,36.183851],[136.239761,36.184032],[136.239632,36.184739],[136.242472,36.184237],[136.251821,36.185421],[136.251922,36.183994],[136.257234,36.183543],[136.256767,36.181783],[136.258445,36.181687],[136.259054,36.179097],[136.261389,36.17944],[136.262421,36.178415],[136.268777,36.178323],[136.269867,36.178109],[136.269916,36.177516],[136.272873,36.177252],[136.273967,36.179556],[136.275242,36.180376],[136.276932,36.177714],[136.279823,36.178841],[136.280814,36.176531],[136.28533,36.174604],[136.294504,36.17811],[136.295272,36.179626],[136.297477,36.179227],[136.302257,36.183926],[136.304722,36.184114],[136.305684,36.188546],[136.307565,36.190262],[136.310854,36.189979],[136.314323,36.191442],[136.315171,36.192744],[136.316869,36.193218],[136.318266,36.194724],[136.318806,36.197364],[136.319878,36.198645],[136.323882,36.198945],[136.327749,36.20057],[136.329398,36.202019],[136.331665,36.200325],[136.332751,36.195699],[136.335977,36.194632],[136.336959,36.190794],[136.335664,36.184871],[136.337606,36.183727],[136.339294,36.181279],[136.339409,36.179982],[136.340644,36.178867],[136.342084,36.174903],[136.34437,36.172827],[136.351434,36.16935],[136.354624,36.169133],[136.358294,36.165091],[136.365915,36.166164],[136.367424,36.16881],[136.368893,36.169835],[136.374018,36.170043],[136.379442,36.16823],[136.380791,36.168757],[136.386657,36.167246],[136.390092,36.167404],[136.396837,36.170388],[136.404812,36.170278],[136.409304,36.172227],[136.409966,36.170469],[136.411646,36.169764],[136.413264,36.166954],[136.41138,36.160575],[136.412975,36.159473],[136.414283,36.156624],[136.416837,36.155525],[136.424346,36.154481],[136.426847,36.151058],[136.426806,36.148898],[136.427784,36.147307],[136.429873,36.146087],[136.431761,36.143473],[136.438251,36.142074],[136.438527,36.140231],[136.440387,36.13736],[136.439611,36.134815],[136.437418,36.133805],[136.434136,36.134384],[136.429048,36.132123],[136.425337,36.133679],[136.408634,36.128739],[136.402463,36.127908],[136.398966,36.124839],[136.392779,36.124939],[136.38723,36.125573],[136.384752,36.126912],[136.375774,36.125926],[136.372373,36.128666],[136.371679,36.130058],[136.365474,36.128571],[136.361904,36.128701],[136.360232,36.127433],[136.360152,36.124317],[136.356816,36.12007],[136.35529,36.116777],[136.353333,36.115592],[136.349997,36.115349],[136.347741,36.113477],[136.345938,36.113815],[136.34304,36.110959],[136.339383,36.110918],[136.336441,36.112327],[136.334995,36.112167],[136.332929,36.109638],[136.330871,36.108376],[136.323315,36.106031],[136.323571,36.105077],[136.322585,36.104946],[136.32306,36.10282],[136.318249,36.102257],[136.31546,36.103726],[136.306305,36.103767],[136.296245,36.107309],[136.298669,36.111545],[136.296347,36.113002],[136.292154,36.113451],[136.292528,36.114191],[136.291713,36.114455],[136.292239,36.11542],[136.290402,36.116003],[136.288862,36.114472],[136.28712,36.115034],[136.286335,36.112919],[136.287254,36.112287],[136.287127,36.111058],[136.284,36.111156],[136.283932,36.112613],[136.285075,36.114765],[136.284531,36.114925],[136.285229,36.117735],[136.284594,36.117948],[136.285338,36.119524],[136.279841,36.120821],[136.281337,36.114222],[136.281367,36.113499],[136.280615,36.113387],[136.280664,36.111963],[136.275658,36.11126],[136.275622,36.109305],[136.27449,36.109234],[136.273673,36.10725],[136.269968,36.104073],[136.263381,36.105224],[136.256933,36.104921],[136.256643,36.106114],[136.253659,36.106507],[136.255512,36.11295],[136.254076,36.114459],[136.253974,36.118128],[136.25539,36.119569],[136.254532,36.120446],[136.254064,36.123649],[136.251865,36.1234],[136.250618,36.121467],[136.248162,36.12026],[136.248073,36.118308],[136.247094,36.118254],[136.245589,36.118207],[136.245594,36.12079],[136.238732,36.120082],[136.237167,36.118699],[136.234616,36.118624],[136.23089,36.119418],[136.23041,36.120841],[136.209731,36.120464],[136.206741,36.122306],[136.203751,36.1209],[136.197275,36.121844],[136.193058,36.124442],[136.194219,36.124493],[136.194185,36.126459],[136.191829,36.128076],[136.191784,36.130422],[136.188458,36.130493],[136.181335,36.133451],[136.177827,36.133682],[136.177551,36.136299],[136.176004,36.138631],[136.166468,36.144471],[136.164795,36.147458],[136.162298,36.158089],[136.157188,36.163871],[136.151551,36.166896],[136.149102,36.165374],[136.148777,36.163874],[136.147878,36.163413],[136.139492,36.163244],[136.139508,36.162642],[136.138205,36.163268],[136.137828,36.169118],[136.139886,36.169083],[136.139049,36.172085],[136.138034,36.172078],[136.138089,36.169945],[136.135574,36.169658],[136.13406,36.168336],[136.131889,36.164553],[136.131022,36.163845],[136.130097,36.164499],[136.129212,36.163664],[136.128639,36.16264],[136.130578,36.162175],[136.131013,36.160608],[136.129792,36.16037],[136.130343,36.158646],[136.125491,36.157977],[136.12518,36.158543],[136.126516,36.159656],[136.125547,36.160082],[136.126712,36.161249],[136.12552,36.162054],[136.126035,36.162767],[136.125592,36.163028],[136.119371,36.165855],[136.107024,36.169532],[136.100027,36.172894],[136.114338,36.192649],[136.121053,36.189609],[136.123929,36.189758],[136.125039,36.191314],[136.12765,36.190088],[136.129318,36.193718],[136.12726,36.194432],[136.133985,36.203831],[136.134251,36.204746],[136.133095,36.205288],[136.132539,36.204509],[136.131094,36.205186],[136.129703,36.203236],[136.12874,36.203688],[136.127554,36.202029],[136.128809,36.201988],[136.126574,36.198902]]]]}}]}