{"type":"FeatureCollection","features":[{"type":"Feature","properties":{},"geometry":{"type":"Polygon","coordinates":[[[138.058912,36.167859],[138.059841,36.164456],[138.066906,36.161492],[138.072123,36.162043],[138.073446,36.159863],[138.077034,36.156896],[138.085724,36.157933],[138.08833,36.157492],[138.084447,36.152692],[138.083458,36.150664],[138.083279,36.14817],[138.082184,36.147766],[138.081756,36.14673],[138.088929,36.144024],[138.089096,36.142939],[138.090625,36.142123],[138.090315,36.139421],[138.092214,36.138203],[138.093746,36.140806],[138.093833,36.145213],[138.091101,36.148522],[138.092122,36.149983],[138.096189,36.143434],[138.096372,36.139931],[138.098473,36.138329],[138.097837,36.134907],[138.099696,36.130877],[138.099053,36.128369],[138.100682,36.125978],[138.101525,36.122652],[138.097094,36.124994],[138.094192,36.128064],[138.084159,36.124738],[138.081178,36.125985],[138.079774,36.129228],[138.078548,36.129693],[138.076789,36.129196],[138.075409,36.127003],[138.074779,36.12192],[138.072517,36.119598],[138.075003,36.116744],[138.073451,36.116173],[138.073536,36.114608],[138.072605,36.113075],[138.072838,36.110711],[138.071892,36.108329],[138.073111,36.105714],[138.073212,36.102826],[138.070461,36.098232],[138.069063,36.097698],[138.068271,36.096478],[138.07202,36.090333],[138.070816,36.087169],[138.071641,36.085171],[138.071266,36.083849],[138.072051,36.080521],[138.073807,36.079812],[138.073947,36.075728],[138.074953,36.073599],[138.074788,36.068969],[138.07321,36.067316],[138.07348,36.065474],[138.072834,36.064766],[138.07564,36.062308],[138.074663,36.060659],[138.075748,36.059353],[138.086117,36.050116],[138.078811,36.028929],[138.077109,36.028071],[138.073863,36.022436],[138.071366,36.021496],[138.066866,36.017896],[138.065713,36.018896],[138.063463,36.019069],[138.061659,36.020151],[138.05785,36.020301],[138.056738,36.024173],[138.05548,36.024181],[138.052061,36.020747],[138.050181,36.020813],[138.048468,36.018384],[138.039619,36.014747],[138.038661,36.012763],[138.037324,36.012297],[138.033205,36.01225],[138.031079,36.014523],[138.026137,36.013589],[138.024309,36.014315],[138.019543,36.01083],[138.015515,36.010517],[138.014748,36.009593],[138.006121,36.013956],[138.000758,36.011209],[137.994724,36.01265],[137.992024,36.014095],[137.991572,36.016438],[137.992804,36.018838],[137.994131,36.019443],[137.997119,36.023012],[137.997788,36.026479],[137.997183,36.029239],[137.998067,36.033844],[137.999162,36.034219],[137.999814,36.036236],[137.999161,36.037165],[137.999639,36.040691],[138.001685,36.041582],[138.002834,36.043929],[138.002547,36.045998],[138.004522,36.047669],[138.00428,36.049634],[138.005611,36.050228],[138.005712,36.05212],[138.008994,36.055358],[138.010739,36.058536],[138.014265,36.060068],[138.015953,36.062198],[138.013481,36.067338],[138.012867,36.06988],[138.017131,36.078703],[138.022899,36.075889],[138.022455,36.079028],[138.023362,36.081584],[138.02872,36.085524],[138.028462,36.088067],[138.029207,36.088741],[138.027974,36.091899],[138.029617,36.093392],[138.027866,36.09658],[138.028276,36.098897],[138.029611,36.100171],[138.028425,36.101074],[138.028443,36.102507],[138.030231,36.104952],[138.030504,36.10656],[138.030186,36.114333],[138.03153,36.117828],[138.034228,36.118335],[138.033435,36.120593],[138.034574,36.123643],[138.034761,36.126825],[138.041671,36.139642],[138.041997,36.141853],[138.043458,36.14429],[138.041962,36.146224],[138.042345,36.148128],[138.042024,36.149536],[138.044669,36.151566],[138.044427,36.152503],[138.045855,36.154061],[138.045579,36.16141],[138.054266,36.168458],[138.058912,36.167859]]]}}]}