{"type":"FeatureCollection","features":[{"type":"Feature","properties":{},"geometry":{"type":"Polygon","coordinates":[[[137.986224,35.781541],[137.992528,35.778671],[137.998993,35.77841],[138.001207,35.779405],[138.003384,35.779108],[138.006404,35.777296],[138.009586,35.777484],[138.016362,35.774958],[138.017279,35.773068],[138.019253,35.77313],[138.022899,35.771839],[138.029081,35.772427],[138.031554,35.769886],[138.033878,35.770188],[138.035581,35.768772],[138.040059,35.766944],[138.040585,35.764876],[138.042486,35.764252],[138.042971,35.762637],[138.045226,35.7607],[138.044512,35.757742],[138.042789,35.755044],[138.045127,35.753388],[138.04867,35.748809],[138.049221,35.745468],[138.051971,35.744944],[138.052462,35.739564],[138.055495,35.737723],[138.057962,35.734703],[138.061986,35.733903],[138.061553,35.732428],[138.062099,35.728837],[138.061095,35.727858],[138.060549,35.72545],[138.062862,35.723583],[138.062554,35.716684],[138.063258,35.712509],[138.064283,35.710614],[138.063875,35.708364],[138.061371,35.70354],[138.059831,35.702408],[138.056209,35.702004],[138.055198,35.700826],[138.050629,35.701945],[138.04924,35.700853],[138.048621,35.699136],[138.047244,35.699066],[138.046684,35.698296],[138.045936,35.695724],[138.044677,35.694772],[138.045048,35.693523],[138.043407,35.691387],[138.043612,35.688874],[138.045458,35.686032],[138.043806,35.683261],[138.043715,35.673677],[138.038382,35.670943],[138.037967,35.668893],[138.035317,35.666943],[138.032821,35.667826],[138.027836,35.672457],[138.026604,35.674708],[138.022025,35.674732],[138.019541,35.675957],[138.016168,35.672822],[138.013995,35.672982],[138.01103,35.675811],[138.008157,35.675674],[138.006563,35.676409],[138.005688,35.677774],[138.00246,35.678197],[137.999281,35.679679],[137.995616,35.679157],[137.991673,35.676562],[137.985506,35.675533],[137.983962,35.678042],[137.984034,35.681649],[137.98007,35.682852],[137.979725,35.684302],[137.97812,35.685465],[137.978664,35.686148],[137.977789,35.688235],[137.978123,35.689785],[137.976714,35.691585],[137.971665,35.690148],[137.969736,35.688906],[137.963486,35.687843],[137.961853,35.686077],[137.955345,35.682681],[137.94875,35.682009],[137.950162,35.683448],[137.95047,35.686764],[137.953728,35.689247],[137.955649,35.692551],[137.954723,35.696663],[137.951711,35.7005],[137.942533,35.701483],[137.932643,35.700608],[137.930047,35.700991],[137.924702,35.703287],[137.91989,35.703803],[137.919248,35.705386],[137.911349,35.706153],[137.907708,35.706049],[137.907579,35.704699],[137.902059,35.702799],[137.898176,35.703207],[137.897255,35.701362],[137.890018,35.701432],[137.890481,35.69967],[137.889956,35.698458],[137.886919,35.696329],[137.881994,35.695666],[137.87867,35.693854],[137.87552,35.694049],[137.873408,35.693237],[137.871426,35.694072],[137.869486,35.696308],[137.871133,35.699212],[137.867211,35.701169],[137.864354,35.700144],[137.861864,35.700183],[137.861477,35.701541],[137.862778,35.702854],[137.859907,35.704314],[137.857841,35.705037],[137.850531,35.702871],[137.848477,35.704477],[137.845954,35.704521],[137.843593,35.706309],[137.840199,35.706457],[137.834117,35.709177],[137.825721,35.711334],[137.824098,35.712446],[137.823672,35.713774],[137.821182,35.715403],[137.816797,35.71685],[137.817539,35.718219],[137.816731,35.719456],[137.813683,35.720396],[137.812238,35.722183],[137.808495,35.723061],[137.805866,35.724897],[137.805035,35.7262],[137.804814,35.730946],[137.804118,35.731652],[137.804929,35.735759],[137.803283,35.740465],[137.806779,35.745613],[137.809464,35.748104],[137.810651,35.748331],[137.812782,35.750775],[137.813817,35.753309],[137.811891,35.759267],[137.812207,35.761932],[137.810554,35.763511],[137.810567,35.77154],[137.808878,35.779513],[137.809324,35.78139],[137.818083,35.778775],[137.820591,35.775308],[137.824714,35.773529],[137.826433,35.771337],[137.830959,35.768026],[137.834622,35.766503],[137.840051,35.766269],[137.842951,35.764602],[137.843858,35.761994],[137.846666,35.760176],[137.848753,35.760914],[137.850338,35.75966],[137.854174,35.759274],[137.854981,35.760671],[137.857047,35.760328],[137.859226,35.756475],[137.85811,35.753545],[137.860039,35.75162],[137.858732,35.750755],[137.860308,35.747683],[137.863191,35.750543],[137.864522,35.750386],[137.866529,35.751528],[137.869132,35.749391],[137.871331,35.749625],[137.874689,35.747617],[137.911036,35.749817],[137.92499,35.74915],[137.939361,35.750227],[137.963943,35.750492],[137.959498,35.756077],[137.958848,35.758239],[137.958732,35.761476],[137.960365,35.765676],[137.960985,35.770217],[137.959981,35.778246],[137.963964,35.775866],[137.964648,35.773279],[137.963277,35.772071],[137.966235,35.769392],[137.972334,35.769738],[137.975005,35.772979],[137.975034,35.775925],[137.976421,35.777616],[137.978638,35.778354],[137.980442,35.781174],[137.9816,35.78112],[137.982258,35.781912],[137.986224,35.781541]]]}}]}