{"type":"FeatureCollection","features":[{"type":"Feature","properties":{"municipality_code":"21211"},"geometry":{"type":"MultiPolygon","coordinates":[[[[136.998757,35.506921],[136.99583,35.506084],[136.995915,35.506619],[136.998757,35.506921]]],[[[137.078251,35.448006],[137.078836,35.447373],[137.077218,35.448066],[137.077168,35.448761],[137.075917,35.448014],[137.07747,35.447437],[137.076708,35.44676],[137.077571,35.446754],[137.077829,35.445156],[137.078577,35.444719],[137.080525,35.446469],[137.081632,35.4462],[137.079138,35.448854],[137.078251,35.448006],[137.078479,35.449899],[137.079306,35.450002],[137.079924,35.448788],[137.079919,35.449862],[137.080607,35.45009],[137.081215,35.449532],[137.080842,35.448788],[137.081327,35.44858],[137.082213,35.450481],[137.082345,35.44962],[137.083399,35.449415],[137.083253,35.448481],[137.081902,35.444278],[137.080153,35.442242],[137.076185,35.440118],[137.071934,35.439514],[137.06825,35.44084],[137.063269,35.444203],[137.054658,35.445254],[137.051319,35.444426],[137.042479,35.439986],[137.0333,35.436903],[137.011566,35.4359],[137.007582,35.433434],[137.006501,35.429897],[137.002334,35.431415],[137.003472,35.432777],[137.002555,35.437981],[137.001456,35.437991],[137.001917,35.440757],[137.000714,35.440029],[136.997898,35.441253],[136.994183,35.441154],[136.992923,35.442219],[136.992044,35.447977],[136.993368,35.451861],[136.992086,35.452695],[136.987119,35.452342],[136.984069,35.448114],[136.977956,35.449971],[136.974452,35.452289],[136.972874,35.450519],[136.969887,35.451379],[136.969326,35.447907],[136.970734,35.446489],[136.970025,35.445174],[136.967568,35.446721],[136.965164,35.444796],[136.962812,35.446067],[136.9597,35.446627],[136.959021,35.447939],[136.960263,35.451217],[136.95987,35.4525],[136.961229,35.458659],[136.962837,35.462254],[136.961836,35.464524],[136.964723,35.474133],[136.964222,35.474365],[136.964946,35.480971],[136.96887,35.479942],[136.969013,35.473197],[136.970264,35.472791],[136.971069,35.471486],[136.98394,35.471321],[136.984359,35.47945],[136.988453,35.479406],[136.991313,35.478304],[136.994459,35.478587],[137.001539,35.48198],[137.001963,35.483278],[137.005015,35.484293],[137.008666,35.483927],[137.011718,35.48662],[137.012058,35.488836],[137.00964,35.490052],[137.008012,35.492469],[137.008123,35.493916],[137.009194,35.494274],[137.008426,35.493394],[137.009419,35.493275],[137.008638,35.492611],[137.009787,35.490619],[137.010095,35.494023],[137.013208,35.492066],[137.012058,35.4937],[137.010095,35.494023],[137.009194,35.494274],[137.008914,35.495886],[137.005953,35.493834],[137.001337,35.492529],[136.997337,35.494259],[136.997383,35.495028],[136.998909,35.495207],[137.001401,35.49734],[137.003222,35.499981],[137.000114,35.502413],[136.997171,35.502353],[136.999939,35.503193],[136.999191,35.504831],[136.999492,35.505919],[136.997992,35.505942],[136.998757,35.506921],[136.997981,35.507901],[136.996546,35.507591],[136.9969,35.508338],[136.994405,35.508953],[136.992973,35.50774],[136.992367,35.508118],[136.992053,35.510816],[136.994444,35.510541],[136.991731,35.514363],[136.991506,35.515604],[136.99252,35.517224],[137.000461,35.517364],[137.002756,35.519498],[137.001885,35.520484],[137.002152,35.523494],[137.007172,35.525901],[137.007026,35.527041],[137.009156,35.529309],[137.010752,35.533766],[137.014004,35.53434],[137.016256,35.537202],[137.019404,35.537279],[137.019723,35.538105],[137.021733,35.537979],[137.025339,35.539785],[137.028841,35.539582],[137.028988,35.541024],[137.032094,35.543893],[137.032602,35.546783],[137.034284,35.548644],[137.034293,35.550051],[137.03626,35.553389],[137.038399,35.553571],[137.044048,35.549624],[137.048568,35.547889],[137.049331,35.546745],[137.051402,35.545793],[137.057155,35.545461],[137.05813,35.545752],[137.058372,35.546623],[137.058708,35.548582],[137.058083,35.550654],[137.058747,35.550269],[137.059976,35.550961],[137.067748,35.547474],[137.068646,35.545196],[137.068533,35.542614],[137.067011,35.541452],[137.065264,35.538453],[137.067339,35.534664],[137.067261,35.531652],[137.070294,35.532884],[137.07044,35.532037],[137.068957,35.529626],[137.072144,35.530564],[137.069539,35.528692],[137.066821,35.529178],[137.064285,35.527912],[137.060908,35.522684],[137.057786,35.521473],[137.056466,35.517757],[137.052752,35.517079],[137.051398,35.513269],[137.05217,35.511309],[137.051756,35.510357],[137.053076,35.508678],[137.049151,35.508836],[137.045231,35.507317],[137.043617,35.50534],[137.042194,35.505445],[137.039774,35.504084],[137.038971,35.501849],[137.037366,35.500304],[137.036804,35.496261],[137.037268,35.495237],[137.039132,35.494544],[137.039504,35.493144],[137.042062,35.492009],[137.045325,35.492209],[137.045744,35.49072],[137.04829,35.488775],[137.051336,35.489054],[137.051943,35.486109],[137.050487,35.483694],[137.052637,35.482038],[137.052723,35.479106],[137.049259,35.472666],[137.051158,35.468698],[137.051198,35.465799],[137.050051,35.464905],[137.049885,35.462974],[137.051106,35.461141],[137.052426,35.461727],[137.052924,35.46069],[137.05398,35.460922],[137.053085,35.466017],[137.059238,35.469866],[137.062737,35.475482],[137.065489,35.477966],[137.067542,35.478734],[137.070203,35.479279],[137.072956,35.477622],[137.072383,35.474449],[137.074717,35.473746],[137.077321,35.473537],[137.07841,35.473816],[137.079156,35.475026],[137.082883,35.475156],[137.082826,35.471164],[137.084851,35.471289],[137.086657,35.469186],[137.08676,35.467074],[137.085384,35.465804],[137.084076,35.461155],[137.082041,35.460937],[137.079408,35.459564],[137.077229,35.460094],[137.075732,35.459005],[137.077711,35.455413],[137.076943,35.454808],[137.077281,35.4511],[137.076082,35.449806],[137.077717,35.450495],[137.07771,35.449454],[137.078251,35.448006]]]]}}]}