{"type":"FeatureCollection","features":[{"type":"Feature","properties":{"municipality_code":"21503"},"geometry":{"type":"Polygon","coordinates":[[[137.105246,35.548803],[137.10279,35.548981],[137.102101,35.54787],[137.099935,35.548302],[137.100842,35.54544],[137.099724,35.544298],[137.103337,35.54459],[137.107123,35.546081],[137.108562,35.545434],[137.106943,35.545148],[137.106075,35.542591],[137.104284,35.541849],[137.107287,35.539895],[137.106148,35.535269],[137.107552,35.531801],[137.108033,35.527946],[137.109774,35.527924],[137.109629,35.526789],[137.108416,35.527255],[137.108776,35.521366],[137.106739,35.518536],[137.112433,35.518429],[137.113646,35.519628],[137.113935,35.518327],[137.116067,35.517134],[137.116892,35.518327],[137.119509,35.519399],[137.122267,35.51783],[137.122271,35.516686],[137.123049,35.516493],[137.124444,35.51594],[137.127184,35.516285],[137.127996,35.515153],[137.129882,35.51506],[137.132131,35.512899],[137.132499,35.507486],[137.131312,35.506083],[137.131129,35.504215],[137.128602,35.501963],[137.126573,35.501152],[137.123243,35.502885],[137.119744,35.503644],[137.117981,35.505584],[137.116182,35.506044],[137.115281,35.504529],[137.112911,35.503359],[137.115175,35.501414],[137.112659,35.499626],[137.111469,35.497764],[137.107875,35.49698],[137.101826,35.488964],[137.100338,35.488778],[137.098906,35.489596],[137.092684,35.489049],[137.090194,35.491412],[137.084577,35.488467],[137.082602,35.483029],[137.085091,35.479927],[137.084487,35.479317],[137.089485,35.474715],[137.091265,35.474246],[137.091794,35.473101],[137.086657,35.469186],[137.084851,35.471289],[137.082826,35.471164],[137.082883,35.475156],[137.079156,35.475026],[137.07841,35.473816],[137.077321,35.473537],[137.074717,35.473746],[137.072383,35.474449],[137.072956,35.477622],[137.070203,35.479279],[137.067542,35.478734],[137.065489,35.477966],[137.062737,35.475482],[137.059238,35.469866],[137.053085,35.466017],[137.05398,35.460922],[137.052924,35.46069],[137.052426,35.461727],[137.051106,35.461141],[137.049885,35.462974],[137.050051,35.464905],[137.051198,35.465799],[137.051158,35.468698],[137.049259,35.472666],[137.052723,35.479106],[137.052637,35.482038],[137.050487,35.483694],[137.051943,35.486109],[137.051336,35.489054],[137.04829,35.488775],[137.045744,35.49072],[137.045325,35.492209],[137.042062,35.492009],[137.039504,35.493144],[137.039132,35.494544],[137.037268,35.495237],[137.036804,35.496261],[137.037366,35.500304],[137.038971,35.501849],[137.039774,35.504084],[137.042194,35.505445],[137.043617,35.50534],[137.045231,35.507317],[137.049151,35.508836],[137.053076,35.508678],[137.051756,35.510357],[137.05217,35.511309],[137.051398,35.513269],[137.052752,35.517079],[137.056466,35.517757],[137.057786,35.521473],[137.060908,35.522684],[137.064285,35.527912],[137.066821,35.529178],[137.069539,35.528692],[137.072144,35.530564],[137.068957,35.529626],[137.07044,35.532037],[137.070294,35.532884],[137.067261,35.531652],[137.067339,35.534664],[137.065264,35.538453],[137.067011,35.541452],[137.068533,35.542614],[137.068646,35.545196],[137.067748,35.547474],[137.059976,35.550961],[137.058747,35.550269],[137.058083,35.550654],[137.057641,35.553002],[137.058994,35.554303],[137.064016,35.553034],[137.064313,35.551206],[137.06838,35.550426],[137.07061,35.550299],[137.076617,35.552197],[137.086426,35.548346],[137.088843,35.546296],[137.094718,35.545027],[137.096611,35.54643],[137.097408,35.548048],[137.094068,35.55117],[137.093724,35.552654],[137.094521,35.553524],[137.098065,35.554869],[137.104432,35.552116],[137.107052,35.549634],[137.105246,35.548803]]]}}]}