{"type":"FeatureCollection","features":[{"type":"Feature","properties":{"municipality_code":"22215"},"geometry":{"type":"Polygon","coordinates":[[[138.895549,35.354174],[138.897811,35.354829],[138.900493,35.35395],[138.902189,35.354592],[138.905099,35.354306],[138.904201,35.352633],[138.901754,35.351619],[138.902147,35.350686],[138.898624,35.348891],[138.895025,35.34882],[138.894658,35.347963],[138.890399,35.349432],[138.888952,35.348657],[138.892374,35.346162],[138.896571,35.34657],[138.8999,35.345218],[138.904838,35.346625],[138.913416,35.346504],[138.914549,35.346249],[138.915031,35.343496],[138.919776,35.343814],[138.926692,35.342193],[138.928596,35.340859],[138.931424,35.341224],[138.932841,35.340213],[138.932841,35.338926],[138.93461,35.338627],[138.937924,35.338649],[138.939049,35.340543],[138.941197,35.340626],[138.941806,35.340306],[138.941771,35.338708],[138.945024,35.337973],[138.944992,35.336051],[138.945887,35.335536],[138.951566,35.336479],[138.951459,35.333672],[138.959285,35.333831],[138.960895,35.333011],[138.961566,35.331735],[138.962541,35.331626],[138.963077,35.332475],[138.963918,35.332148],[138.965868,35.330117],[138.967281,35.330371],[138.967961,35.331386],[138.968372,35.330153],[138.97144,35.330015],[138.969526,35.326823],[138.970573,35.326047],[138.970546,35.324313],[138.967264,35.320461],[138.964697,35.31951],[138.965001,35.315651],[138.96433,35.313866],[138.965574,35.310906],[138.97018,35.306154],[138.972729,35.304667],[138.975359,35.300249],[138.978758,35.29787],[138.981853,35.296702],[138.983776,35.295012],[138.984079,35.293287],[138.989912,35.289775],[138.990771,35.286256],[138.993185,35.284885],[138.989011,35.281202],[138.987637,35.278822],[138.985318,35.277795],[138.982241,35.273324],[138.981911,35.270126],[138.978271,35.267508],[138.975471,35.263753],[138.975658,35.260352],[138.974311,35.256511],[138.975634,35.251739],[138.974395,35.248144],[138.976403,35.244317],[138.976062,35.241703],[138.978739,35.239393],[138.976074,35.235553],[138.970784,35.232084],[138.964029,35.229059],[138.959768,35.228805],[138.95557,35.230048],[138.941474,35.226373],[138.937893,35.226022],[138.934833,35.224101],[138.932887,35.224074],[138.929502,35.222525],[138.929052,35.219586],[138.924224,35.217104],[138.92493,35.216654],[138.924524,35.214817],[138.921976,35.215211],[138.921407,35.216418],[138.922007,35.217623],[138.923276,35.218984],[138.92551,35.219814],[138.925241,35.220788],[138.920471,35.221741],[138.919736,35.220459],[138.917198,35.218859],[138.917046,35.220253],[138.914507,35.222154],[138.913022,35.225552],[138.909923,35.22783],[138.90851,35.227778],[138.90777,35.226949],[138.905147,35.22708],[138.902927,35.229485],[138.900218,35.230524],[138.898957,35.233069],[138.896863,35.234384],[138.89648,35.238919],[138.897799,35.246977],[138.893561,35.251295],[138.888615,35.251608],[138.8846,35.253993],[138.881366,35.261653],[138.881648,35.263894],[138.880025,35.265297],[138.879396,35.267786],[138.875497,35.270161],[138.874291,35.272632],[138.874938,35.276558],[138.876332,35.278089],[138.874749,35.27983],[138.867916,35.282297],[138.867671,35.279624],[138.865531,35.278244],[138.857712,35.275208],[138.853337,35.27574],[138.851215,35.275093],[138.842072,35.270122],[138.838328,35.267334],[138.834971,35.266004],[138.827904,35.26503],[138.825082,35.263764],[138.817463,35.264838],[138.812159,35.264326],[138.810151,35.265983],[138.806635,35.267149],[138.80489,35.269261],[138.798271,35.273108],[138.795991,35.27635],[138.80041,35.28398],[138.799516,35.28671],[138.79642,35.291141],[138.788959,35.292387],[138.785075,35.297144],[138.782471,35.298716],[138.780577,35.298439],[138.777956,35.299719],[138.775781,35.301688],[138.772984,35.306339],[138.773536,35.315292],[138.766207,35.321109],[138.758965,35.32433],[138.756931,35.327096],[138.751925,35.331363],[138.749471,35.331],[138.746296,35.335652],[138.743021,35.33826],[138.739009,35.343312],[138.737322,35.352021],[138.732144,35.359117],[138.731687,35.360136],[138.775181,35.353532],[138.800856,35.352224],[138.825159,35.351964],[138.827927,35.350326],[138.829492,35.350617],[138.834389,35.349563],[138.837226,35.347815],[138.842288,35.348753],[138.844861,35.348113],[138.848174,35.348803],[138.852983,35.348313],[138.859205,35.346245],[138.863459,35.346305],[138.868787,35.340792],[138.871776,35.339018],[138.872249,35.337556],[138.873658,35.336381],[138.877542,35.334687],[138.881147,35.334558],[138.884083,35.332605],[138.884418,35.336073],[138.88013,35.337866],[138.880376,35.338506],[138.88376,35.336966],[138.883983,35.337776],[138.88083,35.339858],[138.884237,35.338322],[138.88624,35.342226],[138.888345,35.349788],[138.887874,35.351223],[138.885653,35.352307],[138.884857,35.354933],[138.886076,35.357129],[138.886186,35.359974],[138.888635,35.361966],[138.887973,35.357924],[138.892836,35.354666],[138.895549,35.354174]]]}}]}