{"type":"FeatureCollection","features":[{"type":"Feature","properties":{"municipality_code":"22216"},"geometry":{"type":"Polygon","coordinates":[[[137.87738,34.815641],[137.879158,34.813616],[137.880315,34.813361],[137.885591,34.814827],[137.890861,34.813554],[137.890566,34.811883],[137.891238,34.810784],[137.890344,34.809393],[137.891351,34.808458],[137.889851,34.80441],[137.89085,34.801394],[137.888715,34.797717],[137.888806,34.794521],[137.887775,34.794132],[137.888201,34.792638],[137.885351,34.791601],[137.886832,34.788201],[137.88396,34.786676],[137.884217,34.784269],[137.885541,34.785758],[137.887968,34.785792],[137.891928,34.787615],[137.89307,34.786549],[137.896643,34.787752],[137.900843,34.793125],[137.902099,34.795869],[137.90401,34.796859],[137.906836,34.797566],[137.907527,34.796494],[137.906463,34.794129],[137.908233,34.793094],[137.910753,34.794701],[137.912664,34.794778],[137.912944,34.795786],[137.915952,34.796995],[137.920407,34.796992],[137.922859,34.799817],[137.922095,34.800724],[137.922384,34.80196],[137.925599,34.807849],[137.929867,34.807692],[137.930388,34.809513],[137.932308,34.810951],[137.932494,34.813192],[137.93395,34.815687],[137.933426,34.817217],[137.935575,34.818395],[137.934835,34.819176],[137.935375,34.820429],[137.938664,34.822195],[137.941002,34.820801],[137.942764,34.818737],[137.941225,34.816068],[137.943261,34.815063],[137.944402,34.812566],[137.943933,34.810525],[137.944819,34.809833],[137.943352,34.805943],[137.942335,34.805328],[137.943036,34.803046],[137.942215,34.800784],[137.939806,34.79761],[137.940132,34.796685],[137.938387,34.794105],[137.938702,34.793394],[137.937293,34.792274],[137.937445,34.790116],[137.940021,34.78643],[137.94416,34.784239],[137.949629,34.778163],[137.952334,34.771911],[137.957229,34.768159],[137.96051,34.767033],[137.962556,34.765438],[137.962937,34.763528],[137.962068,34.763476],[137.960394,34.760457],[137.960732,34.758683],[137.958445,34.758387],[137.957369,34.755879],[137.958668,34.755291],[137.960871,34.755954],[137.961335,34.754775],[137.964463,34.754481],[137.96536,34.753567],[137.965141,34.752932],[137.967034,34.752129],[137.96651,34.751552],[137.968904,34.751627],[137.972492,34.753205],[137.973064,34.751659],[137.972343,34.75026],[137.974133,34.748792],[137.978056,34.746235],[137.980545,34.746843],[137.982994,34.746022],[137.985819,34.743131],[137.992358,34.746765],[137.993469,34.746138],[137.995123,34.746342],[137.995933,34.744012],[138.000353,34.745312],[138.001389,34.744819],[138.002099,34.742046],[138.007876,34.740622],[138.007512,34.73963],[138.009638,34.737244],[138.005001,34.732914],[138.003481,34.732914],[138.002159,34.731651],[137.995581,34.729906],[137.993654,34.728656],[137.986667,34.726943],[137.983986,34.725284],[137.98373,34.723951],[137.978717,34.723206],[137.976643,34.720307],[137.975709,34.715669],[137.978323,34.717538],[137.980155,34.716978],[137.980866,34.716013],[137.981624,34.716991],[137.984597,34.717781],[137.982571,34.714811],[137.978277,34.711413],[137.977992,34.710251],[137.98466,34.710711],[137.985559,34.709865],[137.985454,34.708795],[137.982243,34.7085],[137.975694,34.705155],[137.971006,34.703989],[137.97025,34.702215],[137.964656,34.699706],[137.965177,34.6949],[137.964392,34.692102],[137.961182,34.692181],[137.961111,34.690001],[137.956113,34.690129],[137.954581,34.688947],[137.954596,34.688152],[137.952522,34.688032],[137.955606,34.684443],[137.955173,34.682631],[137.961245,34.679328],[137.963695,34.679266],[137.964797,34.678532],[137.965205,34.675649],[137.967297,34.673636],[137.967698,34.669989],[137.968982,34.668558],[137.97017,34.665356],[137.933371,34.667951],[137.9214,34.667903],[137.916525,34.666987],[137.916793,34.665835],[137.916139,34.6658],[137.916024,34.666869],[137.911932,34.666481],[137.908712,34.673603],[137.908176,34.676346],[137.906717,34.677056],[137.907991,34.67993],[137.908028,34.682722],[137.912379,34.683577],[137.912278,34.686435],[137.910672,34.690861],[137.905708,34.690329],[137.905559,34.690933],[137.904217,34.690585],[137.903929,34.691379],[137.901048,34.690633],[137.899727,34.69352],[137.898396,34.693327],[137.89755,34.694646],[137.89432,34.693818],[137.895124,34.69679],[137.896257,34.698133],[137.897869,34.697361],[137.898949,34.699051],[137.898174,34.699565],[137.900182,34.701539],[137.89765,34.702432],[137.897393,34.706197],[137.900891,34.707949],[137.900875,34.709233],[137.903714,34.710111],[137.902213,34.711758],[137.903159,34.714355],[137.903239,34.718484],[137.898719,34.727141],[137.900612,34.728184],[137.898694,34.732311],[137.9011,34.733095],[137.900199,34.734993],[137.902057,34.735611],[137.897867,34.744575],[137.897458,34.74728],[137.896838,34.747077],[137.895743,34.748753],[137.893233,34.747332],[137.892589,34.745238],[137.890589,34.745531],[137.886453,34.750553],[137.886113,34.753986],[137.887538,34.75731],[137.885648,34.758277],[137.887454,34.758344],[137.887903,34.760309],[137.88936,34.760861],[137.888236,34.763302],[137.887083,34.763294],[137.885899,34.764565],[137.886205,34.765958],[137.88806,34.766416],[137.887271,34.767767],[137.888792,34.76792],[137.888317,34.769911],[137.886258,34.772814],[137.886577,34.774416],[137.88387,34.774625],[137.879252,34.778305],[137.875822,34.778267],[137.87529,34.779025],[137.87267,34.778092],[137.870791,34.779422],[137.869532,34.779017],[137.869713,34.77799],[137.868127,34.777857],[137.864186,34.779047],[137.861075,34.783693],[137.860021,34.787008],[137.860744,34.787853],[137.859654,34.788683],[137.859619,34.789706],[137.858259,34.789677],[137.857431,34.795512],[137.857994,34.795616],[137.856081,34.79713],[137.855961,34.800965],[137.855693,34.801445],[137.85349,34.80082],[137.851298,34.805889],[137.85031,34.806399],[137.850815,34.807806],[137.849849,34.808038],[137.851657,34.811718],[137.854449,34.810455],[137.856445,34.812727],[137.861816,34.814402],[137.862749,34.816038],[137.867846,34.81646],[137.868916,34.817113],[137.869205,34.816161],[137.869777,34.818935],[137.872553,34.822359],[137.874455,34.818653],[137.874271,34.817554],[137.87738,34.815641]]]}}]}