{"type":"FeatureCollection","features":[{"type":"Feature","properties":{"municipality_code":"22344"},"geometry":{"type":"Polygon","coordinates":[[[139.018527,35.329846],[139.018974,35.32906],[139.016464,35.322409],[139.015143,35.320684],[139.012686,35.319706],[139.01291,35.317511],[139.009632,35.313649],[139.010695,35.310598],[139.006067,35.298462],[139.006755,35.295912],[139.004531,35.292861],[139.004611,35.289898],[138.997608,35.28892],[138.993185,35.284885],[138.990771,35.286256],[138.989912,35.289775],[138.984079,35.293287],[138.983776,35.295012],[138.981853,35.296702],[138.978758,35.29787],[138.975359,35.300249],[138.972729,35.304667],[138.97018,35.306154],[138.965574,35.310906],[138.96433,35.313866],[138.965001,35.315651],[138.964697,35.31951],[138.967264,35.320461],[138.970546,35.324313],[138.970573,35.326047],[138.969526,35.326823],[138.97144,35.330015],[138.968372,35.330153],[138.967961,35.331386],[138.967281,35.330371],[138.965868,35.330117],[138.963918,35.332148],[138.963077,35.332475],[138.962541,35.331626],[138.961566,35.331735],[138.960895,35.333011],[138.959285,35.333831],[138.951459,35.333672],[138.951566,35.336479],[138.945887,35.335536],[138.944992,35.336051],[138.945024,35.337973],[138.941771,35.338708],[138.941806,35.340306],[138.941197,35.340626],[138.939049,35.340543],[138.937924,35.338649],[138.93461,35.338627],[138.932841,35.338926],[138.932841,35.340213],[138.931424,35.341224],[138.928596,35.340859],[138.926692,35.342193],[138.919776,35.343814],[138.915031,35.343496],[138.914549,35.346249],[138.913416,35.346504],[138.904838,35.346625],[138.8999,35.345218],[138.896571,35.34657],[138.892374,35.346162],[138.888952,35.348657],[138.890399,35.349432],[138.894658,35.347963],[138.895025,35.34882],[138.898624,35.348891],[138.902147,35.350686],[138.901754,35.351619],[138.904201,35.352633],[138.905099,35.354306],[138.902189,35.354592],[138.900493,35.35395],[138.897811,35.354829],[138.895549,35.354174],[138.892836,35.354666],[138.887973,35.357924],[138.888635,35.361966],[138.886186,35.359974],[138.886076,35.357129],[138.884857,35.354933],[138.885653,35.352307],[138.887874,35.351223],[138.888345,35.349788],[138.88624,35.342226],[138.884237,35.338322],[138.88083,35.339858],[138.883983,35.337776],[138.88376,35.336966],[138.880376,35.338506],[138.88013,35.337866],[138.884418,35.336073],[138.884083,35.332605],[138.881147,35.334558],[138.877542,35.334687],[138.873658,35.336381],[138.872249,35.337556],[138.871776,35.339018],[138.868787,35.340792],[138.863459,35.346305],[138.859205,35.346245],[138.852983,35.348313],[138.848174,35.348803],[138.844861,35.348113],[138.842288,35.348753],[138.837226,35.347815],[138.834389,35.349563],[138.829492,35.350617],[138.827927,35.350326],[138.825159,35.351964],[138.800856,35.352224],[138.775181,35.353532],[138.731687,35.360136],[138.730781,35.362799],[138.799104,35.376644],[138.810343,35.375575],[138.817481,35.376408],[138.819718,35.375872],[138.821749,35.374088],[138.82916,35.378113],[138.832686,35.383238],[138.843739,35.386596],[138.849743,35.390066],[138.851836,35.390414],[138.853487,35.388706],[138.856341,35.387999],[138.862401,35.39008],[138.86758,35.386061],[138.874262,35.379174],[138.873463,35.381709],[138.878911,35.385843],[138.887941,35.386353],[138.888893,35.387793],[138.892649,35.390371],[138.898641,35.392015],[138.902866,35.396332],[138.910936,35.397737],[138.913919,35.40015],[138.916402,35.400614],[138.923011,35.401257],[138.925797,35.400265],[138.931151,35.401134],[138.937733,35.399149],[138.941097,35.399695],[138.943255,35.399188],[138.945733,35.399719],[138.948036,35.40127],[138.951484,35.401726],[138.957,35.401388],[138.959055,35.402308],[138.962726,35.4014],[138.966611,35.40193],[138.969054,35.404754],[138.971819,35.405176],[138.981273,35.404337],[138.98407,35.401772],[138.993932,35.403475],[138.999908,35.401652],[139.001787,35.398806],[139.000848,35.395511],[139.000957,35.39191],[138.998616,35.384041],[138.999296,35.382094],[139.000697,35.381842],[139.001447,35.379861],[139.005915,35.375385],[139.004548,35.373737],[139.00573,35.371739],[139.006628,35.368438],[139.006141,35.367727],[139.007501,35.364395],[139.006838,35.361386],[139.00881,35.359044],[139.010496,35.359861],[139.013352,35.35867],[139.012316,35.358163],[139.011813,35.355426],[139.008361,35.351372],[139.008114,35.350304],[139.009456,35.348435],[139.008621,35.347094],[139.011017,35.343639],[139.009998,35.341726],[139.011071,35.340689],[139.010589,35.338411],[139.016455,35.33269],[139.017295,35.330393],[139.018527,35.329846]]]}}]}