{"type":"FeatureCollection","features":[{"type":"Feature","properties":{"municipality_code":"23233"},"geometry":{"type":"Polygon","coordinates":[[[136.843184,35.251769],[136.844211,35.248976],[136.842323,35.249043],[136.842219,35.248003],[136.840681,35.247811],[136.84003,35.24605],[136.83919,35.246103],[136.842524,35.240318],[136.842101,35.239488],[136.843639,35.237307],[136.848905,35.237581],[136.849185,35.239556],[136.850122,35.240297],[136.850847,35.237879],[136.858179,35.231263],[136.857867,35.230561],[136.855719,35.230583],[136.856935,35.218542],[136.857572,35.218777],[136.858018,35.217232],[136.860357,35.215227],[136.864016,35.215268],[136.863874,35.213636],[136.864642,35.213329],[136.86019,35.207972],[136.863605,35.207116],[136.864317,35.205886],[136.864686,35.206949],[136.865686,35.206894],[136.868373,35.211912],[136.871627,35.211171],[136.872763,35.209906],[136.877987,35.209455],[136.8789,35.208794],[136.87928,35.206865],[136.876502,35.204337],[136.869841,35.194002],[136.86593,35.191661],[136.856956,35.188623],[136.847981,35.180558],[136.845776,35.180643],[136.844822,35.181211],[136.845384,35.182079],[136.844396,35.182572],[136.845205,35.187052],[136.844336,35.188215],[136.846006,35.188414],[136.844307,35.190941],[136.844719,35.192345],[136.844064,35.19357],[136.841663,35.193983],[136.837701,35.196813],[136.839353,35.199382],[136.837724,35.201847],[136.838686,35.203412],[136.838113,35.204798],[136.822979,35.204124],[136.82274,35.215344],[136.825145,35.215606],[136.824734,35.217144],[136.826364,35.217519],[136.826155,35.221962],[136.833374,35.221775],[136.834963,35.222355],[136.836361,35.227149],[136.833915,35.229436],[136.834834,35.230099],[136.83707,35.228003],[136.838069,35.228516],[136.838005,35.229149],[136.838961,35.229046],[136.833109,35.232955],[136.829801,35.236615],[136.829089,35.239313],[136.829799,35.240519],[136.829035,35.243209],[136.834084,35.246679],[136.834629,35.248565],[136.836772,35.250641],[136.840099,35.250467],[136.840776,35.250603],[136.840499,35.251847],[136.843184,35.251769]]]}}]}