{"type":"FeatureCollection","features":[{"type":"Feature","properties":{},"geometry":{"type":"Polygon","coordinates":[[[137.097494,35.144651],[137.098373,35.144426],[137.098011,35.142007],[137.098552,35.14106],[137.103622,35.136087],[137.104936,35.131586],[137.108614,35.130958],[137.109517,35.129573],[137.112835,35.131663],[137.11527,35.131258],[137.120554,35.125071],[137.124639,35.124484],[137.128085,35.123043],[137.13008,35.119618],[137.129652,35.118651],[137.130253,35.117786],[137.127481,35.117653],[137.125312,35.115772],[137.12335,35.115908],[137.12087,35.114938],[137.118564,35.108983],[137.117374,35.109108],[137.116141,35.10423],[137.111988,35.102593],[137.113662,35.099706],[137.111587,35.096655],[137.113908,35.095577],[137.112522,35.091806],[137.111126,35.091614],[137.109573,35.090138],[137.104841,35.083947],[137.105889,35.082875],[137.10209,35.072473],[137.10372,35.068937],[137.102212,35.064217],[137.096786,35.061121],[137.096176,35.059518],[137.089659,35.061579],[137.086874,35.061252],[137.084541,35.062701],[137.085032,35.059691],[137.083497,35.058499],[137.082435,35.058921],[137.079921,35.05831],[137.079531,35.059025],[137.076614,35.057427],[137.075458,35.058006],[137.074506,35.056823],[137.073357,35.056963],[137.073619,35.055884],[137.07229,35.056262],[137.07117,35.055044],[137.069343,35.057101],[137.06839,35.057292],[137.068734,35.061649],[137.063534,35.062926],[137.060897,35.065069],[137.061426,35.066084],[137.058247,35.065753],[137.056044,35.066915],[137.053616,35.065077],[137.050627,35.064244],[137.045584,35.067374],[137.045946,35.068087],[137.044703,35.068106],[137.045045,35.069205],[137.046829,35.070417],[137.049877,35.075668],[137.051022,35.079582],[137.054788,35.086871],[137.055994,35.091308],[137.065969,35.096608],[137.068589,35.095621],[137.070124,35.096178],[137.071228,35.095595],[137.073297,35.097214],[137.075281,35.097212],[137.076813,35.098537],[137.081689,35.097357],[137.087144,35.100058],[137.087929,35.101226],[137.087899,35.104111],[137.085299,35.104859],[137.086685,35.108386],[137.086851,35.113874],[137.088176,35.116074],[137.087759,35.118187],[137.089282,35.123378],[137.086993,35.124854],[137.084454,35.125341],[137.084654,35.12762],[137.086245,35.128176],[137.087423,35.127698],[137.088887,35.128614],[137.08946,35.129906],[137.091407,35.130171],[137.090662,35.132322],[137.087174,35.13532],[137.08684,35.137738],[137.090752,35.141131],[137.092258,35.140963],[137.092814,35.142397],[137.094982,35.14416],[137.097494,35.144651]]]}}]}