{"type":"FeatureCollection","features":[{"type":"Feature","properties":{},"geometry":{"type":"Polygon","coordinates":[[[137.072181,35.191377],[137.074358,35.190496],[137.076011,35.190844],[137.077527,35.189277],[137.078821,35.189693],[137.079792,35.188901],[137.080779,35.189319],[137.081737,35.188742],[137.084679,35.190059],[137.087044,35.186861],[137.086836,35.184919],[137.087632,35.183398],[137.090549,35.182043],[137.092116,35.179442],[137.09567,35.179388],[137.097586,35.176569],[137.096243,35.174233],[137.097516,35.173393],[137.096607,35.169398],[137.094811,35.167684],[137.096075,35.166729],[137.095234,35.164898],[137.095614,35.163921],[137.094781,35.16297],[137.095336,35.161633],[137.094699,35.160122],[137.096122,35.157175],[137.092501,35.157908],[137.088107,35.157223],[137.085152,35.158239],[137.083913,35.157303],[137.081485,35.158956],[137.07581,35.158151],[137.062212,35.160968],[137.059221,35.162398],[137.05858,35.163424],[137.059105,35.163948],[137.058253,35.165124],[137.059716,35.167773],[137.058407,35.169019],[137.055624,35.167663],[137.051034,35.166927],[137.049641,35.168294],[137.048067,35.167788],[137.044387,35.163021],[137.042317,35.16338],[137.040694,35.16285],[137.039468,35.160889],[137.035944,35.160404],[137.033023,35.157456],[137.031738,35.154744],[137.029512,35.155789],[137.028293,35.155281],[137.02702,35.156174],[137.025099,35.158076],[137.024233,35.162638],[137.022857,35.163128],[137.026423,35.166891],[137.027482,35.169315],[137.025427,35.170452],[137.024781,35.171628],[137.025343,35.173183],[137.022075,35.173966],[137.022745,35.17522],[137.026104,35.175445],[137.026844,35.179403],[137.025614,35.181636],[137.02616,35.184114],[137.024749,35.18607],[137.01792,35.188306],[137.020007,35.190708],[137.024253,35.191212],[137.028358,35.19014],[137.032258,35.191812],[137.035935,35.192541],[137.038646,35.191552],[137.042267,35.192654],[137.043536,35.191175],[137.045653,35.191837],[137.046804,35.193859],[137.049829,35.19474],[137.050778,35.193894],[137.053103,35.194101],[137.054637,35.192646],[137.059424,35.191084],[137.061585,35.192429],[137.063626,35.192405],[137.067054,35.195893],[137.072181,35.191377]]]}}]}