{"type":"FeatureCollection","features":[{"type":"Feature","properties":{},"geometry":{"type":"Polygon","coordinates":[[[136.380152,35.285544],[136.380834,35.28407],[136.385249,35.286839],[136.391729,35.287111],[136.393252,35.285999],[136.395961,35.280229],[136.39585,35.274764],[136.394463,35.271039],[136.394838,35.267091],[136.394001,35.265198],[136.394562,35.26426],[136.393541,35.261913],[136.39454,35.258982],[136.396962,35.257731],[136.394496,35.255097],[136.39388,35.253391],[136.389154,35.249767],[136.385127,35.248338],[136.380962,35.248628],[136.379215,35.247505],[136.378576,35.245417],[136.379043,35.244561],[136.37729,35.243161],[136.379743,35.240938],[136.383613,35.239667],[136.38533,35.237002],[136.385686,35.235115],[136.39205,35.234181],[136.393829,35.230806],[136.392472,35.22982],[136.398584,35.228047],[136.399297,35.225868],[136.400864,35.225931],[136.401861,35.225016],[136.403146,35.225395],[136.404796,35.224056],[136.408389,35.223622],[136.410726,35.221484],[136.41201,35.218447],[136.415131,35.217744],[136.416799,35.214389],[136.415923,35.206441],[136.416269,35.205257],[136.418003,35.203778],[136.414454,35.20074],[136.412623,35.195911],[136.412707,35.192053],[136.408653,35.187183],[136.405129,35.187939],[136.403319,35.18759],[136.395867,35.19234],[136.395345,35.193825],[136.389085,35.196796],[136.388233,35.195539],[136.387572,35.190772],[136.386257,35.190894],[136.383567,35.189109],[136.379463,35.189449],[136.378755,35.187226],[136.376461,35.186021],[136.376324,35.183865],[136.375073,35.181799],[136.375839,35.179496],[136.374484,35.177452],[136.376154,35.175276],[136.376251,35.174042],[136.375112,35.173373],[136.376148,35.171202],[136.375919,35.169513],[136.377293,35.167283],[136.379457,35.165625],[136.38039,35.162182],[136.385317,35.159622],[136.386643,35.156562],[136.390297,35.155284],[136.391182,35.153702],[136.391182,35.150932],[136.388441,35.147947],[136.388284,35.146565],[136.386628,35.144585],[136.383119,35.143651],[136.379256,35.140292],[136.37755,35.140517],[136.374468,35.139235],[136.372001,35.139123],[136.368506,35.136095],[136.363793,35.134939],[136.359241,35.136491],[136.356613,35.134116],[136.354724,35.131104],[136.353036,35.131942],[136.350659,35.131932],[136.349034,35.133223],[136.347245,35.133138],[136.343051,35.135905],[136.340713,35.136057],[136.340481,35.138931],[136.339574,35.13879],[136.338698,35.139894],[136.337153,35.139653],[136.335683,35.142954],[136.335868,35.143918],[136.333859,35.146769],[136.334514,35.148116],[136.332346,35.149721],[136.332307,35.150558],[136.328685,35.152416],[136.327649,35.154382],[136.324864,35.153661],[136.323695,35.154439],[136.320349,35.154343],[136.316099,35.155543],[136.313581,35.154763],[136.311334,35.155774],[136.309534,35.157596],[136.308171,35.161307],[136.306815,35.162836],[136.302711,35.164114],[136.301062,35.16519],[136.300331,35.16664],[136.296654,35.166343],[136.295197,35.16741],[136.295781,35.172051],[136.294416,35.172886],[136.293426,35.175739],[136.292974,35.18045],[136.290471,35.182584],[136.28801,35.187884],[136.288174,35.18979],[136.290538,35.191034],[136.290608,35.192371],[136.289023,35.194992],[136.286967,35.195351],[136.287548,35.196012],[136.285603,35.197642],[136.286944,35.199514],[136.289131,35.199829],[136.284354,35.200963],[136.281502,35.203074],[136.278702,35.205789],[136.273047,35.215313],[136.265621,35.222381],[136.257687,35.228375],[136.258779,35.229576],[136.259859,35.230148],[136.260747,35.229659],[136.261465,35.230498],[136.267329,35.227455],[136.266624,35.226558],[136.267885,35.225853],[136.268729,35.225581],[136.270003,35.226522],[136.271426,35.225751],[136.272213,35.226046],[136.274979,35.229534],[136.269889,35.232544],[136.272116,35.235566],[136.271439,35.235965],[136.273264,35.238951],[136.27465,35.240324],[136.275092,35.23919],[136.2761,35.238986],[136.279368,35.242368],[136.281731,35.240416],[136.28525,35.24035],[136.285648,35.241048],[136.288017,35.2413],[136.289035,35.244011],[136.291407,35.245947],[136.294346,35.245387],[136.294461,35.246587],[136.296917,35.249133],[136.29671,35.253015],[136.300638,35.257221],[136.30389,35.255647],[136.304971,35.255845],[136.304631,35.257139],[136.307726,35.257681],[136.312926,35.261699],[136.314094,35.263809],[136.316613,35.265647],[136.319719,35.265504],[136.320032,35.266508],[136.319406,35.267238],[136.320967,35.267689],[136.325447,35.267226],[136.329254,35.26529],[136.33384,35.265628],[136.336423,35.263983],[136.338635,35.263963],[136.345351,35.26863],[136.348015,35.269226],[136.350815,35.268234],[136.351594,35.269584],[136.351525,35.27413],[136.355514,35.274787],[136.357529,35.276638],[136.357709,35.277625],[136.362516,35.279667],[136.36405,35.281121],[136.369922,35.282022],[136.373722,35.286195],[136.37708,35.287669],[136.378126,35.285972],[136.380152,35.285544]]]}}]}