{"type":"FeatureCollection","features":[{"type":"Feature","properties":{"municipality_code":"28108"},"geometry":{"type":"Polygon","coordinates":[[[135.084566,34.676881],[135.084271,34.676161],[135.080922,34.674273],[135.082807,34.670309],[135.080616,34.669653],[135.078159,34.670414],[135.076745,34.669227],[135.078218,34.667611],[135.077954,34.666847],[135.075919,34.666842],[135.077095,34.664565],[135.077604,34.664276],[135.077894,34.66515],[135.078773,34.665319],[135.080378,34.66456],[135.082228,34.664779],[135.083866,34.667033],[135.084765,34.666842],[135.086311,34.662644],[135.087031,34.662218],[135.086978,34.66033],[135.089059,34.657338],[135.09188,34.656733],[135.095421,34.654003],[135.096379,34.65295],[135.095507,34.652022],[135.09848,34.651645],[135.100383,34.653098],[135.101479,34.652],[135.099134,34.649008],[135.099458,34.647207],[135.095402,34.645346],[135.09451,34.642097],[135.092904,34.640362],[135.093793,34.636761],[135.092943,34.635585],[135.093149,34.634723],[135.086925,34.633819],[135.085366,34.633672],[135.082379,34.632521],[135.082427,34.630917],[135.081752,34.630909],[135.081554,34.631838],[135.080088,34.631861],[135.074621,34.630899],[135.074519,34.628321],[135.06008,34.625576],[135.058998,34.627475],[135.057955,34.627402],[135.058269,34.624757],[135.057742,34.62441],[135.056486,34.624366],[135.056339,34.625649],[135.053517,34.625078],[135.057398,34.626374],[135.057294,34.627226],[135.055044,34.627034],[135.05437,34.626209],[135.053668,34.626385],[135.053912,34.626862],[135.051905,34.626775],[135.051063,34.626585],[135.05165,34.624438],[135.046847,34.624751],[135.047593,34.62566],[135.046101,34.624793],[135.044098,34.625218],[135.043773,34.625954],[135.036403,34.628613],[135.037032,34.629351],[135.035258,34.630397],[135.03463,34.629662],[135.031874,34.631287],[135.032768,34.632326],[135.028972,34.636379],[135.027641,34.636552],[135.028051,34.637071],[135.02666,34.637897],[135.027022,34.636866],[135.024315,34.640034],[135.018717,34.643138],[135.020116,34.647397],[135.029115,34.654668],[135.032505,34.65844],[135.030913,34.659583],[135.032659,34.662347],[135.037198,34.665517],[135.036408,34.666347],[135.036792,34.66721],[135.039427,34.668102],[135.040455,34.669179],[135.04013,34.670082],[135.042177,34.668859],[135.041775,34.668094],[135.04359,34.668619],[135.045217,34.671502],[135.04706,34.672029],[135.047442,34.673453],[135.050313,34.675626],[135.058726,34.673192],[135.061616,34.674375],[135.064748,34.676872],[135.065562,34.676566],[135.065129,34.675916],[135.065739,34.675043],[135.068042,34.67519],[135.069551,34.674174],[135.070169,34.674562],[135.073502,34.673667],[135.075043,34.672516],[135.075865,34.672799],[135.076482,34.674781],[135.078611,34.677051],[135.080374,34.676967],[135.083472,34.6783],[135.084566,34.676881]]]}}]}