{"type":"FeatureCollection","features":[{"type":"Feature","properties":{"municipality_code":"29343"},"geometry":{"type":"Polygon","coordinates":[[[135.709896,34.609726],[135.709609,34.608023],[135.708785,34.607858],[135.709934,34.607627],[135.710109,34.605159],[135.711743,34.604911],[135.712126,34.604202],[135.710813,34.603492],[135.711595,34.601576],[135.711274,34.599633],[135.709296,34.598964],[135.707059,34.600848],[135.699715,34.600994],[135.697607,34.600349],[135.695937,34.598915],[135.694628,34.596195],[135.696476,34.593357],[135.696115,34.592339],[135.681759,34.584778],[135.680483,34.585184],[135.680009,34.587507],[135.677996,34.587984],[135.67708,34.589201],[135.679151,34.591166],[135.677635,34.59125],[135.678219,34.591703],[135.677678,34.592344],[135.677981,34.593913],[135.676451,34.596207],[135.676119,34.598652],[135.674864,34.599816],[135.675694,34.601739],[135.671097,34.603746],[135.669178,34.602869],[135.661169,34.601912],[135.654054,34.603076],[135.652286,34.603947],[135.651793,34.60681],[135.650186,34.607642],[135.650735,34.609715],[135.653087,34.610612],[135.653224,34.611263],[135.656738,34.611594],[135.657387,34.613526],[135.658766,34.614732],[135.661406,34.612342],[135.665577,34.612536],[135.665952,34.611342],[135.669091,34.608208],[135.67451,34.605977],[135.676083,34.60697],[135.673935,34.606229],[135.672735,34.608415],[135.673853,34.608519],[135.674452,34.610285],[135.676934,34.612668],[135.684265,34.614379],[135.687635,34.613231],[135.689569,34.611057],[135.683399,34.611254],[135.687108,34.610407],[135.684872,34.60889],[135.686769,34.608992],[135.69024,34.61076],[135.690392,34.613549],[135.694591,34.614822],[135.694526,34.615848],[135.696143,34.616027],[135.699072,34.615612],[135.701944,34.613987],[135.703012,34.611127],[135.709896,34.609726]]]}}]}