{"type":"FeatureCollection","features":[{"type":"Feature","properties":{},"geometry":{"type":"Polygon","coordinates":[[[135.78627,34.597575],[135.786403,34.595846],[135.790128,34.594633],[135.790305,34.59075],[135.795099,34.590665],[135.795089,34.588206],[135.793194,34.585764],[135.791552,34.586917],[135.791575,34.585977],[135.789989,34.584719],[135.789,34.584703],[135.788811,34.585664],[135.786617,34.585622],[135.786576,34.580045],[135.775841,34.580042],[135.775649,34.579478],[135.772116,34.580652],[135.770988,34.579691],[135.766153,34.579977],[135.765616,34.579294],[135.760194,34.578636],[135.759561,34.578708],[135.75912,34.580586],[135.756778,34.580657],[135.756781,34.581469],[135.75572,34.581477],[135.755695,34.580532],[135.750895,34.580546],[135.750523,34.581618],[135.751237,34.58484],[135.753103,34.585715],[135.75231,34.586989],[135.751195,34.587254],[135.75031,34.590644],[135.751628,34.591957],[135.754204,34.589294],[135.756044,34.588986],[135.757487,34.592253],[135.761573,34.59192],[135.762497,34.59535],[135.767509,34.59713],[135.769742,34.597426],[135.774627,34.595529],[135.777747,34.595514],[135.77822,34.596466],[135.782137,34.596482],[135.782263,34.59756],[135.78627,34.597575]]]}}]}