{"type":"FeatureCollection","features":[{"type":"Feature","properties":{},"geometry":{"type":"Polygon","coordinates":[[[135.780563,34.462554],[135.782725,34.463128],[135.782441,34.463864],[135.783098,34.464294],[135.786741,34.465375],[135.788437,34.467261],[135.791098,34.466253],[135.794535,34.468561],[135.796579,34.468319],[135.797858,34.469136],[135.798708,34.468074],[135.799734,34.469499],[135.80618,34.469039],[135.808251,34.47077],[135.80856,34.472418],[135.807829,34.475415],[135.808705,34.476501],[135.80748,34.482392],[135.809272,34.482147],[135.809959,34.483935],[135.812147,34.483792],[135.811393,34.485133],[135.812467,34.485494],[135.810496,34.489791],[135.812039,34.490328],[135.81217,34.489186],[135.812964,34.489281],[135.811744,34.492106],[135.809696,34.492343],[135.809499,34.495516],[135.811958,34.493344],[135.814699,34.493109],[135.814806,34.492305],[135.815857,34.492349],[135.816249,34.489791],[135.817004,34.489159],[135.818298,34.48945],[135.818265,34.490209],[135.820842,34.489685],[135.821913,34.488637],[135.822008,34.48644],[135.822802,34.488731],[135.824306,34.489488],[135.825139,34.489298],[135.825047,34.48813],[135.826552,34.486311],[135.827045,34.484204],[135.826312,34.483382],[135.823743,34.483285],[135.823905,34.482267],[135.831796,34.479047],[135.833169,34.475794],[135.837645,34.473633],[135.83972,34.472087],[135.839887,34.471253],[135.848872,34.470824],[135.848994,34.469702],[135.846956,34.467767],[135.849402,34.467107],[135.849878,34.465021],[135.852166,34.465066],[135.850921,34.463268],[135.85619,34.460982],[135.857271,34.458214],[135.858663,34.458014],[135.858237,34.460742],[135.85945,34.457725],[135.861617,34.458456],[135.869041,34.458536],[135.865259,34.457175],[135.863867,34.454559],[135.861816,34.452782],[135.865491,34.446279],[135.867304,34.445516],[135.867237,34.443277],[135.865113,34.443198],[135.863301,34.441984],[135.86108,34.442386],[135.859889,34.441809],[135.858089,34.440443],[135.857504,34.437917],[135.854846,34.436015],[135.855145,34.434675],[135.850338,34.432841],[135.846763,34.428959],[135.845623,34.430526],[135.842467,34.43194],[135.842046,34.434274],[135.840386,34.433939],[135.838027,34.435903],[135.836074,34.436287],[135.835873,34.43802],[135.833548,34.439962],[135.830105,34.44227],[135.829177,34.441571],[135.829498,34.442242],[135.82729,34.44375],[135.825678,34.443503],[135.826513,34.444412],[135.826177,34.44498],[135.824418,34.444852],[135.820823,34.446327],[135.820205,34.444746],[135.816223,34.444516],[135.813174,34.44192],[135.810828,34.442415],[135.81073,34.443165],[135.808759,34.441924],[135.809029,34.442806],[135.807264,34.444216],[135.806378,34.443685],[135.808381,34.441537],[135.805351,34.443174],[135.805266,34.44411],[135.803743,34.444483],[135.802842,34.44571],[135.803216,34.447774],[135.802023,34.449157],[135.803339,34.451104],[135.803145,34.451941],[135.802298,34.452475],[135.802018,34.453981],[135.798334,34.456187],[135.797294,34.458858],[135.797651,34.46027],[135.796789,34.460466],[135.795553,34.45944],[135.791279,34.459344],[135.789097,34.458327],[135.788577,34.459049],[135.780814,34.460557],[135.780563,34.462554]]]}}]}