{"type":"FeatureCollection","features":[{"type":"Feature","properties":{},"geometry":{"type":"MultiPolygon","coordinates":[[[[135.944733,33.578251],[135.945361,33.57767],[135.945197,33.577007],[135.944852,33.577538],[135.944733,33.578251]]],[[[135.961314,33.582094],[135.961109,33.581514],[135.960569,33.581522],[135.961314,33.582094]]],[[[135.962403,33.594975],[135.961938,33.595719],[135.962538,33.595789],[135.962403,33.594975]]],[[[135.962403,33.594975],[135.960723,33.593758],[135.960825,33.59224],[135.962073,33.591858],[135.959862,33.590415],[135.958774,33.587065],[135.959396,33.585426],[135.957574,33.584092],[135.959367,33.583002],[135.959817,33.582508],[135.959596,33.581975],[135.958565,33.581512],[135.957922,33.58076],[135.956756,33.580067],[135.955124,33.579369],[135.9539,33.578009],[135.952272,33.578484],[135.951228,33.577792],[135.950367,33.578926],[135.949471,33.578637],[135.947368,33.57965],[135.946676,33.579042],[135.945434,33.579375],[135.944733,33.578251],[135.942645,33.579329],[135.939799,33.578152],[135.939158,33.579106],[135.937114,33.579354],[135.936862,33.580397],[135.939214,33.584678],[135.933184,33.587214],[135.933138,33.58831],[135.933907,33.588479],[135.936676,33.587706],[135.936359,33.588868],[135.93524,33.588946],[135.93433,33.590132],[135.930654,33.588211],[135.92796,33.588811],[135.926073,33.586973],[135.922925,33.586864],[135.925113,33.589389],[135.925253,33.590684],[135.923072,33.592134],[135.922263,33.594656],[135.921535,33.594823],[135.921671,33.596041],[135.922639,33.596439],[135.921989,33.598756],[135.924363,33.600197],[135.928918,33.598158],[135.929255,33.599764],[135.93275,33.599582],[135.931378,33.598782],[135.931349,33.597207],[135.930346,33.596639],[135.930796,33.595386],[135.932185,33.595294],[135.934218,33.593109],[135.936163,33.59369],[135.936233,33.594488],[135.93507,33.595189],[135.936768,33.595754],[135.93575,33.596823],[135.936194,33.598782],[135.945067,33.604881],[135.944733,33.60426],[135.945294,33.603943],[135.948056,33.604181],[135.948671,33.603384],[135.948538,33.602072],[135.947865,33.602771],[135.946332,33.602745],[135.946179,33.602062],[135.947754,33.602033],[135.947527,33.599999],[135.945374,33.599711],[135.945249,33.599028],[135.947197,33.599],[135.946236,33.596378],[135.948209,33.594887],[135.947598,33.593682],[135.948887,33.593838],[135.948318,33.593038],[135.94885,33.592179],[135.946715,33.592223],[135.944424,33.593929],[135.94282,33.593749],[135.945576,33.5927],[135.945463,33.59078],[135.946814,33.590528],[135.948547,33.590559],[135.950086,33.5907],[135.950455,33.589664],[135.955896,33.591672],[135.960625,33.594919],[135.961255,33.595451],[135.962403,33.594975]]],[[[135.930747,33.618721],[135.935587,33.616746],[135.936552,33.617244],[135.93671,33.616374],[135.93847,33.616012],[135.938969,33.614413],[135.938059,33.614622],[135.938121,33.613657],[135.935673,33.615206],[135.934441,33.614152],[135.935798,33.612601],[135.933626,33.613449],[135.932501,33.612254],[135.933709,33.611199],[135.929394,33.610527],[135.928045,33.609481],[135.928815,33.611548],[135.927771,33.612866],[135.927954,33.614335],[135.930711,33.616679],[135.930747,33.618721]]]]}}]}