{"type":"FeatureCollection","features":[{"type":"Feature","properties":{},"geometry":{"type":"Polygon","coordinates":[[[133.51047,35.190114],[133.511615,35.189745],[133.513543,35.189947],[133.514756,35.190991],[133.516174,35.190718],[133.517211,35.187342],[133.51878,35.186463],[133.519319,35.182822],[133.521085,35.182063],[133.523345,35.183423],[133.526111,35.182886],[133.526711,35.179697],[133.529766,35.177321],[133.535609,35.176114],[133.535839,35.175245],[133.534399,35.173681],[133.534271,35.170775],[133.538035,35.170733],[133.539573,35.168545],[133.5413,35.168044],[133.541445,35.163372],[133.54069,35.161958],[133.535789,35.157766],[133.538247,35.151601],[133.545503,35.151541],[133.548405,35.150492],[133.554095,35.151601],[133.556523,35.148844],[133.560115,35.14876],[133.561494,35.147865],[133.564269,35.149198],[133.568001,35.149079],[133.569046,35.147564],[133.5732,35.144656],[133.577329,35.144752],[133.579846,35.142071],[133.581415,35.142106],[133.58185,35.1412],[133.584803,35.14065],[133.588638,35.138358],[133.590554,35.138227],[133.591208,35.136724],[133.588034,35.130693],[133.58791,35.12864],[133.586112,35.127482],[133.586084,35.124801],[133.584545,35.122478],[133.583796,35.116038],[133.582768,35.113887],[133.580027,35.112241],[133.575687,35.112003],[133.575181,35.111053],[133.575792,35.108203],[133.574227,35.10317],[133.574242,35.100048],[133.575941,35.098035],[133.576057,35.09615],[133.574603,35.095345],[133.574835,35.093926],[133.576315,35.092724],[133.576286,35.09078],[133.578978,35.089729],[133.579458,35.087761],[133.580663,35.086735],[133.583174,35.087034],[133.584509,35.08639],[133.584306,35.08552],[133.58696,35.082767],[133.58902,35.081884],[133.589281,35.080388],[133.588382,35.075169],[133.589513,35.0725],[133.586822,35.069016],[133.587475,35.068002],[133.587229,35.064006],[133.587895,35.063266],[133.587605,35.061216],[133.586057,35.058581],[133.586695,35.055459],[133.585143,35.054791],[133.585477,35.05346],[133.586782,35.052863],[133.586738,35.051862],[133.588754,35.050884],[133.588508,35.048854],[133.59077,35.048066],[133.591104,35.046706],[133.590553,35.045636],[133.588827,35.045146],[133.584091,35.041488],[133.583656,35.039558],[133.584511,35.03812],[133.584033,35.037119],[133.584526,35.036141],[133.582945,35.033547],[133.584207,35.032914],[133.584135,35.031138],[133.588888,35.028404],[133.588976,35.026043],[133.58754,35.024696],[133.587728,35.023897],[133.588917,35.024373],[133.594887,35.021956],[133.599165,35.022064],[133.600397,35.020109],[133.597874,35.017106],[133.598353,35.015961],[133.599716,35.015411],[133.599029,35.013728],[133.596868,35.013407],[133.596113,35.011874],[133.595098,35.011635],[133.593767,35.007987],[133.589199,35.007319],[133.587101,35.005065],[133.585228,35.000179],[133.583113,34.999571],[133.582969,34.998676],[133.584081,34.996544],[133.587138,34.995709],[133.588161,34.993377],[133.589044,34.992971],[133.590507,34.9929],[133.591916,34.994103],[133.592292,34.996692],[133.594436,34.999711],[133.597322,35.001405],[133.599003,35.001121],[133.599897,34.999165],[133.603247,34.996964],[133.606348,34.995974],[133.607854,34.994439],[133.608434,34.990098],[133.606225,34.988334],[133.601227,34.989493],[133.60141,34.986169],[133.605632,34.983217],[133.609428,34.982167],[133.611914,34.980581],[133.612824,34.979114],[133.610176,34.978757],[133.610391,34.977493],[133.614794,34.976277],[133.619158,34.972696],[133.618318,34.968613],[133.622013,34.962014],[133.615644,34.961764],[133.609618,34.960388],[133.607076,34.958419],[133.60799,34.956904],[133.607425,34.955973],[133.604425,34.954435],[133.601093,34.954734],[133.600018,34.956567],[133.600743,34.958641],[133.599976,34.959274],[133.596686,34.958726],[133.59553,34.95709],[133.598559,34.953786],[133.601024,34.952873],[133.599042,34.95141],[133.590813,34.951171],[133.589916,34.950073],[133.589857,34.947943],[133.585248,34.9478],[133.584179,34.947072],[133.584918,34.944877],[133.584606,34.942652],[133.586329,34.939709],[133.589064,34.938328],[133.590093,34.936491],[133.589237,34.935074],[133.589409,34.933643],[133.586729,34.931711],[133.58599,34.929479],[133.584892,34.929121],[133.583907,34.930314],[133.581386,34.931066],[133.579887,34.930624],[133.579454,34.929396],[133.577807,34.929502],[133.577097,34.930242],[133.575286,34.929228],[133.573273,34.930803],[133.572187,34.930266],[133.572262,34.928766],[133.568379,34.92904],[133.569254,34.924592],[133.568965,34.924019],[133.566588,34.924425],[133.568167,34.922016],[133.56811,34.921005],[133.56685,34.919478],[133.565143,34.91949],[133.565996,34.917701],[133.561588,34.914406],[133.564896,34.908173],[133.567154,34.907423],[133.567226,34.906648],[133.565809,34.905813],[133.56727,34.901648],[133.56976,34.897926],[133.569007,34.897317],[133.566084,34.897961],[133.564028,34.896721],[133.564318,34.89463],[133.56588,34.892865],[133.564465,34.886159],[133.561701,34.886874],[133.554502,34.884447],[133.553145,34.882133],[133.550772,34.882407],[133.550264,34.880797],[133.546443,34.882658],[133.54588,34.881834],[133.543506,34.881883],[133.542026,34.880498],[133.539971,34.879973],[133.538988,34.878589],[133.536869,34.878344],[133.535612,34.876888],[133.530141,34.876208],[133.528911,34.877122],[133.527565,34.876502],[133.523881,34.876764],[133.524663,34.875202],[133.521861,34.86999],[133.518799,34.867736],[133.517323,34.867747],[133.514268,34.865911],[133.512836,34.868939],[133.508945,34.8693],[133.507715,34.870398],[133.504198,34.871482],[133.502462,34.87128],[133.500209,34.872621],[133.500123,34.876497],[133.497611,34.876307],[133.495569,34.874226],[133.492253,34.878594],[133.489408,34.875053],[133.487486,34.874807],[133.483795,34.87208],[133.481953,34.871839],[133.4805,34.873438],[133.48041,34.875019],[133.477128,34.876801],[133.475995,34.878279],[133.477539,34.880536],[133.476204,34.881062],[133.475856,34.882764],[133.474264,34.883451],[133.47255,34.885937],[133.469343,34.884253],[133.468602,34.879372],[133.465238,34.876824],[133.45566,34.875483],[133.452824,34.875718],[133.450763,34.874114],[133.448326,34.877585],[133.447096,34.877551],[133.444611,34.879287],[133.441746,34.884264],[133.43833,34.883102],[133.437444,34.8814],[133.435188,34.880151],[133.434767,34.881337],[133.425901,34.88411],[133.425226,34.886475],[133.42457,34.886493],[133.422074,34.883789],[133.420566,34.883124],[133.420729,34.8816],[133.417553,34.880014],[133.41699,34.877711],[133.416141,34.877092],[133.414774,34.876834],[133.411867,34.879899],[133.410741,34.879813],[133.410094,34.878427],[133.407456,34.877298],[133.404544,34.873918],[133.402364,34.875006],[133.398552,34.875078],[133.395396,34.871523],[133.392876,34.869903],[133.390852,34.869851],[133.390168,34.869209],[133.387391,34.870698],[133.384259,34.871007],[133.383373,34.872056],[133.381454,34.872056],[133.379828,34.873539],[133.376769,34.873379],[133.372576,34.874402],[133.367011,34.873763],[133.363995,34.875329],[133.36148,34.87457],[133.358284,34.874718],[133.353124,34.87772],[133.348486,34.875188],[133.347037,34.873588],[133.347198,34.872564],[133.344127,34.86948],[133.342077,34.868844],[133.336815,34.869594],[133.336063,34.867846],[133.338616,34.865921],[133.338665,34.86439],[133.330664,34.855925],[133.323391,34.859027],[133.32245,34.8609],[133.324153,34.862163],[133.323966,34.864499],[133.321972,34.866167],[133.316811,34.867178],[133.31456,34.869234],[133.3144,34.872792],[133.309704,34.873831],[133.307168,34.876608],[133.305727,34.880514],[133.305886,34.881857],[133.301099,34.88445],[133.298011,34.889339],[133.296909,34.889899],[133.297948,34.890932],[133.296597,34.893121],[133.296777,34.89452],[133.295177,34.895937],[133.296895,34.900033],[133.295793,34.9021],[133.294055,34.903139],[133.298467,34.906778],[133.297553,34.909474],[133.300448,34.912428],[133.303385,34.913547],[133.303517,34.91558],[133.304812,34.917529],[133.304632,34.921852],[133.302817,34.924698],[133.301873,34.928914],[133.303535,34.930906],[133.305867,34.932253],[133.306365,34.934037],[133.309446,34.937045],[133.308026,34.941088],[133.304395,34.944786],[133.301654,34.950368],[133.29826,34.95267],[133.297262,34.956004],[133.301893,34.96051],[133.302336,34.962199],[133.301412,34.963331],[133.304893,34.964962],[133.3045,34.970051],[133.303118,34.972136],[133.308169,34.974352],[133.310838,34.974644],[133.31359,34.977872],[133.313277,34.98007],[133.314553,34.981656],[133.317044,34.983067],[133.320173,34.983637],[133.320204,34.985264],[133.321809,34.988475],[133.320605,34.990618],[133.321017,34.992725],[133.319766,34.994528],[133.319223,34.99847],[133.319536,35.001843],[133.321211,35.003629],[133.320734,35.005246],[133.321757,35.006145],[133.320032,35.007115],[133.319622,35.008626],[133.317219,35.00956],[133.315638,35.012467],[133.311927,35.013078],[133.311183,35.013909],[133.309547,35.013377],[133.308682,35.014646],[133.304484,35.015358],[133.303072,35.017555],[133.303171,35.020516],[133.300923,35.021621],[133.300022,35.023191],[133.296878,35.024729],[133.297235,35.026052],[133.295506,35.027658],[133.295843,35.029493],[133.293216,35.031644],[133.290811,35.036177],[133.287671,35.037539],[133.285236,35.040659],[133.282278,35.040407],[133.281081,35.042088],[133.279689,35.041304],[133.279298,35.0425],[133.277841,35.043541],[133.274606,35.044732],[133.273419,35.047813],[133.268969,35.049977],[133.266793,35.052967],[133.267617,35.053574],[133.269139,35.057678],[133.272525,35.059538],[133.272324,35.061541],[133.274897,35.062827],[133.275243,35.064334],[133.276912,35.066109],[133.283421,35.06595],[133.284265,35.065413],[133.2849,35.066621],[133.288768,35.068611],[133.290824,35.070944],[133.290181,35.073823],[133.288478,35.0753],[133.288945,35.080275],[133.290267,35.081387],[133.290718,35.082886],[133.289623,35.08772],[133.290219,35.090411],[133.288205,35.092216],[133.287744,35.094093],[133.28833,35.095993],[133.289671,35.096274],[133.290805,35.097661],[133.29094,35.100359],[133.293136,35.101596],[133.295092,35.101738],[133.298854,35.103919],[133.30193,35.101343],[133.302829,35.099581],[133.308341,35.099447],[133.309029,35.097408],[133.310436,35.096211],[133.313066,35.098143],[133.314184,35.097416],[133.316088,35.097531],[133.316324,35.096563],[133.319428,35.093856],[133.320995,35.093666],[133.322283,35.094461],[133.325517,35.093469],[133.328015,35.094729],[133.327924,35.09595],[133.330908,35.098653],[133.333056,35.099549],[133.332359,35.101272],[133.335367,35.103346],[133.338223,35.106563],[133.343711,35.105362],[133.346959,35.105741],[133.354874,35.100771],[133.356575,35.102186],[133.358396,35.102126],[133.359218,35.104442],[133.362457,35.105402],[133.363611,35.107219],[133.366239,35.108614],[133.366681,35.110155],[133.370126,35.110625],[133.372952,35.112979],[133.381773,35.115],[133.385716,35.114607],[133.387893,35.112748],[133.394797,35.113569],[133.399988,35.115058],[133.403363,35.114321],[133.404989,35.115979],[133.405764,35.118024],[133.408231,35.119824],[133.411826,35.121146],[133.412487,35.124378],[133.411979,35.126786],[133.412763,35.128181],[133.411718,35.131436],[133.412618,35.133493],[133.411165,35.135658],[133.411224,35.138753],[133.408623,35.141258],[133.404877,35.143286],[133.404064,35.145863],[133.404514,35.148668],[133.403147,35.151011],[133.400214,35.153701],[133.400722,35.158433],[133.398762,35.161313],[133.398048,35.164759],[133.394753,35.166047],[133.393217,35.16769],[133.393623,35.169515],[133.396947,35.172461],[133.394814,35.174123],[133.394639,35.17733],[133.396326,35.180781],[133.398241,35.180474],[133.401674,35.181395],[133.404037,35.184176],[133.407712,35.185882],[133.410329,35.18412],[133.415893,35.184607],[133.420964,35.180833],[133.421388,35.177001],[133.42218,35.176113],[133.428335,35.177393],[133.437916,35.173097],[133.445964,35.172882],[133.447699,35.171313],[133.452403,35.172922],[133.456515,35.173109],[133.458071,35.176212],[133.46001,35.177849],[133.463521,35.177781],[133.465434,35.176684],[133.466018,35.175476],[133.467549,35.175288],[133.470374,35.177481],[133.472173,35.177061],[133.473161,35.178594],[133.473306,35.180889],[133.474709,35.181991],[133.482562,35.182413],[133.483903,35.184143],[133.485077,35.184398],[133.485438,35.186401],[133.488555,35.186459],[133.489743,35.187681],[133.496039,35.186667],[133.49846,35.188229],[133.500599,35.192552],[133.502936,35.191677],[133.507974,35.193116],[133.51047,35.190114]]]}}]}