{"type":"FeatureCollection","features":[{"type":"Feature","properties":{"municipality_code":"34215"},"geometry":{"type":"MultiPolygon","coordinates":[[[[132.418796,34.134276],[132.420504,34.133831],[132.421981,34.134985],[132.422035,34.133876],[132.418873,34.130073],[132.418765,34.12908],[132.415849,34.130431],[132.41666,34.132799],[132.418972,34.13367],[132.418796,34.134276]]],[[[132.418796,34.134276],[132.418108,34.13427],[132.418447,34.13513],[132.418796,34.134276]]],[[[132.439028,34.156948],[132.440167,34.155927],[132.44144,34.155932],[132.441304,34.155245],[132.442214,34.155378],[132.440837,34.15408],[132.44143,34.152804],[132.442806,34.153163],[132.441227,34.151484],[132.434209,34.149188],[132.429587,34.146569],[132.42988,34.148622],[132.427439,34.150895],[132.428059,34.152283],[132.429618,34.152572],[132.431234,34.152525],[132.430437,34.154053],[132.429387,34.15391],[132.429216,34.15453],[132.43168,34.156085],[132.432838,34.155595],[132.43447,34.156181],[132.437387,34.158926],[132.437315,34.160252],[132.439264,34.1605],[132.439981,34.160098],[132.438816,34.158344],[132.439028,34.156948]]],[[[132.387678,34.176038],[132.388024,34.175076],[132.391812,34.175361],[132.393104,34.174105],[132.395723,34.173842],[132.396334,34.171787],[132.397945,34.170734],[132.400541,34.171421],[132.402235,34.173201],[132.403272,34.17176],[132.403369,34.169321],[132.405618,34.168979],[132.406821,34.167914],[132.413308,34.169741],[132.410718,34.16696],[132.412132,34.166543],[132.414293,34.164193],[132.414634,34.159757],[132.417335,34.15839],[132.416853,34.156314],[132.413627,34.15055],[132.409023,34.148864],[132.40648,34.14912],[132.404837,34.147769],[132.403272,34.148181],[132.401556,34.14683],[132.399423,34.147832],[132.397616,34.146284],[132.395145,34.1483],[132.393486,34.148339],[132.390419,34.149972],[132.389334,34.149266],[132.387508,34.149533],[132.387046,34.153637],[132.385673,34.155599],[132.383182,34.156512],[132.383385,34.164335],[132.38401,34.165311],[132.383225,34.169015],[132.381514,34.171354],[132.382985,34.176789],[132.385483,34.177496],[132.386554,34.176214],[132.387678,34.176038]]],[[[132.358267,34.238806],[132.357693,34.235729],[132.354964,34.237258],[132.353159,34.239585],[132.353772,34.241623],[132.354887,34.241782],[132.356953,34.240749],[132.358267,34.238806]]],[[[132.381016,34.251554],[132.380358,34.251694],[132.380763,34.252115],[132.381016,34.251554]]],[[[132.456925,34.254272],[132.458557,34.252835],[132.458005,34.252893],[132.456925,34.254272]]],[[[132.413584,34.259505],[132.412379,34.259767],[132.412579,34.260356],[132.414081,34.259902],[132.413584,34.259505]]],[[[132.370597,34.279842],[132.376589,34.278563],[132.377537,34.279373],[132.378382,34.279172],[132.377644,34.278075],[132.37913,34.275901],[132.378207,34.275732],[132.377057,34.2735],[132.376437,34.273887],[132.376132,34.27442],[132.374786,34.273688],[132.372435,34.275141],[132.369784,34.275517],[132.368392,34.275044],[132.367755,34.273314],[132.366872,34.27389],[132.365752,34.273995],[132.364835,34.273227],[132.363594,34.275999],[132.361603,34.27559],[132.361073,34.276344],[132.363909,34.277274],[132.364058,34.278],[132.365401,34.277623],[132.369532,34.278665],[132.370597,34.279842]]],[[[132.362889,34.291826],[132.364119,34.289541],[132.363163,34.288003],[132.363494,34.289363],[132.362789,34.289811],[132.361905,34.289626],[132.360822,34.288924],[132.360605,34.291306],[132.362294,34.291749],[132.362889,34.291826]]],[[[132.381016,34.251554],[132.381483,34.252362],[132.378679,34.253511],[132.374849,34.25382],[132.374593,34.256384],[132.372515,34.257414],[132.372117,34.258604],[132.375865,34.260792],[132.375571,34.262995],[132.377267,34.264642],[132.378163,34.263576],[132.377102,34.261854],[132.377821,34.260209],[132.379681,34.258813],[132.380313,34.258763],[132.380171,34.257939],[132.380313,34.257274],[132.381464,34.25767],[132.383829,34.257093],[132.384338,34.258609],[132.385611,34.25837],[132.386986,34.258855],[132.387232,34.260525],[132.389698,34.260869],[132.397858,34.260138],[132.398394,34.260601],[132.398183,34.259659],[132.40043,34.259595],[132.400692,34.260164],[132.405442,34.259425],[132.405247,34.258607],[132.40586,34.258503],[132.408165,34.259705],[132.409685,34.258679],[132.412097,34.258936],[132.413584,34.259505],[132.414419,34.258897],[132.419811,34.257991],[132.425402,34.254586],[132.425865,34.252135],[132.428817,34.248165],[132.429083,34.245152],[132.431069,34.241874],[132.433587,34.239596],[132.434536,34.236904],[132.43629,34.237194],[132.435792,34.236011],[132.434676,34.235995],[132.434917,34.235445],[132.435609,34.234986],[132.437395,34.234935],[132.437649,34.233326],[132.438059,34.23217],[132.438859,34.232452],[132.437238,34.23107],[132.43822,34.230519],[132.43756,34.229273],[132.43819,34.228776],[132.439532,34.227963],[132.43843,34.225799],[132.439176,34.224967],[132.44088,34.224299],[132.441456,34.224947],[132.443236,34.224539],[132.441348,34.22406],[132.443364,34.222888],[132.444252,34.223841],[132.445043,34.22353],[132.444999,34.222746],[132.448921,34.223854],[132.450731,34.225197],[132.449772,34.227093],[132.449129,34.226826],[132.449927,34.227784],[132.450417,34.226991],[132.452322,34.226353],[132.454222,34.226586],[132.45673,34.228374],[132.457763,34.230939],[132.458767,34.229935],[132.458586,34.228785],[132.461923,34.221865],[132.462538,34.22085],[132.463265,34.221071],[132.462324,34.220034],[132.464748,34.216351],[132.465985,34.215207],[132.469854,34.213811],[132.470362,34.211335],[132.470002,34.209436],[132.470499,34.208954],[132.471776,34.208694],[132.474119,34.208456],[132.474972,34.214257],[132.476313,34.216081],[132.476209,34.216795],[132.476524,34.220543],[132.479017,34.22533],[132.479508,34.231797],[132.479391,34.232504],[132.477945,34.232339],[132.477549,34.233259],[132.47694,34.234939],[132.478209,34.235298],[132.477701,34.236224],[132.477411,34.237382],[132.476083,34.237554],[132.47441,34.238276],[132.472601,34.241156],[132.472873,34.24212],[132.470919,34.244547],[132.468812,34.246549],[132.46652,34.246127],[132.465258,34.248165],[132.465419,34.248824],[132.464853,34.248579],[132.46388,34.248808],[132.463307,34.249142],[132.4637,34.249651],[132.461602,34.250675],[132.461141,34.250394],[132.459005,34.252181],[132.460897,34.252072],[132.459319,34.252712],[132.459946,34.253229],[132.457465,34.254673],[132.456095,34.256742],[132.451765,34.255054],[132.451245,34.24822],[132.450265,34.246971],[132.448712,34.246706],[132.449124,34.247091],[132.44835,34.247566],[132.446332,34.246758],[132.447749,34.246654],[132.444718,34.245627],[132.440005,34.245402],[132.438901,34.246627],[132.435607,34.247368],[132.433105,34.250305],[132.432705,34.253911],[132.439018,34.258222],[132.439217,34.2599],[132.443005,34.261212],[132.442719,34.261932],[132.444247,34.262835],[132.444151,34.264361],[132.445355,34.26499],[132.445776,34.26662],[132.445065,34.267629],[132.445252,34.269076],[132.444109,34.270251],[132.440839,34.271199],[132.439,34.274477],[132.436639,34.274439],[132.435745,34.275301],[132.436029,34.275891],[132.434184,34.279299],[132.435594,34.282526],[132.435471,34.284343],[132.434146,34.286029],[132.435717,34.285613],[132.43721,34.287043],[132.437354,34.285804],[132.439244,34.286137],[132.441849,34.289361],[132.445966,34.285506],[132.448259,34.284711],[132.450191,34.284694],[132.452022,34.287082],[132.457972,34.286953],[132.461445,34.287807],[132.469308,34.286729],[132.471349,34.287206],[132.471973,34.286422],[132.473771,34.283639],[132.474747,34.283504],[132.475433,34.283706],[132.474639,34.284326],[132.479374,34.285466],[132.479974,34.28477],[132.480483,34.285106],[132.48109,34.286882],[132.480515,34.287525],[132.48123,34.288193],[132.480711,34.288782],[132.480167,34.290787],[132.479225,34.291393],[132.479548,34.29356],[132.478572,34.29437],[132.477684,34.29392],[132.478585,34.294941],[132.47825,34.296227],[132.479782,34.296251],[132.479937,34.294029],[132.481095,34.29331],[132.480148,34.291952],[132.482079,34.288003],[132.484739,34.28678],[132.487441,34.283611],[132.49034,34.28315],[132.489147,34.281463],[132.491054,34.280522],[132.491556,34.281006],[132.491324,34.279707],[132.496666,34.273393],[132.496278,34.272618],[132.498926,34.267121],[132.49743,34.264284],[132.497566,34.262921],[132.495901,34.261898],[132.495658,34.260665],[132.496616,34.258884],[132.496309,34.257015],[132.496135,34.256417],[132.496117,34.255528],[132.497497,34.255659],[132.496983,34.254832],[132.496441,34.254925],[132.495676,34.252427],[132.49352,34.251341],[132.493161,34.251895],[132.492246,34.24996],[132.493431,34.249364],[132.492528,34.2477],[132.491139,34.248058],[132.490721,34.247061],[132.492857,34.245904],[132.493125,34.244554],[132.491943,34.24439],[132.492455,34.243363],[132.493834,34.243596],[132.494275,34.241714],[132.497543,34.242297],[132.496219,34.240314],[132.496534,34.239351],[132.495801,34.237814],[132.495023,34.238512],[132.493615,34.237483],[132.493502,34.235414],[132.49522,34.234858],[132.495817,34.232176],[132.492697,34.230741],[132.493182,34.230326],[132.491562,34.228261],[132.490884,34.224865],[132.491429,34.223704],[132.48926,34.219637],[132.489751,34.216709],[132.489132,34.209287],[132.490177,34.203858],[132.489649,34.202214],[132.488585,34.201216],[132.487203,34.201228],[132.48606,34.199754],[132.485183,34.200625],[132.483368,34.200716],[132.48375,34.200164],[132.482236,34.199326],[132.480146,34.195829],[132.479548,34.191802],[132.476848,34.195333],[132.474249,34.195455],[132.473398,34.19461],[132.473291,34.191695],[132.474806,34.190001],[132.473179,34.188371],[132.472149,34.182715],[132.47216,34.182041],[132.47268,34.181937],[132.472052,34.179566],[132.471317,34.178884],[132.473434,34.177657],[132.475343,34.178092],[132.477883,34.178486],[132.477054,34.177568],[132.477499,34.176222],[132.479926,34.174455],[132.479223,34.172129],[132.479624,34.171257],[132.480403,34.170281],[132.481666,34.170202],[132.481159,34.168757],[132.484285,34.168023],[132.484115,34.16413],[132.485261,34.163498],[132.486273,34.161019],[132.488058,34.160712],[132.489282,34.155716],[132.490204,34.154557],[132.489311,34.151263],[132.490689,34.150711],[132.490899,34.149529],[132.487327,34.148307],[132.487324,34.14673],[132.488404,34.147169],[132.489784,34.146374],[132.487673,34.14586],[132.487645,34.145109],[132.48624,34.144726],[132.486286,34.14387],[132.487084,34.142534],[132.489213,34.143478],[132.489992,34.142174],[132.489169,34.141306],[132.485924,34.141619],[132.481985,34.144774],[132.479676,34.143247],[132.477552,34.143057],[132.475305,34.140708],[132.472113,34.140026],[132.47028,34.137989],[132.470034,34.139078],[132.468555,34.139509],[132.467562,34.138172],[132.466213,34.138039],[132.465824,34.137085],[132.46358,34.137171],[132.462382,34.135037],[132.460387,34.134989],[132.460508,34.134172],[132.457837,34.135196],[132.456057,34.133847],[132.455591,34.134319],[132.45415,34.133837],[132.452058,34.135667],[132.45085,34.134943],[132.449289,34.135155],[132.44935,34.135825],[132.45002,34.135634],[132.449343,34.136523],[132.447265,34.134654],[132.446177,34.132347],[132.445037,34.133324],[132.446595,34.13921],[132.446033,34.139581],[132.443476,34.135363],[132.441787,34.135933],[132.440671,34.135161],[132.440532,34.133996],[132.438517,34.133285],[132.437982,34.132268],[132.434503,34.132248],[132.431378,34.12903],[132.430641,34.128662],[132.430032,34.12861],[132.428588,34.128667],[132.431026,34.130727],[132.431065,34.132068],[132.432825,34.133902],[132.433534,34.136202],[132.435792,34.137327],[132.437528,34.139378],[132.436742,34.143015],[132.437787,34.143372],[132.438315,34.14509],[132.43964,34.146121],[132.442785,34.147451],[132.442368,34.148528],[132.445569,34.152323],[132.444626,34.152124],[132.442865,34.154062],[132.444956,34.155291],[132.443907,34.155218],[132.443131,34.157052],[132.444948,34.158741],[132.446531,34.16192],[132.445468,34.163419],[132.445797,34.164307],[132.447168,34.164488],[132.448191,34.167166],[132.449681,34.167622],[132.449152,34.168715],[132.448667,34.167908],[132.445906,34.169318],[132.445077,34.168486],[132.443591,34.16954],[132.444704,34.171345],[132.44448,34.174068],[132.445597,34.176872],[132.44484,34.179182],[132.445755,34.178859],[132.447051,34.180078],[132.446974,34.179239],[132.447592,34.17928],[132.451137,34.180898],[132.451045,34.17823],[132.453682,34.177685],[132.455101,34.178412],[132.456086,34.17545],[132.457152,34.176147],[132.457188,34.177862],[132.456639,34.178926],[132.455786,34.178765],[132.455507,34.180221],[132.454415,34.180594],[132.454272,34.18205],[132.450617,34.183923],[132.447307,34.183999],[132.446952,34.18668],[132.445854,34.188557],[132.443939,34.190088],[132.442529,34.192453],[132.443135,34.192873],[132.442242,34.194298],[132.443274,34.194005],[132.442685,34.195083],[132.437582,34.195951],[132.435779,34.194611],[132.435624,34.193715],[132.435787,34.19082],[132.435032,34.188291],[132.43604,34.187496],[132.43469,34.187162],[132.434053,34.184665],[132.434607,34.182851],[132.433564,34.179446],[132.431557,34.175571],[132.430623,34.175443],[132.428794,34.173102],[132.428869,34.17723],[132.42761,34.179657],[132.426752,34.180305],[132.422269,34.180696],[132.423066,34.192437],[132.420089,34.198044],[132.418688,34.198785],[132.417579,34.198106],[132.414798,34.200986],[132.415284,34.199511],[132.412601,34.202329],[132.410547,34.203266],[132.408854,34.203194],[132.409294,34.203775],[132.407444,34.204458],[132.407191,34.203771],[132.405575,34.206409],[132.396143,34.215276],[132.395695,34.215778],[132.395308,34.216722],[132.394752,34.216296],[132.394851,34.215181],[132.394021,34.21688],[132.394635,34.217434],[132.391032,34.22103],[132.388703,34.222349],[132.389303,34.222852],[132.384417,34.226339],[132.384337,34.227939],[132.385563,34.229304],[132.385117,34.23001],[132.386848,34.229801],[132.387639,34.230501],[132.389109,34.230401],[132.389692,34.231366],[132.389644,34.234387],[132.389061,34.234856],[132.389412,34.237454],[132.38764,34.239224],[132.388727,34.239346],[132.389066,34.240152],[132.385582,34.244586],[132.385928,34.246025],[132.384959,34.248358],[132.381693,34.251377],[132.381016,34.251554]]]]}}]}