{"type":"FeatureCollection","features":[{"type":"Feature","properties":{},"geometry":{"type":"Polygon","coordinates":[[[132.535201,34.420963],[132.538243,34.418568],[132.540717,34.417668],[132.539699,34.416188],[132.538829,34.412092],[132.535558,34.410493],[132.533006,34.406663],[132.532229,34.404647],[132.533041,34.402635],[132.532785,34.401199],[132.532161,34.400053],[132.530488,34.399188],[132.53038,34.398175],[132.53131,34.39695],[132.528344,34.393493],[132.527749,34.388413],[132.523599,34.386889],[132.522738,34.384877],[132.520875,34.383279],[132.518173,34.383177],[132.518278,34.38083],[132.5149,34.378022],[132.516218,34.375032],[132.511044,34.374796],[132.510341,34.376187],[132.509063,34.375499],[132.501401,34.37603],[132.499222,34.385703],[132.499721,34.38931],[132.501312,34.390754],[132.501184,34.391373],[132.499345,34.392032],[132.495841,34.395324],[132.498311,34.396512],[132.504142,34.404354],[132.505696,34.403719],[132.506685,34.404801],[132.507153,34.4032],[132.514696,34.406918],[132.516103,34.408482],[132.515685,34.409775],[132.516953,34.411457],[132.517234,34.413527],[132.518517,34.414841],[132.520927,34.414457],[132.524777,34.417698],[132.529389,34.419548],[132.531184,34.421491],[132.535201,34.420963]]]}}]}