{"type":"FeatureCollection","features":[{"type":"Feature","properties":{"municipality_code":"34431"},"geometry":{"type":"MultiPolygon","coordinates":[[[[132.873925,34.206378],[132.875274,34.205502],[132.874713,34.205363],[132.873925,34.206378]]],[[[132.804473,34.228565],[132.801158,34.225698],[132.800013,34.226892],[132.802497,34.230417],[132.804473,34.228565]]],[[[132.865076,34.254165],[132.865124,34.252819],[132.864388,34.253795],[132.865076,34.254165]]],[[[132.861519,34.253528],[132.861864,34.249959],[132.860618,34.253173],[132.862587,34.254982],[132.86284,34.254378],[132.861519,34.253528]]],[[[132.841123,34.25444],[132.839287,34.253392],[132.836634,34.253282],[132.835353,34.254073],[132.835685,34.255071],[132.836271,34.254373],[132.840274,34.255469],[132.841123,34.25444]]],[[[132.881318,34.258901],[132.881134,34.258285],[132.880625,34.258445],[132.881318,34.258901]]],[[[132.900766,34.263127],[132.899305,34.262723],[132.899067,34.264239],[132.9,34.264857],[132.900766,34.263127]]],[[[132.871016,34.268389],[132.873423,34.26809],[132.873357,34.26917],[132.874104,34.269351],[132.874187,34.268333],[132.8764,34.268021],[132.876302,34.267431],[132.873962,34.266556],[132.874193,34.262876],[132.873506,34.261286],[132.875698,34.259218],[132.878007,34.258346],[132.875205,34.25474],[132.871046,34.257494],[132.868728,34.257071],[132.869256,34.257559],[132.867868,34.259227],[132.869237,34.259852],[132.868927,34.261444],[132.86821,34.261787],[132.869363,34.26261],[132.869126,34.263392],[132.866071,34.263665],[132.864921,34.262863],[132.863767,34.263057],[132.863394,34.263862],[132.863739,34.265308],[132.86473,34.265635],[132.864605,34.267274],[132.865626,34.268964],[132.867457,34.267494],[132.869157,34.267653],[132.86842,34.268789],[132.86962,34.26993],[132.868757,34.270778],[132.86959,34.271408],[132.870735,34.270378],[132.871016,34.268389]]],[[[132.887689,34.271776],[132.888951,34.270475],[132.889923,34.271209],[132.890771,34.270885],[132.890594,34.269772],[132.889814,34.269106],[132.888605,34.26972],[132.887613,34.268761],[132.887737,34.270058],[132.886817,34.271658],[132.887689,34.271776]]],[[[132.883116,34.273106],[132.882262,34.273021],[132.882202,34.27445],[132.880921,34.274673],[132.882084,34.274995],[132.882845,34.275024],[132.883116,34.273106]]],[[[132.920164,34.275821],[132.918522,34.276227],[132.918694,34.276761],[132.920164,34.275821]]],[[[132.910121,34.278528],[132.910402,34.277504],[132.911391,34.277626],[132.911862,34.276886],[132.910716,34.27323],[132.907239,34.270884],[132.906274,34.27104],[132.906576,34.277507],[132.908534,34.277337],[132.908512,34.278075],[132.910121,34.278528]]],[[[132.873925,34.206378],[132.870271,34.206549],[132.868844,34.20778],[132.867119,34.208088],[132.864041,34.206417],[132.861146,34.209376],[132.855868,34.208232],[132.854897,34.208886],[132.855213,34.210034],[132.854716,34.209482],[132.850513,34.21275],[132.847909,34.215492],[132.845977,34.21938],[132.841974,34.223277],[132.840805,34.227428],[132.839914,34.22827],[132.841444,34.228463],[132.842275,34.229543],[132.846581,34.230178],[132.846695,34.233889],[132.844678,34.237884],[132.841546,34.237975],[132.840428,34.240267],[132.838269,34.241276],[132.838185,34.24215],[132.839235,34.241622],[132.840505,34.24253],[132.842331,34.241697],[132.842389,34.241],[132.843447,34.241222],[132.844442,34.24191],[132.844236,34.242576],[132.845991,34.242944],[132.847195,34.244236],[132.848703,34.244269],[132.849201,34.245297],[132.852281,34.243847],[132.851356,34.242649],[132.85732,34.240112],[132.857543,34.241083],[132.857785,34.239887],[132.859911,34.241372],[132.860487,34.243233],[132.859527,34.244856],[132.857099,34.244869],[132.857377,34.246861],[132.855766,34.249053],[132.859636,34.247286],[132.860274,34.245891],[132.861639,34.245944],[132.861577,34.24458],[132.862714,34.244651],[132.862291,34.245073],[132.863865,34.24591],[132.864767,34.248274],[132.866717,34.247956],[132.869359,34.248851],[132.872389,34.247892],[132.874627,34.248868],[132.876673,34.2485],[132.877286,34.249353],[132.877919,34.249047],[132.877483,34.247161],[132.878073,34.248418],[132.881753,34.248505],[132.88124,34.246486],[132.882166,34.248068],[132.882324,34.244288],[132.88355,34.244124],[132.882595,34.245373],[132.88254,34.250197],[132.879536,34.24904],[132.878193,34.250665],[132.877564,34.250099],[132.876709,34.251571],[132.878962,34.253388],[132.879277,34.254501],[132.880834,34.255419],[132.881322,34.256757],[132.884592,34.257654],[132.887467,34.262303],[132.888787,34.26097],[132.891267,34.261715],[132.892588,34.257929],[132.894352,34.257056],[132.891801,34.254718],[132.892241,34.251042],[132.891626,34.249635],[132.893949,34.24979],[132.893553,34.251453],[132.894317,34.251774],[132.897309,34.250084],[132.897919,34.248744],[132.899982,34.247392],[132.902446,34.249411],[132.903283,34.24877],[132.90355,34.251229],[132.90096,34.252743],[132.903353,34.254001],[132.905621,34.257295],[132.9056,34.256674],[132.906407,34.257246],[132.90734,34.259587],[132.908714,34.260162],[132.90827,34.261516],[132.907009,34.261855],[132.907435,34.264069],[132.916202,34.271762],[132.914358,34.271915],[132.916458,34.27295],[132.919081,34.27349],[132.918646,34.273866],[132.923274,34.279695],[132.925163,34.280625],[132.926814,34.282711],[132.927892,34.281003],[132.929689,34.281043],[132.930259,34.284247],[132.93094,34.284596],[132.933352,34.284503],[132.933458,34.282599],[132.934918,34.281359],[132.93842,34.280704],[132.939194,34.279065],[132.939947,34.278985],[132.939755,34.278385],[132.942214,34.277394],[132.940354,34.275946],[132.940338,34.274291],[132.938483,34.27293],[132.938102,34.269051],[132.936311,34.266255],[132.936089,34.263493],[132.934039,34.261285],[132.934514,34.259381],[132.932679,34.256596],[132.932708,34.254285],[132.929827,34.247966],[132.926305,34.245117],[132.925767,34.243337],[132.919669,34.236874],[132.917551,34.23659],[132.917189,34.237176],[132.915623,34.236067],[132.914366,34.236399],[132.914543,34.235064],[132.913348,34.23489],[132.916723,34.233942],[132.917914,34.227581],[132.916956,34.224436],[132.916404,34.22404],[132.916836,34.221387],[132.916216,34.220975],[132.915866,34.221513],[132.915622,34.219739],[132.91799,34.218703],[132.918468,34.217811],[132.917816,34.217561],[132.918028,34.216905],[132.920757,34.215434],[132.920758,34.214127],[132.917981,34.213709],[132.916112,34.211925],[132.914263,34.211495],[132.905629,34.214419],[132.898042,34.212854],[132.898294,34.212234],[132.896601,34.212183],[132.893209,34.212397],[132.894003,34.210994],[132.893238,34.211748],[132.891805,34.211705],[132.890586,34.211433],[132.889762,34.210402],[132.889196,34.210172],[132.888564,34.210785],[132.887066,34.210323],[132.885708,34.209072],[132.884963,34.20696],[132.881818,34.207514],[132.879627,34.205889],[132.878064,34.206098],[132.87645,34.206718],[132.875624,34.206338],[132.875314,34.206768],[132.873925,34.206378]]],[[[132.944134,34.283502],[132.940308,34.283012],[132.935726,34.284606],[132.935876,34.285828],[132.937305,34.286953],[132.942545,34.287767],[132.942491,34.286352],[132.94414,34.285823],[132.944134,34.283502]]],[[[132.890411,34.285389],[132.889853,34.284493],[132.889059,34.286604],[132.88988,34.288514],[132.890411,34.285389]]],[[[132.905156,34.28926],[132.904039,34.289513],[132.904745,34.289974],[132.905156,34.28926]]],[[[132.885463,34.285039],[132.886914,34.284511],[132.885807,34.284612],[132.885586,34.283979],[132.88696,34.283158],[132.887981,34.27959],[132.886427,34.276481],[132.884249,34.275528],[132.883984,34.278204],[132.880701,34.280462],[132.883231,34.279427],[132.88357,34.281384],[132.884607,34.282471],[132.88365,34.285372],[132.881524,34.287446],[132.883652,34.290058],[132.886649,34.28718],[132.886634,34.286154],[132.885463,34.285039]]],[[[132.945916,34.2991],[132.946084,34.298471],[132.945543,34.298592],[132.945916,34.2991]]],[[[132.902691,34.29454],[132.901496,34.294379],[132.9013,34.297849],[132.902483,34.299356],[132.904029,34.2995],[132.903389,34.298383],[132.902691,34.29454]]],[[[132.905156,34.28926],[132.906343,34.288947],[132.907461,34.289963],[132.907644,34.291111],[132.906877,34.291703],[132.907433,34.294717],[132.909831,34.295611],[132.911227,34.295441],[132.912786,34.297804],[132.912935,34.298974],[132.914082,34.298965],[132.915673,34.300195],[132.916626,34.298667],[132.918431,34.299049],[132.916789,34.297985],[132.915526,34.298375],[132.914611,34.297055],[132.915724,34.295055],[132.914137,34.294283],[132.914142,34.293667],[132.915465,34.29216],[132.916666,34.291969],[132.916627,34.290402],[132.917446,34.291121],[132.91868,34.290689],[132.921288,34.292911],[132.924065,34.297587],[132.925604,34.296734],[132.926283,34.294621],[132.925521,34.292963],[132.926053,34.291925],[132.925114,34.291551],[132.924741,34.290441],[132.925903,34.287477],[132.924959,34.286802],[132.925112,34.285453],[132.923064,34.2835],[132.920759,34.283557],[132.920997,34.282634],[132.920236,34.282532],[132.919734,34.280909],[132.917997,34.281816],[132.916715,34.280887],[132.916518,34.279659],[132.914109,34.280204],[132.915311,34.283444],[132.912107,34.281987],[132.913752,34.284477],[132.91156,34.285005],[132.910453,34.283106],[132.909693,34.283095],[132.909885,34.284404],[132.907291,34.287585],[132.906463,34.286881],[132.905757,34.284199],[132.905269,34.283934],[132.904886,34.284823],[132.905884,34.287327],[132.905156,34.28926]]]]}}]}