{"type":"FeatureCollection","features":[{"type":"Feature","properties":{"municipality_code":"35210"},"geometry":{"type":"MultiPolygon","coordinates":[[[[132.009777,33.859619],[132.009006,33.859227],[132.007519,33.859857],[132.009777,33.859619]]],[[[131.981875,33.868855],[131.981021,33.868804],[131.98173,33.869666],[131.981936,33.870251],[131.983802,33.871058],[131.985749,33.869505],[131.98524,33.869305],[131.981875,33.868855]]],[[[132.009777,33.859619],[132.010108,33.858674],[132.011183,33.859111],[132.012416,33.858321],[132.013528,33.859159],[132.016179,33.859504],[132.016454,33.860818],[132.014431,33.861626],[132.015218,33.861994],[132.016796,33.862518],[132.017041,33.863651],[132.016362,33.864804],[132.014589,33.865445],[132.01532,33.86608],[132.015207,33.867182],[132.014615,33.867674],[132.014337,33.868435],[132.013677,33.86909],[132.014287,33.869392],[132.014991,33.870527],[132.01572,33.870839],[132.016291,33.871204],[132.017152,33.871391],[132.017288,33.870085],[132.018635,33.86864],[132.017549,33.866807],[132.017838,33.865638],[132.019468,33.864052],[132.020288,33.863956],[132.020186,33.863007],[132.020992,33.862243],[132.023081,33.862034],[132.020887,33.859153],[132.022641,33.854311],[132.024639,33.853049],[132.023808,33.851692],[132.020908,33.85301],[132.019601,33.852324],[132.018344,33.851926],[132.016985,33.853443],[132.015227,33.853947],[132.013138,33.852944],[132.012456,33.853105],[132.011787,33.853406],[132.010585,33.853668],[132.009059,33.85321],[132.006562,33.852778],[132.004803,33.855059],[132.003939,33.855748],[132.001977,33.856361],[132.001337,33.856347],[131.997599,33.85743],[131.997909,33.858282],[131.997041,33.859117],[131.997498,33.860689],[131.998658,33.860754],[132.000342,33.861338],[132.002752,33.860693],[132.004072,33.861147],[132.004777,33.86164],[132.005348,33.861597],[132.006106,33.86168],[132.006537,33.860961],[132.006633,33.859316],[132.008436,33.858698],[132.009621,33.858843],[132.009777,33.859619]]],[[[131.984448,33.87212],[131.983836,33.872093],[131.983741,33.872766],[131.983839,33.873352],[131.984371,33.873815],[131.984986,33.874176],[131.984684,33.873354],[131.984448,33.87212]]],[[[131.93152,33.936893],[131.930987,33.935464],[131.929911,33.93608],[131.929162,33.936699],[131.928424,33.937156],[131.929224,33.938482],[131.927498,33.939842],[131.926812,33.940643],[131.926541,33.942177],[131.926542,33.943021],[131.927442,33.943112],[131.928696,33.942573],[131.929407,33.940191],[131.931004,33.938819],[131.93152,33.936893]]],[[[131.923243,33.94634],[131.924249,33.945411],[131.923445,33.945683],[131.923243,33.94634]]],[[[131.922309,33.946968],[131.922587,33.946271],[131.921455,33.947165],[131.922309,33.946968]]],[[[131.966702,34.032956],[131.96915,34.031308],[131.971666,34.031999],[131.974337,34.029815],[131.980586,34.027205],[131.979736,34.026087],[131.98271,34.024536],[131.98845,34.025224],[131.99031,34.026476],[131.991505,34.029108],[131.992619,34.029056],[131.993475,34.027888],[131.996039,34.028474],[131.997367,34.027497],[132.003096,34.028203],[132.005605,34.027341],[132.008215,34.028295],[132.016433,34.025866],[132.019661,34.02642],[132.022277,34.02551],[132.022253,34.023762],[132.024483,34.023515],[132.025793,34.018123],[132.027071,34.017164],[132.026543,34.016182],[132.02709,34.014446],[132.031285,34.013859],[132.034014,34.012041],[132.036455,34.011882],[132.037439,34.010872],[132.040628,34.011637],[132.042294,34.01376],[132.045697,34.013804],[132.046731,34.012948],[132.051132,34.013417],[132.053686,34.012042],[132.053472,34.011068],[132.054944,34.010311],[132.05665,34.012605],[132.057802,34.010941],[132.057109,34.009538],[132.057625,34.008589],[132.056365,34.006939],[132.054807,34.007142],[132.053657,34.006139],[132.053982,34.003503],[132.053051,34.001899],[132.05575,34.002102],[132.055152,34.000336],[132.056499,33.999261],[132.059689,33.999208],[132.059979,33.998058],[132.061506,33.998126],[132.061624,33.996659],[132.062798,33.997201],[132.064154,33.996799],[132.064072,33.994885],[132.062983,33.993927],[132.064025,33.990603],[132.063093,33.989902],[132.062549,33.991226],[132.058989,33.989758],[132.055489,33.989713],[132.053494,33.987708],[132.051144,33.987391],[132.050393,33.984997],[132.04597,33.984627],[132.043942,33.985814],[132.041861,33.984651],[132.042577,33.984369],[132.036268,33.983791],[132.034075,33.982164],[132.035248,33.983682],[132.033794,33.984307],[132.034136,33.985028],[132.032778,33.985332],[132.03288,33.986759],[132.030101,33.986137],[132.026902,33.986823],[132.025313,33.986247],[132.023884,33.987469],[132.019213,33.987464],[132.017874,33.985733],[132.014405,33.984359],[132.015234,33.983296],[132.012887,33.983402],[132.012956,33.980615],[132.008358,33.977852],[132.011176,33.976221],[132.012484,33.97714],[132.011033,33.975007],[132.012157,33.974291],[132.011502,33.972879],[132.010133,33.973899],[132.008677,33.973393],[132.007695,33.971114],[132.006864,33.971114],[132.006267,33.972321],[132.008353,33.974128],[132.007973,33.974597],[132.004599,33.971142],[132.000331,33.970928],[131.998151,33.969555],[131.996622,33.966771],[131.997796,33.965299],[131.997724,33.964356],[131.994225,33.961822],[131.994128,33.95964],[131.989419,33.958895],[131.988236,33.958037],[131.985387,33.958651],[131.983773,33.95811],[131.984336,33.956002],[131.980753,33.953078],[131.981235,33.952132],[131.980035,33.951276],[131.9801,33.94971],[131.98085,33.947424],[131.983089,33.946073],[131.983287,33.944244],[131.982263,33.943564],[131.984501,33.942226],[131.984029,33.940793],[131.984535,33.939972],[131.98918,33.937959],[131.992222,33.935612],[131.994561,33.932036],[131.998001,33.933109],[132.000221,33.931023],[132.001714,33.93056],[132.002997,33.929238],[132.00248,33.926061],[132.011841,33.921807],[132.012128,33.920804],[132.013775,33.919798],[132.013591,33.918347],[132.014665,33.9181],[132.016003,33.914619],[132.021256,33.913468],[132.023736,33.914196],[132.024298,33.913107],[132.027141,33.912929],[132.027321,33.910456],[132.025518,33.908337],[132.024746,33.901727],[132.02341,33.902314],[132.022693,33.902986],[132.020846,33.905083],[132.01951,33.905914],[132.019503,33.906483],[132.018992,33.90682],[132.018042,33.906988],[132.016994,33.906906],[132.015839,33.907106],[132.014901,33.907401],[132.013555,33.908003],[132.013057,33.908413],[132.012185,33.908859],[132.009677,33.909556],[132.008996,33.909588],[132.007331,33.911051],[132.006854,33.910849],[132.006793,33.9117],[132.006327,33.912275],[132.006101,33.913017],[132.004808,33.914034],[132.003756,33.914616],[132.002667,33.915535],[132.00045,33.915127],[131.999176,33.915149],[131.998768,33.915728],[131.99807,33.916343],[131.997942,33.916929],[131.996857,33.918366],[131.994911,33.919325],[131.993351,33.920842],[131.987293,33.925698],[131.983083,33.927414],[131.982475,33.929063],[131.980865,33.929666],[131.977975,33.929765],[131.977321,33.929371],[131.977935,33.928518],[131.976439,33.928261],[131.975972,33.929076],[131.974657,33.92857],[131.974948,33.928068],[131.972877,33.927126],[131.970073,33.92387],[131.96977,33.922905],[131.970682,33.922804],[131.968736,33.92236],[131.969667,33.922299],[131.970517,33.920474],[131.972506,33.919289],[131.973273,33.920086],[131.97532,33.919342],[131.97618,33.920704],[131.975717,33.921887],[131.976881,33.922134],[131.976845,33.920166],[131.975406,33.918531],[131.975748,33.917431],[131.970657,33.916785],[131.965474,33.918359],[131.963639,33.920543],[131.962236,33.920796],[131.963812,33.923258],[131.962506,33.926901],[131.962785,33.927621],[131.963482,33.928539],[131.964185,33.92827],[131.966532,33.929499],[131.964745,33.927999],[131.965688,33.927946],[131.966555,33.928951],[131.968693,33.928852],[131.969372,33.930405],[131.968822,33.932227],[131.969373,33.932471],[131.966572,33.939079],[131.962182,33.945616],[131.95792,33.949069],[131.956708,33.948627],[131.957348,33.949402],[131.954548,33.950202],[131.954302,33.949361],[131.952954,33.949615],[131.95239,33.94906],[131.950579,33.949365],[131.950376,33.950066],[131.949837,33.950121],[131.948056,33.949999],[131.948057,33.948146],[131.947077,33.949044],[131.946019,33.948752],[131.946131,33.947078],[131.93637,33.947219],[131.928253,33.952477],[131.927025,33.957459],[131.927794,33.957504],[131.929234,33.959308],[131.928777,33.959564],[131.93026,33.961894],[131.929656,33.962229],[131.925014,33.956378],[131.924129,33.956331],[131.924563,33.952809],[131.923618,33.953273],[131.923201,33.956088],[131.924496,33.959349],[131.918265,33.966987],[131.913902,33.970213],[131.907738,33.972364],[131.90428,33.972857],[131.903656,33.971903],[131.902239,33.971883],[131.901681,33.972583],[131.901212,33.972903],[131.901572,33.974416],[131.898147,33.977047],[131.896011,33.976261],[131.891593,33.978437],[131.899416,33.98506],[131.89829,33.989426],[131.89915,33.991119],[131.904347,33.991304],[131.904764,33.992614],[131.907806,33.993866],[131.907631,33.994911],[131.908786,33.996939],[131.913598,33.996352],[131.916087,33.996941],[131.916652,33.997904],[131.92038,33.998032],[131.920981,33.99917],[131.922861,33.998775],[131.926089,34.001791],[131.933367,34.005579],[131.93477,34.007172],[131.934446,34.008707],[131.936835,34.007717],[131.939951,34.008241],[131.942386,34.010198],[131.944932,34.009914],[131.946535,34.010996],[131.94816,34.010437],[131.949628,34.011686],[131.950635,34.011363],[131.955661,34.01395],[131.958448,34.014245],[131.960872,34.015495],[131.960981,34.017351],[131.962223,34.019397],[131.965216,34.022166],[131.963609,34.024059],[131.963689,34.024951],[131.960662,34.026878],[131.963006,34.029755],[131.964179,34.030183],[131.963939,34.031442],[131.965606,34.032963],[131.966702,34.032956]]]]}}]}