{"type":"FeatureCollection","features":[{"type":"Feature","properties":{"municipality_code":"36204"},"geometry":{"type":"MultiPolygon","coordinates":[[[[134.806098,33.841096],[134.805237,33.840725],[134.805126,33.842598],[134.806098,33.841096]]],[[[134.804886,33.845742],[134.80473,33.844534],[134.804278,33.845295],[134.804886,33.845742]]],[[[134.798541,33.847138],[134.800538,33.845173],[134.802253,33.843672],[134.804329,33.843513],[134.804744,33.842179],[134.804596,33.841662],[134.804808,33.839484],[134.804228,33.840176],[134.803301,33.839275],[134.802201,33.839664],[134.802687,33.841372],[134.802174,33.841463],[134.801647,33.842088],[134.801932,33.842843],[134.801374,33.842871],[134.800523,33.84317],[134.800007,33.842593],[134.79947,33.843095],[134.798656,33.842539],[134.798299,33.843495],[134.798454,33.844343],[134.797343,33.845781],[134.795176,33.845928],[134.794155,33.846212],[134.792489,33.845924],[134.792125,33.846301],[134.792914,33.847473],[134.795672,33.848091],[134.796576,33.848941],[134.79729,33.848583],[134.798541,33.847138]]],[[[134.740758,33.84979],[134.738943,33.849037],[134.736784,33.848311],[134.735108,33.847901],[134.734583,33.848027],[134.73176,33.847708],[134.727604,33.847514],[134.729112,33.848279],[134.729856,33.848469],[134.731194,33.84833],[134.731964,33.848452],[134.732584,33.848809],[134.732961,33.849929],[134.73338,33.850593],[134.734243,33.850312],[134.734662,33.84995],[134.73532,33.849685],[134.736725,33.849888],[134.73825,33.850788],[134.738297,33.851406],[134.738789,33.851776],[134.739813,33.852143],[134.740262,33.85271],[134.741359,33.852001],[134.742847,33.851851],[134.741942,33.851247],[134.741853,33.850262],[134.740758,33.84979]]],[[[134.675217,33.852998],[134.674396,33.851833],[134.67445,33.852782],[134.675217,33.852998]]],[[[134.691135,33.852463],[134.690815,33.853959],[134.692201,33.854345],[134.691135,33.852463]]],[[[134.820406,33.851238],[134.819609,33.85037],[134.82093,33.849375],[134.819464,33.849285],[134.819015,33.848848],[134.819802,33.84818],[134.818958,33.84754],[134.817095,33.847992],[134.817384,33.846883],[134.816085,33.84637],[134.817667,33.844737],[134.818791,33.844431],[134.819333,33.843578],[134.819553,33.842759],[134.818764,33.843183],[134.817835,33.842787],[134.816951,33.841973],[134.816542,33.8426],[134.815861,33.842478],[134.813627,33.841287],[134.812764,33.840638],[134.811824,33.840369],[134.810161,33.840515],[134.80901,33.83998],[134.809025,33.841489],[134.807803,33.841047],[134.807788,33.841704],[134.806588,33.843017],[134.805231,33.844188],[134.806359,33.845612],[134.806406,33.844942],[134.807042,33.845171],[134.806638,33.846228],[134.806891,33.846791],[134.808727,33.847789],[134.808652,33.848751],[134.808885,33.850478],[134.806834,33.851656],[134.812087,33.851081],[134.812784,33.851583],[134.816091,33.855513],[134.819967,33.857545],[134.820283,33.856877],[134.820775,33.856525],[134.82147,33.856185],[134.821286,33.855439],[134.820813,33.855049],[134.819491,33.851824],[134.820406,33.851238]]],[[[134.710855,33.857049],[134.712109,33.856225],[134.713069,33.856248],[134.714414,33.856979],[134.714698,33.856392],[134.714384,33.855794],[134.709356,33.852805],[134.708383,33.854457],[134.709939,33.856025],[134.710021,33.85666],[134.710335,33.85755],[134.710855,33.857049]]],[[[134.687542,33.862875],[134.687343,33.86197],[134.686619,33.86202],[134.68651,33.862774],[134.687542,33.862875]]],[[[134.71632,33.863347],[134.716849,33.862706],[134.715776,33.862876],[134.71632,33.863347]]],[[[134.656734,33.867512],[134.657815,33.867318],[134.657794,33.868064],[134.658955,33.867864],[134.659921,33.866013],[134.663164,33.866312],[134.661607,33.865151],[134.661528,33.863155],[134.664027,33.861394],[134.661975,33.860007],[134.659568,33.861193],[134.659398,33.859758],[134.657397,33.857726],[134.657248,33.856171],[134.654624,33.853734],[134.649241,33.854051],[134.649394,33.85625],[134.647817,33.857622],[134.646497,33.856983],[134.645842,33.858302],[134.647233,33.860365],[134.646839,33.861704],[134.648195,33.863878],[134.653874,33.863827],[134.653947,33.864573],[134.652838,33.864708],[134.653159,33.867654],[134.65623,33.867417],[134.656546,33.868531],[134.656734,33.867512]]],[[[134.678435,33.86646],[134.677232,33.863136],[134.678095,33.861657],[134.674888,33.860028],[134.67284,33.859869],[134.673829,33.861429],[134.672431,33.862579],[134.672113,33.864833],[134.672745,33.865985],[134.671516,33.867542],[134.6726,33.867839],[134.673443,33.865377],[134.674651,33.865018],[134.678278,33.868718],[134.678073,33.869592],[134.680046,33.869741],[134.679705,33.868558],[134.681461,33.868013],[134.681396,33.867452],[134.679373,33.867369],[134.678435,33.86646]]],[[[134.651898,33.871234],[134.654087,33.871301],[134.652036,33.870736],[134.651898,33.871234]]],[[[134.66728,33.877307],[134.667452,33.876796],[134.67159,33.877095],[134.673438,33.8765],[134.66904,33.876585],[134.667087,33.875921],[134.664715,33.876701],[134.66728,33.877307]]],[[[134.674674,33.8785],[134.67506,33.87784],[134.673823,33.877758],[134.674674,33.8785]]],[[[134.674674,33.8785],[134.675587,33.879214],[134.676361,33.879256],[134.674674,33.8785]]],[[[134.713762,33.911337],[134.713044,33.911205],[134.711592,33.911492],[134.712585,33.912221],[134.714236,33.91231],[134.713762,33.911337]]],[[[134.709143,33.914396],[134.708947,33.913742],[134.708307,33.913981],[134.709143,33.914396]]],[[[134.722219,33.919278],[134.722089,33.918257],[134.72152,33.917884],[134.719946,33.917838],[134.719773,33.91865],[134.720559,33.918516],[134.722219,33.919278]]],[[[134.724979,33.924976],[134.723394,33.92473],[134.724024,33.925234],[134.724979,33.924976]]],[[[134.722808,33.926098],[134.722626,33.925036],[134.721421,33.924115],[134.718747,33.923604],[134.720348,33.924456],[134.721039,33.924699],[134.720884,33.925685],[134.721667,33.925526],[134.722292,33.92594],[134.722808,33.926098]]],[[[134.651898,33.871234],[134.650037,33.870727],[134.647538,33.873985],[134.646553,33.873082],[134.646103,33.873657],[134.645252,33.874376],[134.643888,33.873839],[134.644634,33.873098],[134.645735,33.871629],[134.644931,33.871348],[134.64432,33.872136],[134.643224,33.871469],[134.643828,33.870962],[134.639987,33.869506],[134.638829,33.871036],[134.639015,33.872028],[134.637735,33.871798],[134.63867,33.869172],[134.636468,33.868726],[134.634944,33.869356],[134.635737,33.868742],[134.633981,33.866031],[134.632916,33.86665],[134.632239,33.865539],[134.632158,33.864157],[134.632832,33.86343],[134.631494,33.863108],[134.629574,33.861075],[134.628792,33.856948],[134.631189,33.856731],[134.632844,33.857186],[134.633036,33.857947],[134.634775,33.858141],[134.635678,33.859194],[134.63869,33.859222],[134.639668,33.861701],[134.639142,33.86365],[134.640532,33.8632],[134.641471,33.864773],[134.643639,33.864772],[134.646671,33.866594],[134.645641,33.864759],[134.646876,33.863071],[134.644363,33.862544],[134.645851,33.86037],[134.644697,33.859981],[134.644793,33.858633],[134.644093,33.857863],[134.644244,33.85708],[134.645373,33.856967],[134.645253,33.855243],[134.642677,33.853165],[134.6434,33.852138],[134.646888,33.853137],[134.64813,33.852381],[134.646438,33.851336],[134.646041,33.849878],[134.642334,33.848622],[134.639321,33.84563],[134.639693,33.84435],[134.640559,33.844358],[134.643321,33.842902],[134.647934,33.843204],[134.648971,33.845117],[134.651203,33.845367],[134.652295,33.844431],[134.653678,33.844634],[134.656096,33.846289],[134.65602,33.84843],[134.657529,33.848806],[134.658472,33.847967],[134.660056,33.847766],[134.660153,33.844579],[134.662117,33.843581],[134.663451,33.844742],[134.662913,33.846429],[134.663418,33.848391],[134.665268,33.847727],[134.665836,33.848271],[134.666895,33.848272],[134.668154,33.847123],[134.66845,33.846641],[134.668227,33.84407],[134.669098,33.843748],[134.669852,33.844918],[134.671599,33.846969],[134.671542,33.84854],[134.671744,33.849039],[134.672292,33.849284],[134.673296,33.849572],[134.673537,33.850095],[134.674234,33.850255],[134.675741,33.849989],[134.674579,33.849215],[134.674885,33.846659],[134.676807,33.847369],[134.67799,33.846601],[134.678217,33.848652],[134.679448,33.849839],[134.67895,33.850675],[134.679524,33.851115],[134.680031,33.851375],[134.680858,33.85161],[134.680224,33.850226],[134.68135,33.849564],[134.684987,33.85118],[134.685255,33.850121],[134.686427,33.849991],[134.687702,33.850651],[134.687113,33.852775],[134.687862,33.852899],[134.688539,33.851595],[134.690382,33.851764],[134.691135,33.852463],[134.69138,33.851525],[134.692496,33.850999],[134.690812,33.849677],[134.692208,33.848271],[134.696309,33.848962],[134.697108,33.850628],[134.698379,33.849042],[134.700471,33.849904],[134.70171,33.849757],[134.702207,33.849362],[134.702166,33.848635],[134.703426,33.84816],[134.704622,33.848513],[134.70768,33.850656],[134.710265,33.850449],[134.711065,33.850509],[134.712144,33.849958],[134.717417,33.848414],[134.7186,33.84748],[134.718337,33.846035],[134.719394,33.845428],[134.720334,33.845076],[134.718361,33.844215],[134.714418,33.844301],[134.710506,33.842691],[134.706443,33.842837],[134.704914,33.841851],[134.702978,33.841893],[134.702076,33.843114],[134.702243,33.841789],[134.700159,33.841291],[134.697147,33.841738],[134.694728,33.841112],[134.692839,33.840734],[134.692296,33.839376],[134.691658,33.838409],[134.688624,33.839297],[134.686197,33.836634],[134.68468,33.836426],[134.684118,33.835356],[134.685068,33.834839],[134.68476,33.833975],[134.681417,33.833995],[134.682175,33.833487],[134.679018,33.834243],[134.678491,33.832236],[134.680186,33.830323],[134.683333,33.830285],[134.685606,33.831605],[134.690221,33.83326],[134.694914,33.831879],[134.695924,33.83296],[134.698184,33.833189],[134.697376,33.834293],[134.698609,33.836305],[134.699236,33.835883],[134.700636,33.836444],[134.703285,33.835676],[134.705286,33.836089],[134.706933,33.834697],[134.708292,33.835529],[134.71025,33.835366],[134.711946,33.834255],[134.714816,33.83514],[134.715178,33.836192],[134.716143,33.836114],[134.717255,33.835121],[134.716918,33.833907],[134.716798,33.832286],[134.719867,33.831441],[134.721155,33.832256],[134.721005,33.833124],[134.722257,33.834874],[134.724354,33.834431],[134.726898,33.834888],[134.727632,33.836555],[134.728462,33.836973],[134.729893,33.837272],[134.730167,33.83853],[134.731929,33.839788],[134.732972,33.839593],[134.733813,33.839574],[134.734515,33.839424],[134.735307,33.840204],[134.737083,33.839832],[134.737823,33.840497],[134.739547,33.840568],[134.741542,33.842168],[134.744204,33.840286],[134.743466,33.83997],[134.742832,33.839454],[134.743454,33.837351],[134.750301,33.833942],[134.74729,33.832125],[134.746291,33.831075],[134.744996,33.831541],[134.743932,33.830659],[134.740433,33.829796],[134.73705,33.829316],[134.735702,33.828396],[134.735282,33.827362],[134.734769,33.826509],[134.73213,33.825751],[134.731793,33.825236],[134.730457,33.824178],[134.729216,33.8234],[134.728411,33.824229],[134.726787,33.82349],[134.725918,33.823278],[134.72525,33.822901],[134.724721,33.823713],[134.72169,33.823851],[134.720448,33.823152],[134.718918,33.820063],[134.71824,33.819529],[134.717143,33.819514],[134.714544,33.818682],[134.713967,33.818639],[134.71231,33.817247],[134.711156,33.817414],[134.709744,33.816833],[134.707046,33.81623],[134.70463,33.814336],[134.702677,33.814132],[134.698544,33.812087],[134.698503,33.812729],[134.695358,33.812498],[134.693829,33.811128],[134.694407,33.810626],[134.692902,33.810042],[134.693182,33.80905],[134.691053,33.808741],[134.6906,33.807153],[134.689042,33.80553],[134.686643,33.806049],[134.684765,33.804932],[134.683315,33.806155],[134.681389,33.804785],[134.678939,33.804479],[134.678857,33.80539],[134.679951,33.806699],[134.677477,33.809552],[134.677753,33.81116],[134.676915,33.812972],[134.677579,33.814324],[134.675924,33.814546],[134.675607,33.816098],[134.674769,33.816396],[134.672234,33.815872],[134.669158,33.813574],[134.668146,33.81429],[134.665979,33.814367],[134.664365,33.813262],[134.663915,33.810358],[134.662249,33.809488],[134.659796,33.809624],[134.654932,33.808388],[134.650864,33.805398],[134.646163,33.806042],[134.644323,33.804856],[134.639653,33.804417],[134.638835,33.803142],[134.63072,33.800084],[134.626826,33.799201],[134.625313,33.799943],[134.622748,33.799679],[134.612251,33.792976],[134.610167,33.789251],[134.606907,33.789164],[134.605329,33.788196],[134.603692,33.789317],[134.60172,33.789509],[134.598355,33.7872],[134.596429,33.789599],[134.594983,33.789512],[134.59236,33.787825],[134.589231,33.787038],[134.588186,33.785878],[134.583913,33.786187],[134.582263,33.78562],[134.577379,33.786297],[134.577353,33.788415],[134.575631,33.789756],[134.572292,33.789319],[134.570767,33.793145],[134.567303,33.793208],[134.565797,33.794064],[134.564627,33.793354],[134.561972,33.793543],[134.560092,33.79645],[134.557673,33.798386],[134.557029,33.800994],[134.553078,33.801842],[134.549016,33.804702],[134.548536,33.806159],[134.542739,33.805703],[134.540484,33.804071],[134.531733,33.803002],[134.528154,33.804079],[134.524537,33.805847],[134.524073,33.807201],[134.522253,33.807947],[134.518696,33.806589],[134.511786,33.806476],[134.507817,33.812993],[134.508421,33.817057],[134.511054,33.819731],[134.510076,33.822938],[134.514973,33.828926],[134.517011,33.82864],[134.519073,33.829636],[134.520293,33.831664],[134.523625,33.834125],[134.525195,33.839086],[134.525052,33.842278],[134.528812,33.843737],[134.530528,33.846964],[134.531783,33.847888],[134.534865,33.84959],[134.537135,33.849875],[134.539543,33.852377],[134.545689,33.851731],[134.551147,33.854592],[134.556346,33.854472],[134.555585,33.860583],[134.556544,33.864071],[134.555456,33.865912],[134.556111,33.869038],[134.545647,33.86883],[134.543118,33.8701],[134.540294,33.873288],[134.531076,33.873088],[134.529784,33.873735],[134.526214,33.872719],[134.522472,33.872984],[134.520885,33.874224],[134.515491,33.871062],[134.512253,33.870839],[134.511261,33.870004],[134.502319,33.867639],[134.498151,33.865285],[134.497136,33.866133],[134.497112,33.871401],[134.491556,33.871942],[134.489877,33.870689],[134.488984,33.868711],[134.482633,33.870581],[134.478641,33.870955],[134.473425,33.869371],[134.472137,33.867693],[134.46968,33.868386],[134.467874,33.869855],[134.467165,33.872218],[134.471483,33.877343],[134.474247,33.882279],[134.471779,33.883257],[134.469921,33.885848],[134.468999,33.885807],[134.467807,33.889397],[134.468308,33.892036],[134.473819,33.896606],[134.475208,33.901237],[134.480225,33.90218],[134.481138,33.903767],[134.484165,33.906187],[134.492554,33.910874],[134.498546,33.910862],[134.504121,33.907961],[134.50565,33.909544],[134.509388,33.910557],[134.51473,33.913969],[134.51659,33.918102],[134.519217,33.918163],[134.521741,33.91572],[134.525639,33.916993],[134.530072,33.917424],[134.530885,33.918141],[134.530643,33.920367],[134.531696,33.923939],[134.534718,33.924189],[134.53583,33.925769],[134.535632,33.927789],[134.543314,33.931152],[134.548715,33.931375],[134.557862,33.933463],[134.557566,33.935167],[134.560597,33.939659],[134.564493,33.938709],[134.56523,33.937888],[134.567836,33.939012],[134.570061,33.940975],[134.572654,33.941705],[134.575098,33.944225],[134.574752,33.944786],[134.580717,33.945097],[134.584867,33.946551],[134.588019,33.946174],[134.590728,33.94778],[134.595984,33.94837],[134.597045,33.949311],[134.598641,33.949433],[134.600226,33.94862],[134.601777,33.949647],[134.605056,33.948984],[134.608664,33.949376],[134.611868,33.950616],[134.612295,33.95165],[134.611142,33.954523],[134.611327,33.956829],[134.613338,33.957465],[134.612952,33.958194],[134.613649,33.95795],[134.614013,33.960414],[134.613333,33.960822],[134.615114,33.961731],[134.614445,33.9623],[134.614883,33.963054],[134.619655,33.964956],[134.620877,33.967457],[134.622139,33.968462],[134.624082,33.968452],[134.62469,33.969738],[134.626394,33.967973],[134.625794,33.966366],[134.627217,33.965952],[134.627965,33.966902],[134.629351,33.965795],[134.631344,33.965684],[134.63152,33.964547],[134.635745,33.96373],[134.635344,33.967342],[134.638728,33.969205],[134.639612,33.97373],[134.64143,33.974813],[134.64161,33.977801],[134.644437,33.981004],[134.644328,33.982027],[134.65208,33.985816],[134.6533,33.983458],[134.653468,33.982698],[134.65397,33.981687],[134.655175,33.979749],[134.657711,33.97531],[134.659221,33.973387],[134.659936,33.972089],[134.661904,33.971883],[134.660455,33.971679],[134.661529,33.970028],[134.662732,33.967714],[134.668305,33.962085],[134.670732,33.961079],[134.683767,33.958668],[134.687293,33.956133],[134.688125,33.956333],[134.689474,33.953909],[134.691055,33.953513],[134.693127,33.9517],[134.69617,33.952177],[134.696899,33.949995],[134.697032,33.948356],[134.703591,33.932479],[134.711079,33.930956],[134.704776,33.931758],[134.704103,33.930737],[134.705629,33.925921],[134.701632,33.92211],[134.699556,33.917782],[134.699903,33.916175],[134.699863,33.91472],[134.701849,33.914485],[134.703177,33.913922],[134.702548,33.913622],[134.701986,33.913572],[134.70067,33.913229],[134.697843,33.909903],[134.697326,33.907489],[134.697854,33.90675],[134.698855,33.906873],[134.698583,33.906084],[134.696986,33.905214],[134.696425,33.904146],[134.695889,33.903551],[134.694684,33.903277],[134.694342,33.902636],[134.693083,33.903746],[134.687415,33.900025],[134.683554,33.893832],[134.68431,33.891825],[134.683626,33.891448],[134.683064,33.890991],[134.682279,33.890642],[134.681182,33.889788],[134.68003,33.889052],[134.678811,33.888398],[134.678167,33.888164],[134.677342,33.88724],[134.676727,33.88419],[134.678309,33.883457],[134.677511,33.883146],[134.67723,33.882683],[134.67648,33.881983],[134.674453,33.88163],[134.67505,33.880459],[134.675226,33.879726],[134.67301,33.880257],[134.675439,33.883601],[134.675595,33.885942],[134.674595,33.886586],[134.674871,33.88567],[134.673748,33.886055],[134.672695,33.886234],[134.672112,33.885463],[134.671299,33.885969],[134.671226,33.885436],[134.673394,33.884602],[134.66911,33.885315],[134.667373,33.879263],[134.66631,33.878758],[134.662204,33.879705],[134.661229,33.881517],[134.656427,33.881584],[134.655233,33.882639],[134.653335,33.882435],[134.653429,33.880848],[134.656587,33.879261],[134.660767,33.875837],[134.659451,33.874929],[134.65819,33.875432],[134.658967,33.874567],[134.658506,33.874109],[134.656205,33.872403],[134.651898,33.871234]]]]}}]}