{"type":"FeatureCollection","features":[{"type":"Feature","properties":{},"geometry":{"type":"MultiPolygon","coordinates":[[[[134.408149,34.226984],[134.411382,34.224522],[134.409848,34.225075],[134.408149,34.226984]]],[[[134.445672,34.239223],[134.443791,34.23886],[134.444638,34.239316],[134.445672,34.239223]]],[[[134.364071,34.249527],[134.363704,34.250362],[134.364774,34.250322],[134.364071,34.249527]]],[[[134.342588,34.255987],[134.343846,34.254733],[134.342646,34.254857],[134.342588,34.255987]]],[[[134.383649,34.268365],[134.383881,34.267561],[134.383009,34.268074],[134.383649,34.268365]]],[[[134.32132,34.268779],[134.322877,34.267959],[134.323727,34.266914],[134.32132,34.268779]]],[[[134.32132,34.268779],[134.320762,34.268168],[134.322967,34.267113],[134.323489,34.265561],[134.333531,34.258715],[134.334165,34.258642],[134.335766,34.26048],[134.339275,34.258177],[134.338592,34.256722],[134.339886,34.255915],[134.34172,34.256426],[134.340529,34.25505],[134.343558,34.253712],[134.342341,34.253363],[134.343215,34.252333],[134.344486,34.253548],[134.347687,34.252245],[134.351796,34.252089],[134.356025,34.253922],[134.362222,34.24994],[134.364071,34.249527],[134.364913,34.249238],[134.369197,34.249827],[134.372611,34.251161],[134.373187,34.251985],[134.374422,34.252043],[134.377079,34.253936],[134.377322,34.254507],[134.376366,34.25483],[134.376529,34.255385],[134.3778,34.25495],[134.377979,34.255791],[134.376619,34.256483],[134.375806,34.256278],[134.376446,34.257283],[134.375511,34.259566],[134.37848,34.261679],[134.381655,34.258173],[134.390201,34.254971],[134.393399,34.251584],[134.398786,34.242288],[134.39794,34.239857],[134.39742,34.240081],[134.396386,34.238781],[134.397031,34.237715],[134.399202,34.236504],[134.399646,34.237265],[134.401696,34.238437],[134.404532,34.237692],[134.406207,34.238242],[134.411644,34.235625],[134.412244,34.232593],[134.407893,34.231036],[134.405914,34.230991],[134.405688,34.231915],[134.404656,34.230807],[134.404886,34.229648],[134.406217,34.230174],[134.406092,34.227608],[134.406673,34.226136],[134.408078,34.224596],[134.409554,34.224447],[134.409182,34.224004],[134.410025,34.22324],[134.41195,34.222369],[134.412936,34.223824],[134.413029,34.222094],[134.41585,34.220896],[134.415243,34.220741],[134.415291,34.219441],[134.423696,34.213752],[134.424086,34.214222],[134.426738,34.212986],[134.426759,34.211937],[134.430318,34.210035],[134.437799,34.207012],[134.439698,34.20719],[134.440207,34.207854],[134.440505,34.203325],[134.439825,34.202574],[134.440701,34.199659],[134.438865,34.197801],[134.439403,34.195595],[134.438274,34.195154],[134.437901,34.194081],[134.438891,34.190829],[134.437964,34.18945],[134.431762,34.186417],[134.429196,34.183193],[134.430519,34.179007],[134.433566,34.178842],[134.433888,34.178054],[134.434145,34.174599],[134.432735,34.172946],[134.43383,34.169965],[134.433209,34.16822],[134.431107,34.167942],[134.430334,34.167115],[134.428464,34.167442],[134.425194,34.165708],[134.419414,34.157804],[134.412932,34.156883],[134.411522,34.159114],[134.412244,34.160295],[134.411442,34.161496],[134.407419,34.162549],[134.404178,34.167046],[134.402499,34.167886],[134.400054,34.167764],[134.395763,34.164196],[134.391526,34.163761],[134.388133,34.165275],[134.385287,34.165219],[134.384986,34.168297],[134.382973,34.172234],[134.375658,34.171786],[134.374978,34.173346],[134.371826,34.175601],[134.370291,34.175849],[134.368693,34.178255],[134.36319,34.181787],[134.360259,34.182093],[134.358946,34.183114],[134.358927,34.184127],[134.357296,34.184889],[134.351285,34.185506],[134.349633,34.185237],[134.348064,34.183874],[134.346298,34.175316],[134.344193,34.17238],[134.333969,34.175552],[134.332771,34.174641],[134.329419,34.174243],[134.328314,34.173167],[134.321576,34.175177],[134.318822,34.175304],[134.314563,34.177256],[134.310504,34.174611],[134.308495,34.170881],[134.306155,34.170862],[134.305095,34.170155],[134.300857,34.170427],[134.297906,34.168639],[134.296752,34.169392],[134.296208,34.172535],[134.29405,34.175753],[134.293819,34.177542],[134.292233,34.179143],[134.288707,34.17897],[134.287219,34.180061],[134.285588,34.179798],[134.282499,34.178713],[134.281532,34.177316],[134.277248,34.176464],[134.274374,34.178761],[134.273551,34.181081],[134.267532,34.182147],[134.266077,34.183213],[134.263751,34.182878],[134.260126,34.183533],[134.256692,34.181938],[134.256575,34.180954],[134.254753,34.180158],[134.253753,34.18075],[134.25084,34.18051],[134.247428,34.17873],[134.244489,34.179684],[134.243753,34.180671],[134.242589,34.179793],[134.24066,34.180262],[134.239842,34.179641],[134.237027,34.180451],[134.235,34.179708],[134.2325,34.180573],[134.230654,34.179818],[134.228439,34.18081],[134.228019,34.178551],[134.226953,34.177784],[134.223703,34.179842],[134.222224,34.179349],[134.22088,34.179921],[134.216008,34.176376],[134.208726,34.174726],[134.209717,34.176036],[134.213145,34.177951],[134.213391,34.179695],[134.214506,34.180652],[134.214366,34.182102],[134.212415,34.18494],[134.212467,34.186513],[134.214033,34.187641],[134.214792,34.189924],[134.216089,34.191029],[134.213192,34.191294],[134.212421,34.193009],[134.209933,34.194662],[134.208911,34.197827],[134.206837,34.200211],[134.20879,34.203166],[134.212884,34.202913],[134.217048,34.203707],[134.21703,34.209209],[134.219923,34.209887],[134.221043,34.208884],[134.225817,34.209272],[134.228876,34.208087],[134.233899,34.211629],[134.237971,34.213108],[134.240729,34.215853],[134.242526,34.216758],[134.246465,34.216758],[134.253121,34.221357],[134.255162,34.219866],[134.257384,34.220148],[134.259011,34.21944],[134.26414,34.220598],[134.268803,34.218285],[134.272061,34.215564],[134.27601,34.215009],[134.27542,34.218751],[134.274584,34.219841],[134.274374,34.222891],[134.275006,34.224228],[134.274231,34.224966],[134.274167,34.227003],[134.275165,34.228635],[134.273806,34.233715],[134.272723,34.235149],[134.273467,34.235941],[134.273423,34.238006],[134.27613,34.238258],[134.277134,34.239154],[134.276826,34.240404],[134.277894,34.242279],[134.280931,34.243141],[134.281922,34.244263],[134.279905,34.244763],[134.278174,34.247292],[134.278069,34.247828],[134.280066,34.248702],[134.274943,34.252011],[134.275329,34.254891],[134.274283,34.256416],[134.275973,34.258162],[134.276004,34.260138],[134.277118,34.261077],[134.276321,34.263384],[134.27788,34.263754],[134.279501,34.262789],[134.282964,34.265048],[134.284427,34.268347],[134.28671,34.27031],[134.288105,34.275301],[134.29153,34.274239],[134.292639,34.27429],[134.293903,34.273918],[134.295062,34.275639],[134.294502,34.274118],[134.29607,34.274022],[134.297588,34.275643],[134.302698,34.275994],[134.303996,34.276889],[134.303643,34.277535],[134.304629,34.277517],[134.305828,34.278647],[134.308752,34.275558],[134.309673,34.275947],[134.311321,34.274652],[134.313015,34.274839],[134.31782,34.271074],[134.31929,34.271313],[134.319072,34.269638],[134.320352,34.26852],[134.32132,34.268779]]],[[[134.370348,34.278171],[134.369624,34.278107],[134.370169,34.278779],[134.370348,34.278171]]],[[[134.296655,34.279749],[134.29526,34.27939],[134.295511,34.279953],[134.296655,34.279749]]],[[[134.308249,34.28291],[134.307822,34.282415],[134.30863,34.280487],[134.308696,34.279934],[134.306978,34.280814],[134.306834,34.282307],[134.308249,34.28291]]],[[[134.308249,34.28291],[134.307748,34.284115],[134.30908,34.284575],[134.309822,34.283303],[134.308249,34.28291]]]]}}]}