{"type":"FeatureCollection","features":[{"type":"Feature","properties":{},"geometry":{"type":"MultiPolygon","coordinates":[[[[132.483984,33.315014],[132.487141,33.313445],[132.484932,33.312927],[132.48364,33.314632],[132.483984,33.315014]]],[[[132.379086,33.345714],[132.379651,33.34523],[132.381065,33.345671],[132.380512,33.344561],[132.378768,33.343099],[132.377186,33.345403],[132.378548,33.344859],[132.379086,33.345714]]],[[[132.385677,33.351338],[132.384812,33.351285],[132.385717,33.351938],[132.385677,33.351338]]],[[[132.403971,33.359097],[132.402606,33.358809],[132.404143,33.360782],[132.40471,33.360271],[132.403971,33.359097]]],[[[132.386316,33.367762],[132.380204,33.364848],[132.386237,33.36945],[132.386816,33.368314],[132.386316,33.367762]]],[[[132.483984,33.315014],[132.481097,33.31535],[132.481119,33.316164],[132.47907,33.317582],[132.477174,33.317121],[132.474641,33.318451],[132.473554,33.317842],[132.471237,33.31882],[132.470269,33.318115],[132.469241,33.31937],[132.468454,33.31935],[132.465268,33.316895],[132.464917,33.31481],[132.466787,33.314838],[132.46749,33.313949],[132.469416,33.314227],[132.469729,33.313275],[132.465189,33.312938],[132.462532,33.310621],[132.457965,33.310514],[132.454241,33.308906],[132.445272,33.310039],[132.442149,33.312256],[132.441277,33.312268],[132.440732,33.311418],[132.434562,33.31578],[132.434574,33.317925],[132.433642,33.319746],[132.430561,33.318865],[132.432622,33.319935],[132.430327,33.319737],[132.429671,33.31933],[132.429919,33.317883],[132.427229,33.316262],[132.424852,33.313648],[132.426786,33.310958],[132.423042,33.308307],[132.423529,33.306744],[132.4231,33.30418],[132.421252,33.303408],[132.419442,33.303999],[132.416264,33.303785],[132.412161,33.307174],[132.408006,33.306248],[132.403506,33.307863],[132.400429,33.309339],[132.399769,33.309948],[132.399158,33.310869],[132.400624,33.311858],[132.400386,33.312804],[132.399171,33.313398],[132.399811,33.31436],[132.399182,33.316279],[132.39311,33.318401],[132.395526,33.317891],[132.393886,33.31928],[132.391846,33.318848],[132.388329,33.317212],[132.385138,33.320058],[132.382481,33.321186],[132.380108,33.321292],[132.374609,33.319893],[132.373251,33.31781],[132.372707,33.317731],[132.370588,33.318617],[132.370173,33.31934],[132.370581,33.320111],[132.370007,33.320461],[132.369679,33.324483],[132.36901,33.32494],[132.37069,33.325311],[132.370466,33.326485],[132.371612,33.328577],[132.373176,33.328138],[132.374598,33.329567],[132.374514,33.331617],[132.375196,33.331944],[132.375127,33.333396],[132.376184,33.334507],[132.376423,33.33713],[132.37714,33.337785],[132.381861,33.338581],[132.38353,33.338038],[132.384587,33.338866],[132.384822,33.342988],[132.385444,33.343465],[132.386844,33.340456],[132.386073,33.340347],[132.385687,33.339103],[132.386539,33.338741],[132.386413,33.337608],[132.388959,33.337711],[132.392207,33.339658],[132.392743,33.340996],[132.391827,33.34093],[132.392489,33.342046],[132.391663,33.343115],[132.393229,33.344914],[132.391886,33.346392],[132.39222,33.347185],[132.394521,33.347179],[132.395069,33.345236],[132.395999,33.344743],[132.39733,33.345712],[132.399436,33.345825],[132.400698,33.347286],[132.402762,33.347465],[132.405128,33.34648],[132.406734,33.34692],[132.407067,33.344843],[132.408471,33.344466],[132.409581,33.343171],[132.41105,33.34314],[132.411544,33.346722],[132.410386,33.350637],[132.40884,33.351927],[132.408771,33.353183],[132.418637,33.353976],[132.420046,33.35555],[132.41968,33.356312],[132.420422,33.356648],[132.420046,33.358351],[132.417531,33.359612],[132.415889,33.361944],[132.414392,33.362089],[132.40751,33.359773],[132.406132,33.360191],[132.410725,33.364658],[132.410503,33.365854],[132.412674,33.370515],[132.412215,33.372616],[132.416292,33.379088],[132.417193,33.378665],[132.418275,33.379209],[132.420417,33.377583],[132.420778,33.378154],[132.419679,33.37883],[132.420121,33.380078],[132.418846,33.381112],[132.419718,33.381453],[132.419377,33.383052],[132.414891,33.381905],[132.413118,33.384507],[132.410609,33.383965],[132.411082,33.382155],[132.409795,33.378952],[132.407497,33.376931],[132.405146,33.376773],[132.405156,33.375857],[132.402761,33.375041],[132.402479,33.373709],[132.403111,33.373066],[132.40571,33.37391],[132.404134,33.37109],[132.399528,33.371038],[132.396276,33.369864],[132.395537,33.369484],[132.396357,33.369131],[132.395641,33.368412],[132.395067,33.369172],[132.394294,33.368909],[132.390089,33.365201],[132.38496,33.362144],[132.384278,33.361858],[132.383988,33.363206],[132.389296,33.367087],[132.389503,33.369692],[132.389271,33.370704],[132.388455,33.370992],[132.389067,33.371929],[132.388006,33.372533],[132.387271,33.370646],[132.386644,33.372089],[132.387758,33.373514],[132.38748,33.374972],[132.385979,33.376855],[132.385365,33.376679],[132.384665,33.376735],[132.384466,33.378104],[132.384115,33.378779],[132.383706,33.381947],[132.380747,33.384577],[132.378992,33.384761],[132.380171,33.386195],[132.385335,33.387866],[132.386629,33.387664],[132.388621,33.385324],[132.391001,33.385637],[132.392491,33.387163],[132.397751,33.387396],[132.399118,33.390983],[132.409182,33.398512],[132.410098,33.401735],[132.408758,33.402947],[132.410563,33.404312],[132.410257,33.405639],[132.411314,33.407149],[132.410704,33.408556],[132.412723,33.40999],[132.415038,33.410445],[132.423994,33.417787],[132.427112,33.415913],[132.430982,33.408044],[132.432933,33.408205],[132.434628,33.409597],[132.436396,33.409964],[132.447363,33.407739],[132.450453,33.408247],[132.449314,33.404978],[132.451524,33.401089],[132.453968,33.401874],[132.456105,33.401618],[132.458294,33.402709],[132.462104,33.402479],[132.4635,33.404757],[132.464674,33.40519],[132.468948,33.404232],[132.472069,33.404934],[132.474064,33.407557],[132.479111,33.407098],[132.48258,33.407783],[132.481538,33.409942],[132.481722,33.41215],[132.47888,33.415227],[132.478438,33.417514],[132.475769,33.417625],[132.47626,33.420351],[132.482556,33.425615],[132.481653,33.428362],[132.481965,33.430198],[132.484121,33.43304],[132.486906,33.435057],[132.488241,33.442562],[132.494795,33.446262],[132.499006,33.446791],[132.501469,33.448036],[132.502246,33.450065],[132.510226,33.451859],[132.512467,33.451691],[132.514343,33.452573],[132.519391,33.450411],[132.522646,33.450486],[132.524956,33.451851],[132.527176,33.451142],[132.529322,33.452764],[132.531251,33.451909],[132.52874,33.450097],[132.529544,33.449127],[132.530199,33.445277],[132.533582,33.444183],[132.534184,33.442699],[132.535886,33.441322],[132.53745,33.441291],[132.539453,33.438624],[132.550187,33.439599],[132.550531,33.438284],[132.551947,33.438257],[132.553252,33.436871],[132.556355,33.439148],[132.559996,33.440459],[132.560947,33.442266],[132.564171,33.443254],[132.563732,33.446249],[132.566761,33.448357],[132.5673,33.449824],[132.573399,33.453691],[132.576449,33.449403],[132.582088,33.445934],[132.581956,33.443206],[132.583615,33.44317],[132.583859,33.441677],[132.586554,33.439582],[132.590672,33.434431],[132.593896,33.434732],[132.597891,33.438276],[132.600793,33.438594],[132.610481,33.435893],[132.610866,33.438436],[132.616336,33.439761],[132.622745,33.439128],[132.628147,33.440836],[132.632791,33.439743],[132.63401,33.438246],[132.633351,33.437253],[132.634268,33.435212],[132.638411,33.433956],[132.640259,33.432584],[132.642597,33.43251],[132.646897,33.428491],[132.650233,33.427422],[132.651017,33.425579],[132.654232,33.424072],[132.666159,33.422018],[132.668386,33.420295],[132.670972,33.419411],[132.674258,33.419871],[132.676374,33.424601],[132.681192,33.427123],[132.685194,33.424476],[132.687016,33.424512],[132.689926,33.42609],[132.692097,33.425597],[132.690637,33.423993],[132.68996,33.420984],[132.690053,33.420027],[132.691699,33.418587],[132.699814,33.422514],[132.701937,33.421574],[132.702207,33.419924],[132.704772,33.419668],[132.7065,33.421308],[132.70683,33.424318],[132.707697,33.424532],[132.708207,33.425662],[132.711707,33.426787],[132.712938,33.431005],[132.711865,33.43411],[132.712654,33.435813],[132.713537,33.435809],[132.714763,33.437434],[132.713887,33.439632],[132.715136,33.443065],[132.713532,33.445982],[132.713867,33.447355],[132.713097,33.450415],[132.711087,33.450522],[132.710626,33.451771],[132.710407,33.452665],[132.711563,33.453907],[132.713834,33.454984],[132.715168,33.454861],[132.715856,33.455639],[132.7266,33.455579],[132.729987,33.454392],[132.731642,33.448215],[132.732661,33.447503],[132.739797,33.449279],[132.741013,33.451244],[132.741119,33.45314],[132.742486,33.453302],[132.743899,33.451739],[132.745016,33.452067],[132.745707,33.453597],[132.746479,33.453759],[132.746727,33.45538],[132.748339,33.456949],[132.749246,33.459331],[132.748556,33.460081],[132.748679,33.461331],[132.751439,33.467947],[132.751072,33.470097],[132.751834,33.47397],[132.753567,33.475711],[132.752293,33.479118],[132.752336,33.480942],[132.753431,33.481899],[132.754369,33.485839],[132.758499,33.484824],[132.759917,33.486621],[132.762936,33.487894],[132.762405,33.489243],[132.763157,33.490485],[132.763407,33.488382],[132.764273,33.487426],[132.765614,33.489016],[132.76903,33.487468],[132.769899,33.488452],[132.770259,33.486514],[132.773692,33.486449],[132.773578,33.485231],[132.774495,33.484818],[132.777798,33.486009],[132.778097,33.486871],[132.783341,33.486635],[132.782544,33.488459],[132.783587,33.487881],[132.78554,33.488604],[132.790575,33.487833],[132.791638,33.48893],[132.791076,33.491412],[132.794404,33.494798],[132.803276,33.497889],[132.804286,33.501943],[132.805297,33.50292],[132.805091,33.503827],[132.812165,33.506821],[132.814747,33.506712],[132.815555,33.501742],[132.817474,33.502261],[132.819192,33.50002],[132.820195,33.500046],[132.825067,33.503024],[132.828293,33.504005],[132.827965,33.506515],[132.832217,33.510386],[132.833115,33.512319],[132.833798,33.519196],[132.839466,33.521861],[132.843122,33.521923],[132.844833,33.52],[132.845025,33.517812],[132.846408,33.516034],[132.846861,33.511516],[132.850486,33.509791],[132.855424,33.509075],[132.861761,33.505246],[132.865527,33.504339],[132.864953,33.501365],[132.865776,33.500451],[132.870223,33.499882],[132.873708,33.497778],[132.874958,33.499167],[132.879597,33.499938],[132.883625,33.497878],[132.886744,33.497633],[132.891209,33.498417],[132.895959,33.497785],[132.897107,33.494504],[132.897094,33.491169],[132.899624,33.488476],[132.899991,33.486574],[132.900981,33.486314],[132.901426,33.482343],[132.900682,33.480865],[132.899476,33.480743],[132.896619,33.47803],[132.895964,33.476037],[132.900674,33.470352],[132.897961,33.470402],[132.895303,33.471146],[132.893873,33.472476],[132.888939,33.473455],[132.887393,33.472416],[132.883777,33.472913],[132.882103,33.472261],[132.881056,33.470953],[132.877504,33.471782],[132.873686,33.470984],[132.865849,33.472006],[132.859853,33.475716],[132.846938,33.479181],[132.84337,33.477442],[132.839396,33.474256],[132.834126,33.474203],[132.832472,33.476072],[132.830835,33.475194],[132.830763,33.474345],[132.829454,33.47466],[132.828594,33.473185],[132.827157,33.472406],[132.824036,33.472272],[132.822187,33.473015],[132.82037,33.472538],[132.821176,33.470063],[132.818866,33.46645],[132.815045,33.464317],[132.811056,33.466062],[132.809392,33.464746],[132.80699,33.460778],[132.807298,33.458076],[132.806474,33.45688],[132.808493,33.455316],[132.808312,33.453407],[132.810177,33.45257],[132.812793,33.452607],[132.813429,33.450999],[132.819583,33.449392],[132.820778,33.448416],[132.821946,33.448621],[132.826454,33.445795],[132.82779,33.438387],[132.824517,33.434673],[132.823981,33.430284],[132.823367,33.429659],[132.825246,33.425339],[132.824915,33.422934],[132.82908,33.422083],[132.830664,33.420439],[132.834013,33.420152],[132.833067,33.418325],[132.833809,33.415671],[132.831397,33.414074],[132.83262,33.413662],[132.83331,33.41188],[132.831619,33.408852],[132.832448,33.406505],[132.833833,33.406152],[132.834216,33.403408],[132.835641,33.401891],[132.835435,33.400644],[132.837118,33.399012],[132.840642,33.397924],[132.841921,33.398462],[132.843061,33.397707],[132.844831,33.398099],[132.846307,33.397482],[132.848928,33.398639],[132.852034,33.397845],[132.854437,33.398398],[132.855723,33.395953],[132.856207,33.391933],[132.855556,33.390056],[132.853047,33.388217],[132.851946,33.386112],[132.843355,33.378948],[132.840124,33.377632],[132.837147,33.378745],[132.836448,33.377305],[132.83373,33.375833],[132.825502,33.373014],[132.826013,33.369717],[132.825168,33.366704],[132.822031,33.361286],[132.821374,33.357104],[132.819272,33.356754],[132.816895,33.355246],[132.811238,33.348792],[132.808901,33.348286],[132.808173,33.346527],[132.802985,33.343042],[132.800183,33.342835],[132.797934,33.34394],[132.793564,33.343755],[132.792308,33.345229],[132.790863,33.343597],[132.788501,33.346356],[132.786998,33.345942],[132.784747,33.346471],[132.783814,33.348839],[132.784172,33.351708],[132.782673,33.354679],[132.780598,33.355985],[132.779175,33.354552],[132.776279,33.353483],[132.773854,33.350944],[132.769347,33.35015],[132.766675,33.348587],[132.760339,33.347137],[132.757737,33.345651],[132.756719,33.344058],[132.754427,33.343025],[132.752441,33.344695],[132.749026,33.345811],[132.744613,33.34559],[132.738684,33.343797],[132.736753,33.344677],[132.733833,33.342705],[132.732581,33.345079],[132.731244,33.346052],[132.724942,33.344352],[132.725386,33.345601],[132.724913,33.348587],[132.723167,33.350534],[132.721861,33.350746],[132.719727,33.350621],[132.718116,33.347725],[132.714008,33.344924],[132.708261,33.346564],[132.705725,33.345983],[132.703829,33.347918],[132.700621,33.347316],[132.697915,33.347664],[132.695692,33.348956],[132.687501,33.349358],[132.687473,33.348184],[132.686612,33.347629],[132.683586,33.348663],[132.679435,33.348285],[132.678536,33.350041],[132.670006,33.349644],[132.668577,33.349032],[132.662524,33.349005],[132.661509,33.348056],[132.660927,33.344173],[132.661596,33.342366],[132.660401,33.341314],[132.660422,33.33906],[132.659538,33.33705],[132.657627,33.336202],[132.656926,33.332336],[132.648489,33.329928],[132.647326,33.328563],[132.643399,33.327225],[132.634316,33.32879],[132.632595,33.330462],[132.630037,33.33097],[132.619921,33.330034],[132.613809,33.330419],[132.609292,33.331779],[132.603941,33.330731],[132.602253,33.32738],[132.600267,33.326528],[132.58278,33.327117],[132.575775,33.329509],[132.570444,33.328296],[132.568962,33.326188],[132.56264,33.326446],[132.553727,33.324364],[132.546447,33.326944],[132.54234,33.326926],[132.535684,33.328296],[132.534126,33.329106],[132.533634,33.330574],[132.52702,33.334267],[132.525557,33.335949],[132.521716,33.336225],[132.519697,33.337772],[132.512783,33.334619],[132.507164,33.334829],[132.507129,33.329977],[132.502807,33.32801],[132.501606,33.326559],[132.500601,33.319005],[132.499013,33.315924],[132.497726,33.314987],[132.498225,33.311874],[132.496817,33.312709],[132.49729,33.314068],[132.495903,33.314546],[132.496762,33.315347],[132.496214,33.315966],[132.496848,33.316639],[132.496544,33.3183],[132.49455,33.319111],[132.495709,33.32215],[132.493363,33.323513],[132.492895,33.325272],[132.491755,33.325481],[132.488776,33.323678],[132.489557,33.321714],[132.48721,33.321703],[132.486733,33.321106],[132.488532,33.319359],[132.489894,33.319107],[132.490177,33.315951],[132.488073,33.317866],[132.486655,33.317567],[132.48502,33.318887],[132.4838,33.31853],[132.481577,33.319522],[132.480676,33.317952],[132.483984,33.315014]]]]}}]}