{"type":"FeatureCollection","features":[{"type":"Feature","properties":{},"geometry":{"type":"Polygon","coordinates":[[[134.099635,33.447515],[134.10516,33.447911],[134.108405,33.446792],[134.108688,33.445914],[134.107241,33.443088],[134.102859,33.443161],[134.101194,33.441311],[134.095007,33.439653],[134.094648,33.438288],[134.095811,33.437043],[134.094216,33.434276],[134.095771,33.432862],[134.092906,33.430246],[134.08724,33.427544],[134.087507,33.423797],[134.088411,33.422554],[134.086729,33.420057],[134.087584,33.417786],[134.086839,33.41662],[134.083251,33.415832],[134.082175,33.416518],[134.080169,33.414672],[134.078786,33.41481],[134.075888,33.413598],[134.07559,33.41236],[134.073854,33.41265],[134.071722,33.409523],[134.068766,33.408024],[134.068631,33.407488],[134.069617,33.407171],[134.069361,33.406236],[134.070851,33.405052],[134.067582,33.40288],[134.06856,33.400093],[134.066008,33.398662],[134.065434,33.397403],[134.066002,33.395943],[134.060174,33.394335],[134.056135,33.392203],[134.052549,33.391698],[134.048572,33.388324],[134.047523,33.386037],[134.045707,33.386273],[134.045686,33.385271],[134.044588,33.3846],[134.04259,33.384032],[134.041284,33.384487],[134.039087,33.383416],[134.034786,33.378432],[134.033871,33.378699],[134.034781,33.379713],[134.0337,33.38007],[134.03411,33.380844],[134.035382,33.380654],[134.036409,33.382981],[134.035752,33.383523],[134.037147,33.382989],[134.037089,33.384495],[134.036029,33.385199],[134.035601,33.386079],[134.036506,33.389225],[134.037296,33.391356],[134.037667,33.393505],[134.036715,33.395386],[134.036309,33.39578],[134.035961,33.396468],[134.035947,33.397593],[134.036242,33.400059],[134.034535,33.401453],[134.033348,33.403966],[134.033877,33.404999],[134.03279,33.405668],[134.031696,33.41144],[134.028869,33.414236],[134.021954,33.417735],[134.020464,33.417624],[134.016157,33.419781],[134.015522,33.42033],[134.016674,33.421715],[134.017259,33.421728],[134.016838,33.42104],[134.019761,33.41992],[134.018719,33.420607],[134.019584,33.422061],[134.015281,33.42395],[134.014497,33.421967],[134.01513,33.421423],[134.01412,33.420743],[134.012922,33.421526],[134.011163,33.422407],[134.016468,33.429047],[134.024231,33.434876],[134.029911,33.440637],[134.033557,33.438296],[134.039303,33.437889],[134.043265,33.43676],[134.046263,33.437527],[134.049286,33.435821],[134.053453,33.43679],[134.055291,33.435334],[134.059358,33.43497],[134.066027,33.435736],[134.065115,33.437661],[134.066051,33.438736],[134.067093,33.438847],[134.067979,33.43785],[134.069887,33.441295],[134.07325,33.440842],[134.076656,33.441432],[134.077393,33.441884],[134.077569,33.443354],[134.079739,33.444053],[134.079873,33.446308],[134.082829,33.446916],[134.083295,33.447681],[134.086048,33.446167],[134.089957,33.448377],[134.093685,33.448034],[134.097043,33.448837],[134.098738,33.448549],[134.099635,33.447515]]]}}]}