{"type":"FeatureCollection","features":[{"type":"Feature","properties":{},"geometry":{"type":"Polygon","coordinates":[[[130.59342,33.547698],[130.595186,33.547397],[130.595597,33.545667],[130.594476,33.542674],[130.595537,33.538939],[130.597841,33.538497],[130.600164,33.536044],[130.601884,33.535547],[130.602163,33.534393],[130.604786,33.532211],[130.604489,33.531024],[130.605305,33.530049],[130.607671,33.529377],[130.609439,33.527234],[130.611814,33.526085],[130.612095,33.525202],[130.611154,33.523544],[130.611635,33.52237],[130.609911,33.519527],[130.612249,33.517125],[130.617552,33.516441],[130.619115,33.514513],[130.619044,33.513283],[130.621305,33.51306],[130.619641,33.510577],[130.619888,33.508602],[130.621657,33.50779],[130.621446,33.506099],[130.617252,33.503303],[130.616313,33.50099],[130.614374,33.500866],[130.614111,33.499793],[130.611078,33.497632],[130.61001,33.495921],[130.610318,33.492887],[130.608275,33.492666],[130.606846,33.491491],[130.604156,33.491477],[130.601583,33.488906],[130.598001,33.487936],[130.596018,33.488317],[130.59178,33.486134],[130.591055,33.486757],[130.589019,33.485734],[130.589215,33.483336],[130.588515,33.481624],[130.585655,33.480971],[130.58547,33.479106],[130.58382,33.478122],[130.582785,33.475757],[130.58067,33.474189],[130.580086,33.472733],[130.578768,33.473514],[130.577932,33.472569],[130.574211,33.473954],[130.574369,33.475126],[130.571339,33.474367],[130.569079,33.476312],[130.566313,33.476807],[130.568399,33.480678],[130.567252,33.481898],[130.560911,33.475383],[130.560851,33.474322],[130.562226,33.473561],[130.562516,33.472428],[130.561586,33.470234],[130.562691,33.467692],[130.561836,33.46317],[130.563067,33.461602],[130.563719,33.459049],[130.56855,33.454255],[130.571037,33.454309],[130.570639,33.452661],[130.572904,33.447324],[130.573124,33.447957],[130.575016,33.447074],[130.57459,33.446598],[130.575522,33.446047],[130.574973,33.445517],[130.584619,33.441027],[130.580938,33.437252],[130.579766,33.436971],[130.575761,33.438796],[130.57608,33.439644],[130.572398,33.440818],[130.572769,33.441658],[130.571408,33.442854],[130.5659,33.445847],[130.566831,33.446265],[130.565894,33.446646],[130.566425,33.447694],[130.565355,33.448698],[130.561494,33.447662],[130.553596,33.449929],[130.552661,33.444573],[130.550427,33.4412],[130.54963,33.440761],[130.547403,33.441343],[130.546598,33.44059],[130.545396,33.441539],[130.543812,33.440112],[130.543646,33.4391],[130.540244,33.441694],[130.537791,33.439211],[130.536471,33.438982],[130.533685,33.44146],[130.530871,33.441381],[130.523003,33.445687],[130.517588,33.445765],[130.516117,33.447775],[130.51246,33.449447],[130.511132,33.449113],[130.51144,33.446896],[130.510156,33.445838],[130.509384,33.443667],[130.507943,33.443831],[130.505881,33.446251],[130.503536,33.446926],[130.501516,33.445542],[130.49489,33.444235],[130.49429,33.442312],[130.492679,33.442146],[130.491116,33.439706],[130.487282,33.440291],[130.486946,33.438989],[130.485754,33.438077],[130.482307,33.437629],[130.48025,33.436117],[130.476593,33.438464],[130.474137,33.435275],[130.469068,33.432991],[130.465061,33.429109],[130.462373,33.427924],[130.461413,33.428237],[130.460706,33.429301],[130.456811,33.428978],[130.456584,33.429852],[130.457894,33.4308],[130.457627,33.431938],[130.456102,33.435989],[130.453692,33.436111],[130.453686,33.437685],[130.45524,33.438929],[130.456851,33.441969],[130.458017,33.442066],[130.461337,33.445521],[130.460071,33.447468],[130.460518,33.450241],[130.458249,33.451454],[130.457907,33.452669],[130.458221,33.45426],[130.459527,33.455398],[130.45748,33.457456],[130.459774,33.458883],[130.461041,33.461008],[130.464387,33.462156],[130.464359,33.464948],[130.466257,33.466351],[130.473277,33.463839],[130.475288,33.464609],[130.475423,33.465608],[130.477135,33.46596],[130.480567,33.464345],[130.481777,33.464501],[130.48427,33.467235],[130.486203,33.467502],[130.49,33.470468],[130.491097,33.470862],[130.491385,33.471964],[130.493935,33.474361],[130.495162,33.477232],[130.497956,33.479739],[130.494693,33.480181],[130.492553,33.484019],[130.493869,33.484746],[130.494952,33.48663],[130.493711,33.487314],[130.493656,33.488394],[130.496549,33.490659],[130.495948,33.493332],[130.49677,33.494719],[130.495983,33.496523],[130.498023,33.498807],[130.498051,33.500145],[130.50003,33.500755],[130.499792,33.502512],[130.503206,33.505976],[130.503095,33.507861],[130.502213,33.509148],[130.502361,33.511218],[130.504162,33.511332],[130.5046,33.505701],[130.506444,33.502596],[130.508488,33.502639],[130.508111,33.499967],[130.51236,33.49983],[130.512814,33.500729],[130.513773,33.500014],[130.513903,33.503913],[130.515963,33.502665],[130.519637,33.503302],[130.521424,33.505611],[130.520785,33.507349],[130.529237,33.505943],[130.531362,33.503302],[130.530961,33.498327],[130.534497,33.495688],[130.534357,33.494227],[130.540843,33.490886],[130.541817,33.491602],[130.541455,33.492386],[130.542867,33.493042],[130.54286,33.494531],[130.54476,33.494733],[130.5462,33.496915],[130.546843,33.50105],[130.547605,33.502031],[130.547026,33.50289],[130.549485,33.505929],[130.547109,33.50845],[130.546447,33.510213],[130.540411,33.512549],[130.539556,33.515392],[130.542162,33.521693],[130.544481,33.521314],[130.547896,33.524631],[130.54866,33.524233],[130.548094,33.522976],[130.550276,33.521426],[130.55235,33.522237],[130.55479,33.521885],[130.555957,33.523184],[130.558223,33.523535],[130.560561,33.528457],[130.56228,33.52868],[130.565369,33.530845],[130.566743,33.533044],[130.56736,33.537374],[130.569103,33.540179],[130.572156,33.542477],[130.574733,33.543791],[130.579287,33.553086],[130.584089,33.554677],[130.586489,33.551763],[130.59342,33.547698]]]}}]}