{"type":"FeatureCollection","features":[{"type":"Feature","properties":{},"geometry":{"type":"MultiPolygon","coordinates":[[[[130.467735,33.765037],[130.466945,33.76493],[130.467667,33.766416],[130.467735,33.765037]]],[[[130.458256,33.786045],[130.457456,33.785061],[130.455412,33.7841],[130.458256,33.786045]]],[[[130.467735,33.765037],[130.469126,33.766122],[130.469829,33.766102],[130.471069,33.771196],[130.469124,33.78024],[130.465729,33.785678],[130.461085,33.788352],[130.460717,33.787531],[130.45977,33.787829],[130.458256,33.786045],[130.456977,33.786479],[130.459391,33.790857],[130.458621,33.791132],[130.454245,33.785986],[130.4529,33.785963],[130.451858,33.785362],[130.450394,33.784735],[130.447847,33.786909],[130.447633,33.789887],[130.445712,33.791448],[130.445776,33.792139],[130.445507,33.792841],[130.44551,33.795843],[130.445853,33.796313],[130.446321,33.796583],[130.446594,33.796111],[130.447308,33.796045],[130.448877,33.797259],[130.451267,33.802784],[130.450339,33.803759],[130.449901,33.806228],[130.446414,33.808941],[130.446217,33.809449],[130.446218,33.811579],[130.447252,33.812563],[130.445552,33.813127],[130.444953,33.813484],[130.444571,33.81464],[130.44396,33.815187],[130.44551,33.816337],[130.446858,33.816115],[130.448176,33.817005],[130.449778,33.816489],[130.450613,33.811409],[130.452644,33.810757],[130.457897,33.811172],[130.459182,33.809551],[130.46557,33.811618],[130.470373,33.815249],[130.475689,33.822393],[130.479645,33.832295],[130.482371,33.846997],[130.482527,33.844927],[130.484488,33.843095],[130.485433,33.840237],[130.487559,33.840864],[130.485275,33.842011],[130.484895,33.843682],[130.486144,33.844571],[130.486545,33.843649],[130.487387,33.843715],[130.488165,33.845591],[130.488751,33.844491],[130.489619,33.845284],[130.491181,33.844986],[130.491297,33.844127],[130.490436,33.843628],[130.491023,33.841829],[130.489796,33.842192],[130.494136,33.838935],[130.493361,33.837324],[130.495286,33.836385],[130.496988,33.834445],[130.497354,33.832539],[130.500149,33.83123],[130.500326,33.827847],[130.499402,33.82685],[130.498953,33.823998],[130.497865,33.822981],[130.498042,33.82148],[130.500745,33.815293],[130.505147,33.812213],[130.50516,33.809482],[130.504759,33.808258],[130.502376,33.806117],[130.500601,33.806001],[130.499001,33.80485],[130.498381,33.803606],[130.499388,33.79876],[130.498069,33.798428],[130.494778,33.795179],[130.494956,33.794346],[130.496779,33.793927],[130.498926,33.791882],[130.501274,33.791839],[130.502867,33.78983],[130.507794,33.787539],[130.509061,33.785926],[130.509824,33.786206],[130.511343,33.784936],[130.511526,33.783642],[130.513908,33.782941],[130.515789,33.780855],[130.517423,33.781387],[130.516624,33.778886],[130.52082,33.774949],[130.527294,33.780691],[130.529227,33.780352],[130.530115,33.779079],[130.535027,33.780138],[130.536703,33.778728],[130.538646,33.778283],[130.539074,33.773836],[130.54073,33.773831],[130.542239,33.774761],[130.542464,33.773248],[130.545727,33.77154],[130.544517,33.770445],[130.540297,33.769458],[130.540778,33.768192],[130.543131,33.767082],[130.541639,33.765013],[130.54217,33.763683],[130.544284,33.761801],[130.543963,33.760887],[130.54478,33.759979],[130.546071,33.760297],[130.547563,33.759004],[130.5473,33.758231],[130.54979,33.757651],[130.550132,33.755229],[130.551778,33.753276],[130.551401,33.751486],[130.554122,33.750217],[130.555111,33.750515],[130.554748,33.747972],[130.552278,33.744814],[130.553914,33.74171],[130.553491,33.738527],[130.549993,33.735852],[130.547737,33.730612],[130.544843,33.733465],[130.542425,33.734369],[130.54218,33.736341],[130.540399,33.738277],[130.536479,33.739119],[130.532246,33.738821],[130.529859,33.739716],[130.513288,33.740774],[130.509187,33.740345],[130.498575,33.745252],[130.493656,33.746787],[130.491581,33.74844],[130.489248,33.747342],[130.486449,33.748595],[130.487114,33.749341],[130.486184,33.749727],[130.485643,33.749102],[130.482587,33.750575],[130.483007,33.751199],[130.481741,33.751795],[130.477768,33.751456],[130.467409,33.753753],[130.469633,33.763236],[130.468106,33.763768],[130.468412,33.764816],[130.467735,33.765037]]],[[[130.490181,33.843075],[130.488748,33.843376],[130.490181,33.842528],[130.490181,33.843075]]],[[[130.481181,33.850226],[130.482124,33.849303],[130.481554,33.849306],[130.481181,33.850226]]]]}}]}