{"type":"FeatureCollection","features":[{"type":"Feature","properties":{"municipality_code":"40544"},"geometry":{"type":"MultiPolygon","coordinates":[[[[130.526811,33.23078],[130.525645,33.230288],[130.522924,33.229944],[130.519394,33.230338],[130.521061,33.230893],[130.526811,33.23078]]],[[[130.516417,33.237248],[130.515934,33.23702],[130.516507,33.236249],[130.515519,33.235905],[130.514285,33.237345],[130.514822,33.23784],[130.516417,33.237248]]],[[[130.52426,33.258896],[130.523127,33.259285],[130.523025,33.262053],[130.52426,33.258896]]],[[[130.529509,33.260961],[130.529887,33.262277],[130.531883,33.262573],[130.532089,33.261976],[130.531068,33.261915],[130.53108,33.260644],[130.529985,33.260276],[130.529509,33.260961]]],[[[130.526811,33.23078],[130.526749,33.231916],[130.525065,33.232699],[130.52504,33.233804],[130.527075,33.234575],[130.524778,33.234807],[130.524265,33.232707],[130.521255,33.2318],[130.520393,33.232187],[130.518805,33.231226],[130.518616,33.233793],[130.516939,33.234555],[130.516507,33.236249],[130.516339,33.238796],[130.515105,33.238353],[130.514963,33.239117],[130.514285,33.237345],[130.511929,33.239616],[130.511066,33.237621],[130.508587,33.238703],[130.509993,33.241706],[130.511127,33.241934],[130.511242,33.240623],[130.512196,33.240393],[130.514338,33.241522],[130.511127,33.241934],[130.509681,33.242258],[130.511283,33.24356],[130.509994,33.245071],[130.510697,33.245534],[130.512292,33.244336],[130.51154,33.246104],[130.510697,33.245534],[130.510984,33.246863],[130.512848,33.247105],[130.513562,33.246336],[130.513233,33.244803],[130.51483,33.247087],[130.51319,33.247733],[130.512265,33.249599],[130.512787,33.250751],[130.511887,33.25091],[130.512052,33.253553],[130.512028,33.254334],[130.513345,33.254255],[130.511474,33.255124],[130.511771,33.256616],[130.512551,33.257259],[130.5135,33.256172],[130.514019,33.257617],[130.513347,33.256947],[130.511438,33.258951],[130.510058,33.25911],[130.510509,33.260635],[130.511032,33.260373],[130.511542,33.260723],[130.514484,33.259328],[130.515281,33.257995],[130.514418,33.256572],[130.515138,33.255207],[130.515549,33.256706],[130.517072,33.256414],[130.516082,33.257145],[130.517327,33.257666],[130.516996,33.258476],[130.518794,33.258926],[130.518403,33.260092],[130.520604,33.260896],[130.521144,33.260705],[130.519835,33.259953],[130.520163,33.259142],[130.519502,33.258762],[130.521815,33.258246],[130.521025,33.256622],[130.523749,33.258168],[130.52426,33.258896],[130.527651,33.260953],[130.529509,33.260961],[130.527926,33.258807],[130.528404,33.258131],[130.531175,33.258634],[130.532238,33.257365],[130.532921,33.257402],[130.532882,33.258186],[130.534174,33.258278],[130.534102,33.259583],[130.535462,33.259651],[130.535423,33.262051],[130.534505,33.262485],[130.535179,33.262782],[130.536429,33.262471],[130.537678,33.261787],[130.536892,33.260931],[130.538835,33.260618],[130.537705,33.262357],[130.539303,33.263136],[130.538629,33.262072],[130.539404,33.26159],[130.545931,33.26015],[130.553577,33.262739],[130.554224,33.26197],[130.554019,33.26301],[130.557001,33.264807],[130.559752,33.26526],[130.559765,33.264482],[130.560496,33.264455],[130.565871,33.2661],[130.566146,33.268592],[130.568244,33.27379],[130.575884,33.277158],[130.57673,33.275822],[130.579784,33.274914],[130.582639,33.271736],[130.58122,33.268036],[130.587022,33.268502],[130.588027,33.270586],[130.591791,33.270239],[130.593424,33.272678],[130.597767,33.273499],[130.598067,33.274935],[130.602337,33.274561],[130.607536,33.280249],[130.611218,33.281141],[130.611836,33.282548],[130.613804,33.282549],[130.614297,33.28429],[130.616755,33.286178],[130.619388,33.283929],[130.61883,33.281371],[130.616582,33.279063],[130.61646,33.276198],[130.618082,33.273441],[130.61754,33.270502],[130.618362,33.268857],[130.620969,33.267707],[130.619604,33.267111],[130.620384,33.265608],[130.617499,33.266195],[130.616494,33.264763],[130.620555,33.26255],[130.619247,33.259662],[130.619802,33.258075],[130.621292,33.257177],[130.624451,33.252882],[130.625692,33.252833],[130.627102,33.251523],[130.627765,33.249812],[130.627356,33.248228],[130.630077,33.245834],[130.631163,33.240399],[130.629822,33.239019],[130.629896,33.237721],[130.6218,33.236009],[130.619029,33.237281],[130.616772,33.23611],[130.615197,33.236893],[130.608376,33.237086],[130.607369,33.238185],[130.605684,33.238621],[130.604706,33.240667],[130.605016,33.24207],[130.603216,33.244604],[130.599189,33.244868],[130.597365,33.244031],[130.595317,33.244124],[130.594798,33.242016],[130.59389,33.241287],[130.590328,33.24069],[130.585983,33.237768],[130.582972,33.237551],[130.57789,33.23504],[130.572606,33.235148],[130.562395,33.232404],[130.55108,33.23224],[130.550345,33.230622],[130.547373,33.230715],[130.547047,33.230048],[130.541165,33.231451],[130.535168,33.233939],[130.531024,33.234117],[130.529356,33.233358],[130.52915,33.231828],[130.526811,33.23078]]]]}}]}