{"type":"FeatureCollection","features":[{"type":"Feature","properties":{},"geometry":{"type":"Polygon","coordinates":[[[129.941175,33.164117],[129.943357,33.164444],[129.941447,33.159946],[129.941488,33.157826],[129.943338,33.154295],[129.943692,33.150795],[129.94505,33.148012],[129.944877,33.146264],[129.945743,33.14422],[129.947565,33.14299],[129.948239,33.1402],[129.94789,33.138013],[129.949308,33.136489],[129.948913,33.133876],[129.951378,33.131958],[129.95351,33.132333],[129.956416,33.128076],[129.956665,33.118043],[129.951285,33.109964],[129.948723,33.110715],[129.947402,33.110284],[129.94571,33.111449],[129.942562,33.111732],[129.940959,33.112817],[129.938381,33.112666],[129.934731,33.110912],[129.932842,33.111082],[129.930274,33.109274],[129.929643,33.107575],[129.9284,33.107156],[129.926677,33.107686],[129.925237,33.105724],[129.921903,33.10642],[129.919581,33.108701],[129.914544,33.108049],[129.913001,33.109452],[129.909586,33.109587],[129.899263,33.106386],[129.895033,33.106312],[129.888112,33.103391],[129.884844,33.103206],[129.881225,33.104219],[129.878789,33.102976],[129.876863,33.100374],[129.872485,33.102344],[129.870614,33.10204],[129.867471,33.103743],[129.866894,33.103296],[129.866761,33.10399],[129.865492,33.103116],[129.865019,33.104556],[129.863787,33.104707],[129.863893,33.105839],[129.864144,33.106335],[129.865661,33.105951],[129.866936,33.107427],[129.865634,33.106966],[129.863014,33.107521],[129.859661,33.105959],[129.853958,33.10688],[129.845771,33.102761],[129.846414,33.104284],[129.845724,33.105356],[129.845955,33.106878],[129.844411,33.107984],[129.843497,33.111536],[129.843818,33.113334],[129.844939,33.113843],[129.844146,33.118866],[129.846116,33.123526],[129.845853,33.124695],[129.847853,33.127376],[129.847723,33.130197],[129.850037,33.132605],[129.850598,33.134472],[129.84923,33.137502],[129.849441,33.142049],[129.850573,33.143814],[129.852847,33.144387],[129.853733,33.145991],[129.8561,33.146174],[129.856518,33.147789],[129.85562,33.148639],[129.856172,33.151983],[129.858851,33.154193],[129.858798,33.155634],[129.864029,33.156427],[129.86637,33.158683],[129.868063,33.158392],[129.870338,33.164476],[129.870887,33.16494],[129.871895,33.164289],[129.872678,33.165208],[129.877076,33.164773],[129.87791,33.162951],[129.879271,33.16195],[129.880871,33.1622],[129.881386,33.161611],[129.881439,33.162327],[129.882676,33.162585],[129.883863,33.161507],[129.885393,33.161935],[129.88635,33.161129],[129.888124,33.156167],[129.890604,33.156681],[129.89131,33.158841],[129.893671,33.158089],[129.895387,33.159825],[129.896913,33.159512],[129.897039,33.158622],[129.898498,33.157894],[129.903749,33.15847],[129.905277,33.15794],[129.91209,33.162336],[129.914159,33.162582],[129.917746,33.160037],[129.920091,33.162009],[129.923032,33.161685],[129.923226,33.162472],[129.925483,33.163548],[129.928009,33.164023],[129.934594,33.163276],[129.938615,33.165375],[129.941175,33.164117]]]}}]}