{"type":"FeatureCollection","features":[{"type":"Feature","properties":{"municipality_code":"43206"},"geometry":{"type":"Polygon","coordinates":[[[130.562593,32.994623],[130.565362,32.992984],[130.566512,32.994572],[130.569049,32.995085],[130.571139,32.991649],[130.574657,32.992262],[130.575652,32.993567],[130.576054,32.991865],[130.577829,32.992543],[130.580211,32.991032],[130.578385,32.988926],[130.580982,32.986753],[130.582105,32.986835],[130.58293,32.987952],[130.585066,32.987792],[130.589136,32.989311],[130.592978,32.988703],[130.595939,32.986694],[130.596428,32.984282],[130.599773,32.984589],[130.601229,32.982767],[130.600398,32.981994],[130.603054,32.977945],[130.60211,32.975739],[130.598328,32.974924],[130.596425,32.972819],[130.595444,32.969881],[130.595088,32.964192],[130.590498,32.960705],[130.592378,32.959561],[130.591064,32.95773],[130.592707,32.957291],[130.599314,32.960591],[130.603534,32.958725],[130.60661,32.959906],[130.610786,32.955142],[130.610169,32.95316],[130.607405,32.951905],[130.609102,32.948222],[130.611,32.947197],[130.61101,32.947892],[130.611721,32.946433],[130.612853,32.94619],[130.612953,32.947462],[130.61471,32.947961],[130.615444,32.949403],[130.619579,32.949385],[130.62003,32.948978],[130.618789,32.94718],[130.619067,32.945958],[130.624254,32.941941],[130.626393,32.941251],[130.624221,32.94047],[130.62267,32.938421],[130.621358,32.93795],[130.622171,32.93667],[130.621315,32.933732],[130.616759,32.930356],[130.612577,32.92574],[130.608712,32.924204],[130.605962,32.917753],[130.611939,32.917006],[130.612161,32.916353],[130.615143,32.915266],[130.615457,32.913206],[130.616329,32.912992],[130.616713,32.91192],[130.616085,32.910411],[130.617948,32.902102],[130.61738,32.896757],[130.612667,32.894694],[130.607326,32.891175],[130.606751,32.886886],[130.60749,32.884963],[130.610494,32.881364],[130.610192,32.880492],[130.608363,32.879991],[130.607535,32.877533],[130.612379,32.87532],[130.615552,32.870448],[130.619347,32.868809],[130.626238,32.861977],[130.629012,32.857035],[130.630347,32.856876],[130.631556,32.855605],[130.631485,32.854608],[130.628035,32.852684],[130.624888,32.852279],[130.622256,32.848346],[130.622041,32.844721],[130.615613,32.8442],[130.613168,32.843085],[130.60044,32.847487],[130.595418,32.846561],[130.573185,32.852724],[130.57154,32.848782],[130.570535,32.849023],[130.568419,32.843531],[130.563919,32.841955],[130.528727,32.850993],[130.528007,32.851037],[130.527657,32.850549],[130.524536,32.851351],[130.527425,32.85108],[130.523937,32.851727],[130.522749,32.853756],[130.52276,32.869211],[130.524839,32.873785],[130.527099,32.87675],[130.523076,32.880967],[130.521307,32.881572],[130.520941,32.880661],[130.522259,32.879748],[130.519755,32.880704],[130.52007,32.882561],[130.512594,32.885044],[130.512938,32.886658],[130.510384,32.888149],[130.509767,32.88788],[130.508147,32.889585],[130.507458,32.889408],[130.499303,32.893078],[130.494785,32.893091],[130.491424,32.896],[130.489405,32.896449],[130.479264,32.903872],[130.476885,32.904644],[130.476479,32.904987],[130.482084,32.912276],[130.483567,32.916589],[130.488117,32.920326],[130.490419,32.92516],[130.496559,32.930058],[130.498384,32.934857],[130.497202,32.935302],[130.497021,32.936676],[130.498548,32.937939],[130.498822,32.940895],[130.503978,32.940831],[130.504918,32.940071],[130.505557,32.941141],[130.50532,32.942771],[130.508203,32.944241],[130.5086,32.945655],[130.511506,32.947384],[130.510329,32.950172],[130.511575,32.951163],[130.512529,32.954694],[130.518157,32.960573],[130.518971,32.960542],[130.52232,32.963623],[130.526326,32.969748],[130.525263,32.970668],[130.529942,32.974754],[130.53077,32.977287],[130.527758,32.979483],[130.52733,32.981104],[130.528525,32.982184],[130.5268,32.986212],[130.528343,32.987091],[130.527749,32.988354],[130.530049,32.989434],[130.532331,32.989004],[130.552294,32.9935],[130.556839,32.993561],[130.558468,32.99513],[130.562593,32.994623]]]}}]}