{"type":"FeatureCollection","features":[{"type":"Feature","properties":{},"geometry":{"type":"MultiPolygon","coordinates":[[[[129.973166,32.146389],[129.974841,32.144091],[129.97281,32.143985],[129.972278,32.144891],[129.971073,32.144533],[129.971179,32.145494],[129.973205,32.147691],[129.973637,32.14999],[129.974125,32.149094],[129.974629,32.14866],[129.973166,32.146389]]],[[[130.02373,32.154402],[130.022431,32.154233],[130.022883,32.155259],[130.023552,32.155068],[130.02373,32.154402]]],[[[130.051883,32.157099],[130.051287,32.156385],[130.051201,32.157403],[130.051883,32.157099]]],[[[130.021059,32.157884],[130.02181,32.157351],[130.021525,32.156624],[130.020783,32.157035],[130.021059,32.157884]]],[[[130.042757,32.156129],[130.042962,32.154539],[130.043843,32.155295],[130.045359,32.153902],[130.046439,32.153846],[130.043453,32.152977],[130.041326,32.153196],[130.040631,32.156614],[130.042777,32.158818],[130.041519,32.157155],[130.042757,32.156129]]],[[[130.015412,32.167635],[130.015109,32.166828],[130.014836,32.167646],[130.015412,32.167635]]],[[[130.056247,32.163154],[130.055841,32.161807],[130.054955,32.162675],[130.05477,32.161818],[130.052055,32.162658],[130.052578,32.163363],[130.051485,32.16603],[130.052213,32.168646],[130.051776,32.169858],[130.052518,32.170056],[130.053373,32.169373],[130.053154,32.165985],[130.056247,32.163154]]],[[[129.94152,32.175233],[129.94003,32.175038],[129.941348,32.175876],[129.94152,32.175233]]],[[[129.951694,32.177979],[129.950866,32.177861],[129.951303,32.178554],[129.951694,32.177979]]],[[[130.048881,32.175789],[130.049193,32.174424],[130.045786,32.175118],[130.045229,32.176375],[130.043229,32.177154],[130.04326,32.177865],[130.0422,32.178529],[130.044076,32.178934],[130.04623,32.177768],[130.047066,32.176189],[130.048881,32.175789]]],[[[129.963541,32.178992],[129.963042,32.178114],[129.962648,32.178842],[129.963541,32.178992]]],[[[129.950526,32.178779],[129.949805,32.178619],[129.949185,32.179214],[129.95,32.179802],[129.950526,32.178779]]],[[[129.969011,32.180412],[129.969251,32.179422],[129.96879,32.179773],[129.969011,32.180412]]],[[[130.016461,32.184103],[130.015497,32.18302],[130.014751,32.183573],[130.013966,32.183118],[130.01261,32.183235],[130.013763,32.184813],[130.013213,32.18571],[130.014227,32.186465],[130.016746,32.186527],[130.016461,32.184103]]],[[[129.969011,32.180412],[129.965667,32.181232],[129.963407,32.185104],[129.963963,32.186656],[129.964951,32.187205],[129.966601,32.186825],[129.968261,32.185186],[129.968649,32.184688],[129.9695,32.184743],[129.971424,32.184435],[129.971023,32.182602],[129.972229,32.18139],[129.973496,32.178748],[129.973601,32.178081],[129.973414,32.176986],[129.971666,32.177647],[129.969713,32.180206],[129.969011,32.180412]]],[[[130.021059,32.157884],[130.019293,32.159253],[130.017731,32.162301],[130.017127,32.162403],[130.01763,32.163868],[130.017303,32.164572],[130.018043,32.164916],[130.0171,32.165156],[130.016796,32.167127],[130.017876,32.16768],[130.01667,32.16808],[130.015269,32.171672],[130.016203,32.172703],[130.01855,32.171531],[130.019248,32.173291],[130.019557,32.172343],[130.021752,32.173795],[130.019914,32.175041],[130.018366,32.174965],[130.016972,32.176452],[130.018496,32.177716],[130.019033,32.180873],[130.022595,32.179229],[130.02415,32.181251],[130.019237,32.186022],[130.021658,32.185907],[130.022022,32.186609],[130.021147,32.187772],[130.024617,32.188971],[130.026706,32.190947],[130.028507,32.190975],[130.029194,32.190816],[130.029802,32.190383],[130.032001,32.190864],[130.032803,32.190302],[130.032038,32.188835],[130.032378,32.187062],[130.033333,32.185278],[130.034437,32.18526],[130.035498,32.183608],[130.03744,32.182954],[130.039277,32.183721],[130.040026,32.181094],[130.038229,32.178709],[130.0363,32.180441],[130.034924,32.181277],[130.033595,32.181634],[130.032595,32.180814],[130.03454,32.178976],[130.036307,32.176228],[130.037642,32.176157],[130.040523,32.173759],[130.0422,32.173917],[130.044076,32.171837],[130.046197,32.172259],[130.047198,32.170844],[130.047447,32.169454],[130.048664,32.167727],[130.048452,32.166983],[130.047074,32.166599],[130.045339,32.167197],[130.046824,32.164155],[130.045611,32.162821],[130.043446,32.162951],[130.044717,32.161711],[130.044542,32.161118],[130.046836,32.159862],[130.047168,32.156956],[130.046962,32.156462],[130.045081,32.157482],[130.044969,32.158796],[130.043161,32.159782],[130.040717,32.163819],[130.037756,32.166362],[130.037266,32.169762],[130.033756,32.172777],[130.032231,32.175168],[130.026974,32.174339],[130.026457,32.173449],[130.027182,32.173382],[130.024443,32.171029],[130.022564,32.166756],[130.023237,32.164197],[130.022134,32.162887],[130.022273,32.161343],[130.021059,32.157884]]],[[[130.03259,32.19998],[130.034718,32.201055],[130.033656,32.200048],[130.03259,32.19998]]],[[[130.079981,32.196751],[130.078689,32.195171],[130.075717,32.195482],[130.07334,32.19555],[130.072738,32.195248],[130.07155,32.193916],[130.070051,32.19403],[130.070244,32.195415],[130.069594,32.19568],[130.070377,32.1967],[130.07212,32.198104],[130.074586,32.198566],[130.074816,32.199498],[130.075431,32.200541],[130.075963,32.200897],[130.076981,32.201342],[130.078085,32.201672],[130.081651,32.200917],[130.080989,32.19989],[130.082006,32.197848],[130.079981,32.196751]]],[[[129.972015,32.201343],[129.970329,32.201019],[129.96988,32.201333],[129.970809,32.202272],[129.971307,32.204748],[129.971702,32.205207],[129.972897,32.20618],[129.9724,32.206934],[129.974111,32.208018],[129.974853,32.208018],[129.975904,32.207067],[129.976424,32.206231],[129.973952,32.204596],[129.97349,32.202758],[129.972808,32.201493],[129.972015,32.201343]]],[[[130.089641,32.213295],[130.089915,32.212506],[130.089379,32.212796],[130.089641,32.213295]]],[[[130.089641,32.213295],[130.090095,32.21654],[130.091871,32.21893],[130.09219,32.217695],[130.091121,32.215582],[130.090629,32.214785],[130.090444,32.21402],[130.089641,32.213295]]],[[[129.984103,32.237835],[129.981607,32.236043],[129.982163,32.237876],[129.98291,32.238403],[129.984351,32.239139],[129.984616,32.238637],[129.984103,32.237835]]],[[[130.128604,32.247644],[130.128094,32.246899],[130.128028,32.247458],[130.128604,32.247644]]],[[[130.140219,32.262691],[130.135191,32.262555],[130.13386,32.263644],[130.132231,32.265701],[130.131873,32.2683],[130.133239,32.269501],[130.133744,32.272235],[130.136842,32.274998],[130.140663,32.276193],[130.14109,32.277879],[130.14232,32.278031],[130.143183,32.276012],[130.145002,32.274992],[130.148353,32.274581],[130.150688,32.271627],[130.150124,32.270871],[130.150715,32.269056],[130.148194,32.268052],[130.145759,32.264703],[130.140219,32.262691]]],[[[130.03359,32.286259],[130.03444,32.285521],[130.032562,32.28556],[130.03359,32.286259]]],[[[130.040536,32.310722],[130.040609,32.309837],[130.040098,32.310333],[130.040536,32.310722]]],[[[130.278114,32.315632],[130.277041,32.315187],[130.27611,32.316404],[130.277516,32.316759],[130.278114,32.315632]]],[[[130.302487,32.316241],[130.301725,32.315508],[130.302143,32.316934],[130.302487,32.316241]]],[[[130.333428,32.317926],[130.331909,32.317156],[130.332607,32.317912],[130.333428,32.317926]]],[[[130.325535,32.319776],[130.324673,32.319595],[130.325695,32.320464],[130.325535,32.319776]]],[[[130.30471,32.320103],[130.302786,32.317853],[130.302308,32.319409],[130.303569,32.320954],[130.30471,32.320103]]],[[[130.291435,32.322594],[130.29113,32.321472],[130.290811,32.322222],[130.291435,32.322594]]],[[[129.980617,32.327935],[129.979724,32.327933],[129.980082,32.328384],[129.980617,32.327935]]],[[[130.30398,32.334399],[130.300139,32.330662],[130.299947,32.329619],[130.301001,32.327691],[130.303118,32.328345],[130.303867,32.326884],[130.303251,32.324922],[130.302367,32.324178],[130.300411,32.323214],[130.300179,32.321185],[130.299171,32.323192],[130.299297,32.328192],[130.297174,32.329432],[130.29655,32.330881],[130.295269,32.331017],[130.293757,32.333243],[130.29852,32.332978],[130.299403,32.334704],[130.302998,32.336468],[130.30398,32.334399]]],[[[130.212208,32.337167],[130.210787,32.336659],[130.210017,32.337424],[130.210734,32.337713],[130.212208,32.337167]]],[[[130.291076,32.340296],[130.289177,32.33746],[130.286769,32.335906],[130.285445,32.336073],[130.284987,32.337195],[130.287902,32.338509],[130.287238,32.340262],[130.288414,32.340735],[130.289051,32.339873],[130.290592,32.34091],[130.291076,32.340296]]],[[[130.289348,32.343251],[130.289786,32.342271],[130.288406,32.342538],[130.288283,32.343141],[130.289348,32.343251]]],[[[130.333813,32.342072],[130.327466,32.338851],[130.327711,32.339879],[130.331263,32.342985],[130.334258,32.344062],[130.333813,32.342072]]],[[[130.333428,32.317926],[130.332667,32.320187],[130.33412,32.324494],[130.334045,32.327056],[130.334361,32.328865],[130.33324,32.329175],[130.333765,32.328388],[130.332854,32.328605],[130.331779,32.32766],[130.329742,32.327392],[130.329224,32.329331],[130.330405,32.332127],[130.329241,32.33317],[130.333886,32.336976],[130.333395,32.338171],[130.333911,32.338785],[130.334936,32.338354],[130.335852,32.337613],[130.337306,32.337562],[130.338484,32.338696],[130.338149,32.340031],[130.336477,32.338967],[130.337402,32.340535],[130.33848,32.342068],[130.340429,32.341422],[130.340479,32.342361],[130.34299,32.345314],[130.34386,32.347991],[130.345773,32.349716],[130.347764,32.35063],[130.352302,32.35014],[130.355246,32.352198],[130.356445,32.35211],[130.356623,32.350668],[130.357539,32.351154],[130.356909,32.349648],[130.361391,32.346467],[130.36233,32.34665],[130.363531,32.345878],[130.369355,32.349124],[130.371771,32.349891],[130.373179,32.34957],[130.374243,32.348891],[130.374791,32.347394],[130.374647,32.344132],[130.369034,32.338707],[130.368226,32.335956],[130.364817,32.334765],[130.363535,32.334702],[130.362725,32.333061],[130.362842,32.331337],[130.359641,32.326377],[130.360578,32.326693],[130.358012,32.324228],[130.356612,32.32189],[130.356513,32.322611],[130.351337,32.318592],[130.348962,32.31504],[130.346009,32.31402],[130.344158,32.312064],[130.342228,32.311799],[130.340383,32.31256],[130.339355,32.309937],[130.338988,32.311402],[130.336383,32.311398],[130.335945,32.310429],[130.331951,32.307937],[130.328786,32.304307],[130.328236,32.306178],[130.324845,32.307001],[130.323154,32.306477],[130.32245,32.307131],[130.321247,32.307568],[130.319697,32.307441],[130.319462,32.30653],[130.317619,32.305604],[130.315053,32.307024],[130.311829,32.305801],[130.310017,32.306702],[130.308428,32.305944],[130.305765,32.306646],[130.302349,32.303579],[130.300411,32.304408],[130.302375,32.306297],[130.306044,32.307621],[130.309069,32.310914],[130.313175,32.311691],[130.313746,32.310711],[130.313083,32.310091],[130.315285,32.30898],[130.315139,32.311173],[130.316504,32.311318],[130.319226,32.315457],[130.321873,32.317447],[130.322749,32.316996],[130.322697,32.316265],[130.323945,32.315968],[130.326605,32.317673],[130.327506,32.317487],[130.327858,32.315391],[130.328803,32.315295],[130.32739,32.314435],[130.328983,32.314127],[130.327821,32.313193],[130.328691,32.312563],[130.327315,32.312125],[130.327706,32.311436],[130.328446,32.311185],[130.330601,32.312796],[130.333023,32.316039],[130.333125,32.317118],[130.333697,32.316628],[130.333428,32.317926]]],[[[130.358876,32.351404],[130.360748,32.349031],[130.356536,32.352772],[130.357313,32.353364],[130.357579,32.355692],[130.360255,32.356211],[130.361323,32.354137],[130.358876,32.351404]]],[[[130.328085,32.362109],[130.327803,32.364688],[130.32953,32.363792],[130.328085,32.362109]]],[[[130.328085,32.362109],[130.328487,32.359266],[130.327949,32.357456],[130.330466,32.358172],[130.331043,32.360026],[130.332631,32.358589],[130.334583,32.358753],[130.333966,32.357975],[130.334284,32.356971],[130.333307,32.35639],[130.334942,32.355709],[130.333594,32.355381],[130.333348,32.354502],[130.335705,32.354908],[130.336768,32.353798],[130.338136,32.353724],[130.341004,32.355912],[130.342286,32.355602],[130.340653,32.353493],[130.340613,32.351554],[130.338793,32.348944],[130.339245,32.347315],[130.33797,32.347461],[130.337851,32.346668],[130.336529,32.346774],[130.335803,32.345925],[130.335869,32.346452],[130.333946,32.3468],[130.332545,32.347687],[130.32957,32.347856],[130.327883,32.347117],[130.327433,32.346201],[130.32613,32.346582],[130.325732,32.345268],[130.327344,32.344746],[130.324965,32.343673],[130.324627,32.342518],[130.321436,32.340437],[130.320459,32.340087],[130.318109,32.340854],[130.318959,32.343537],[130.317139,32.343909],[130.314071,32.341243],[130.314299,32.340326],[130.309894,32.339389],[130.31037,32.34062],[130.311721,32.341936],[130.311282,32.343627],[130.312743,32.343797],[130.312418,32.344648],[130.313905,32.344225],[130.31435,32.345494],[130.313595,32.345552],[130.313726,32.347134],[130.315034,32.346728],[130.316116,32.348453],[130.317611,32.348881],[130.318248,32.348295],[130.318633,32.348983],[130.320034,32.347799],[130.319569,32.347072],[130.321382,32.346187],[130.320956,32.347834],[130.323159,32.347538],[130.323992,32.348837],[130.321667,32.348408],[130.321568,32.349581],[130.319948,32.349682],[130.318031,32.351463],[130.317233,32.351055],[130.31572,32.351145],[130.313527,32.349564],[130.309057,32.351266],[130.307242,32.350885],[130.30192,32.350674],[130.300707,32.3563],[130.300776,32.357281],[130.299204,32.357726],[130.299603,32.359192],[130.300884,32.359558],[130.300645,32.360725],[130.301435,32.360798],[130.3019,32.362213],[130.303919,32.361469],[130.303833,32.363278],[130.304968,32.362703],[130.305871,32.36077],[130.307444,32.360736],[130.308195,32.359541],[130.309895,32.358791],[130.309485,32.358385],[130.311043,32.357766],[130.313062,32.359186],[130.31273,32.36041],[130.313507,32.360742],[130.312936,32.366768],[130.313394,32.36807],[130.314609,32.368025],[130.31449,32.366509],[130.313387,32.365031],[130.314795,32.365223],[130.315127,32.365917],[130.315479,32.365347],[130.315904,32.366024],[130.31684,32.36506],[130.316509,32.366942],[130.31726,32.367628],[130.316999,32.365805],[130.317544,32.365054],[130.318434,32.367439],[130.318846,32.3659],[130.320524,32.36738],[130.320937,32.365804],[130.321953,32.368115],[130.322033,32.365765],[130.322664,32.365398],[130.324164,32.366187],[130.323859,32.365331],[130.320047,32.363442],[130.322152,32.36156],[130.323865,32.361441],[130.323401,32.359626],[130.324322,32.359297],[130.323865,32.357538],[130.324603,32.357641],[130.325057,32.359248],[130.326084,32.361605],[130.326548,32.360714],[130.327458,32.360737],[130.328085,32.362109]]],[[[130.320524,32.36738],[130.32005,32.369242],[130.320587,32.369077],[130.320524,32.36738]]],[[[130.316001,32.369472],[130.314867,32.368709],[130.316253,32.370755],[130.316001,32.369472]]],[[[130.350661,32.371861],[130.349879,32.370217],[130.349185,32.368315],[130.351967,32.368956],[130.353934,32.368391],[130.355332,32.364752],[130.352683,32.361825],[130.348978,32.360552],[130.345842,32.3621],[130.344238,32.364157],[130.343562,32.365498],[130.342446,32.36578],[130.34127,32.366532],[130.340977,32.368257],[130.341847,32.369108],[130.341967,32.371172],[130.343878,32.371572],[130.343879,32.372186],[130.345465,32.371712],[130.349521,32.373448],[130.350735,32.37301],[130.350661,32.371861]]],[[[130.236471,32.379176],[130.235622,32.375568],[130.23594,32.36807],[130.233596,32.365725],[130.230489,32.365742],[130.229512,32.366509],[130.229413,32.368938],[130.228364,32.370269],[130.229701,32.370652],[130.228523,32.371586],[130.228506,32.372469],[130.229617,32.375117],[130.232092,32.375895],[130.231217,32.376606],[130.23041,32.375965],[130.229884,32.37709],[130.231651,32.37771],[130.231491,32.378668],[130.233609,32.379063],[130.235747,32.38063],[130.236471,32.379176]]],[[[129.987823,32.383908],[129.987689,32.383182],[129.987154,32.383539],[129.987823,32.383908]]],[[[130.342249,32.389679],[130.341078,32.389636],[130.343584,32.392536],[130.34437,32.392613],[130.342249,32.389679]]],[[[130.328473,32.395523],[130.329894,32.394649],[130.330837,32.395049],[130.330983,32.394153],[130.330319,32.393753],[130.330744,32.393409],[130.33004,32.392812],[130.330106,32.391213],[130.329192,32.391366],[130.328772,32.390343],[130.329111,32.388905],[130.328068,32.387654],[130.328513,32.386859],[130.327876,32.386025],[130.326441,32.386188],[130.327497,32.38988],[130.327211,32.391808],[130.326083,32.393404],[130.327563,32.393945],[130.328473,32.395523]]],[[[129.99578,32.39609],[129.99484,32.396248],[129.995502,32.396643],[129.99578,32.39609]]],[[[130.242294,32.398828],[130.242264,32.398299],[130.241836,32.39907],[130.242294,32.398828]]],[[[130.259814,32.4022],[130.261238,32.402485],[130.260521,32.402059],[130.259814,32.4022]]],[[[130.348738,32.40293],[130.350265,32.402152],[130.351067,32.402477],[130.351698,32.400933],[130.35109,32.399951],[130.347497,32.398119],[130.346898,32.399238],[130.348598,32.399429],[130.34806,32.400782],[130.349526,32.400648],[130.348738,32.40293]]],[[[130.232799,32.402097],[130.232141,32.401111],[130.233496,32.401511],[130.234711,32.400834],[130.232579,32.399278],[130.231033,32.399228],[130.229791,32.400817],[130.232247,32.403191],[130.232799,32.402097]]],[[[129.997338,32.406488],[129.997273,32.405823],[129.996518,32.405983],[129.997338,32.406488]]],[[[130.233124,32.405716],[130.231942,32.404442],[130.231125,32.404408],[130.230481,32.405553],[130.229904,32.403546],[130.228429,32.404329],[130.228409,32.405243],[130.231364,32.407605],[130.23159,32.406979],[130.233124,32.405716]]],[[[130.215188,32.415728],[130.214232,32.415102],[130.213607,32.416247],[130.214335,32.416621],[130.215188,32.415728]]],[[[130.203915,32.457468],[130.202916,32.457213],[130.200232,32.45911],[130.203915,32.457468]]],[[[130.288227,32.487334],[130.287621,32.486786],[130.287442,32.487854],[130.288227,32.487334]]],[[[130.192422,32.496819],[130.194048,32.497163],[130.197839,32.494245],[130.193652,32.49674],[130.192422,32.496819]]],[[[130.38917,32.504464],[130.390627,32.503559],[130.390745,32.501619],[130.389183,32.501865],[130.389859,32.503298],[130.38917,32.504464]]],[[[130.390811,32.515945],[130.391942,32.515449],[130.390419,32.515545],[130.390811,32.515945]]],[[[130.381751,32.518081],[130.379076,32.517286],[130.379949,32.518094],[130.381751,32.518081]]],[[[130.38917,32.504464],[130.388168,32.502598],[130.389379,32.501105],[130.386941,32.499578],[130.384837,32.499342],[130.381146,32.496261],[130.382553,32.494076],[130.381628,32.492617],[130.382306,32.49165],[130.381735,32.488013],[130.383476,32.486104],[130.381818,32.48459],[130.379551,32.480653],[130.379871,32.479646],[130.379098,32.4785],[130.376353,32.478389],[130.374035,32.480266],[130.366231,32.477472],[130.364368,32.478324],[130.362263,32.477759],[130.358709,32.477912],[130.357218,32.478817],[130.355434,32.478336],[130.350834,32.482049],[130.34754,32.481814],[130.34603,32.482807],[130.343639,32.482105],[130.341633,32.479722],[130.34156,32.47638],[130.340815,32.474902],[130.342744,32.471054],[130.342749,32.46925],[130.339255,32.465744],[130.337389,32.461022],[130.340263,32.457023],[130.339375,32.455666],[130.33957,32.454009],[130.347602,32.445455],[130.349068,32.444723],[130.350328,32.445528],[130.352361,32.44513],[130.35776,32.442182],[130.358647,32.440991],[130.362699,32.440991],[130.364923,32.440014],[130.368601,32.442597],[130.374497,32.442349],[130.374912,32.444506],[130.377812,32.444998],[130.378865,32.443796],[130.380075,32.443843],[130.381489,32.445693],[130.382473,32.443927],[130.383759,32.443175],[130.382379,32.441678],[130.38143,32.438068],[130.382641,32.437346],[130.382849,32.435283],[130.381533,32.432144],[130.380335,32.431555],[130.377953,32.425915],[130.377874,32.423824],[130.375678,32.420419],[130.375166,32.418098],[130.368294,32.412295],[130.366009,32.411563],[130.366531,32.410634],[130.365712,32.406267],[130.366307,32.403974],[130.362995,32.402771],[130.361906,32.401581],[130.356061,32.405001],[130.354147,32.405146],[130.355264,32.408191],[130.353783,32.410426],[130.351413,32.409181],[130.352322,32.411357],[130.351644,32.414308],[130.353848,32.41486],[130.350448,32.416449],[130.352122,32.420103],[130.350312,32.418789],[130.348122,32.419929],[130.346883,32.418232],[130.344692,32.417315],[130.346013,32.417028],[130.346671,32.413972],[130.34543,32.411222],[130.344171,32.409975],[130.343015,32.409826],[130.342261,32.407044],[130.341804,32.405865],[130.341373,32.406898],[130.339461,32.405771],[130.339727,32.405131],[130.33646,32.403195],[130.336174,32.403764],[130.334284,32.403918],[130.332882,32.401877],[130.331188,32.401611],[130.3299,32.400279],[130.329437,32.397727],[130.328552,32.399875],[130.327889,32.39971],[130.327178,32.400591],[130.326168,32.40032],[130.325013,32.401662],[130.325271,32.398807],[130.323798,32.399147],[130.32168,32.397981],[130.314622,32.396396],[130.314051,32.397849],[130.312886,32.398502],[130.310308,32.397536],[130.31181,32.397016],[130.310441,32.396749],[130.310525,32.395717],[130.308688,32.395836],[130.30814,32.39731],[130.307078,32.396865],[130.307154,32.395974],[130.305721,32.396701],[130.305744,32.397551],[130.300824,32.399266],[130.295041,32.39971],[130.291628,32.401215],[130.289422,32.400751],[130.287744,32.399417],[130.287983,32.398092],[130.287374,32.397165],[130.286018,32.39741],[130.286257,32.399231],[130.28042,32.401384],[130.278448,32.402815],[130.277665,32.405266],[130.278587,32.405921],[130.277744,32.40684],[130.276325,32.406688],[130.274869,32.409763],[130.274027,32.409636],[130.275124,32.411262],[130.274556,32.412348],[130.273539,32.412169],[130.272897,32.411648],[130.273389,32.411101],[130.271791,32.411249],[130.261532,32.41056],[130.261105,32.409624],[130.26159,32.409343],[130.260334,32.408362],[130.259844,32.406248],[130.259913,32.405463],[130.260986,32.40528],[130.259814,32.4022],[130.259313,32.402384],[130.258439,32.39976],[130.252371,32.393221],[130.252475,32.391823],[130.253113,32.392813],[130.253729,32.391025],[130.25328,32.390728],[130.253437,32.3895],[130.252441,32.387511],[130.243074,32.384484],[130.240694,32.385287],[130.234379,32.385016],[130.233702,32.385388],[130.23416,32.387403],[130.235492,32.38892],[130.23554,32.38828],[130.236606,32.388043],[130.236013,32.389627],[130.237029,32.390174],[130.237009,32.391589],[130.238463,32.391956],[130.239018,32.391069],[130.239698,32.392604],[130.240927,32.393061],[130.240396,32.396533],[130.242421,32.396579],[130.242547,32.397615],[130.244424,32.396216],[130.24596,32.396876],[130.246752,32.395309],[130.245862,32.398171],[130.24754,32.39863],[130.246407,32.399236],[130.247441,32.400361],[130.247329,32.401194],[130.246756,32.401331],[130.24604,32.399724],[130.244027,32.400124],[130.244439,32.399504],[130.243676,32.399126],[130.242959,32.399758],[130.244082,32.401312],[130.243337,32.40203],[130.243787,32.403169],[130.243051,32.404674],[130.244917,32.404476],[130.244758,32.405179],[130.24378,32.405271],[130.244323,32.406136],[130.243568,32.407496],[130.246115,32.408419],[130.244376,32.408704],[130.243883,32.412411],[130.242949,32.412893],[130.243527,32.413103],[130.242334,32.414702],[130.240811,32.415489],[130.239508,32.414658],[130.239784,32.413479],[130.238456,32.412927],[130.236749,32.415396],[130.235973,32.414888],[130.234174,32.415933],[130.233661,32.418176],[130.231016,32.418338],[130.231944,32.418846],[130.228633,32.420125],[130.229259,32.418584],[130.228721,32.418209],[130.231079,32.417475],[130.230282,32.415928],[130.230887,32.416324],[130.231769,32.415106],[130.23082,32.414714],[130.229591,32.414043],[130.228669,32.411957],[130.225225,32.411979],[130.222423,32.414809],[130.223249,32.414556],[130.223336,32.415057],[130.221024,32.415669],[130.220686,32.417248],[130.221624,32.418389],[130.219311,32.423013],[130.220023,32.424877],[130.218448,32.426056],[130.216056,32.426319],[130.214979,32.427368],[130.211845,32.431094],[130.210902,32.430566],[130.210417,32.431316],[130.209951,32.436853],[130.205362,32.442492],[130.204599,32.448241],[130.204597,32.451435],[130.206049,32.45274],[130.210776,32.452886],[130.213364,32.454225],[130.216546,32.457174],[130.22254,32.457375],[130.223218,32.459588],[130.227047,32.460449],[130.229068,32.460162],[130.228782,32.461503],[130.230158,32.461841],[130.231381,32.460891],[130.234791,32.460776],[130.235555,32.461786],[130.234425,32.461746],[130.235568,32.46263],[130.237678,32.462695],[130.23903,32.463621],[130.240173,32.466052],[130.242573,32.46603],[130.244903,32.467112],[130.244394,32.467552],[130.246585,32.467551],[130.25096,32.470283],[130.252873,32.474577],[130.252699,32.475025],[130.253326,32.47598],[130.253847,32.475514],[130.255073,32.476523],[130.254199,32.476928],[130.259036,32.47784],[130.259034,32.479003],[130.269774,32.479352],[130.272698,32.481226],[130.271908,32.481817],[130.272991,32.483072],[130.275669,32.48349],[130.2778,32.484879],[130.279066,32.483873],[130.281543,32.483975],[130.285947,32.487603],[130.289088,32.483659],[130.291098,32.485087],[130.28958,32.485092],[130.288227,32.487334],[130.289746,32.488563],[130.290198,32.490029],[130.292909,32.491088],[130.292271,32.492351],[130.293302,32.491421],[130.294551,32.492436],[130.294478,32.493174],[130.29306,32.494037],[130.293547,32.494578],[130.293933,32.497937],[130.298256,32.500534],[130.300333,32.503197],[130.302222,32.504316],[130.301955,32.505183],[130.306092,32.50641],[130.305486,32.507256],[130.30871,32.508721],[130.309319,32.509775],[130.310076,32.50931],[130.314482,32.51508],[130.313557,32.51589],[130.314501,32.516868],[130.315829,32.517612],[130.316802,32.516647],[130.317396,32.518108],[130.322087,32.518474],[130.31978,32.519218],[130.325799,32.518756],[130.33478,32.521891],[130.335345,32.517127],[130.336724,32.516283],[130.337795,32.516702],[130.337239,32.516076],[130.337574,32.515171],[130.339097,32.515041],[130.339813,32.51392],[130.34185,32.515701],[130.340975,32.515706],[130.340724,32.517393],[130.340389,32.518773],[130.343261,32.521643],[130.347066,32.523312],[130.34988,32.523182],[130.35441,32.525764],[130.361069,32.527894],[130.361493,32.526128],[130.359964,32.52463],[130.362457,32.523494],[130.361872,32.523211],[130.362455,32.522227],[130.364354,32.52495],[130.366145,32.524463],[130.365465,32.525768],[130.364734,32.525465],[130.366138,32.527591],[130.367262,32.528003],[130.367336,32.525432],[130.368174,32.524632],[130.369571,32.524559],[130.371094,32.525872],[130.372348,32.525608],[130.371699,32.523596],[130.370724,32.522356],[130.368686,32.520787],[130.368673,32.518054],[130.370812,32.514688],[130.368147,32.513296],[130.37007,32.512851],[130.37142,32.514226],[130.370978,32.51682],[130.374646,32.516706],[130.376489,32.518701],[130.376502,32.520589],[130.378345,32.52108],[130.378837,32.522247],[130.377786,32.522968],[130.378032,32.523667],[130.384617,32.524338],[130.379799,32.521084],[130.380288,32.520095],[130.377802,32.519454],[130.377008,32.518228],[130.378114,32.516737],[130.38207,32.515424],[130.38042,32.515609],[130.380525,32.514302],[130.37925,32.513042],[130.379913,32.511797],[130.37921,32.511537],[130.381558,32.509851],[130.383549,32.51397],[130.383703,32.51499],[130.382633,32.515331],[130.385199,32.515449],[130.385486,32.515911],[130.386448,32.51573],[130.387655,32.515251],[130.389189,32.514224],[130.389769,32.51472],[130.389594,32.513859],[130.390452,32.512366],[130.389375,32.511886],[130.390226,32.510139],[130.389448,32.509018],[130.391463,32.50758],[130.38917,32.504464]]],[[[130.361069,32.527894],[130.362042,32.52828],[130.361992,32.527307],[130.361069,32.527894]]],[[[130.340421,32.52914],[130.339755,32.5283],[130.338365,32.52883],[130.340154,32.529991],[130.340421,32.52914]]],[[[130.374041,32.528616],[130.373821,32.526841],[130.372331,32.528928],[130.37295,32.531446],[130.374054,32.532821],[130.375172,32.530099],[130.374513,32.52971],[130.375105,32.529028],[130.374041,32.528616]]],[[[130.381271,32.535284],[130.380859,32.534833],[130.380287,32.535036],[130.380713,32.535842],[130.381271,32.535284]]],[[[130.197566,32.540347],[130.194212,32.540088],[130.194006,32.54161],[130.195836,32.54369],[130.197073,32.543989],[130.198254,32.544145],[130.197566,32.540347]]],[[[130.132897,32.547034],[130.132007,32.546593],[130.130905,32.546816],[130.132897,32.547034]]],[[[130.134184,32.546031],[130.133871,32.546672],[130.134125,32.547256],[130.134184,32.546031]]],[[[130.192422,32.496819],[130.192146,32.496202],[130.197217,32.488952],[130.196552,32.488602],[130.19685,32.488051],[130.204446,32.480201],[130.205,32.480552],[130.205615,32.479723],[130.205857,32.478675],[130.204475,32.476647],[130.204276,32.475617],[130.203433,32.475862],[130.203271,32.474237],[130.204223,32.473478],[130.204916,32.473945],[130.20675,32.474184],[130.207082,32.473425],[130.208567,32.472261],[130.202387,32.469368],[130.202395,32.468385],[130.204428,32.469924],[130.206872,32.469607],[130.206284,32.465723],[130.205714,32.466928],[130.203295,32.466613],[130.2057,32.465624],[130.205113,32.464208],[130.19696,32.458503],[130.203083,32.453772],[130.202766,32.450887],[130.20328,32.450554],[130.201496,32.450223],[130.202192,32.449343],[130.203311,32.447569],[130.203958,32.445487],[130.204815,32.441502],[130.208252,32.437332],[130.20952,32.430333],[130.210116,32.429398],[130.208753,32.428017],[130.207645,32.42801],[130.209147,32.427153],[130.208592,32.426089],[130.210742,32.428145],[130.21296,32.426741],[130.21373,32.424853],[130.217041,32.424498],[130.216146,32.421598],[130.216993,32.420931],[130.216794,32.420316],[130.213372,32.420209],[130.214638,32.420708],[130.214677,32.421999],[130.213352,32.42238],[130.212068,32.421253],[130.207896,32.421979],[130.2058,32.420779],[130.206666,32.420642],[130.206101,32.420357],[130.206914,32.418913],[130.207779,32.419851],[130.211405,32.419749],[130.21273,32.420434],[130.21019,32.417768],[130.209492,32.413612],[130.202362,32.411009],[130.200572,32.408462],[130.201117,32.408039],[130.200298,32.405266],[130.197772,32.405395],[130.196584,32.403154],[130.1971,32.40195],[130.20084,32.401549],[130.201899,32.399507],[130.200522,32.396182],[130.20149,32.394954],[130.201364,32.391735],[130.198701,32.389119],[130.195264,32.388666],[130.194358,32.388685],[130.193297,32.387873],[130.199418,32.385077],[130.203627,32.393522],[130.204781,32.393928],[130.204557,32.394812],[130.206339,32.393639],[130.207798,32.396267],[130.211298,32.394833],[130.213688,32.395021],[130.21417,32.394119],[130.219393,32.392546],[130.219952,32.391265],[130.218775,32.391809],[130.217548,32.391346],[130.218198,32.390252],[130.215501,32.387688],[130.216633,32.387031],[130.217312,32.38812],[130.221671,32.388577],[130.223209,32.386221],[130.222117,32.384815],[130.223596,32.383384],[130.220989,32.383701],[130.218897,32.383024],[130.21835,32.382958],[130.218786,32.381882],[130.216724,32.380248],[130.217795,32.379502],[130.217404,32.376601],[130.220916,32.378355],[130.220495,32.376779],[130.221412,32.377353],[130.221721,32.375255],[130.220868,32.373923],[130.222949,32.373788],[130.222594,32.37207],[130.223996,32.371578],[130.223556,32.369783],[130.225655,32.368192],[130.224466,32.367066],[130.224734,32.365642],[130.221616,32.366501],[130.218742,32.365104],[130.218492,32.362848],[130.215641,32.359957],[130.216202,32.35925],[130.214172,32.357859],[130.212674,32.358116],[130.211681,32.357674],[130.211712,32.356787],[130.21093,32.357505],[130.210465,32.35707],[130.211404,32.355937],[130.211746,32.353032],[130.210954,32.353028],[130.20752,32.347873],[130.206808,32.348105],[130.206952,32.34733],[130.207648,32.34095],[130.208759,32.339226],[130.208014,32.337828],[130.209121,32.337477],[130.209192,32.336755],[130.207455,32.334131],[130.205619,32.332944],[130.20337,32.332814],[130.202949,32.332073],[130.202929,32.329493],[130.201645,32.327221],[130.202236,32.326325],[130.204073,32.326139],[130.204432,32.325181],[130.19939,32.325637],[130.199637,32.323154],[130.200239,32.322914],[130.199715,32.322632],[130.195681,32.323997],[130.193751,32.323551],[130.193489,32.322509],[130.191395,32.321871],[130.191237,32.321032],[130.191104,32.319425],[130.189379,32.318787],[130.186778,32.316183],[130.185809,32.313578],[130.181537,32.311081],[130.179374,32.310466],[130.172063,32.310894],[130.171413,32.313634],[130.169684,32.314523],[130.170318,32.314849],[130.168123,32.316808],[130.16781,32.32032],[130.168772,32.321521],[130.166789,32.323071],[130.1685,32.322124],[130.169323,32.322479],[130.168945,32.323765],[130.167306,32.324932],[130.169741,32.324424],[130.168036,32.326601],[130.170298,32.325912],[130.171077,32.327097],[130.16992,32.327542],[130.169827,32.329239],[130.170842,32.329019],[130.171396,32.327675],[130.172076,32.328933],[130.171154,32.32969],[130.173367,32.331291],[130.172242,32.33159],[130.172513,32.332978],[130.173489,32.33212],[130.173289,32.333187],[130.174272,32.332328],[130.175208,32.333146],[130.174524,32.334645],[130.176508,32.334741],[130.177072,32.335429],[130.177864,32.337988],[130.177393,32.338699],[130.176365,32.339492],[130.17485,32.339369],[130.174125,32.337704],[130.1729,32.337297],[130.167896,32.331595],[130.165953,32.331759],[130.163949,32.329109],[130.162821,32.329075],[130.161321,32.332036],[130.160267,32.332046],[130.161547,32.332606],[130.160821,32.33469],[130.161264,32.335867],[130.16033,32.336104],[130.159965,32.33469],[130.15874,32.33466],[130.159081,32.335991],[130.157538,32.335185],[130.15877,32.332568],[130.159849,32.332758],[130.158263,32.331668],[130.157192,32.332366],[130.15551,32.330405],[130.157706,32.327964],[130.15894,32.322118],[130.160141,32.321397],[130.158967,32.321199],[130.158151,32.322541],[130.156784,32.322496],[130.155258,32.323612],[130.155132,32.321447],[130.151629,32.322276],[130.153825,32.317726],[130.155052,32.317828],[130.152802,32.315861],[130.155059,32.314879],[130.15494,32.313724],[130.156897,32.313679],[130.157023,32.312365],[130.154071,32.312185],[130.153049,32.311266],[130.149619,32.312196],[130.14875,32.311446],[130.147231,32.313476],[130.149387,32.314197],[130.148033,32.315048],[130.147356,32.314355],[130.145817,32.315105],[130.146965,32.31621],[130.146277,32.316933],[130.14553,32.316559],[130.144532,32.317725],[130.142996,32.317314],[130.144245,32.314659],[130.144577,32.310792],[130.143834,32.309924],[130.144033,32.310893],[130.143014,32.311022],[130.143305,32.31194],[130.140904,32.312812],[130.142042,32.311316],[130.141379,32.310203],[130.142135,32.309033],[130.139879,32.308571],[130.142098,32.305884],[130.141972,32.304127],[130.141784,32.305114],[130.140113,32.304902],[130.139799,32.303955],[130.140744,32.303976],[130.141137,32.30234],[130.140327,32.302225],[130.14057,32.299714],[130.139611,32.297372],[130.142021,32.297429],[130.142719,32.298986],[130.143807,32.296714],[130.144902,32.297086],[130.144749,32.298797],[130.146179,32.299109],[130.145167,32.301428],[130.145891,32.30388],[130.146176,32.301253],[130.147085,32.301168],[130.148405,32.299437],[130.148737,32.300317],[130.14944,32.300187],[130.148246,32.302499],[130.148879,32.302128],[130.150349,32.300672],[130.152797,32.302651],[130.163439,32.301828],[130.164527,32.300379],[130.165583,32.300035],[130.165131,32.298914],[130.165822,32.299494],[130.166537,32.296112],[130.162913,32.29327],[130.160884,32.289665],[130.159454,32.288465],[130.158255,32.287295],[130.158317,32.288003],[130.157585,32.287813],[130.154954,32.286155],[130.151437,32.285755],[130.149314,32.28297],[130.146774,32.284069],[130.145466,32.283725],[130.145035,32.28147],[130.144517,32.28147],[130.143164,32.282282],[130.143047,32.283766],[130.141764,32.283759],[130.141904,32.285394],[130.140524,32.287006],[130.139128,32.287786],[130.137869,32.287485],[130.137266,32.289256],[130.13781,32.290225],[130.1371,32.291016],[130.136283,32.290654],[130.137087,32.290017],[130.136543,32.288878],[130.134519,32.289097],[130.133695,32.288226],[130.133006,32.287203],[130.133365,32.286594],[130.131487,32.285788],[130.134102,32.285156],[130.130492,32.284954],[130.126707,32.282113],[130.12693,32.281379],[130.125245,32.279823],[130.122743,32.278362],[130.120342,32.274456],[130.117383,32.272151],[130.117596,32.271136],[130.116129,32.2702],[130.114544,32.266338],[130.112527,32.266101],[130.110725,32.26719],[130.109022,32.265499],[130.110004,32.264888],[130.109264,32.264335],[130.11199,32.262166],[130.112156,32.260948],[130.111214,32.258823],[130.109409,32.259108],[130.108282,32.255435],[130.106756,32.253529],[130.105843,32.254469],[130.104334,32.254389],[130.103335,32.255516],[130.102101,32.255339],[130.10158,32.254237],[130.100926,32.254066],[130.100572,32.254706],[130.098836,32.254493],[130.100065,32.253859],[130.097133,32.253318],[130.095304,32.254039],[130.092721,32.254196],[130.092425,32.254728],[130.09156,32.254101],[130.091147,32.253055],[130.092586,32.252621],[130.092745,32.251781],[130.093707,32.251878],[130.093487,32.250462],[130.092593,32.250439],[130.092842,32.249372],[130.095091,32.248523],[130.093666,32.246877],[130.094933,32.246386],[130.096258,32.24704],[130.096404,32.246222],[130.097975,32.245704],[130.098359,32.246702],[130.096735,32.248027],[130.097604,32.248094],[130.097723,32.24881],[130.098464,32.249079],[130.099254,32.248027],[130.101415,32.249137],[130.102893,32.248957],[130.102369,32.245011],[130.099728,32.243994],[130.101621,32.242073],[130.101064,32.238088],[130.102058,32.236842],[130.102058,32.235077],[130.100326,32.231224],[130.098261,32.229016],[130.096444,32.230978],[130.095311,32.231114],[130.093714,32.230448],[130.093724,32.229342],[130.092295,32.229405],[130.089942,32.226744],[130.089796,32.229252],[130.088636,32.230245],[130.089969,32.230442],[130.089213,32.23104],[130.088947,32.233007],[130.087894,32.233256],[130.087231,32.232556],[130.086296,32.233256],[130.087323,32.235195],[130.084129,32.237777],[130.085023,32.239649],[130.085825,32.239846],[130.0868,32.237794],[130.089345,32.236633],[130.089365,32.237343],[130.087781,32.237941],[130.087104,32.24094],[130.085467,32.242101],[130.086355,32.242135],[130.08851,32.240455],[130.088682,32.24125],[130.091823,32.242572],[130.091891,32.243711],[130.087924,32.2425],[130.085906,32.243245],[130.086394,32.244427],[130.083836,32.24341],[130.082208,32.24417],[130.082338,32.243358],[130.08312,32.24339],[130.08299,32.242657],[130.080471,32.243076],[130.079786,32.242534],[130.079981,32.241858],[130.078957,32.238176],[130.07958,32.236181],[130.078369,32.234135],[130.078986,32.234331],[130.080228,32.232535],[130.082353,32.232122],[130.082909,32.230696],[130.07961,32.229876],[130.077574,32.228232],[130.077036,32.224913],[130.075608,32.22545],[130.074703,32.224799],[130.074927,32.225352],[130.073841,32.225823],[130.074235,32.226688],[130.072399,32.224809],[130.073106,32.224316],[130.072491,32.223724],[130.07465,32.224094],[130.073974,32.222579],[130.075814,32.222588],[130.077024,32.221449],[130.078175,32.221896],[130.077958,32.221072],[130.079549,32.221275],[130.080517,32.220553],[130.081266,32.22145],[130.082711,32.220909],[130.083175,32.219358],[130.084719,32.220582],[130.08635,32.219747],[130.080815,32.218462],[130.080915,32.217729],[130.080488,32.217392],[130.079509,32.216849],[130.08002,32.215327],[130.079565,32.214937],[130.078431,32.21432],[130.077416,32.212077],[130.076368,32.213359],[130.073678,32.213827],[130.073969,32.210462],[130.073026,32.210542],[130.073253,32.211426],[130.070661,32.21164],[130.069289,32.210907],[130.067804,32.211375],[130.066548,32.209919],[130.062892,32.211157],[130.062508,32.210123],[130.061919,32.210501],[130.061044,32.209875],[130.060453,32.20974],[130.060444,32.210319],[130.058537,32.211115],[130.057093,32.211002],[130.056131,32.210207],[130.055039,32.207432],[130.048032,32.204913],[130.04793,32.203199],[130.046527,32.201254],[130.046326,32.199993],[130.044849,32.199094],[130.043498,32.199884],[130.044558,32.202247],[130.043624,32.202901],[130.043398,32.204412],[130.042175,32.204986],[130.042815,32.207027],[130.044293,32.208042],[130.043231,32.209146],[130.043567,32.209607],[130.042729,32.2097],[130.041695,32.208645],[130.040296,32.208995],[130.038305,32.212174],[130.039391,32.208992],[130.03734,32.20864],[130.039551,32.208333],[130.041392,32.206767],[130.038896,32.206226],[130.037786,32.206873],[130.036564,32.207822],[130.035059,32.211605],[130.03376,32.212157],[130.031958,32.211756],[130.034045,32.212642],[130.033457,32.21547],[130.032813,32.215358],[130.032173,32.21383],[130.029588,32.213305],[130.028949,32.214465],[130.029151,32.21192],[130.029479,32.209282],[130.031802,32.203591],[130.032531,32.203788],[130.032611,32.202769],[130.032041,32.202475],[130.03259,32.19998],[130.031734,32.199872],[130.031508,32.196909],[130.032147,32.196862],[130.032119,32.195622],[130.031446,32.195314],[130.030014,32.195139],[130.029685,32.197285],[130.028775,32.198178],[130.02754,32.198043],[130.027851,32.195017],[130.028064,32.193719],[130.025919,32.192873],[130.024005,32.195523],[130.024177,32.192732],[130.021253,32.193212],[130.021837,32.190879],[130.024346,32.190891],[130.022409,32.188647],[130.019246,32.188746],[130.017568,32.189573],[130.013006,32.189538],[130.012961,32.193241],[130.014449,32.193071],[130.014445,32.193792],[130.013655,32.194325],[130.01296,32.19378],[130.012943,32.195553],[130.013508,32.195747],[130.011863,32.196255],[130.013858,32.196352],[130.013871,32.197613],[130.01195,32.19705],[130.012613,32.19917],[130.011729,32.201036],[130.011441,32.201923],[130.008467,32.200844],[130.009037,32.199952],[130.009553,32.20011],[130.010285,32.198852],[130.009482,32.198723],[130.00828,32.196283],[130.010789,32.196215],[130.006395,32.195858],[130.001938,32.193225],[130.001361,32.192554],[130.002071,32.191601],[130.001749,32.190028],[129.999386,32.190772],[130.000264,32.193687],[129.997855,32.195931],[129.996032,32.196613],[129.991664,32.196314],[129.990598,32.197105],[129.991365,32.198626],[129.990153,32.199771],[129.991823,32.199674],[129.992373,32.201191],[129.993099,32.200422],[129.994185,32.200658],[129.994885,32.201366],[129.994417,32.202987],[129.996237,32.203858],[129.997279,32.204878],[129.998013,32.205465],[129.998649,32.208599],[129.997702,32.210978],[129.998994,32.213532],[129.998543,32.214575],[129.996769,32.214803],[129.996761,32.215606],[129.997072,32.216103],[129.996587,32.217008],[129.997134,32.2171],[129.998079,32.216892],[129.99989,32.217983],[130.000479,32.221645],[130.002314,32.219536],[130.00203,32.218589],[130.003587,32.218122],[130.004707,32.218827],[130.004687,32.221047],[130.003468,32.222451],[130.005307,32.222963],[130.006649,32.221318],[130.00685,32.219889],[130.006306,32.219762],[130.005847,32.217529],[130.006305,32.216746],[130.005085,32.216469],[130.00437,32.214694],[130.004695,32.212595],[130.003662,32.211241],[130.004795,32.211288],[130.006291,32.21216],[130.005944,32.214214],[130.00803,32.214152],[130.008465,32.214898],[130.007296,32.215363],[130.008973,32.215657],[130.009041,32.21749],[130.009482,32.219179],[130.010906,32.219484],[130.014703,32.222418],[130.014643,32.224442],[130.013676,32.225738],[130.014219,32.227052],[130.013052,32.228597],[130.013536,32.232605],[130.012244,32.234246],[130.012528,32.235272],[130.011057,32.236072],[130.00987,32.238725],[130.010858,32.237517],[130.011097,32.239037],[130.009148,32.239957],[130.006424,32.239032],[130.00531,32.240187],[130.006576,32.242634],[130.006085,32.242888],[130.003665,32.24025],[130.004316,32.23853],[130.006994,32.23816],[130.005965,32.238029],[130.00529,32.2361],[130.003905,32.235283],[130.002478,32.235042],[130.001914,32.235184],[129.999258,32.235192],[129.999358,32.235751],[129.998715,32.235717],[129.999358,32.236489],[129.998244,32.236827],[129.998078,32.238237],[129.996541,32.239139],[129.994251,32.236215],[129.993372,32.236557],[129.994559,32.237667],[129.994492,32.239674],[129.992013,32.240052],[129.989765,32.238487],[129.989844,32.239399],[129.988977,32.239761],[129.988424,32.240117],[129.990412,32.243156],[129.991834,32.243121],[129.99198,32.244455],[129.99367,32.245278],[129.993922,32.244686],[129.996394,32.245391],[129.995513,32.246496],[129.998423,32.249332],[130.000921,32.249202],[129.998383,32.250499],[129.999296,32.253759],[129.998207,32.253651],[129.997963,32.252914],[129.996242,32.253739],[129.997083,32.252438],[129.995983,32.249067],[129.994896,32.248125],[129.992981,32.24839],[129.993882,32.247595],[129.993153,32.246829],[129.990124,32.246513],[129.98968,32.244506],[129.986278,32.241713],[129.985894,32.24232],[129.986531,32.244996],[129.983317,32.246236],[129.982075,32.245377],[129.982112,32.244553],[129.98154,32.244832],[129.977849,32.24198],[129.977424,32.2407],[129.976238,32.240931],[129.974226,32.24014],[129.973818,32.239834],[129.972973,32.239954],[129.97096,32.241867],[129.970078,32.242408],[129.969497,32.243011],[129.967197,32.243124],[129.968894,32.245091],[129.970842,32.245644],[129.96998,32.24761],[129.970816,32.248893],[129.971335,32.249901],[129.974451,32.253407],[129.974479,32.254839],[129.973928,32.255099],[129.975149,32.255691],[129.974755,32.25642],[129.975354,32.256514],[129.975175,32.257466],[129.976436,32.258447],[129.977139,32.259225],[129.976879,32.260109],[129.977099,32.260984],[129.977511,32.261725],[129.97879,32.263371],[129.979615,32.265233],[129.980334,32.266469],[129.98089,32.267873],[129.98151,32.268624],[129.98204,32.268991],[129.985259,32.269802],[129.987183,32.271956],[129.988576,32.275068],[129.987751,32.276401],[129.990619,32.279009],[129.990706,32.279843],[129.993791,32.282881],[129.992834,32.284122],[129.991906,32.284872],[129.996051,32.284985],[129.996942,32.284804],[129.997743,32.285668],[129.999065,32.285712],[129.998554,32.286259],[129.999702,32.286388],[130.000319,32.288249],[130.001937,32.287578],[130.002621,32.288407],[130.003961,32.287989],[130.006542,32.290492],[130.006853,32.29166],[130.005944,32.292319],[130.007159,32.292575],[130.007901,32.293333],[130.008406,32.293661],[130.008268,32.294992],[130.009618,32.29599],[130.010541,32.297914],[130.010894,32.298391],[130.012154,32.298397],[130.012403,32.299371],[130.014011,32.300009],[130.014879,32.299838],[130.015537,32.299524],[130.016137,32.300186],[130.016789,32.300523],[130.01764,32.300327],[130.01848,32.300237],[130.020507,32.301182],[130.021573,32.301367],[130.023241,32.301209],[130.023923,32.30178],[130.026073,32.300549],[130.025103,32.299556],[130.024779,32.297749],[130.026299,32.296362],[130.028296,32.296176],[130.026209,32.294148],[130.026949,32.293549],[130.025624,32.290333],[130.025934,32.287319],[130.028469,32.285098],[130.030751,32.285267],[130.030371,32.283595],[130.032079,32.280967],[130.032803,32.279407],[130.030207,32.275779],[130.032493,32.274468],[130.035901,32.276422],[130.037677,32.279077],[130.036238,32.282522],[130.033339,32.28273],[130.032376,32.283835],[130.035508,32.284066],[130.036927,32.28573],[130.036228,32.286945],[130.033657,32.288509],[130.029723,32.287082],[130.031971,32.289777],[130.03022,32.293295],[130.031905,32.297044],[130.028402,32.298183],[130.028806,32.299023],[130.033451,32.299322],[130.034207,32.300517],[130.033875,32.301346],[130.034877,32.302355],[130.038559,32.300495],[130.038951,32.299581],[130.040118,32.299717],[130.040204,32.301465],[130.042354,32.303207],[130.043581,32.30138],[130.043986,32.29806],[130.045386,32.297699],[130.045976,32.298539],[130.045233,32.298821],[130.045512,32.300174],[130.047714,32.302181],[130.048086,32.303432],[130.049373,32.303889],[130.049439,32.304633],[130.050479,32.304608],[130.051866,32.302913],[130.051489,32.300915],[130.049234,32.297293],[130.045755,32.295691],[130.04672,32.295449],[130.04597,32.294243],[130.046506,32.293639],[130.048716,32.294998],[130.048749,32.294074],[130.045104,32.292185],[130.04737,32.291948],[130.047754,32.290042],[130.049668,32.289285],[130.049035,32.288436],[130.049672,32.287782],[130.051517,32.288036],[130.051324,32.284411],[130.04952,32.282494],[130.052114,32.281767],[130.051731,32.278761],[130.054085,32.277973],[130.056612,32.280076],[130.057415,32.279168],[130.058868,32.278971],[130.060122,32.279896],[130.061336,32.278537],[130.061085,32.275986],[130.063741,32.280709],[130.062364,32.283492],[130.062842,32.284693],[130.064969,32.28631],[130.064142,32.286768],[130.067227,32.2878],[130.067121,32.288657],[130.063339,32.289542],[130.064981,32.290909],[130.064788,32.291707],[130.063504,32.292546],[130.063359,32.29389],[130.06123,32.296118],[130.063494,32.296551],[130.064608,32.295399],[130.067005,32.295361],[130.066888,32.296837],[130.069893,32.299047],[130.070802,32.298954],[130.071691,32.300333],[130.065698,32.305777],[130.063577,32.30442],[130.056578,32.303534],[130.056293,32.306889],[130.054687,32.309183],[130.050461,32.310218],[130.049625,32.309549],[130.048107,32.310704],[130.046474,32.310248],[130.04352,32.311675],[130.042129,32.313947],[130.040639,32.314937],[130.040649,32.314033],[130.038194,32.312943],[130.037605,32.310624],[130.038499,32.309092],[130.03698,32.304999],[130.034266,32.304407],[130.033089,32.303063],[130.031544,32.303062],[130.030598,32.303166],[130.030103,32.303672],[130.029589,32.30396],[130.029728,32.306251],[130.028699,32.306335],[130.026856,32.307051],[130.02841,32.308975],[130.028682,32.311136],[130.027991,32.314375],[130.026407,32.31495],[130.026895,32.316173],[130.025218,32.315912],[130.024361,32.315189],[130.02486,32.313081],[130.026542,32.312724],[130.025747,32.310366],[130.023861,32.308905],[130.022696,32.309763],[130.021807,32.309628],[130.021366,32.308696],[130.019358,32.309955],[130.018231,32.309368],[130.018227,32.311233],[130.017539,32.31174],[130.018569,32.312052],[130.018469,32.312894],[130.017517,32.314209],[130.016937,32.3139],[130.016193,32.313772],[130.015278,32.31416],[130.014705,32.313317],[130.014196,32.313075],[130.012762,32.313829],[130.011971,32.313167],[130.012399,32.312452],[130.011718,32.311863],[130.011144,32.311616],[130.010501,32.310926],[130.010034,32.310099],[130.008284,32.311757],[130.007589,32.311928],[130.007049,32.311484],[130.006215,32.311874],[130.006668,32.312349],[130.005669,32.313459],[130.006738,32.314176],[130.005731,32.314234],[130.005094,32.315788],[130.004279,32.315254],[130.004802,32.313907],[130.004377,32.312491],[130.005273,32.311072],[130.004647,32.310948],[130.005163,32.308982],[130.004519,32.308198],[130.004245,32.309204],[130.003466,32.308547],[130.000868,32.308787],[130.000875,32.307654],[130.002361,32.306549],[130.002424,32.305875],[130.002181,32.305091],[130.000198,32.306162],[129.999434,32.305953],[129.999197,32.307057],[129.998162,32.307597],[129.994221,32.306538],[129.99426,32.307184],[129.99363,32.306797],[129.993723,32.307372],[129.993512,32.308018],[129.9941,32.309141],[129.994376,32.310023],[129.993026,32.311476],[129.994896,32.314157],[129.995096,32.314661],[129.994995,32.315291],[129.99493,32.31783],[129.994043,32.318958],[129.993838,32.321252],[129.994111,32.321785],[129.994464,32.322255],[129.99249,32.323216],[129.991631,32.321198],[129.990612,32.321584],[129.990127,32.32066],[129.99098,32.32033],[129.990672,32.31986],[129.989417,32.318839],[129.989031,32.317061],[129.986956,32.317328],[129.987066,32.318209],[129.986704,32.319099],[129.987449,32.320372],[129.987289,32.321165],[129.986631,32.32291],[129.98531,32.323434],[129.984324,32.323004],[129.984129,32.323992],[129.982922,32.323597],[129.982875,32.324359],[129.98122,32.3242],[129.980852,32.325255],[129.982106,32.325898],[129.982013,32.327115],[129.980617,32.327935],[129.980414,32.329291],[129.977485,32.329096],[129.976865,32.329184],[129.978057,32.33054],[129.979081,32.331896],[129.979432,32.333841],[129.977847,32.334627],[129.9777,32.335431],[129.978152,32.336271],[129.979704,32.336733],[129.980646,32.340192],[129.980882,32.341916],[129.980326,32.343791],[129.978373,32.344525],[129.978154,32.3456],[129.977543,32.346074],[129.976954,32.347351],[129.977736,32.349074],[129.976296,32.349159],[129.976507,32.350917],[129.977204,32.35112],[129.975239,32.354521],[129.974748,32.355981],[129.975751,32.357388],[129.976699,32.358111],[129.976129,32.358628],[129.976524,32.359434],[129.977097,32.359859],[129.976671,32.360898],[129.97734,32.362586],[129.977812,32.363071],[129.9789,32.364936],[129.979634,32.366015],[129.98008,32.366384],[129.980331,32.367092],[129.980956,32.367007],[129.981478,32.368162],[129.98278,32.369206],[129.984508,32.371282],[129.984879,32.372207],[129.985265,32.372761],[129.98511,32.373598],[129.987647,32.374871],[129.987775,32.37546],[129.990597,32.375447],[129.990333,32.376581],[129.991141,32.375253],[129.993214,32.376146],[129.994233,32.37728],[129.993621,32.37762],[129.994562,32.377838],[129.995073,32.37967],[129.993134,32.379692],[129.994675,32.380139],[129.993985,32.382665],[129.990765,32.383344],[129.989036,32.383099],[129.988333,32.383109],[129.987823,32.383908],[129.989573,32.385084],[129.989126,32.385475],[129.989913,32.38618],[129.991872,32.387224],[129.992008,32.387814],[129.993888,32.390073],[129.994661,32.390394],[129.995332,32.390551],[129.996306,32.391329],[129.997507,32.395335],[129.995897,32.395144],[129.99578,32.39609],[129.997984,32.396607],[129.997954,32.397155],[129.997151,32.397525],[129.996837,32.398194],[129.999303,32.397852],[129.997635,32.399953],[130.001238,32.401308],[130.003207,32.402272],[130.002623,32.40327],[130.000264,32.403101],[129.998333,32.403354],[129.997994,32.405063],[129.99741,32.404715],[129.998206,32.406213],[130.00077,32.407126],[130.000345,32.407645],[130.001301,32.407808],[130.001148,32.408784],[130.003957,32.410306],[130.00486,32.41158],[130.004376,32.413317],[130.002863,32.413767],[130.002311,32.413545],[130.002162,32.414039],[130.001155,32.41467],[130.003154,32.414856],[130.002861,32.416096],[130.002065,32.416085],[130.003433,32.417105],[130.003613,32.418997],[130.003458,32.420426],[130.003975,32.420698],[130.004302,32.421193],[130.003498,32.421594],[130.005375,32.42304],[130.006041,32.423957],[130.004666,32.424331],[130.006567,32.42417],[130.007321,32.426586],[130.00699,32.427273],[130.00668,32.428322],[130.00783,32.429155],[130.008209,32.430957],[130.011608,32.432641],[130.012149,32.433559],[130.012864,32.434517],[130.015381,32.43744],[130.018066,32.439221],[130.020702,32.436273],[130.028208,32.435934],[130.030816,32.434903],[130.032752,32.431342],[130.036697,32.435291],[130.041335,32.433698],[130.043166,32.433929],[130.04752,32.43593],[130.052636,32.437078],[130.05571,32.439275],[130.068737,32.439845],[130.070487,32.438854],[130.075486,32.438311],[130.077623,32.439351],[130.080922,32.436569],[130.084201,32.436014],[130.084888,32.434395],[130.089314,32.431202],[130.090787,32.429172],[130.094848,32.429441],[130.094913,32.431407],[130.096817,32.432681],[130.095917,32.434508],[130.09447,32.434762],[130.094861,32.436102],[130.094019,32.43813],[130.095392,32.439524],[130.094683,32.442668],[130.094993,32.445306],[130.093694,32.448836],[130.093842,32.450811],[130.095222,32.452458],[130.092454,32.452707],[130.091731,32.453704],[130.088606,32.455089],[130.08497,32.458796],[130.082188,32.459869],[130.084291,32.461661],[130.086579,32.467046],[130.087949,32.468603],[130.088499,32.471344],[130.092223,32.474329],[130.094567,32.479378],[130.097634,32.481931],[130.105104,32.478092],[130.104451,32.480307],[130.106135,32.481599],[130.105387,32.482672],[130.105805,32.484802],[130.106786,32.485785],[130.108044,32.484639],[130.109203,32.484814],[130.112796,32.487714],[130.113234,32.488778],[130.114764,32.489405],[130.116704,32.493282],[130.118021,32.494233],[130.118338,32.496711],[130.117637,32.499854],[130.118864,32.501491],[130.118816,32.503534],[130.117649,32.505113],[130.115191,32.505616],[130.114943,32.506749],[130.116213,32.508806],[130.11485,32.509039],[130.114995,32.510443],[130.115707,32.510646],[130.116666,32.51287],[130.121739,32.516807],[130.120409,32.521082],[130.123117,32.524117],[130.124954,32.524212],[130.125377,32.526179],[130.124801,32.528183],[130.125931,32.529675],[130.127067,32.529994],[130.126443,32.532396],[130.121572,32.537248],[130.119021,32.537678],[130.118131,32.539806],[130.118829,32.542646],[130.117953,32.543595],[130.118338,32.548176],[130.119234,32.548716],[130.120559,32.547405],[130.121162,32.546675],[130.121983,32.547343],[130.126532,32.54669],[130.126781,32.547365],[130.127628,32.547622],[130.127284,32.54651],[130.133095,32.545866],[130.132254,32.544725],[130.133062,32.544168],[130.133638,32.544397],[130.13431,32.543776],[130.135129,32.544154],[130.133839,32.544969],[130.134467,32.545384],[130.134184,32.546031],[130.135496,32.54673],[130.136947,32.54627],[130.139774,32.54741],[130.145421,32.548013],[130.147632,32.549645],[130.158589,32.549832],[130.159682,32.550962],[130.16045,32.550234],[130.161494,32.550792],[130.163771,32.550214],[130.165217,32.549631],[130.166009,32.54991],[130.169831,32.550635],[130.170648,32.550686],[130.17669,32.550452],[130.177776,32.550341],[130.177264,32.549838],[130.181179,32.54988],[130.182172,32.548821],[130.184821,32.547916],[130.18538,32.547802],[130.185373,32.548525],[130.189015,32.548771],[130.189,32.547444],[130.18856,32.547808],[130.187443,32.547678],[130.187568,32.54651],[130.186171,32.546835],[130.187178,32.545605],[130.186582,32.545021],[130.187317,32.544027],[130.18794,32.543335],[130.189292,32.543854],[130.190649,32.542405],[130.190728,32.538926],[130.18959,32.536169],[130.1913,32.539054],[130.191536,32.537607],[130.192463,32.537004],[130.194732,32.53637],[130.196681,32.537069],[130.199854,32.535826],[130.198478,32.534395],[130.199244,32.532615],[130.198184,32.531638],[130.195039,32.532174],[130.193627,32.529856],[130.193887,32.528058],[130.193085,32.525222],[130.19587,32.517663],[130.195149,32.518779],[130.193973,32.519136],[130.193129,32.518331],[130.191162,32.517142],[130.192288,32.517249],[130.192414,32.515477],[130.190381,32.513828],[130.192431,32.513788],[130.19401,32.515462],[130.194326,32.514264],[130.196935,32.510899],[130.198658,32.509929],[130.196835,32.506427],[130.197974,32.504763],[130.194142,32.498259],[130.194376,32.497718],[130.192422,32.496819]]],[[[130.114959,32.553216],[130.117898,32.552309],[130.124224,32.552398],[130.122278,32.550294],[130.121702,32.550229],[130.121582,32.550888],[130.120395,32.550154],[130.118378,32.550374],[130.11755,32.549489],[130.117567,32.550041],[130.116716,32.549996],[130.115898,32.548962],[130.112777,32.549712],[130.112457,32.549041],[130.110526,32.549648],[130.106514,32.549314],[130.105175,32.550082],[130.107226,32.551513],[130.111742,32.551844],[130.114959,32.553216]]]]}}]}