{"type":"FeatureCollection","features":[{"type":"Feature","properties":{},"geometry":{"type":"MultiPolygon","coordinates":[[[[130.563097,32.694798],[130.561747,32.693889],[130.561031,32.694602],[130.562549,32.695906],[130.563097,32.694798]]],[[[130.656234,32.709405],[130.657243,32.706277],[130.656799,32.701519],[130.659382,32.706282],[130.664161,32.70704],[130.665967,32.703523],[130.668802,32.702578],[130.668733,32.700901],[130.669843,32.700275],[130.669555,32.699638],[130.670409,32.698398],[130.669168,32.698642],[130.66846,32.697729],[130.670808,32.696963],[130.672269,32.694046],[130.672766,32.694178],[130.672284,32.695261],[130.673812,32.695967],[130.674887,32.695232],[130.676429,32.696289],[130.677091,32.695998],[130.677161,32.694436],[130.678289,32.693878],[130.681913,32.69423],[130.68371,32.695721],[130.689943,32.691068],[130.697023,32.692954],[130.698447,32.692093],[130.698889,32.689763],[130.700221,32.689693],[130.700971,32.68882],[130.707335,32.687837],[130.710015,32.688412],[130.712057,32.687152],[130.713091,32.685378],[130.715999,32.684605],[130.717244,32.682331],[130.716767,32.681135],[130.713313,32.680194],[130.711644,32.674248],[130.703474,32.674774],[130.699595,32.677452],[130.695511,32.677011],[130.695848,32.675301],[130.699595,32.670797],[130.699846,32.669661],[130.697244,32.671947],[130.695239,32.675637],[130.69381,32.67485],[130.693524,32.67326],[130.693315,32.674571],[130.692318,32.675118],[130.692458,32.672671],[130.691309,32.671104],[130.68889,32.669963],[130.688623,32.669131],[130.685531,32.668853],[130.686186,32.666783],[130.685859,32.665189],[130.683642,32.66414],[130.682829,32.662178],[130.681236,32.661144],[130.679106,32.658022],[130.677129,32.657499],[130.675758,32.657728],[130.676121,32.658796],[130.675246,32.659796],[130.675266,32.662202],[130.671835,32.662657],[130.671546,32.663523],[130.66746,32.660999],[130.665547,32.660977],[130.66098,32.667265],[130.659511,32.668183],[130.657595,32.667292],[130.656875,32.664956],[130.654418,32.663167],[130.652045,32.662914],[130.644587,32.668534],[130.641598,32.668306],[130.639148,32.664015],[130.635585,32.664551],[130.633852,32.664015],[130.627668,32.665632],[130.628971,32.667498],[130.624416,32.669823],[130.623083,32.670207],[130.620599,32.669597],[130.618447,32.668281],[130.616387,32.669088],[130.61615,32.670654],[130.61516,32.671149],[130.612135,32.669841],[130.612246,32.668064],[130.60853,32.666646],[130.608222,32.665004],[130.605354,32.663931],[130.607087,32.661174],[130.606359,32.659942],[130.604845,32.65915],[130.60359,32.659714],[130.600773,32.6589],[130.598884,32.655616],[130.595836,32.655344],[130.594706,32.656278],[130.592675,32.655509],[130.591697,32.656093],[130.589395,32.654756],[130.588467,32.655143],[130.586585,32.653337],[130.582883,32.654337],[130.579165,32.653065],[130.576096,32.653131],[130.574929,32.653533],[130.573716,32.655225],[130.57208,32.654701],[130.568114,32.65673],[130.564418,32.656729],[130.557884,32.654756],[130.553964,32.655467],[130.548849,32.652052],[130.541614,32.651311],[130.532341,32.64824],[130.527412,32.647799],[130.52427,32.648671],[130.520602,32.647038],[130.51681,32.64753],[130.510573,32.646327],[130.505989,32.647398],[130.504403,32.64667],[130.501242,32.647423],[130.499474,32.654],[130.505691,32.654231],[130.510138,32.655298],[130.511079,32.655892],[130.510751,32.656464],[130.511715,32.656195],[130.515267,32.657995],[130.514629,32.659029],[130.518037,32.66075],[130.518771,32.660166],[130.520469,32.661257],[130.520261,32.662126],[130.523153,32.663306],[130.522663,32.664092],[130.525315,32.662636],[130.534601,32.664838],[130.537927,32.665002],[130.539179,32.666825],[130.541542,32.66857],[130.541142,32.668963],[130.542823,32.672418],[130.546355,32.675676],[130.549418,32.681447],[130.550438,32.681881],[130.549841,32.682099],[130.554035,32.687866],[130.557773,32.689466],[130.560624,32.691716],[130.560126,32.692198],[130.563993,32.69489],[130.564459,32.693943],[130.565296,32.695252],[130.564626,32.696571],[130.565312,32.695859],[130.567796,32.699222],[130.572309,32.701487],[130.573645,32.701241],[130.573448,32.701837],[130.579655,32.702674],[130.580121,32.703962],[130.580846,32.704071],[130.582155,32.704523],[130.58189,32.703202],[130.583519,32.704304],[130.583715,32.703639],[130.588452,32.704357],[130.589569,32.705474],[130.590717,32.706463],[130.589865,32.709044],[130.593243,32.709554],[130.59151,32.709034],[130.59211,32.708525],[130.591523,32.706761],[130.592676,32.708457],[130.596895,32.711341],[130.599778,32.712481],[130.607046,32.712987],[130.607558,32.715787],[130.615997,32.714197],[130.629293,32.708978],[130.638696,32.71213],[130.6421,32.714185],[130.64398,32.71731],[130.648033,32.713996],[130.654869,32.710711],[130.656234,32.709405]]]]}}]}