{"type":"FeatureCollection","features":[{"type":"Feature","properties":{"municipality_code":"43447"},"geometry":{"type":"Polygon","coordinates":[[[131.158892,32.81924],[131.160887,32.817699],[131.161568,32.81623],[131.164764,32.814946],[131.168005,32.815144],[131.16992,32.814445],[131.172206,32.811169],[131.173778,32.810342],[131.173563,32.80969],[131.174686,32.808769],[131.176528,32.808677],[131.175745,32.80766],[131.176456,32.805769],[131.178135,32.804612],[131.179453,32.804132],[131.181199,32.804793],[131.182121,32.803533],[131.183097,32.804225],[131.18465,32.804116],[131.185817,32.803124],[131.188331,32.80312],[131.188941,32.80246],[131.190435,32.80305],[131.192332,32.802732],[131.195949,32.800544],[131.195864,32.798309],[131.198524,32.797986],[131.197141,32.796713],[131.197318,32.796088],[131.199885,32.796381],[131.198959,32.794285],[131.199373,32.792994],[131.201012,32.792428],[131.201345,32.790371],[131.203146,32.78951],[131.205,32.787349],[131.203227,32.784976],[131.20419,32.781732],[131.202776,32.779002],[131.202841,32.777517],[131.200451,32.774732],[131.200618,32.772716],[131.202244,32.771106],[131.201646,32.768411],[131.202305,32.767504],[131.204735,32.767437],[131.208572,32.765494],[131.210364,32.762137],[131.212074,32.761227],[131.212952,32.759352],[131.212395,32.758182],[131.215268,32.757163],[131.216049,32.756133],[131.219138,32.756965],[131.222238,32.756752],[131.224307,32.755326],[131.226403,32.75599],[131.229707,32.754443],[131.232013,32.754954],[131.234224,32.753437],[131.235275,32.751414],[131.235162,32.749145],[131.233862,32.747434],[131.235005,32.744332],[131.2315,32.744029],[131.219597,32.735317],[131.215214,32.730438],[131.212346,32.72888],[131.210404,32.728624],[131.206606,32.730274],[131.195026,32.725315],[131.189777,32.721848],[131.188483,32.71946],[131.184542,32.71532],[131.179967,32.712078],[131.17926,32.709955],[131.181556,32.708234],[131.182006,32.707026],[131.181154,32.704317],[131.179483,32.703607],[131.180407,32.700127],[131.175848,32.695588],[131.176023,32.694354],[131.175027,32.693557],[131.176194,32.691909],[131.175162,32.689254],[131.175902,32.687784],[131.17247,32.684748],[131.173972,32.682538],[131.174018,32.679871],[131.17554,32.679131],[131.17549,32.677197],[131.173782,32.676094],[131.175856,32.674634],[131.175103,32.671932],[131.171013,32.672368],[131.162933,32.671712],[131.160091,32.67474],[131.158064,32.675343],[131.157914,32.677814],[131.151389,32.680057],[131.148766,32.677697],[131.147049,32.677724],[131.143535,32.67628],[131.143267,32.670058],[131.141029,32.667524],[131.140191,32.664647],[131.13853,32.663027],[131.135863,32.662239],[131.13384,32.659589],[131.130536,32.657879],[131.129816,32.654661],[131.127048,32.654129],[131.125119,32.648736],[131.123638,32.646905],[131.123543,32.644467],[131.119964,32.642926],[131.115549,32.642105],[131.115727,32.640829],[131.114812,32.638915],[131.115575,32.635434],[131.11909,32.632868],[131.11982,32.629695],[131.117569,32.624733],[131.117652,32.623254],[131.115937,32.620949],[131.116207,32.609488],[131.11682,32.607958],[131.119114,32.606936],[131.120622,32.605321],[131.118614,32.602099],[131.119751,32.599256],[131.116136,32.596796],[131.113476,32.591378],[131.105936,32.589075],[131.105561,32.585384],[131.10831,32.582716],[131.108037,32.581756],[131.104991,32.579606],[131.098643,32.578358],[131.092917,32.57944],[131.091176,32.578633],[131.086498,32.579627],[131.083916,32.580932],[131.078605,32.581779],[131.074777,32.584783],[131.068395,32.584019],[131.062397,32.586451],[131.059532,32.585765],[131.054496,32.587828],[131.051924,32.587634],[131.049232,32.585131],[131.046192,32.584541],[131.043251,32.58234],[131.04285,32.580325],[131.041629,32.579894],[131.042381,32.574411],[131.039431,32.571324],[131.039776,32.570594],[131.037724,32.564727],[131.037839,32.563461],[131.040436,32.560871],[131.040767,32.559603],[131.038962,32.554426],[131.036886,32.554347],[131.035644,32.553047],[131.030106,32.554019],[131.023948,32.553334],[131.019474,32.549224],[131.016731,32.551469],[131.016925,32.553975],[131.012891,32.555864],[131.011897,32.558229],[131.012299,32.559305],[131.010791,32.559668],[131.009706,32.561029],[131.011448,32.563711],[131.011192,32.564457],[131.004658,32.565935],[131.000219,32.569996],[130.996202,32.568817],[130.990832,32.571459],[130.98755,32.571468],[130.984272,32.57398],[130.983009,32.573672],[130.982062,32.575201],[130.978242,32.577417],[130.972129,32.579959],[130.969346,32.580405],[130.96462,32.577768],[130.960257,32.578704],[130.960229,32.57794],[130.958317,32.576893],[130.95436,32.577121],[130.95057,32.579463],[130.949804,32.582694],[130.948201,32.584395],[130.948413,32.585],[130.951436,32.586727],[130.951996,32.587528],[130.951447,32.588565],[130.954619,32.590851],[130.95558,32.592905],[130.957612,32.594857],[130.959639,32.595299],[130.966092,32.59908],[130.966724,32.603736],[130.964364,32.608905],[130.964297,32.613689],[130.96317,32.61439],[130.962321,32.619172],[130.960367,32.621158],[130.960148,32.625293],[130.957559,32.627301],[130.956597,32.629648],[130.949161,32.634747],[130.951151,32.635031],[130.953533,32.638682],[130.960743,32.63801],[130.963914,32.640939],[130.966607,32.638189],[130.971766,32.641187],[130.975181,32.639024],[130.977197,32.642586],[130.976581,32.643935],[130.976828,32.647786],[130.975299,32.648113],[130.972725,32.646546],[130.966884,32.646553],[130.965562,32.645943],[130.963561,32.647236],[130.961691,32.646569],[130.959269,32.648965],[130.955216,32.64865],[130.95454,32.647626],[130.947789,32.647896],[130.947109,32.649322],[130.942714,32.650629],[130.942974,32.653433],[130.941784,32.65513],[130.940116,32.655742],[130.939338,32.657406],[130.935944,32.658353],[130.926193,32.657112],[130.924052,32.658213],[130.92029,32.656876],[130.911661,32.661108],[130.909211,32.661206],[130.906991,32.662821],[130.906353,32.664677],[130.904144,32.664302],[130.903245,32.664876],[130.89844,32.665733],[130.893338,32.668633],[130.892331,32.670342],[130.890933,32.671003],[130.890889,32.673885],[130.88955,32.675155],[130.89047,32.678008],[130.89047,32.680859],[130.893392,32.681756],[130.895273,32.68341],[130.897263,32.688511],[130.89727,32.689049],[130.893556,32.6893],[130.893549,32.698133],[130.892524,32.699423],[130.893228,32.703731],[130.892555,32.707213],[130.890683,32.710478],[130.892092,32.717801],[130.887881,32.720411],[130.888573,32.722157],[130.888253,32.723912],[130.889226,32.725131],[130.890178,32.729932],[130.892683,32.732548],[130.891684,32.735208],[130.892644,32.738556],[130.892474,32.741548],[130.891331,32.743646],[130.894765,32.745176],[130.898418,32.744941],[130.902069,32.746479],[130.903293,32.748822],[130.908005,32.750528],[130.908257,32.752489],[130.90963,32.753445],[130.911395,32.753256],[130.914056,32.754423],[130.914592,32.755419],[130.917845,32.755834],[130.91851,32.756745],[130.918472,32.758714],[130.919328,32.75943],[130.923432,32.759787],[130.928331,32.763349],[130.93714,32.766216],[130.940066,32.768502],[130.94486,32.770117],[130.953885,32.776468],[130.957904,32.7776],[130.959412,32.780019],[130.960263,32.784367],[130.982718,32.79679],[130.990904,32.803826],[130.99459,32.803905],[130.995918,32.804668],[130.996875,32.803956],[130.995625,32.802135],[130.996014,32.800982],[130.994992,32.79887],[130.994927,32.796739],[130.997575,32.795757],[130.999107,32.793798],[130.998553,32.791843],[131.001934,32.790288],[131.00286,32.788788],[131.005096,32.788769],[131.005891,32.787514],[131.01181,32.786248],[131.012665,32.786598],[131.014067,32.785739],[131.016708,32.787062],[131.018665,32.786353],[131.02406,32.786756],[131.030361,32.789295],[131.033991,32.785057],[131.036308,32.784821],[131.036958,32.783908],[131.038459,32.783653],[131.040704,32.784683],[131.04161,32.786005],[131.04296,32.785023],[131.045622,32.78508],[131.0503,32.789438],[131.054222,32.790268],[131.055692,32.789201],[131.057644,32.79109],[131.059342,32.790504],[131.061776,32.791928],[131.064919,32.791507],[131.066885,32.792858],[131.068917,32.792072],[131.073615,32.791884],[131.07462,32.792513],[131.075257,32.795236],[131.076536,32.794617],[131.081293,32.795088],[131.082033,32.793634],[131.085238,32.791131],[131.089068,32.79197],[131.093772,32.795134],[131.096197,32.792596],[131.099119,32.792022],[131.099939,32.790739],[131.102496,32.792238],[131.105094,32.792384],[131.105517,32.793464],[131.108923,32.79189],[131.110718,32.793235],[131.113067,32.793504],[131.11522,32.795553],[131.117616,32.795259],[131.119866,32.796173],[131.122287,32.794238],[131.123522,32.795554],[131.127163,32.79481],[131.128694,32.796053],[131.133455,32.797376],[131.134477,32.798893],[131.135647,32.798675],[131.137057,32.799581],[131.136601,32.80085],[131.139831,32.802922],[131.140009,32.8045],[131.141932,32.804927],[131.141203,32.806664],[131.142633,32.807115],[131.142071,32.809143],[131.143715,32.810526],[131.142921,32.812088],[131.143361,32.813338],[131.142717,32.815307],[131.144212,32.815875],[131.144585,32.817956],[131.146098,32.817927],[131.148648,32.81955],[131.148778,32.820771],[131.158892,32.81924]]]}}]}