{"type":"FeatureCollection","features":[{"type":"Feature","properties":{"municipality_code":"44214"},"geometry":{"type":"MultiPolygon","coordinates":[[[[131.730652,33.501965],[131.731658,33.502651],[131.732272,33.501356],[131.730652,33.501965]]],[[[131.649463,33.672586],[131.650543,33.672329],[131.652049,33.671053],[131.649463,33.672586]]],[[[131.643001,33.677131],[131.643797,33.676893],[131.644129,33.676341],[131.643001,33.677131]]],[[[131.607316,33.684781],[131.609179,33.684135],[131.609432,33.683283],[131.607316,33.684781]]],[[[131.600131,33.687953],[131.60052,33.688504],[131.60226,33.688734],[131.600131,33.687953]]],[[[131.600131,33.687953],[131.600743,33.686251],[131.601778,33.686126],[131.601745,33.685583],[131.60375,33.686332],[131.607516,33.686903],[131.607229,33.684265],[131.606441,33.683405],[131.607079,33.683199],[131.607153,33.680175],[131.606515,33.679898],[131.607235,33.678635],[131.61172,33.67694],[131.612111,33.67735],[131.612186,33.676611],[131.614098,33.67709],[131.616212,33.67497],[131.617397,33.675406],[131.61787,33.676896],[131.61769,33.677485],[131.61679,33.677614],[131.617125,33.678965],[131.619598,33.680857],[131.623194,33.677464],[131.624725,33.677286],[131.623641,33.677128],[131.624139,33.674918],[131.625451,33.674757],[131.624553,33.674352],[131.630197,33.67432],[131.629583,33.674827],[131.630348,33.675484],[131.630443,33.682153],[131.631237,33.682377],[131.632187,33.681567],[131.635811,33.682271],[131.638203,33.680711],[131.63921,33.676565],[131.640974,33.67641],[131.642144,33.677545],[131.643001,33.677131],[131.642377,33.676697],[131.642071,33.674072],[131.642917,33.673673],[131.642837,33.6728],[131.646072,33.67233],[131.648564,33.674645],[131.649463,33.672586],[131.649267,33.671934],[131.650239,33.671715],[131.649463,33.670745],[131.64817,33.67121],[131.646687,33.668806],[131.6462,33.6669],[131.646763,33.665363],[131.647537,33.665143],[131.646914,33.664477],[131.647278,33.662928],[131.64909,33.662373],[131.651641,33.660595],[131.652732,33.661652],[131.651926,33.662087],[131.654234,33.666292],[131.661114,33.66982],[131.661644,33.668201],[131.663542,33.667492],[131.665901,33.668432],[131.664135,33.665357],[131.664812,33.663855],[131.665709,33.664951],[131.665711,33.66417],[131.666447,33.66444],[131.667211,33.663921],[131.666524,33.660056],[131.669261,33.656755],[131.671288,33.657796],[131.672225,33.654762],[131.672952,33.654587],[131.672895,33.651776],[131.673713,33.650193],[131.676115,33.648534],[131.677399,33.648719],[131.676511,33.648105],[131.676889,33.647034],[131.679528,33.643778],[131.68324,33.640437],[131.684028,33.639618],[131.689388,33.641651],[131.690392,33.640565],[131.69136,33.64113],[131.693112,33.639975],[131.694315,33.637297],[131.694227,33.635171],[131.695805,33.630695],[131.696884,33.630626],[131.696612,33.630013],[131.698319,33.623157],[131.699284,33.62203],[131.699537,33.618826],[131.700817,33.616781],[131.700344,33.616571],[131.701031,33.61388],[131.703872,33.608687],[131.707315,33.604875],[131.70963,33.60407],[131.713733,33.604317],[131.714171,33.604607],[131.715387,33.60344],[131.716316,33.601936],[131.716947,33.60126],[131.724066,33.5903],[131.726091,33.588349],[131.726832,33.588317],[131.728318,33.587986],[131.72982,33.588209],[131.731242,33.582562],[131.73203,33.582606],[131.732214,33.581607],[131.733832,33.58258],[131.732766,33.581555],[131.733722,33.580722],[131.73317,33.579251],[131.733983,33.57853],[131.73295,33.577619],[131.732926,33.573021],[131.733724,33.572687],[131.73421,33.570579],[131.734665,33.569495],[131.735494,33.569762],[131.734361,33.567054],[131.735548,33.566884],[131.735367,33.568533],[131.736664,33.570048],[131.737501,33.569426],[131.73659,33.568657],[131.737511,33.567889],[131.736257,33.566858],[131.736905,33.566212],[131.738148,33.5662],[131.737126,33.564836],[131.738001,33.565472],[131.73835,33.56439],[131.73986,33.562571],[131.740468,33.561198],[131.739756,33.559133],[131.740153,33.557089],[131.740224,33.556285],[131.742181,33.554326],[131.740193,33.553042],[131.740853,33.546396],[131.742287,33.543265],[131.745072,33.542827],[131.745104,33.54217],[131.744524,33.541527],[131.743098,33.540361],[131.742896,33.538271],[131.742416,33.53713],[131.740769,33.536696],[131.739111,33.537968],[131.738603,33.537468],[131.739895,33.536474],[131.740524,33.536098],[131.739449,33.53547],[131.7374,33.531539],[131.73667,33.526906],[131.734736,33.523148],[131.732501,33.517177],[131.730373,33.507254],[131.730282,33.506186],[131.731373,33.505557],[131.730196,33.50513],[131.730652,33.501965],[131.730353,33.500521],[131.732262,33.500683],[131.730127,33.49998],[131.729855,33.501019],[131.729062,33.500917],[131.729327,33.499365],[131.729849,33.499266],[131.729507,33.497002],[131.730109,33.496946],[131.72949,33.496205],[131.730578,33.495146],[131.729682,33.494577],[131.730449,33.491598],[131.731527,33.490697],[131.731714,33.491309],[131.732151,33.490465],[131.732609,33.489103],[131.731987,33.488931],[131.732421,33.488084],[131.734554,33.488599],[131.734577,33.493988],[131.735531,33.493995],[131.736223,33.495319],[131.738164,33.495302],[131.73893,33.493944],[131.738855,33.47379],[131.739596,33.47085],[131.738749,33.469526],[131.739556,33.466344],[131.738642,33.464952],[131.734371,33.464937],[131.734608,33.470612],[131.733697,33.470616],[131.731669,33.468957],[131.731756,33.467706],[131.730237,33.465989],[131.727448,33.466161],[131.726142,33.465322],[131.725265,33.464157],[131.726144,33.463582],[131.727497,33.465485],[131.730172,33.465341],[131.729456,33.464305],[131.727436,33.464586],[131.724437,33.4606],[131.722522,33.455633],[131.722146,33.450451],[131.720607,33.447558],[131.720378,33.448594],[131.718752,33.447984],[131.712853,33.449528],[131.712795,33.451543],[131.7108,33.450401],[131.706182,33.452618],[131.703353,33.451811],[131.701371,33.450106],[131.700111,33.450624],[131.69483,33.450311],[131.693937,33.448191],[131.692103,33.446932],[131.686957,33.445432],[131.684613,33.443156],[131.686865,33.440607],[131.682886,33.437676],[131.675827,33.437616],[131.671048,33.43561],[131.665168,33.435655],[131.662917,33.434133],[131.655768,33.43593],[131.653451,33.435535],[131.651014,33.436886],[131.650346,33.438288],[131.653148,33.442903],[131.653582,33.444889],[131.652689,33.447094],[131.656067,33.448989],[131.659197,33.454043],[131.657245,33.456687],[131.654,33.456811],[131.651157,33.455538],[131.635719,33.455688],[131.631651,33.457306],[131.630777,33.461632],[131.628466,33.465929],[131.618589,33.466395],[131.618303,33.470521],[131.616602,33.471038],[131.608801,33.470423],[131.608044,33.473451],[131.605871,33.475842],[131.604571,33.478921],[131.604713,33.48036],[131.603851,33.481254],[131.606715,33.48502],[131.60494,33.485175],[131.604565,33.48684],[131.603001,33.488204],[131.603518,33.4953],[131.600914,33.499386],[131.602466,33.500237],[131.601725,33.504414],[131.597264,33.504805],[131.596659,33.509794],[131.598279,33.511216],[131.598216,33.512517],[131.593492,33.517012],[131.591531,33.520987],[131.589971,33.521586],[131.589955,33.525034],[131.58915,33.526071],[131.588527,33.530485],[131.587055,33.531378],[131.586966,33.533196],[131.58539,33.534862],[131.586583,33.536026],[131.584995,33.538422],[131.585462,33.542004],[131.584964,33.543009],[131.587176,33.545368],[131.586349,33.546972],[131.587193,33.55096],[131.589065,33.552611],[131.588952,33.558677],[131.591577,33.561059],[131.593463,33.566849],[131.595362,33.568279],[131.594407,33.569108],[131.594195,33.571129],[131.596307,33.577339],[131.595359,33.579194],[131.595335,33.581087],[131.592753,33.581164],[131.588733,33.584749],[131.58567,33.582575],[131.582835,33.582874],[131.581827,33.583649],[131.579765,33.58344],[131.577933,33.587481],[131.577832,33.591277],[131.575378,33.593674],[131.5739,33.593961],[131.573188,33.595389],[131.572663,33.597902],[131.573683,33.600682],[131.572214,33.603722],[131.573608,33.605934],[131.575184,33.606828],[131.574832,33.607694],[131.57592,33.609857],[131.575323,33.611225],[131.577809,33.612327],[131.578452,33.613792],[131.576121,33.615203],[131.576063,33.61706],[131.574684,33.618626],[131.573727,33.61919],[131.57286,33.618522],[131.56879,33.618519],[131.567539,33.619862],[131.565959,33.619712],[131.56443,33.621087],[131.564182,33.623204],[131.560592,33.623519],[131.556224,33.626932],[131.555921,33.628492],[131.557947,33.63058],[131.558318,33.633895],[131.557722,33.636934],[131.555197,33.638173],[131.554612,33.642307],[131.554949,33.643376],[131.556196,33.643273],[131.557024,33.644424],[131.555011,33.647838],[131.551936,33.650185],[131.550662,33.653015],[131.549011,33.662272],[131.549639,33.663014],[131.549441,33.667061],[131.546414,33.671863],[131.544505,33.677333],[131.545574,33.680388],[131.548391,33.67862],[131.549265,33.679144],[131.548407,33.679827],[131.549182,33.680139],[131.549198,33.681567],[131.551167,33.682604],[131.554532,33.681722],[131.554399,33.681018],[131.555601,33.681151],[131.556058,33.683145],[131.555452,33.685787],[131.558422,33.685184],[131.560469,33.68688],[131.562452,33.685674],[131.564821,33.679717],[131.56783,33.679103],[131.565415,33.678767],[131.564887,33.677202],[131.565556,33.676971],[131.564677,33.676301],[131.566144,33.675829],[131.56668,33.676899],[131.56634,33.674739],[131.574663,33.675514],[131.57551,33.675067],[131.575882,33.676103],[131.573576,33.67896],[131.573401,33.680886],[131.574676,33.682427],[131.573551,33.686754],[131.574659,33.688312],[131.575343,33.68846],[131.574472,33.68751],[131.57557,33.687492],[131.578191,33.690165],[131.579647,33.690152],[131.582222,33.692289],[131.583504,33.691719],[131.585584,33.692608],[131.586397,33.692231],[131.58623,33.690064],[131.587099,33.689421],[131.588723,33.690284],[131.589855,33.690244],[131.590304,33.689147],[131.593647,33.689376],[131.592561,33.688913],[131.59319,33.687661],[131.593875,33.68692],[131.596795,33.686956],[131.597782,33.686793],[131.598112,33.687801],[131.599171,33.686842],[131.600131,33.687953]]]]}}]}