{"type":"FeatureCollection","features":[{"type":"Feature","properties":{},"geometry":{"type":"MultiPolygon","coordinates":[[[[131.729377,32.465238],[131.731594,32.466472],[131.732491,32.465169],[131.731888,32.464865],[131.73276,32.464081],[131.732442,32.46343],[131.730314,32.463322],[131.729377,32.465238]]],[[[131.729377,32.465238],[131.729312,32.466237],[131.730111,32.466684],[131.730371,32.466194],[131.729377,32.465238]]],[[[131.69319,32.467145],[131.692462,32.467121],[131.692754,32.467577],[131.69319,32.467145]]],[[[131.690901,32.468394],[131.691477,32.467449],[131.690401,32.467451],[131.690901,32.468394]]],[[[131.730578,32.468521],[131.73008,32.467736],[131.729031,32.468214],[131.72979,32.468623],[131.730578,32.468521]]],[[[131.67059,32.466928],[131.669831,32.466288],[131.670949,32.466351],[131.670327,32.46562],[131.6712,32.465594],[131.6692,32.464774],[131.670559,32.464481],[131.669978,32.464028],[131.66607,32.464908],[131.666186,32.466078],[131.667929,32.468503],[131.667203,32.469916],[131.669497,32.470386],[131.670737,32.469115],[131.669484,32.46851],[131.670018,32.46801],[131.669532,32.467518],[131.67059,32.466928]]],[[[131.699044,32.470446],[131.698506,32.470212],[131.698673,32.470927],[131.699044,32.470446]]],[[[131.657358,32.471938],[131.65927,32.472597],[131.659268,32.47169],[131.657358,32.471938]]],[[[131.718264,32.473479],[131.717398,32.473345],[131.717273,32.474436],[131.718441,32.4741],[131.718264,32.473479]]],[[[131.703525,32.475004],[131.705221,32.474979],[131.705266,32.474376],[131.703389,32.473577],[131.702401,32.473456],[131.702525,32.474221],[131.703525,32.475004]]],[[[131.72255,32.487174],[131.723002,32.48682],[131.72247,32.486621],[131.72255,32.487174]]],[[[131.729878,32.488848],[131.731469,32.488043],[131.729747,32.488273],[131.729878,32.488848]]],[[[131.725035,32.49033],[131.725786,32.489782],[131.725028,32.489677],[131.725035,32.49033]]],[[[131.728944,32.496348],[131.729736,32.495758],[131.72897,32.495638],[131.728944,32.496348]]],[[[131.728944,32.496348],[131.728378,32.496134],[131.728253,32.496754],[131.728944,32.496348]]],[[[131.728253,32.496754],[131.726147,32.495331],[131.726594,32.494492],[131.7259,32.494567],[131.728178,32.493366],[131.727889,32.492699],[131.72897,32.492657],[131.728749,32.492106],[131.724207,32.492608],[131.724246,32.491497],[131.72504,32.491114],[131.724347,32.49099],[131.725035,32.49033],[131.723669,32.49067],[131.724248,32.489012],[131.722472,32.489475],[131.723569,32.48833],[131.721415,32.487959],[131.72255,32.487174],[131.720727,32.486313],[131.719826,32.486335],[131.720078,32.487119],[131.718953,32.48717],[131.71904,32.488072],[131.718299,32.488386],[131.714006,32.48904],[131.713398,32.48712],[131.716098,32.485607],[131.715088,32.485229],[131.716827,32.484812],[131.716147,32.484482],[131.717224,32.483328],[131.715317,32.483162],[131.71674,32.482369],[131.71473,32.481306],[131.709481,32.482691],[131.709031,32.482104],[131.710445,32.480595],[131.709629,32.479959],[131.710391,32.47925],[131.709623,32.479202],[131.708383,32.479281],[131.7094,32.477927],[131.705983,32.477664],[131.706361,32.4769],[131.704047,32.476513],[131.702784,32.475566],[131.703525,32.475004],[131.701434,32.474335],[131.700102,32.474757],[131.700974,32.475124],[131.699244,32.47553],[131.696257,32.474702],[131.696668,32.473425],[131.699216,32.472395],[131.698044,32.472142],[131.698712,32.471782],[131.697815,32.471471],[131.69816,32.470726],[131.69629,32.470644],[131.695731,32.470121],[131.696211,32.469497],[131.695409,32.469205],[131.694245,32.47027],[131.692013,32.469909],[131.69221,32.469378],[131.691421,32.469281],[131.690233,32.46969],[131.689832,32.46879],[131.688912,32.469432],[131.687733,32.468895],[131.68587,32.469706],[131.686044,32.470649],[131.68519,32.470947],[131.684632,32.471455],[131.683696,32.471215],[131.682053,32.471578],[131.681941,32.47261],[131.681468,32.472865],[131.680904,32.473496],[131.678766,32.473678],[131.67783,32.473007],[131.677156,32.4752],[131.68057,32.480545],[131.679663,32.481705],[131.680681,32.482523],[131.678997,32.483519],[131.677816,32.483501],[131.6765,32.481461],[131.675469,32.481176],[131.675479,32.47948],[131.674769,32.47953],[131.675004,32.480361],[131.673719,32.480643],[131.673701,32.481512],[131.672508,32.481158],[131.67286,32.479114],[131.671924,32.478553],[131.671737,32.478073],[131.672174,32.477606],[131.670886,32.476852],[131.670387,32.477839],[131.670648,32.478924],[131.669949,32.479107],[131.670438,32.480776],[131.66873,32.481473],[131.667707,32.479623],[131.667432,32.47866],[131.666395,32.479057],[131.668931,32.48219],[131.667942,32.483563],[131.666762,32.483695],[131.666058,32.482072],[131.661671,32.482412],[131.661201,32.483508],[131.660007,32.483539],[131.657623,32.480535],[131.658368,32.479684],[131.656674,32.479384],[131.656509,32.475644],[131.656046,32.473299],[131.65734,32.47326],[131.657352,32.47032],[131.659038,32.470137],[131.659758,32.469068],[131.655977,32.46872],[131.654865,32.467774],[131.652491,32.466522],[131.650909,32.462585],[131.650795,32.457671],[131.648236,32.45667],[131.646819,32.457453],[131.643803,32.457527],[131.640743,32.456612],[131.639324,32.458211],[131.63444,32.458467],[131.633246,32.457555],[131.630096,32.45696],[131.628792,32.458574],[131.628829,32.459832],[131.621446,32.464439],[131.620123,32.466479],[131.61358,32.462],[131.613451,32.46107],[131.61146,32.462013],[131.609446,32.461486],[131.602662,32.466696],[131.603667,32.468962],[131.60279,32.471514],[131.597248,32.473186],[131.595803,32.474495],[131.592334,32.474332],[131.589113,32.475903],[131.587951,32.474658],[131.587566,32.47257],[131.58609,32.471663],[131.585644,32.470171],[131.586402,32.469257],[131.585308,32.467091],[131.583345,32.466543],[131.580708,32.467055],[131.577998,32.464955],[131.578549,32.462589],[131.578029,32.461482],[131.578799,32.459437],[131.575913,32.457891],[131.575057,32.456363],[131.573798,32.455717],[131.573246,32.452788],[131.568895,32.450165],[131.569729,32.447599],[131.566913,32.447169],[131.566802,32.445119],[131.564177,32.444085],[131.558126,32.446196],[131.55564,32.445763],[131.553063,32.444336],[131.551458,32.444996],[131.548692,32.444297],[131.543164,32.441994],[131.540307,32.439084],[131.539879,32.437678],[131.53772,32.437145],[131.537005,32.441341],[131.534756,32.444069],[131.532899,32.443433],[131.530018,32.444594],[131.527057,32.443519],[131.524945,32.44394],[131.520413,32.44877],[131.516857,32.449874],[131.5133,32.448426],[131.510903,32.448869],[131.509968,32.452072],[131.506249,32.456229],[131.507849,32.457835],[131.51218,32.459667],[131.510284,32.462866],[131.510437,32.464335],[131.509466,32.465267],[131.509108,32.467725],[131.511154,32.469041],[131.512812,32.472737],[131.512423,32.474696],[131.510489,32.475902],[131.509446,32.477921],[131.50937,32.479195],[131.51078,32.480695],[131.510603,32.483356],[131.509939,32.483994],[131.50999,32.485798],[131.508826,32.485908],[131.508716,32.486523],[131.510661,32.487416],[131.512232,32.486804],[131.51641,32.488789],[131.518269,32.488223],[131.525902,32.490901],[131.526805,32.492319],[131.529665,32.494077],[131.528222,32.497001],[131.525298,32.498496],[131.526221,32.501893],[131.524194,32.505446],[131.523502,32.505505],[131.523362,32.507373],[131.524653,32.508049],[131.524667,32.508917],[131.526281,32.508844],[131.527451,32.511283],[131.528805,32.511635],[131.530653,32.513734],[131.531749,32.515564],[131.531168,32.517802],[131.532666,32.520434],[131.531933,32.521274],[131.532197,32.523214],[131.531156,32.525541],[131.527941,32.530752],[131.52453,32.532747],[131.522728,32.534878],[131.523337,32.536143],[131.525037,32.536784],[131.524832,32.537867],[131.526725,32.540447],[131.528146,32.540442],[131.528903,32.543429],[131.530474,32.543655],[131.535746,32.539731],[131.538817,32.538828],[131.539764,32.53779],[131.544773,32.53802],[131.548662,32.535547],[131.551424,32.537927],[131.554264,32.536439],[131.554689,32.537101],[131.55841,32.537446],[131.559226,32.538293],[131.562867,32.539172],[131.564494,32.540262],[131.564212,32.542942],[131.565932,32.545459],[131.571025,32.544277],[131.574055,32.547803],[131.578508,32.545756],[131.582087,32.546372],[131.584018,32.543236],[131.581368,32.53978],[131.581533,32.536874],[131.582414,32.535724],[131.585043,32.535377],[131.585909,32.533736],[131.588889,32.531574],[131.588793,32.529148],[131.591905,32.525719],[131.59566,32.526435],[131.598465,32.529166],[131.603829,32.531885],[131.604689,32.533541],[131.608386,32.531268],[131.610055,32.531305],[131.611987,32.528911],[131.613517,32.526308],[131.612771,32.525229],[131.613231,32.522959],[131.612479,32.520394],[131.615869,32.516496],[131.618599,32.517674],[131.626963,32.519322],[131.629968,32.522365],[131.633963,32.519712],[131.636104,32.520168],[131.639295,32.518889],[131.642287,32.519419],[131.643842,32.516225],[131.648981,32.515921],[131.65077,32.515053],[131.650138,32.513166],[131.651222,32.511606],[131.656793,32.511651],[131.657631,32.510496],[131.661227,32.509556],[131.664019,32.507685],[131.665847,32.505015],[131.6654,32.501671],[131.668684,32.498995],[131.66856,32.497115],[131.671861,32.498076],[131.675333,32.496961],[131.676383,32.497525],[131.679567,32.495689],[131.680099,32.494852],[131.679724,32.493053],[131.683623,32.489871],[131.689798,32.492616],[131.691157,32.494427],[131.694331,32.495681],[131.699133,32.495842],[131.702016,32.494573],[131.703689,32.495026],[131.703736,32.496138],[131.707646,32.498165],[131.709986,32.49792],[131.710996,32.498624],[131.71568,32.495306],[131.717409,32.495512],[131.72188,32.498261],[131.723404,32.497131],[131.728253,32.496754]]]]}}]}