{"type":"FeatureCollection","features":[{"type":"Feature","properties":{"municipality_code":"46523"},"geometry":{"type":"MultiPolygon","coordinates":[[[[129.274651,28.331992],[129.274295,28.331433],[129.273039,28.332313],[129.273817,28.332714],[129.274651,28.331992]]],[[[129.311478,28.350453],[129.310927,28.350763],[129.311323,28.351418],[129.311478,28.350453]]],[[[129.35268,28.366359],[129.352182,28.365501],[129.352029,28.366331],[129.35268,28.366359]]],[[[129.311478,28.350453],[129.313656,28.348253],[129.31599,28.347875],[129.322463,28.349094],[129.323297,28.350212],[129.3237,28.349577],[129.326456,28.349965],[129.327347,28.351181],[129.327569,28.354686],[129.329366,28.358176],[129.330474,28.358201],[129.336739,28.363374],[129.336883,28.365706],[129.335926,28.366654],[129.336912,28.366783],[129.33682,28.367334],[129.338307,28.366699],[129.338938,28.367341],[129.338515,28.368032],[129.339138,28.368513],[129.340263,28.367914],[129.340445,28.368818],[129.342007,28.368164],[129.345185,28.369594],[129.344966,28.368313],[129.346095,28.368732],[129.346405,28.36797],[129.348248,28.367958],[129.351855,28.364945],[129.350595,28.36272],[129.352533,28.360694],[129.355747,28.359549],[129.356984,28.360274],[129.357385,28.359242],[129.360164,28.359858],[129.358888,28.359003],[129.35813,28.359132],[129.35803,28.357693],[129.360267,28.357812],[129.359944,28.357056],[129.362091,28.356339],[129.362657,28.356854],[129.363207,28.355455],[129.366689,28.354624],[129.370017,28.355606],[129.372931,28.358577],[129.376231,28.363687],[129.375639,28.364474],[129.376002,28.366819],[129.378746,28.365996],[129.379881,28.366392],[129.382295,28.367946],[129.382779,28.369888],[129.383674,28.369167],[129.385181,28.369768],[129.384812,28.371376],[129.386004,28.371605],[129.386719,28.373184],[129.389055,28.373563],[129.389722,28.371983],[129.392314,28.371575],[129.395941,28.368154],[129.396305,28.365721],[129.39853,28.362329],[129.397439,28.359706],[129.398836,28.35935],[129.397859,28.358323],[129.400862,28.358762],[129.398616,28.357287],[129.399853,28.356957],[129.39916,28.356797],[129.399276,28.356117],[129.400218,28.355587],[129.400939,28.355942],[129.404795,28.358744],[129.403484,28.358988],[129.40378,28.360145],[129.405618,28.359823],[129.404915,28.364008],[129.406454,28.363984],[129.407074,28.364739],[129.408868,28.363639],[129.408935,28.362651],[129.409563,28.363837],[129.408731,28.364914],[129.40868,28.36699],[129.405112,28.367985],[129.406535,28.372561],[129.406267,28.373834],[129.40514,28.373958],[129.404311,28.37809],[129.398934,28.38072],[129.397868,28.381856],[129.397863,28.383077],[129.395208,28.384159],[129.394844,28.385073],[129.397617,28.384389],[129.399187,28.383028],[129.399306,28.381899],[129.401433,28.380463],[129.407221,28.379661],[129.411364,28.375556],[129.414809,28.373861],[129.418371,28.373763],[129.422457,28.37189],[129.423332,28.369906],[129.423235,28.365575],[129.426634,28.360896],[129.424626,28.356333],[129.424316,28.352261],[129.426571,28.348542],[129.426323,28.345464],[129.429447,28.342101],[129.429392,28.340982],[129.430515,28.340225],[129.430701,28.339016],[129.432289,28.337914],[129.430655,28.33731],[129.431437,28.335889],[129.431474,28.333211],[129.433004,28.331847],[129.433657,28.328748],[129.434729,28.327304],[129.42654,28.327848],[129.425036,28.328539],[129.421658,28.328144],[129.419396,28.328953],[129.416915,28.326055],[129.414782,28.327265],[129.409338,28.326744],[129.407965,28.324741],[129.40513,28.324249],[129.404253,28.323155],[129.404153,28.320809],[129.405961,28.317688],[129.405594,28.315852],[129.407345,28.31493],[129.405213,28.311481],[129.405599,28.308184],[129.40493,28.30443],[129.403117,28.305956],[129.398953,28.307606],[129.394843,28.303346],[129.391393,28.304308],[129.388884,28.303158],[129.387037,28.303286],[129.383882,28.300498],[129.380504,28.300512],[129.374825,28.297698],[129.37301,28.29564],[129.370165,28.296972],[129.367362,28.295522],[129.36812,28.294264],[129.367209,28.293497],[129.364724,28.294811],[129.363864,28.293649],[129.361385,28.294083],[129.359799,28.292092],[129.360888,28.289976],[129.360615,28.28419],[129.359573,28.284743],[129.353943,28.283253],[129.349802,28.286184],[129.349702,28.287925],[129.348224,28.290544],[129.345324,28.292984],[129.343559,28.293174],[129.342294,28.295314],[129.340216,28.29396],[129.337667,28.295042],[129.336813,28.294254],[129.335184,28.294371],[129.334861,28.295512],[129.331032,28.296352],[129.324405,28.295867],[129.31933,28.296753],[129.317445,28.296103],[129.315324,28.297451],[129.313688,28.300259],[129.311546,28.300956],[129.307651,28.308883],[129.303816,28.310169],[129.297196,28.306175],[129.289661,28.305574],[129.28808,28.304098],[129.284303,28.305403],[129.282904,28.305112],[129.280775,28.306929],[129.27868,28.305871],[129.275539,28.306627],[129.275201,28.307554],[129.274331,28.30718],[129.272929,28.307843],[129.271554,28.306905],[129.270554,28.308182],[129.264058,28.306344],[129.263979,28.308409],[129.262665,28.310045],[129.260029,28.310396],[129.261831,28.313816],[129.26414,28.313864],[129.265543,28.314903],[129.265186,28.317797],[129.262745,28.319797],[129.26045,28.323304],[129.259041,28.323416],[129.258806,28.323867],[129.259761,28.324364],[129.261762,28.323365],[129.264062,28.323924],[129.265158,28.327636],[129.267624,28.326462],[129.273415,28.326986],[129.273177,28.326186],[129.274695,28.325869],[129.277648,28.326613],[129.278105,28.327075],[129.27943,28.327772],[129.280577,28.327162],[129.283017,28.327602],[129.285387,28.329577],[129.285572,28.331975],[129.286528,28.332556],[129.287037,28.331868],[129.287407,28.332461],[129.287668,28.331761],[129.288497,28.331913],[129.287248,28.329182],[129.287987,28.328404],[129.293307,28.327185],[129.294384,28.328111],[129.300654,28.328545],[129.301979,28.329944],[129.305209,28.330164],[129.306528,28.33201],[129.305964,28.334165],[129.307224,28.334178],[129.307624,28.333736],[129.308038,28.332726],[129.310555,28.332924],[129.310631,28.3339],[129.312313,28.334441],[129.312715,28.335294],[129.314416,28.333245],[129.312646,28.335878],[129.313539,28.335829],[129.312967,28.337272],[129.312018,28.33605],[129.312335,28.337295],[129.310048,28.341441],[129.311518,28.341766],[129.311429,28.343739],[129.313026,28.343682],[129.313141,28.344457],[129.312437,28.344732],[129.314606,28.345197],[129.314409,28.346207],[129.312509,28.347981],[129.31067,28.347794],[129.309741,28.348511],[129.310352,28.349038],[129.311231,28.348818],[129.31072,28.349663],[129.311478,28.350453]]]]}}]}