{"type":"FeatureCollection","municipality_code":"01455","pref":"北海道","city":"比布町","display_comment":"比布町には、地域の歴史や暮らしを伝える案内板や石碑があり、それらを手がかりに街歩きを楽しめます。 周辺には寺社や信仰の場にまつわる場所が点在し、「弘誓寺」などを起点に歩くと、地域の歴史がぐっと見えやすくなります。 現地では石碑、地蔵、地域資料館、公民館の由緒板が、地域の歴史を読み解く手がかりになるでしょう。 川沿いや水辺では、その土地の暮らしや水との関わりを伝える歴史案内板が見つかるかもしれません。 「ぴっぷスキー場」や「ゆめぴりか ‐ 発祥の地であり、ふるさと納税でも大人気の品」などの名所も、地域の物語を深掘りする絶好の入口です。","layer_counts":{"cafe_restaurant":15,"public_facilities":11,"cultural_facilities":11,"parks_playgrounds":1},"total_features":38,"features":[{"type":"Feature","properties":{"layer_id":"cafe_restaurant","name":"セイコーマート　比布新町","address":"北海道上川郡比布町新町1番2号","source":"厚生労働省 食品衛生申請等システム（オープンデータ）"},"geometry":{"type":"Point","coordinates":[142.481332,43.865679]}},{"type":"Feature","properties":{"layer_id":"cafe_restaurant","name":"飲み喰い処赤兵衛","address":"北海道上川郡比布町中町２丁目５番３号","source":"厚生労働省 食品衛生申請等システム（オープンデータ）"},"geometry":{"type":"Point","coordinates":[142.47679,43.874652]}},{"type":"Feature","properties":{"layer_id":"cafe_restaurant","name":"(株)荒尾","address":"北海道上川郡比布町中町２丁目５番３号","source":"厚生労働省 食品衛生申請等システム（オープンデータ）"},"geometry":{"type":"Point","coordinates":[142.47679,43.874652]}},{"type":"Feature","properties":{"layer_id":"cafe_restaurant","name":"遊湯ぴっぷ紙風船","address":"北海道上川郡比布町北７線１６号","source":"厚生労働省 食品衛生申請等システム（オープンデータ）"},"geometry":{"type":"Point","coordinates":[142.492007,43.925757]}},{"type":"Feature","properties":{"layer_id":"cafe_restaurant","name":"遊湯ぴっぷ紙風船","address":"北海道上川郡比布町北７線１６号","source":"厚生労働省 食品衛生申請等システム（オープンデータ）"},"geometry":{"type":"Point","coordinates":[142.492007,43.925757]}},{"type":"Feature","properties":{"layer_id":"cafe_restaurant","name":"Calmiss Cafe","address":"北海道上川郡比布町西町３丁目６番６号","source":"厚生労働省 食品衛生申請等システム（オープンデータ）"},"geometry":{"type":"Point","coordinates":[142.47225,43.875501]}},{"type":"Feature","properties":{"layer_id":"cafe_restaurant","name":"セブンイレブン上川比布町店","address":"北海道上川郡比布町基線７号","source":"厚生労働省 食品衛生申請等システム（オープンデータ）"},"geometry":{"type":"Point","coordinates":[142.483627,43.870709]}},{"type":"Feature","properties":{"layer_id":"cafe_restaurant","name":"未知の駅麺どう菜","address":"北海道上川郡比布町中町２丁目４－２１","source":"厚生労働省 食品衛生申請等システム（オープンデータ）"},"geometry":{"type":"Point","coordinates":[142.47663,43.875114]}},{"type":"Feature","properties":{"layer_id":"cafe_restaurant","name":"ピピカフェ","address":"北海道上川郡比布町西町２丁目","source":"厚生労働省 食品衛生申請等システム（オープンデータ）"},"geometry":{"type":"Point","coordinates":[142.473016,43.874293]}},{"type":"Feature","properties":{"layer_id":"cafe_restaurant","name":"比布ほくれいロッジ","address":"北海道上川郡比布町北７線１７号 ほくれいロッジ内","source":"厚生労働省 食品衛生申請等システム（オープンデータ）"},"geometry":{"type":"Point","coordinates":[142.497287,43.932097]}},{"type":"Feature","properties":{"layer_id":"cafe_restaurant","name":"ＰＩＰＩＹＵＫ","address":"北海道上川郡比布町北４線５号","source":"厚生労働省 食品衛生申請等システム（オープンデータ）"},"geometry":{"type":"Point","coordinates":[142.462894,43.877354]}},{"type":"Feature","properties":{"layer_id":"cafe_restaurant","name":"のうりえ食堂","address":"北海道上川郡比布町西町２丁目","source":"厚生労働省 食品衛生申請等システム（オープンデータ）"},"geometry":{"type":"Point","coordinates":[142.473016,43.874293]}},{"type":"Feature","properties":{"layer_id":"cafe_restaurant","name":"NANA PLAZA","address":"北海道上川郡比布町新町４丁目８７８番２６０","source":"厚生労働省 食品衛生申請等システム（オープンデータ）"},"geometry":{"type":"Point","coordinates":[142.4828,43.869494]}},{"type":"Feature","properties":{"layer_id":"cafe_restaurant","name":"珈琲亭そよ風にのってSINCE2008","address":"北海道上川郡比布町中町２丁目１－４１","source":"厚生労働省 食品衛生申請等システム（オープンデータ）"},"geometry":{"type":"Point","coordinates":[142.477513,43.873627]}},{"type":"Feature","properties":{"layer_id":"cafe_restaurant","name":"Bulls Kitchen - 078","address":"北海道上川郡比布町北町１丁目２－２０","source":"厚生労働省 食品衛生申請等システム（オープンデータ）"},"geometry":{"type":"Point","coordinates":[142.477467,43.875508]}},{"type":"Feature","properties":{"layer_id":"public_facilities","name":"多目的室内運動場","address":"比布町北町2-3-3","source":"国土交通省 国土数値情報"},"geometry":{"type":"Point","coordinates":[142.479007,43.87657]}},{"type":"Feature","properties":{"layer_id":"public_facilities","name":"農村環境改善センター","address":"比布町比布町南町3-3-1","source":"国土交通省 国土数値情報"},"geometry":{"type":"Point","coordinates":[142.478632,43.873006]}},{"type":"Feature","properties":{"layer_id":"public_facilities","name":"比布町公民館","address":"比布町北町1-2-2","source":"国土交通省 国土数値情報"},"geometry":{"type":"Point","coordinates":[142.477443,43.875503]}},{"type":"Feature","properties":{"layer_id":"public_facilities","name":"比布町公民館南分館","address":"比布町基線2","source":"国土交通省 国土数値情報"},"geometry":{"type":"Point","coordinates":[142.461271,43.851801]}},{"type":"Feature","properties":{"layer_id":"public_facilities","name":"老人センター","address":"比布町中町1-1-5","source":"国土交通省 国土数値情報"},"geometry":{"type":"Point","coordinates":[142.475847,43.872789]}},{"type":"Feature","properties":{"layer_id":"public_facilities","name":"地域ふれあい館","address":"比布町西町3-7-1","source":"国土交通省 国土数値情報"},"geometry":{"type":"Point","coordinates":[142.471929,43.875554]}},{"type":"Feature","properties":{"layer_id":"public_facilities","name":"比布町役場","address":"比布町比布町北町1-2-1","source":"国土交通省 国土数値情報"},"geometry":{"type":"Point","coordinates":[142.477699,43.875021]}},{"type":"Feature","properties":{"layer_id":"public_facilities","name":"青少年会館","address":"比布町北町2-3-1","source":"国土交通省 国土数値情報"},"geometry":{"type":"Point","coordinates":[142.478316,43.876684]}},{"type":"Feature","properties":{"layer_id":"public_facilities","name":"比布町公民館蘭留分館","address":"比布町北9線14","source":"国土交通省 国土数値情報"},"geometry":{"type":"Point","coordinates":[142.480433,43.925239]}},{"type":"Feature","properties":{"layer_id":"public_facilities","name":"福祉会館","address":"比布町北町1-2-2","source":"国土交通省 国土数値情報"},"geometry":{"type":"Point","coordinates":[142.477443,43.875484]}},{"type":"Feature","properties":{"layer_id":"public_facilities","name":"比布町公民館東園分館","address":"比布町北2線13","source":"国土交通省 国土数値情報"},"geometry":{"type":"Point","coordinates":[142.504303,43.899929]}},{"type":"Feature","properties":{"layer_id":"cultural_facilities","name":"グリーンパークぴっぷ","address":"北7線16","source":"国土交通省 国土数値情報"},"geometry":{"type":"Point","coordinates":[142.493853,43.928157]}},{"type":"Feature","properties":{"layer_id":"cultural_facilities","name":"比布町図書館","address":"北町1-2-3","source":"国土交通省 国土数値情報"},"geometry":{"type":"Point","coordinates":[142.477292,43.875377]}},{"type":"Feature","properties":{"layer_id":"cultural_facilities","name":"グリーンパークぴっぷ","address":"北7線16","source":"国土交通省 国土数値情報"},"geometry":{"type":"Point","coordinates":[142.493704,43.927447]}},{"type":"Feature","properties":{"layer_id":"cultural_facilities","name":"比布町多目的室内運動場（いちごアリーナ）","address":"北町2-3-3","source":"国土交通省 国土数値情報"},"geometry":{"type":"Point","coordinates":[142.479007,43.87657]}},{"type":"Feature","properties":{"layer_id":"cultural_facilities","name":"ぴっぷ球場","address":"南町2-1-1","source":"国土交通省 国土数値情報"},"geometry":{"type":"Point","coordinates":[142.477821,43.871081]}},{"type":"Feature","properties":{"layer_id":"cultural_facilities","name":"グリーンパークぴっぷ","address":"北7線16","source":"国土交通省 国土数値情報"},"geometry":{"type":"Point","coordinates":[142.494168,43.928902]}},{"type":"Feature","properties":{"layer_id":"cultural_facilities","name":"グリーンパークぴっぷ","address":"北7線16","source":"国土交通省 国土数値情報"},"geometry":{"type":"Point","coordinates":[142.494536,43.928739]}},{"type":"Feature","properties":{"layer_id":"cultural_facilities","name":"百年記念公園","address":"南町2-799-1","source":"国土交通省 国土数値情報"},"geometry":{"type":"Point","coordinates":[142.476575,43.871595]}},{"type":"Feature","properties":{"layer_id":"cultural_facilities","name":"百年記念公園","address":"南町2-799-1","source":"国土交通省 国土数値情報"},"geometry":{"type":"Point","coordinates":[142.478388,43.872447]}},{"type":"Feature","properties":{"layer_id":"cultural_facilities","name":"ぴっぷスキー場","address":"北7線17","source":"国土交通省 国土数値情報"},"geometry":{"type":"Point","coordinates":[142.498262,43.935226]}},{"type":"Feature","properties":{"layer_id":"cultural_facilities","name":"比布町体育館","address":"南町3-3-1","source":"国土交通省 国土数値情報"},"geometry":{"type":"Point","coordinates":[142.47862,43.87292]}},{"type":"Feature","properties":{"layer_id":"parks_playgrounds","name":"比布町多目的運動公園","address":"上川郡比布町","source":"国土交通省 国土数値情報"},"geometry":{"type":"Point","coordinates":[142.476715,43.871567]}}]}