{"type":"FeatureCollection","municipality_code":"01604","pref":"北海道","city":"新冠町","display_comment":"新冠町には、地域の歴史や暮らしを伝える案内板や石碑があり、それらを手がかりに街歩きを楽しめます。 周辺には史跡や遺跡、寺社や信仰の場にまつわる場所が点在し、「アッペツチャシ跡」、「大狩部遺跡」、「シベチャリ川流域チャシ跡群」などを起点に歩くと、地域の歴史がぐっと見えやすくなります。 現地では史跡説明板が、地域の歴史を読み解く手がかりになるでしょう。 川沿いや水辺では、その土地の暮らしや水との関わりを伝える歴史案内板が見つかるかもしれません。 ゆかりの人物では田中正太郎や稲葉幸夫に注目すると、地域に残る文化や時代背景をさらに深く知るきっかけになります。 「アイヌ古式舞踊」や「新冠泥火山」などの名所も、地域の物語を深掘りする絶好の入口です。","layer_counts":{"cafe_restaurant":13,"public_facilities":40,"cultural_facilities":11},"total_features":64,"features":[{"type":"Feature","properties":{"layer_id":"cafe_restaurant","name":"有限会社にいかっぷホロシリ乗馬クラブ","address":"北海道新冠郡新冠町西泊津","source":"厚生労働省 食品衛生申請等システム（オープンデータ）"},"geometry":{"type":"Point","coordinates":[142.339052,42.359897]}},{"type":"Feature","properties":{"layer_id":"cafe_restaurant","name":"niikappu sweet marcheみると","address":"北海道新冠郡新冠町中央町","source":"厚生労働省 食品衛生申請等システム（オープンデータ）"},"geometry":{"type":"Point","coordinates":[142.311,42.36371]}},{"type":"Feature","properties":{"layer_id":"cafe_restaurant","name":"Atelier NIKAP","address":"北海道新冠郡新冠町中央町8-3","source":"厚生労働省 食品衛生申請等システム（オープンデータ）"},"geometry":{"type":"Point","coordinates":[142.311467,42.361929]}},{"type":"Feature","properties":{"layer_id":"cafe_restaurant","name":"Tema灯ma:汀","address":"北海道新冠郡新冠町節婦町","source":"厚生労働省 食品衛生申請等システム（オープンデータ）"},"geometry":{"type":"Point","coordinates":[142.289693,42.391711]}},{"type":"Feature","properties":{"layer_id":"cafe_restaurant","name":"焼きとん　ひだか","address":"北海道新冠郡新冠町字節婦町292-1","source":"厚生労働省 食品衛生申請等システム（オープンデータ）"},"geometry":{"type":"Point","coordinates":[142.290166,42.370912]}},{"type":"Feature","properties":{"layer_id":"cafe_restaurant","name":"就労支援事業所Ｂ型cafeゆるり","address":"北海道新冠郡新冠町朝日268-3","source":"厚生労働省 食品衛生申請等システム（オープンデータ）"},"geometry":{"type":"Point","coordinates":[142.366865,42.397786]}},{"type":"Feature","properties":{"layer_id":"cafe_restaurant","name":"認定こども園ド・レ・ミ","address":"北海道新冠郡新冠町東町18-2","source":"厚生労働省 食品衛生申請等システム（オープンデータ）"},"geometry":{"type":"Point","coordinates":[142.318963,42.360934]}},{"type":"Feature","properties":{"layer_id":"cafe_restaurant","name":"惣菜店　紅","address":"北海道新冠郡新冠町本町","source":"厚生労働省 食品衛生申請等システム（オープンデータ）"},"geometry":{"type":"Point","coordinates":[142.316715,42.357022]}},{"type":"Feature","properties":{"layer_id":"cafe_restaurant","name":"らーめん喜一郎","address":"北海道新冠郡新冠町字東町13-33","source":"厚生労働省 食品衛生申請等システム（オープンデータ）"},"geometry":{"type":"Point","coordinates":[142.318092,42.357133]}},{"type":"Feature","properties":{"layer_id":"cafe_restaurant","name":"喜一郎ミート","address":"北海道新冠郡新冠町中央町1-20","source":"厚生労働省 食品衛生申請等システム（オープンデータ）"},"geometry":{"type":"Point","coordinates":[142.316124,42.359679]}},{"type":"Feature","properties":{"layer_id":"cafe_restaurant","name":"株式会社ノードネットワークス","address":"北海道新冠郡新冠町本町","source":"厚生労働省 食品衛生申請等システム（オープンデータ）"},"geometry":{"type":"Point","coordinates":[142.316715,42.357022]}},{"type":"Feature","properties":{"layer_id":"cafe_restaurant","name":"Cloud 9 cafe","address":"北海道新冠郡新冠町中央町","source":"厚生労働省 食品衛生申請等システム（オープンデータ）"},"geometry":{"type":"Point","coordinates":[142.311,42.36371]}},{"type":"Feature","properties":{"layer_id":"cafe_restaurant","name":"中華料理山翔","address":"北海道新冠郡新冠町節婦町","source":"厚生労働省 食品衛生申請等システム（オープンデータ）"},"geometry":{"type":"Point","coordinates":[142.289693,42.391711]}},{"type":"Feature","properties":{"layer_id":"public_facilities","name":"泊津生活館","address":"新冠町字西泊津16-2","source":"国土交通省 国土数値情報"},"geometry":{"type":"Point","coordinates":[142.336755,42.368164]}},{"type":"Feature","properties":{"layer_id":"public_facilities","name":"聴体験文化交流館レ・コード館","address":"新冠町字中央町1-4","source":"国土交通省 国土数値情報"},"geometry":{"type":"Point","coordinates":[142.315134,42.360525]}},{"type":"Feature","properties":{"layer_id":"public_facilities","name":"高江農村環境改善センター","address":"新冠町宇高江295-4","source":"国土交通省 国土数値情報"},"geometry":{"type":"Point","coordinates":[142.317816,42.377684]}},{"type":"Feature","properties":{"layer_id":"public_facilities","name":"新冠町民センター","address":"新冠町字中央町25-6","source":"国土交通省 国土数値情報"},"geometry":{"type":"Point","coordinates":[142.309662,42.364104]}},{"type":"Feature","properties":{"layer_id":"public_facilities","name":"朝日農村環境改善センター","address":"新冠町字朝日166","source":"国土交通省 国土数値情報"},"geometry":{"type":"Point","coordinates":[142.349166,42.390432]}},{"type":"Feature","properties":{"layer_id":"public_facilities","name":"朝日開拓婦人ホーム","address":"新冠町字朝日293-2","source":"国土交通省 国土数値情報"},"geometry":{"type":"Point","coordinates":[142.37575,42.400725]}},{"type":"Feature","properties":{"layer_id":"public_facilities","name":"新栄開拓婦人ホーム","address":"新冠町字新栄97-1","source":"国土交通省 国土数値情報"},"geometry":{"type":"Point","coordinates":[142.432057,42.466982]}},{"type":"Feature","properties":{"layer_id":"public_facilities","name":"大狩部生活館","address":"新冠町字大狩部36-2","source":"国土交通省 国土数値情報"},"geometry":{"type":"Point","coordinates":[142.259754,42.397084]}},{"type":"Feature","properties":{"layer_id":"public_facilities","name":"美宇生活センター","address":"新冠町字美宇299-2","source":"国土交通省 国土数値情報"},"geometry":{"type":"Point","coordinates":[142.350529,42.501335]}},{"type":"Feature","properties":{"layer_id":"public_facilities","name":"東泊津生活改善センター","address":"新冠町字東泊津58-3","source":"国土交通省 国土数値情報"},"geometry":{"type":"Point","coordinates":[142.368083,42.377573]}},{"type":"Feature","properties":{"layer_id":"public_facilities","name":"芽呂生活改善センター","address":"新冠町宇美宇179-9","source":"国土交通省 国土数値情報"},"geometry":{"type":"Point","coordinates":[142.385146,42.50286]}},{"type":"Feature","properties":{"layer_id":"public_facilities","name":"大狩部開拓婦人ホーム","address":"新冠町字大狩部93-3","source":"国土交通省 国土数値情報"},"geometry":{"type":"Point","coordinates":[142.24836,42.409055]}},{"type":"Feature","properties":{"layer_id":"public_facilities","name":"明和生活センター","address":"新冠町字明和154-12","source":"国土交通省 国土数値情報"},"geometry":{"type":"Point","coordinates":[142.414847,42.430443]}},{"type":"Feature","properties":{"layer_id":"public_facilities","name":"新冠老人憩の家","address":"新冠町中央町5-1","source":"国土交通省 国土数値情報"},"geometry":{"type":"Point","coordinates":[142.313206,42.361999]}},{"type":"Feature","properties":{"layer_id":"public_facilities","name":"新栄生活センター","address":"新冠町字新栄162-1","source":"国土交通省 国土数値情報"},"geometry":{"type":"Point","coordinates":[142.427418,42.478869]}},{"type":"Feature","properties":{"layer_id":"public_facilities","name":"節婦生活館","address":"新冠町学節婦町221-12","source":"国土交通省 国土数値情報"},"geometry":{"type":"Point","coordinates":[142.277062,42.3809]}},{"type":"Feature","properties":{"layer_id":"public_facilities","name":"青少年会館","address":"新冠町字節婦町238-2","source":"国土交通省 国土数値情報"},"geometry":{"type":"Point","coordinates":[142.277895,42.380266]}},{"type":"Feature","properties":{"layer_id":"public_facilities","name":"万世生活センター","address":"新冠町字大富161-1","source":"国土交通省 国土数値情報"},"geometry":{"type":"Point","coordinates":[142.399352,42.400692]}},{"type":"Feature","properties":{"layer_id":"public_facilities","name":"町民センター","address":"新冠町中央町25","source":"国土交通省 国土数値情報"},"geometry":{"type":"Point","coordinates":[142.309612,42.364111]}},{"type":"Feature","properties":{"layer_id":"public_facilities","name":"若園生活館","address":"新冠町字若園62-3","source":"国土交通省 国土数値情報"},"geometry":{"type":"Point","coordinates":[142.426932,42.483744]}},{"type":"Feature","properties":{"layer_id":"public_facilities","name":"泉生活館","address":"新冠町字泉34-1","source":"国土交通省 国土数値情報"},"geometry":{"type":"Point","coordinates":[142.437029,42.487617]}},{"type":"Feature","properties":{"layer_id":"public_facilities","name":"新冠町民福祉会館","address":"新冠町字本町19-1","source":"国土交通省 国土数値情報"},"geometry":{"type":"Point","coordinates":[142.309802,42.360825]}},{"type":"Feature","properties":{"layer_id":"public_facilities","name":"里平生活センター","address":"新冠町字里平20-3","source":"国土交通省 国土数値情報"},"geometry":{"type":"Point","coordinates":[142.398645,42.554449]}},{"type":"Feature","properties":{"layer_id":"public_facilities","name":"本町多目的交流センター","address":"新冠町字本町44","source":"国土交通省 国土数値情報"},"geometry":{"type":"Point","coordinates":[142.31124,42.360093]}},{"type":"Feature","properties":{"layer_id":"public_facilities","name":"スポーツセンター","address":"新冠町中央町25","source":"国土交通省 国土数値情報"},"geometry":{"type":"Point","coordinates":[142.310163,42.363941]}},{"type":"Feature","properties":{"layer_id":"public_facilities","name":"日高判官館青年の家","address":"新冠町字高江16-2","source":"国土交通省 国土数値情報"},"geometry":{"type":"Point","coordinates":[142.305366,42.365122]}},{"type":"Feature","properties":{"layer_id":"public_facilities","name":"太陽開拓婦人ホーム","address":"新冠町字太陽204-16","source":"国土交通省 国土数値情報"},"geometry":{"type":"Point","coordinates":[142.412894,42.526252]}},{"type":"Feature","properties":{"layer_id":"public_facilities","name":"共栄生活館","address":"新冠町字共栄319-4","source":"国土交通省 国土数値情報"},"geometry":{"type":"Point","coordinates":[142.295427,42.452963]}},{"type":"Feature","properties":{"layer_id":"public_facilities","name":"新冠町役場","address":"新冠町字北星町3-2","source":"国土交通省 国土数値情報"},"geometry":{"type":"Point","coordinates":[142.318315,42.362417]}},{"type":"Feature","properties":{"layer_id":"public_facilities","name":"新栄開婦人ホーム","address":"新冠町字新栄97-1","source":"国土交通省 国土数値情報"},"geometry":{"type":"Point","coordinates":[142.432056,42.466981]}},{"type":"Feature","properties":{"layer_id":"public_facilities","name":"古岸生活館","address":"新冠町字古岸105-3","source":"国土交通省 国土数値情報"},"geometry":{"type":"Point","coordinates":[142.404022,42.426935]}},{"type":"Feature","properties":{"layer_id":"public_facilities","name":"氷川生活センター","address":"新冠町字本町76-3","source":"国土交通省 国土数値情報"},"geometry":{"type":"Point","coordinates":[142.316363,42.357498]}},{"type":"Feature","properties":{"layer_id":"public_facilities","name":"東川生活センター","address":"新冠町字東川77-2","source":"国土交通省 国土数値情報"},"geometry":{"type":"Point","coordinates":[142.308839,42.469094]}},{"type":"Feature","properties":{"layer_id":"public_facilities","name":"新和生活館","address":"新冠町字新和143-3","source":"国土交通省 国土数値情報"},"geometry":{"type":"Point","coordinates":[142.334534,42.542764]}},{"type":"Feature","properties":{"layer_id":"public_facilities","name":"節婦老人憩の家","address":"新冠町節婦町117-1","source":"国土交通省 国土数値情報"},"geometry":{"type":"Point","coordinates":[142.276071,42.38288]}},{"type":"Feature","properties":{"layer_id":"public_facilities","name":"大狩部生活館センター","address":"新冠町学大狩部75-8","source":"国土交通省 国土数値情報"},"geometry":{"type":"Point","coordinates":[142.317924,42.362575]}},{"type":"Feature","properties":{"layer_id":"public_facilities","name":"緑丘生活センター","address":"新冠町学緑丘12-10","source":"国土交通省 国土数値情報"},"geometry":{"type":"Point","coordinates":[142.390999,42.407672]}},{"type":"Feature","properties":{"layer_id":"public_facilities","name":"東町生活館","address":"新冠町字東町13-9","source":"国土交通省 国土数値情報"},"geometry":{"type":"Point","coordinates":[142.319057,42.358942]}},{"type":"Feature","properties":{"layer_id":"public_facilities","name":"北星生活館","address":"新冠町北星町16-6","source":"国土交通省 国土数値情報"},"geometry":{"type":"Point","coordinates":[142.314968,42.365444]}},{"type":"Feature","properties":{"layer_id":"public_facilities","name":"大富生活館","address":"新冠町字大富75-2","source":"国土交通省 国土数値情報"},"geometry":{"type":"Point","coordinates":[142.375118,42.388852]}},{"type":"Feature","properties":{"layer_id":"cultural_facilities","name":"新冠町郷土資料館","address":"字中央町26","source":"国土交通省 国土数値情報"},"geometry":{"type":"Point","coordinates":[142.310144,42.36487]}},{"type":"Feature","properties":{"layer_id":"cultural_facilities","name":"新冠町レ・コード館図書プラザ","address":"中央町1-4（新冠町レ･コード館内）","source":"国土交通省 国土数値情報"},"geometry":{"type":"Point","coordinates":[142.315452,42.360431]}},{"type":"Feature","properties":{"layer_id":"cultural_facilities","name":"新冠町民スポーツセンター","address":"字中央町25-6","source":"国土交通省 国土数値情報"},"geometry":{"type":"Point","coordinates":[142.310224,42.364085]}},{"type":"Feature","properties":{"layer_id":"cultural_facilities","name":"日高判官館青年の家","address":"字高江16-2","source":"国土交通省 国土数値情報"},"geometry":{"type":"Point","coordinates":[142.305188,42.364604]}},{"type":"Feature","properties":{"layer_id":"cultural_facilities","name":"判官館森林公園","address":"字高江49","source":"国土交通省 国土数値情報"},"geometry":{"type":"Point","coordinates":[142.301101,42.371036]}},{"type":"Feature","properties":{"layer_id":"cultural_facilities","name":"新冠町民グランド","address":"字中央町20-7","source":"国土交通省 国土数値情報"},"geometry":{"type":"Point","coordinates":[142.3114,42.363524]}},{"type":"Feature","properties":{"layer_id":"cultural_facilities","name":"新冠町民スポーツセンター","address":"字中央町25-6","source":"国土交通省 国土数値情報"},"geometry":{"type":"Point","coordinates":[142.3102,42.363865]}},{"type":"Feature","properties":{"layer_id":"cultural_facilities","name":"にいかっぷホロシリ乗馬クラブ","address":"節婦町71-11","source":"国土交通省 国土数値情報"},"geometry":{"type":"Point","coordinates":[142.2874,42.376898]}},{"type":"Feature","properties":{"layer_id":"cultural_facilities","name":"判官館森林公園","address":"字高江49","source":"国土交通省 国土数値情報"},"geometry":{"type":"Point","coordinates":[142.304274,42.370779]}},{"type":"Feature","properties":{"layer_id":"cultural_facilities","name":"判官館森林公園","address":"字高江49","source":"国土交通省 国土数値情報"},"geometry":{"type":"Point","coordinates":[142.302848,42.368819]}},{"type":"Feature","properties":{"layer_id":"cultural_facilities","name":"新冠町民スポーツセンター","address":"字中央町25-6","source":"国土交通省 国土数値情報"},"geometry":{"type":"Point","coordinates":[142.310212,42.363979]}}]}