{"type":"FeatureCollection","municipality_code":"02411","pref":"青森県","city":"六ヶ所村","display_comment":"六ヶ所村には、倉内村、平沼村、鷹架村など、近世の村々の記憶を伝える地名が残っています。 周辺には史跡や遺跡にまつわる場所が点在し、「千歳遺跡」、「新納屋遺跡」などを起点に歩くと、地域の歴史がぐっと見えやすくなります。 現地では史跡説明板に加え、倉内村や平沼村にゆかりのある旧境石標、村の歴史を紹介する案内板にも注目してみてください。 川沿いや水辺では、その土地の暮らしや水との関わりを伝える歴史案内板が見つかるかもしれません。 「物見崎灯台〔泊字焼山〕」や「タタミ岩〔泊字焼山〕」などの名所も、地域の物語を深掘りする絶好の入口です。","layer_counts":{"cafe_restaurant":18,"public_facilities":30,"cultural_facilities":11,"parks_playgrounds":7,"tourism_resources":5},"total_features":71,"features":[{"type":"Feature","properties":{"layer_id":"cafe_restaurant","name":"魚国総本社・上北21402","category":"food","address":"青森県上北郡六ヶ所村大字尾駮字野附５０４－２２","source":"厚生労働省 食品衛生申請等システム（オープンデータ）","municipality_code":"02411","municipality_pref":"青森県","municipality_name":"六ヶ所村","municipality_code_method":"food_exact_coord"},"geometry":{"type":"Point","coordinates":[141.353397,40.97842]}},{"type":"Feature","properties":{"layer_id":"cafe_restaurant","name":"魚国総本社・上北21403","category":"food","address":"青森県上北郡六ヶ所村大字尾駮字野附１－１０","source":"厚生労働省 食品衛生申請等システム（オープンデータ）","municipality_code":"02411","municipality_pref":"青森県","municipality_name":"六ヶ所村","municipality_code_method":"food_exact_coord"},"geometry":{"type":"Point","coordinates":[141.366895,40.962955]}},{"type":"Feature","properties":{"layer_id":"cafe_restaurant","name":"魚国総本社・上北21404","category":"food","address":"青森県上北郡六ヶ所村大字尾駮字野附1-6","source":"厚生労働省 食品衛生申請等システム（オープンデータ）","municipality_code":"02411","municipality_pref":"青森県","municipality_name":"六ヶ所村","municipality_code_method":"food_exact_coord"},"geometry":{"type":"Point","coordinates":[141.361897,40.967862]}},{"type":"Feature","properties":{"layer_id":"cafe_restaurant","name":"工房プエンテ","category":"food","address":"青森県上北郡六ヶ所村大字出戸字棚沢１３０－２３","source":"厚生労働省 食品衛生申請等システム（オープンデータ）","municipality_code":"02411","municipality_pref":"青森県","municipality_name":"六ヶ所村","municipality_code_method":"food_exact_coord"},"geometry":{"type":"Point","coordinates":[141.367472,41.005469]}},{"type":"Feature","properties":{"layer_id":"cafe_restaurant","name":"福岡商店","category":"food","address":"青森県上北郡六ヶ所村鷹架","source":"厚生労働省 食品衛生申請等システム（オープンデータ）","municipality_code":"02411","municipality_pref":"青森県","municipality_name":"六ヶ所村","municipality_code_method":"food_exact_coord"},"geometry":{"type":"Point","coordinates":[141.341334,40.924839]}},{"type":"Feature","properties":{"layer_id":"cafe_restaurant","name":"食べ処　六旬亭","category":"food","address":"青森県上北郡六ヶ所村大字鷹架字道ノ下５６１ー６","source":"厚生労働省 食品衛生申請等システム（オープンデータ）","municipality_code":"02411","municipality_pref":"青森県","municipality_name":"六ヶ所村","municipality_code_method":"food_exact_coord"},"geometry":{"type":"Point","coordinates":[141.339823,40.919257]}},{"type":"Feature","properties":{"layer_id":"cafe_restaurant","name":"ファミリーマート六ケ所泊店","category":"food","address":"青森県上北郡六ヶ所村大字泊字川原７５－３４１","source":"厚生労働省 食品衛生申請等システム（オープンデータ）","municipality_code":"02411","municipality_pref":"青森県","municipality_name":"六ヶ所村","municipality_code_method":"food_exact_coord"},"geometry":{"type":"Point","coordinates":[141.386942,41.085899]}},{"type":"Feature","properties":{"layer_id":"cafe_restaurant","name":"富士電機MOX工事宿舎　青雲給食㈱","category":"food","address":"青森県上北郡六ヶ所村大字尾駮字弥栄平115-29","source":"厚生労働省 食品衛生申請等システム（オープンデータ）","municipality_code":"02411","municipality_pref":"青森県","municipality_name":"六ヶ所村","municipality_code_method":"food_exact_coord"},"geometry":{"type":"Point","coordinates":[141.308511,40.963808]}},{"type":"Feature","properties":{"layer_id":"cafe_restaurant","name":"六ケ所村給食センター・三八五フーズ株式会社","category":"food","address":"青森県上北郡六ヶ所村大字尾駮字野附1322-2","source":"厚生労働省 食品衛生申請等システム（オープンデータ）","municipality_code":"02411","municipality_pref":"青森県","municipality_name":"六ヶ所村","municipality_code_method":"food_exact_coord"},"geometry":{"type":"Point","coordinates":[141.359935,40.972179]}},{"type":"Feature","properties":{"layer_id":"cafe_restaurant","name":"むつ小川原国家石油備蓄基地研修所　社員食堂","category":"food","address":"青森県上北郡六ヶ所村大字平沼字二階坂220-1","source":"厚生労働省 食品衛生申請等システム（オープンデータ）","municipality_code":"02411","municipality_pref":"青森県","municipality_name":"六ヶ所村","municipality_code_method":"food_exact_coord"},"geometry":{"type":"Point","coordinates":[141.357278,40.871035]}},{"type":"Feature","properties":{"layer_id":"cafe_restaurant","name":"むつ小川原石油備蓄株式会社　社員食堂","category":"food","address":"青森県上北郡六ヶ所村大字尾駮字二又525-2","source":"厚生労働省 食品衛生申請等システム（オープンデータ）","municipality_code":"02411","municipality_pref":"青森県","municipality_name":"六ヶ所村","municipality_code_method":"food_exact_coord"},"geometry":{"type":"Point","coordinates":[141.280856,40.969862]}},{"type":"Feature","properties":{"layer_id":"cafe_restaurant","name":"能登商店","category":"food","address":"青森県上北郡六ヶ所村泊川原159-24","source":"厚生労働省 食品衛生申請等システム（オープンデータ）","municipality_code":"02411","municipality_pref":"青森県","municipality_name":"六ヶ所村","municipality_code_method":"food_exact_coord"},"geometry":{"type":"Point","coordinates":[141.39229,41.088173]}},{"type":"Feature","properties":{"layer_id":"cafe_restaurant","name":"もみじ荘","category":"food","address":"青森県上北郡六ヶ所村尾駮字弥栄平115","source":"厚生労働省 食品衛生申請等システム（オープンデータ）","municipality_code":"02411","municipality_pref":"青森県","municipality_name":"六ヶ所村","municipality_code_method":"food_exact_coord"},"geometry":{"type":"Point","coordinates":[141.308473,40.963831]}},{"type":"Feature","properties":{"layer_id":"cafe_restaurant","name":"さつき食堂","category":"food","address":"青森県上北郡六ヶ所村大字尾駮字野附１－６８ ショッピングモールREEV内　さつき","source":"厚生労働省 食品衛生申請等システム（オープンデータ）","municipality_code":"02411","municipality_pref":"青森県","municipality_name":"六ヶ所村","municipality_code_method":"food_exact_coord"},"geometry":{"type":"Point","coordinates":[141.363059,40.965423]}},{"type":"Feature","properties":{"layer_id":"cafe_restaurant","name":"ローソン六ケ所レイクタウン店","category":"food","address":"青森県上北郡六ヶ所村尾駮字家の前1-41","source":"厚生労働省 食品衛生申請等システム（オープンデータ）","municipality_code":"02411","municipality_pref":"青森県","municipality_name":"六ヶ所村","municipality_code_method":"food_exact_coord"},"geometry":{"type":"Point","coordinates":[141.374991,40.968684]}},{"type":"Feature","properties":{"layer_id":"cafe_restaurant","name":"ローソン六ケ所平沼店","category":"food","address":"青森県上北郡六ヶ所村平沼字二階坂98-1","source":"厚生労働省 食品衛生申請等システム（オープンデータ）","municipality_code":"02411","municipality_pref":"青森県","municipality_name":"六ヶ所村","municipality_code_method":"food_exact_coord"},"geometry":{"type":"Point","coordinates":[141.356189,40.867563]}},{"type":"Feature","properties":{"layer_id":"cafe_restaurant","name":"コーヒー＆グリルあぶにーる","category":"food","address":"青森県上北郡六ヶ所村大字尾駮字上尾駮２－４２","source":"厚生労働省 食品衛生申請等システム（オープンデータ）","municipality_code":"02411","municipality_pref":"青森県","municipality_name":"六ヶ所村","municipality_code_method":"food_exact_coord"},"geometry":{"type":"Point","coordinates":[141.334593,40.979272]}},{"type":"Feature","properties":{"layer_id":"cafe_restaurant","name":"鹿島建設株式会社 職員宿舎共用棟","category":"food","address":"青森県上北郡六ヶ所村大字尾駮字弥栄115-13","source":"厚生労働省 食品衛生申請等システム（オープンデータ）","municipality_code":"02411","municipality_pref":"青森県","municipality_name":"六ヶ所村","municipality_code_method":"food_exact_coord"},"geometry":{"type":"Point","coordinates":[141.304748,40.960406]}},{"type":"Feature","properties":{"layer_id":"public_facilities","name":"富ノ沢集会所","category":"public","address":"六ヶ所村尾駮字上尾駮356-2","source":"国土交通省 国土数値情報","municipality_code":"02411","municipality_pref":"青森県","municipality_name":"六ヶ所村","municipality_code_method":"source_exact_coord"},"geometry":{"type":"Point","coordinates":[141.32800594518952,40.984548957577616]}},{"type":"Feature","properties":{"layer_id":"public_facilities","name":"泊支所","category":"public","address":"六ヶ所村大字泊字川原159-17","source":"国土交通省 国土数値情報","municipality_code":"02411","municipality_pref":"青森県","municipality_name":"六ヶ所村","municipality_code_method":"source_exact_coord"},"geometry":{"type":"Point","coordinates":[141.3914267858644,41.08826428269292]}},{"type":"Feature","properties":{"layer_id":"public_facilities","name":"文化交流プラザ","category":"public","address":"六ヶ所村大字尾駮字野附18","source":"国土交通省 国土数値情報","municipality_code":"02411","municipality_pref":"青森県","municipality_name":"六ヶ所村","municipality_code_method":"source_exact_coord"},"geometry":{"type":"Point","coordinates":[141.36382267811572,40.96475106182775]}},{"type":"Feature","properties":{"layer_id":"public_facilities","name":"千樽集会所","category":"public","address":"六ヶ所村鷹架字千樽108","source":"国土交通省 国土数値情報","municipality_code":"02411","municipality_pref":"青森県","municipality_name":"六ヶ所村","municipality_code_method":"source_exact_coord"},"geometry":{"type":"Point","coordinates":[141.26199004090302,40.93365689322883]}},{"type":"Feature","properties":{"layer_id":"public_facilities","name":"豊原集会所","category":"public","address":"六ヶ所村倉内字笹崎1524","source":"国土交通省 国土数値情報","municipality_code":"02411","municipality_pref":"青森県","municipality_name":"六ヶ所村","municipality_code_method":"source_exact_coord"},"geometry":{"type":"Point","coordinates":[141.26917010980864,40.913803832958834]}},{"type":"Feature","properties":{"layer_id":"public_facilities","name":"千歳平地区体育館","category":"public","address":"六ヶ所村大字倉内字笹崎2891","source":"国土交通省 国土数値情報","municipality_code":"02411","municipality_pref":"青森県","municipality_name":"六ヶ所村","municipality_code_method":"source_exact_coord"},"geometry":{"type":"Point","coordinates":[141.2846801677904,40.888006769289085]}},{"type":"Feature","properties":{"layer_id":"public_facilities","name":"老人福祉センター","category":"public","address":"六ヶ所村平沼字二階坂92-7","source":"国土交通省 国土数値情報","municipality_code":"02411","municipality_pref":"青森県","municipality_name":"六ヶ所村","municipality_code_method":"source_exact_coord"},"geometry":{"type":"Point","coordinates":[141.358998145685,40.87256872886582]}},{"type":"Feature","properties":{"layer_id":"public_facilities","name":"千歳集会所","category":"public","address":"六ヶ所村倉内字笹崎880-1","source":"国土交通省 国土数値情報","municipality_code":"02411","municipality_pref":"青森県","municipality_name":"六ヶ所村","municipality_code_method":"source_exact_coord"},"geometry":{"type":"Point","coordinates":[141.27207817197947,40.89066978829111]}},{"type":"Feature","properties":{"layer_id":"public_facilities","name":"中央公民館","category":"public","address":"六ヶ所村大字尾駮字野附4782","source":"国土交通省 国土数値情報","municipality_code":"02411","municipality_pref":"青森県","municipality_name":"六ヶ所村","municipality_code_method":"source_exact_coord"},"geometry":{"type":"Point","coordinates":[141.37277497565418,40.966193961390154]}},{"type":"Feature","properties":{"layer_id":"public_facilities","name":"地域交流ホーム","category":"public","address":"六ヶ所村大字出戸字棚沢13017","source":"国土交通省 国土数値情報","municipality_code":"02411","municipality_pref":"青森県","municipality_name":"六ヶ所村","municipality_code_method":"source_exact_coord"},"geometry":{"type":"Point","coordinates":[141.36855720903918,41.00509873333054]}},{"type":"Feature","properties":{"layer_id":"public_facilities","name":"泊集会所","category":"public","address":"六ヶ所村泊字村ノ内37","source":"国土交通省 国土数値情報","municipality_code":"02411","municipality_pref":"青森県","municipality_name":"六ヶ所村","municipality_code_method":"source_exact_coord"},"geometry":{"type":"Point","coordinates":[141.3958227789486,41.09269630285109]}},{"type":"Feature","properties":{"layer_id":"public_facilities","name":"端集会所","category":"public","address":"六ヶ所村倉内字芋ヶ崎893","source":"国土交通省 国土数値情報","municipality_code":"02411","municipality_pref":"青森県","municipality_name":"六ヶ所村","municipality_code_method":"source_exact_coord"},"geometry":{"type":"Point","coordinates":[141.31328417538825,40.87597672779747]}},{"type":"Feature","properties":{"layer_id":"public_facilities","name":"平沼支所","category":"public","address":"六ヶ所村大字平沼字二階坂26-1","source":"国土交通省 国土数値情報","municipality_code":"02411","municipality_pref":"青森県","municipality_name":"六ヶ所村","municipality_code_method":"source_exact_coord"},"geometry":{"type":"Point","coordinates":[141.36679713957994,40.87487473180896]}},{"type":"Feature","properties":{"layer_id":"public_facilities","name":"室ノ久保地区学習等供用センター","category":"public","address":"六ヶ所村大字尾駮字川向3012","source":"国土交通省 国土数値情報","municipality_code":"02411","municipality_pref":"青森県","municipality_name":"六ヶ所村","municipality_code_method":"source_exact_coord"},"geometry":{"type":"Point","coordinates":[141.2907823275996,40.94282246753787]}},{"type":"Feature","properties":{"layer_id":"public_facilities","name":"尾駮浜集会所","category":"public","address":"六ヶ所村尾駮字野附1024","source":"国土交通省 国土数値情報","municipality_code":"02411","municipality_pref":"青森県","municipality_name":"六ヶ所村","municipality_code_method":"source_exact_coord"},"geometry":{"type":"Point","coordinates":[141.37296196965852,40.96917496907795]}},{"type":"Feature","properties":{"layer_id":"public_facilities","name":"笹崎集会所","category":"public","address":"六ヶ所村倉内字笹崎842-1","source":"国土交通省 国土数値情報","municipality_code":"02411","municipality_pref":"青森県","municipality_name":"六ヶ所村","municipality_code_method":"source_exact_coord"},"geometry":{"type":"Point","coordinates":[141.3119511747519,40.89099371045436]}},{"type":"Feature","properties":{"layer_id":"public_facilities","name":"六ヶ所村役場","category":"public","address":"六ヶ所村大字尾駮字野附475","source":"国土交通省 国土数値情報","municipality_code":"02411","municipality_pref":"青森県","municipality_name":"六ヶ所村","municipality_code_method":"source_exact_coord"},"geometry":{"type":"Point","coordinates":[141.37443697346825,40.96737096346037]}},{"type":"Feature","properties":{"layer_id":"public_facilities","name":"酪農会館","category":"public","address":"六ヶ所村倉内字笹崎868","source":"国土交通省 国土数値情報","municipality_code":"02411","municipality_pref":"青森県","municipality_name":"六ヶ所村","municipality_code_method":"source_exact_coord"},"geometry":{"type":"Point","coordinates":[141.26865418597916,40.8860117865582]}},{"type":"Feature","properties":{"layer_id":"public_facilities","name":"二又集会所","category":"public","address":"六ヶ所村六ヶ所村尾駮二又117-2","source":"国土交通省 国土数値情報","municipality_code":"02411","municipality_pref":"青森県","municipality_name":"六ヶ所村","municipality_code_method":"source_exact_coord"},"geometry":{"type":"Point","coordinates":[141.3060299776515,40.9878096389057]}},{"type":"Feature","properties":{"layer_id":"public_facilities","name":"平沼集会所","category":"public","address":"六ヶ所村平沼字道ノ上10-2","source":"国土交通省 国土数値情報","municipality_code":"02411","municipality_pref":"青森県","municipality_name":"六ヶ所村","municipality_code_method":"source_exact_coord"},"geometry":{"type":"Point","coordinates":[141.37016113707406,40.87745773167197]}},{"type":"Feature","properties":{"layer_id":"public_facilities","name":"泊地区ふれあいセンター","category":"public","address":"六ヶ所村大字泊字川原661","source":"国土交通省 国土数値情報","municipality_code":"02411","municipality_pref":"青森県","municipality_name":"六ヶ所村","municipality_code_method":"source_exact_coord"},"geometry":{"type":"Point","coordinates":[141.38040482113567,41.06555219417699]}},{"type":"Feature","properties":{"layer_id":"public_facilities","name":"倉内地区集会所","category":"public","address":"六ヶ所村倉内字道ノ下24","source":"国土交通省 国土数値情報","municipality_code":"02411","municipality_pref":"青森県","municipality_name":"六ヶ所村","municipality_code_method":"source_exact_coord"},"geometry":{"type":"Point","coordinates":[141.3630181167862,40.84714479309947]}},{"type":"Feature","properties":{"layer_id":"public_facilities","name":"老部川集会所","category":"public","address":"六ヶ所村尾駮字猿子沢2-145","source":"国土交通省 国土数値情報","municipality_code":"02411","municipality_pref":"青森県","municipality_name":"六ヶ所村","municipality_code_method":"source_exact_coord"},"geometry":{"type":"Point","coordinates":[141.37076194345335,40.98243599653054]}},{"type":"Feature","properties":{"layer_id":"public_facilities","name":"総合体育館","category":"public","address":"六ヶ所村尾駮字野附521-1","source":"国土交通省 国土数値情報","municipality_code":"02411","municipality_pref":"青森県","municipality_name":"六ヶ所村","municipality_code_method":"source_exact_coord"},"geometry":{"type":"Point","coordinates":[141.3379989523347,40.98071795936206]}},{"type":"Feature","properties":{"layer_id":"public_facilities","name":"出戸集会所","category":"public","address":"六ヶ所村出戸字前田81-17","source":"国土交通省 国土数値情報","municipality_code":"02411","municipality_pref":"青森県","municipality_name":"六ヶ所村","municipality_code_method":"source_exact_coord"},"geometry":{"type":"Point","coordinates":[141.37832089963018,41.010690051377736]}},{"type":"Feature","properties":{"layer_id":"public_facilities","name":"六原集会所","category":"public","address":"六ヶ所村倉内字芋ヶ崎785-1","source":"国土交通省 国土数値情報","municipality_code":"02411","municipality_pref":"青森県","municipality_name":"六ヶ所村","municipality_code_method":"source_exact_coord"},"geometry":{"type":"Point","coordinates":[141.31859517618997,40.87644571907402]}},{"type":"Feature","properties":{"layer_id":"public_facilities","name":"千歳平地区公民館","category":"public","address":"六ヶ所村大字倉内字笹崎2895","source":"国土交通省 国土数値情報","municipality_code":"02411","municipality_pref":"青森県","municipality_name":"六ヶ所村","municipality_code_method":"source_exact_coord"},"geometry":{"type":"Point","coordinates":[141.28422816728926,40.88853077017027]}},{"type":"Feature","properties":{"layer_id":"public_facilities","name":"睦栄集会所","category":"public","address":"六ヶ所村倉内字笹崎1762-2","source":"国土交通省 国土数値情報","municipality_code":"02411","municipality_pref":"青森県","municipality_name":"六ヶ所村","municipality_code_method":"source_exact_coord"},"geometry":{"type":"Point","coordinates":[141.27186813653663,40.90436480904909]}},{"type":"Feature","properties":{"layer_id":"public_facilities","name":"中志地区集会所","category":"public","address":"六ヶ所村倉内字家ノ上117-4","source":"国土交通省 国土数値情報","municipality_code":"02411","municipality_pref":"青森県","municipality_name":"六ヶ所村","municipality_code_method":"source_exact_coord"},"geometry":{"type":"Point","coordinates":[141.3112531687935,40.84726078715374]}},{"type":"Feature","properties":{"layer_id":"public_facilities","name":"新城平集会所","category":"public","address":"六ヶ所村倉内字切揚場106-1","source":"国土交通省 国土数値情報","municipality_code":"02411","municipality_pref":"青森県","municipality_name":"六ヶ所村","municipality_code_method":"source_exact_coord"},"geometry":{"type":"Point","coordinates":[141.3357591672196,40.87166871860771]}},{"type":"Feature","properties":{"layer_id":"cultural_facilities","name":"大石総合運動公園本球場","category":"public","address":"大字尾駮字野附521-1","source":"国土交通省 国土数値情報","municipality_code":"02411","municipality_pref":"青森県","municipality_name":"六ヶ所村","municipality_code_method":"nearest_centroid"},"geometry":{"type":"Point","coordinates":[141.341652441,40.9797101333]}},{"type":"Feature","properties":{"layer_id":"cultural_facilities","name":"大石総合運動公園六ヶ所村立総合体育館（トレーニング室）","category":"public","address":"大字尾駮字野附521-1","source":"国土交通省 国土数値情報","municipality_code":"02411","municipality_pref":"青森県","municipality_name":"六ヶ所村","municipality_code_method":"nearest_centroid"},"geometry":{"type":"Point","coordinates":[141.338165328,40.9805915008]}},{"type":"Feature","properties":{"layer_id":"cultural_facilities","name":"大石総合運動公園水泳プール②","category":"public","address":"大字尾駮字野附521-1","source":"国土交通省 国土数値情報","municipality_code":"02411","municipality_pref":"青森県","municipality_name":"六ヶ所村","municipality_code_method":"nearest_centroid"},"geometry":{"type":"Point","coordinates":[141.339726017,40.9813123006]}},{"type":"Feature","properties":{"layer_id":"cultural_facilities","name":"六ケ所村立郷土館","category":"public","address":"大字尾駮字野附535","source":"国土交通省 国土数値情報","municipality_code":"02411","municipality_pref":"青森県","municipality_name":"六ヶ所村","municipality_code_method":"nearest_centroid"},"geometry":{"type":"Point","coordinates":[141.340032,40.980166]}},{"type":"Feature","properties":{"layer_id":"cultural_facilities","name":"大石総合運動公園六ヶ所村立総合体育館","category":"public","address":"大字尾駮字野附521-1","source":"国土交通省 国土数値情報","municipality_code":"02411","municipality_pref":"青森県","municipality_name":"六ヶ所村","municipality_code_method":"nearest_centroid"},"geometry":{"type":"Point","coordinates":[141.338192409,40.980790473]}},{"type":"Feature","properties":{"layer_id":"cultural_facilities","name":"大石総合運動公園多目的広場","category":"public","address":"大字尾駮字野附521-1","source":"国土交通省 国土数値情報","municipality_code":"02411","municipality_pref":"青森県","municipality_name":"六ヶ所村","municipality_code_method":"nearest_centroid"},"geometry":{"type":"Point","coordinates":[141.336095901,40.9810700433]}},{"type":"Feature","properties":{"layer_id":"cultural_facilities","name":"大石総合運動公園陸上競技場","category":"public","address":"大字尾駮字野附521-1","source":"国土交通省 国土数値情報","municipality_code":"02411","municipality_pref":"青森県","municipality_name":"六ヶ所村","municipality_code_method":"nearest_centroid"},"geometry":{"type":"Point","coordinates":[141.338238109,40.9821816349]}},{"type":"Feature","properties":{"layer_id":"cultural_facilities","name":"大石総合運動公園テニスコート","category":"public","address":"大字尾駮字野附521-1","source":"国土交通省 国土数値情報","municipality_code":"02411","municipality_pref":"青森県","municipality_name":"六ヶ所村","municipality_code_method":"nearest_centroid"},"geometry":{"type":"Point","coordinates":[141.335254217,40.9820825856]}},{"type":"Feature","properties":{"layer_id":"cultural_facilities","name":"大石総合運動公園第3球場","category":"public","address":"大字尾駮字野附521-1","source":"国土交通省 国土数値情報","municipality_code":"02411","municipality_pref":"青森県","municipality_name":"六ヶ所村","municipality_code_method":"nearest_centroid"},"geometry":{"type":"Point","coordinates":[141.33554751,40.9831011556]}},{"type":"Feature","properties":{"layer_id":"cultural_facilities","name":"大石総合運動公園水泳プール①","category":"public","address":"大字尾駮字野附521-1","source":"国土交通省 国土数値情報","municipality_code":"02411","municipality_pref":"青森県","municipality_name":"六ヶ所村","municipality_code_method":"nearest_centroid"},"geometry":{"type":"Point","coordinates":[141.339350003,40.9812406568]}},{"type":"Feature","properties":{"layer_id":"cultural_facilities","name":"六ケ所村民図書館","category":"public","address":"大字尾駮字野附1-8","source":"国土交通省 国土数値情報","municipality_code":"02411","municipality_pref":"青森県","municipality_name":"六ヶ所村","municipality_code_method":"nearest_centroid"},"geometry":{"type":"Point","coordinates":[141.363844,40.964764]}},{"type":"Feature","properties":{"layer_id":"parks_playgrounds","name":"鷹架野鳥の里森林公園","category":"nature","address":"上北郡六ヶ所村","source":"国土交通省 国土数値情報","municipality_code":"02411","municipality_pref":"青森県","municipality_name":"六ヶ所村","municipality_code_method":"nearest_centroid"},"geometry":{"type":"Point","coordinates":[141.33711021,40.92626297]}},{"type":"Feature","properties":{"layer_id":"parks_playgrounds","name":"熊野近隣公園","category":"nature","address":"上北郡六ヶ所村","source":"国土交通省 国土数値情報","municipality_code":"02411","municipality_pref":"青森県","municipality_name":"六ヶ所村","municipality_code_method":"nearest_centroid"},"geometry":{"type":"Point","coordinates":[141.36415197,40.88397]}},{"type":"Feature","properties":{"layer_id":"parks_playgrounds","name":"千歳平はるき小公園","category":"nature","address":"上北郡六ヶ所村","source":"国土交通省 国土数値情報","municipality_code":"02411","municipality_pref":"青森県","municipality_name":"六ヶ所村","municipality_code_method":"nearest_centroid"},"geometry":{"type":"Point","coordinates":[141.28749237,40.890307]}},{"type":"Feature","properties":{"layer_id":"parks_playgrounds","name":"千歳平にし児童公園","category":"nature","address":"上北郡六ヶ所村","source":"国土交通省 国土数値情報","municipality_code":"02411","municipality_pref":"青森県","municipality_name":"六ヶ所村","municipality_code_method":"nearest_centroid"},"geometry":{"type":"Point","coordinates":[141.28316016,40.88877029]}},{"type":"Feature","properties":{"layer_id":"parks_playgrounds","name":"大石総合運動公園","category":"nature","address":"上北郡六ヶ所村","source":"国土交通省 国土数値情報","municipality_code":"02411","municipality_pref":"青森県","municipality_name":"六ヶ所村","municipality_code_method":"nearest_centroid"},"geometry":{"type":"Point","coordinates":[141.33750341,40.98125389]}},{"type":"Feature","properties":{"layer_id":"parks_playgrounds","name":"千歳平ひがし児童公園","category":"nature","address":"上北郡六ヶ所村","source":"国土交通省 国土数値情報","municipality_code":"02411","municipality_pref":"青森県","municipality_name":"六ヶ所村","municipality_code_method":"nearest_centroid"},"geometry":{"type":"Point","coordinates":[141.29011181,40.88731477]}},{"type":"Feature","properties":{"layer_id":"parks_playgrounds","name":"市柳総合公園","category":"nature","address":"上北郡六ヶ所村","source":"国土交通省 国土数値情報","municipality_code":"02411","municipality_pref":"青森県","municipality_name":"六ヶ所村","municipality_code_method":"nearest_centroid"},"geometry":{"type":"Point","coordinates":[141.3326851,40.92003062]}},{"type":"Feature","properties":{"layer_id":"tourism_resources","name":"尾駮沼","category":"nature","address":"湖沼景観 / 湖沼","source":"国土交通省 国土数値情報","municipality_code":"02411","municipality_pref":"青森県","municipality_name":"六ヶ所村","municipality_code_method":"nearest_centroid","resource_code":"701"},"geometry":{"type":"Point","coordinates":[141.3575897216797,40.95655822753906]}},{"type":"Feature","properties":{"layer_id":"tourism_resources","name":"鷹架沼","category":"nature","address":"湖沼景観 / 湖沼","source":"国土交通省 国土数値情報","municipality_code":"02411","municipality_pref":"青森県","municipality_name":"六ヶ所村","municipality_code_method":"nearest_centroid","resource_code":"701"},"geometry":{"type":"Point","coordinates":[141.32496643066406,40.937679290771484]}},{"type":"Feature","properties":{"layer_id":"tourism_resources","name":"田面木沼","category":"nature","address":"湖沼景観 / 湖沼","source":"国土交通省 国土数値情報","municipality_code":"02411","municipality_pref":"青森県","municipality_name":"六ヶ所村","municipality_code_method":"nearest_centroid","resource_code":"701"},"geometry":{"type":"Point","coordinates":[141.3539581298828,40.8758544921875]}},{"type":"Feature","properties":{"layer_id":"tourism_resources","name":"内沼","category":"nature","address":"湖沼景観 / 湖沼","source":"国土交通省 国土数値情報","municipality_code":"02411","municipality_pref":"青森県","municipality_name":"六ヶ所村","municipality_code_method":"nearest_centroid","resource_code":"701"},"geometry":{"type":"Point","coordinates":[141.3175048828125,40.85895538330078]}},{"type":"Feature","properties":{"layer_id":"tourism_resources","name":"市柳沼","category":"nature","address":"湖沼景観 / 湖沼","source":"国土交通省 国土数値情報","municipality_code":"02411","municipality_pref":"青森県","municipality_name":"六ヶ所村","municipality_code_method":"nearest_centroid","resource_code":"701"},"geometry":{"type":"Point","coordinates":[141.35723876953125,40.90568161010742]}}],"display_comment_original":"六ヶ所村周辺には、近世村の記憶として倉内村、平沼村、鷹架村などの旧村名が見える。 この地域には史跡や遺跡に関わる場所が見え、千歳遺跡、新納屋遺跡のような地点が探索の入口になる。 現地では史跡説明板、倉内村、平沼村ゆかりの旧境石標や村の歴史案内板が手がかりになりそうだ。さらに水辺の由緒を示す歴史案内板も見つかるかもしれない。","story_enrichment":{"samurai_priority_people":[],"notable_people":[],"honorary_citizens":[],"tourism_landmarks":["物見崎灯台〔泊字焼山〕","タタミ岩〔泊字焼山〕","馬門川観光公園〔泊字川原〕","異文化交流フェア","村立郷土館〔尾駮字野附〕","とまりのトトロ（泊地区。トトロにそっくりの岩穴）"],"specialties":[],"food_culture":[],"historical_domains":[],"heian_place_names":[],"japan_search_support":[],"enrichment_sources":["https://ja.wikipedia.org/wiki/%E5%85%AD%E3%83%B6%E6%89%80%E6%9D%91"],"enrichment_errors":[],"wikipedia_title":"六ヶ所村","wikipedia_revision_id":"110082137","wikidata_qid":"Q1362335","wikipedia_url":"https://ja.wikipedia.org/wiki/%E5%85%AD%E3%83%B6%E6%89%80%E6%9D%91","japan_search_query_url":"","status":"wikipedia_ok"}}