{"type":"FeatureCollection","municipality_code":"02443","pref":"青森県","city":"田子町","display_comment":"田子町には、夏坂村、関村、山口村など、近世の村々の記憶を伝える地名が残っています。 周辺には史跡や遺跡、寺社や信仰の場にまつわる場所が点在し、「夏坂番所跡」、「茂市館跡」、「石亀館跡」などを起点に歩くと、地域の歴史がぐっと見えやすくなります。 現地では史跡説明板に加え、夏坂村や関村にゆかりのある旧境石標、村の歴史を紹介する案内板にも注目してみてください。 「大黒森」や「和平高原」などの名所も、地域の物語を深掘りする絶好の入口です。","layer_counts":{"cafe_restaurant":1,"public_facilities":37,"cultural_facilities":10,"tourism_resources":13},"total_features":61,"features":[{"type":"Feature","properties":{"layer_id":"cafe_restaurant","name":"農業法人株式会社和の郷","address":"青森県三戸郡田子町大字田子字川代ノ上ミ66-39","source":"厚生労働省 食品衛生申請等システム（オープンデータ）"},"geometry":{"type":"Point","coordinates":[141.076266,40.362948]}},{"type":"Feature","properties":{"layer_id":"public_facilities","name":"雀ケ平生活館","address":"田子町大字原字雀ケ平82","source":"国土交通省 国土数値情報"},"geometry":{"type":"Point","coordinates":[141.146112,40.323465]}},{"type":"Feature","properties":{"layer_id":"public_facilities","name":"関地区集落センター","address":"田子町大字関山口字東ヶ沢251","source":"国土交通省 国土数値情報"},"geometry":{"type":"Point","coordinates":[141.044773,40.290749]}},{"type":"Feature","properties":{"layer_id":"public_facilities","name":"新田地区活性化センター","address":"田子町大字遠瀬字堺沢出口12","source":"国土交通省 国土数値情報"},"geometry":{"type":"Point","coordinates":[141.05602,40.26996]}},{"type":"Feature","properties":{"layer_id":"public_facilities","name":"相米へき地保健福祉館","address":"田子町大字相米字天間屋敷33","source":"国土交通省 国土数値情報"},"geometry":{"type":"Point","coordinates":[141.113039,40.329227]}},{"type":"Feature","properties":{"layer_id":"public_facilities","name":"池振地区集落センター","address":"田子町大字田子字池振下平2","source":"国土交通省 国土数値情報"},"geometry":{"type":"Point","coordinates":[141.155948,40.341026]}},{"type":"Feature","properties":{"layer_id":"public_facilities","name":"清水頭地区総合研修センター","address":"田子町大字田子字清水頭下モ久保781","source":"国土交通省 国土数値情報"},"geometry":{"type":"Point","coordinates":[141.111002,40.360756]}},{"type":"Feature","properties":{"layer_id":"public_facilities","name":"山口生活館","address":"田子町大字山口字山口沢422","source":"国土交通省 国土数値情報"},"geometry":{"type":"Point","coordinates":[141.052858,40.292116]}},{"type":"Feature","properties":{"layer_id":"public_facilities","name":"茂市地区担い手センター","address":"田子町大字茂市字茂市211","source":"国土交通省 国土数値情報"},"geometry":{"type":"Point","coordinates":[141.087274,40.300504]}},{"type":"Feature","properties":{"layer_id":"public_facilities","name":"衣更地区集落センター","address":"田子町大字田子字衣更66","source":"国土交通省 国土数値情報"},"geometry":{"type":"Point","coordinates":[141.154183,40.328964]}},{"type":"Feature","properties":{"layer_id":"public_facilities","name":"中央公民館","address":"田子町大字田子字柏木田169","source":"国土交通省 国土数値情報"},"geometry":{"type":"Point","coordinates":[141.155726,40.342221]}},{"type":"Feature","properties":{"layer_id":"public_facilities","name":"上野地区多目的研修センター","address":"田子町大字田子字上野23","source":"国土交通省 国土数値情報"},"geometry":{"type":"Point","coordinates":[141.161064,40.350192]}},{"type":"Feature","properties":{"layer_id":"public_facilities","name":"長坂地区集落センター","address":"田子町大字田子字長坂294","source":"国土交通省 国土数値情報"},"geometry":{"type":"Point","coordinates":[141.146659,40.361571]}},{"type":"Feature","properties":{"layer_id":"public_facilities","name":"川代生活館","address":"田子町大字田子字大王312","source":"国土交通省 国土数値情報"},"geometry":{"type":"Point","coordinates":[141.099492,40.354709]}},{"type":"Feature","properties":{"layer_id":"public_facilities","name":"干草場生活館","address":"田子町大字田子字二次下平74","source":"国土交通省 国土数値情報"},"geometry":{"type":"Point","coordinates":[141.124262,40.364479]}},{"type":"Feature","properties":{"layer_id":"public_facilities","name":"柴倉生活館","address":"田子町大字相米字柴倉沢321","source":"国土交通省 国土数値情報"},"geometry":{"type":"Point","coordinates":[141.091469,40.326529]}},{"type":"Feature","properties":{"layer_id":"public_facilities","name":"野々上生活館","address":"田子町大字田子字野-上583","source":"国土交通省 国土数値情報"},"geometry":{"type":"Point","coordinates":[141.140669,40.34377]}},{"type":"Feature","properties":{"layer_id":"public_facilities","name":"袖平生活館","address":"田子町大字田子字白椛11","source":"国土交通省 国土数値情報"},"geometry":{"type":"Point","coordinates":[141.10025,40.367483]}},{"type":"Feature","properties":{"layer_id":"public_facilities","name":"飯豊生活館","address":"田子町大字原字飯豊331","source":"国土交通省 国土数値情報"},"geometry":{"type":"Point","coordinates":[141.129534,40.310352]}},{"type":"Feature","properties":{"layer_id":"public_facilities","name":"遠瀬生活館","address":"田子町大字山遠瀬字苗代71","source":"国土交通省 国土数値情報"},"geometry":{"type":"Point","coordinates":[141.152057,40.339954]}},{"type":"Feature","properties":{"layer_id":"public_facilities","name":"水亦生活館","address":"田子町大字遠瀬字水亦242","source":"国土交通省 国土数値情報"},"geometry":{"type":"Point","coordinates":[141.097192,40.258431]}},{"type":"Feature","properties":{"layer_id":"public_facilities","name":"嘉沢地区集落センター","address":"田子町大字山口字嘉沢115","source":"国土交通省 国土数値情報"},"geometry":{"type":"Point","coordinates":[141.062638,40.29038]}},{"type":"Feature","properties":{"layer_id":"public_facilities","name":"細野地区集落センター","address":"田子町大字相米字細野1344","source":"国土交通省 国土数値情報"},"geometry":{"type":"Point","coordinates":[141.127768,40.344176]}},{"type":"Feature","properties":{"layer_id":"public_facilities","name":"農村環境改善センター","address":"田子町大字山口字道前8","source":"国土交通省 国土数値情報"},"geometry":{"type":"Point","coordinates":[141.077273,40.290891]}},{"type":"Feature","properties":{"layer_id":"public_facilities","name":"宮野地区研修センター","address":"田子町大字相米字宮野32","source":"国土交通省 国土数値情報"},"geometry":{"type":"Point","coordinates":[141.140817,40.338874]}},{"type":"Feature","properties":{"layer_id":"public_facilities","name":"石亀地区研修センター","address":"田子町大字石亀字石亀6","source":"国土交通省 国土数値情報"},"geometry":{"type":"Point","coordinates":[141.09516,40.304017]}},{"type":"Feature","properties":{"layer_id":"public_facilities","name":"下田子生活館","address":"田子町大字田子下田子619","source":"国土交通省 国土数値情報"},"geometry":{"type":"Point","coordinates":[141.172775,40.348506]}},{"type":"Feature","properties":{"layer_id":"public_facilities","name":"明土平生活館","address":"田子町大字相米字高屋敷1282","source":"国土交通省 国土数値情報"},"geometry":{"type":"Point","coordinates":[141.121052,40.335035]}},{"type":"Feature","properties":{"layer_id":"public_facilities","name":"田子町役場","address":"田子町大字田子字天神堂平81","source":"国土交通省 国土数値情報"},"geometry":{"type":"Point","coordinates":[141.152157,40.340023]}},{"type":"Feature","properties":{"layer_id":"public_facilities","name":"野面生活館","address":"田子町大字原字野面778","source":"国土交通省 国土数値情報"},"geometry":{"type":"Point","coordinates":[141.143804,40.318604]}},{"type":"Feature","properties":{"layer_id":"public_facilities","name":"根渡地区担い手センター","address":"田子町大字相米字石亀渡40","source":"国土交通省 国土数値情報"},"geometry":{"type":"Point","coordinates":[141.092639,40.318899]}},{"type":"Feature","properties":{"layer_id":"public_facilities","name":"川向生活館","address":"田子町大字田子字馬場182","source":"国土交通省 国土数値情報"},"geometry":{"type":"Point","coordinates":[141.124356,40.354108]}},{"type":"Feature","properties":{"layer_id":"public_facilities","name":"都市農村交流センター","address":"田子町大字原字飛鳥平261","source":"国土交通省 国土数値情報"},"geometry":{"type":"Point","coordinates":[141.131022,40.315607]}},{"type":"Feature","properties":{"layer_id":"public_facilities","name":"上郷公民館","address":"田子町大字山口字道前8","source":"国土交通省 国土数値情報"},"geometry":{"type":"Point","coordinates":[141.077192,40.29089]}},{"type":"Feature","properties":{"layer_id":"public_facilities","name":"野月生活館","address":"田子町大字相米字野月61","source":"国土交通省 国土数値情報"},"geometry":{"type":"Point","coordinates":[141.140697,40.335894]}},{"type":"Feature","properties":{"layer_id":"public_facilities","name":"タプコピアンプラザ","address":"田子町田子字天神堂向22-9","source":"国土交通省 国土数値情報"},"geometry":{"type":"Point","coordinates":[141.155253,40.339999]}},{"type":"Feature","properties":{"layer_id":"public_facilities","name":"上ノ平生活館","address":"田子町大字田子字田子上ノ平211","source":"国土交通省 国土数値情報"},"geometry":{"type":"Point","coordinates":[141.151907,40.343895]}},{"type":"Feature","properties":{"layer_id":"public_facilities","name":"夏坂へき地保健福祉館","address":"田子町大字夏坂字夏坂1171","source":"国土交通省 国土数値情報"},"geometry":{"type":"Point","coordinates":[141.014445,40.2964]}},{"type":"Feature","properties":{"layer_id":"cultural_facilities","name":"田子町農山村広場交流広場（Ａ）","address":"大字田子字向山上ミ川原3-1","source":"国土交通省 国土数値情報"},"geometry":{"type":"Point","coordinates":[141.162811,40.339571]}},{"type":"Feature","properties":{"layer_id":"cultural_facilities","name":"田子町民グラウンド","address":"大字田子字風張27-1田子中学校グランド","source":"国土交通省 国土数値情報"},"geometry":{"type":"Point","coordinates":[141.146318,40.337848]}},{"type":"Feature","properties":{"layer_id":"cultural_facilities","name":"田子町農山村広場交流広場（Ｂ）","address":"大字田子字向山上ミ川原3-1","source":"国土交通省 国土数値情報"},"geometry":{"type":"Point","coordinates":[141.162219,40.339355]}},{"type":"Feature","properties":{"layer_id":"cultural_facilities","name":"田子町農村環境改善センター（体育館）","address":"大字山口字道前8","source":"国土交通省 国土数値情報"},"geometry":{"type":"Point","coordinates":[141.077568,40.290779]}},{"type":"Feature","properties":{"layer_id":"cultural_facilities","name":"田子町農業者トレーニングセンター","address":"大字田子字柏木田14","source":"国土交通省 国土数値情報"},"geometry":{"type":"Point","coordinates":[141.156331,40.342077]}},{"type":"Feature","properties":{"layer_id":"cultural_facilities","name":"田子町立図書館","address":"大字田子字天神堂向22-9","source":"国土交通省 国土数値情報"},"geometry":{"type":"Point","coordinates":[141.154774,40.340309]}},{"type":"Feature","properties":{"layer_id":"cultural_facilities","name":"田子町民プール","address":"大字田子字風張32","source":"国土交通省 国土数値情報"},"geometry":{"type":"Point","coordinates":[141.145134,40.337403]}},{"type":"Feature","properties":{"layer_id":"cultural_facilities","name":"田子町農村環境改善センター（武道場）","address":"大字山口字道前8","source":"国土交通省 国土数値情報"},"geometry":{"type":"Point","coordinates":[141.077367,40.290918]}},{"type":"Feature","properties":{"layer_id":"cultural_facilities","name":"田子町農村環境改善センター（多目的広場）","address":"大字山口字道前8","source":"国土交通省 国土数値情報"},"geometry":{"type":"Point","coordinates":[141.076894,40.290586]}},{"type":"Feature","properties":{"layer_id":"cultural_facilities","name":"田子町民グラウンド","address":"大字田子字風張27-1田子中学校グランド","source":"国土交通省 国土数値情報"},"geometry":{"type":"Point","coordinates":[141.146386,40.338089]}},{"type":"Feature","properties":{"layer_id":"tourism_resources","name":"朝日奈岳","address":"山地（非火山性）景観 / 非火山性弧峰","source":"国土交通省 国土数値情報"},"geometry":{"type":"Point","coordinates":[141.048172,40.324772]}},{"type":"Feature","properties":{"layer_id":"tourism_resources","name":"止ヶ崎","address":"山地（非火山性）景観 / 非火山性弧峰","source":"国土交通省 国土数値情報"},"geometry":{"type":"Point","coordinates":[140.999481,40.389755]}},{"type":"Feature","properties":{"layer_id":"tourism_resources","name":"赤平","address":"山地（非火山性）景観 / 非火山性弧峰","source":"国土交通省 国土数値情報"},"geometry":{"type":"Point","coordinates":[141.055954,40.307755]}},{"type":"Feature","properties":{"layer_id":"tourism_resources","name":"黒森山","address":"山地（非火山性）景観 / 非火山性弧峰","source":"国土交通省 国土数値情報"},"geometry":{"type":"Point","coordinates":[141.002441,40.272717]}},{"type":"Feature","properties":{"layer_id":"tourism_resources","name":"大黒森","address":"山地（非火山性）景観 / 非火山性弧峰","source":"国土交通省 国土数値情報"},"geometry":{"type":"Point","coordinates":[141.052734,40.362095]}},{"type":"Feature","properties":{"layer_id":"tourism_resources","name":"白萩平","address":"火山景観 / 火山性高原","source":"国土交通省 国土数値情報"},"geometry":{"type":"Point","coordinates":[140.967896,40.326458]}},{"type":"Feature","properties":{"layer_id":"tourism_resources","name":"ドコノ森","address":"山地（非火山性）景観 / 非火山性弧峰","source":"国土交通省 国土数値情報"},"geometry":{"type":"Point","coordinates":[141.024689,40.385094]}},{"type":"Feature","properties":{"layer_id":"tourism_resources","name":"猿ヶ平","address":"山地（非火山性）景観 / 非火山性弧峰","source":"国土交通省 国土数値情報"},"geometry":{"type":"Point","coordinates":[141.030548,40.348488]}},{"type":"Feature","properties":{"layer_id":"tourism_resources","name":"雷針森","address":"山地（非火山性）景観 / 非火山性弧峰","source":"国土交通省 国土数値情報"},"geometry":{"type":"Point","coordinates":[140.99498,40.328503]}},{"type":"Feature","properties":{"layer_id":"tourism_resources","name":"竜ヶ森","address":"山地（非火山性）景観 / 非火山性弧峰","source":"国土交通省 国土数値情報"},"geometry":{"type":"Point","coordinates":[141.012482,40.308636]}},{"type":"Feature","properties":{"layer_id":"tourism_resources","name":"見附森","address":"山地（非火山性）景観 / 非火山性弧峰","source":"国土交通省 国土数値情報"},"geometry":{"type":"Point","coordinates":[140.987442,40.300068]}},{"type":"Feature","properties":{"layer_id":"tourism_resources","name":"黒森","address":"山地（非火山性）景観 / 非火山性弧峰","source":"国土交通省 国土数値情報"},"geometry":{"type":"Point","coordinates":[141.046082,40.240036]}},{"type":"Feature","properties":{"layer_id":"tourism_resources","name":"弥勒ノ滝","address":"河川景観 / 滝","source":"国土交通省 国土数値情報"},"geometry":{"type":"Point","coordinates":[140.959122,40.294418]}}]}