{"type":"FeatureCollection","municipality_code":"03501","pref":"岩手県","city":"軽米町","display_comment":"軽米町には、狄塚村、山内村、晴山村など、近世の村々の記憶を伝える地名が残っています。 周辺には史跡や遺跡、寺社や信仰の場、城跡や陣屋跡にまつわる場所が点在し、「小軽米城跡」、「駒板遺跡」、「皂角子久保VI遺跡」などを起点に歩くと、地域の歴史がぐっと見えやすくなります。 現地では史跡説明板に加え、狄塚村や山内村にゆかりのある旧境石標、村の歴史を紹介する案内板にも注目してみてください。 「晴山館址」や「乃木将軍愛馬雷号の墓」などの名所も、地域の物語を深掘りする絶好の入口です。","layer_counts":{"cafe_restaurant":45,"public_facilities":35,"cultural_facilities":20,"tourism_resources":2},"total_features":102,"features":[{"type":"Feature","properties":{"layer_id":"cafe_restaurant","name":"お食事処　瀧村屋","category":"food","address":"岩手県九戸郡軽米町大字軽米10-92","source":"厚生労働省 食品衛生申請等システム（オープンデータ）","municipality_code":"03501","municipality_pref":"岩手県","municipality_name":"軽米町","municipality_code_method":"food_exact_coord"},"geometry":{"type":"Point","coordinates":[141.443336,40.324882]}},{"type":"Feature","properties":{"layer_id":"cafe_restaurant","name":"たごや","category":"food","address":"岩手県九戸郡軽米町大字軽米８－３８","source":"厚生労働省 食品衛生申請等システム（オープンデータ）","municipality_code":"03501","municipality_pref":"岩手県","municipality_name":"軽米町","municipality_code_method":"food_exact_coord"},"geometry":{"type":"Point","coordinates":[141.443336,40.324882]}},{"type":"Feature","properties":{"layer_id":"cafe_restaurant","name":"いまるカフェ　テントブース","category":"food","address":"岩手県九戸郡軽米町軽米8-87-1 かるまい文化交流センター宇漢米館2F","source":"厚生労働省 食品衛生申請等システム（オープンデータ）","municipality_code":"03501","municipality_pref":"岩手県","municipality_name":"軽米町","municipality_code_method":"food_exact_coord"},"geometry":{"type":"Point","coordinates":[141.443336,40.324882]}},{"type":"Feature","properties":{"layer_id":"cafe_restaurant","name":"ロッキー24","category":"food","address":"岩手県九戸郡軽米町大字円子5-28-4","source":"厚生労働省 食品衛生申請等システム（オープンデータ）","municipality_code":"03501","municipality_pref":"岩手県","municipality_name":"軽米町","municipality_code_method":"food_exact_coord"},"geometry":{"type":"Point","coordinates":[141.47555,40.260113]}},{"type":"Feature","properties":{"layer_id":"cafe_restaurant","name":"ソシアル聖","category":"food","address":"岩手県九戸郡軽米町大字軽米8-49-3","source":"厚生労働省 食品衛生申請等システム（オープンデータ）","municipality_code":"03501","municipality_pref":"岩手県","municipality_name":"軽米町","municipality_code_method":"food_exact_coord"},"geometry":{"type":"Point","coordinates":[141.443336,40.324882]}},{"type":"Feature","properties":{"layer_id":"cafe_restaurant","name":"ローソン岩手軽米店","category":"food","address":"岩手県九戸郡軽米町大字晴山22字皀角子久保40-6","source":"厚生労働省 食品衛生申請等システム（オープンデータ）","municipality_code":"03501","municipality_pref":"岩手県","municipality_name":"軽米町","municipality_code_method":"food_exact_coord"},"geometry":{"type":"Point","coordinates":[141.392451,40.333929]}},{"type":"Feature","properties":{"layer_id":"cafe_restaurant","name":"ローソン軽米上舘店","category":"food","address":"岩手県九戸郡軽米町大字上舘15-43-8","source":"厚生労働省 食品衛生申請等システム（オープンデータ）","municipality_code":"03501","municipality_pref":"岩手県","municipality_name":"軽米町","municipality_code_method":"food_exact_coord"},"geometry":{"type":"Point","coordinates":[141.528202,40.333988]}},{"type":"Feature","properties":{"layer_id":"cafe_restaurant","name":"ららばい","category":"food","address":"岩手県九戸郡軽米町大字軽米8地割16番地3","source":"厚生労働省 食品衛生申請等システム（オープンデータ）","municipality_code":"03501","municipality_pref":"岩手県","municipality_name":"軽米町","municipality_code_method":"food_exact_coord"},"geometry":{"type":"Point","coordinates":[141.464825,40.324377]}},{"type":"Feature","properties":{"layer_id":"cafe_restaurant","name":"ニュー軽米カントリークラブ（メンバーズハウス）","category":"food","address":"岩手県九戸郡軽米町大字円子2-4-1","source":"厚生労働省 食品衛生申請等システム（オープンデータ）","municipality_code":"03501","municipality_pref":"岩手県","municipality_name":"軽米町","municipality_code_method":"food_exact_coord"},"geometry":{"type":"Point","coordinates":[141.47555,40.260113]}},{"type":"Feature","properties":{"layer_id":"cafe_restaurant","name":"ニュー軽米カントリークラブ","category":"food","address":"岩手県九戸郡軽米町大字円子2-4-1","source":"厚生労働省 食品衛生申請等システム（オープンデータ）","municipality_code":"03501","municipality_pref":"岩手県","municipality_name":"軽米町","municipality_code_method":"food_exact_coord"},"geometry":{"type":"Point","coordinates":[141.47555,40.260113]}},{"type":"Feature","properties":{"layer_id":"cafe_restaurant","name":"晴高どんどん市場","category":"food","address":"岩手県九戸郡軽米町大字高家７－54－１","source":"厚生労働省 食品衛生申請等システム（オープンデータ）","municipality_code":"03501","municipality_pref":"岩手県","municipality_name":"軽米町","municipality_code_method":"food_exact_coord"},"geometry":{"type":"Point","coordinates":[141.421275,40.352552]}},{"type":"Feature","properties":{"layer_id":"cafe_restaurant","name":"フェアリ外売店","category":"food","address":"岩手県九戸郡軽米町大字小軽米20-3-1","source":"厚生労働省 食品衛生申請等システム（オープンデータ）","municipality_code":"03501","municipality_pref":"岩手県","municipality_name":"軽米町","municipality_code_method":"food_exact_coord"},"geometry":{"type":"Point","coordinates":[141.558758,40.258909]}},{"type":"Feature","properties":{"layer_id":"cafe_restaurant","name":"レストランフェアリ","category":"food","address":"岩手県九戸郡軽米町大字小軽米20-3-1","source":"厚生労働省 食品衛生申請等システム（オープンデータ）","municipality_code":"03501","municipality_pref":"岩手県","municipality_name":"軽米町","municipality_code_method":"food_exact_coord"},"geometry":{"type":"Point","coordinates":[141.558758,40.258909]}},{"type":"Feature","properties":{"layer_id":"cafe_restaurant","name":"ミレットプラザ","category":"food","address":"岩手県九戸郡軽米町大字山内33-53-1","source":"厚生労働省 食品衛生申請等システム（オープンデータ）","municipality_code":"03501","municipality_pref":"岩手県","municipality_name":"軽米町","municipality_code_method":"food_exact_coord"},"geometry":{"type":"Point","coordinates":[141.398292,40.302312]}},{"type":"Feature","properties":{"layer_id":"cafe_restaurant","name":"ミル・みるハウス","category":"food","address":"岩手県九戸郡軽米町大字晴山22-38-1","source":"厚生労働省 食品衛生申請等システム（オープンデータ）","municipality_code":"03501","municipality_pref":"岩手県","municipality_name":"軽米町","municipality_code_method":"food_exact_coord"},"geometry":{"type":"Point","coordinates":[141.392451,40.333929]}},{"type":"Feature","properties":{"layer_id":"cafe_restaurant","name":"軽米町物産交流館","category":"food","address":"岩手県九戸郡軽米町大字軽米8-118","source":"厚生労働省 食品衛生申請等システム（オープンデータ）","municipality_code":"03501","municipality_pref":"岩手県","municipality_name":"軽米町","municipality_code_method":"food_exact_coord"},"geometry":{"type":"Point","coordinates":[141.443336,40.324882]}},{"type":"Feature","properties":{"layer_id":"cafe_restaurant","name":"株式会社全国チェーン竜鳳","category":"food","address":"岩手県九戸郡軽米町大字上舘第１５地割１００－１","source":"厚生労働省 食品衛生申請等システム（オープンデータ）","municipality_code":"03501","municipality_pref":"岩手県","municipality_name":"軽米町","municipality_code_method":"food_exact_coord"},"geometry":{"type":"Point","coordinates":[141.469917,40.321063]}},{"type":"Feature","properties":{"layer_id":"cafe_restaurant","name":"県立軽米病院","category":"food","address":"岩手県九戸郡軽米町大字軽米第2地割54-5","source":"厚生労働省 食品衛生申請等システム（オープンデータ）","municipality_code":"03501","municipality_pref":"岩手県","municipality_name":"軽米町","municipality_code_method":"food_exact_coord"},"geometry":{"type":"Point","coordinates":[141.478516,40.317109]}},{"type":"Feature","properties":{"layer_id":"cafe_restaurant","name":"介護老人保健施設　花の里かるまい","category":"food","address":"岩手県九戸郡軽米町大字軽米第6地割89-1","source":"厚生労働省 食品衛生申請等システム（オープンデータ）","municipality_code":"03501","municipality_pref":"岩手県","municipality_name":"軽米町","municipality_code_method":"food_exact_coord"},"geometry":{"type":"Point","coordinates":[141.458017,40.315054]}},{"type":"Feature","properties":{"layer_id":"cafe_restaurant","name":"BUSTA（バスタ）","category":"food","address":"岩手県九戸郡軽米町大字軽米8-99","source":"厚生労働省 食品衛生申請等システム（オープンデータ）","municipality_code":"03501","municipality_pref":"岩手県","municipality_name":"軽米町","municipality_code_method":"food_exact_coord"},"geometry":{"type":"Point","coordinates":[141.443336,40.324882]}},{"type":"Feature","properties":{"layer_id":"cafe_restaurant","name":"ミニストップ折爪SA上り店","category":"food","address":"岩手県九戸郡軽米町山内第４地割111-62-1","source":"厚生労働省 食品衛生申請等システム（オープンデータ）","municipality_code":"03501","municipality_pref":"岩手県","municipality_name":"軽米町","municipality_code_method":"food_exact_coord"},"geometry":{"type":"Point","coordinates":[141.423941,40.296875]}},{"type":"Feature","properties":{"layer_id":"cafe_restaurant","name":"ミニストップ折爪SA下り店","category":"food","address":"岩手県九戸郡軽米町山内第４地割111-62-2","source":"厚生労働省 食品衛生申請等システム（オープンデータ）","municipality_code":"03501","municipality_pref":"岩手県","municipality_name":"軽米町","municipality_code_method":"food_exact_coord"},"geometry":{"type":"Point","coordinates":[141.43462,40.280661]}},{"type":"Feature","properties":{"layer_id":"cafe_restaurant","name":"食フェスタｉｎかるまい2025","category":"food","address":"岩手県九戸郡軽米町軽米8-87-1","source":"厚生労働省 食品衛生申請等システム（オープンデータ）","municipality_code":"03501","municipality_pref":"岩手県","municipality_name":"軽米町","municipality_code_method":"food_exact_coord"},"geometry":{"type":"Point","coordinates":[141.443336,40.324882]}},{"type":"Feature","properties":{"layer_id":"cafe_restaurant","name":"スマイル号","category":"food","address":"岩手県九戸郡軽米町大字軽米8-112","source":"厚生労働省 食品衛生申請等システム（オープンデータ）","municipality_code":"03501","municipality_pref":"岩手県","municipality_name":"軽米町","municipality_code_method":"food_exact_coord"},"geometry":{"type":"Point","coordinates":[141.443336,40.324882]}},{"type":"Feature","properties":{"layer_id":"cafe_restaurant","name":"軽米食堂","category":"food","address":"岩手県九戸郡軽米町大字軽米8-85","source":"厚生労働省 食品衛生申請等システム（オープンデータ）","municipality_code":"03501","municipality_pref":"岩手県","municipality_name":"軽米町","municipality_code_method":"food_exact_coord"},"geometry":{"type":"Point","coordinates":[141.443336,40.324882]}},{"type":"Feature","properties":{"layer_id":"cafe_restaurant","name":"ヤマダ菓子店","category":"food","address":"岩手県九戸郡軽米町大字上舘15-60-70","source":"厚生労働省 食品衛生申請等システム（オープンデータ）","municipality_code":"03501","municipality_pref":"岩手県","municipality_name":"軽米町","municipality_code_method":"food_exact_coord"},"geometry":{"type":"Point","coordinates":[141.528202,40.333988]}},{"type":"Feature","properties":{"layer_id":"cafe_restaurant","name":"たけさわストア","category":"food","address":"岩手県九戸郡軽米町大字軽米8-12","source":"厚生労働省 食品衛生申請等システム（オープンデータ）","municipality_code":"03501","municipality_pref":"岩手県","municipality_name":"軽米町","municipality_code_method":"food_exact_coord"},"geometry":{"type":"Point","coordinates":[141.443336,40.324882]}},{"type":"Feature","properties":{"layer_id":"cafe_restaurant","name":"宴もとや","category":"food","address":"岩手県九戸郡軽米町大字軽米８－129","source":"厚生労働省 食品衛生申請等システム（オープンデータ）","municipality_code":"03501","municipality_pref":"岩手県","municipality_name":"軽米町","municipality_code_method":"food_exact_coord"},"geometry":{"type":"Point","coordinates":[141.443336,40.324882]}},{"type":"Feature","properties":{"layer_id":"cafe_restaurant","name":"Pizza 217","category":"food","address":"岩手県九戸郡軽米町大字軽米第8地割87番地1","source":"厚生労働省 食品衛生申請等システム（オープンデータ）","municipality_code":"03501","municipality_pref":"岩手県","municipality_name":"軽米町","municipality_code_method":"food_exact_coord"},"geometry":{"type":"Point","coordinates":[141.463052,40.327025]}},{"type":"Feature","properties":{"layer_id":"cafe_restaurant","name":"Kapilina","category":"food","address":"岩手県九戸郡軽米町大字軽米8-87-1","source":"厚生労働省 食品衛生申請等システム（オープンデータ）","municipality_code":"03501","municipality_pref":"岩手県","municipality_name":"軽米町","municipality_code_method":"food_exact_coord"},"geometry":{"type":"Point","coordinates":[141.443336,40.324882]}},{"type":"Feature","properties":{"layer_id":"cafe_restaurant","name":"ガレットマニア","category":"food","address":"岩手県九戸郡軽米町大字軽米8-75","source":"厚生労働省 食品衛生申請等システム（オープンデータ）","municipality_code":"03501","municipality_pref":"岩手県","municipality_name":"軽米町","municipality_code_method":"food_exact_coord"},"geometry":{"type":"Point","coordinates":[141.443336,40.324882]}},{"type":"Feature","properties":{"layer_id":"cafe_restaurant","name":"苅谷果樹園","category":"food","address":"岩手県九戸郡軽米町晴山22-38-1","source":"厚生労働省 食品衛生申請等システム（オープンデータ）","municipality_code":"03501","municipality_pref":"岩手県","municipality_name":"軽米町","municipality_code_method":"food_exact_coord"},"geometry":{"type":"Point","coordinates":[141.487824,40.275979]}},{"type":"Feature","properties":{"layer_id":"cafe_restaurant","name":"ビーノカプチーノ","category":"food","address":"岩手県九戸郡軽米町大字円子2-4-1 軽米カントリークラブ内コテージ","source":"厚生労働省 食品衛生申請等システム（オープンデータ）","municipality_code":"03501","municipality_pref":"岩手県","municipality_name":"軽米町","municipality_code_method":"food_exact_coord"},"geometry":{"type":"Point","coordinates":[141.47555,40.260113]}},{"type":"Feature","properties":{"layer_id":"cafe_restaurant","name":"内まる屋食堂","category":"food","address":"岩手県九戸郡軽米町大字軽米22-44-420","source":"厚生労働省 食品衛生申請等システム（オープンデータ）","municipality_code":"03501","municipality_pref":"岩手県","municipality_name":"軽米町","municipality_code_method":"food_exact_coord"},"geometry":{"type":"Point","coordinates":[141.443336,40.324882]}},{"type":"Feature","properties":{"layer_id":"cafe_restaurant","name":"こじま食堂","category":"food","address":"岩手県九戸郡軽米町大字上舘15-87-2","source":"厚生労働省 食品衛生申請等システム（オープンデータ）","municipality_code":"03501","municipality_pref":"岩手県","municipality_name":"軽米町","municipality_code_method":"food_exact_coord"},"geometry":{"type":"Point","coordinates":[141.528202,40.333988]}},{"type":"Feature","properties":{"layer_id":"cafe_restaurant","name":"居酒屋いずみ家","category":"food","address":"岩手県九戸郡軽米町大字軽米第8地割23番地","source":"厚生労働省 食品衛生申請等システム（オープンデータ）","municipality_code":"03501","municipality_pref":"岩手県","municipality_name":"軽米町","municipality_code_method":"food_exact_coord"},"geometry":{"type":"Point","coordinates":[141.464424,40.324449]}},{"type":"Feature","properties":{"layer_id":"cafe_restaurant","name":"Ｈａ・ｎａ（ハナ）","category":"food","address":"岩手県九戸郡軽米町大字軽米8-100-9","source":"厚生労働省 食品衛生申請等システム（オープンデータ）","municipality_code":"03501","municipality_pref":"岩手県","municipality_name":"軽米町","municipality_code_method":"food_exact_coord"},"geometry":{"type":"Point","coordinates":[141.443336,40.324882]}},{"type":"Feature","properties":{"layer_id":"cafe_restaurant","name":"好楽苑","category":"food","address":"岩手県九戸郡軽米町大字軽米8-24-12","source":"厚生労働省 食品衛生申請等システム（オープンデータ）","municipality_code":"03501","municipality_pref":"岩手県","municipality_name":"軽米町","municipality_code_method":"food_exact_coord"},"geometry":{"type":"Point","coordinates":[141.443336,40.324882]}},{"type":"Feature","properties":{"layer_id":"cafe_restaurant","name":"食フェスタinかるまい2025","category":"food","address":"岩手県九戸郡軽米町軽米8-87-1","source":"厚生労働省 食品衛生申請等システム（オープンデータ）","municipality_code":"03501","municipality_pref":"岩手県","municipality_name":"軽米町","municipality_code_method":"food_exact_coord"},"geometry":{"type":"Point","coordinates":[141.443336,40.324882]}},{"type":"Feature","properties":{"layer_id":"cafe_restaurant","name":"居酒屋たんぽぽ","category":"food","address":"岩手県九戸郡軽米町大字軽米4-16-116","source":"厚生労働省 食品衛生申請等システム（オープンデータ）","municipality_code":"03501","municipality_pref":"岩手県","municipality_name":"軽米町","municipality_code_method":"food_exact_coord"},"geometry":{"type":"Point","coordinates":[141.443336,40.324882]}},{"type":"Feature","properties":{"layer_id":"cafe_restaurant","name":"酒蔵　憩い","category":"food","address":"岩手県九戸郡軽米町大字軽米8-2","source":"厚生労働省 食品衛生申請等システム（オープンデータ）","municipality_code":"03501","municipality_pref":"岩手県","municipality_name":"軽米町","municipality_code_method":"food_exact_coord"},"geometry":{"type":"Point","coordinates":[141.443336,40.324882]}},{"type":"Feature","properties":{"layer_id":"cafe_restaurant","name":"居酒屋まるふく","category":"food","address":"岩手県九戸郡軽米町大字軽米8-56-6","source":"厚生労働省 食品衛生申請等システム（オープンデータ）","municipality_code":"03501","municipality_pref":"岩手県","municipality_name":"軽米町","municipality_code_method":"food_exact_coord"},"geometry":{"type":"Point","coordinates":[141.443336,40.324882]}},{"type":"Feature","properties":{"layer_id":"cafe_restaurant","name":"工藤仕出し店","category":"food","address":"岩手県九戸郡軽米町大字軽米8-56-6","source":"厚生労働省 食品衛生申請等システム（オープンデータ）","municipality_code":"03501","municipality_pref":"岩手県","municipality_name":"軽米町","municipality_code_method":"food_exact_coord"},"geometry":{"type":"Point","coordinates":[141.443336,40.324882]}},{"type":"Feature","properties":{"layer_id":"cafe_restaurant","name":"たごや","category":"food","address":"岩手県九戸郡軽米町大字軽米８－38","source":"厚生労働省 食品衛生申請等システム（オープンデータ）","municipality_code":"03501","municipality_pref":"岩手県","municipality_name":"軽米町","municipality_code_method":"food_exact_coord"},"geometry":{"type":"Point","coordinates":[141.443336,40.324882]}},{"type":"Feature","properties":{"layer_id":"cafe_restaurant","name":"大清水旅館","category":"food","address":"岩手県九戸郡軽米町大字軽米8-26","source":"厚生労働省 食品衛生申請等システム（オープンデータ）","municipality_code":"03501","municipality_pref":"岩手県","municipality_name":"軽米町","municipality_code_method":"food_exact_coord"},"geometry":{"type":"Point","coordinates":[141.443336,40.324882]}},{"type":"Feature","properties":{"layer_id":"public_facilities","name":"小軽米出張所","category":"public","address":"軽米町大字小軽米12-63-1","source":"国土交通省 国土数値情報","municipality_code":"03501","municipality_pref":"岩手県","municipality_name":"軽米町","municipality_code_method":"source_exact_coord"},"geometry":{"type":"Point","coordinates":[141.52667220546016,40.29669446550785]}},{"type":"Feature","properties":{"layer_id":"public_facilities","name":"牛ケ沢集落センター","category":"public","address":"軽米町小軽米22-180","source":"国土交通省 国土数値情報","municipality_code":"03501","municipality_pref":"岩手県","municipality_name":"軽米町","municipality_code_method":"source_exact_coord"},"geometry":{"type":"Point","coordinates":[141.53602511874539,40.26511066038937]}},{"type":"Feature","properties":{"layer_id":"public_facilities","name":"老人福祉センター","category":"public","address":"軽米町上舘1-78-1","source":"国土交通省 国土数値情報","municipality_code":"03501","municipality_pref":"岩手県","municipality_name":"軽米町","municipality_code_method":"source_exact_coord"},"geometry":{"type":"Point","coordinates":[141.47860108868753,40.31368072474753]}},{"type":"Feature","properties":{"layer_id":"public_facilities","name":"軽米農村勤労福祉センター","category":"public","address":"軽米町軽米6-34-1","source":"国土交通省 国土数値情報","municipality_code":"03501","municipality_pref":"岩手県","municipality_name":"軽米町","municipality_code_method":"source_exact_coord"},"geometry":{"type":"Point","coordinates":[141.46234235605797,40.326321756545994]}},{"type":"Feature","properties":{"layer_id":"public_facilities","name":"山内地区交流センター","category":"public","address":"軽米町山内28-15","source":"国土交通省 国土数値情報","municipality_code":"03501","municipality_pref":"岩手県","municipality_name":"軽米町","municipality_code_method":"source_exact_coord"},"geometry":{"type":"Point","coordinates":[141.39216066792793,40.30181978721012]}},{"type":"Feature","properties":{"layer_id":"public_facilities","name":"健康ふれあいセンター","category":"public","address":"軽米町大字軽米2-54-5","source":"国土交通省 国土数値情報","municipality_code":"03501","municipality_pref":"岩手県","municipality_name":"軽米町","municipality_code_method":"source_exact_coord"},"geometry":{"type":"Point","coordinates":[141.4788977783202,40.316788793980855]}},{"type":"Feature","properties":{"layer_id":"public_facilities","name":"米田農業構造改善センター","category":"public","address":"軽米町小軽米24-29","source":"国土交通省 国土数値情報","municipality_code":"03501","municipality_pref":"岩手県","municipality_name":"軽米町","municipality_code_method":"source_exact_coord"},"geometry":{"type":"Point","coordinates":[141.52820460034002,40.26787920892323]}},{"type":"Feature","properties":{"layer_id":"public_facilities","name":"大清水地区活性化センター","category":"public","address":"軽米町山内3-50","source":"国土交通省 国土数値情報","municipality_code":"03501","municipality_pref":"岩手県","municipality_name":"軽米町","municipality_code_method":"source_exact_coord"},"geometry":{"type":"Point","coordinates":[141.40491232793835,40.288434320570204]}},{"type":"Feature","properties":{"layer_id":"public_facilities","name":"晴山出張所","category":"public","address":"軽米町大字晴山20-6-2","source":"国土交通省 国土数値情報","municipality_code":"03501","municipality_pref":"岩手県","municipality_name":"軽米町","municipality_code_method":"source_exact_coord"},"geometry":{"type":"Point","coordinates":[141.3810674825621,40.326657449405346]}},{"type":"Feature","properties":{"layer_id":"public_facilities","name":"中央公民館小軽米分館体育館","category":"public","address":"軽米町小軽米10-3-5","source":"国土交通省 国土数値情報","municipality_code":"03501","municipality_pref":"岩手県","municipality_name":"軽米町","municipality_code_method":"source_exact_coord"},"geometry":{"type":"Point","coordinates":[141.52472947605582,40.299348494944354]}},{"type":"Feature","properties":{"layer_id":"public_facilities","name":"中央公民館晴山分館体育館","category":"public","address":"軽米町山内13-53-1","source":"国土交通省 国土数値情報","municipality_code":"03501","municipality_pref":"岩手県","municipality_name":"軽米町","municipality_code_method":"source_exact_coord"},"geometry":{"type":"Point","coordinates":[141.38982290288013,40.305288829887715]}},{"type":"Feature","properties":{"layer_id":"public_facilities","name":"小軽米生活改善センター","category":"public","address":"軽米町小軽米12-63-1","source":"国土交通省 国土数値情報","municipality_code":"03501","municipality_pref":"岩手県","municipality_name":"軽米町","municipality_code_method":"source_exact_coord"},"geometry":{"type":"Point","coordinates":[141.52668521409043,40.29669741134859]}},{"type":"Feature","properties":{"layer_id":"public_facilities","name":"軽米中央公民館","category":"public","address":"軽米町軽米8-54","source":"国土交通省 国土数値情報","municipality_code":"03501","municipality_pref":"岩手県","municipality_name":"軽米町","municipality_code_method":"source_exact_coord"},"geometry":{"type":"Point","coordinates":[141.46347796175783,40.32571885937888]}},{"type":"Feature","properties":{"layer_id":"public_facilities","name":"軽米青少年ホーム","category":"public","address":"軽米町軽米3-42","source":"国土交通省 国土数値情報","municipality_code":"03501","municipality_pref":"岩手県","municipality_name":"軽米町","municipality_code_method":"source_exact_coord"},"geometry":{"type":"Point","coordinates":[141.47299904640326,40.31765477007144]}},{"type":"Feature","properties":{"layer_id":"public_facilities","name":"晴山公民館","category":"public","address":"軽米町晴山20-6-2","source":"国土交通省 国土数値情報","municipality_code":"03501","municipality_pref":"岩手県","municipality_name":"軽米町","municipality_code_method":"source_exact_coord"},"geometry":{"type":"Point","coordinates":[141.38103393077395,40.32664666451891]}},{"type":"Feature","properties":{"layer_id":"public_facilities","name":"山内農業構造改善センター","category":"public","address":"軽米町山内第26地割7-2","source":"国土交通省 国土数値情報","municipality_code":"03501","municipality_pref":"岩手県","municipality_name":"軽米町","municipality_code_method":"source_exact_coord"},"geometry":{"type":"Point","coordinates":[141.3879513141136,40.30448456904829]}},{"type":"Feature","properties":{"layer_id":"public_facilities","name":"笹渡農業構造改善センター","category":"public","address":"軽米町上舘49-4-24","source":"国土交通省 国土数値情報","municipality_code":"03501","municipality_pref":"岩手県","municipality_name":"軽米町","municipality_code_method":"source_exact_coord"},"geometry":{"type":"Point","coordinates":[141.5598844577716,40.350800844002634]}},{"type":"Feature","properties":{"layer_id":"public_facilities","name":"地域包括支援センターブランチ","category":"public","address":"軽米町大字上舘1-78-1","source":"国土交通省 国土数値情報","municipality_code":"03501","municipality_pref":"岩手県","municipality_name":"軽米町","municipality_code_method":"source_exact_coord"},"geometry":{"type":"Point","coordinates":[141.4605489034662,40.32670898794901]}},{"type":"Feature","properties":{"layer_id":"public_facilities","name":"地域包括支援センター","category":"public","address":"軽米町大字軽米10-85","source":"国土交通省 国土数値情報","municipality_code":"03501","municipality_pref":"岩手県","municipality_name":"軽米町","municipality_code_method":"source_exact_coord"},"geometry":{"type":"Point","coordinates":[141.46101441401333,40.32687280496852]}},{"type":"Feature","properties":{"layer_id":"public_facilities","name":"増子内農村振興会館","category":"public","address":"軽米町上舘30-141","source":"国土交通省 国土数値情報","municipality_code":"03501","municipality_pref":"岩手県","municipality_name":"軽米町","municipality_code_method":"source_exact_coord"},"geometry":{"type":"Point","coordinates":[141.51457440457855,40.31357106741534]}},{"type":"Feature","properties":{"layer_id":"public_facilities","name":"農村勤労福祉センター","category":"public","address":"軽米町軽米6-17","source":"国土交通省 国土数値情報","municipality_code":"03501","municipality_pref":"岩手県","municipality_name":"軽米町","municipality_code_method":"source_exact_coord"},"geometry":{"type":"Point","coordinates":[141.46132300549024,40.322416827280726]}},{"type":"Feature","properties":{"layer_id":"public_facilities","name":"Ｂ＆Ｇ海洋センター","category":"public","address":"軽米町大字軽米7-8","source":"国土交通省 国土数値情報","municipality_code":"03501","municipality_pref":"岩手県","municipality_name":"軽米町","municipality_code_method":"source_exact_coord"},"geometry":{"type":"Point","coordinates":[141.462729028116,40.32237422214501]}},{"type":"Feature","properties":{"layer_id":"public_facilities","name":"上舘農業構造改善センター","category":"public","address":"軽米町上舘4-7-2","source":"国土交通省 国土数値情報","municipality_code":"03501","municipality_pref":"岩手県","municipality_name":"軽米町","municipality_code_method":"source_exact_coord"},"geometry":{"type":"Point","coordinates":[141.4838101203257,40.310623688251354]}},{"type":"Feature","properties":{"layer_id":"public_facilities","name":"農村環境改善センター","category":"public","address":"軽米町軽米10-85","source":"国土交通省 国土数値情報","municipality_code":"03501","municipality_pref":"岩手県","municipality_name":"軽米町","municipality_code_method":"source_exact_coord"},"geometry":{"type":"Point","coordinates":[141.4603559544912,40.32667087059492]}},{"type":"Feature","properties":{"layer_id":"public_facilities","name":"長倉生活改善センター","category":"public","address":"軽米町長倉4-1-2","source":"国土交通省 国土数値情報","municipality_code":"03501","municipality_pref":"岩手県","municipality_name":"軽米町","municipality_code_method":"source_exact_coord"},"geometry":{"type":"Point","coordinates":[141.4801524832659,40.36421421609583]}},{"type":"Feature","properties":{"layer_id":"public_facilities","name":"軽米町民体育館","category":"public","address":"軽米町軽米6-34-1","source":"国土交通省 国土数値情報","municipality_code":"03501","municipality_pref":"岩手県","municipality_name":"軽米町","municipality_code_method":"source_exact_coord"},"geometry":{"type":"Point","coordinates":[141.46261800399293,40.322402826778934]}},{"type":"Feature","properties":{"layer_id":"public_facilities","name":"小軽米公民館","category":"public","address":"軽米町大字小軽米12-63-1","source":"国土交通省 国土数値情報","municipality_code":"03501","municipality_pref":"岩手県","municipality_name":"軽米町","municipality_code_method":"source_exact_coord"},"geometry":{"type":"Point","coordinates":[141.52669220539795,40.296694465450074]}},{"type":"Feature","properties":{"layer_id":"public_facilities","name":"小玉川生活改善センター","category":"public","address":"軽米町小軽米18-18-2","source":"国土交通省 国土数値情報","municipality_code":"03501","municipality_pref":"岩手県","municipality_name":"軽米町","municipality_code_method":"source_exact_coord"},"geometry":{"type":"Point","coordinates":[141.5713264231982,40.2701361162133]}},{"type":"Feature","properties":{"layer_id":"public_facilities","name":"円子生活改善センター","category":"public","address":"軽米町円子第5地割29-1","source":"国土交通省 国土数値情報","municipality_code":"03501","municipality_pref":"岩手県","municipality_name":"軽米町","municipality_code_method":"source_exact_coord"},"geometry":{"type":"Point","coordinates":[141.48157067190266,40.270526323311856]}},{"type":"Feature","properties":{"layer_id":"public_facilities","name":"晴山農業構造改善センター","category":"public","address":"軽米町晴山11-10","source":"国土交通省 国土数値情報","municipality_code":"03501","municipality_pref":"岩手県","municipality_name":"軽米町","municipality_code_method":"source_exact_coord"},"geometry":{"type":"Point","coordinates":[141.4140519041233,40.338566946191534]}},{"type":"Feature","properties":{"layer_id":"public_facilities","name":"高家生活改善センター","category":"public","address":"軽米町高家6-20-1","source":"国土交通省 国土数値情報","municipality_code":"03501","municipality_pref":"岩手県","municipality_name":"軽米町","municipality_code_method":"source_exact_coord"},"geometry":{"type":"Point","coordinates":[141.4249307909891,40.346286053148745]}},{"type":"Feature","properties":{"layer_id":"public_facilities","name":"軽米町役場","category":"public","address":"軽米町軽米10-85","source":"国土交通省 国土数値情報","municipality_code":"03501","municipality_pref":"岩手県","municipality_name":"軽米町","municipality_code_method":"source_exact_coord"},"geometry":{"type":"Point","coordinates":[141.46037595446364,40.32667087059047]}},{"type":"Feature","properties":{"layer_id":"public_facilities","name":"青少年ホーム","category":"public","address":"軽米町軽米2-42-6","source":"国土交通省 国土数値情報","municipality_code":"03501","municipality_pref":"岩手県","municipality_name":"軽米町","municipality_code_method":"source_exact_coord"},"geometry":{"type":"Point","coordinates":[141.4764147298187,40.31825512562618]}},{"type":"Feature","properties":{"layer_id":"public_facilities","name":"中央公民館笹渡分館体育館","category":"public","address":"軽米町上舘58-108-31","source":"国土交通省 国土数値情報","municipality_code":"03501","municipality_pref":"岩手県","municipality_name":"軽米町","municipality_code_method":"source_exact_coord"},"geometry":{"type":"Point","coordinates":[141.46800905073235,40.326041328413496]}},{"type":"Feature","properties":{"layer_id":"public_facilities","name":"円子地区交流センター","category":"public","address":"軽米町円子5-20","source":"国土交通省 国土数値情報","municipality_code":"03501","municipality_pref":"岩手県","municipality_name":"軽米町","municipality_code_method":"source_exact_coord"},"geometry":{"type":"Point","coordinates":[141.4814872665479,40.27093118717098]}},{"type":"Feature","properties":{"layer_id":"cultural_facilities","name":"軽米農村勤労福祉センター相撲場","category":"public","address":"大字軽米6-17","source":"国土交通省 国土数値情報","municipality_code":"03501","municipality_pref":"岩手県","municipality_name":"軽米町","municipality_code_method":"nearest_centroid"},"geometry":{"type":"Point","coordinates":[141.461049,40.322519]}},{"type":"Feature","properties":{"layer_id":"cultural_facilities","name":"雪谷川ダムフォリストパーク軽米","category":"public","address":"大字小軽米20-3","source":"国土交通省 国土数値情報","municipality_code":"03501","municipality_pref":"岩手県","municipality_name":"軽米町","municipality_code_method":"nearest_centroid"},"geometry":{"type":"Point","coordinates":[141.518146,40.28752]}},{"type":"Feature","properties":{"layer_id":"cultural_facilities","name":"小軽米中学校","category":"public","address":"大字小軽米10-33","source":"国土交通省 国土数値情報","municipality_code":"03501","municipality_pref":"岩手県","municipality_name":"軽米町","municipality_code_method":"nearest_centroid"},"geometry":{"type":"Point","coordinates":[141.530162,40.300019]}},{"type":"Feature","properties":{"layer_id":"cultural_facilities","name":"雪谷川ダムフォリストパーク軽米","category":"public","address":"大字小軽米20-3","source":"国土交通省 国土数値情報","municipality_code":"03501","municipality_pref":"岩手県","municipality_name":"軽米町","municipality_code_method":"nearest_centroid"},"geometry":{"type":"Point","coordinates":[141.519397,40.288504]}},{"type":"Feature","properties":{"layer_id":"cultural_facilities","name":"軽米町歴史民俗資料館","category":"public","address":"大字軽米9-53-1","source":"国土交通省 国土数値情報","municipality_code":"03501","municipality_pref":"岩手県","municipality_name":"軽米町","municipality_code_method":"nearest_centroid"},"geometry":{"type":"Point","coordinates":[141.457461,40.321156]}},{"type":"Feature","properties":{"layer_id":"cultural_facilities","name":"軽米ゲートボール場","category":"public","address":"大字軽米7-13","source":"国土交通省 国土数値情報","municipality_code":"03501","municipality_pref":"岩手県","municipality_name":"軽米町","municipality_code_method":"nearest_centroid"},"geometry":{"type":"Point","coordinates":[141.463125,40.32367]}},{"type":"Feature","properties":{"layer_id":"cultural_facilities","name":"軽米農村勤労福祉センター柔道場","category":"public","address":"大字軽米6-17","source":"国土交通省 国土数値情報","municipality_code":"03501","municipality_pref":"岩手県","municipality_name":"軽米町","municipality_code_method":"nearest_centroid"},"geometry":{"type":"Point","coordinates":[141.461049,40.322619]}},{"type":"Feature","properties":{"layer_id":"cultural_facilities","name":"晴山中学校","category":"public","address":"大字晴山13-53","source":"国土交通省 国土数値情報","municipality_code":"03501","municipality_pref":"岩手県","municipality_name":"軽米町","municipality_code_method":"nearest_centroid"},"geometry":{"type":"Point","coordinates":[141.382174,40.319789]}},{"type":"Feature","properties":{"layer_id":"cultural_facilities","name":"軽米町民剣道場","category":"public","address":"大字軽米7-1-8","source":"国土交通省 国土数値情報","municipality_code":"03501","municipality_pref":"岩手県","municipality_name":"軽米町","municipality_code_method":"nearest_centroid"},"geometry":{"type":"Point","coordinates":[141.464153,40.324153]}},{"type":"Feature","properties":{"layer_id":"cultural_facilities","name":"軽米町営運動場運動広場","category":"public","address":"大字軽米6-42-2","source":"国土交通省 国土数値情報","municipality_code":"03501","municipality_pref":"岩手県","municipality_name":"軽米町","municipality_code_method":"nearest_centroid"},"geometry":{"type":"Point","coordinates":[141.460909,40.319939]}},{"type":"Feature","properties":{"layer_id":"cultural_facilities","name":"町営運動公園テニスコート","category":"public","address":"大字軽米6-42-2","source":"国土交通省 国土数値情報","municipality_code":"03501","municipality_pref":"岩手県","municipality_name":"軽米町","municipality_code_method":"nearest_centroid"},"geometry":{"type":"Point","coordinates":[141.460719,40.320337]}},{"type":"Feature","properties":{"layer_id":"cultural_facilities","name":"軽米町民相撲場","category":"public","address":"大字軽米12-64-1","source":"国土交通省 国土数値情報","municipality_code":"03501","municipality_pref":"岩手県","municipality_name":"軽米町","municipality_code_method":"nearest_centroid"},"geometry":{"type":"Point","coordinates":[141.45373,40.327927]}},{"type":"Feature","properties":{"layer_id":"cultural_facilities","name":"ハートフル・スポーツランド軽米町営多目的広場","category":"public","address":"大字軽米1-160-1","source":"国土交通省 国土数値情報","municipality_code":"03501","municipality_pref":"岩手県","municipality_name":"軽米町","municipality_code_method":"nearest_centroid"},"geometry":{"type":"Point","coordinates":[141.463808,40.311556]}},{"type":"Feature","properties":{"layer_id":"cultural_facilities","name":"雪谷川ダムフォリストパーク軽米","category":"public","address":"大字小軽米20-3","source":"国土交通省 国土数値情報","municipality_code":"03501","municipality_pref":"岩手県","municipality_name":"軽米町","municipality_code_method":"nearest_centroid"},"geometry":{"type":"Point","coordinates":[141.519337,40.28771]}},{"type":"Feature","properties":{"layer_id":"cultural_facilities","name":"ハートフル・スポーツランド軽米町営野球場","category":"public","address":"大字軽米1-160-1","source":"国土交通省 国土数値情報","municipality_code":"03501","municipality_pref":"岩手県","municipality_name":"軽米町","municipality_code_method":"nearest_centroid"},"geometry":{"type":"Point","coordinates":[141.460938,40.312181]}},{"type":"Feature","properties":{"layer_id":"cultural_facilities","name":"軽米町民体育館","category":"public","address":"大字軽米6-34-1","source":"国土交通省 国土数値情報","municipality_code":"03501","municipality_pref":"岩手県","municipality_name":"軽米町","municipality_code_method":"nearest_centroid"},"geometry":{"type":"Point","coordinates":[141.462628,40.322407]}},{"type":"Feature","properties":{"layer_id":"cultural_facilities","name":"軽米町Ｂ＆Ｇ海洋センター","category":"public","address":"大字軽米7-8","source":"国土交通省 国土数値情報","municipality_code":"03501","municipality_pref":"岩手県","municipality_name":"軽米町","municipality_code_method":"nearest_centroid"},"geometry":{"type":"Point","coordinates":[141.463672,40.322932]}},{"type":"Feature","properties":{"layer_id":"cultural_facilities","name":"えぞと大自然のロマンの森","category":"public","address":"大字軽米9-53-1","source":"国土交通省 国土数値情報","municipality_code":"03501","municipality_pref":"岩手県","municipality_name":"軽米町","municipality_code_method":"nearest_centroid"},"geometry":{"type":"Point","coordinates":[141.456549,40.321811]}},{"type":"Feature","properties":{"layer_id":"cultural_facilities","name":"おかりや元気館","category":"public","address":"大字軽米3-43-1","source":"国土交通省 国土数値情報","municipality_code":"03501","municipality_pref":"岩手県","municipality_name":"軽米町","municipality_code_method":"nearest_centroid"},"geometry":{"type":"Point","coordinates":[141.472244,40.31822]}},{"type":"Feature","properties":{"layer_id":"cultural_facilities","name":"軽米町立図書館","category":"public","address":"大字軽米8-54","source":"国土交通省 国土数値情報","municipality_code":"03501","municipality_pref":"岩手県","municipality_name":"軽米町","municipality_code_method":"nearest_centroid"},"geometry":{"type":"Point","coordinates":[141.46381,40.325511]}},{"type":"Feature","properties":{"layer_id":"tourism_resources","name":"瀬月内川","category":"nature","address":"河川景観 / 穿入蛇行河川","source":"国土交通省 国土数値情報","municipality_code":"03501","municipality_pref":"岩手県","municipality_name":"軽米町","municipality_code_method":"nearest_centroid","resource_code":"604"},"geometry":{"type":"Point","coordinates":[141.44813537597656,40.364402770996094]}},{"type":"Feature","properties":{"layer_id":"tourism_resources","name":"雪谷川","category":"nature","address":"河川景観 / 峡谷・渓谷","source":"国土交通省 国土数値情報","municipality_code":"03501","municipality_pref":"岩手県","municipality_name":"軽米町","municipality_code_method":"nearest_centroid","resource_code":"601"},"geometry":{"type":"Point","coordinates":[141.46493530273438,40.354591369628906]}}],"display_comment_original":"軽米町周辺には、近世村の記憶として狄塚村、山内村、晴山村などの旧村名が見える。 この地域には史跡や遺跡、寺社や信仰の場、城跡や陣屋跡に関わる場所が見え、小軽米城跡、駒板遺跡、皂角子久保VI遺跡のような地点が探索の入口になる。 現地では史跡説明板、狄塚村、山内村ゆかりの旧境石標や村の歴史案内板を、既存ピンと照らして歩くと発見しやすい。","story_enrichment":{"samurai_priority_people":[],"notable_people":[],"honorary_citizens":[],"tourism_landmarks":["晴山館址","乃木将軍愛馬雷号の墓"],"specialties":[],"food_culture":[],"historical_domains":[],"heian_place_names":[],"japan_search_support":[],"enrichment_sources":["https://ja.wikipedia.org/wiki/%E8%BB%BD%E7%B1%B3%E7%94%BA"],"enrichment_errors":[],"wikipedia_title":"軽米町","wikipedia_revision_id":"110871836","wikidata_qid":"Q972924","wikipedia_url":"https://ja.wikipedia.org/wiki/%E8%BB%BD%E7%B1%B3%E7%94%BA","japan_search_query_url":"","status":"wikipedia_ok"}}