{"type":"FeatureCollection","municipality_code":"04102","pref":"宮城県","city":"仙台市宮城野区","display_comment":"仙台市宮城野区には、地域の歴史や暮らしを伝える案内板や石碑があり、それらを手がかりに街歩きを楽しめます。 周辺には寺社や信仰の場、城跡や陣屋跡、古墳や貝塚にまつわる場所が点在し、「岩切城跡」、「小鶴城跡」、「東光寺」などを起点に歩くと、地域の歴史がぐっと見えやすくなります。 現地では石碑、地蔵、地域資料館、公民館の由緒板を既存ピンと照らし合わせながら歩くと、見落としがちな地域の物語に出会いやすくなります。 ゆかりの人物では大戸平廣吉や佐々久に注目すると、地域に残る文化や時代背景をさらに深く知るきっかけになります。 「苦竹のイチョウ（天然記念物）」や「燕沢碑」などの名所も、地域の物語を深掘りする絶好の入口です。","layer_counts":{"cafe_restaurant":27,"public_facilities":45,"cultural_facilities":31,"parks_playgrounds":161},"total_features":264,"features":[{"type":"Feature","properties":{"layer_id":"cafe_restaurant","name":"ごはんどき仙台苦竹店","category":"food","address":"宮城県仙台市宮城野区苦竹1丁目4-42","source":"厚生労働省 食品衛生申請等システム（オープンデータ）","municipality_code":"04102","municipality_pref":"宮城県","municipality_name":"仙台市宮城野区","municipality_code_method":"address_pref_city"},"geometry":{"type":"Point","coordinates":[140.9161905,38.267922999999996]}},{"type":"Feature","properties":{"layer_id":"cafe_restaurant","name":"ごはんどき仙台新港店","category":"food","address":"宮城県仙台市宮城野区中野四丁目10-11","source":"厚生労働省 食品衛生申請等システム（オープンデータ）","municipality_code":"04102","municipality_pref":"宮城県","municipality_name":"仙台市宮城野区","municipality_code_method":"address_pref_city"},"geometry":{"type":"Point","coordinates":[140.98408,38.272898]}},{"type":"Feature","properties":{"layer_id":"cafe_restaurant","name":"カフェ・バンカレラ仙台新港店","category":"food","address":"宮城県仙台市宮城野区中野四丁目10-11","source":"厚生労働省 食品衛生申請等システム（オープンデータ）","municipality_code":"04102","municipality_pref":"宮城県","municipality_name":"仙台市宮城野区","municipality_code_method":"address_pref_city"},"geometry":{"type":"Point","coordinates":[140.98408,38.272898]}},{"type":"Feature","properties":{"layer_id":"cafe_restaurant","name":"隠れ家ごはん　月の宴","category":"food","address":"宮城県仙台市宮城野区榴岡一丁目2番1号 イーストンビル　2階","source":"厚生労働省 食品衛生申請等システム（オープンデータ）","municipality_code":"04102","municipality_pref":"宮城県","municipality_name":"仙台市宮城野区","municipality_code_method":"address_pref_city"},"geometry":{"type":"Point","coordinates":[140.885066,38.2594945]}},{"type":"Feature","properties":{"layer_id":"cafe_restaurant","name":"ステーキガスト　東仙台店","category":"food","address":"宮城県仙台市宮城野区燕沢１丁目２８番２１号","source":"厚生労働省 食品衛生申請等システム（オープンデータ）","municipality_code":"04102","municipality_pref":"宮城県","municipality_name":"仙台市宮城野区","municipality_code_method":"address_pref_city"},"geometry":{"type":"Point","coordinates":[140.927028,38.283012]}},{"type":"Feature","properties":{"layer_id":"cafe_restaurant","name":"ガスト 仙台榴岡店","category":"food","address":"宮城県仙台市宮城野区榴岡５丁目１０－１４","source":"厚生労働省 食品衛生申請等システム（オープンデータ）","municipality_code":"04102","municipality_pref":"宮城県","municipality_name":"仙台市宮城野区","municipality_code_method":"address_pref_city"},"geometry":{"type":"Point","coordinates":[140.89497999999998,38.2579275]}},{"type":"Feature","properties":{"layer_id":"cafe_restaurant","name":"焼肉きんぐ仙台中野栄店","category":"food","address":"宮城県仙台市宮城野区中野字出花西16-4","source":"厚生労働省 食品衛生申請等システム（オープンデータ）","municipality_code":"04102","municipality_pref":"宮城県","municipality_name":"仙台市宮城野区","municipality_code_method":"address_pref_city"},"geometry":{"type":"Point","coordinates":[140.98596,38.280695]}},{"type":"Feature","properties":{"layer_id":"cafe_restaurant","name":"ラーメン山岡家　宮城野店","category":"food","address":"宮城県仙台市宮城野区中野三丁目7-9","source":"厚生労働省 食品衛生申請等システム（オープンデータ）","municipality_code":"04102","municipality_pref":"宮城県","municipality_name":"仙台市宮城野区","municipality_code_method":"address_pref_city"},"geometry":{"type":"Point","coordinates":[140.990428,38.276616]}},{"type":"Feature","properties":{"layer_id":"cafe_restaurant","name":"RAMEN EXPRESS 博多一風堂","category":"food","address":"宮城県仙台市宮城野区中野三丁目7-2 三井アウトレットパーク仙台港2階","source":"厚生労働省 食品衛生申請等システム（オープンデータ）","municipality_code":"04102","municipality_pref":"宮城県","municipality_name":"仙台市宮城野区","municipality_code_method":"address_pref_city"},"geometry":{"type":"Point","coordinates":[140.991731,38.274639]}},{"type":"Feature","properties":{"layer_id":"cafe_restaurant","name":"株式会社西友　高砂駅前店　若菜","category":"food","address":"宮城県仙台市宮城野区高砂一丁目１５－１","source":"厚生労働省 食品衛生申請等システム（オープンデータ）","municipality_code":"04102","municipality_pref":"宮城県","municipality_name":"仙台市宮城野区","municipality_code_method":"address_pref_city"},"geometry":{"type":"Point","coordinates":[140.96961,38.270947]}},{"type":"Feature","properties":{"layer_id":"cafe_restaurant","name":"スシローアクロスプラザ幸町店","category":"food","address":"宮城県仙台市宮城野区大梶11-1","source":"厚生労働省 食品衛生申請等システム（オープンデータ）","municipality_code":"04102","municipality_pref":"宮城県","municipality_name":"仙台市宮城野区","municipality_code_method":"address_pref_city"},"geometry":{"type":"Point","coordinates":[140.903394,38.272698]}},{"type":"Feature","properties":{"layer_id":"cafe_restaurant","name":"はま寿司　フォレオせんだい宮の杜店","category":"food","address":"宮城県仙台市宮城野区東仙台4-14-2","source":"厚生労働省 食品衛生申請等システム（オープンデータ）","municipality_code":"04102","municipality_pref":"宮城県","municipality_name":"仙台市宮城野区","municipality_code_method":"address_pref_city"},"geometry":{"type":"Point","coordinates":[140.908108,38.276435]}},{"type":"Feature","properties":{"layer_id":"cafe_restaurant","name":"すき家　仙台岩切店","category":"food","address":"宮城県仙台市宮城野区岩切字青津目8-1","source":"厚生労働省 食品衛生申請等システム（オープンデータ）","municipality_code":"04102","municipality_pref":"宮城県","municipality_name":"仙台市宮城野区","municipality_code_method":"address_pref_city"},"geometry":{"type":"Point","coordinates":[140.951553,38.305758]}},{"type":"Feature","properties":{"layer_id":"cafe_restaurant","name":"HATT（富士山８０３さ２６７１）","category":"food","address":"宮城県仙台市宮城野区宮城野2-11-6","source":"厚生労働省 食品衛生申請等システム（オープンデータ）","municipality_code":"04102","municipality_pref":"宮城県","municipality_name":"仙台市宮城野区","municipality_code_method":"address_pref_city"},"geometry":{"type":"Point","coordinates":[140.902442,38.257104]}},{"type":"Feature","properties":{"layer_id":"cafe_restaurant","name":"ジョリーパスタ　仙台中野店","category":"food","address":"宮城県仙台市宮城野区中野３－１－２","source":"厚生労働省 食品衛生申請等システム（オープンデータ）","municipality_code":"04102","municipality_pref":"宮城県","municipality_name":"仙台市宮城野区","municipality_code_method":"address_pref_city"},"geometry":{"type":"Point","coordinates":[140.984672,38.273854]}},{"type":"Feature","properties":{"layer_id":"cafe_restaurant","name":"赤から楽天モバイルパーク店","category":"food","address":"宮城県仙台市宮城野区宮城野2-11-6","source":"厚生労働省 食品衛生申請等システム（オープンデータ）","municipality_code":"04102","municipality_pref":"宮城県","municipality_name":"仙台市宮城野区","municipality_code_method":"address_pref_city"},"geometry":{"type":"Point","coordinates":[140.90327,38.258461]}},{"type":"Feature","properties":{"layer_id":"cafe_restaurant","name":"ビッグボーイ　仙台宮城野店","category":"food","address":"宮城県仙台市宮城野区宮千代1丁目1-2","source":"厚生労働省 食品衛生申請等システム（オープンデータ）","municipality_code":"04102","municipality_pref":"宮城県","municipality_name":"仙台市宮城野区","municipality_code_method":"address_pref_city"},"geometry":{"type":"Point","coordinates":[140.91075,38.252337]}},{"type":"Feature","properties":{"layer_id":"cafe_restaurant","name":"ロピア仙台ヨドバシ店","category":"food","address":"宮城県仙台市宮城野区榴岡一丁目2番13号 ヨドバシ仙台第2ビル　３階","source":"厚生労働省 食品衛生申請等システム（オープンデータ）","municipality_code":"04102","municipality_pref":"宮城県","municipality_name":"仙台市宮城野区","municipality_code_method":"address_pref_city"},"geometry":{"type":"Point","coordinates":[140.885279,38.259123]}},{"type":"Feature","properties":{"layer_id":"cafe_restaurant","name":"ロピア仙台ヨドバシ店","category":"food","address":"宮城県仙台市宮城野区榴岡一丁目2番13号 ヨドバシ仙台第2ビル　３階","source":"厚生労働省 食品衛生申請等システム（オープンデータ）","municipality_code":"04102","municipality_pref":"宮城県","municipality_name":"仙台市宮城野区","municipality_code_method":"address_pref_city"},"geometry":{"type":"Point","coordinates":[140.885279,38.259123]}},{"type":"Feature","properties":{"layer_id":"cafe_restaurant","name":"ロピア仙台ヨドバシ店","category":"food","address":"宮城県仙台市宮城野区榴岡一丁目2番13号 ヨドバシ仙台第2ビル　３階","source":"厚生労働省 食品衛生申請等システム（オープンデータ）","municipality_code":"04102","municipality_pref":"宮城県","municipality_name":"仙台市宮城野区","municipality_code_method":"address_pref_city"},"geometry":{"type":"Point","coordinates":[140.885279,38.259123]}},{"type":"Feature","properties":{"layer_id":"cafe_restaurant","name":"ココス仙台中野店","category":"food","address":"宮城県仙台市宮城野区中野1-2-20","source":"厚生労働省 食品衛生申請等システム（オープンデータ）","municipality_code":"04102","municipality_pref":"宮城県","municipality_name":"仙台市宮城野区","municipality_code_method":"address_pref_city"},"geometry":{"type":"Point","coordinates":[140.980428,38.27243]}},{"type":"Feature","properties":{"layer_id":"cafe_restaurant","name":"ミニストップ　仙台東七番丁店","category":"food","address":"宮城県仙台市宮城野区名掛丁２０６番地の２２","source":"厚生労働省 食品衛生申請等システム（オープンデータ）","municipality_code":"04102","municipality_pref":"宮城県","municipality_name":"仙台市宮城野区","municipality_code_method":"address_pref_city"},"geometry":{"type":"Point","coordinates":[140.88547,38.262584]}},{"type":"Feature","properties":{"layer_id":"cafe_restaurant","name":"アサイーボウル工房仙台店","category":"food","address":"宮城県仙台市宮城野区東仙台2丁目６－１ コーポアルカディヤ１０２","source":"厚生労働省 食品衛生申請等システム（オープンデータ）","municipality_code":"04102","municipality_pref":"宮城県","municipality_name":"仙台市宮城野区","municipality_code_method":"address_pref_city"},"geometry":{"type":"Point","coordinates":[140.915532,38.276342]}},{"type":"Feature","properties":{"layer_id":"cafe_restaurant","name":"ザ・ワンファイブダイニング","category":"food","address":"宮城県仙台市宮城野区榴岡4丁目　6-28 ザ・ワンファイブホテル２階","source":"厚生労働省 食品衛生申請等システム（オープンデータ）","municipality_code":"04102","municipality_pref":"宮城県","municipality_name":"仙台市宮城野区","municipality_code_method":"address_pref_city"},"geometry":{"type":"Point","coordinates":[140.886325,38.25764]}},{"type":"Feature","properties":{"layer_id":"cafe_restaurant","name":"丸亀製麺仙台中野栄","category":"food","address":"宮城県仙台市宮城野区出花2-70-10","source":"厚生労働省 食品衛生申請等システム（オープンデータ）","municipality_code":"04102","municipality_pref":"宮城県","municipality_name":"仙台市宮城野区","municipality_code_method":"address_pref_city"},"geometry":{"type":"Point","coordinates":[140.987268,38.280442]}},{"type":"Feature","properties":{"layer_id":"cafe_restaurant","name":"そんぽの家 仙台岩切","category":"food","address":"宮城県仙台市宮城野区岩切字青津目129-1","source":"厚生労働省 食品衛生申請等システム（オープンデータ）","municipality_code":"04102","municipality_pref":"宮城県","municipality_name":"仙台市宮城野区","municipality_code_method":"address_pref_city"},"geometry":{"type":"Point","coordinates":[140.954886,38.305701]}},{"type":"Feature","properties":{"layer_id":"cafe_restaurant","name":"ＳＯＭＰＯケア  ラヴィーレ仙台東","category":"food","address":"宮城県仙台市宮城野区苦竹1丁目9番1号","source":"厚生労働省 食品衛生申請等システム（オープンデータ）","municipality_code":"04102","municipality_pref":"宮城県","municipality_name":"仙台市宮城野区","municipality_code_method":"address_pref_city"},"geometry":{"type":"Point","coordinates":[140.917856,38.269076]}},{"type":"Feature","properties":{"layer_id":"public_facilities","name":"生涯学習支援センター","category":"public","address":"仙台市宮城野区榴岡4-1-8","source":"国土交通省 国土数値情報","municipality_code":"04102","municipality_pref":"宮城県","municipality_name":"仙台市宮城野区","municipality_code_method":"source_exact_coord"},"geometry":{"type":"Point","coordinates":[140.88702229810366,38.2591291099206]}},{"type":"Feature","properties":{"layer_id":"public_facilities","name":"鶴ケ谷コミュニティ・センター","category":"public","address":"仙台市宮城野区鶴ケ谷3-17","source":"国土交通省 国土数値情報","municipality_code":"04102","municipality_pref":"宮城県","municipality_name":"仙台市宮城野区","municipality_code_method":"source_exact_coord"},"geometry":{"type":"Point","coordinates":[140.91078058965863,38.29072049053041]}},{"type":"Feature","properties":{"layer_id":"public_facilities","name":"福室市民センター","category":"public","address":"仙台市宮城野区福室5-9-36","source":"国土交通省 国土数値情報","municipality_code":"04102","municipality_pref":"宮城県","municipality_name":"仙台市宮城野区","municipality_code_method":"source_exact_coord"},"geometry":{"type":"Point","coordinates":[140.97127885253033,38.279187949541594]}},{"type":"Feature","properties":{"layer_id":"public_facilities","name":"みやぎ産業交流センター","category":"public","address":"仙台市宮城野区港3-1-7","source":"国土交通省 国土数値情報","municipality_code":"04102","municipality_pref":"宮城県","municipality_name":"仙台市宮城野区","municipality_code_method":"source_exact_coord"},"geometry":{"type":"Point","coordinates":[140.99537482766854,38.2747073283215]}},{"type":"Feature","properties":{"layer_id":"public_facilities","name":"宮城野区中央市民センター","category":"public","address":"仙台市宮城野区五輪2-12-70","source":"国土交通省 国土数値情報","municipality_code":"04102","municipality_pref":"宮城県","municipality_name":"仙台市宮城野区","municipality_code_method":"source_exact_coord"},"geometry":{"type":"Point","coordinates":[140.91044568653044,38.265613015955545]}},{"type":"Feature","properties":{"layer_id":"public_facilities","name":"岩切市民センター","category":"public","address":"仙台市宮城野区岩切字三所南88-2","source":"国土交通省 国土数値情報","municipality_code":"04102","municipality_pref":"宮城県","municipality_name":"仙台市宮城野区","municipality_code_method":"source_exact_coord"},"geometry":{"type":"Point","coordinates":[140.94569325836036,38.300830995435035]}},{"type":"Feature","properties":{"layer_id":"public_facilities","name":"福田町地域包括支援センター","category":"public","address":"仙台市宮城野区田子字富里223","source":"国土交通省 国土数値情報","municipality_code":"04102","municipality_pref":"宮城県","municipality_name":"仙台市宮城野区","municipality_code_method":"source_exact_coord"},"geometry":{"type":"Point","coordinates":[140.9563483975148,38.27588725754492]}},{"type":"Feature","properties":{"layer_id":"public_facilities","name":"榴岡地域包括支援センター","category":"public","address":"仙台市宮城野区榴岡4-2-8テルウェル仙台ビル2F","source":"国土交通省 国土数値情報","municipality_code":"04102","municipality_pref":"宮城県","municipality_name":"仙台市宮城野区","municipality_code_method":"source_exact_coord"},"geometry":{"type":"Point","coordinates":[140.88887911114315,38.25910781193527]}},{"type":"Feature","properties":{"layer_id":"public_facilities","name":"宮城野区役所","category":"public","address":"仙台市宮城野区五輪2-12-35","source":"国土交通省 国土数値情報","municipality_code":"04102","municipality_pref":"宮城県","municipality_name":"仙台市宮城野区","municipality_code_method":"source_exact_coord"},"geometry":{"type":"Point","coordinates":[140.90986510837485,38.26623624620875]}},{"type":"Feature","properties":{"layer_id":"public_facilities","name":"鶴巻コミュニティ・センター","category":"public","address":"仙台市宮城野区福田町3-1-20","source":"国土交通省 国土数値情報","municipality_code":"04102","municipality_pref":"宮城県","municipality_name":"仙台市宮城野区","municipality_code_method":"source_exact_coord"},"geometry":{"type":"Point","coordinates":[140.96305792650423,38.26434657565094]}},{"type":"Feature","properties":{"layer_id":"public_facilities","name":"岩切東コミュニティ・センター","category":"public","address":"仙台市宮城野区岩切字青津目137-8","source":"国土交通省 国土数値情報","municipality_code":"04102","municipality_pref":"宮城県","municipality_name":"仙台市宮城野区","municipality_code_method":"source_exact_coord"},"geometry":{"type":"Point","coordinates":[140.95364290868463,38.3065104333193]}},{"type":"Feature","properties":{"layer_id":"public_facilities","name":"鶴ケ谷東コミュニティ・センター","category":"public","address":"仙台市宮城野区鶴ケ谷東1-1-50","source":"国土交通省 国土数値情報","municipality_code":"04102","municipality_pref":"宮城県","municipality_name":"仙台市宮城野区","municipality_code_method":"source_exact_coord"},"geometry":{"type":"Point","coordinates":[140.92439104014574,38.289287104106975]}},{"type":"Feature","properties":{"layer_id":"public_facilities","name":"鶴ヶ谷地域包括支援センター","category":"public","address":"仙台市宮城野区鶴ケ谷2-1-13","source":"国土交通省 国土数値情報","municipality_code":"04102","municipality_pref":"宮城県","municipality_name":"仙台市宮城野区","municipality_code_method":"source_exact_coord"},"geometry":{"type":"Point","coordinates":[140.91453807985775,38.28769910968182]}},{"type":"Feature","properties":{"layer_id":"public_facilities","name":"宮城野区文化センター","category":"public","address":"仙台市宮城野区五輪2-12-70","source":"国土交通省 国土数値情報","municipality_code":"04102","municipality_pref":"宮城県","municipality_name":"仙台市宮城野区","municipality_code_method":"source_exact_coord"},"geometry":{"type":"Point","coordinates":[140.90975295222714,38.26545494370712]}},{"type":"Feature","properties":{"layer_id":"public_facilities","name":"鶴ケ谷市民センター","category":"public","address":"仙台市宮城野区鶴ケ谷2-1-7","source":"国土交通省 国土数値情報","municipality_code":"04102","municipality_pref":"宮城県","municipality_name":"仙台市宮城野区","municipality_code_method":"source_exact_coord"},"geometry":{"type":"Point","coordinates":[140.91567897322588,38.29022956378224]}},{"type":"Feature","properties":{"layer_id":"public_facilities","name":"出花体育館","category":"public","address":"仙台市宮城野区出花1-13-7","source":"国土交通省 国土数値情報","municipality_code":"04102","municipality_pref":"宮城県","municipality_name":"仙台市宮城野区","municipality_code_method":"source_exact_coord"},"geometry":{"type":"Point","coordinates":[140.98350105730952,38.276706958510786]}},{"type":"Feature","properties":{"layer_id":"public_facilities","name":"東仙台地域包括支援センター","category":"public","address":"仙台市宮城野区新田3-28-20","source":"国土交通省 国土数値情報","municipality_code":"04102","municipality_pref":"宮城県","municipality_name":"仙台市宮城野区","municipality_code_method":"source_exact_coord"},"geometry":{"type":"Point","coordinates":[140.92811940790847,38.28024005626849]}},{"type":"Feature","properties":{"layer_id":"public_facilities","name":"宮城野地域包括支援センター","category":"public","address":"仙台市宮城野区五輪2-12-13ライオンズマンション五輪第21Ｆ","source":"国土交通省 国土数値情報","municipality_code":"04102","municipality_pref":"宮城県","municipality_name":"仙台市宮城野区","municipality_code_method":"source_exact_coord"},"geometry":{"type":"Point","coordinates":[140.90907902093096,38.26610651460568]}},{"type":"Feature","properties":{"layer_id":"public_facilities","name":"新田コミュニティ・センター","category":"public","address":"仙台市宮城野区新田2-11-30","source":"国土交通省 国土数値情報","municipality_code":"04102","municipality_pref":"宮城県","municipality_name":"仙台市宮城野区","municipality_code_method":"source_exact_coord"},"geometry":{"type":"Point","coordinates":[140.92350579125102,38.276043157676995]}},{"type":"Feature","properties":{"layer_id":"public_facilities","name":"岡田コミュニティ・センター","category":"public","address":"仙台市宮城野区蒲生字雑子袋3-14","source":"国土交通省 国土数値情報","municipality_code":"04102","municipality_pref":"宮城県","municipality_name":"仙台市宮城野区","municipality_code_method":"source_exact_coord"},"geometry":{"type":"Point","coordinates":[140.9834708445755,38.255864192242484]}},{"type":"Feature","properties":{"layer_id":"public_facilities","name":"東部市民センター","category":"public","address":"仙台市宮城野区平成1-3-27","source":"国土交通省 国土数値情報","municipality_code":"04102","municipality_pref":"宮城県","municipality_name":"仙台市宮城野区","municipality_code_method":"source_exact_coord"},"geometry":{"type":"Point","coordinates":[140.91603251927634,38.27014839736875]}},{"type":"Feature","properties":{"layer_id":"public_facilities","name":"西山コミュニティ・センター","category":"public","address":"仙台市宮城野区東仙台6-17-1","source":"国土交通省 国土数値情報","municipality_code":"04102","municipality_pref":"宮城県","municipality_name":"仙台市宮城野区","municipality_code_method":"source_exact_coord"},"geometry":{"type":"Point","coordinates":[140.9148989631011,38.28094100989857]}},{"type":"Feature","properties":{"layer_id":"public_facilities","name":"中野栄コミュニティ・センター","category":"public","address":"仙台市宮城野区栄3-11-11","source":"国土交通省 国土数値情報","municipality_code":"04102","municipality_pref":"宮城県","municipality_name":"仙台市宮城野区","municipality_code_method":"source_exact_coord"},"geometry":{"type":"Point","coordinates":[140.98148963872592,38.28255219618229]}},{"type":"Feature","properties":{"layer_id":"public_facilities","name":"枡江コミュニティ・センター","category":"public","address":"仙台市宮城野区安養寺2-2-1","source":"国土交通省 国土数値情報","municipality_code":"04102","municipality_pref":"宮城県","municipality_name":"仙台市宮城野区","municipality_code_method":"source_exact_coord"},"geometry":{"type":"Point","coordinates":[140.90600586612456,38.284290358817294]}},{"type":"Feature","properties":{"layer_id":"public_facilities","name":"榴ヶ岡市民センター","category":"public","address":"仙台市宮城野区五輪1-3-1","source":"国土交通省 国土数値情報","municipality_code":"04102","municipality_pref":"宮城県","municipality_name":"仙台市宮城野区","municipality_code_method":"source_exact_coord"},"geometry":{"type":"Point","coordinates":[140.89539019318062,38.259272098174655]}},{"type":"Feature","properties":{"layer_id":"public_facilities","name":"榴岡公園軽体育館","category":"public","address":"仙台市宮城野区五輪1-3-1","source":"国土交通省 国土数値情報","municipality_code":"04102","municipality_pref":"宮城県","municipality_name":"仙台市宮城野区","municipality_code_method":"source_exact_coord"},"geometry":{"type":"Point","coordinates":[140.89538223293295,38.25928174817632]}},{"type":"Feature","properties":{"layer_id":"public_facilities","name":"高砂市民センター","category":"public","address":"仙台市宮城野区高砂1-24-9","source":"国土交通省 国土数値情報","municipality_code":"04102","municipality_pref":"宮城県","municipality_name":"仙台市宮城野区","municipality_code_method":"source_exact_coord"},"geometry":{"type":"Point","coordinates":[140.9737669378747,38.270197867246765]}},{"type":"Feature","properties":{"layer_id":"public_facilities","name":"岩切地域包括支援センター","category":"public","address":"仙台市宮城野区岩切字稲荷14","source":"国土交通省 国土数値情報","municipality_code":"04102","municipality_pref":"宮城県","municipality_name":"仙台市宮城野区","municipality_code_method":"source_exact_coord"},"geometry":{"type":"Point","coordinates":[140.9387324185965,38.30099574349798]}},{"type":"Feature","properties":{"layer_id":"public_facilities","name":"原町コミュニティ・センター","category":"public","address":"仙台市宮城野区原町1-3-54","source":"国土交通省 国土数値情報","municipality_code":"04102","municipality_pref":"宮城県","municipality_name":"仙台市宮城野区","municipality_code_method":"source_exact_coord"},"geometry":{"type":"Point","coordinates":[140.90075602929736,38.26421361734202]}},{"type":"Feature","properties":{"layer_id":"public_facilities","name":"幸町南コミュニティ・センター","category":"public","address":"仙台市宮城野区大梶10-27","source":"国土交通省 国土数値情報","municipality_code":"04102","municipality_pref":"宮城県","municipality_name":"仙台市宮城野区","municipality_code_method":"source_exact_coord"},"geometry":{"type":"Point","coordinates":[140.90313466989622,38.272471358072636]}},{"type":"Feature","properties":{"layer_id":"public_facilities","name":"東仙台コミュニティ・センター","category":"public","address":"仙台市宮城野区東仙台5-32-17","source":"国土交通省 国土数値情報","municipality_code":"04102","municipality_pref":"宮城県","municipality_name":"仙台市宮城野区","municipality_code_method":"source_exact_coord"},"geometry":{"type":"Point","coordinates":[140.91502587221098,38.277994995810715]}},{"type":"Feature","properties":{"layer_id":"public_facilities","name":"鶴ヶ谷コミュニティ・センター","category":"public","address":"仙台市宮城野区鶴ヶ谷3-17","source":"国土交通省 国土数値情報","municipality_code":"04102","municipality_pref":"宮城県","municipality_name":"仙台市宮城野区","municipality_code_method":"source_exact_coord"},"geometry":{"type":"Point","coordinates":[140.90991478935652,38.291490332869095]}},{"type":"Feature","properties":{"layer_id":"public_facilities","name":"榴ケ岡市民センター","category":"public","address":"仙台市宮城野区五輪1-3-1","source":"国土交通省 国土数値情報","municipality_code":"04102","municipality_pref":"宮城県","municipality_name":"仙台市宮城野区","municipality_code_method":"source_exact_coord"},"geometry":{"type":"Point","coordinates":[140.89526283916894,38.2594066683557]}},{"type":"Feature","properties":{"layer_id":"public_facilities","name":"高砂証明発行センター","category":"public","address":"仙台市宮城野区福田町2-5-16","source":"国土交通省 国土数値情報","municipality_code":"04102","municipality_pref":"宮城県","municipality_name":"仙台市宮城野区","municipality_code_method":"source_exact_coord"},"geometry":{"type":"Point","coordinates":[140.9609755367828,38.26886182697667]}},{"type":"Feature","properties":{"layer_id":"public_facilities","name":"燕沢コミュニティ・センター","category":"public","address":"仙台市宮城野区燕沢東3-9-2","source":"国土交通省 国土数値情報","municipality_code":"04102","municipality_pref":"宮城県","municipality_name":"仙台市宮城野区","municipality_code_method":"source_exact_coord"},"geometry":{"type":"Point","coordinates":[140.9299987632083,38.28926277242387]}},{"type":"Feature","properties":{"layer_id":"public_facilities","name":"宮城野体育館","category":"public","address":"仙台市宮城野区新田東4-1-1","source":"国土交通省 国土数値情報","municipality_code":"04102","municipality_pref":"宮城県","municipality_name":"仙台市宮城野区","municipality_code_method":"source_exact_coord"},"geometry":{"type":"Point","coordinates":[140.9364950230057,38.277902612668164]}},{"type":"Feature","properties":{"layer_id":"public_facilities","name":"幸町市民センター","category":"public","address":"仙台市宮城野区幸町3-13-13","source":"国土交通省 国土数値情報","municipality_code":"04102","municipality_pref":"宮城県","municipality_name":"仙台市宮城野区","municipality_code_method":"source_exact_coord"},"geometry":{"type":"Point","coordinates":[140.90339540631402,38.276798879560474]}},{"type":"Feature","properties":{"layer_id":"public_facilities","name":"仙台サンプラザ","category":"public","address":"仙台市宮城野区榴岡5-11-1","source":"国土交通省 国土数値情報","municipality_code":"04102","municipality_pref":"宮城県","municipality_name":"仙台市宮城野区","municipality_code_method":"source_exact_coord"},"geometry":{"type":"Point","coordinates":[140.89413496663758,38.25782871115022]}},{"type":"Feature","properties":{"layer_id":"public_facilities","name":"田子市民センター","category":"public","address":"仙台市宮城野区田子2-4-25","source":"国土交通省 国土数値情報","municipality_code":"04102","municipality_pref":"宮城県","municipality_name":"仙台市宮城野区","municipality_code_method":"source_exact_coord"},"geometry":{"type":"Point","coordinates":[140.9605889749997,38.27966739912192]}},{"type":"Feature","properties":{"layer_id":"public_facilities","name":"岩切証明発行センター","category":"public","address":"仙台市宮城野区岩切字三所南88-2","source":"国土交通省 国土数値情報","municipality_code":"04102","municipality_pref":"宮城県","municipality_name":"仙台市宮城野区","municipality_code_method":"source_exact_coord"},"geometry":{"type":"Point","coordinates":[140.94563937630244,38.30073350720554]}},{"type":"Feature","properties":{"layer_id":"public_facilities","name":"宮城野コミュニティ・センター","category":"public","address":"仙台市宮城野区萩野町2-13-10","source":"国土交通省 国土数値情報","municipality_code":"04102","municipality_pref":"宮城県","municipality_name":"仙台市宮城野区","municipality_code_method":"source_exact_coord"},"geometry":{"type":"Point","coordinates":[140.91443531258759,38.25621142793153]}},{"type":"Feature","properties":{"layer_id":"public_facilities","name":"燕沢地域包括支援センター","category":"public","address":"仙台市宮城野区燕沢東3-8-10","source":"国土交通省 国土数値情報","municipality_code":"04102","municipality_pref":"宮城県","municipality_name":"仙台市宮城野区","municipality_code_method":"source_exact_coord"},"geometry":{"type":"Point","coordinates":[140.93141983944233,38.288181271521374]}},{"type":"Feature","properties":{"layer_id":"public_facilities","name":"鶴ヶ谷市民センター","category":"public","address":"仙台市宮城野区鶴ケ谷2-1-7","source":"国土交通省 国土数値情報","municipality_code":"04102","municipality_pref":"宮城県","municipality_name":"仙台市宮城野区","municipality_code_method":"source_exact_coord"},"geometry":{"type":"Point","coordinates":[140.91462309489847,38.289452022079246]}},{"type":"Feature","properties":{"layer_id":"public_facilities","name":"中央市民センター","category":"public","address":"仙台市宮城野区五輪2-12-70","source":"国土交通省 国土数値情報","municipality_code":"04102","municipality_pref":"宮城県","municipality_name":"仙台市宮城野区","municipality_code_method":"source_exact_coord"},"geometry":{"type":"Point","coordinates":[140.9104501270216,38.265727914963115]}},{"type":"Feature","properties":{"layer_id":"public_facilities","name":"高砂地域包括支援センター","category":"public","address":"仙台市宮城野区高砂1-24-9","source":"国土交通省 国土数値情報","municipality_code":"04102","municipality_pref":"宮城県","municipality_name":"仙台市宮城野区","municipality_code_method":"source_exact_coord"},"geometry":{"type":"Point","coordinates":[140.97414299884488,38.27037176320088]}},{"type":"Feature","properties":{"layer_id":"cultural_facilities","name":"田子市民センター","category":"public","address":"田子2-4-25","source":"国土交通省 国土数値情報","municipality_code":"04102","municipality_pref":"宮城県","municipality_name":"仙台市宮城野区","municipality_code_method":"nearest_centroid"},"geometry":{"type":"Point","coordinates":[140.960546,38.279586]}},{"type":"Feature","properties":{"layer_id":"cultural_facilities","name":"宮城野体育館（元気フィールド仙台）","category":"public","address":"新田東4-1-1","source":"国土交通省 国土数値情報","municipality_code":"04102","municipality_pref":"宮城県","municipality_name":"仙台市宮城野区","municipality_code_method":"nearest_centroid"},"geometry":{"type":"Point","coordinates":[140.93701,38.2777]}},{"type":"Feature","properties":{"layer_id":"cultural_facilities","name":"仙台市宮城野図書館","category":"public","address":"五輪2-12-70","source":"国土交通省 国土数値情報","municipality_code":"04102","municipality_pref":"宮城県","municipality_name":"仙台市宮城野区","municipality_code_method":"nearest_centroid"},"geometry":{"type":"Point","coordinates":[140.909614,38.265569]}},{"type":"Feature","properties":{"layer_id":"cultural_facilities","name":"宮城野区中央市民センター","category":"public","address":"五輪2-12-70","source":"国土交通省 国土数値情報","municipality_code":"04102","municipality_pref":"宮城県","municipality_name":"仙台市宮城野区","municipality_code_method":"nearest_centroid"},"geometry":{"type":"Point","coordinates":[140.91000585659805,38.26565335607609]}},{"type":"Feature","properties":{"layer_id":"cultural_facilities","name":"扇町一丁目公園野球場（休館中）","category":"public","address":"扇町1-4","source":"国土交通省 国土数値情報","municipality_code":"04102","municipality_pref":"宮城県","municipality_name":"仙台市宮城野区","municipality_code_method":"nearest_centroid"},"geometry":{"type":"Point","coordinates":[140.942973,38.271504]}},{"type":"Feature","properties":{"layer_id":"cultural_facilities","name":"鶴ケ谷温水プール","category":"public","address":"鶴ケ谷8-19-1","source":"国土交通省 国土数値情報","municipality_code":"04102","municipality_pref":"宮城県","municipality_name":"仙台市宮城野区","municipality_code_method":"nearest_centroid"},"geometry":{"type":"Point","coordinates":[140.917397,38.289695]}},{"type":"Feature","properties":{"layer_id":"cultural_facilities","name":"岩切市民センター","category":"public","address":"岩切字三所南88-2","source":"国土交通省 国土数値情報","municipality_code":"04102","municipality_pref":"宮城県","municipality_name":"仙台市宮城野区","municipality_code_method":"nearest_centroid"},"geometry":{"type":"Point","coordinates":[140.94564334811213,38.300796435342335]}},{"type":"Feature","properties":{"layer_id":"cultural_facilities","name":"鶴ヶ谷市民センター（休止中）","category":"public","address":"鶴ヶ谷8-19-1","source":"国土交通省 国土数値情報","municipality_code":"04102","municipality_pref":"宮城県","municipality_name":"仙台市宮城野区","municipality_code_method":"nearest_centroid"},"geometry":{"type":"Point","coordinates":[140.91772963491613,38.290049749245924]}},{"type":"Feature","properties":{"layer_id":"cultural_facilities","name":"高砂市民センター","category":"public","address":"高砂1-24-9","source":"国土交通省 国土数値情報","municipality_code":"04102","municipality_pref":"宮城県","municipality_name":"仙台市宮城野区","municipality_code_method":"nearest_centroid"},"geometry":{"type":"Point","coordinates":[140.97368224904648,38.270399712046896]}},{"type":"Feature","properties":{"layer_id":"cultural_facilities","name":"田子市民センター","category":"public","address":"田子2-4-25","source":"国土交通省 国土数値情報","municipality_code":"04102","municipality_pref":"宮城県","municipality_name":"仙台市宮城野区","municipality_code_method":"nearest_centroid"},"geometry":{"type":"Point","coordinates":[140.9606529556636,38.27942741228516]}},{"type":"Feature","properties":{"layer_id":"cultural_facilities","name":"宮城野体育館（元気フィールド仙台）","category":"public","address":"新田東4-1-1","source":"国土交通省 国土数値情報","municipality_code":"04102","municipality_pref":"宮城県","municipality_name":"仙台市宮城野区","municipality_code_method":"nearest_centroid"},"geometry":{"type":"Point","coordinates":[140.93537,38.278092]}},{"type":"Feature","properties":{"layer_id":"cultural_facilities","name":"東部市民センター","category":"public","address":"平成1-3-27","source":"国土交通省 国土数値情報","municipality_code":"04102","municipality_pref":"宮城県","municipality_name":"仙台市宮城野区","municipality_code_method":"nearest_centroid"},"geometry":{"type":"Point","coordinates":[140.915887,38.270177]}},{"type":"Feature","properties":{"layer_id":"cultural_facilities","name":"仙台市民球場（元気フィールド仙台）","category":"public","address":"新田東4-1-1","source":"国土交通省 国土数値情報","municipality_code":"04102","municipality_pref":"宮城県","municipality_name":"仙台市宮城野区","municipality_code_method":"nearest_centroid"},"geometry":{"type":"Point","coordinates":[140.936178,38.279678]}},{"type":"Feature","properties":{"layer_id":"cultural_facilities","name":"宮城野体育館（元気フィールド仙台）","category":"public","address":"新田東4-1-1","source":"国土交通省 国土数値情報","municipality_code":"04102","municipality_pref":"宮城県","municipality_name":"仙台市宮城野区","municipality_code_method":"nearest_centroid"},"geometry":{"type":"Point","coordinates":[140.936689,38.278008]}},{"type":"Feature","properties":{"layer_id":"cultural_facilities","name":"扇町四丁目公園運動場広場（休館中）","category":"public","address":"扇町4-9","source":"国土交通省 国土数値情報","municipality_code":"04102","municipality_pref":"宮城県","municipality_name":"仙台市宮城野区","municipality_code_method":"nearest_centroid"},"geometry":{"type":"Point","coordinates":[140.952509,38.26504]}},{"type":"Feature","properties":{"layer_id":"cultural_facilities","name":"宮城野体育館（元気フィールド仙台）","category":"public","address":"新田東4-1-1","source":"国土交通省 国土数値情報","municipality_code":"04102","municipality_pref":"宮城県","municipality_name":"仙台市宮城野区","municipality_code_method":"nearest_centroid"},"geometry":{"type":"Point","coordinates":[140.93701,38.278027]}},{"type":"Feature","properties":{"layer_id":"cultural_facilities","name":"幸町市民センター","category":"public","address":"幸町3-13-13","source":"国土交通省 国土数値情報","municipality_code":"04102","municipality_pref":"宮城県","municipality_name":"仙台市宮城野区","municipality_code_method":"nearest_centroid"},"geometry":{"type":"Point","coordinates":[140.90316104433637,38.27674634188723]}},{"type":"Feature","properties":{"layer_id":"cultural_facilities","name":"宮城野体育館（元気フィールド仙台）","category":"public","address":"新田東4-1-1","source":"国土交通省 国土数値情報","municipality_code":"04102","municipality_pref":"宮城県","municipality_name":"仙台市宮城野区","municipality_code_method":"nearest_centroid"},"geometry":{"type":"Point","coordinates":[140.93701,38.277877]}},{"type":"Feature","properties":{"layer_id":"cultural_facilities","name":"東部市民センター","category":"public","address":"平成1-3-27","source":"国土交通省 国土数値情報","municipality_code":"04102","municipality_pref":"宮城県","municipality_name":"仙台市宮城野区","municipality_code_method":"nearest_centroid"},"geometry":{"type":"Point","coordinates":[140.91599395566362,38.270121020493406]}},{"type":"Feature","properties":{"layer_id":"cultural_facilities","name":"宮城野体育館温水プール（元気フィールド仙台）","category":"public","address":"新田東4-1-1","source":"国土交通省 国土数値情報","municipality_code":"04102","municipality_pref":"宮城県","municipality_name":"仙台市宮城野区","municipality_code_method":"nearest_centroid"},"geometry":{"type":"Point","coordinates":[140.936677,38.277859]}},{"type":"Feature","properties":{"layer_id":"cultural_facilities","name":"高砂市民センター","category":"public","address":"高砂1-24-9","source":"国土交通省 国土数値情報","municipality_code":"04102","municipality_pref":"宮城県","municipality_name":"仙台市宮城野区","municipality_code_method":"nearest_centroid"},"geometry":{"type":"Point","coordinates":[140.973729784897,38.270278424782994]}},{"type":"Feature","properties":{"layer_id":"cultural_facilities","name":"幸町市民センター","category":"public","address":"幸町3-13-13","source":"国土交通省 国土数値情報","municipality_code":"04102","municipality_pref":"宮城県","municipality_name":"仙台市宮城野区","municipality_code_method":"nearest_centroid"},"geometry":{"type":"Point","coordinates":[140.90316104433637,38.276653050597105]}},{"type":"Feature","properties":{"layer_id":"cultural_facilities","name":"鶴ヶ谷市民センター（休止中）","category":"public","address":"鶴ヶ谷8-19-1","source":"国土交通省 国土数値情報","municipality_code":"04102","municipality_pref":"宮城県","municipality_name":"仙台市宮城野区","municipality_code_method":"nearest_centroid"},"geometry":{"type":"Point","coordinates":[140.91783659057975,38.290021767180306]}},{"type":"Feature","properties":{"layer_id":"cultural_facilities","name":"宮城野体育館（元気フィールド仙台）","category":"public","address":"新田東4-1-1","source":"国土交通省 国土数値情報","municipality_code":"04102","municipality_pref":"宮城県","municipality_name":"仙台市宮城野区","municipality_code_method":"nearest_centroid"},"geometry":{"type":"Point","coordinates":[140.936511,38.278446]}},{"type":"Feature","properties":{"layer_id":"cultural_facilities","name":"宮城野区中央市民センター","category":"public","address":"五輪2-12-70","source":"国土交通省 国土数値情報","municipality_code":"04102","municipality_pref":"宮城県","municipality_name":"仙台市宮城野区","municipality_code_method":"nearest_centroid"},"geometry":{"type":"Point","coordinates":[140.91007716037373,38.26550406880361]}},{"type":"Feature","properties":{"layer_id":"cultural_facilities","name":"岩切市民センター","category":"public","address":"岩切字三所南88-2","source":"国土交通省 国土数値情報","municipality_code":"04102","municipality_pref":"宮城県","municipality_name":"仙台市宮城野区","municipality_code_method":"nearest_centroid"},"geometry":{"type":"Point","coordinates":[140.945679,38.300927]}},{"type":"Feature","properties":{"layer_id":"cultural_facilities","name":"高砂庭球場","category":"public","address":"福田町1-15-1","source":"国土交通省 国土数値情報","municipality_code":"04102","municipality_pref":"宮城県","municipality_name":"仙台市宮城野区","municipality_code_method":"nearest_centroid"},"geometry":{"type":"Point","coordinates":[140.96154,38.27351]}},{"type":"Feature","properties":{"layer_id":"cultural_facilities","name":"福室市民センター","category":"public","address":"福室5-9-36","source":"国土交通省 国土数値情報","municipality_code":"04102","municipality_pref":"宮城県","municipality_name":"仙台市宮城野区","municipality_code_method":"nearest_centroid"},"geometry":{"type":"Point","coordinates":[140.9712184198131,38.27933754654426]}},{"type":"Feature","properties":{"layer_id":"cultural_facilities","name":"福室市民センター","category":"public","address":"福室5-9-36","source":"国土交通省 国土数値情報","municipality_code":"04102","municipality_pref":"宮城県","municipality_name":"仙台市宮城野区","municipality_code_method":"nearest_centroid"},"geometry":{"type":"Point","coordinates":[140.97133725943937,38.279356203299464]}},{"type":"Feature","properties":{"layer_id":"cultural_facilities","name":"扇町四丁目公園運動場広場（休館中）","category":"public","address":"扇町4-9","source":"国土交通省 国土数値情報","municipality_code":"04102","municipality_pref":"宮城県","municipality_name":"仙台市宮城野区","municipality_code_method":"nearest_centroid"},"geometry":{"type":"Point","coordinates":[140.952509,38.26463]}},{"type":"Feature","properties":{"layer_id":"cultural_facilities","name":"新田東総合運動場（トレーニングルーム）","category":"public","address":"新田東4-1-1","source":"国土交通省 国土数値情報","municipality_code":"04102","municipality_pref":"宮城県","municipality_name":"仙台市宮城野区","municipality_code_method":"nearest_centroid"},"geometry":{"type":"Point","coordinates":[140.936677,38.27771]}},{"type":"Feature","properties":{"layer_id":"parks_playgrounds","name":"田中前二番公園","category":"nature","address":"仙台市","source":"国土交通省 国土数値情報","municipality_code":"04102","municipality_pref":"宮城県","municipality_name":"仙台市宮城野区","municipality_code_method":"nearest_centroid"},"geometry":{"type":"Point","coordinates":[140.97004351,38.26088746]}},{"type":"Feature","properties":{"layer_id":"parks_playgrounds","name":"三所北２号公園","category":"nature","address":"仙台市","source":"国土交通省 国土数値情報","municipality_code":"04102","municipality_pref":"宮城県","municipality_name":"仙台市宮城野区","municipality_code_method":"nearest_centroid"},"geometry":{"type":"Point","coordinates":[140.94658342,38.30296892]}},{"type":"Feature","properties":{"layer_id":"parks_playgrounds","name":"岩切駅南公園","category":"nature","address":"仙台市","source":"国土交通省 国土数値情報","municipality_code":"04102","municipality_pref":"宮城県","municipality_name":"仙台市宮城野区","municipality_code_method":"nearest_centroid"},"geometry":{"type":"Point","coordinates":[140.95141939,38.30180263]}},{"type":"Feature","properties":{"layer_id":"parks_playgrounds","name":"西田公園","category":"nature","address":"仙台市","source":"国土交通省 国土数値情報","municipality_code":"04102","municipality_pref":"宮城県","municipality_name":"仙台市宮城野区","municipality_code_method":"nearest_centroid"},"geometry":{"type":"Point","coordinates":[140.9259029,38.27922335]}},{"type":"Feature","properties":{"layer_id":"parks_playgrounds","name":"鶴ケ谷菖蒲沢２号公園","category":"nature","address":"仙台市","source":"国土交通省 国土数値情報","municipality_code":"04102","municipality_pref":"宮城県","municipality_name":"仙台市宮城野区","municipality_code_method":"nearest_centroid"},"geometry":{"type":"Point","coordinates":[140.92507238,38.2941022]}},{"type":"Feature","properties":{"layer_id":"parks_playgrounds","name":"鴻巣２号公園","category":"nature","address":"仙台市","source":"国土交通省 国土数値情報","municipality_code":"04102","municipality_pref":"宮城県","municipality_name":"仙台市宮城野区","municipality_code_method":"nearest_centroid"},"geometry":{"type":"Point","coordinates":[140.95375134,38.29526824]}},{"type":"Feature","properties":{"layer_id":"parks_playgrounds","name":"小鶴公園","category":"nature","address":"仙台市","source":"国土交通省 国土数値情報","municipality_code":"04102","municipality_pref":"宮城県","municipality_name":"仙台市宮城野区","municipality_code_method":"nearest_centroid"},"geometry":{"type":"Point","coordinates":[140.92815254,38.27669905]}},{"type":"Feature","properties":{"layer_id":"parks_playgrounds","name":"田中東一番公園","category":"nature","address":"仙台市","source":"国土交通省 国土数値情報","municipality_code":"04102","municipality_pref":"宮城県","municipality_name":"仙台市宮城野区","municipality_code_method":"nearest_centroid"},"geometry":{"type":"Point","coordinates":[140.97188453,38.26135789]}},{"type":"Feature","properties":{"layer_id":"parks_playgrounds","name":"幸町５号公園","category":"nature","address":"仙台市","source":"国土交通省 国土数値情報","municipality_code":"04102","municipality_pref":"宮城県","municipality_name":"仙台市宮城野区","municipality_code_method":"nearest_centroid"},"geometry":{"type":"Point","coordinates":[140.89375152,38.27588856]}},{"type":"Feature","properties":{"layer_id":"parks_playgrounds","name":"原町四丁目公園","category":"nature","address":"仙台市","source":"国土交通省 国土数値情報","municipality_code":"04102","municipality_pref":"宮城県","municipality_name":"仙台市宮城野区","municipality_code_method":"nearest_centroid"},"geometry":{"type":"Point","coordinates":[140.90045948,38.26929569]}},{"type":"Feature","properties":{"layer_id":"parks_playgrounds","name":"安養寺二丁目東公園","category":"nature","address":"仙台市","source":"国土交通省 国土数値情報","municipality_code":"04102","municipality_pref":"宮城県","municipality_name":"仙台市宮城野区","municipality_code_method":"nearest_centroid"},"geometry":{"type":"Point","coordinates":[140.90502814,38.28352441]}},{"type":"Feature","properties":{"layer_id":"parks_playgrounds","name":"東仙台三丁目公園","category":"nature","address":"仙台市","source":"国土交通省 国土数値情報","municipality_code":"04102","municipality_pref":"宮城県","municipality_name":"仙台市宮城野区","municipality_code_method":"nearest_centroid"},"geometry":{"type":"Point","coordinates":[140.91056884,38.27239687]}},{"type":"Feature","properties":{"layer_id":"parks_playgrounds","name":"鶴巻一丁目西公園","category":"nature","address":"仙台市","source":"国土交通省 国土数値情報","municipality_code":"04102","municipality_pref":"宮城県","municipality_name":"仙台市宮城野区","municipality_code_method":"nearest_centroid"},"geometry":{"type":"Point","coordinates":[140.96385682,38.26274918]}},{"type":"Feature","properties":{"layer_id":"parks_playgrounds","name":"鶴ケ谷菖蒲沢公園","category":"nature","address":"仙台市","source":"国土交通省 国土数値情報","municipality_code":"04102","municipality_pref":"宮城県","municipality_name":"仙台市宮城野区","municipality_code_method":"nearest_centroid"},"geometry":{"type":"Point","coordinates":[140.92790471,38.29365653]}},{"type":"Feature","properties":{"layer_id":"parks_playgrounds","name":"高砂二丁目緑地","category":"nature","address":"仙台市","source":"国土交通省 国土数値情報","municipality_code":"04102","municipality_pref":"宮城県","municipality_name":"仙台市宮城野区","municipality_code_method":"nearest_centroid"},"geometry":{"type":"Point","coordinates":[140.96813871,38.27065699]}},{"type":"Feature","properties":{"layer_id":"parks_playgrounds","name":"福田町四丁目公園","category":"nature","address":"仙台市","source":"国土交通省 国土数値情報","municipality_code":"04102","municipality_pref":"宮城県","municipality_name":"仙台市宮城野区","municipality_code_method":"nearest_centroid"},"geometry":{"type":"Point","coordinates":[140.96076058,38.26403525]}},{"type":"Feature","properties":{"layer_id":"parks_playgrounds","name":"岩切昭和北公園","category":"nature","address":"仙台市","source":"国土交通省 国土数値情報","municipality_code":"04102","municipality_pref":"宮城県","municipality_name":"仙台市宮城野区","municipality_code_method":"nearest_centroid"},"geometry":{"type":"Point","coordinates":[140.9315895,38.30985193]}},{"type":"Feature","properties":{"layer_id":"parks_playgrounds","name":"鴻巣３号公園","category":"nature","address":"仙台市","source":"国土交通省 国土数値情報","municipality_code":"04102","municipality_pref":"宮城県","municipality_name":"仙台市宮城野区","municipality_code_method":"nearest_centroid"},"geometry":{"type":"Point","coordinates":[140.95442635,38.29618818]}},{"type":"Feature","properties":{"layer_id":"parks_playgrounds","name":"鶴ケ谷四丁目西公園","category":"nature","address":"仙台市","source":"国土交通省 国土数値情報","municipality_code":"04102","municipality_pref":"宮城県","municipality_name":"仙台市宮城野区","municipality_code_method":"nearest_centroid"},"geometry":{"type":"Point","coordinates":[140.90722501,38.29170583]}},{"type":"Feature","properties":{"layer_id":"parks_playgrounds","name":"田子二丁目公園","category":"nature","address":"仙台市","source":"国土交通省 国土数値情報","municipality_code":"04102","municipality_pref":"宮城県","municipality_name":"仙台市宮城野区","municipality_code_method":"nearest_centroid"},"geometry":{"type":"Point","coordinates":[140.9610549,38.27990152]}},{"type":"Feature","properties":{"layer_id":"parks_playgrounds","name":"幸町４号公園","category":"nature","address":"仙台市","source":"国土交通省 国土数値情報","municipality_code":"04102","municipality_pref":"宮城県","municipality_name":"仙台市宮城野区","municipality_code_method":"nearest_centroid"},"geometry":{"type":"Point","coordinates":[140.8978121,38.27434425]}},{"type":"Feature","properties":{"layer_id":"parks_playgrounds","name":"若宮前公園","category":"nature","address":"仙台市","source":"国土交通省 国土数値情報","municipality_code":"04102","municipality_pref":"宮城県","municipality_name":"仙台市宮城野区","municipality_code_method":"nearest_centroid"},"geometry":{"type":"Point","coordinates":[140.94649076,38.30578124]}},{"type":"Feature","properties":{"layer_id":"parks_playgrounds","name":"与兵衛沼公園","category":"nature","address":"仙台市","source":"国土交通省 国土数値情報","municipality_code":"04102","municipality_pref":"宮城県","municipality_name":"仙台市宮城野区","municipality_code_method":"nearest_centroid"},"geometry":{"type":"Point","coordinates":[140.90067,38.28369]}},{"type":"Feature","properties":{"layer_id":"parks_playgrounds","name":"仙石西公園","category":"nature","address":"仙台市","source":"国土交通省 国土数値情報","municipality_code":"04102","municipality_pref":"宮城県","municipality_name":"仙台市宮城野区","municipality_code_method":"nearest_centroid"},"geometry":{"type":"Point","coordinates":[140.94595767,38.27312341]}},{"type":"Feature","properties":{"layer_id":"parks_playgrounds","name":"鶴ケ谷二丁目公園","category":"nature","address":"仙台市","source":"国土交通省 国土数値情報","municipality_code":"04102","municipality_pref":"宮城県","municipality_name":"仙台市宮城野区","municipality_code_method":"nearest_centroid"},"geometry":{"type":"Point","coordinates":[140.91398463,38.28822222]}},{"type":"Feature","properties":{"layer_id":"parks_playgrounds","name":"菖蒲沢東公園","category":"nature","address":"仙台市","source":"国土交通省 国土数値情報","municipality_code":"04102","municipality_pref":"宮城県","municipality_name":"仙台市宮城野区","municipality_code_method":"nearest_centroid"},"geometry":{"type":"Point","coordinates":[140.93369673,38.2945529]}},{"type":"Feature","properties":{"layer_id":"parks_playgrounds","name":"鶴ケ谷一丁目東公園","category":"nature","address":"仙台市","source":"国土交通省 国土数値情報","municipality_code":"04102","municipality_pref":"宮城県","municipality_name":"仙台市宮城野区","municipality_code_method":"nearest_centroid"},"geometry":{"type":"Point","coordinates":[140.91224883,38.28581097]}},{"type":"Feature","properties":{"layer_id":"parks_playgrounds","name":"燕沢二丁目緑地","category":"nature","address":"仙台市","source":"国土交通省 国土数値情報","municipality_code":"04102","municipality_pref":"宮城県","municipality_name":"仙台市宮城野区","municipality_code_method":"nearest_centroid"},"geometry":{"type":"Point","coordinates":[140.92019217,38.28461422]}},{"type":"Feature","properties":{"layer_id":"parks_playgrounds","name":"中野向田公園","category":"nature","address":"仙台市","source":"国土交通省 国土数値情報","municipality_code":"04102","municipality_pref":"宮城県","municipality_name":"仙台市宮城野区","municipality_code_method":"nearest_centroid"},"geometry":{"type":"Point","coordinates":[140.97434511,38.26594612]}},{"type":"Feature","properties":{"layer_id":"parks_playgrounds","name":"蒲生土手前２号公園","category":"nature","address":"仙台市","source":"国土交通省 国土数値情報","municipality_code":"04102","municipality_pref":"宮城県","municipality_name":"仙台市宮城野区","municipality_code_method":"nearest_centroid"},"geometry":{"type":"Point","coordinates":[140.97675456,38.26578982]}},{"type":"Feature","properties":{"layer_id":"parks_playgrounds","name":"若宮前２号公園","category":"nature","address":"仙台市","source":"国土交通省 国土数値情報","municipality_code":"04102","municipality_pref":"宮城県","municipality_name":"仙台市宮城野区","municipality_code_method":"nearest_centroid"},"geometry":{"type":"Point","coordinates":[140.94892813,38.30567244]}},{"type":"Feature","properties":{"layer_id":"parks_playgrounds","name":"新田東五丁目南公園","category":"nature","address":"仙台市","source":"国土交通省 国土数値情報","municipality_code":"04102","municipality_pref":"宮城県","municipality_name":"仙台市宮城野区","municipality_code_method":"nearest_centroid"},"geometry":{"type":"Point","coordinates":[140.93261016,38.28042705]}},{"type":"Feature","properties":{"layer_id":"parks_playgrounds","name":"銀杏町緑地","category":"nature","address":"仙台市","source":"国土交通省 国土数値情報","municipality_code":"04102","municipality_pref":"宮城県","municipality_name":"仙台市宮城野区","municipality_code_method":"nearest_centroid"},"geometry":{"type":"Point","coordinates":[140.91165028,38.2638493]}},{"type":"Feature","properties":{"layer_id":"parks_playgrounds","name":"三所北公園","category":"nature","address":"仙台市","source":"国土交通省 国土数値情報","municipality_code":"04102","municipality_pref":"宮城県","municipality_name":"仙台市宮城野区","municipality_code_method":"nearest_centroid"},"geometry":{"type":"Point","coordinates":[140.94369157,38.30312187]}},{"type":"Feature","properties":{"layer_id":"parks_playgrounds","name":"幸町三丁目公園","category":"nature","address":"仙台市","source":"国土交通省 国土数値情報","municipality_code":"04102","municipality_pref":"宮城県","municipality_name":"仙台市宮城野区","municipality_code_method":"nearest_centroid"},"geometry":{"type":"Point","coordinates":[140.90237812,38.2777785]}},{"type":"Feature","properties":{"layer_id":"parks_playgrounds","name":"燕沢中央公園","category":"nature","address":"仙台市","source":"国土交通省 国土数値情報","municipality_code":"04102","municipality_pref":"宮城県","municipality_name":"仙台市宮城野区","municipality_code_method":"nearest_centroid"},"geometry":{"type":"Point","coordinates":[140.93077638,38.28887796]}},{"type":"Feature","properties":{"layer_id":"parks_playgrounds","name":"安養寺二丁目公園","category":"nature","address":"仙台市","source":"国土交通省 国土数値情報","municipality_code":"04102","municipality_pref":"宮城県","municipality_name":"仙台市宮城野区","municipality_code_method":"nearest_centroid"},"geometry":{"type":"Point","coordinates":[140.90329818,38.28431545]}},{"type":"Feature","properties":{"layer_id":"parks_playgrounds","name":"案内公園","category":"nature","address":"仙台市","source":"国土交通省 国土数値情報","municipality_code":"04102","municipality_pref":"宮城県","municipality_name":"仙台市宮城野区","municipality_code_method":"nearest_centroid"},"geometry":{"type":"Point","coordinates":[140.9136098,38.27489045]}},{"type":"Feature","properties":{"layer_id":"parks_playgrounds","name":"田子要害西公園","category":"nature","address":"仙台市","source":"国土交通省 国土数値情報","municipality_code":"04102","municipality_pref":"宮城県","municipality_name":"仙台市宮城野区","municipality_code_method":"nearest_centroid"},"geometry":{"type":"Point","coordinates":[140.95946313,38.27746353]}},{"type":"Feature","properties":{"layer_id":"parks_playgrounds","name":"鶴ケ谷四丁目２号公園","category":"nature","address":"仙台市","source":"国土交通省 国土数値情報","municipality_code":"04102","municipality_pref":"宮城県","municipality_name":"仙台市宮城野区","municipality_code_method":"nearest_centroid"},"geometry":{"type":"Point","coordinates":[140.92602449,38.29516817]}},{"type":"Feature","properties":{"layer_id":"parks_playgrounds","name":"安養寺下西公園","category":"nature","address":"仙台市","source":"国土交通省 国土数値情報","municipality_code":"04102","municipality_pref":"宮城県","municipality_name":"仙台市宮城野区","municipality_code_method":"nearest_centroid"},"geometry":{"type":"Point","coordinates":[140.91317954,38.28131242]}},{"type":"Feature","properties":{"layer_id":"parks_playgrounds","name":"七北川岩切大橋緑地","category":"nature","address":"仙台市","source":"国土交通省 国土数値情報","municipality_code":"04102","municipality_pref":"宮城県","municipality_name":"仙台市宮城野区","municipality_code_method":"nearest_centroid"},"geometry":{"type":"Point","coordinates":[140.94660312,38.30453682]}},{"type":"Feature","properties":{"layer_id":"parks_playgrounds","name":"田子小原公園","category":"nature","address":"仙台市","source":"国土交通省 国土数値情報","municipality_code":"04102","municipality_pref":"宮城県","municipality_name":"仙台市宮城野区","municipality_code_method":"nearest_centroid"},"geometry":{"type":"Point","coordinates":[140.96237261,38.28461316]}},{"type":"Feature","properties":{"layer_id":"parks_playgrounds","name":"鴻巣４号公園","category":"nature","address":"仙台市","source":"国土交通省 国土数値情報","municipality_code":"04102","municipality_pref":"宮城県","municipality_name":"仙台市宮城野区","municipality_code_method":"nearest_centroid"},"geometry":{"type":"Point","coordinates":[140.95387383,38.2960859]}},{"type":"Feature","properties":{"layer_id":"parks_playgrounds","name":"苗代沢公園","category":"nature","address":"仙台市","source":"国土交通省 国土数値情報","municipality_code":"04102","municipality_pref":"宮城県","municipality_name":"仙台市宮城野区","municipality_code_method":"nearest_centroid"},"geometry":{"type":"Point","coordinates":[140.9207511,38.28107711]}},{"type":"Feature","properties":{"layer_id":"parks_playgrounds","name":"三所北４号公園","category":"nature","address":"仙台市","source":"国土交通省 国土数値情報","municipality_code":"04102","municipality_pref":"宮城県","municipality_name":"仙台市宮城野区","municipality_code_method":"nearest_centroid"},"geometry":{"type":"Point","coordinates":[140.94505244,38.30327483]}},{"type":"Feature","properties":{"layer_id":"parks_playgrounds","name":"福室上町東公園","category":"nature","address":"仙台市","source":"国土交通省 国土数値情報","municipality_code":"04102","municipality_pref":"宮城県","municipality_name":"仙台市宮城野区","municipality_code_method":"nearest_centroid"},"geometry":{"type":"Point","coordinates":[140.96999117,38.28011672]}},{"type":"Feature","properties":{"layer_id":"parks_playgrounds","name":"幸町３号公園","category":"nature","address":"仙台市","source":"国土交通省 国土数値情報","municipality_code":"04102","municipality_pref":"宮城県","municipality_name":"仙台市宮城野区","municipality_code_method":"nearest_centroid"},"geometry":{"type":"Point","coordinates":[140.89647407,38.27685171]}},{"type":"Feature","properties":{"layer_id":"parks_playgrounds","name":"原町カッコウ公園","category":"nature","address":"仙台市","source":"国土交通省 国土数値情報","municipality_code":"04102","municipality_pref":"宮城県","municipality_name":"仙台市宮城野区","municipality_code_method":"nearest_centroid"},"geometry":{"type":"Point","coordinates":[140.90600957,38.26581221]}},{"type":"Feature","properties":{"layer_id":"parks_playgrounds","name":"平成二丁目東公園","category":"nature","address":"仙台市","source":"国土交通省 国土数値情報","municipality_code":"04102","municipality_pref":"宮城県","municipality_name":"仙台市宮城野区","municipality_code_method":"nearest_centroid"},"geometry":{"type":"Point","coordinates":[140.9170087,38.271938]}},{"type":"Feature","properties":{"layer_id":"parks_playgrounds","name":"鶴ケ谷五丁目公園","category":"nature","address":"仙台市","source":"国土交通省 国土数値情報","municipality_code":"04102","municipality_pref":"宮城県","municipality_name":"仙台市宮城野区","municipality_code_method":"nearest_centroid"},"geometry":{"type":"Point","coordinates":[140.91353179,38.29444713]}},{"type":"Feature","properties":{"layer_id":"parks_playgrounds","name":"鶴ケ谷八丁目公園","category":"nature","address":"仙台市","source":"国土交通省 国土数値情報","municipality_code":"04102","municipality_pref":"宮城県","municipality_name":"仙台市宮城野区","municipality_code_method":"nearest_centroid"},"geometry":{"type":"Point","coordinates":[140.91714041,38.28704825]}},{"type":"Feature","properties":{"layer_id":"parks_playgrounds","name":"蒲生土手前３号公園","category":"nature","address":"仙台市","source":"国土交通省 国土数値情報","municipality_code":"04102","municipality_pref":"宮城県","municipality_name":"仙台市宮城野区","municipality_code_method":"nearest_centroid"},"geometry":{"type":"Point","coordinates":[140.9762353,38.26514608]}},{"type":"Feature","properties":{"layer_id":"parks_playgrounds","name":"新田東五丁目北公園","category":"nature","address":"仙台市","source":"国土交通省 国土数値情報","municipality_code":"04102","municipality_pref":"宮城県","municipality_name":"仙台市宮城野区","municipality_code_method":"nearest_centroid"},"geometry":{"type":"Point","coordinates":[140.92945098,38.28124919]}},{"type":"Feature","properties":{"layer_id":"parks_playgrounds","name":"福田町南一丁目公園","category":"nature","address":"仙台市","source":"国土交通省 国土数値情報","municipality_code":"04102","municipality_pref":"宮城県","municipality_name":"仙台市宮城野区","municipality_code_method":"nearest_centroid"},"geometry":{"type":"Point","coordinates":[140.96068258,38.25942369]}},{"type":"Feature","properties":{"layer_id":"parks_playgrounds","name":"安養寺三丁目公園","category":"nature","address":"仙台市","source":"国土交通省 国土数値情報","municipality_code":"04102","municipality_pref":"宮城県","municipality_name":"仙台市宮城野区","municipality_code_method":"nearest_centroid"},"geometry":{"type":"Point","coordinates":[140.91124928,38.28316114]}},{"type":"Feature","properties":{"layer_id":"parks_playgrounds","name":"町浦公園","category":"nature","address":"仙台市","source":"国土交通省 国土数値情報","municipality_code":"04102","municipality_pref":"宮城県","municipality_name":"仙台市宮城野区","municipality_code_method":"nearest_centroid"},"geometry":{"type":"Point","coordinates":[140.95827065,38.26913582]}},{"type":"Feature","properties":{"layer_id":"parks_playgrounds","name":"田子要害東公園","category":"nature","address":"仙台市","source":"国土交通省 国土数値情報","municipality_code":"04102","municipality_pref":"宮城県","municipality_name":"仙台市宮城野区","municipality_code_method":"nearest_centroid"},"geometry":{"type":"Point","coordinates":[140.96288401,38.27862138]}},{"type":"Feature","properties":{"layer_id":"parks_playgrounds","name":"燕沢東二丁目公園","category":"nature","address":"仙台市","source":"国土交通省 国土数値情報","municipality_code":"04102","municipality_pref":"宮城県","municipality_name":"仙台市宮城野区","municipality_code_method":"nearest_centroid"},"geometry":{"type":"Point","coordinates":[140.93248865,38.28723358]}},{"type":"Feature","properties":{"layer_id":"parks_playgrounds","name":"燕沢二丁目公園","category":"nature","address":"仙台市","source":"国土交通省 国土数値情報","municipality_code":"04102","municipality_pref":"宮城県","municipality_name":"仙台市宮城野区","municipality_code_method":"nearest_centroid"},"geometry":{"type":"Point","coordinates":[140.91793215,38.28308466]}},{"type":"Feature","properties":{"layer_id":"parks_playgrounds","name":"田子鳥井２号公園","category":"nature","address":"仙台市","source":"国土交通省 国土数値情報","municipality_code":"04102","municipality_pref":"宮城県","municipality_name":"仙台市宮城野区","municipality_code_method":"nearest_centroid"},"geometry":{"type":"Point","coordinates":[140.95672045,38.294309]}},{"type":"Feature","properties":{"layer_id":"parks_playgrounds","name":"福田町砂押公園","category":"nature","address":"仙台市","source":"国土交通省 国土数値情報","municipality_code":"04102","municipality_pref":"宮城県","municipality_name":"仙台市宮城野区","municipality_code_method":"nearest_centroid"},"geometry":{"type":"Point","coordinates":[140.96473845,38.26623174]}},{"type":"Feature","properties":{"layer_id":"parks_playgrounds","name":"若葉公園","category":"nature","address":"仙台市","source":"国土交通省 国土数値情報","municipality_code":"04102","municipality_pref":"宮城県","municipality_name":"仙台市宮城野区","municipality_code_method":"nearest_centroid"},"geometry":{"type":"Point","coordinates":[140.89632569,38.28719278]}},{"type":"Feature","properties":{"layer_id":"parks_playgrounds","name":"原町六丁目公園","category":"nature","address":"仙台市","source":"国土交通省 国土数値情報","municipality_code":"04102","municipality_pref":"宮城県","municipality_name":"仙台市宮城野区","municipality_code_method":"nearest_centroid"},"geometry":{"type":"Point","coordinates":[140.911237,38.27042343]}},{"type":"Feature","properties":{"layer_id":"parks_playgrounds","name":"扇町六丁目公園","category":"nature","address":"仙台市","source":"国土交通省 国土数値情報","municipality_code":"04102","municipality_pref":"宮城県","municipality_name":"仙台市宮城野区","municipality_code_method":"nearest_centroid"},"geometry":{"type":"Point","coordinates":[140.95852434,38.26621962]}},{"type":"Feature","properties":{"layer_id":"parks_playgrounds","name":"七北川田子緑地","category":"nature","address":"仙台市","source":"国土交通省 国土数値情報","municipality_code":"04102","municipality_pref":"宮城県","municipality_name":"仙台市宮城野区","municipality_code_method":"nearest_centroid"},"geometry":{"type":"Point","coordinates":[140.95957911,38.29211855]}},{"type":"Feature","properties":{"layer_id":"parks_playgrounds","name":"平成一丁目南公園","category":"nature","address":"仙台市","source":"国土交通省 国土数値情報","municipality_code":"04102","municipality_pref":"宮城県","municipality_name":"仙台市宮城野区","municipality_code_method":"nearest_centroid"},"geometry":{"type":"Point","coordinates":[140.91504029,38.26939511]}},{"type":"Feature","properties":{"layer_id":"parks_playgrounds","name":"燕沢東一丁目きただ公園","category":"nature","address":"仙台市","source":"国土交通省 国土数値情報","municipality_code":"04102","municipality_pref":"宮城県","municipality_name":"仙台市宮城野区","municipality_code_method":"nearest_centroid"},"geometry":{"type":"Point","coordinates":[140.9351075,38.28751539]}},{"type":"Feature","properties":{"layer_id":"parks_playgrounds","name":"燕沢二丁目北公園","category":"nature","address":"仙台市","source":"国土交通省 国土数値情報","municipality_code":"04102","municipality_pref":"宮城県","municipality_name":"仙台市宮城野区","municipality_code_method":"nearest_centroid"},"geometry":{"type":"Point","coordinates":[140.91499169,38.28547459]}},{"type":"Feature","properties":{"layer_id":"parks_playgrounds","name":"新田公園","category":"nature","address":"仙台市","source":"国土交通省 国土数値情報","municipality_code":"04102","municipality_pref":"宮城県","municipality_name":"仙台市宮城野区","municipality_code_method":"nearest_centroid"},"geometry":{"type":"Point","coordinates":[140.92768541,38.27383624]}},{"type":"Feature","properties":{"layer_id":"parks_playgrounds","name":"高砂公園","category":"nature","address":"仙台市","source":"国土交通省 国土数値情報","municipality_code":"04102","municipality_pref":"宮城県","municipality_name":"仙台市宮城野区","municipality_code_method":"nearest_centroid"},"geometry":{"type":"Point","coordinates":[140.96745508,38.27071075]}},{"type":"Feature","properties":{"layer_id":"parks_playgrounds","name":"東仙台六丁目公園","category":"nature","address":"仙台市","source":"国土交通省 国土数値情報","municipality_code":"04102","municipality_pref":"宮城県","municipality_name":"仙台市宮城野区","municipality_code_method":"nearest_centroid"},"geometry":{"type":"Point","coordinates":[140.91532373,38.28025684]}},{"type":"Feature","properties":{"layer_id":"parks_playgrounds","name":"鶴ケ谷東公園","category":"nature","address":"仙台市","source":"国土交通省 国土数値情報","municipality_code":"04102","municipality_pref":"宮城県","municipality_name":"仙台市宮城野区","municipality_code_method":"nearest_centroid"},"geometry":{"type":"Point","coordinates":[140.9317441,38.29601486]}},{"type":"Feature","properties":{"layer_id":"parks_playgrounds","name":"鶴巻一丁目東公園","category":"nature","address":"仙台市","source":"国土交通省 国土数値情報","municipality_code":"04102","municipality_pref":"宮城県","municipality_name":"仙台市宮城野区","municipality_code_method":"nearest_centroid"},"geometry":{"type":"Point","coordinates":[140.96784661,38.26404576]}},{"type":"Feature","properties":{"layer_id":"parks_playgrounds","name":"日の出町公園","category":"nature","address":"仙台市","source":"国土交通省 国土数値情報","municipality_code":"04102","municipality_pref":"宮城県","municipality_name":"仙台市宮城野区","municipality_code_method":"nearest_centroid"},"geometry":{"type":"Point","coordinates":[140.93298,38.26343]}},{"type":"Feature","properties":{"layer_id":"parks_playgrounds","name":"三所北３号公園","category":"nature","address":"仙台市","source":"国土交通省 国土数値情報","municipality_code":"04102","municipality_pref":"宮城県","municipality_name":"仙台市宮城野区","municipality_code_method":"nearest_centroid"},"geometry":{"type":"Point","coordinates":[140.9443234,38.3034469]}},{"type":"Feature","properties":{"layer_id":"parks_playgrounds","name":"安養寺上町公園","category":"nature","address":"仙台市","source":"国土交通省 国土数値情報","municipality_code":"04102","municipality_pref":"宮城県","municipality_name":"仙台市宮城野区","municipality_code_method":"nearest_centroid"},"geometry":{"type":"Point","coordinates":[140.89823642,38.29025204]}},{"type":"Feature","properties":{"layer_id":"parks_playgrounds","name":"鶴ケ谷東三丁目公園","category":"nature","address":"仙台市","source":"国土交通省 国土数値情報","municipality_code":"04102","municipality_pref":"宮城県","municipality_name":"仙台市宮城野区","municipality_code_method":"nearest_centroid"},"geometry":{"type":"Point","coordinates":[140.93061745,38.29300767]}},{"type":"Feature","properties":{"layer_id":"parks_playgrounds","name":"小田原三丁目西公園","category":"nature","address":"仙台市","source":"国土交通省 国土数値情報","municipality_code":"04102","municipality_pref":"宮城県","municipality_name":"仙台市宮城野区","municipality_code_method":"nearest_centroid"},"geometry":{"type":"Point","coordinates":[140.89364625,38.26727099]}},{"type":"Feature","properties":{"layer_id":"parks_playgrounds","name":"白鳥一丁目公園","category":"nature","address":"仙台市","source":"国土交通省 国土数値情報","municipality_code":"04102","municipality_pref":"宮城県","municipality_name":"仙台市宮城野区","municipality_code_method":"nearest_centroid"},"geometry":{"type":"Point","coordinates":[140.975259,38.26547562]}},{"type":"Feature","properties":{"layer_id":"parks_playgrounds","name":"安養寺一丁目公園","category":"nature","address":"仙台市","source":"国土交通省 国土数値情報","municipality_code":"04102","municipality_pref":"宮城県","municipality_name":"仙台市宮城野区","municipality_code_method":"nearest_centroid"},"geometry":{"type":"Point","coordinates":[140.90053738,38.287647]}},{"type":"Feature","properties":{"layer_id":"parks_playgrounds","name":"幸町公園","category":"nature","address":"仙台市","source":"国土交通省 国土数値情報","municipality_code":"04102","municipality_pref":"宮城県","municipality_name":"仙台市宮城野区","municipality_code_method":"nearest_centroid"},"geometry":{"type":"Point","coordinates":[140.89309349,38.27479306]}},{"type":"Feature","properties":{"layer_id":"parks_playgrounds","name":"仙石北公園","category":"nature","address":"仙台市","source":"国土交通省 国土数値情報","municipality_code":"04102","municipality_pref":"宮城県","municipality_name":"仙台市宮城野区","municipality_code_method":"nearest_centroid"},"geometry":{"type":"Point","coordinates":[140.95005852,38.27415586]}},{"type":"Feature","properties":{"layer_id":"parks_playgrounds","name":"畑中２号公園","category":"nature","address":"仙台市","source":"国土交通省 国土数値情報","municipality_code":"04102","municipality_pref":"宮城県","municipality_name":"仙台市宮城野区","municipality_code_method":"nearest_centroid"},"geometry":{"type":"Point","coordinates":[140.93959354,38.3036324]}},{"type":"Feature","properties":{"layer_id":"parks_playgrounds","name":"幸町一丁目公園","category":"nature","address":"仙台市","source":"国土交通省 国土数値情報","municipality_code":"04102","municipality_pref":"宮城県","municipality_name":"仙台市宮城野区","municipality_code_method":"nearest_centroid"},"geometry":{"type":"Point","coordinates":[140.89326629,38.27776944]}},{"type":"Feature","properties":{"layer_id":"parks_playgrounds","name":"福室上町北公園","category":"nature","address":"仙台市","source":"国土交通省 国土数値情報","municipality_code":"04102","municipality_pref":"宮城県","municipality_name":"仙台市宮城野区","municipality_code_method":"nearest_centroid"},"geometry":{"type":"Point","coordinates":[140.96864904,38.28168894]}},{"type":"Feature","properties":{"layer_id":"parks_playgrounds","name":"福住町公園","category":"nature","address":"仙台市","source":"国土交通省 国土数値情報","municipality_code":"04102","municipality_pref":"宮城県","municipality_name":"仙台市宮城野区","municipality_code_method":"nearest_centroid"},"geometry":{"type":"Point","coordinates":[140.95298462,38.27319791]}},{"type":"Feature","properties":{"layer_id":"parks_playgrounds","name":"新田東二丁目公園","category":"nature","address":"仙台市","source":"国土交通省 国土数値情報","municipality_code":"04102","municipality_pref":"宮城県","municipality_name":"仙台市宮城野区","municipality_code_method":"nearest_centroid"},"geometry":{"type":"Point","coordinates":[140.9315652,38.27551334]}},{"type":"Feature","properties":{"layer_id":"parks_playgrounds","name":"新田東中央公園","category":"nature","address":"仙台市","source":"国土交通省 国土数値情報","municipality_code":"04102","municipality_pref":"宮城県","municipality_name":"仙台市宮城野区","municipality_code_method":"nearest_centroid"},"geometry":{"type":"Point","coordinates":[140.93324,38.2778]}},{"type":"Feature","properties":{"layer_id":"parks_playgrounds","name":"小鶴一丁目北公園","category":"nature","address":"仙台市","source":"国土交通省 国土数値情報","municipality_code":"04102","municipality_pref":"宮城県","municipality_name":"仙台市宮城野区","municipality_code_method":"nearest_centroid"},"geometry":{"type":"Point","coordinates":[140.92581629,38.28614017]}},{"type":"Feature","properties":{"layer_id":"parks_playgrounds","name":"安養寺下東公園","category":"nature","address":"仙台市","source":"国土交通省 国土数値情報","municipality_code":"04102","municipality_pref":"宮城県","municipality_name":"仙台市宮城野区","municipality_code_method":"nearest_centroid"},"geometry":{"type":"Point","coordinates":[140.9164618,38.28078048]}},{"type":"Feature","properties":{"layer_id":"parks_playgrounds","name":"鶴ケ谷東一丁目公園","category":"nature","address":"仙台市","source":"国土交通省 国土数値情報","municipality_code":"04102","municipality_pref":"宮城県","municipality_name":"仙台市宮城野区","municipality_code_method":"nearest_centroid"},"geometry":{"type":"Point","coordinates":[140.92636471,38.28926025]}},{"type":"Feature","properties":{"layer_id":"parks_playgrounds","name":"幸町２号公園","category":"nature","address":"仙台市","source":"国土交通省 国土数値情報","municipality_code":"04102","municipality_pref":"宮城県","municipality_name":"仙台市宮城野区","municipality_code_method":"nearest_centroid"},"geometry":{"type":"Point","coordinates":[140.8958679,38.27545837]}},{"type":"Feature","properties":{"layer_id":"parks_playgrounds","name":"岩切水分公園","category":"nature","address":"仙台市","source":"国土交通省 国土数値情報","municipality_code":"04102","municipality_pref":"宮城県","municipality_name":"仙台市宮城野区","municipality_code_method":"nearest_centroid"},"geometry":{"type":"Point","coordinates":[140.93727718,38.30161276]}},{"type":"Feature","properties":{"layer_id":"parks_playgrounds","name":"七北川岩切緑地","category":"nature","address":"仙台市","source":"国土交通省 国土数値情報","municipality_code":"04102","municipality_pref":"宮城県","municipality_name":"仙台市宮城野区","municipality_code_method":"nearest_centroid"},"geometry":{"type":"Point","coordinates":[140.949694,38.30176439]}},{"type":"Feature","properties":{"layer_id":"parks_playgrounds","name":"鶴ケ谷六丁目東公園","category":"nature","address":"仙台市","source":"国土交通省 国土数値情報","municipality_code":"04102","municipality_pref":"宮城県","municipality_name":"仙台市宮城野区","municipality_code_method":"nearest_centroid"},"geometry":{"type":"Point","coordinates":[140.92674883,38.29085047]}},{"type":"Feature","properties":{"layer_id":"parks_playgrounds","name":"福室上町南公園","category":"nature","address":"仙台市","source":"国土交通省 国土数値情報","municipality_code":"04102","municipality_pref":"宮城県","municipality_name":"仙台市宮城野区","municipality_code_method":"nearest_centroid"},"geometry":{"type":"Point","coordinates":[140.96885747,38.27864305]}},{"type":"Feature","properties":{"layer_id":"parks_playgrounds","name":"仙石南公園","category":"nature","address":"仙台市","source":"国土交通省 国土数値情報","municipality_code":"04102","municipality_pref":"宮城県","municipality_name":"仙台市宮城野区","municipality_code_method":"nearest_centroid"},"geometry":{"type":"Point","coordinates":[140.94879513,38.27242225]}},{"type":"Feature","properties":{"layer_id":"parks_playgrounds","name":"鶴ケ谷東二丁目東公園","category":"nature","address":"仙台市","source":"国土交通省 国土数値情報","municipality_code":"04102","municipality_pref":"宮城県","municipality_name":"仙台市宮城野区","municipality_code_method":"nearest_centroid"},"geometry":{"type":"Point","coordinates":[140.926146,38.29184138]}},{"type":"Feature","properties":{"layer_id":"parks_playgrounds","name":"高砂緑地","category":"nature","address":"仙台市","source":"国土交通省 国土数値情報","municipality_code":"04102","municipality_pref":"宮城県","municipality_name":"仙台市宮城野区","municipality_code_method":"nearest_centroid"},"geometry":{"type":"Point","coordinates":[140.97258222,38.27204603]}},{"type":"Feature","properties":{"layer_id":"parks_playgrounds","name":"田子袋河原公園","category":"nature","address":"仙台市","source":"国土交通省 国土数値情報","municipality_code":"04102","municipality_pref":"宮城県","municipality_name":"仙台市宮城野区","municipality_code_method":"nearest_centroid"},"geometry":{"type":"Point","coordinates":[140.95799824,38.29106917]}},{"type":"Feature","properties":{"layer_id":"parks_playgrounds","name":"扇町一丁目公園","category":"nature","address":"仙台市","source":"国土交通省 国土数値情報","municipality_code":"04102","municipality_pref":"宮城県","municipality_name":"仙台市宮城野区","municipality_code_method":"nearest_centroid"},"geometry":{"type":"Point","coordinates":[140.94264779,38.27124227]}},{"type":"Feature","properties":{"layer_id":"parks_playgrounds","name":"高砂二丁目向田公園","category":"nature","address":"仙台市","source":"国土交通省 国土数値情報","municipality_code":"04102","municipality_pref":"宮城県","municipality_name":"仙台市宮城野区","municipality_code_method":"nearest_centroid"},"geometry":{"type":"Point","coordinates":[140.97023875,38.26802296]}},{"type":"Feature","properties":{"layer_id":"parks_playgrounds","name":"小鶴二丁目公園","category":"nature","address":"仙台市","source":"国土交通省 国土数値情報","municipality_code":"04102","municipality_pref":"宮城県","municipality_name":"仙台市宮城野区","municipality_code_method":"nearest_centroid"},"geometry":{"type":"Point","coordinates":[140.93236714,38.28535988]}},{"type":"Feature","properties":{"layer_id":"parks_playgrounds","name":"鶴ケ谷七丁目南公園","category":"nature","address":"仙台市","source":"国土交通省 国土数値情報","municipality_code":"04102","municipality_pref":"宮城県","municipality_name":"仙台市宮城野区","municipality_code_method":"nearest_centroid"},"geometry":{"type":"Point","coordinates":[140.91931157,38.28665656]}},{"type":"Feature","properties":{"layer_id":"parks_playgrounds","name":"大堤公園","category":"nature","address":"仙台市","source":"国土交通省 国土数値情報","municipality_code":"04102","municipality_pref":"宮城県","municipality_name":"仙台市宮城野区","municipality_code_method":"nearest_centroid"},"geometry":{"type":"Point","coordinates":[140.90345815,38.28765702]}},{"type":"Feature","properties":{"layer_id":"parks_playgrounds","name":"鶴ケ谷山沢公園","category":"nature","address":"仙台市","source":"国土交通省 国土数値情報","municipality_code":"04102","municipality_pref":"宮城県","municipality_name":"仙台市宮城野区","municipality_code_method":"nearest_centroid"},"geometry":{"type":"Point","coordinates":[140.91356969,38.29658561]}},{"type":"Feature","properties":{"layer_id":"parks_playgrounds","name":"清水沼三丁目公園","category":"nature","address":"仙台市","source":"国土交通省 国土数値情報","municipality_code":"04102","municipality_pref":"宮城県","municipality_name":"仙台市宮城野区","municipality_code_method":"nearest_centroid"},"geometry":{"type":"Point","coordinates":[140.90150444,38.26668014]}},{"type":"Feature","properties":{"layer_id":"parks_playgrounds","name":"高砂一丁目公園","category":"nature","address":"仙台市","source":"国土交通省 国土数値情報","municipality_code":"04102","municipality_pref":"宮城県","municipality_name":"仙台市宮城野区","municipality_code_method":"nearest_centroid"},"geometry":{"type":"Point","coordinates":[140.97260406,38.27070833]}},{"type":"Feature","properties":{"layer_id":"parks_playgrounds","name":"川北公園","category":"nature","address":"仙台市","source":"国土交通省 国土数値情報","municipality_code":"04102","municipality_pref":"宮城県","municipality_name":"仙台市宮城野区","municipality_code_method":"nearest_centroid"},"geometry":{"type":"Point","coordinates":[140.92857051,38.27248221]}},{"type":"Feature","properties":{"layer_id":"parks_playgrounds","name":"燕沢三丁目２号公園","category":"nature","address":"仙台市","source":"国土交通省 国土数値情報","municipality_code":"04102","municipality_pref":"宮城県","municipality_name":"仙台市宮城野区","municipality_code_method":"nearest_centroid"},"geometry":{"type":"Point","coordinates":[140.92214522,38.28733249]}},{"type":"Feature","properties":{"layer_id":"parks_playgrounds","name":"鶴ケ谷東二丁目公園","category":"nature","address":"仙台市","source":"国土交通省 国土数値情報","municipality_code":"04102","municipality_pref":"宮城県","municipality_name":"仙台市宮城野区","municipality_code_method":"nearest_centroid"},"geometry":{"type":"Point","coordinates":[140.92563842,38.29295391]}},{"type":"Feature","properties":{"layer_id":"parks_playgrounds","name":"海道下公園","category":"nature","address":"仙台市","source":"国土交通省 国土数値情報","municipality_code":"04102","municipality_pref":"宮城県","municipality_name":"仙台市宮城野区","municipality_code_method":"nearest_centroid"},"geometry":{"type":"Point","coordinates":[140.91124116,38.2717197]}},{"type":"Feature","properties":{"layer_id":"parks_playgrounds","name":"七北川鶴巻緑地","category":"nature","address":"仙台市","source":"国土交通省 国土数値情報","municipality_code":"04102","municipality_pref":"宮城県","municipality_name":"仙台市宮城野区","municipality_code_method":"nearest_centroid"},"geometry":{"type":"Point","coordinates":[140.96901356,38.26476819]}},{"type":"Feature","properties":{"layer_id":"parks_playgrounds","name":"山崎東公園","category":"nature","address":"仙台市","source":"国土交通省 国土数値情報","municipality_code":"04102","municipality_pref":"宮城県","municipality_name":"仙台市宮城野区","municipality_code_method":"nearest_centroid"},"geometry":{"type":"Point","coordinates":[140.93405323,38.29239612]}},{"type":"Feature","properties":{"layer_id":"parks_playgrounds","name":"鶴ケ谷一丁目西公園","category":"nature","address":"仙台市","source":"国土交通省 国土数値情報","municipality_code":"04102","municipality_pref":"宮城県","municipality_name":"仙台市宮城野区","municipality_code_method":"nearest_centroid"},"geometry":{"type":"Point","coordinates":[140.90486854,38.28840501]}},{"type":"Feature","properties":{"layer_id":"parks_playgrounds","name":"東河原公園","category":"nature","address":"仙台市","source":"国土交通省 国土数値情報","municipality_code":"04102","municipality_pref":"宮城県","municipality_name":"仙台市宮城野区","municipality_code_method":"nearest_centroid"},"geometry":{"type":"Point","coordinates":[140.9542454,38.29936357]}},{"type":"Feature","properties":{"layer_id":"parks_playgrounds","name":"鶴ケ谷舘下公園","category":"nature","address":"仙台市","source":"国土交通省 国土数値情報","municipality_code":"04102","municipality_pref":"宮城県","municipality_name":"仙台市宮城野区","municipality_code_method":"nearest_centroid"},"geometry":{"type":"Point","coordinates":[140.91964325,38.29760521]}},{"type":"Feature","properties":{"layer_id":"parks_playgrounds","name":"福室二丁目公園","category":"nature","address":"仙台市","source":"国土交通省 国土数値情報","municipality_code":"04102","municipality_pref":"宮城県","municipality_name":"仙台市宮城野区","municipality_code_method":"nearest_centroid"},"geometry":{"type":"Point","coordinates":[140.96471222,38.27274102]}},{"type":"Feature","properties":{"layer_id":"parks_playgrounds","name":"鶴ケ谷三丁目公園","category":"nature","address":"仙台市","source":"国土交通省 国土数値情報","municipality_code":"04102","municipality_pref":"宮城県","municipality_name":"仙台市宮城野区","municipality_code_method":"nearest_centroid"},"geometry":{"type":"Point","coordinates":[140.90858025,38.28959313]}},{"type":"Feature","properties":{"layer_id":"parks_playgrounds","name":"鴻巣１号公園","category":"nature","address":"仙台市","source":"国土交通省 国土数値情報","municipality_code":"04102","municipality_pref":"宮城県","municipality_name":"仙台市宮城野区","municipality_code_method":"nearest_centroid"},"geometry":{"type":"Point","coordinates":[140.94924751,38.29790896]}},{"type":"Feature","properties":{"layer_id":"parks_playgrounds","name":"田子鳥井公園","category":"nature","address":"仙台市","source":"国土交通省 国土数値情報","municipality_code":"04102","municipality_pref":"宮城県","municipality_name":"仙台市宮城野区","municipality_code_method":"nearest_centroid"},"geometry":{"type":"Point","coordinates":[140.95793529,38.29285185]}},{"type":"Feature","properties":{"layer_id":"parks_playgrounds","name":"高砂駅西公園","category":"nature","address":"仙台市","source":"国土交通省 国土数値情報","municipality_code":"04102","municipality_pref":"宮城県","municipality_name":"仙台市宮城野区","municipality_code_method":"nearest_centroid"},"geometry":{"type":"Point","coordinates":[140.9651184,38.27161447]}},{"type":"Feature","properties":{"layer_id":"parks_playgrounds","name":"鶴ケ谷東二丁目緑地","category":"nature","address":"仙台市","source":"国土交通省 国土数値情報","municipality_code":"04102","municipality_pref":"宮城県","municipality_name":"仙台市宮城野区","municipality_code_method":"nearest_centroid"},"geometry":{"type":"Point","coordinates":[140.92643762,38.29268264]}},{"type":"Feature","properties":{"layer_id":"parks_playgrounds","name":"高砂一丁目西公園","category":"nature","address":"仙台市","source":"国土交通省 国土数値情報","municipality_code":"04102","municipality_pref":"宮城県","municipality_name":"仙台市宮城野区","municipality_code_method":"nearest_centroid"},"geometry":{"type":"Point","coordinates":[140.96983132,38.2703898]}},{"type":"Feature","properties":{"layer_id":"parks_playgrounds","name":"吉ヶ沢東公園","category":"nature","address":"仙台市","source":"国土交通省 国土数値情報","municipality_code":"04102","municipality_pref":"宮城県","municipality_name":"仙台市宮城野区","municipality_code_method":"nearest_centroid"},"geometry":{"type":"Point","coordinates":[140.93146873,38.28627204]}},{"type":"Feature","properties":{"layer_id":"parks_playgrounds","name":"山崎西２号公園","category":"nature","address":"仙台市","source":"国土交通省 国土数値情報","municipality_code":"04102","municipality_pref":"宮城県","municipality_name":"仙台市宮城野区","municipality_code_method":"nearest_centroid"},"geometry":{"type":"Point","coordinates":[140.93468211,38.29402216]}},{"type":"Feature","properties":{"layer_id":"parks_playgrounds","name":"燕沢公園","category":"nature","address":"仙台市","source":"国土交通省 国土数値情報","municipality_code":"04102","municipality_pref":"宮城県","municipality_name":"仙台市宮城野区","municipality_code_method":"nearest_centroid"},"geometry":{"type":"Point","coordinates":[140.91844758,38.28016686]}},{"type":"Feature","properties":{"layer_id":"parks_playgrounds","name":"畑中東公園","category":"nature","address":"仙台市","source":"国土交通省 国土数値情報","municipality_code":"04102","municipality_pref":"宮城県","municipality_name":"仙台市宮城野区","municipality_code_method":"nearest_centroid"},"geometry":{"type":"Point","coordinates":[140.94061343,38.30310199]}},{"type":"Feature","properties":{"layer_id":"parks_playgrounds","name":"清水沼二丁目公園","category":"nature","address":"仙台市","source":"国土交通省 国土数値情報","municipality_code":"04102","municipality_pref":"宮城県","municipality_name":"仙台市宮城野区","municipality_code_method":"nearest_centroid"},"geometry":{"type":"Point","coordinates":[140.89952722,38.26762912]}},{"type":"Feature","properties":{"layer_id":"parks_playgrounds","name":"安養寺一丁目南公園","category":"nature","address":"仙台市","source":"国土交通省 国土数値情報","municipality_code":"04102","municipality_pref":"宮城県","municipality_name":"仙台市宮城野区","municipality_code_method":"nearest_centroid"},"geometry":{"type":"Point","coordinates":[140.89835342,38.28754417]}},{"type":"Feature","properties":{"layer_id":"parks_playgrounds","name":"鶴ケ谷六丁目公園","category":"nature","address":"仙台市","source":"国土交通省 国土数値情報","municipality_code":"04102","municipality_pref":"宮城県","municipality_name":"仙台市宮城野区","municipality_code_method":"nearest_centroid"},"geometry":{"type":"Point","coordinates":[140.92324073,38.29152817]}},{"type":"Feature","properties":{"layer_id":"parks_playgrounds","name":"安養寺一丁目２号公園","category":"nature","address":"仙台市","source":"国土交通省 国土数値情報","municipality_code":"04102","municipality_pref":"宮城県","municipality_name":"仙台市宮城野区","municipality_code_method":"nearest_centroid"},"geometry":{"type":"Point","coordinates":[140.89775169,38.28761833]}},{"type":"Feature","properties":{"layer_id":"parks_playgrounds","name":"畑中公園","category":"nature","address":"仙台市","source":"国土交通省 国土数値情報","municipality_code":"04102","municipality_pref":"宮城県","municipality_name":"仙台市宮城野区","municipality_code_method":"nearest_centroid"},"geometry":{"type":"Point","coordinates":[140.93743276,38.30227918]}},{"type":"Feature","properties":{"layer_id":"parks_playgrounds","name":"二の森公園","category":"nature","address":"仙台市","source":"国土交通省 国土数値情報","municipality_code":"04102","municipality_pref":"宮城県","municipality_name":"仙台市宮城野区","municipality_code_method":"nearest_centroid"},"geometry":{"type":"Point","coordinates":[140.90009496,38.27968139]}},{"type":"Feature","properties":{"layer_id":"parks_playgrounds","name":"鶴ケ谷中央公園","category":"nature","address":"仙台市","source":"国土交通省 国土数値情報","municipality_code":"04102","municipality_pref":"宮城県","municipality_name":"仙台市宮城野区","municipality_code_method":"nearest_centroid"},"geometry":{"type":"Point","coordinates":[140.91854425,38.29214466]}},{"type":"Feature","properties":{"layer_id":"parks_playgrounds","name":"沢北公園","category":"nature","address":"仙台市","source":"国土交通省 国土数値情報","municipality_code":"04102","municipality_pref":"宮城県","municipality_name":"仙台市宮城野区","municipality_code_method":"nearest_centroid"},"geometry":{"type":"Point","coordinates":[140.92329677,38.28712508]}},{"type":"Feature","properties":{"layer_id":"parks_playgrounds","name":"幸町二丁目公園","category":"nature","address":"仙台市","source":"国土交通省 国土数値情報","municipality_code":"04102","municipality_pref":"宮城県","municipality_name":"仙台市宮城野区","municipality_code_method":"nearest_centroid"},"geometry":{"type":"Point","coordinates":[140.89644976,38.27736793]}},{"type":"Feature","properties":{"layer_id":"parks_playgrounds","name":"大久保山公園","category":"nature","address":"仙台市","source":"国土交通省 国土数値情報","municipality_code":"04102","municipality_pref":"宮城県","municipality_name":"仙台市宮城野区","municipality_code_method":"nearest_centroid"},"geometry":{"type":"Point","coordinates":[140.91594598,38.29831749]}},{"type":"Feature","properties":{"layer_id":"parks_playgrounds","name":"山崎西公園","category":"nature","address":"仙台市","source":"国土交通省 国土数値情報","municipality_code":"04102","municipality_pref":"宮城県","municipality_name":"仙台市宮城野区","municipality_code_method":"nearest_centroid"},"geometry":{"type":"Point","coordinates":[140.93095734,38.2920905]}},{"type":"Feature","properties":{"layer_id":"parks_playgrounds","name":"福室半在家公園","category":"nature","address":"仙台市","source":"国土交通省 国土数値情報","municipality_code":"04102","municipality_pref":"宮城県","municipality_name":"仙台市宮城野区","municipality_code_method":"nearest_centroid"},"geometry":{"type":"Point","coordinates":[140.96887124,38.27457322]}},{"type":"Feature","properties":{"layer_id":"parks_playgrounds","name":"上田子２号公園","category":"nature","address":"仙台市","source":"国土交通省 国土数値情報","municipality_code":"04102","municipality_pref":"宮城県","municipality_name":"仙台市宮城野区","municipality_code_method":"nearest_centroid"},"geometry":{"type":"Point","coordinates":[140.9631279,38.28240957]}},{"type":"Feature","properties":{"layer_id":"parks_playgrounds","name":"鶴ケ谷南公園","category":"nature","address":"仙台市","source":"国土交通省 国土数値情報","municipality_code":"04102","municipality_pref":"宮城県","municipality_name":"仙台市宮城野区","municipality_code_method":"nearest_centroid"},"geometry":{"type":"Point","coordinates":[140.92852625,38.29083396]}},{"type":"Feature","properties":{"layer_id":"parks_playgrounds","name":"燕沢三丁目公園","category":"nature","address":"仙台市","source":"国土交通省 国土数値情報","municipality_code":"04102","municipality_pref":"宮城県","municipality_name":"仙台市宮城野区","municipality_code_method":"nearest_centroid"},"geometry":{"type":"Point","coordinates":[140.921694,38.28650356]}},{"type":"Feature","properties":{"layer_id":"parks_playgrounds","name":"燕沢東三丁目公園","category":"nature","address":"仙台市","source":"国土交通省 国土数値情報","municipality_code":"04102","municipality_pref":"宮城県","municipality_name":"仙台市宮城野区","municipality_code_method":"nearest_centroid"},"geometry":{"type":"Point","coordinates":[140.92802273,38.28709529]}},{"type":"Feature","properties":{"layer_id":"parks_playgrounds","name":"田子二丁目北公園","category":"nature","address":"仙台市","source":"国土交通省 国土数値情報","municipality_code":"04102","municipality_pref":"宮城県","municipality_name":"仙台市宮城野区","municipality_code_method":"nearest_centroid"},"geometry":{"type":"Point","coordinates":[140.95953959,38.28313421]}},{"type":"Feature","properties":{"layer_id":"parks_playgrounds","name":"余目公園","category":"nature","address":"仙台市","source":"国土交通省 国土数値情報","municipality_code":"04102","municipality_pref":"宮城県","municipality_name":"仙台市宮城野区","municipality_code_method":"nearest_centroid"},"geometry":{"type":"Point","coordinates":[140.9562883,38.29244959]}},{"type":"Feature","properties":{"layer_id":"parks_playgrounds","name":"岡田西町公園","category":"nature","address":"仙台市","source":"国土交通省 国土数値情報","municipality_code":"04102","municipality_pref":"宮城県","municipality_name":"仙台市宮城野区","municipality_code_method":"nearest_centroid"},"geometry":{"type":"Point","coordinates":[140.95845259,38.25493592]}},{"type":"Feature","properties":{"layer_id":"parks_playgrounds","name":"鶴ケ谷四丁目東公園","category":"nature","address":"仙台市","source":"国土交通省 国土数値情報","municipality_code":"04102","municipality_pref":"宮城県","municipality_name":"仙台市宮城野区","municipality_code_method":"nearest_centroid"},"geometry":{"type":"Point","coordinates":[140.91016,38.29247]}},{"type":"Feature","properties":{"layer_id":"parks_playgrounds","name":"田子一丁目南公園","category":"nature","address":"仙台市","source":"国土交通省 国土数値情報","municipality_code":"04102","municipality_pref":"宮城県","municipality_name":"仙台市宮城野区","municipality_code_method":"nearest_centroid"},"geometry":{"type":"Point","coordinates":[140.96002206,38.27515007]}},{"type":"Feature","properties":{"layer_id":"parks_playgrounds","name":"安養寺一丁目３号公園","category":"nature","address":"仙台市","source":"国土交通省 国土数値情報","municipality_code":"04102","municipality_pref":"宮城県","municipality_name":"仙台市宮城野区","municipality_code_method":"nearest_centroid"},"geometry":{"type":"Point","coordinates":[140.89649259,38.28976501]}},{"type":"Feature","properties":{"layer_id":"parks_playgrounds","name":"平成一丁目公園","category":"nature","address":"仙台市","source":"国土交通省 国土数値情報","municipality_code":"04102","municipality_pref":"宮城県","municipality_name":"仙台市宮城野区","municipality_code_method":"nearest_centroid"},"geometry":{"type":"Point","coordinates":[140.91569642,38.27109674]}},{"type":"Feature","properties":{"layer_id":"parks_playgrounds","name":"大久保山緑地","category":"nature","address":"仙台市","source":"国土交通省 国土数値情報","municipality_code":"04102","municipality_pref":"宮城県","municipality_name":"仙台市宮城野区","municipality_code_method":"nearest_centroid"},"geometry":{"type":"Point","coordinates":[140.91782633,38.2980637]}},{"type":"Feature","properties":{"layer_id":"parks_playgrounds","name":"屋舗公園","category":"nature","address":"仙台市","source":"国土交通省 国土数値情報","municipality_code":"04102","municipality_pref":"宮城県","municipality_name":"仙台市宮城野区","municipality_code_method":"nearest_centroid"},"geometry":{"type":"Point","coordinates":[140.93053741,38.28030657]}},{"type":"Feature","properties":{"layer_id":"parks_playgrounds","name":"燕沢一丁目公園","category":"nature","address":"仙台市","source":"国土交通省 国土数値情報","municipality_code":"04102","municipality_pref":"宮城県","municipality_name":"仙台市宮城野区","municipality_code_method":"nearest_centroid"},"geometry":{"type":"Point","coordinates":[140.92262231,38.28201397]}},{"type":"Feature","properties":{"layer_id":"parks_playgrounds","name":"扇町四丁目公園","category":"nature","address":"仙台市","source":"国土交通省 国土数値情報","municipality_code":"04102","municipality_pref":"宮城県","municipality_name":"仙台市宮城野区","municipality_code_method":"nearest_centroid"},"geometry":{"type":"Point","coordinates":[140.95281166,38.26485382]}},{"type":"Feature","properties":{"layer_id":"parks_playgrounds","name":"鶴ケ谷東四丁目公園","category":"nature","address":"仙台市","source":"国土交通省 国土数値情報","municipality_code":"04102","municipality_pref":"宮城県","municipality_name":"仙台市宮城野区","municipality_code_method":"nearest_centroid"},"geometry":{"type":"Point","coordinates":[140.92233321,38.29440463]}},{"type":"Feature","properties":{"layer_id":"parks_playgrounds","name":"清水沼公園","category":"nature","address":"仙台市","source":"国土交通省 国土数値情報","municipality_code":"04102","municipality_pref":"宮城県","municipality_name":"仙台市宮城野区","municipality_code_method":"nearest_centroid"},"geometry":{"type":"Point","coordinates":[140.89820654,38.26587648]}},{"type":"Feature","properties":{"layer_id":"parks_playgrounds","name":"鶴ケ谷七丁目北公園","category":"nature","address":"仙台市","source":"国土交通省 国土数値情報","municipality_code":"04102","municipality_pref":"宮城県","municipality_name":"仙台市宮城野区","municipality_code_method":"nearest_centroid"},"geometry":{"type":"Point","coordinates":[140.92181462,38.28882716]}},{"type":"Feature","properties":{"layer_id":"parks_playgrounds","name":"佐野原公園","category":"nature","address":"仙台市","source":"国土交通省 国土数値情報","municipality_code":"04102","municipality_pref":"宮城県","municipality_name":"仙台市宮城野区","municipality_code_method":"nearest_centroid"},"geometry":{"type":"Point","coordinates":[140.92420695,38.29441169]}},{"type":"Feature","properties":{"layer_id":"parks_playgrounds","name":"田子一丁目北公園","category":"nature","address":"仙台市","source":"国土交通省 国土数値情報","municipality_code":"04102","municipality_pref":"宮城県","municipality_name":"仙台市宮城野区","municipality_code_method":"nearest_centroid"},"geometry":{"type":"Point","coordinates":[140.96106702,38.27734881]}}],"display_comment_original":"仙台市宮城野区には、地域の由緒を示す案内板や石碑を探す余地がある。 この地域には寺社や信仰の場、城跡や陣屋跡、古墳や貝塚に関わる場所が見え、岩切城跡、小鶴城跡、東光寺のような地点が探索の入口になる。 現地では石碑、地蔵、地域資料館、公民館の由緒板を、既存ピンと照らして歩くと発見しやすい。","story_enrichment":{"samurai_priority_people":[],"notable_people":["大戸平廣吉","佐々久","澤蘭子","たこ八郎"],"honorary_citizens":[],"tourism_landmarks":["苦竹のイチョウ（天然記念物）","燕沢碑","岩切城（高森城）跡","榴岡公園","県民の森","仙台市歴史民俗資料館","仙台うみの杜水族館","仙台市新田東総合運動場（元気フィールド仙台）"],"specialties":[],"food_culture":[],"historical_domains":[],"heian_place_names":[],"japan_search_support":[],"enrichment_sources":["https://ja.wikipedia.org/wiki/%E5%AE%AE%E5%9F%8E%E9%87%8E%E5%8C%BA","https://www.wikidata.org/wiki/Q11435527","https://www.wikidata.org/wiki/Q138827819","https://www.wikidata.org/wiki/Q11566004","https://www.wikidata.org/wiki/Q11270972"],"enrichment_errors":[],"wikipedia_title":"宮城野区","wikipedia_revision_id":"108951843","wikidata_qid":"Q1043355","wikipedia_url":"https://ja.wikipedia.org/wiki/%E5%AE%AE%E5%9F%8E%E9%87%8E%E5%8C%BA","japan_search_query_url":"","status":"wikipedia_ok"}}