{"type":"FeatureCollection","municipality_code":"04445","pref":"宮城県","city":"加美町","display_comment":"加美町には、地域の歴史や暮らしを伝える案内板や石碑があり、それらを手がかりに街歩きを楽しめます。 周辺には史跡や遺跡、寺社や信仰の場、城跡や陣屋跡にまつわる場所が点在し、「宮崎城跡」、「東山官衙遺跡」、「壇の越遺跡」などを起点に歩くと、地域の歴史がぐっと見えやすくなります。 現地では史跡説明板を既存ピンと照らし合わせながら歩くと、見落としがちな地域の物語に出会いやすくなります。 ゆかりの人物では成瀬川土左衛門や中島鵬六に注目すると、地域に残る文化や時代背景をさらに深く知るきっかけになります。 「中新田バッハホール」や「あゆの里中央公園」などの名所も、地域の物語を深掘りする絶好の入口です。","layer_counts":{"cafe_restaurant":2,"public_facilities":36,"scenic_nature_areas":3,"cultural_facilities":39,"tourism_resources":17},"total_features":97,"features":[{"type":"Feature","properties":{"layer_id":"cafe_restaurant","name":"めん六や宮城加美店","category":"food","address":"宮城県加美郡加美町赤塚351番地","source":"厚生労働省 食品衛生申請等システム（オープンデータ）","municipality_code":"04445","municipality_pref":"宮城県","municipality_name":"加美町","municipality_code_method":"food_exact_coord"},"geometry":{"type":"Point","coordinates":[140.863679,38.560431]}},{"type":"Feature","properties":{"layer_id":"cafe_restaurant","name":"あじまん　DCM中新田店","category":"food","address":"宮城県加美郡加美町上狼塚永代地100","source":"厚生労働省 食品衛生申請等システム（オープンデータ）","municipality_code":"04445","municipality_pref":"宮城県","municipality_name":"加美町","municipality_code_method":"food_exact_coord"},"geometry":{"type":"Point","coordinates":[140.871423,38.573114]}},{"type":"Feature","properties":{"layer_id":"public_facilities","name":"小野田センター","category":"public","address":"加美町字中原南112","source":"国土交通省 国土数値情報","municipality_code":"04445","municipality_pref":"宮城県","municipality_name":"加美町","municipality_code_method":"source_exact_coord"},"geometry":{"type":"Point","coordinates":[140.78241082136046,38.580725609381055]}},{"type":"Feature","properties":{"layer_id":"public_facilities","name":"鳴瀬地区公民館","category":"public","address":"加美町四日市場字舟橋243","source":"国土交通省 国土数値情報","municipality_code":"04445","municipality_pref":"宮城県","municipality_name":"加美町","municipality_code_method":"source_exact_coord"},"geometry":{"type":"Point","coordinates":[140.8803498885037,38.55675107002857]}},{"type":"Feature","properties":{"layer_id":"public_facilities","name":"宮崎福祉センター","category":"public","address":"加美町宮崎屋敷七-45-1","source":"国土交通省 国土数値情報","municipality_code":"04445","municipality_pref":"宮城県","municipality_name":"加美町","municipality_code_method":"source_exact_coord"},"geometry":{"type":"Point","coordinates":[140.75586574620374,38.61296642713788]}},{"type":"Feature","properties":{"layer_id":"public_facilities","name":"宮崎センター","category":"public","address":"加美町宮崎字屋敷七-45-1","source":"国土交通省 国土数値情報","municipality_code":"04445","municipality_pref":"宮城県","municipality_name":"加美町","municipality_code_method":"source_exact_coord"},"geometry":{"type":"Point","coordinates":[140.75514502624222,38.61309048488494]}},{"type":"Feature","properties":{"layer_id":"public_facilities","name":"旭地区公民館","category":"public","address":"加美町宮崎字小原44-1","source":"国土交通省 国土数値情報","municipality_code":"04445","municipality_pref":"宮城県","municipality_name":"加美町","municipality_code_method":"source_exact_coord"},"geometry":{"type":"Point","coordinates":[140.71236487826957,38.62950844315407]}},{"type":"Feature","properties":{"layer_id":"public_facilities","name":"広原地区公民館","category":"public","address":"加美町上狼塚字東北原12-1","source":"国土交通省 国土数値情報","municipality_code":"04445","municipality_pref":"宮城県","municipality_name":"加美町","municipality_code_method":"source_exact_coord"},"geometry":{"type":"Point","coordinates":[140.86520618613622,38.59529514766625]}},{"type":"Feature","properties":{"layer_id":"public_facilities","name":"小野田公民館","category":"public","address":"加美町字中原南105","source":"国土交通省 国土数値情報","municipality_code":"04445","municipality_pref":"宮城県","municipality_name":"加美町","municipality_code_method":"source_exact_coord"},"geometry":{"type":"Point","coordinates":[140.78175280330277,38.58102079497427]}},{"type":"Feature","properties":{"layer_id":"public_facilities","name":"やくらい文化センター","category":"public","address":"加美町中原南105","source":"国土交通省 国土数値情報","municipality_code":"04445","municipality_pref":"宮城県","municipality_name":"加美町","municipality_code_method":"source_exact_coord"},"geometry":{"type":"Point","coordinates":[140.7817136024105,38.581017205396286]}},{"type":"Feature","properties":{"layer_id":"public_facilities","name":"総合体育館","category":"public","address":"加美町宮崎新土手浦1","source":"国土交通省 国土数値情報","municipality_code":"04445","municipality_pref":"宮城県","municipality_name":"加美町","municipality_code_method":"source_exact_coord"},"geometry":{"type":"Point","coordinates":[140.74787376823753,38.61286105198004]}},{"type":"Feature","properties":{"layer_id":"public_facilities","name":"桜町集会所","category":"public","address":"加美町谷地森字赤沼27-2","source":"国土交通省 国土数値情報","municipality_code":"04445","municipality_pref":"宮城県","municipality_name":"加美町","municipality_code_method":"source_exact_coord"},"geometry":{"type":"Point","coordinates":[140.78823557187297,38.6263555284036]}},{"type":"Feature","properties":{"layer_id":"public_facilities","name":"陶芸の里温泉交流センター","category":"public","address":"加美町宮崎切込二-70","source":"国土交通省 国土数値情報","municipality_code":"04445","municipality_pref":"宮城県","municipality_name":"加美町","municipality_code_method":"source_exact_coord"},"geometry":{"type":"Point","coordinates":[140.7083651594387,38.63371843656225]}},{"type":"Feature","properties":{"layer_id":"public_facilities","name":"宮崎生涯学習センター","category":"public","address":"加美町宮崎字屋敷7-45-1","source":"国土交通省 国土数値情報","municipality_code":"04445","municipality_pref":"宮城県","municipality_name":"加美町","municipality_code_method":"source_exact_coord"},"geometry":{"type":"Point","coordinates":[140.7551029254379,38.61307496543998]}},{"type":"Feature","properties":{"layer_id":"public_facilities","name":"中新田文化会館","category":"public","address":"加美町一本杉101","source":"国土交通省 国土数値情報","municipality_code":"04445","municipality_pref":"宮城県","municipality_name":"加美町","municipality_code_method":"source_exact_coord"},"geometry":{"type":"Point","coordinates":[140.8660440555886,38.568408184998134]}},{"type":"Feature","properties":{"layer_id":"public_facilities","name":"鹿原地区公民館","category":"public","address":"加美町字鹿原南原3-4","source":"国土交通省 国土数値情報","municipality_code":"04445","municipality_pref":"宮城県","municipality_name":"加美町","municipality_code_method":"source_exact_coord"},"geometry":{"type":"Point","coordinates":[140.74112307048554,38.56322229006939]}},{"type":"Feature","properties":{"layer_id":"public_facilities","name":"中新田交流センター","category":"public","address":"加美町下新田松木3","source":"国土交通省 国土数値情報","municipality_code":"04445","municipality_pref":"宮城県","municipality_name":"加美町","municipality_code_method":"source_exact_coord"},"geometry":{"type":"Point","coordinates":[140.87878605579166,38.54917398888899]}},{"type":"Feature","properties":{"layer_id":"public_facilities","name":"上狼塚集会所","category":"public","address":"加美町上狼塚字畑辺54-2","source":"国土交通省 国土数値情報","municipality_code":"04445","municipality_pref":"宮城県","municipality_name":"加美町","municipality_code_method":"source_exact_coord"},"geometry":{"type":"Point","coordinates":[140.87163025159077,38.5817370279105]}},{"type":"Feature","properties":{"layer_id":"public_facilities","name":"小野田支所","category":"public","address":"加美町字長檀75-2","source":"国土交通省 国土数値情報","municipality_code":"04445","municipality_pref":"宮城県","municipality_name":"加美町","municipality_code_method":"source_exact_coord"},"geometry":{"type":"Point","coordinates":[140.78009479631427,38.57732082748899]}},{"type":"Feature","properties":{"layer_id":"public_facilities","name":"宮崎公民館","category":"public","address":"加美町宮崎字屋敷七-45-1","source":"国土交通省 国土数値情報","municipality_code":"04445","municipality_pref":"宮城県","municipality_name":"加美町","municipality_code_method":"source_exact_coord"},"geometry":{"type":"Point","coordinates":[140.75512502579969,38.613090485123045]}},{"type":"Feature","properties":{"layer_id":"public_facilities","name":"中新田福祉センター","category":"public","address":"加美町町裏320","source":"国土交通省 国土数値情報","municipality_code":"04445","municipality_pref":"宮城県","municipality_name":"加美町","municipality_code_method":"source_exact_coord"},"geometry":{"type":"Point","coordinates":[140.86179410844485,38.56939615221074]}},{"type":"Feature","properties":{"layer_id":"public_facilities","name":"母子生活支援センター","category":"public","address":"加美町旧舘1-74-1","source":"国土交通省 国土数値情報","municipality_code":"04445","municipality_pref":"宮城県","municipality_name":"加美町","municipality_code_method":"source_exact_coord"},"geometry":{"type":"Point","coordinates":[140.85490602865835,38.5668556267924]}},{"type":"Feature","properties":{"layer_id":"public_facilities","name":"鳥嶋集会所","category":"public","address":"加美町鳥屋ヶ崎字宮前164-1","source":"国土交通省 国土数値情報","municipality_code":"04445","municipality_pref":"宮城県","municipality_name":"加美町","municipality_code_method":"source_exact_coord"},"geometry":{"type":"Point","coordinates":[140.80216116162944,38.59696352704376]}},{"type":"Feature","properties":{"layer_id":"public_facilities","name":"宮崎支所","category":"public","address":"加美町宮崎字屋敷1-52-4","source":"国土交通省 国土数値情報","municipality_code":"04445","municipality_pref":"宮城県","municipality_name":"加美町","municipality_code_method":"source_exact_coord"},"geometry":{"type":"Point","coordinates":[140.7584909841475,38.61507991797188]}},{"type":"Feature","properties":{"layer_id":"public_facilities","name":"中新田公民館","category":"public","address":"加美町字一本杉63","source":"国土交通省 国土数値情報","municipality_code":"04445","municipality_pref":"宮城県","municipality_name":"加美町","municipality_code_method":"source_exact_coord"},"geometry":{"type":"Point","coordinates":[140.86628973673507,38.568905871039796]}},{"type":"Feature","properties":{"layer_id":"public_facilities","name":"小野田福祉センター","category":"public","address":"加美町字中原南112","source":"国土交通省 国土数値情報","municipality_code":"04445","municipality_pref":"宮城県","municipality_name":"加美町","municipality_code_method":"source_exact_coord"},"geometry":{"type":"Point","coordinates":[140.78240582118914,38.580731789407]}},{"type":"Feature","properties":{"layer_id":"public_facilities","name":"小野田漆沢地区体育館","category":"public","address":"加美町字漆沢宿37","source":"国土交通省 国土数値情報","municipality_code":"04445","municipality_pref":"宮城県","municipality_name":"加美町","municipality_code_method":"source_exact_coord"},"geometry":{"type":"Point","coordinates":[140.64832722749432,38.57902299008347]}},{"type":"Feature","properties":{"layer_id":"public_facilities","name":"総合交流ターミナル施設","category":"public","address":"加美町字味ケ袋薬莱原1-81","source":"国土交通省 国土数値情報","municipality_code":"04445","municipality_pref":"宮城県","municipality_name":"加美町","municipality_code_method":"source_exact_coord"},"geometry":{"type":"Point","coordinates":[140.72714238780603,38.57202833149714]}},{"type":"Feature","properties":{"layer_id":"public_facilities","name":"西小野田地区公民館","category":"public","address":"加美町字上野目薬師堂20","source":"国土交通省 国土数値情報","municipality_code":"04445","municipality_pref":"宮城県","municipality_name":"加美町","municipality_code_method":"source_exact_coord"},"geometry":{"type":"Point","coordinates":[140.7309916093181,38.589415312186716]}},{"type":"Feature","properties":{"layer_id":"public_facilities","name":"加美町役場","category":"public","address":"加美町字西田3-5","source":"国土交通省 国土数値情報","municipality_code":"04445","municipality_pref":"宮城県","municipality_name":"加美町","municipality_code_method":"source_exact_coord"},"geometry":{"type":"Point","coordinates":[140.85479486523755,38.57178319630376]}},{"type":"Feature","properties":{"layer_id":"public_facilities","name":"菜切谷老人憩いの家","category":"public","address":"加美町菜切谷字大2-25","source":"国土交通省 国土数値情報","municipality_code":"04445","municipality_pref":"宮城県","municipality_name":"加美町","municipality_code_method":"source_exact_coord"},"geometry":{"type":"Point","coordinates":[140.85987187313046,38.583635105539315]}},{"type":"Feature","properties":{"layer_id":"public_facilities","name":"勤労者福祉研修センター","category":"public","address":"加美町字百目木1-38-4","source":"国土交通省 国土数値情報","municipality_code":"04445","municipality_pref":"宮城県","municipality_name":"加美町","municipality_code_method":"source_exact_coord"},"geometry":{"type":"Point","coordinates":[140.85669400679805,38.56498021157225]}},{"type":"Feature","properties":{"layer_id":"public_facilities","name":"賀美石地区公民館","category":"public","address":"加美町鳥屋ヶ崎字山畑25","source":"国土交通省 国土数値情報","municipality_code":"04445","municipality_pref":"宮城県","municipality_name":"加美町","municipality_code_method":"source_exact_coord"},"geometry":{"type":"Point","coordinates":[140.80576525928163,38.59625749726661]}},{"type":"Feature","properties":{"layer_id":"public_facilities","name":"中新田小体育館","category":"public","address":"加美町字一本杉57","source":"国土交通省 国土数値情報","municipality_code":"04445","municipality_pref":"宮城県","municipality_name":"加美町","municipality_code_method":"source_exact_coord"},"geometry":{"type":"Point","coordinates":[140.86503521535047,38.56902212973559]}},{"type":"Feature","properties":{"layer_id":"public_facilities","name":"小野田コミュニティセンター","category":"public","address":"加美町字長檀133","source":"国土交通省 国土数値情報","municipality_code":"04445","municipality_pref":"宮城県","municipality_name":"加美町","municipality_code_method":"source_exact_coord"},"geometry":{"type":"Point","coordinates":[140.7807276022688,38.57835367669271]}},{"type":"Feature","properties":{"layer_id":"public_facilities","name":"農村婦人の家","category":"public","address":"加美町上狼塚字東北原12-145","source":"国土交通省 国土数値情報","municipality_code":"04445","municipality_pref":"宮城県","municipality_name":"加美町","municipality_code_method":"source_exact_coord"},"geometry":{"type":"Point","coordinates":[140.86583402350644,38.59378706952552]}},{"type":"Feature","properties":{"layer_id":"public_facilities","name":"中新田体育館","category":"public","address":"加美町字一本杉58","source":"国土交通省 国土数値情報","municipality_code":"04445","municipality_pref":"宮城県","municipality_name":"加美町","municipality_code_method":"source_exact_coord"},"geometry":{"type":"Point","coordinates":[140.86568223785156,38.56887512562792]}},{"type":"Feature","properties":{"layer_id":"public_facilities","name":"麓集会所","category":"public","address":"加美町宮崎字麓2-47-3","source":"国土交通省 国土数値情報","municipality_code":"04445","municipality_pref":"宮城県","municipality_name":"加美町","municipality_code_method":"source_exact_coord"},"geometry":{"type":"Point","coordinates":[140.75738291559745,38.6203939124658]}},{"type":"Feature","properties":{"layer_id":"scenic_nature_areas","name":"小野田町","category":"nature","source":"国土交通省 国土数値情報","municipality_code":"04445","municipality_pref":"宮城県","municipality_name":"加美町","municipality_code_method":"nearest_centroid"},"geometry":{"type":"Polygon","coordinates":[[[140.70952000000003,38.57922199999997],[140.70986999999994,38.579216],[140.710142,38.579217],[140.71020900000002,38.579217],[140.71068499999996,38.57917699999997],[140.71131199999996,38.57913099999999],[140.711644,38.57908400000001],[140.712203,38.57893800000001],[140.712475,38.578813999999966],[140.71266500000002,38.57871399999995],[140.71304999999998,38.57850199999999],[140.71334699999994,38.57828000000001],[140.71358600000002,38.578093999999986],[140.71362,38.578066999999976],[140.71400600000004,38.57775400000001],[140.71410499999996,38.57764799999994],[140.71414999999996,38.577588999999946],[140.714158,38.577481999999975],[140.71413599999997,38.577346000000006],[140.71406200000004,38.57707399999997],[140.71394199999997,38.57683099999994],[140.71382899999995,38.57666499999996],[140.71367200000003,38.576486999999986],[140.71340699999996,38.576280999999994],[140.71327400000004,38.576178],[140.713091,38.576037999999954],[140.71286599999996,38.57584799999996],[140.71257299999996,38.575474000000014],[140.71244500000003,38.57526599999994],[140.71232599999993,38.575006000000016],[140.712289,38.57474500000001],[140.71229700000004,38.574614999999994],[140.71235,38.57442699999998],[140.712418,38.57424999999999],[140.712494,38.57409599999995],[140.71269999999998,38.573770999999965],[140.71270800000002,38.573756999999965],[140.71288200000004,38.57347499999999],[140.71296599999997,38.57329199999995],[140.71313300000003,38.572936999999975],[140.71340299999997,38.57259199999994],[140.71369899999996,38.572225999999944],[140.713864,38.57195200000001],[140.714,38.57166799999996],[140.71407699999997,38.57145199999994],[140.71410900000004,38.571309000000014],[140.71412400000003,38.57121299999997],[140.714053,38.57090299999999],[140.713894,38.57049799999997],[140.713747,38.570107999999934],[140.71359499999997,38.56974799999999],[140.71353499999998,38.56959199999997],[140.71338200000002,38.569436000000024],[140.71318399999996,38.569230999999945],[140.712681,38.56894200000001],[140.71242199999998,38.568785999999974],[140.71225500000003,38.56858199999998],[140.71216299999995,38.568412999999936],[140.71208799999997,38.568282000000025],[140.71205899999995,38.56803999999998],[140.712038,38.56756600000002],[140.712009,38.56724600000001],[140.71191199999998,38.56712199999997],[140.71182900000002,38.56704999999996],[140.71167100000002,38.56697299999998],[140.71152000000004,38.566937000000024],[140.71121299999996,38.56686500000002],[140.71088799999998,38.56682300000001],[140.71054100000003,38.566798999999975],[140.710081,38.56680299999995],[140.70983899999996,38.56680299999995],[140.709835,38.56680299999995],[140.70967299999998,38.56680199999995],[140.70952200000002,38.56681399999997],[140.70891800000004,38.566871999999975],[140.708163,38.56695300000001],[140.707726,38.56698699999998],[140.70745399999998,38.567010000000025],[140.707204,38.56705099999995],[140.70675900000003,38.56714400000001],[140.706457,38.56720899999998],[140.70623000000003,38.567261000000016],[140.70565899999997,38.56732499999998],[140.705055,38.567364999999995],[140.704557,38.567410999999986],[140.70383199999998,38.567451000000005],[140.703243,38.567496999999996],[140.70290400000002,38.56750199999996],[140.70253400000004,38.567506999999935],[140.702159,38.567525],[140.701956,38.56753599999993],[140.70180400000004,38.56756499999994],[140.70168399999997,38.56759399999994],[140.70130599999996,38.56773],[140.70049699999998,38.56800600000001],[140.699983,38.568123000000014],[140.69902399999995,38.56825099999995],[140.698639,38.56827899999995],[140.69827699999996,38.56825500000001],[140.697877,38.568170999999985],[140.69766599999997,38.568123000000014],[140.697545,38.56812799999999],[140.69752999999997,38.56815200000001],[140.697485,38.56819299999994],[140.69746200000003,38.568257999999986],[140.69737600000002,38.56846299999999],[140.69731499999995,38.568610999999976],[140.697246,38.568817999999965],[140.697207,38.56895999999999],[140.697131,38.56921399999995],[140.69707699999998,38.56945100000002],[140.697004,38.56980099999994],[140.69697699999998,38.56992999999996],[140.696915,38.57030699999997],[140.696884,38.570412999999945],[140.69682300000002,38.57059100000002],[140.69674699999996,38.570768000000015],[140.69663999999997,38.570928000000016],[140.696474,38.57113400000001],[140.69627599999995,38.571376999999956],[140.69615499999998,38.571501],[140.69604900000002,38.571564999999964],[140.69578400000003,38.57169499999998],[140.695527,38.571830999999946],[140.695331,38.571918999999944],[140.69520000000003,38.572003999999964],[140.69508099999996,38.57208200000002],[140.694854,38.57226499999997],[140.69471199999998,38.57236799999997],[140.69461100000004,38.57244199999997],[140.69455099999996,38.57250099999996],[140.69451999999998,38.57256600000001],[140.69451999999998,38.57270199999998],[140.69452700000002,38.572778999999954],[140.694542,38.572837999999955],[140.694632,38.572962999999994],[140.69491699999998,38.57323600000002],[140.69511999999997,38.57337599999997],[140.695173,38.57341400000001],[140.69539899999995,38.57354500000001],[140.69556500000002,38.573634],[140.69572400000004,38.573684999999955],[140.695919,38.57374699999994],[140.696123,38.573807000000016],[140.69634899999997,38.57386099999995],[140.696605,38.573909000000015],[140.696854,38.573927],[140.69721600000003,38.57395799999999],[140.69748,38.573982000000015],[140.69756900000002,38.57400599999997],[140.69763900000004,38.57402399999994],[140.69771400000002,38.57405399999993],[140.697819,38.574136999999965],[140.69790999999998,38.57423799999997],[140.69823500000004,38.574658],[140.69838600000003,38.574848],[140.69855799999996,38.575090999999944],[140.698724,38.575227999999996],[140.698814,38.57528099999994],[140.699017,38.57538199999995],[140.69919799999997,38.575423999999956],[140.69941699999998,38.57546599999997],[140.699515,38.575502000000014],[140.69951999999998,38.57550599999999],[140.69961999999998,38.57559100000001],[140.69971800000002,38.57571599999996],[140.699793,38.57583399999996],[140.69984500000004,38.57599399999996],[140.69987399999994,38.57621299999996],[140.69987399999994,38.57640299999996],[140.69987299999997,38.57643800000001],[140.69985800000003,38.57652099999996],[140.69979,38.57663299999999],[140.69974400000004,38.576721999999975],[140.69968299999996,38.576905000000025],[140.69968299999996,38.57694800000002],[140.69968199999997,38.577011999999996],[140.69972699999994,38.57710699999994],[140.69980300000003,38.57716599999995],[140.70005400000002,38.57735299999996],[140.700287,38.57748399999996],[140.700626,38.577639],[140.70082199999996,38.57772199999994],[140.70100300000001,38.57780599999996],[140.70119899999997,38.57790699999997],[140.70159299999997,38.57817700000001],[140.70194599999996,38.57844999999996],[140.70232999999993,38.578688000000014],[140.70280499999998,38.578925999999996],[140.70301599999993,38.579014999999984],[140.70305799999997,38.579026000000006],[140.70325000000003,38.579074999999975],[140.703506,38.57909900000001],[140.704102,38.579147999999975],[140.70438899999996,38.57915500000002],[140.70478199999997,38.57915600000001],[140.70504600000004,38.57914999999996],[140.70527999999996,38.57912099999996],[140.70551399999997,38.57907999999995],[140.706058,38.57898100000001],[140.70640299999997,38.57893600000002],[140.70668299999994,38.578889999999944],[140.70719600000004,38.57887299999996],[140.70760400000003,38.578873999999956],[140.707875,38.578893000000015],[140.70811699999996,38.57891699999996],[140.70835100000002,38.57895300000001],[140.708577,38.57900099999998],[140.708916,38.57910799999995],[140.709157,38.57916799999994],[140.70952000000003,38.57922199999997]]]}},{"type":"Feature","properties":{"layer_id":"scenic_nature_areas","name":"小野田町","category":"nature","source":"国土交通省 国土数値情報","municipality_code":"04445","municipality_pref":"宮城県","municipality_name":"加美町","municipality_code_method":"nearest_centroid"},"geometry":{"type":"Polygon","coordinates":[[[140.70952,38.57922199999997],[140.70987000000002,38.579216],[140.71014199999996,38.579217],[140.710209,38.579217],[140.71068500000004,38.57917699999997],[140.71131199999996,38.57913099999999],[140.71164399999998,38.57908400000001],[140.71220299999996,38.57893800000001],[140.71247499999998,38.578813999999966],[140.712665,38.57871400000003],[140.71305000000004,38.57850199999999],[140.71334700000003,38.57828000000001],[140.713586,38.578093999999986],[140.71361999999996,38.578066999999976],[140.714006,38.57775400000001],[140.71410500000002,38.57764800000004],[140.71415000000002,38.57758900000003],[140.71415799999997,38.577481999999975],[140.71413600000002,38.577346000000006],[140.714062,38.57707399999997],[140.71394200000003,38.57683100000003],[140.71382900000003,38.57666499999996],[140.713672,38.576486999999986],[140.71340700000002,38.576280999999994],[140.713274,38.576178],[140.71309099999996,38.576037999999954],[140.71286600000002,38.575847999999965],[140.71257300000002,38.575474000000014],[140.712445,38.57526600000003],[140.71232600000002,38.575006000000016],[140.71228899999997,38.574745],[140.712297,38.574614999999994],[140.71234999999996,38.57442699999998],[140.71241799999999,38.57424999999999],[140.71249399999996,38.57409600000004],[140.71270000000004,38.573770999999965],[140.712708,38.573756999999965],[140.712882,38.57347499999999],[140.71296600000002,38.57329200000004],[140.713133,38.57293699999998],[140.71340300000003,38.57259200000003],[140.71369900000002,38.57222600000003],[140.713864,38.57195200000001],[140.71399999999997,38.57166799999996],[140.71407700000003,38.57145200000003],[140.714109,38.571309000000014],[140.714124,38.57121299999997],[140.71405299999998,38.57090299999999],[140.71389399999998,38.570497999999965],[140.71374699999998,38.570108000000026],[140.71359500000003,38.56974799999999],[140.71353500000004,38.56959199999997],[140.713382,38.569436000000024],[140.71318400000004,38.56923100000003],[140.71268099999998,38.56894200000001],[140.71242200000006,38.568785999999974],[140.712255,38.56858199999998],[140.71216300000003,38.56841300000002],[140.71208800000002,38.568282000000025],[140.71205900000004,38.56803999999998],[140.71203799999998,38.56756600000002],[140.71200899999997,38.56724600000001],[140.71191200000004,38.56712199999997],[140.71182900000002,38.56704999999996],[140.711671,38.56697299999998],[140.71152,38.566937000000024],[140.71121300000001,38.56686500000002],[140.71088800000004,38.56682300000001],[140.71054100000003,38.566798999999975],[140.71008099999997,38.566803000000036],[140.70983900000002,38.566803000000036],[140.70983499999997,38.566803000000036],[140.70967299999995,38.566802000000045],[140.709522,38.56681399999998],[140.70891800000004,38.566871999999975],[140.70816299999998,38.56695300000001],[140.70772599999998,38.56698699999998],[140.70745400000004,38.567010000000025],[140.70720399999996,38.56705100000004],[140.706759,38.56714400000001],[140.70645699999997,38.56720899999998],[140.70623,38.567261000000016],[140.70565900000003,38.567324999999975],[140.70505499999996,38.567364999999995],[140.70455699999997,38.567410999999986],[140.70383200000003,38.567451000000005],[140.70324299999996,38.567496999999996],[140.702904,38.56750199999996],[140.702534,38.56750700000002],[140.702159,38.567525],[140.70195599999997,38.567536000000025],[140.701804,38.56756500000003],[140.70168400000003,38.56759400000003],[140.70130600000002,38.56773],[140.70049700000004,38.56800600000001],[140.69998299999997,38.568123000000014],[140.69902400000004,38.56825100000003],[140.69863899999996,38.56827900000004],[140.69827699999996,38.56825500000001],[140.69787699999998,38.568170999999985],[140.69766600000003,38.568123000000014],[140.69754499999996,38.56812799999999],[140.69752999999997,38.56815200000001],[140.69748499999997,38.56819300000003],[140.69746200000003,38.568257999999986],[140.69737600000002,38.568462999999994],[140.69731500000003,38.568610999999976],[140.697246,38.568817999999965],[140.69720699999996,38.56895999999999],[140.69713099999998,38.569214000000045],[140.69707700000004,38.56945100000002],[140.69700399999996,38.56980100000003],[140.69697700000003,38.56993000000004],[140.69691499999996,38.57030699999997],[140.69688399999998,38.57041300000004],[140.696823,38.57059100000002],[140.69674700000002,38.570768000000015],[140.69664000000003,38.570928000000016],[140.69647399999997,38.57113400000001],[140.69627600000004,38.57137700000004],[140.69615499999998,38.571501],[140.696049,38.571564999999964],[140.695784,38.57169499999998],[140.69552699999997,38.57183100000003],[140.695331,38.57191900000004],[140.6952,38.572003999999964],[140.69508100000002,38.57208200000002],[140.69485399999996,38.57226499999997],[140.69471200000004,38.57236799999997],[140.694611,38.57244199999997],[140.69455100000005,38.57250099999996],[140.69452000000004,38.57256600000001],[140.69452000000004,38.57270199999998],[140.694527,38.572778999999954],[140.694542,38.572837999999955],[140.69463199999998,38.572962999999994],[140.69491700000003,38.57323600000002],[140.69512000000003,38.57337599999997],[140.69517299999998,38.57341400000001],[140.69539900000004,38.57354500000001],[140.695565,38.573634],[140.695724,38.573684999999955],[140.69591899999998,38.573747000000026],[140.69612299999997,38.573807000000016],[140.69634900000003,38.57386100000004],[140.69660499999998,38.573909000000015],[140.69685399999997,38.573927],[140.697216,38.57395799999999],[140.69747999999998,38.573982000000015],[140.697569,38.57400599999997],[140.697639,38.57402400000004],[140.697714,38.574054000000025],[140.69781899999998,38.574136999999965],[140.69791000000004,38.57423799999997],[140.698235,38.574658],[140.698386,38.574847999999996],[140.69855800000002,38.57509100000003],[140.69872399999997,38.575227999999996],[140.69881399999997,38.57528100000003],[140.69901699999997,38.57538200000003],[140.69919800000002,38.575423999999956],[140.69941700000004,38.57546599999997],[140.69951499999996,38.575502000000014],[140.69952000000004,38.57550599999999],[140.69962000000004,38.57559100000001],[140.699718,38.57571599999996],[140.69979299999997,38.57583400000004],[140.699845,38.57599399999996],[140.69987400000002,38.57621299999996],[140.69987400000002,38.57640299999996],[140.69987300000003,38.57643800000001],[140.699858,38.57652100000004],[140.69978999999998,38.57663299999999],[140.699744,38.576721999999975],[140.69968300000002,38.57690500000002],[140.69968300000002,38.57694800000002],[140.69968200000002,38.577011999999996],[140.69972700000002,38.577107000000034],[140.699803,38.577166000000034],[140.700054,38.57735299999996],[140.700287,38.57748399999996],[140.70062599999997,38.577639],[140.70082200000002,38.57772200000002],[140.701003,38.57780599999996],[140.70119900000003,38.57790699999997],[140.70159300000006,38.57817700000001],[140.70194600000002,38.578449999999954],[140.70233000000002,38.578688000000014],[140.70280500000004,38.578925999999996],[140.70301600000002,38.579014999999984],[140.70305800000003,38.579026000000006],[140.70325000000003,38.579074999999975],[140.70350599999998,38.57909900000001],[140.70410199999998,38.579147999999975],[140.70438900000002,38.57915500000002],[140.70478200000002,38.57915600000001],[140.705046,38.57914999999996],[140.70528000000002,38.57912099999996],[140.70551400000002,38.57908000000003],[140.70605799999998,38.57898100000001],[140.70640300000002,38.57893600000002],[140.70668300000003,38.57889000000003],[140.707196,38.57887299999996],[140.707604,38.57887400000004],[140.70787499999997,38.578893000000015],[140.70811700000002,38.57891699999996],[140.708351,38.578953000000006],[140.70857699999996,38.57900099999998],[140.70891599999996,38.57910800000004],[140.709157,38.57916800000004],[140.70952,38.57922199999997]]]}},{"type":"Feature","properties":{"layer_id":"scenic_nature_areas","name":"自然保全地域","category":"nature","source":"国土交通省 国土数値情報","municipality_code":"04445","municipality_pref":"宮城県","municipality_name":"加美町","municipality_code_method":"nearest_centroid","resource_class":"自然保全地域","source_dataset_code":"A11"},"geometry":{"type":"Polygon","coordinates":[[[140.68193681995353,38.560457637082536],[140.68249257431944,38.56028663573914],[140.68306970385282,38.56032938607503],[140.6835185823791,38.56020113506753],[140.68283457700588,38.559388878686796],[140.6832407051963,38.559175127007684],[140.68379645956188,38.55926062767948],[140.6839888360732,38.55906825116813],[140.6839033354016,38.557935367268904],[140.68356133271507,38.55729411223139],[140.68353995754705,38.556332229675384],[140.6839460857374,38.55590472631716],[140.68368354100969,38.55511424105751],[140.68399198960648,38.554365151607485],[140.68408011777737,38.55401263892515],[140.68390386143628,38.55317542130459],[140.6828463233893,38.55150098606346],[140.68262600296268,38.551104409295945],[140.68262600296268,38.54956216631072],[140.68267006704787,38.54907746137249],[140.681788785342,38.54784366698423],[140.68165659308622,38.547403026131356],[140.68086343955102,38.54652174442562],[140.6802465423568,38.54599297540202],[140.67984996558909,38.54534963975682],[140.67936526065085,38.544997127074495],[140.67857210711574,38.54486493481859],[140.6777789535807,38.54490899890395],[140.67711799230113,38.544997127074495],[140.67680954370425,38.544644614392155],[140.67628077468086,38.54402771719803],[140.67570794157191,38.543631140430335],[140.6750910443777,38.543498948174616],[140.67460633943946,38.54380739677159],[140.67390131407487,38.544071781283385],[140.67337254505148,38.54385146085695],[140.6728437760279,38.54323456366282],[140.67205062249286,38.54257360238351],[140.67103714853104,38.54103135939828],[140.6699355463986,38.540326334033615],[140.66914239286348,38.53984162909539],[140.66843736749863,38.53922473190126],[140.66782047030486,38.53900441147482],[140.66715950902537,38.538695962877846],[140.66695008520432,38.53831900000023],[140.66693400000005,38.53831900000023],[140.66682999999998,38.53826900000017],[140.66643200000007,38.53786800000021],[140.6661630000002,38.53757400000022],[140.66589400000007,38.53724600000008],[140.6656660000001,38.53690300000012],[140.6655630000001,38.53670700000007],[140.66531600000027,38.53620000000022],[140.6652130000001,38.536003000000086],[140.66515100000012,38.5358240000002],[140.6650280000001,38.53551300000005],[140.6649460000002,38.53525200000013],[140.66482300000018,38.53485900000011],[140.6647200000002,38.53450000000007],[140.6645350000003,38.534108000000145],[140.66439100000014,38.533764000000104],[140.66412300000033,38.53332300000021],[140.66379200000014,38.532799000000196],[140.66337900000008,38.532194000000054],[140.6630480000002,38.531768000000156],[140.66284100000033,38.531572000000104],[140.66257100000018,38.53132600000018],[140.66224000000034,38.53109700000006],[140.66176300000004,38.53075200000012],[140.66138900000007,38.53062100000011],[140.66095300000043,38.5304890000002],[140.66042800000014,38.53022900000019],[140.66022000000018,38.5300820000001],[140.66003300000034,38.52996700000018],[140.65993000000014,38.529852000000076],[140.65988900000013,38.52972200000016],[140.6598490000002,38.52946000000016],[140.6598300000004,38.528938000000124],[140.65981200000033,38.52838300000022],[140.65977200000006,38.52817000000017],[140.65973100000022,38.5279900000002],[140.65969000000018,38.527811000000135],[140.65954600000018,38.52750000000016],[140.6594010000001,38.52730400000011],[140.65917400000012,38.52699300000013],[140.65911200000016,38.52686200000013],[140.6590920000001,38.526650000000174],[140.65909500000018,38.52596400000009],[140.65907300000012,38.52579500000013],[140.6590320000001,38.52563100000006],[140.65890800000034,38.525435000000186],[140.6587430000002,38.5251570000001],[140.6586810000002,38.525026000000096],[140.65862000000013,38.524846000000124],[140.65855900000005,38.524568000000045],[140.65849700000024,38.524307000000114],[140.65841499999993,38.52404600000019],[140.65825000000007,38.52381700000007],[140.6577740000001,38.52327600000008],[140.65760800000007,38.52319400000004],[140.6572760000001,38.523079000000116],[140.657006,38.523045000000145],[140.65686000000017,38.52307800000021],[140.65650600000035,38.523175000000066],[140.6561510000001,38.52337000000021],[140.65563000000017,38.523597000000166],[140.65496300000007,38.52382300000022],[140.65427500000007,38.524099000000135],[140.65408800000014,38.524229000000055],[140.6538580000001,38.52444000000011],[140.65364800000006,38.52484800000012],[140.65331200000023,38.52545100000009],[140.65299800000008,38.52589100000009],[140.65278899999996,38.526070000000146],[140.65243400000006,38.52634700000015],[140.6521210000001,38.526476000000166],[140.65176700000004,38.52650800000015],[140.6513100000003,38.52647400000018],[140.6507690000003,38.52639100000006],[140.65045800000016,38.52634100000019],[140.65018700000005,38.526340000000104],[140.64991600000008,38.526372000000094],[140.64982100000023,38.526419000000075],[140.64974600000042,38.52649700000013],[140.64969000000005,38.52662300000007],[140.64965100000018,38.52696400000022],[140.6496490000002,38.52735900000004],[140.64966400000012,38.52785400000014],[140.6496330000001,38.52798100000017],[140.64956400000028,38.5281360000002],[140.64948200000023,38.52827800000006],[140.64935100000022,38.528428000000204],[140.6491830000002,38.52855400000015],[140.64895899999996,38.52866600000018],[140.64876600000014,38.528743000000155],[140.6484050000001,38.5288540000001],[140.6481570000002,38.52892200000022],[140.6479019999999,38.52899400000014],[140.64767200000014,38.5290570000002],[140.64744799999988,38.52916300000009],[140.64721800000015,38.529274000000036],[140.64699300000018,38.529425000000096],[140.6467880000001,38.52959500000013],[140.64664100000002,38.52968600000002],[140.64649800000026,38.5297440000002],[140.64633000000038,38.5298020000002],[140.646144,38.52982100000018],[140.64581500000006,38.52982000000009],[140.64550400000007,38.52982400000007],[140.64516900000024,38.529837000000086],[140.6449700000003,38.52985600000005],[140.64474000000027,38.529894000000176],[140.64449800000034,38.52997600000003],[140.644305,38.530078000000124],[140.64405000000022,38.53022400000013],[140.6437760000001,38.53038400000022],[140.6435270000003,38.53052400000008],[140.64333399999995,38.53061600000024],[140.64316000000028,38.5306350000002],[140.64283300000022,38.53066000000014],[140.6423860000002,38.530693000000205],[140.64194500000002,38.53072500000019],[140.64139800000035,38.530729000000164],[140.64123100000003,38.53074700000023],[140.6409630000004,38.530815000000175],[140.6406959999999,38.53088200000021],[140.64051600000002,38.530945000000095],[140.64034200000037,38.530979000000066],[140.6400370000001,38.53100700000007],[140.639652,38.53102000000008],[140.6391990000003,38.531034000000176],[140.63890300000014,38.531023000000154],[140.63862400000014,38.531023000000154],[140.6385180000001,38.53102700000013],[140.6384250000002,38.53104100000022],[140.6382820000001,38.53109000000019],[140.6380580000002,38.53121100000008],[140.6377840000001,38.53141500000008],[140.6374780000002,38.531672000000206],[140.63716000000008,38.531900000000064],[140.6369920000003,38.531997000000096],[140.63676800000005,38.53211800000016],[140.63633000000024,38.532320000000176],[140.63599999999994,38.53246000000021],[140.63578900000005,38.532567000000185],[140.63554599999992,38.53269300000013],[140.635347,38.532814000000194],[140.6352340000003,38.53290100000011],[140.63509700000017,38.53304700000011],[140.63497800000002,38.533212000000084],[140.6347850000003,38.533460000000176],[140.63472729180225,38.53355178784257],[140.63480765760426,38.53403398265394],[140.63498391394506,38.535223712956835],[140.6388615534509,38.53597280240668],[140.6399190914982,38.535311841127374],[140.6417697830802,38.541128300385786],[140.64272156732258,38.54194789237224],[140.6444400666488,38.54247666139583],[140.64549760469578,38.54371045578391],[140.64633482231645,38.54476799383091],[140.64778893713114,38.54556114736629],[140.64937524420154,38.54626617273096],[140.650344654078,38.547059326266165],[140.65184283297762,38.547720287545474],[140.65338507596283,38.548601569251396],[140.65465852802797,38.54954454067661],[140.65571606607497,38.54954454067661],[140.65712611680468,38.54954454067661],[140.65863751493006,38.549466204525004],[140.65934254029457,38.550014557586444],[140.6587158510815,38.55040623834449],[140.659185867991,38.55095459140594],[140.6598125572044,38.5514246083156],[140.66130094408535,38.55173795292222],[140.66410515266784,38.55242930146934],[140.6659764369106,38.55285813744176],[140.668783363275,38.55461246641949],[140.670693632606,38.55562607871759],[140.67236999140684,38.5558989743364],[140.67385142476584,38.55628882522024],[140.67529387303637,38.55663969101568],[140.67638545551142,38.5569515717229],[140.67638545551142,38.557419392783544],[140.67835178668915,38.55855123971013],[140.67838170717965,38.55857333484154],[140.67867400000011,38.5586680000001],[140.6794770000001,38.559004000000186],[140.6795119999999,38.55901800000011],[140.68020543135268,38.55915375183974],[140.6816375676028,38.55983775721297],[140.68138106558797,38.56037213641075],[140.68193681995353,38.560457637082536]]]}},{"type":"Feature","properties":{"layer_id":"cultural_facilities","name":"宮崎中学校","category":"public","address":"柳沢字檜葉野屋敷49","source":"国土交通省 国土数値情報","municipality_code":"04445","municipality_pref":"宮城県","municipality_name":"加美町","municipality_code_method":"nearest_centroid"},"geometry":{"type":"Point","coordinates":[140.77306,38.602672]}},{"type":"Feature","properties":{"layer_id":"cultural_facilities","name":"広原小学校","category":"public","address":"上狼塚東北原12-1","source":"国土交通省 国土数値情報","municipality_code":"04445","municipality_pref":"宮城県","municipality_name":"加美町","municipality_code_method":"nearest_centroid"},"geometry":{"type":"Point","coordinates":[140.86521,38.59473]}},{"type":"Feature","properties":{"layer_id":"cultural_facilities","name":"宮崎中学校","category":"public","address":"柳沢字檜葉野屋敷49","source":"国土交通省 国土数値情報","municipality_code":"04445","municipality_pref":"宮城県","municipality_name":"加美町","municipality_code_method":"nearest_centroid"},"geometry":{"type":"Point","coordinates":[140.773404,38.601678]}},{"type":"Feature","properties":{"layer_id":"cultural_facilities","name":"西小野田小学校","category":"public","address":"字上野目高畑5","source":"国土交通省 国土数値情報","municipality_code":"04445","municipality_pref":"宮城県","municipality_name":"加美町","municipality_code_method":"nearest_centroid"},"geometry":{"type":"Point","coordinates":[140.730627,38.588698]}},{"type":"Feature","properties":{"layer_id":"cultural_facilities","name":"東小野田小学校","category":"public","address":"南寺宿45","source":"国土交通省 国土数値情報","municipality_code":"04445","municipality_pref":"宮城県","municipality_name":"加美町","municipality_code_method":"nearest_centroid"},"geometry":{"type":"Point","coordinates":[140.782619,38.575627]}},{"type":"Feature","properties":{"layer_id":"cultural_facilities","name":"加美町小野田図書館","category":"public","address":"字中原南105","source":"国土交通省 国土数値情報","municipality_code":"04445","municipality_pref":"宮城県","municipality_name":"加美町","municipality_code_method":"nearest_centroid"},"geometry":{"type":"Point","coordinates":[140.781207,38.580968]}},{"type":"Feature","properties":{"layer_id":"cultural_facilities","name":"宮崎中学校","category":"public","address":"柳沢字檜葉野屋敷49","source":"国土交通省 国土数値情報","municipality_code":"04445","municipality_pref":"宮城県","municipality_name":"加美町","municipality_code_method":"nearest_centroid"},"geometry":{"type":"Point","coordinates":[140.772762,38.602068]}},{"type":"Feature","properties":{"layer_id":"cultural_facilities","name":"上多田川小学校","category":"public","address":"上多田川字笹沢東1-1","source":"国土交通省 国土数値情報","municipality_code":"04445","municipality_pref":"宮城県","municipality_name":"加美町","municipality_code_method":"nearest_centroid"},"geometry":{"type":"Point","coordinates":[140.825552,38.636962]}},{"type":"Feature","properties":{"layer_id":"cultural_facilities","name":"小野田体育館・小野田コミュニティセンター","category":"public","address":"字長檀133","source":"国土交通省 国土数値情報","municipality_code":"04445","municipality_pref":"宮城県","municipality_name":"加美町","municipality_code_method":"nearest_centroid"},"geometry":{"type":"Point","coordinates":[140.780592,38.576053]}},{"type":"Feature","properties":{"layer_id":"cultural_facilities","name":"加美町ふるさと陶芸館（切込焼記念館）","category":"public","address":"宮崎字切込3","source":"国土交通省 国土数値情報","municipality_code":"04445","municipality_pref":"宮城県","municipality_name":"加美町","municipality_code_method":"nearest_centroid"},"geometry":{"type":"Point","coordinates":[140.706267,38.627814]}},{"type":"Feature","properties":{"layer_id":"cultural_facilities","name":"旭小学校","category":"public","address":"宮崎旭二番1-1","source":"国土交通省 国土数値情報","municipality_code":"04445","municipality_pref":"宮城県","municipality_name":"加美町","municipality_code_method":"nearest_centroid"},"geometry":{"type":"Point","coordinates":[140.710099,38.628525]}},{"type":"Feature","properties":{"layer_id":"cultural_facilities","name":"陶芸の里スポーツ公園","category":"public","address":"宮崎新土手浦1","source":"国土交通省 国土数値情報","municipality_code":"04445","municipality_pref":"宮城県","municipality_name":"加美町","municipality_code_method":"nearest_centroid"},"geometry":{"type":"Point","coordinates":[140.746415,38.614358]}},{"type":"Feature","properties":{"layer_id":"cultural_facilities","name":"東小野田小学校","category":"public","address":"南寺宿45","source":"国土交通省 国土数値情報","municipality_code":"04445","municipality_pref":"宮城県","municipality_name":"加美町","municipality_code_method":"nearest_centroid"},"geometry":{"type":"Point","coordinates":[140.78269,38.574995]}},{"type":"Feature","properties":{"layer_id":"cultural_facilities","name":"賀美石小学校","category":"public","address":"鳥屋ケ崎神明127","source":"国土交通省 国土数値情報","municipality_code":"04445","municipality_pref":"宮城県","municipality_name":"加美町","municipality_code_method":"nearest_centroid"},"geometry":{"type":"Point","coordinates":[140.802577,38.591741]}},{"type":"Feature","properties":{"layer_id":"cultural_facilities","name":"鹿原小学校","category":"public","address":"字鹿原水堀3-1","source":"国土交通省 国土数値情報","municipality_code":"04445","municipality_pref":"宮城県","municipality_name":"加美町","municipality_code_method":"nearest_centroid"},"geometry":{"type":"Point","coordinates":[140.745416,38.566994]}},{"type":"Feature","properties":{"layer_id":"cultural_facilities","name":"広原小学校","category":"public","address":"上狼塚東北原12-1","source":"国土交通省 国土数値情報","municipality_code":"04445","municipality_pref":"宮城県","municipality_name":"加美町","municipality_code_method":"nearest_centroid"},"geometry":{"type":"Point","coordinates":[140.865317,38.595724]}},{"type":"Feature","properties":{"layer_id":"cultural_facilities","name":"小野田中学校","category":"public","address":"中原23-41","source":"国土交通省 国土数値情報","municipality_code":"04445","municipality_pref":"宮城県","municipality_name":"加美町","municipality_code_method":"nearest_centroid"},"geometry":{"type":"Point","coordinates":[140.778847,38.583551]}},{"type":"Feature","properties":{"layer_id":"cultural_facilities","name":"賀美石小学校","category":"public","address":"鳥屋ケ崎神明127","source":"国土交通省 国土数値情報","municipality_code":"04445","municipality_pref":"宮城県","municipality_name":"加美町","municipality_code_method":"nearest_centroid"},"geometry":{"type":"Point","coordinates":[140.802957,38.590822]}},{"type":"Feature","properties":{"layer_id":"cultural_facilities","name":"小野田中学校","category":"public","address":"中原23-41","source":"国土交通省 国土数値情報","municipality_code":"04445","municipality_pref":"宮城県","municipality_name":"加美町","municipality_code_method":"nearest_centroid"},"geometry":{"type":"Point","coordinates":[140.779691,38.58356]}},{"type":"Feature","properties":{"layer_id":"cultural_facilities","name":"宮崎小学校","category":"public","address":"宮崎屋敷一番6-2","source":"国土交通省 国土数値情報","municipality_code":"04445","municipality_pref":"宮城県","municipality_name":"加美町","municipality_code_method":"nearest_centroid"},"geometry":{"type":"Point","coordinates":[140.761111,38.615306]}},{"type":"Feature","properties":{"layer_id":"cultural_facilities","name":"小野田中学校","category":"public","address":"中原23-41","source":"国土交通省 国土数値情報","municipality_code":"04445","municipality_pref":"宮城県","municipality_name":"加美町","municipality_code_method":"nearest_centroid"},"geometry":{"type":"Point","coordinates":[140.779037,38.582408]}},{"type":"Feature","properties":{"layer_id":"cultural_facilities","name":"旭小学校","category":"public","address":"宮崎旭二番1-1","source":"国土交通省 国土数値情報","municipality_code":"04445","municipality_pref":"宮城県","municipality_name":"加美町","municipality_code_method":"nearest_centroid"},"geometry":{"type":"Point","coordinates":[140.710397,38.628182]}},{"type":"Feature","properties":{"layer_id":"cultural_facilities","name":"賀美石小学校","category":"public","address":"鳥屋ケ崎神明127","source":"国土交通省 国土数値情報","municipality_code":"04445","municipality_pref":"宮城県","municipality_name":"加美町","municipality_code_method":"nearest_centroid"},"geometry":{"type":"Point","coordinates":[140.803765,38.591277]}},{"type":"Feature","properties":{"layer_id":"cultural_facilities","name":"陶芸の里スポーツ公園","category":"public","address":"宮崎新土手浦1","source":"国土交通省 国土数値情報","municipality_code":"04445","municipality_pref":"宮城県","municipality_name":"加美町","municipality_code_method":"nearest_centroid"},"geometry":{"type":"Point","coordinates":[140.74777,38.612947]}},{"type":"Feature","properties":{"layer_id":"cultural_facilities","name":"陶芸の里スポーツ公園","category":"public","address":"宮崎新土手浦1","source":"国土交通省 国土数値情報","municipality_code":"04445","municipality_pref":"宮城県","municipality_name":"加美町","municipality_code_method":"nearest_centroid"},"geometry":{"type":"Point","coordinates":[140.748613,38.613931]}},{"type":"Feature","properties":{"layer_id":"cultural_facilities","name":"旭小学校","category":"public","address":"宮崎旭二番1-1","source":"国土交通省 国土数値情報","municipality_code":"04445","municipality_pref":"宮城県","municipality_name":"加美町","municipality_code_method":"nearest_centroid"},"geometry":{"type":"Point","coordinates":[140.709707,38.628303]}},{"type":"Feature","properties":{"layer_id":"cultural_facilities","name":"上多田川小学校","category":"public","address":"上多田川字笹沢東1-1","source":"国土交通省 国土数値情報","municipality_code":"04445","municipality_pref":"宮城県","municipality_name":"加美町","municipality_code_method":"nearest_centroid"},"geometry":{"type":"Point","coordinates":[140.825422,38.637788]}},{"type":"Feature","properties":{"layer_id":"cultural_facilities","name":"宮崎小学校","category":"public","address":"宮崎屋敷一番6-2","source":"国土交通省 国土数値情報","municipality_code":"04445","municipality_pref":"宮城県","municipality_name":"加美町","municipality_code_method":"nearest_centroid"},"geometry":{"type":"Point","coordinates":[140.760303,38.615454]}},{"type":"Feature","properties":{"layer_id":"cultural_facilities","name":"東小野田小学校","category":"public","address":"南寺宿45","source":"国土交通省 国土数値情報","municipality_code":"04445","municipality_pref":"宮城県","municipality_name":"加美町","municipality_code_method":"nearest_centroid"},"geometry":{"type":"Point","coordinates":[140.781894,38.575985]}},{"type":"Feature","properties":{"layer_id":"cultural_facilities","name":"上多田川小学校","category":"public","address":"上多田川字笹沢東1-1","source":"国土交通省 国土数値情報","municipality_code":"04445","municipality_pref":"宮城県","municipality_name":"加美町","municipality_code_method":"nearest_centroid"},"geometry":{"type":"Point","coordinates":[140.826325,38.636999]}},{"type":"Feature","properties":{"layer_id":"cultural_facilities","name":"鹿原小学校","category":"public","address":"字鹿原水堀3-1","source":"国土交通省 国土数値情報","municipality_code":"04445","municipality_pref":"宮城県","municipality_name":"加美町","municipality_code_method":"nearest_centroid"},"geometry":{"type":"Point","coordinates":[140.744751,38.567143]}},{"type":"Feature","properties":{"layer_id":"cultural_facilities","name":"宮崎中学校","category":"public","address":"柳沢字檜葉野屋敷49","source":"国土交通省 国土数値情報","municipality_code":"04445","municipality_pref":"宮城県","municipality_name":"加美町","municipality_code_method":"nearest_centroid"},"geometry":{"type":"Point","coordinates":[140.774093,38.602272]}},{"type":"Feature","properties":{"layer_id":"cultural_facilities","name":"宮崎小学校","category":"public","address":"宮崎屋敷一番6-2","source":"国土交通省 国土数値情報","municipality_code":"04445","municipality_pref":"宮城県","municipality_name":"加美町","municipality_code_method":"nearest_centroid"},"geometry":{"type":"Point","coordinates":[140.759804,38.614693]}},{"type":"Feature","properties":{"layer_id":"cultural_facilities","name":"西小野田小学校","category":"public","address":"字上野目高畑5","source":"国土交通省 国土数値情報","municipality_code":"04445","municipality_pref":"宮城県","municipality_name":"加美町","municipality_code_method":"nearest_centroid"},"geometry":{"type":"Point","coordinates":[140.730984,38.58815]}},{"type":"Feature","properties":{"layer_id":"cultural_facilities","name":"小野田中学校","category":"public","address":"中原23-41","source":"国土交通省 国土数値情報","municipality_code":"04445","municipality_pref":"宮城県","municipality_name":"加美町","municipality_code_method":"nearest_centroid"},"geometry":{"type":"Point","coordinates":[140.780392,38.582761]}},{"type":"Feature","properties":{"layer_id":"cultural_facilities","name":"宮崎中学校","category":"public","address":"柳沢字檜葉野屋敷49","source":"国土交通省 国土数値情報","municipality_code":"04445","municipality_pref":"宮城県","municipality_name":"加美町","municipality_code_method":"nearest_centroid"},"geometry":{"type":"Point","coordinates":[140.771574,38.603294]}},{"type":"Feature","properties":{"layer_id":"cultural_facilities","name":"陶芸の里スポーツ公園","category":"public","address":"宮崎新土手浦1","source":"国土交通省 国土数値情報","municipality_code":"04445","municipality_pref":"宮城県","municipality_name":"加美町","municipality_code_method":"nearest_centroid"},"geometry":{"type":"Point","coordinates":[140.750182,38.613448]}},{"type":"Feature","properties":{"layer_id":"cultural_facilities","name":"鹿原小学校","category":"public","address":"字鹿原水堀3-1","source":"国土交通省 国土数値情報","municipality_code":"04445","municipality_pref":"宮城県","municipality_name":"加美町","municipality_code_method":"nearest_centroid"},"geometry":{"type":"Point","coordinates":[140.743467,38.567477]}},{"type":"Feature","properties":{"layer_id":"cultural_facilities","name":"広原小学校","category":"public","address":"上狼塚東北原12-1","source":"国土交通省 国土数値情報","municipality_code":"04445","municipality_pref":"宮城県","municipality_name":"加美町","municipality_code_method":"nearest_centroid"},"geometry":{"type":"Point","coordinates":[140.866362,38.595213]}},{"type":"Feature","properties":{"layer_id":"tourism_resources","name":"辻倉沼","category":"nature","address":"湖沼景観 / 湖沼","source":"国土交通省 国土数値情報","municipality_code":"04445","municipality_pref":"宮城県","municipality_name":"加美町","municipality_code_method":"nearest_centroid","resource_code":"701"},"geometry":{"type":"Point","coordinates":[140.62428283691406,38.5406608581543]}},{"type":"Feature","properties":{"layer_id":"tourism_resources","name":"鳴瀬川門沢上流","category":"nature","address":"河川景観 / 峡谷・渓谷","source":"国土交通省 国土数値情報","municipality_code":"04445","municipality_pref":"宮城県","municipality_name":"加美町","municipality_code_method":"nearest_centroid","resource_code":"601"},"geometry":{"type":"Point","coordinates":[140.68370056152344,38.60334014892578]}},{"type":"Feature","properties":{"layer_id":"tourism_resources","name":"(白沼北東)","category":"nature","address":"湖沼景観 / 湖沼","source":"国土交通省 国土数値情報","municipality_code":"04445","municipality_pref":"宮城県","municipality_name":"加美町","municipality_code_method":"nearest_centroid","resource_code":"701"},"geometry":{"type":"Point","coordinates":[140.66334533691406,38.51454544067383]}},{"type":"Feature","properties":{"layer_id":"tourism_resources","name":"切込の北東約1km","category":"nature","address":"山地（非火山性）景観 / 山地 断崖・岩壁","source":"国土交通省 国土数値情報","municipality_code":"04445","municipality_pref":"宮城県","municipality_name":"加美町","municipality_code_method":"nearest_centroid","resource_code":"212"},"geometry":{"type":"Point","coordinates":[140.71722412109375,38.642234802246094]}},{"type":"Feature","properties":{"layer_id":"tourism_resources","name":"独活沼","category":"nature","address":"湖沼景観 / 湖沼","source":"国土交通省 国土数値情報","municipality_code":"04445","municipality_pref":"宮城県","municipality_name":"加美町","municipality_code_method":"nearest_centroid","resource_code":"701"},"geometry":{"type":"Point","coordinates":[140.6951904296875,38.668914794921875]}},{"type":"Feature","properties":{"layer_id":"tourism_resources","name":"薬莱山","category":"nature","address":"山地（非火山性）景観 / 非火山性弧峰","source":"国土交通省 国土数値情報","municipality_code":"04445","municipality_pref":"宮城県","municipality_name":"加美町","municipality_code_method":"nearest_centroid","resource_code":"205"},"geometry":{"type":"Point","coordinates":[140.70526123046875,38.575592041015625]}},{"type":"Feature","properties":{"layer_id":"tourism_resources","name":"白沼","category":"nature","address":"湖沼景観 / 湖沼","source":"国土交通省 国土数値情報","municipality_code":"04445","municipality_pref":"宮城県","municipality_name":"加美町","municipality_code_method":"nearest_centroid","resource_code":"701"},"geometry":{"type":"Point","coordinates":[140.6604461669922,38.51148986816406]}},{"type":"Feature","properties":{"layer_id":"tourism_resources","name":"朝日沢、夕日沢","category":"nature","address":"河川景観 / 峡谷・渓谷","source":"国土交通省 国土数値情報","municipality_code":"04445","municipality_pref":"宮城県","municipality_name":"加美町","municipality_code_method":"nearest_centroid","resource_code":"601"},"geometry":{"type":"Point","coordinates":[140.61007690429688,38.51454544067383]}},{"type":"Feature","properties":{"layer_id":"tourism_resources","name":"北かば谷地","category":"nature","address":"湖沼景観 / 湿原","source":"国土交通省 国土数値情報","municipality_code":"04445","municipality_pref":"宮城県","municipality_name":"加美町","municipality_code_method":"nearest_centroid","resource_code":"702"},"geometry":{"type":"Point","coordinates":[140.6456298828125,38.5379524230957]}},{"type":"Feature","properties":{"layer_id":"tourism_resources","name":"南かば谷地","category":"nature","address":"湖沼景観 / 湿原","source":"国土交通省 国土数値情報","municipality_code":"04445","municipality_pref":"宮城県","municipality_name":"加美町","municipality_code_method":"nearest_centroid","resource_code":"702"},"geometry":{"type":"Point","coordinates":[140.64678955078125,38.533782958984375]}},{"type":"Feature","properties":{"layer_id":"tourism_resources","name":"田谷地沼","category":"nature","address":"湖沼景観 / 湖沼","source":"国土交通省 国土数値情報","municipality_code":"04445","municipality_pref":"宮城県","municipality_name":"加美町","municipality_code_method":"nearest_centroid","resource_code":"701"},"geometry":{"type":"Point","coordinates":[140.68040466308594,38.553829193115234]}},{"type":"Feature","properties":{"layer_id":"tourism_resources","name":"不動ノ滝","category":"nature","address":"河川景観 / 滝","source":"国土交通省 国土数値情報","municipality_code":"04445","municipality_pref":"宮城県","municipality_name":"加美町","municipality_code_method":"nearest_centroid","resource_code":"610"},"geometry":{"type":"Point","coordinates":[140.6891632080078,38.56057357788086]}},{"type":"Feature","properties":{"layer_id":"tourism_resources","name":"田谷地湿原","category":"nature","address":"湖沼景観 / 湿原","source":"国土交通省 国土数値情報","municipality_code":"04445","municipality_pref":"宮城県","municipality_name":"加美町","municipality_code_method":"nearest_centroid","resource_code":"702"},"geometry":{"type":"Point","coordinates":[140.67933654785156,38.550384521484375]}},{"type":"Feature","properties":{"layer_id":"tourism_resources","name":"二ッ石川","category":"nature","address":"河川景観 / 峡谷・渓谷","source":"国土交通省 国土数値情報","municipality_code":"04445","municipality_pref":"宮城県","municipality_name":"加美町","municipality_code_method":"nearest_centroid","resource_code":"601"},"geometry":{"type":"Point","coordinates":[140.6647491455078,38.63169860839844]}},{"type":"Feature","properties":{"layer_id":"tourism_resources","name":"宝森","category":"nature","address":"山地（非火山性）景観 / 非火山性弧峰","source":"国土交通省 国土数値情報","municipality_code":"04445","municipality_pref":"宮城県","municipality_name":"加美町","municipality_code_method":"nearest_centroid","resource_code":"205"},"geometry":{"type":"Point","coordinates":[140.62478637695312,38.64447021484375]}},{"type":"Feature","properties":{"layer_id":"tourism_resources","name":"船形長沼","category":"nature","address":"湖沼景観 / 湖沼","source":"国土交通省 国土数値情報","municipality_code":"04445","municipality_pref":"宮城県","municipality_name":"加美町","municipality_code_method":"nearest_centroid","resource_code":"701"},"geometry":{"type":"Point","coordinates":[140.67001342773438,38.50615692138672]}},{"type":"Feature","properties":{"layer_id":"tourism_resources","name":"ウトウ沼","category":"nature","address":"湖沼景観 / 湖沼","source":"国土交通省 国土数値情報","municipality_code":"04445","municipality_pref":"宮城県","municipality_name":"加美町","municipality_code_method":"nearest_centroid","resource_code":"701"},"geometry":{"type":"Point","coordinates":[140.64901733398438,38.66481399536133]}}],"display_comment_original":"加美町には、地域の由緒を示す案内板や石碑を探す余地がある。 この地域には史跡や遺跡、寺社や信仰の場、城跡や陣屋跡に関わる場所が見え、宮崎城跡、東山官衙遺跡、壇の越遺跡のような地点が探索の入口になる。 現地では史跡説明板を、既存ピンと照らして歩くと発見しやすい。","story_enrichment":{"samurai_priority_people":[],"notable_people":["成瀬川土左衛門","中島鵬六","伊藤宗一郎","今野栄喜","本間俊一"],"honorary_citizens":[],"tourism_landmarks":["中新田バッハホール","あゆの里中央公園","城生柵跡","東山官衙遺跡","菜切谷廃寺跡","松本家住宅","荒沢の滝","薬萊山（やくらいさん）"],"specialties":[],"food_culture":[],"historical_domains":[],"heian_place_names":[],"japan_search_support":[],"enrichment_sources":["https://ja.wikipedia.org/wiki/%E5%8A%A0%E7%BE%8E%E7%94%BA","https://www.wikidata.org/wiki/Q11495549","https://www.wikidata.org/wiki/Q20041808","https://www.wikidata.org/wiki/Q11380032","https://www.wikidata.org/wiki/Q30925579","https://www.wikidata.org/wiki/Q11520950","https://www.wikidata.org/wiki/Q21699759","https://jpsearch.go.jp/csearch/jps-cross?csid=jps-cross&keyword=%E6%88%90%E7%80%AC%E5%B7%9D%E5%9C%9F%E5%B7%A6%E8%A1%9B%E9%96%80&keyword=%E5%8A%A0%E7%BE%8E%E7%94%BA"],"enrichment_errors":[],"wikipedia_title":"加美町","wikipedia_revision_id":"110367563","wikidata_qid":"Q1205414","wikipedia_url":"https://ja.wikipedia.org/wiki/%E5%8A%A0%E7%BE%8E%E7%94%BA","japan_search_query_url":"https://jpsearch.go.jp/csearch/jps-cross?csid=jps-cross&keyword=%E6%88%90%E7%80%AC%E5%B7%9D%E5%9C%9F%E5%B7%A6%E8%A1%9B%E9%96%80&keyword=%E5%8A%A0%E7%BE%8E%E7%94%BA","status":"wikipedia_ok"}}