{"type":"FeatureCollection","municipality_code":"05211","pref":"秋田県","city":"潟上市","display_comment":"潟上市には、地域の歴史や暮らしを伝える案内板や石碑があり、それらを手がかりに街歩きを楽しめます。 周辺には寺社や信仰の場、史跡や遺跡にまつわる場所が点在し、「羽白目遺跡」、「鬼王館跡」、「東湖八坂神社」などを起点に歩くと、地域の歴史がぐっと見えやすくなります。 現地では史跡説明板が、地域の歴史を読み解く手がかりになるでしょう。 川沿いや水辺では、暮らしや堤防整備の歴史を伝える案内板、治水碑、河川改修の記念碑にも注目してみてください。 ゆかりの人物では小玉健吉や山平和彦に注目すると、地域に残る文化や時代背景をさらに深く知るきっかけになります。","layer_counts":{"cafe_restaurant":1,"public_facilities":90,"scenic_nature_areas":1,"cultural_facilities":40,"parks_playgrounds":13},"total_features":145,"features":[{"type":"Feature","properties":{"layer_id":"cafe_restaurant","name":"すき家　285号潟上店","address":"秋田県潟上市飯田川飯塚字岡谷地14番1","source":"厚生労働省 食品衛生申請等システム（オープンデータ）"},"geometry":{"type":"Point","coordinates":[140.088708,39.903946]}},{"type":"Feature","properties":{"layer_id":"public_facilities","name":"矢坂会館","address":"潟上市飯田川和田妹川字坂ノ下51","source":"国土交通省 国土数値情報"},"geometry":{"type":"Point","coordinates":[140.078615,39.889273]}},{"type":"Feature","properties":{"layer_id":"public_facilities","name":"飯塚分館","address":"潟上市飯田川飯塚字深田19-2","source":"国土交通省 国土数値情報"},"geometry":{"type":"Point","coordinates":[140.079976,39.896492]}},{"type":"Feature","properties":{"layer_id":"public_facilities","name":"荒長根分館","address":"潟上市昭和豊川槻木字蘭戸下35-30","source":"国土交通省 国土数値情報"},"geometry":{"type":"Point","coordinates":[140.084628,39.86171]}},{"type":"Feature","properties":{"layer_id":"public_facilities","name":"潟上市役所追分出張所","address":"潟上市天王字長沼132-21","source":"国土交通省 国土数値情報"},"geometry":{"type":"Point","coordinates":[140.052293,39.814568]}},{"type":"Feature","properties":{"layer_id":"public_facilities","name":"昭和体育館","address":"潟上市昭和大久保元木田180","source":"国土交通省 国土数値情報"},"geometry":{"type":"Point","coordinates":[140.067442,39.868246]}},{"type":"Feature","properties":{"layer_id":"public_facilities","name":"金山分館","address":"潟上市飯田川金山字家ノ前83-2","source":"国土交通省 国土数値情報"},"geometry":{"type":"Point","coordinates":[140.103413,39.881457]}},{"type":"Feature","properties":{"layer_id":"public_facilities","name":"天王コミュニティ防災センター","address":"潟上市天王字持長根93-1","source":"国土交通省 国土数値情報"},"geometry":{"type":"Point","coordinates":[139.982115,39.886109]}},{"type":"Feature","properties":{"layer_id":"public_facilities","name":"蒲沼分館","address":"潟上市天王字蒲沼69-2","source":"国土交通省 国土数値情報"},"geometry":{"type":"Point","coordinates":[140.004914,39.867753]}},{"type":"Feature","properties":{"layer_id":"public_facilities","name":"二田２区集会所","address":"潟上市天王字二田208-3","source":"国土交通省 国土数値情報"},"geometry":{"type":"Point","coordinates":[139.996327,39.880777]}},{"type":"Feature","properties":{"layer_id":"public_facilities","name":"塩口分館","address":"潟上市天王字塩口183","source":"国土交通省 国土数値情報"},"geometry":{"type":"Point","coordinates":[139.981179,39.906894]}},{"type":"Feature","properties":{"layer_id":"public_facilities","name":"中羽立分館","address":"潟上市天王字中羽立421-8","source":"国土交通省 国土数値情報"},"geometry":{"type":"Point","coordinates":[139.99225,39.907752]}},{"type":"Feature","properties":{"layer_id":"public_facilities","name":"田屋分館","address":"潟上市昭和豊川竜毛字坂の下6-1","source":"国土交通省 国土数値情報"},"geometry":{"type":"Point","coordinates":[140.072918,39.866715]}},{"type":"Feature","properties":{"layer_id":"public_facilities","name":"飯田川体育館","address":"潟上市飯田川下虻川字八ツ口82","source":"国土交通省 国土数値情報"},"geometry":{"type":"Point","coordinates":[140.070939,39.883631]}},{"type":"Feature","properties":{"layer_id":"public_facilities","name":"天王総合体育館","address":"潟上市天王字持長根93-1","source":"国土交通省 国土数値情報"},"geometry":{"type":"Point","coordinates":[139.981653,39.886031]}},{"type":"Feature","properties":{"layer_id":"public_facilities","name":"上出戸分館体育館","address":"潟上市天王字北野164-15","source":"国土交通省 国土数値情報"},"geometry":{"type":"Point","coordinates":[140.029396,39.83351]}},{"type":"Feature","properties":{"layer_id":"public_facilities","name":"天王ふれあい交流センター","address":"潟上市天王字江川上谷地109-2","source":"国土交通省 国土数値情報"},"geometry":{"type":"Point","coordinates":[140.009809,39.85624]}},{"type":"Feature","properties":{"layer_id":"public_facilities","name":"曲町集会所","address":"潟上市天王字御休下209-1","source":"国土交通省 国土数値情報"},"geometry":{"type":"Point","coordinates":[139.967024,39.894319]}},{"type":"Feature","properties":{"layer_id":"public_facilities","name":"市民センターかたりあん","address":"潟上市天王字上江川47-398","source":"国土交通省 国土数値情報"},"geometry":{"type":"Point","coordinates":[139.987469,39.882318]}},{"type":"Feature","properties":{"layer_id":"public_facilities","name":"株山分館","address":"潟上市昭和豊川竜毛字後山3-12","source":"国土交通省 国土数値情報"},"geometry":{"type":"Point","coordinates":[140.078917,39.857175]}},{"type":"Feature","properties":{"layer_id":"public_facilities","name":"宮下会館","address":"潟上市飯田川飯塚僧ケ沢4","source":"国土交通省 国土数値情報"},"geometry":{"type":"Point","coordinates":[140.07925,39.891535]}},{"type":"Feature","properties":{"layer_id":"public_facilities","name":"羽立神明自治会館","address":"潟上市飯田川下虻川字街道上一本木34-1","source":"国土交通省 国土数値情報"},"geometry":{"type":"Point","coordinates":[140.067134,39.873578]}},{"type":"Feature","properties":{"layer_id":"public_facilities","name":"昭和中央地区館","address":"潟上市昭和大久保字元木田68","source":"国土交通省 国土数値情報"},"geometry":{"type":"Point","coordinates":[140.065259,39.865321]}},{"type":"Feature","properties":{"layer_id":"public_facilities","name":"蓮沼分館","address":"潟上市昭和大久保字北野海老漉沼端138-25","source":"国土交通省 国土数値情報"},"geometry":{"type":"Point","coordinates":[140.02364,39.869879]}},{"type":"Feature","properties":{"layer_id":"public_facilities","name":"中町分館","address":"潟上市昭和乱橋字下畑61-7","source":"国土交通省 国土数値情報"},"geometry":{"type":"Point","coordinates":[140.060038,39.865559]}},{"type":"Feature","properties":{"layer_id":"public_facilities","name":"平成会館","address":"潟上市飯田川飯塚字中谷地89-2","source":"国土交通省 国土数値情報"},"geometry":{"type":"Point","coordinates":[140.073319,39.898046]}},{"type":"Feature","properties":{"layer_id":"public_facilities","name":"二田１区集会所","address":"潟上市天王字下分水42-3","source":"国土交通省 国土数値情報"},"geometry":{"type":"Point","coordinates":[139.9907,39.885937]}},{"type":"Feature","properties":{"layer_id":"public_facilities","name":"和田妹川分館","address":"潟上市飯田川和田妹川字出張32-1","source":"国土交通省 国土数値情報"},"geometry":{"type":"Point","coordinates":[140.077244,39.886763]}},{"type":"Feature","properties":{"layer_id":"public_facilities","name":"出戸新町分館","address":"潟上市天王字北野329-2","source":"国土交通省 国土数値情報"},"geometry":{"type":"Point","coordinates":[140.029871,39.843018]}},{"type":"Feature","properties":{"layer_id":"public_facilities","name":"羽立分館","address":"潟上市天王字羽立131-1","source":"国土交通省 国土数値情報"},"geometry":{"type":"Point","coordinates":[139.998713,39.904989]}},{"type":"Feature","properties":{"layer_id":"public_facilities","name":"東湖町集会所","address":"潟上市天王字一向11-103","source":"国土交通省 国土数値情報"},"geometry":{"type":"Point","coordinates":[139.962796,39.902857]}},{"type":"Feature","properties":{"layer_id":"public_facilities","name":"市民センター昭和館","address":"潟上市昭和大久保字堤の上1-3","source":"国土交通省 国土数値情報"},"geometry":{"type":"Point","coordinates":[140.065522,39.869349]}},{"type":"Feature","properties":{"layer_id":"public_facilities","name":"追分分館","address":"潟上市天王字長沼132-9","source":"国土交通省 国土数値情報"},"geometry":{"type":"Point","coordinates":[140.053253,39.811379]}},{"type":"Feature","properties":{"layer_id":"public_facilities","name":"勤労青少年ホーム","address":"潟上市天王字長沼132-21","source":"国土交通省 国土数値情報"},"geometry":{"type":"Point","coordinates":[140.052238,39.814596]}},{"type":"Feature","properties":{"layer_id":"public_facilities","name":"三軒屋分館","address":"潟上市天王字北野117-2","source":"国土交通省 国土数値情報"},"geometry":{"type":"Point","coordinates":[140.037282,39.832413]}},{"type":"Feature","properties":{"layer_id":"public_facilities","name":"古川分館","address":"潟上市昭和大久保字町後16-2","source":"国土交通省 国土数値情報"},"geometry":{"type":"Point","coordinates":[140.055987,39.868124]}},{"type":"Feature","properties":{"layer_id":"public_facilities","name":"羽白目分館","address":"潟上市昭和豊川上虻川字羽白目35-1","source":"国土交通省 国土数値情報"},"geometry":{"type":"Point","coordinates":[140.110504,39.860072]}},{"type":"Feature","properties":{"layer_id":"public_facilities","name":"レイクプラザ昭和・中央地区公民館","address":"潟上市昭和大久保字町後247","source":"国土交通省 国土数値情報"},"geometry":{"type":"Point","coordinates":[140.058398,39.869337]}},{"type":"Feature","properties":{"layer_id":"public_facilities","name":"下出戸分館体育館","address":"潟上市天王字下浜山105-1","source":"国土交通省 国土数値情報"},"geometry":{"type":"Point","coordinates":[140.017784,39.846892]}},{"type":"Feature","properties":{"layer_id":"public_facilities","name":"天神下分館","address":"潟上市昭和大久保字北野大崎道添46","source":"国土交通省 国土数値情報"},"geometry":{"type":"Point","coordinates":[140.042454,39.857436]}},{"type":"Feature","properties":{"layer_id":"public_facilities","name":"牛坂分館","address":"潟上市天王字追分117-179","source":"国土交通省 国土数値情報"},"geometry":{"type":"Point","coordinates":[140.053729,39.825506]}},{"type":"Feature","properties":{"layer_id":"public_facilities","name":"潟上市役所飯田川出張所","address":"潟上市飯田川下虻川字八ツ口70","source":"国土交通省 国土数値情報"},"geometry":{"type":"Point","coordinates":[140.071153,39.883199]}},{"type":"Feature","properties":{"layer_id":"public_facilities","name":"下出戸分館","address":"潟上市天王字下出戸117","source":"国土交通省 国土数値情報"},"geometry":{"type":"Point","coordinates":[140.018642,39.847595]}},{"type":"Feature","properties":{"layer_id":"public_facilities","name":"潟上市役所天王出張所","address":"潟上市天王字上江川47-441","source":"国土交通省 国土数値情報"},"geometry":{"type":"Point","coordinates":[139.986603,39.884384]}},{"type":"Feature","properties":{"layer_id":"public_facilities","name":"下虻川分館","address":"潟上市飯田川下虻川字屋敷40-1","source":"国土交通省 国土数値情報"},"geometry":{"type":"Point","coordinates":[140.0696,39.878711]}},{"type":"Feature","properties":{"layer_id":"public_facilities","name":"出戸地区コミュニティセンター","address":"潟上市天王字持長根93-1","source":"国土交通省 国土数値情報"},"geometry":{"type":"Point","coordinates":[139.982259,39.886143]}},{"type":"Feature","properties":{"layer_id":"public_facilities","name":"緑町集会所","address":"潟上市天王字追分西32-173","source":"国土交通省 国土数値情報"},"geometry":{"type":"Point","coordinates":[140.037343,39.817006]}},{"type":"Feature","properties":{"layer_id":"public_facilities","name":"児玉分館","address":"潟上市天王字沖田台350-1","source":"国土交通省 国土数値情報"},"geometry":{"type":"Point","coordinates":[139.98252,39.891081]}},{"type":"Feature","properties":{"layer_id":"public_facilities","name":"八丁目分館","address":"潟上市昭和乱橋字木鉢85-3","source":"国土交通省 国土数値情報"},"geometry":{"type":"Point","coordinates":[140.061934,39.854133]}},{"type":"Feature","properties":{"layer_id":"public_facilities","name":"市民センター","address":"潟上市天王字上江川47-398","source":"国土交通省 国土数値情報"},"geometry":{"type":"Point","coordinates":[139.986039,39.883925]}},{"type":"Feature","properties":{"layer_id":"public_facilities","name":"下谷地分館","address":"潟上市昭和大久保字後谷地47-1","source":"国土交通省 国土数値情報"},"geometry":{"type":"Point","coordinates":[140.036315,39.865863]}},{"type":"Feature","properties":{"layer_id":"public_facilities","name":"佐渡分館","address":"潟上市昭和8-字家後34-3","source":"国土交通省 国土数値情報"},"geometry":{"type":"Point","coordinates":[140.064817,39.850292]}},{"type":"Feature","properties":{"layer_id":"public_facilities","name":"新関分館","address":"潟上市昭和大久保字後谷地4-1","source":"国土交通省 国土数値情報"},"geometry":{"type":"Point","coordinates":[140.038003,39.86614]}},{"type":"Feature","properties":{"layer_id":"public_facilities","name":"昭和南部地区館","address":"潟上市昭和大久保字北野街道上56-8","source":"国土交通省 国土数値情報"},"geometry":{"type":"Point","coordinates":[140.043877,39.848664]}},{"type":"Feature","properties":{"layer_id":"public_facilities","name":"白洲野分館","address":"潟上市昭和大久保字北野白洲野53-1","source":"国土交通省 国土数値情報"},"geometry":{"type":"Point","coordinates":[140.022043,39.877224]}},{"type":"Feature","properties":{"layer_id":"public_facilities","name":"市民センター飯田川館","address":"潟上市飯田川下虻川八ツ口67","source":"国土交通省 国土数値情報"},"geometry":{"type":"Point","coordinates":[140.070427,39.882877]}},{"type":"Feature","properties":{"layer_id":"public_facilities","name":"昭和出張所","address":"潟上市昭和大久保字堤の上1-3","source":"国土交通省 国土数値情報"},"geometry":{"type":"Point","coordinates":[140.06582,39.869867]}},{"type":"Feature","properties":{"layer_id":"public_facilities","name":"天王分館","address":"潟上市天王字ハラヘ4-3","source":"国土交通省 国土数値情報"},"geometry":{"type":"Point","coordinates":[139.965415,39.898335]}},{"type":"Feature","properties":{"layer_id":"public_facilities","name":"天王福祉センター","address":"潟上市天王字上江川47-441","source":"国土交通省 国土数値情報"},"geometry":{"type":"Point","coordinates":[139.986742,39.884357]}},{"type":"Feature","properties":{"layer_id":"public_facilities","name":"山田分館","address":"潟上市昭和豊川山田字八幡下24-1","source":"国土交通省 国土数値情報"},"geometry":{"type":"Point","coordinates":[140.089027,39.873613]}},{"type":"Feature","properties":{"layer_id":"public_facilities","name":"上町分館","address":"潟上市昭和大久保字小橋24","source":"国土交通省 国土数値情報"},"geometry":{"type":"Point","coordinates":[140.060519,39.866939]}},{"type":"Feature","properties":{"layer_id":"public_facilities","name":"天王Ｂ＆Ｇ海洋センター体育館","address":"潟上市天王字羽立片山254-2","source":"国土交通省 国土数値情報"},"geometry":{"type":"Point","coordinates":[139.994386,39.899871]}},{"type":"Feature","properties":{"layer_id":"public_facilities","name":"新薬分館","address":"潟上市昭和豊川上虻川字新所130-1","source":"国土交通省 国土数値情報"},"geometry":{"type":"Point","coordinates":[140.128725,39.854857]}},{"type":"Feature","properties":{"layer_id":"public_facilities","name":"鶴沼台分館","address":"潟上市天王字鶴沼台54","source":"国土交通省 国土数値情報"},"geometry":{"type":"Point","coordinates":[140.014038,39.86491]}},{"type":"Feature","properties":{"layer_id":"public_facilities","name":"昭和西部地区館","address":"潟上市昭和大久保字後谷地4-1","source":"国土交通省 国土数値情報"},"geometry":{"type":"Point","coordinates":[140.037993,39.86614]}},{"type":"Feature","properties":{"layer_id":"public_facilities","name":"野村多目的研修集会センター","address":"潟上市昭和大久保字北野白洲野上37-2","source":"国土交通省 国土数値情報"},"geometry":{"type":"Point","coordinates":[140.028536,39.871451]}},{"type":"Feature","properties":{"layer_id":"public_facilities","name":"四季の街分館・宮ノ前分館","address":"潟上市昭和大久保字元木田68","source":"国土交通省 国土数値情報"},"geometry":{"type":"Point","coordinates":[140.06526,39.865324]}},{"type":"Feature","properties":{"layer_id":"public_facilities","name":"二田栄町集会所","address":"潟上市天王字上江川170","source":"国土交通省 国土数値情報"},"geometry":{"type":"Point","coordinates":[139.992097,39.87946]}},{"type":"Feature","properties":{"layer_id":"public_facilities","name":"渋谷分館","address":"潟上市天王字不動台62","source":"国土交通省 国土数値情報"},"geometry":{"type":"Point","coordinates":[139.986351,39.900797]}},{"type":"Feature","properties":{"layer_id":"public_facilities","name":"二田分館","address":"潟上市天王字二田184-2","source":"国土交通省 国土数値情報"},"geometry":{"type":"Point","coordinates":[140.001345,39.876939]}},{"type":"Feature","properties":{"layer_id":"public_facilities","name":"真形草生土集会所","address":"潟上市昭和豊川槻木字真形沢1-5","source":"国土交通省 国土数値情報"},"geometry":{"type":"Point","coordinates":[140.081739,39.851262]}},{"type":"Feature","properties":{"layer_id":"public_facilities","name":"江川分館","address":"潟上市天王字江川151","source":"国土交通省 国土数値情報"},"geometry":{"type":"Point","coordinates":[139.97155,39.889245]}},{"type":"Feature","properties":{"layer_id":"public_facilities","name":"天王本郷自治会館","address":"潟上市天王字天王123","source":"国土交通省 国土数値情報"},"geometry":{"type":"Point","coordinates":[139.960436,39.89809]}},{"type":"Feature","properties":{"layer_id":"public_facilities","name":"小泉分館","address":"潟上市昭和豊川上虻川字小泉58","source":"国土交通省 国土数値情報"},"geometry":{"type":"Point","coordinates":[140.11343,39.862702]}},{"type":"Feature","properties":{"layer_id":"public_facilities","name":"上出戸分館","address":"潟上市天王字北野164-15","source":"国土交通省 国土数値情報"},"geometry":{"type":"Point","coordinates":[140.029416,39.83351]}},{"type":"Feature","properties":{"layer_id":"public_facilities","name":"羽立北野分館","address":"潟上市天王字羽立北野1-124","source":"国土交通省 国土数値情報"},"geometry":{"type":"Point","coordinates":[139.997499,39.888754]}},{"type":"Feature","properties":{"layer_id":"public_facilities","name":"細谷分館","address":"潟上市天王字上狼縁1-2","source":"国土交通省 国土数値情報"},"geometry":{"type":"Point","coordinates":[140.026744,39.852492]}},{"type":"Feature","properties":{"layer_id":"public_facilities","name":"二田新町集会所","address":"潟上市天王字上江川47-1190","source":"国土交通省 国土数値情報"},"geometry":{"type":"Point","coordinates":[139.989752,39.879566]}},{"type":"Feature","properties":{"layer_id":"public_facilities","name":"大崎分館","address":"潟上市天王大崎字上沖中谷地42","source":"国土交通省 国土数値情報"},"geometry":{"type":"Point","coordinates":[140.008101,39.891812]}},{"type":"Feature","properties":{"layer_id":"public_facilities","name":"昭和武道館","address":"潟上市昭和大久保字元木田160","source":"国土交通省 国土数値情報"},"geometry":{"type":"Point","coordinates":[140.067293,39.867682]}},{"type":"Feature","properties":{"layer_id":"public_facilities","name":"野村分館","address":"潟上市昭和大久保字音羽下342","source":"国土交通省 国土数値情報"},"geometry":{"type":"Point","coordinates":[140.034751,39.868821]}},{"type":"Feature","properties":{"layer_id":"public_facilities","name":"中町会館","address":"潟上市飯田川下虻川字屋敷120-1","source":"国土交通省 国土数値情報"},"geometry":{"type":"Point","coordinates":[140.071771,39.877075]}},{"type":"Feature","properties":{"layer_id":"public_facilities","name":"乱橋分館","address":"潟上市昭和乱橋字宅地家後34","source":"国土交通省 国土数値情報"},"geometry":{"type":"Point","coordinates":[140.062073,39.858228]}},{"type":"Feature","properties":{"layer_id":"public_facilities","name":"飯田川出張所","address":"潟上市飯田川下虻川字八ツ口70","source":"国土交通省 国土数値情報"},"geometry":{"type":"Point","coordinates":[140.07074,39.883146]}},{"type":"Feature","properties":{"layer_id":"public_facilities","name":"アミダ堂分館","address":"潟上市昭和大久保字阿弥陀堂60-2","source":"国土交通省 国土数値情報"},"geometry":{"type":"Point","coordinates":[140.058827,39.860704]}},{"type":"Feature","properties":{"layer_id":"public_facilities","name":"乱橋交流情報拠点施設","address":"潟上市昭和8-字汲田24","source":"国土交通省 国土数値情報"},"geometry":{"type":"Point","coordinates":[140.061286,39.856016]}},{"type":"Feature","properties":{"layer_id":"public_facilities","name":"天王農村婦人の家","address":"潟上市天王字二田154","source":"国土交通省 国土数値情報"},"geometry":{"type":"Point","coordinates":[140.008353,39.871442]}},{"type":"Feature","properties":{"layer_id":"public_facilities","name":"大清水北野分館","address":"潟上市昭和大久保字北野細谷道添130","source":"国土交通省 国土数値情報"},"geometry":{"type":"Point","coordinates":[140.047576,39.830891]}},{"type":"Feature","properties":{"layer_id":"public_facilities","name":"元木分館","address":"潟上市昭和大久保字堤の上34-11","source":"国土交通省 国土数値情報"},"geometry":{"type":"Point","coordinates":[140.06439,39.867803]}},{"type":"Feature","properties":{"layer_id":"public_facilities","name":"駅前分館","address":"潟上市昭和大久保字堤の上1-3の内","source":"国土交通省 国土数値情報"},"geometry":{"type":"Point","coordinates":[140.065982,39.869868]}},{"type":"Feature","properties":{"layer_id":"public_facilities","name":"潟上市役所昭和出張所","address":"潟上市昭和大久保字堤の上1-3","source":"国土交通省 国土数値情報"},"geometry":{"type":"Point","coordinates":[140.065939,39.869918]}},{"type":"Feature","properties":{"layer_id":"scenic_nature_areas","name":"天王町","source":"国土交通省 国土数値情報"},"geometry":{"type":"Polygon","coordinates":[[[140.030888,39.848444],[140.030787,39.848408],[140.030528,39.848415],[140.029753,39.848361],[140.029404,39.848358],[140.029323,39.848444],[140.029138,39.848816],[140.028896,39.849196],[140.028703,39.849438],[140.028706,39.849449],[140.028254,39.849877],[140.028965,39.850831],[140.028984,39.850818],[140.029258,39.850551],[140.029543,39.850345],[140.029805,39.850148],[140.030001,39.849854],[140.030299,39.849481],[140.030678,39.848972],[140.030908,39.848626],[140.030888,39.848444]]]}},{"type":"Feature","properties":{"layer_id":"cultural_facilities","name":"昭和歴史民俗資料館","address":"昭和大久保字元木山根51","source":"国土交通省 国土数値情報"},"geometry":{"type":"Point","coordinates":[140.06839,39.862485]}},{"type":"Feature","properties":{"layer_id":"cultural_facilities","name":"元木山テニスコート","address":"昭和大久保字元木山根","source":"国土交通省 国土数値情報"},"geometry":{"type":"Point","coordinates":[140.069762,39.859733]}},{"type":"Feature","properties":{"layer_id":"cultural_facilities","name":"潟上市飯田川Ｂ＆Ｇ海洋センター","address":"飯田川和田妹川字岩崎2-5","source":"国土交通省 国土数値情報"},"geometry":{"type":"Point","coordinates":[140.072826,39.88476]}},{"type":"Feature","properties":{"layer_id":"cultural_facilities","name":"天王湖岸球場","address":"天王字羽立片山","source":"国土交通省 国土数値情報"},"geometry":{"type":"Point","coordinates":[139.993219,39.899798]}},{"type":"Feature","properties":{"layer_id":"cultural_facilities","name":"潟上市図書館","address":"天王字御休下1-1","source":"国土交通省 国土数値情報"},"geometry":{"type":"Point","coordinates":[139.985498,39.883364]}},{"type":"Feature","properties":{"layer_id":"cultural_facilities","name":"潟上市飯田川南公園","address":"飯田川下虻川字蟹沢","source":"国土交通省 国土数値情報"},"geometry":{"type":"Point","coordinates":[140.07545,39.881231]}},{"type":"Feature","properties":{"layer_id":"cultural_facilities","name":"潟上市郷土文化保存伝習館","address":"昭和豊川山田字家ノ上63","source":"国土交通省 国土数値情報"},"geometry":{"type":"Point","coordinates":[140.084462,39.873842]}},{"type":"Feature","properties":{"layer_id":"cultural_facilities","name":"潟上市昭和体育館","address":"昭和大久保字元木田179","source":"国土交通省 国土数値情報"},"geometry":{"type":"Point","coordinates":[140.067487,39.868352]}},{"type":"Feature","properties":{"layer_id":"cultural_facilities","name":"潟上市天王Ｂ＆Ｇ海洋センター","address":"天王字羽立片山254-2","source":"国土交通省 国土数値情報"},"geometry":{"type":"Point","coordinates":[139.994413,39.899805]}},{"type":"Feature","properties":{"layer_id":"cultural_facilities","name":"潟上市天王総合体育館","address":"天王字持長根93-1","source":"国土交通省 国土数値情報"},"geometry":{"type":"Point","coordinates":[139.981658,39.886046]}},{"type":"Feature","properties":{"layer_id":"cultural_facilities","name":"天王一向球場","address":"天王字一向","source":"国土交通省 国土数値情報"},"geometry":{"type":"Point","coordinates":[139.964356,39.903531]}},{"type":"Feature","properties":{"layer_id":"cultural_facilities","name":"野村多目的運動広場","address":"昭和大久保字北野白州野","source":"国土交通省 国土数値情報"},"geometry":{"type":"Point","coordinates":[140.027728,39.872046]}},{"type":"Feature","properties":{"layer_id":"cultural_facilities","name":"潟上市天王総合体育館","address":"天王字持長根93-1","source":"国土交通省 国土数値情報"},"geometry":{"type":"Point","coordinates":[139.981604,39.885959]}},{"type":"Feature","properties":{"layer_id":"cultural_facilities","name":"潟上市飯田川体育館","address":"飯田川下虻川字八ツ口82","source":"国土交通省 国土数値情報"},"geometry":{"type":"Point","coordinates":[140.070768,39.883725]}},{"type":"Feature","properties":{"layer_id":"cultural_facilities","name":"潟上市飯田川ふれあいスポーツ会館","address":"飯田川和田妹川字岩崎9","source":"国土交通省 国土数値情報"},"geometry":{"type":"Point","coordinates":[140.073025,39.88547]}},{"type":"Feature","properties":{"layer_id":"cultural_facilities","name":"潟上市飯田川ふれあいスポーツ会館","address":"飯田川和田妹川字岩崎9","source":"国土交通省 国土数値情報"},"geometry":{"type":"Point","coordinates":[140.072752,39.885543]}},{"type":"Feature","properties":{"layer_id":"cultural_facilities","name":"長沼球場","address":"天王字長沼","source":"国土交通省 国土数値情報"},"geometry":{"type":"Point","coordinates":[140.048911,39.821634]}},{"type":"Feature","properties":{"layer_id":"cultural_facilities","name":"天王緑の健康広場テニスコート","address":"天王字鶴沼台43-220","source":"国土交通省 国土数値情報"},"geometry":{"type":"Point","coordinates":[140.016629,39.861788]}},{"type":"Feature","properties":{"layer_id":"cultural_facilities","name":"潟上市天王剣道場","address":"天王字宮の後3","source":"国土交通省 国土数値情報"},"geometry":{"type":"Point","coordinates":[139.986151,39.886022]}},{"type":"Feature","properties":{"layer_id":"cultural_facilities","name":"潟上市飯田川ふれあいスポーツ会館","address":"飯田川和田妹川字岩崎9","source":"国土交通省 国土数値情報"},"geometry":{"type":"Point","coordinates":[140.073239,39.885452]}},{"type":"Feature","properties":{"layer_id":"cultural_facilities","name":"潟上市天王中央庭球場","address":"天王字持長根93-1","source":"国土交通省 国土数値情報"},"geometry":{"type":"Point","coordinates":[139.982495,39.885727]}},{"type":"Feature","properties":{"layer_id":"cultural_facilities","name":"元木山球場","address":"昭和大久保字元木山根","source":"国土交通省 国土数値情報"},"geometry":{"type":"Point","coordinates":[140.071295,39.863145]}},{"type":"Feature","properties":{"layer_id":"cultural_facilities","name":"潟上市追分地区公園","address":"天王長沼144-1","source":"国土交通省 国土数値情報"},"geometry":{"type":"Point","coordinates":[140.048911,39.821898]}},{"type":"Feature","properties":{"layer_id":"cultural_facilities","name":"潟上市鞍掛沼公園多目的広場","address":"天王字江川上谷地","source":"国土交通省 国土数値情報"},"geometry":{"type":"Point","coordinates":[140.009337,39.859132]}},{"type":"Feature","properties":{"layer_id":"cultural_facilities","name":"潟上市追分地区公園","address":"天王長沼144-1","source":"国土交通省 国土数値情報"},"geometry":{"type":"Point","coordinates":[140.047824,39.823386]}},{"type":"Feature","properties":{"layer_id":"cultural_facilities","name":"出戸浜海水浴場","address":"天王下浜山","source":"国土交通省 国土数値情報"},"geometry":{"type":"Point","coordinates":[140.012721,39.839408]}},{"type":"Feature","properties":{"layer_id":"cultural_facilities","name":"潟上市昭和体育館","address":"昭和大久保字元木田179","source":"国土交通省 国土数値情報"},"geometry":{"type":"Point","coordinates":[140.067428,39.868151]}},{"type":"Feature","properties":{"layer_id":"cultural_facilities","name":"潟上市昭和武道館","address":"昭和大久保字元木田160","source":"国土交通省 国土数値情報"},"geometry":{"type":"Point","coordinates":[140.06721,39.867765]}},{"type":"Feature","properties":{"layer_id":"cultural_facilities","name":"潟上市天王柔道場","address":"天王字宮の後3","source":"国土交通省 国土数値情報"},"geometry":{"type":"Point","coordinates":[139.985521,39.885521]}},{"type":"Feature","properties":{"layer_id":"cultural_facilities","name":"潟上市飯田川体育館","address":"飯田川下虻川字八ツ口82","source":"国土交通省 国土数値情報"},"geometry":{"type":"Point","coordinates":[140.070827,39.883862]}},{"type":"Feature","properties":{"layer_id":"cultural_facilities","name":"潟上市天王Ｂ＆Ｇ海洋センター","address":"天王字持長根93-2","source":"国土交通省 国土数値情報"},"geometry":{"type":"Point","coordinates":[139.982743,39.88617]}},{"type":"Feature","properties":{"layer_id":"cultural_facilities","name":"潟上市天王総合体育館","address":"天王字持長根93-1","source":"国土交通省 国土数値情報"},"geometry":{"type":"Point","coordinates":[139.981729,39.886123]}},{"type":"Feature","properties":{"layer_id":"cultural_facilities","name":"長沼球技場","address":"天王字長沼144-1","source":"国土交通省 国土数値情報"},"geometry":{"type":"Point","coordinates":[140.047848,39.823153]}},{"type":"Feature","properties":{"layer_id":"cultural_facilities","name":"潟上市飯田川ふれあいスポーツ会館","address":"飯田川和田妹川字岩崎9","source":"国土交通省 国土数値情報"},"geometry":{"type":"Point","coordinates":[140.072954,39.885315]}},{"type":"Feature","properties":{"layer_id":"cultural_facilities","name":"潟上市天王相撲場","address":"天王字持長根","source":"国土交通省 国土数値情報"},"geometry":{"type":"Point","coordinates":[139.983363,39.88566]}},{"type":"Feature","properties":{"layer_id":"cultural_facilities","name":"潟上市追分地区公園","address":"天王長沼144-1","source":"国土交通省 国土数値情報"},"geometry":{"type":"Point","coordinates":[140.04717,39.824043]}},{"type":"Feature","properties":{"layer_id":"cultural_facilities","name":"潟上市昭和介護予防センター","address":"昭和大久保字堤の上1-3","source":"国土交通省 国土数値情報"},"geometry":{"type":"Point","coordinates":[140.065822,39.869809]}},{"type":"Feature","properties":{"layer_id":"cultural_facilities","name":"元木山陸上競技場","address":"昭和大久保字元木山根","source":"国土交通省 国土数値情報"},"geometry":{"type":"Point","coordinates":[140.070166,39.861448]}},{"type":"Feature","properties":{"layer_id":"cultural_facilities","name":"長沼テニスコート","address":"天王字長沼144-1","source":"国土交通省 国土数値情報"},"geometry":{"type":"Point","coordinates":[140.047146,39.824185]}},{"type":"Feature","properties":{"layer_id":"cultural_facilities","name":"飯田川グラウンド","address":"飯田川下虻川字蟹沢","source":"国土交通省 国土数値情報"},"geometry":{"type":"Point","coordinates":[140.077506,39.880802]}},{"type":"Feature","properties":{"layer_id":"parks_playgrounds","name":"追分地区公園","address":"潟上市","source":"国土交通省 国土数値情報"},"geometry":{"type":"Point","coordinates":[140.048233,39.822126]}},{"type":"Feature","properties":{"layer_id":"parks_playgrounds","name":"元木山公園","address":"潟上市","source":"国土交通省 国土数値情報"},"geometry":{"type":"Point","coordinates":[140.070381,39.863593]}},{"type":"Feature","properties":{"layer_id":"parks_playgrounds","name":"追分街区公園","address":"潟上市","source":"国土交通省 国土数値情報"},"geometry":{"type":"Point","coordinates":[140.045583,39.822696]}},{"type":"Feature","properties":{"layer_id":"parks_playgrounds","name":"追分西街区公園","address":"潟上市","source":"国土交通省 国土数値情報"},"geometry":{"type":"Point","coordinates":[140.039421,39.816003]}},{"type":"Feature","properties":{"layer_id":"parks_playgrounds","name":"すずかけ街区公園","address":"潟上市","source":"国土交通省 国土数値情報"},"geometry":{"type":"Point","coordinates":[140.069796,39.873436]}},{"type":"Feature","properties":{"layer_id":"parks_playgrounds","name":"山神街区公園","address":"潟上市","source":"国土交通省 国土数値情報"},"geometry":{"type":"Point","coordinates":[140.060196,39.864711]}},{"type":"Feature","properties":{"layer_id":"parks_playgrounds","name":"町後街区公園","address":"潟上市","source":"国土交通省 国土数値情報"},"geometry":{"type":"Point","coordinates":[140.058682,39.86819]}},{"type":"Feature","properties":{"layer_id":"parks_playgrounds","name":"高田街区公園","address":"潟上市","source":"国土交通省 国土数値情報"},"geometry":{"type":"Point","coordinates":[140.053866,39.866331]}},{"type":"Feature","properties":{"layer_id":"parks_playgrounds","name":"さくら街区公園","address":"潟上市","source":"国土交通省 国土数値情報"},"geometry":{"type":"Point","coordinates":[140.067897,39.878892]}},{"type":"Feature","properties":{"layer_id":"parks_playgrounds","name":"けやき街区公園","address":"潟上市","source":"国土交通省 国土数値情報"},"geometry":{"type":"Point","coordinates":[140.07313,39.879897]}},{"type":"Feature","properties":{"layer_id":"parks_playgrounds","name":"下出戸近隣公園","address":"潟上市","source":"国土交通省 国土数値情報"},"geometry":{"type":"Point","coordinates":[140.016424,39.846976]}},{"type":"Feature","properties":{"layer_id":"parks_playgrounds","name":"牛坂街区公園","address":"潟上市","source":"国土交通省 国土数値情報"},"geometry":{"type":"Point","coordinates":[140.053126,39.824999]}},{"type":"Feature","properties":{"layer_id":"parks_playgrounds","name":"鞍掛沼公園","address":"潟上市","source":"国土交通省 国土数値情報"},"geometry":{"type":"Point","coordinates":[140.010122,39.858069]}}]}