{"type":"FeatureCollection","municipality_code":"06341","pref":"山形県","city":"大石田町","display_comment":"大石田町には、大石田村、大石田四日町、大石田本町など、近世の村々の記憶を伝える地名が残っています。 周辺には史跡や遺跡、寺社や信仰の場にまつわる場所が点在し、「庚申町遺跡」、「角二山遺跡」、「笹山遺跡」などを起点に歩くと、地域の歴史がぐっと見えやすくなります。 現地では史跡説明板に加え、大石田村や大石田四日町にゆかりのある旧境石標、村の歴史を紹介する案内板にも注目してみてください。 田・新田・用水にちなむ地名が多い場所では、土地改良碑や用水記念碑も注目したい探索対象です。 川沿いや水辺では、暮らしや堤防整備の歴史を伝える案内板、治水碑、河川改修の記念碑にも注目してみてください。 ゆかりの人物では小松均や柴崎芳太郎に注目すると、地域に残る文化や時代背景をさらに深く知るきっかけになります。 「大石田まつり」や「最上川大花火大会」などの名所も、地域の物語を深掘りする絶好の入口です。","layer_counts":{"cafe_restaurant":35,"public_facilities":33,"cultural_facilities":1,"parks_playgrounds":4,"tourism_resources":2},"total_features":75,"features":[{"type":"Feature","properties":{"layer_id":"cafe_restaurant","name":"味の砦　利兵","category":"food","address":"山形県北村山郡大石田町大字今宿字板橋９０３－１","source":"厚生労働省 食品衛生申請等システム（オープンデータ）","municipality_code":"06341","municipality_pref":"山形県","municipality_name":"大石田町","municipality_code_method":"food_exact_coord"},"geometry":{"type":"Point","coordinates":[140.3927,38.578165]}},{"type":"Feature","properties":{"layer_id":"cafe_restaurant","name":"みちのく村山農業協同組合　大石田経済事業所　亜久里","category":"food","address":"山形県北村山郡大石田町大石田丙227-1","source":"厚生労働省 食品衛生申請等システム（オープンデータ）","municipality_code":"06341","municipality_pref":"山形県","municipality_name":"大石田町","municipality_code_method":"food_exact_coord"},"geometry":{"type":"Point","coordinates":[140.373516,38.591084]}},{"type":"Feature","properties":{"layer_id":"cafe_restaurant","name":"みちのく村山農業協同組合　大石田営農センター","category":"food","address":"山形県北村山郡大石田町大石田乙201-9","source":"厚生労働省 食品衛生申請等システム（オープンデータ）","municipality_code":"06341","municipality_pref":"山形県","municipality_name":"大石田町","municipality_code_method":"food_exact_coord"},"geometry":{"type":"Point","coordinates":[140.371841,38.599367]}},{"type":"Feature","properties":{"layer_id":"cafe_restaurant","name":"おさえ屋　もくれん","category":"food","address":"山形県北村山郡大石田町大石田乙529-2","source":"厚生労働省 食品衛生申請等システム（オープンデータ）","municipality_code":"06341","municipality_pref":"山形県","municipality_name":"大石田町","municipality_code_method":"food_exact_coord"},"geometry":{"type":"Point","coordinates":[140.379483,38.589559]}},{"type":"Feature","properties":{"layer_id":"cafe_restaurant","name":"大石田町駅舎店　そば処「ふうりゅう」","category":"food","address":"山形県北村山郡大石田町駅前通り１－２","source":"厚生労働省 食品衛生申請等システム（オープンデータ）","municipality_code":"06341","municipality_pref":"山形県","municipality_name":"大石田町","municipality_code_method":"food_exact_coord"},"geometry":{"type":"Point","coordinates":[140.375282,38.5943]}},{"type":"Feature","properties":{"layer_id":"cafe_restaurant","name":"あったまりランド深堀","category":"food","address":"山形県北村山郡大石田町大字豊田８８４－１","source":"厚生労働省 食品衛生申請等システム（オープンデータ）","municipality_code":"06341","municipality_pref":"山形県","municipality_name":"大石田町","municipality_code_method":"food_exact_coord"},"geometry":{"type":"Point","coordinates":[140.35701175,38.599764361]}},{"type":"Feature","properties":{"layer_id":"cafe_restaurant","name":"大石田温泉あったまりランド深堀「虹の館」","category":"food","address":"山形県北村山郡大石田町大字豊田８８４－１","source":"厚生労働省 食品衛生申請等システム（オープンデータ）","municipality_code":"06341","municipality_pref":"山形県","municipality_name":"大石田町","municipality_code_method":"food_exact_coord"},"geometry":{"type":"Point","coordinates":[140.35701175,38.599764361]}},{"type":"Feature","properties":{"layer_id":"cafe_restaurant","name":"株式会社最上川千本だんご","category":"food","address":"山形県北村山郡大石田町大字大石田乙７６","source":"厚生労働省 食品衛生申請等システム（オープンデータ）","municipality_code":"06341","municipality_pref":"山形県","municipality_name":"大石田町","municipality_code_method":"food_exact_coord"},"geometry":{"type":"Point","coordinates":[140.369803,38.591664]}},{"type":"Feature","properties":{"layer_id":"cafe_restaurant","name":"居酒屋　みっきぃちゃん","category":"food","address":"山形県北村山郡大石田町大字鷹巣字上北原１４５－１","source":"厚生労働省 食品衛生申請等システム（オープンデータ）","municipality_code":"06341","municipality_pref":"山形県","municipality_name":"大石田町","municipality_code_method":"food_exact_coord"},"geometry":{"type":"Point","coordinates":[140.364914963,38.629424539]}},{"type":"Feature","properties":{"layer_id":"cafe_restaurant","name":"田舎カフェレストラン　めもりい","category":"food","address":"山形県北村山郡大石田町田沢１９２２","source":"厚生労働省 食品衛生申請等システム（オープンデータ）","municipality_code":"06341","municipality_pref":"山形県","municipality_name":"大石田町","municipality_code_method":"food_exact_coord"},"geometry":{"type":"Point","coordinates":[140.364056,38.561178]}},{"type":"Feature","properties":{"layer_id":"cafe_restaurant","name":"来迎寺そばや作兵衛","category":"food","address":"山形県北村山郡大石田町横山108-3","source":"厚生労働省 食品衛生申請等システム（オープンデータ）","municipality_code":"06341","municipality_pref":"山形県","municipality_name":"大石田町","municipality_code_method":"food_exact_coord"},"geometry":{"type":"Point","coordinates":[140.372174,38.584442]}},{"type":"Feature","properties":{"layer_id":"cafe_restaurant","name":"手打ちそば屋　まんきち","category":"food","address":"山形県北村山郡大石田町大字豊田８５５－１","source":"厚生労働省 食品衛生申請等システム（オープンデータ）","municipality_code":"06341","municipality_pref":"山形県","municipality_name":"大石田町","municipality_code_method":"food_exact_coord"},"geometry":{"type":"Point","coordinates":[140.358435493,38.599553197]}},{"type":"Feature","properties":{"layer_id":"cafe_restaurant","name":"韓国風家庭料理よしみ","category":"food","address":"山形県北村山郡大石田町大字大石田乙529-2","source":"厚生労働省 食品衛生申請等システム（オープンデータ）","municipality_code":"06341","municipality_pref":"山形県","municipality_name":"大石田町","municipality_code_method":"food_exact_coord"},"geometry":{"type":"Point","coordinates":[140.369803,38.591664]}},{"type":"Feature","properties":{"layer_id":"cafe_restaurant","name":"菅食料品店","category":"food","address":"山形県北村山郡大石田町駅前通り９－２","source":"厚生労働省 食品衛生申請等システム（オープンデータ）","municipality_code":"06341","municipality_pref":"山形県","municipality_name":"大石田町","municipality_code_method":"food_exact_coord"},"geometry":{"type":"Point","coordinates":[140.375282,38.5943]}},{"type":"Feature","properties":{"layer_id":"cafe_restaurant","name":"ｕｍｕｉ","category":"food","address":"山形県北村山郡大石田町大字次年子１２０５","source":"厚生労働省 食品衛生申請等システム（オープンデータ）","municipality_code":"06341","municipality_pref":"山形県","municipality_name":"大石田町","municipality_code_method":"food_exact_coord"},"geometry":{"type":"Point","coordinates":[140.294856486,38.60089192]}},{"type":"Feature","properties":{"layer_id":"cafe_restaurant","name":"大石田駅前賑わい拠点施設","category":"food","address":"山形県北村山郡大石田町駅前通り９－５","source":"厚生労働省 食品衛生申請等システム（オープンデータ）","municipality_code":"06341","municipality_pref":"山形県","municipality_name":"大石田町","municipality_code_method":"food_exact_coord"},"geometry":{"type":"Point","coordinates":[140.374301,38.595091]}},{"type":"Feature","properties":{"layer_id":"cafe_restaurant","name":"創作DINING　がぁでん","category":"food","address":"山形県北村山郡大石田町大字大石田甲６３２ー５","source":"厚生労働省 食品衛生申請等システム（オープンデータ）","municipality_code":"06341","municipality_pref":"山形県","municipality_name":"大石田町","municipality_code_method":"food_exact_coord"},"geometry":{"type":"Point","coordinates":[140.369803,38.591664]}},{"type":"Feature","properties":{"layer_id":"cafe_restaurant","name":"文月","category":"food","address":"山形県北村山郡大石田町大字横山７１１","source":"厚生労働省 食品衛生申請等システム（オープンデータ）","municipality_code":"06341","municipality_pref":"山形県","municipality_name":"大石田町","municipality_code_method":"food_exact_coord"},"geometry":{"type":"Point","coordinates":[140.372174,38.584442]}},{"type":"Feature","properties":{"layer_id":"cafe_restaurant","name":"農産物加工所","category":"food","address":"山形県北村山郡大石田町大字大石田乙５８５－１","source":"厚生労働省 食品衛生申請等システム（オープンデータ）","municipality_code":"06341","municipality_pref":"山形県","municipality_name":"大石田町","municipality_code_method":"food_exact_coord"},"geometry":{"type":"Point","coordinates":[140.369803,38.591664]}},{"type":"Feature","properties":{"layer_id":"cafe_restaurant","name":"そば処　善之助","category":"food","address":"山形県北村山郡大石田町大字大石田字佐田丙２２２－３","source":"厚生労働省 食品衛生申請等システム（オープンデータ）","municipality_code":"06341","municipality_pref":"山形県","municipality_name":"大石田町","municipality_code_method":"food_exact_coord"},"geometry":{"type":"Point","coordinates":[140.369803,38.591664]}},{"type":"Feature","properties":{"layer_id":"cafe_restaurant","name":"でくの坊","category":"food","address":"山形県北村山郡大石田町大字駒籠字家の浦３６８－９","source":"厚生労働省 食品衛生申請等システム（オープンデータ）","municipality_code":"06341","municipality_pref":"山形県","municipality_name":"大石田町","municipality_code_method":"food_exact_coord"},"geometry":{"type":"Point","coordinates":[140.340495,38.631995]}},{"type":"Feature","properties":{"layer_id":"cafe_restaurant","name":"たいやきや　銀の龍","category":"food","address":"山形県北村山郡大石田町大字大石田乙６９１－８","source":"厚生労働省 食品衛生申請等システム（オープンデータ）","municipality_code":"06341","municipality_pref":"山形県","municipality_name":"大石田町","municipality_code_method":"food_exact_coord"},"geometry":{"type":"Point","coordinates":[140.369803,38.591664]}},{"type":"Feature","properties":{"layer_id":"cafe_restaurant","name":"レストラン　なないろ","category":"food","address":"山形県北村山郡大石田町今宿８７４－１","source":"厚生労働省 食品衛生申請等システム（オープンデータ）","municipality_code":"06341","municipality_pref":"山形県","municipality_name":"大石田町","municipality_code_method":"food_exact_coord"},"geometry":{"type":"Point","coordinates":[140.3927,38.578165]}},{"type":"Feature","properties":{"layer_id":"cafe_restaurant","name":"七兵衛そば","category":"food","address":"山形県北村山郡大石田町大字次年子２６６","source":"厚生労働省 食品衛生申請等システム（オープンデータ）","municipality_code":"06341","municipality_pref":"山形県","municipality_name":"大石田町","municipality_code_method":"food_exact_coord"},"geometry":{"type":"Point","coordinates":[140.288055606,38.592402461]}},{"type":"Feature","properties":{"layer_id":"cafe_restaurant","name":"そば切り源四郎","category":"food","address":"山形県北村山郡大石田町大字次年子１４９","source":"厚生労働省 食品衛生申請等システム（オープンデータ）","municipality_code":"06341","municipality_pref":"山形県","municipality_name":"大石田町","municipality_code_method":"food_exact_coord"},"geometry":{"type":"Point","coordinates":[140.291715,38.600445]}},{"type":"Feature","properties":{"layer_id":"cafe_restaurant","name":"特別養護老人ホーム　ソーレ大石田","category":"food","address":"山形県北村山郡大石田町大字駒籠４１３","source":"厚生労働省 食品衛生申請等システム（オープンデータ）","municipality_code":"06341","municipality_pref":"山形県","municipality_name":"大石田町","municipality_code_method":"food_exact_coord"},"geometry":{"type":"Point","coordinates":[140.337933024,38.626151721]}},{"type":"Feature","properties":{"layer_id":"cafe_restaurant","name":"鮨けん","category":"food","address":"山形県北村山郡大石田町大字大石田乙６１１－１７","source":"厚生労働省 食品衛生申請等システム（オープンデータ）","municipality_code":"06341","municipality_pref":"山形県","municipality_name":"大石田町","municipality_code_method":"food_exact_coord"},"geometry":{"type":"Point","coordinates":[140.369803,38.591664]}},{"type":"Feature","properties":{"layer_id":"cafe_restaurant","name":"大石田そば　きよ","category":"food","address":"山形県北村山郡大石田町大字横山７３６","source":"厚生労働省 食品衛生申請等システム（オープンデータ）","municipality_code":"06341","municipality_pref":"山形県","municipality_name":"大石田町","municipality_code_method":"food_exact_coord"},"geometry":{"type":"Point","coordinates":[140.372174,38.584442]}},{"type":"Feature","properties":{"layer_id":"cafe_restaurant","name":"手打次年子そば","category":"food","address":"山形県北村山郡大石田町大字次年子７５","source":"厚生労働省 食品衛生申請等システム（オープンデータ）","municipality_code":"06341","municipality_pref":"山形県","municipality_name":"大石田町","municipality_code_method":"food_exact_coord"},"geometry":{"type":"Point","coordinates":[140.29702300000002,38.591364]}},{"type":"Feature","properties":{"layer_id":"cafe_restaurant","name":"ラーメン長作","category":"food","address":"山形県北村山郡大石田町大字大石田丙３８４－５","source":"厚生労働省 食品衛生申請等システム（オープンデータ）","municipality_code":"06341","municipality_pref":"山形県","municipality_name":"大石田町","municipality_code_method":"food_exact_coord"},"geometry":{"type":"Point","coordinates":[140.369803,38.591664]}},{"type":"Feature","properties":{"layer_id":"cafe_restaurant","name":"居酒屋ふじ","category":"food","address":"山形県北村山郡大石田町大字大石田乙６９１－１","source":"厚生労働省 食品衛生申請等システム（オープンデータ）","municipality_code":"06341","municipality_pref":"山形県","municipality_name":"大石田町","municipality_code_method":"food_exact_coord"},"geometry":{"type":"Point","coordinates":[140.369803,38.591664]}},{"type":"Feature","properties":{"layer_id":"cafe_restaurant","name":"蕎麦処　若佐","category":"food","address":"山形県北村山郡大石田町大字田沢字上の原２０５６－３","source":"厚生労働省 食品衛生申請等システム（オープンデータ）","municipality_code":"06341","municipality_pref":"山形県","municipality_name":"大石田町","municipality_code_method":"food_exact_coord"},"geometry":{"type":"Point","coordinates":[140.364056,38.561178]}},{"type":"Feature","properties":{"layer_id":"cafe_restaurant","name":"喫茶トトロ","category":"food","address":"山形県北村山郡大石田町駅前通り８－７","source":"厚生労働省 食品衛生申請等システム（オープンデータ）","municipality_code":"06341","municipality_pref":"山形県","municipality_name":"大石田町","municipality_code_method":"food_exact_coord"},"geometry":{"type":"Point","coordinates":[140.375282,38.5943]}},{"type":"Feature","properties":{"layer_id":"cafe_restaurant","name":"最上屋旅館","category":"food","address":"山形県北村山郡大石田町駅前通り８－７","source":"厚生労働省 食品衛生申請等システム（オープンデータ）","municipality_code":"06341","municipality_pref":"山形県","municipality_name":"大石田町","municipality_code_method":"food_exact_coord"},"geometry":{"type":"Point","coordinates":[140.375282,38.5943]}},{"type":"Feature","properties":{"layer_id":"cafe_restaurant","name":"そば屋　昇","category":"food","address":"山形県北村山郡大石田町大字岩ケ袋１４８","source":"厚生労働省 食品衛生申請等システム（オープンデータ）","municipality_code":"06341","municipality_pref":"山形県","municipality_name":"大石田町","municipality_code_method":"food_exact_coord"},"geometry":{"type":"Point","coordinates":[140.372343035,38.607248969]}},{"type":"Feature","properties":{"layer_id":"public_facilities","name":"豊田公民館","category":"public","address":"大石田町豊田789-4","source":"国土交通省 国土数値情報","municipality_code":"06341","municipality_pref":"山形県","municipality_name":"大石田町","municipality_code_method":"source_exact_coord"},"geometry":{"type":"Point","coordinates":[140.35761758253318,38.60224944817154]}},{"type":"Feature","properties":{"layer_id":"public_facilities","name":"小菅公民館","category":"public","address":"大石田町大字田沢字小菅2283-24","source":"国土交通省 国土数値情報","municipality_code":"06341","municipality_pref":"山形県","municipality_name":"大石田町","municipality_code_method":"source_exact_coord"},"geometry":{"type":"Point","coordinates":[140.3812611334112,38.562851333163955]}},{"type":"Feature","properties":{"layer_id":"public_facilities","name":"老人いこいの家","category":"public","address":"大石田町大石田丁92の3","source":"国土交通省 国土数値情報","municipality_code":"06341","municipality_pref":"山形県","municipality_name":"大石田町","municipality_code_method":"source_exact_coord"},"geometry":{"type":"Point","coordinates":[140.3743099605847,38.589477355739014]}},{"type":"Feature","properties":{"layer_id":"public_facilities","name":"井出公民館","category":"public","address":"大石田町大字大石田字樋ノ口100","source":"国土交通省 国土数値情報","municipality_code":"06341","municipality_pref":"山形県","municipality_name":"大石田町","municipality_code_method":"source_exact_coord"},"geometry":{"type":"Point","coordinates":[140.36914583289104,38.596574382859636]}},{"type":"Feature","properties":{"layer_id":"public_facilities","name":"里公民館","category":"public","address":"大石田町字里3223","source":"国土交通省 国土数値情報","municipality_code":"06341","municipality_pref":"山形県","municipality_name":"大石田町","municipality_code_method":"source_exact_coord"},"geometry":{"type":"Point","coordinates":[140.3609557116049,38.57214244487131]}},{"type":"Feature","properties":{"layer_id":"public_facilities","name":"本町公民館","category":"public","address":"大石田町丁71","source":"国土交通省 国土数値情報","municipality_code":"06341","municipality_pref":"山形県","municipality_name":"大石田町","municipality_code_method":"source_exact_coord"},"geometry":{"type":"Point","coordinates":[140.37374795246734,38.58815435999306]}},{"type":"Feature","properties":{"layer_id":"public_facilities","name":"南通公民館","category":"public","address":"大石田町乙649-1","source":"国土交通省 国土数値情報","municipality_code":"06341","municipality_pref":"山形県","municipality_name":"大石田町","municipality_code_method":"source_exact_coord"},"geometry":{"type":"Point","coordinates":[140.3765949990529,38.59289034081047]}},{"type":"Feature","properties":{"layer_id":"public_facilities","name":"大浦公民館","category":"public","address":"大石田町大浦200","source":"国土交通省 国土数値情報","municipality_code":"06341","municipality_pref":"山形県","municipality_name":"大石田町","municipality_code_method":"source_exact_coord"},"geometry":{"type":"Point","coordinates":[140.33000896512732,38.6268685970315]}},{"type":"Feature","properties":{"layer_id":"public_facilities","name":"駒籠公民館","category":"public","address":"大石田町駒籠66","source":"国土交通省 国土数値情報","municipality_code":"06341","municipality_pref":"山形県","municipality_name":"大石田町","municipality_code_method":"source_exact_coord"},"geometry":{"type":"Point","coordinates":[140.338762124101,38.626262543418285]}},{"type":"Feature","properties":{"layer_id":"public_facilities","name":"上ノ原公民館","category":"public","address":"大石田町横山366-2","source":"国土交通省 国土数値情報","municipality_code":"06341","municipality_pref":"山形県","municipality_name":"大石田町","municipality_code_method":"source_exact_coord"},"geometry":{"type":"Point","coordinates":[140.37261294112412,38.583397369974534]}},{"type":"Feature","properties":{"layer_id":"public_facilities","name":"白鷺公民館","category":"public","address":"大石田町字白鷺原1599-1","source":"国土交通省 国土数値情報","municipality_code":"06341","municipality_pref":"山形県","municipality_name":"大石田町","municipality_code_method":"source_exact_coord"},"geometry":{"type":"Point","coordinates":[140.33712399603442,38.643935529221636]}},{"type":"Feature","properties":{"layer_id":"public_facilities","name":"田沢公民館","category":"public","address":"大石田町田沢40-1","source":"国土交通省 国土数値情報","municipality_code":"06341","municipality_pref":"山形県","municipality_name":"大石田町","municipality_code_method":"source_exact_coord"},"geometry":{"type":"Point","coordinates":[140.3630337494837,38.561159437737324]}},{"type":"Feature","properties":{"layer_id":"public_facilities","name":"町民交流センター","category":"public","address":"大石田町緑町28","source":"国土交通省 国土数値情報","municipality_code":"06341","municipality_pref":"山形県","municipality_name":"大石田町","municipality_code_method":"source_exact_coord"},"geometry":{"type":"Point","coordinates":[140.3731921263111,38.59336508033909]}},{"type":"Feature","properties":{"layer_id":"public_facilities","name":"朝日町公民館","category":"public","address":"大石田町丁202-25","source":"国土交通省 国土数値情報","municipality_code":"06341","municipality_pref":"山形県","municipality_name":"大石田町","municipality_code_method":"source_exact_coord"},"geometry":{"type":"Point","coordinates":[140.378964039439,38.5957533263166]}},{"type":"Feature","properties":{"layer_id":"public_facilities","name":"次年子公民館","category":"public","address":"大石田町次年子169-2","source":"国土交通省 国土数値情報","municipality_code":"06341","municipality_pref":"山形県","municipality_name":"大石田町","municipality_code_method":"source_exact_coord"},"geometry":{"type":"Point","coordinates":[140.29031039826887,38.59897989535853]}},{"type":"Feature","properties":{"layer_id":"public_facilities","name":"海谷公民館","category":"public","address":"大石田町大字海谷1105-46","source":"国土交通省 国土数値情報","municipality_code":"06341","municipality_pref":"山形県","municipality_name":"大石田町","municipality_code_method":"source_exact_coord"},"geometry":{"type":"Point","coordinates":[140.37156724411818,38.617409775513295]}},{"type":"Feature","properties":{"layer_id":"public_facilities","name":"川前公民館","category":"public","address":"大石田町川前55-5","source":"国土交通省 国土数値情報","municipality_code":"06341","municipality_pref":"山形県","municipality_name":"大石田町","municipality_code_method":"source_exact_coord"},"geometry":{"type":"Point","coordinates":[140.35007139217208,38.61354848511968]}},{"type":"Feature","properties":{"layer_id":"public_facilities","name":"岩ケ袋公民館","category":"public","address":"大石田町岩ケ袋436","source":"国土交通省 国土数値情報","municipality_code":"06341","municipality_pref":"山形県","municipality_name":"大石田町","municipality_code_method":"source_exact_coord"},"geometry":{"type":"Point","coordinates":[140.37100082163505,38.608454364825526]}},{"type":"Feature","properties":{"layer_id":"public_facilities","name":"東町公民館","category":"public","address":"大石田町大字大石田字上ノ原丙527-1","source":"国土交通省 国土数値情報","municipality_code":"06341","municipality_pref":"山形県","municipality_name":"大石田町","municipality_code_method":"source_exact_coord"},"geometry":{"type":"Point","coordinates":[140.3792980682875,38.589245327590085]}},{"type":"Feature","properties":{"layer_id":"public_facilities","name":"横山地区総合センター","category":"public","address":"大石田町横山98","source":"国土交通省 国土数値情報","municipality_code":"06341","municipality_pref":"山形県","municipality_name":"大石田町","municipality_code_method":"source_exact_coord"},"geometry":{"type":"Point","coordinates":[140.37589200891085,38.58394335014369]}},{"type":"Feature","properties":{"layer_id":"public_facilities","name":"来迎寺公民館","category":"public","address":"大石田町横山1180-1","source":"国土交通省 国土数値情報","municipality_code":"06341","municipality_pref":"山形県","municipality_name":"大石田町","municipality_code_method":"source_exact_coord"},"geometry":{"type":"Point","coordinates":[140.38277016888438,38.57693131506446]}},{"type":"Feature","properties":{"layer_id":"public_facilities","name":"大石田町役場","category":"public","address":"大石田町緑町1","source":"国土交通省 国土数値情報","municipality_code":"06341","municipality_pref":"山形県","municipality_name":"大石田町","municipality_code_method":"source_exact_coord"},"geometry":{"type":"Point","coordinates":[140.37267091397112,38.593870363242495]}},{"type":"Feature","properties":{"layer_id":"public_facilities","name":"栄町公民館","category":"public","address":"大石田町丙470-20","source":"国土交通省 国土数値情報","municipality_code":"06341","municipality_pref":"山形県","municipality_name":"大石田町","municipality_code_method":"source_exact_coord"},"geometry":{"type":"Point","coordinates":[140.37738100309485,38.59653133497562]}},{"type":"Feature","properties":{"layer_id":"public_facilities","name":"愛宕町公民館","category":"public","address":"大石田町丁92-10","source":"国土交通省 国土数値情報","municipality_code":"06341","municipality_pref":"山形県","municipality_name":"大石田町","municipality_code_method":"source_exact_coord"},"geometry":{"type":"Point","coordinates":[140.37458196726354,38.58906635438102]}},{"type":"Feature","properties":{"layer_id":"public_facilities","name":"クロスカルチャープラザ","category":"public","address":"大石田町緑町8","source":"国土交通省 国土数値情報","municipality_code":"06341","municipality_pref":"山形県","municipality_name":"大石田町","municipality_code_method":"source_exact_coord"},"geometry":{"type":"Point","coordinates":[140.3729579241054,38.592590362034535]}},{"type":"Feature","properties":{"layer_id":"public_facilities","name":"鷹巣公民館","category":"public","address":"大石田町鷹巣字上北原179","source":"国土交通省 国土数値情報","municipality_code":"06341","municipality_pref":"山形県","municipality_name":"大石田町","municipality_code_method":"source_exact_coord"},"geometry":{"type":"Point","coordinates":[140.36548458106185,38.631738376804954]}},{"type":"Feature","properties":{"layer_id":"public_facilities","name":"桂桜会館","category":"public","address":"大石田町緑町8","source":"国土交通省 国土数値情報","municipality_code":"06341","municipality_pref":"山形県","municipality_name":"大石田町","municipality_code_method":"source_exact_coord"},"geometry":{"type":"Point","coordinates":[140.3729479239009,38.59259036209429]}},{"type":"Feature","properties":{"layer_id":"public_facilities","name":"今宿公民館","category":"public","address":"大石田町今宿337-1","source":"国土交通省 国土数値情報","municipality_code":"06341","municipality_pref":"山形県","municipality_name":"大石田町","municipality_code_method":"source_exact_coord"},"geometry":{"type":"Point","coordinates":[140.3868172548259,38.578576290585104]}},{"type":"Feature","properties":{"layer_id":"public_facilities","name":"曙町公民館","category":"public","address":"大石田町大石田丙415-22","source":"国土交通省 国土数値情報","municipality_code":"06341","municipality_pref":"山形県","municipality_name":"大石田町","municipality_code_method":"source_exact_coord"},"geometry":{"type":"Point","coordinates":[140.37865904686305,38.59191832969434]}},{"type":"Feature","properties":{"layer_id":"public_facilities","name":"四日町公民館","category":"public","address":"大石田町大字大石田甲74-2","source":"国土交通省 国土数値情報","municipality_code":"06341","municipality_pref":"山形県","municipality_name":"大石田町","municipality_code_method":"source_exact_coord"},"geometry":{"type":"Point","coordinates":[140.37222791764597,38.5895293681964]}},{"type":"Feature","properties":{"layer_id":"public_facilities","name":"庚申町公民館","category":"public","address":"大石田町甲623-161","source":"国土交通省 国土数値情報","municipality_code":"06341","municipality_pref":"山形県","municipality_name":"大石田町","municipality_code_method":"source_exact_coord"},"geometry":{"type":"Point","coordinates":[140.37582596240495,38.59882034300465]}},{"type":"Feature","properties":{"layer_id":"public_facilities","name":"八幡町公民館","category":"public","address":"大石田町甲616-31","source":"国土交通省 国土数値情報","municipality_code":"06341","municipality_pref":"山形県","municipality_name":"大石田町","municipality_code_method":"source_exact_coord"},"geometry":{"type":"Point","coordinates":[140.3719698886762,38.59715936604309]}},{"type":"Feature","properties":{"layer_id":"public_facilities","name":"新山寺公民館","category":"public","address":"大石田町田沢1908-122","source":"国土交通省 国土数値情報","municipality_code":"06341","municipality_pref":"山形県","municipality_name":"大石田町","municipality_code_method":"source_exact_coord"},"geometry":{"type":"Point","coordinates":[140.3774870267522,38.54761336415436]}},{"type":"Feature","properties":{"layer_id":"cultural_facilities","name":"大石田町立歴史民俗資料館","category":"public","address":"大字大石田乙37-6","source":"国土交通省 国土数値情報","municipality_code":"06341","municipality_pref":"山形県","municipality_name":"大石田町","municipality_code_method":"nearest_centroid"},"geometry":{"type":"Point","coordinates":[140.373111,38.588964]}},{"type":"Feature","properties":{"layer_id":"parks_playgrounds","name":"大石田公園","category":"nature","address":"北村山郡大石田町","source":"国土交通省 国土数値情報","municipality_code":"06341","municipality_pref":"山形県","municipality_name":"大石田町","municipality_code_method":"nearest_centroid"},"geometry":{"type":"Point","coordinates":[140.37458776,38.59259679]}},{"type":"Feature","properties":{"layer_id":"parks_playgrounds","name":"下河原公園","category":"nature","address":"北村山郡大石田町","source":"国土交通省 国土数値情報","municipality_code":"06341","municipality_pref":"山形県","municipality_name":"大石田町","municipality_code_method":"nearest_centroid"},"geometry":{"type":"Point","coordinates":[140.36571135,38.58774332]}},{"type":"Feature","properties":{"layer_id":"parks_playgrounds","name":"樋ノ口公園","category":"nature","address":"北村山郡大石田町","source":"国土交通省 国土数値情報","municipality_code":"06341","municipality_pref":"山形県","municipality_name":"大石田町","municipality_code_method":"nearest_centroid"},"geometry":{"type":"Point","coordinates":[140.37102763,38.59186565]}},{"type":"Feature","properties":{"layer_id":"parks_playgrounds","name":"桂桜公園","category":"nature","address":"北村山郡大石田町","source":"国土交通省 国土数値情報","municipality_code":"06341","municipality_pref":"山形県","municipality_name":"大石田町","municipality_code_method":"nearest_centroid"},"geometry":{"type":"Point","coordinates":[140.37330978,38.59326486]}},{"type":"Feature","properties":{"layer_id":"tourism_resources","name":"大高根山","category":"nature","address":"山地（非火山性）景観 / 非火山性弧峰","source":"国土交通省 国土数値情報","municipality_code":"06341","municipality_pref":"山形県","municipality_name":"大石田町","municipality_code_method":"nearest_centroid","resource_code":"205"},"geometry":{"type":"Point","coordinates":[140.31764221191406,38.5759391784668]}},{"type":"Feature","properties":{"layer_id":"tourism_resources","name":"川前甌穴群","category":"nature","address":"河川景観 / 河川 甌穴群","source":"国土交通省 国土数値情報","municipality_code":"06341","municipality_pref":"山形県","municipality_name":"大石田町","municipality_code_method":"nearest_centroid","resource_code":"609"},"geometry":{"type":"Point","coordinates":[140.3507080078125,38.61049270629883]}}],"display_comment_original":"大石田町周辺には、近世村の記憶として大石田村、大石田四日町、大石田本町などの旧村名が見える。 この地域には史跡や遺跡、寺社や信仰の場に関わる場所が見え、庚申町遺跡、角二山遺跡、笹山遺跡のような地点が探索の入口になる。 現地では史跡説明板、大石田村、大石田四日町ゆかりの旧境石標や村の歴史案内板が手がかりになりそうだ。さらに田・新田・用水の地名が多く、土地改良碑や用水記念碑が見つかる可能性がある。水辺の暮らしや堤防整備の歴史を示す案内板に加え、治水碑や河川改修の記念碑が狙い目になる。","story_enrichment":{"samurai_priority_people":[],"notable_people":["小松均","柴崎芳太郎","保芦邦人","宮川舩夫","森義八郎"],"honorary_citizens":[],"tourism_landmarks":["大石田まつり","最上川大花火大会","大石田ゴルフクラブ","大石田そば街道","乗船寺","あったまりランド"],"specialties":[],"food_culture":[],"historical_domains":[],"heian_place_names":[],"japan_search_support":[],"enrichment_sources":["https://ja.wikipedia.org/wiki/%E5%A4%A7%E7%9F%B3%E7%94%B0%E7%94%BA","https://www.wikidata.org/wiki/Q11461062","https://www.wikidata.org/wiki/Q11534691","https://www.wikidata.org/wiki/Q11385911","https://www.wikidata.org/wiki/Q135826095","https://www.wikidata.org/wiki/Q115090413","https://www.wikidata.org/wiki/Q11542568","https://jpsearch.go.jp/csearch/jps-cross?csid=jps-cross&keyword=%E5%B0%8F%E6%9D%BE%E5%9D%87&keyword=%E5%A4%A7%E7%9F%B3%E7%94%B0%E7%94%BA"],"enrichment_errors":[],"wikipedia_title":"大石田町","wikipedia_revision_id":"110466542","wikidata_qid":"Q1347263","wikipedia_url":"https://ja.wikipedia.org/wiki/%E5%A4%A7%E7%9F%B3%E7%94%B0%E7%94%BA","japan_search_query_url":"https://jpsearch.go.jp/csearch/jps-cross?csid=jps-cross&keyword=%E5%B0%8F%E6%9D%BE%E5%9D%87&keyword=%E5%A4%A7%E7%9F%B3%E7%94%B0%E7%94%BA","status":"wikipedia_ok"}}