{"type":"FeatureCollection","municipality_code":"10210","pref":"群馬県","city":"富岡市","display_comment":"富岡市には、江戸期の七日市藩と七日市藩陣屋跡に連なる領主・城下の記憶が残っています。 周辺には寺社や信仰の場、史跡や遺跡、古墳や貝塚にまつわる場所が点在し、「宮崎城跡」、「旧茂木家住宅」、「本宿・郷土遺跡」などを起点に歩くと、地域の歴史がぐっと見えやすくなります。 現地では城跡・陣屋跡、史跡説明板、上丹生村、下丹生村ゆかりの旧境石標や村の歴史案内板が、地域の歴史を読み解く手がかりになるでしょう。 川沿いや水辺では、その土地の暮らしや水との関わりを伝える歴史案内板が見つかるかもしれません。 七日市藩にゆかりのある領主碑や旧領境のしるべも、現地で探してみたい歴史の手がかりです。 ゆかりの人物では東野英治郎や阿部眞之助に注目すると、地域に残る文化や時代背景をさらに深く知るきっかけになります。 「群馬サファリパーク」や「富岡製糸場」などの名所も、地域の物語を深掘りする絶好の入口です。","layer_counts":{"cafe_restaurant":205,"public_facilities":36,"cultural_facilities":18,"parks_playgrounds":12,"tourism_resources":2},"total_features":273,"features":[{"type":"Feature","properties":{"layer_id":"cafe_restaurant","name":"スターバックスコーヒー富岡店","address":"群馬県富岡市富岡1894-7","source":"厚生労働省 食品衛生申請等システム（オープンデータ）"},"geometry":{"type":"Point","coordinates":[138.900303,36.263028]}},{"type":"Feature","properties":{"layer_id":"cafe_restaurant","name":"ヤオコー　富岡店（精肉）","address":"群馬県富岡市一ノ宮1682","source":"厚生労働省 食品衛生申請等システム（オープンデータ）"},"geometry":{"type":"Point","coordinates":[138.859472,36.250032]}},{"type":"Feature","properties":{"layer_id":"cafe_restaurant","name":"ヤオコー　富岡店（惣菜）","address":"群馬県富岡市一ノ宮1682","source":"厚生労働省 食品衛生申請等システム（オープンデータ）"},"geometry":{"type":"Point","coordinates":[138.859408,36.250054]}},{"type":"Feature","properties":{"layer_id":"cafe_restaurant","name":"ヤオコー　富岡店（寿司）","address":"群馬県富岡市一ノ宮1682","source":"厚生労働省 食品衛生申請等システム（オープンデータ）"},"geometry":{"type":"Point","coordinates":[138.859408,36.250054]}},{"type":"Feature","properties":{"layer_id":"cafe_restaurant","name":"ヤオコー　富岡店（惣菜厨房）","address":"群馬県富岡市一ノ宮1682","source":"厚生労働省 食品衛生申請等システム（オープンデータ）"},"geometry":{"type":"Point","coordinates":[138.859472,36.250032]}},{"type":"Feature","properties":{"layer_id":"cafe_restaurant","name":"むすんでひらいて　富岡店","address":"群馬県富岡市富岡1346番6 クスリのアオキ富岡店内","source":"厚生労働省 食品衛生申請等システム（オープンデータ）"},"geometry":{"type":"Point","coordinates":[138.895941,36.257509]}},{"type":"Feature","properties":{"layer_id":"cafe_restaurant","name":"TRIAL smart富岡バイパス店","address":"群馬県富岡市富岡2330ー１","source":"厚生労働省 食品衛生申請等システム（オープンデータ）"},"geometry":{"type":"Point","coordinates":[138.89599,36.263663]}},{"type":"Feature","properties":{"layer_id":"cafe_restaurant","name":"デニーズ群馬富岡店","address":"群馬県富岡市富岡3043","source":"厚生労働省 食品衛生申請等システム（オープンデータ）"},"geometry":{"type":"Point","coordinates":[138.899803,36.262655]}},{"type":"Feature","properties":{"layer_id":"cafe_restaurant","name":"登利平　富岡店","address":"群馬県富岡市別保20‐2","source":"厚生労働省 食品衛生申請等システム（オープンデータ）"},"geometry":{"type":"Point","coordinates":[138.890695,36.267626]}},{"type":"Feature","properties":{"layer_id":"cafe_restaurant","name":"すき家 254号富岡店","address":"群馬県富岡市富岡2364-5","source":"厚生労働省 食品衛生申請等システム（オープンデータ）"},"geometry":{"type":"Point","coordinates":[138.890566,36.264536]}},{"type":"Feature","properties":{"layer_id":"cafe_restaurant","name":"PGM富岡カントリークラブ　サウスコース","address":"群馬県富岡市星田814-1","source":"厚生労働省 食品衛生申請等システム（オープンデータ）"},"geometry":{"type":"Point","coordinates":[138.918787,36.273589]}},{"type":"Feature","properties":{"layer_id":"cafe_restaurant","name":"B＆I4753","address":"群馬県富岡市神農原1112","source":"厚生労働省 食品衛生申請等システム（オープンデータ）"},"geometry":{"type":"Point","coordinates":[138.855226,36.242894]}},{"type":"Feature","properties":{"layer_id":"cafe_restaurant","name":"セブンイレブン富岡上小林諏訪店※既に他の営業者が新規営業中","address":"群馬県富岡市上小林諏訪383-2","source":"厚生労働省 食品衛生申請等システム（オープンデータ）"},"geometry":{"type":"Point","coordinates":[138.832824,36.238997]}},{"type":"Feature","properties":{"layer_id":"cafe_restaurant","name":"セブンイレブン富岡上高瀬店","address":"群馬県富岡市上高瀬99-2","source":"厚生労働省 食品衛生申請等システム（オープンデータ）"},"geometry":{"type":"Point","coordinates":[138.866336,36.245874]}},{"type":"Feature","properties":{"layer_id":"cafe_restaurant","name":"セブンイレブン富岡バイパス店","address":"群馬県富岡市富岡3047-1","source":"厚生労働省 食品衛生申請等システム（オープンデータ）"},"geometry":{"type":"Point","coordinates":[138.900431,36.262333]}},{"type":"Feature","properties":{"layer_id":"cafe_restaurant","name":"セブンイレブン富岡一ノ宮店","address":"群馬県富岡市一ノ宮1532","source":"厚生労働省 食品衛生申請等システム（オープンデータ）"},"geometry":{"type":"Point","coordinates":[138.860002,36.253062]}},{"type":"Feature","properties":{"layer_id":"cafe_restaurant","name":"かつ庄","address":"群馬県富岡市富岡2394-1","source":"厚生労働省 食品衛生申請等システム（オープンデータ）"},"geometry":{"type":"Point","coordinates":[138.8904,36.266073]}},{"type":"Feature","properties":{"layer_id":"cafe_restaurant","name":"古民家カフェ　桑庵","address":"群馬県富岡市妙義町大牛113","source":"厚生労働省 食品衛生申請等システム（オープンデータ）"},"geometry":{"type":"Point","coordinates":[138.78249,36.298071]}},{"type":"Feature","properties":{"layer_id":"cafe_restaurant","name":"アシカのこむらがえり","address":"群馬県富岡市神農原大道571-4","source":"厚生労働省 食品衛生申請等システム（オープンデータ）"},"geometry":{"type":"Point","coordinates":[138.847286,36.242199]}},{"type":"Feature","properties":{"layer_id":"cafe_restaurant","name":"プリンセスⅡ","address":"群馬県富岡市富岡16-1 ウィング21B号室","source":"厚生労働省 食品衛生申請等システム（オープンデータ）"},"geometry":{"type":"Point","coordinates":[138.888925,36.257102]}},{"type":"Feature","properties":{"layer_id":"cafe_restaurant","name":"セブンイレブン妙義上高田店","address":"群馬県富岡市妙義町上高田久保田947","source":"厚生労働省 食品衛生申請等システム（オープンデータ）"},"geometry":{"type":"Point","coordinates":[138.815851,36.28672]}},{"type":"Feature","properties":{"layer_id":"cafe_restaurant","name":"セブンイレブン富岡インター店","address":"群馬県富岡市下高瀬400-3","source":"厚生労働省 食品衛生申請等システム（オープンデータ）"},"geometry":{"type":"Point","coordinates":[138.892579,36.246125]}},{"type":"Feature","properties":{"layer_id":"cafe_restaurant","name":"Destiny","address":"群馬県富岡市富岡37-4","source":"厚生労働省 食品衛生申請等システム（オープンデータ）"},"geometry":{"type":"Point","coordinates":[138.889859,36.25591]}},{"type":"Feature","properties":{"layer_id":"cafe_restaurant","name":"つばめベーグル駅前店","address":"群馬県富岡市富岡1419-1","source":"厚生労働省 食品衛生申請等システム（オープンデータ）"},"geometry":{"type":"Point","coordinates":[138.892131,36.260009]}},{"type":"Feature","properties":{"layer_id":"cafe_restaurant","name":"くれ～ぷ工房　Clin.Clin.　富岡店","address":"群馬県富岡市富岡42","source":"厚生労働省 食品衛生申請等システム（オープンデータ）"},"geometry":{"type":"Point","coordinates":[138.890557,36.255644]}},{"type":"Feature","properties":{"layer_id":"cafe_restaurant","name":"そばよし","address":"群馬県富岡市一ノ宮382-5","source":"厚生労働省 食品衛生申請等システム（オープンデータ）"},"geometry":{"type":"Point","coordinates":[138.863345,36.257531]}},{"type":"Feature","properties":{"layer_id":"cafe_restaurant","name":"中国料理　ニイハオ","address":"群馬県富岡市一ノ宮980-1","source":"厚生労働省 食品衛生申請等システム（オープンデータ）"},"geometry":{"type":"Point","coordinates":[138.844123,36.25269]}},{"type":"Feature","properties":{"layer_id":"cafe_restaurant","name":"七尾","address":"群馬県富岡市宇田509","source":"厚生労働省 食品衛生申請等システム（オープンデータ）"},"geometry":{"type":"Point","coordinates":[138.856523,36.259015]}},{"type":"Feature","properties":{"layer_id":"cafe_restaurant","name":"ハンバーガーショップ","address":"群馬県富岡市岡本1","source":"厚生労働省 食品衛生申請等システム（オープンデータ）"},"geometry":{"type":"Point","coordinates":[138.884402,36.226559]}},{"type":"Feature","properties":{"layer_id":"cafe_restaurant","name":"サバンナ","address":"群馬県富岡市岡本1","source":"厚生労働省 食品衛生申請等システム（オープンデータ）"},"geometry":{"type":"Point","coordinates":[138.892005,36.229376]}},{"type":"Feature","properties":{"layer_id":"cafe_restaurant","name":"群馬サファリパーク　フードコート","address":"群馬県富岡市岡本1","source":"厚生労働省 食品衛生申請等システム（オープンデータ）"},"geometry":{"type":"Point","coordinates":[138.892005,36.229376]}},{"type":"Feature","properties":{"layer_id":"cafe_restaurant","name":"ファミリーマート富岡下高瀬店","address":"群馬県富岡市下高瀬299-1","source":"厚生労働省 食品衛生申請等システム（オープンデータ）"},"geometry":{"type":"Point","coordinates":[138.890767,36.246761]}},{"type":"Feature","properties":{"layer_id":"cafe_restaurant","name":"いずみ寿し","address":"群馬県富岡市下高尾456-2","source":"厚生労働省 食品衛生申請等システム（オープンデータ）"},"geometry":{"type":"Point","coordinates":[138.916063,36.284299]}},{"type":"Feature","properties":{"layer_id":"cafe_restaurant","name":"麺や　赤べこ","address":"群馬県富岡市黒川517","source":"厚生労働省 食品衛生申請等システム（オープンデータ）"},"geometry":{"type":"Point","coordinates":[138.866683,36.264901]}},{"type":"Feature","properties":{"layer_id":"cafe_restaurant","name":"カラオケ　まねきねこ　富岡店","address":"群馬県富岡市黒川729-2","source":"厚生労働省 食品衛生申請等システム（オープンデータ）"},"geometry":{"type":"Point","coordinates":[138.865957,36.258431]}},{"type":"Feature","properties":{"layer_id":"cafe_restaurant","name":"Ａコープ富岡店","address":"群馬県富岡市富岡1878-1","source":"厚生労働省 食品衛生申請等システム（オープンデータ）"},"geometry":{"type":"Point","coordinates":[138.900832,36.263722]}},{"type":"Feature","properties":{"layer_id":"cafe_restaurant","name":"香萬","address":"群馬県富岡市七日市261-1","source":"厚生労働省 食品衛生申請等システム（オープンデータ）"},"geometry":{"type":"Point","coordinates":[138.877974,36.264259]}},{"type":"Feature","properties":{"layer_id":"cafe_restaurant","name":"ローソン富岡七日市店","address":"群馬県富岡市七日市362-1","source":"厚生労働省 食品衛生申請等システム（オープンデータ）"},"geometry":{"type":"Point","coordinates":[138.881507,36.263082]}},{"type":"Feature","properties":{"layer_id":"cafe_restaurant","name":"多喜","address":"群馬県富岡市七日市548-1","source":"厚生労働省 食品衛生申請等システム（オープンデータ）"},"geometry":{"type":"Point","coordinates":[138.882486,36.263415]}},{"type":"Feature","properties":{"layer_id":"cafe_restaurant","name":"ブルーベリー","address":"群馬県富岡市七日市834-5 2階","source":"厚生労働省 食品衛生申請等システム（オープンデータ）"},"geometry":{"type":"Point","coordinates":[138.879594,36.25782]}},{"type":"Feature","properties":{"layer_id":"cafe_restaurant","name":"やや","address":"群馬県富岡市星田649","source":"厚生労働省 食品衛生申請等システム（オープンデータ）"},"geometry":{"type":"Point","coordinates":[138.920371,36.265032]}},{"type":"Feature","properties":{"layer_id":"cafe_restaurant","name":"麦わら","address":"群馬県富岡市富岡46","source":"厚生労働省 食品衛生申請等システム（オープンデータ）"},"geometry":{"type":"Point","coordinates":[138.890376,36.255445]}},{"type":"Feature","properties":{"layer_id":"cafe_restaurant","name":"みよし食堂","address":"群馬県富岡市七日市906","source":"厚生労働省 食品衛生申請等システム（オープンデータ）"},"geometry":{"type":"Point","coordinates":[138.88448,36.257217]}},{"type":"Feature","properties":{"layer_id":"cafe_restaurant","name":"ふじ久","address":"群馬県富岡市七日市985","source":"厚生労働省 食品衛生申請等システム（オープンデータ）"},"geometry":{"type":"Point","coordinates":[138.877819,36.255823]}},{"type":"Feature","properties":{"layer_id":"cafe_restaurant","name":"上州門前甘味処taNu-cafe","address":"群馬県富岡市神成131-3","source":"厚生労働省 食品衛生申請等システム（オープンデータ）"},"geometry":{"type":"Point","coordinates":[138.835081,36.241681]}},{"type":"Feature","properties":{"layer_id":"cafe_restaurant","name":"老人保健施設ココン","address":"群馬県富岡市上小林47","source":"厚生労働省 食品衛生申請等システム（オープンデータ）"},"geometry":{"type":"Point","coordinates":[138.826939,36.237191]}},{"type":"Feature","properties":{"layer_id":"cafe_restaurant","name":"恵美理","address":"群馬県富岡市田篠318","source":"厚生労働省 食品衛生申請等システム（オープンデータ）"},"geometry":{"type":"Point","coordinates":[138.907704,36.248152]}},{"type":"Feature","properties":{"layer_id":"cafe_restaurant","name":"Cafedining noa","address":"群馬県富岡市富岡1060-3","source":"厚生労働省 食品衛生申請等システム（オープンデータ）"},"geometry":{"type":"Point","coordinates":[138.89041,36.257305]}},{"type":"Feature","properties":{"layer_id":"cafe_restaurant","name":"Ａコープ富岡店","address":"群馬県富岡市富岡1878-1","source":"厚生労働省 食品衛生申請等システム（オープンデータ）"},"geometry":{"type":"Point","coordinates":[138.900832,36.263722]}},{"type":"Feature","properties":{"layer_id":"cafe_restaurant","name":"パスタバル　ミルティーロ","address":"群馬県富岡市富岡3053（南側）","source":"厚生労働省 食品衛生申請等システム（オープンデータ）"},"geometry":{"type":"Point","coordinates":[138.900824,36.262354]}},{"type":"Feature","properties":{"layer_id":"cafe_restaurant","name":"料理処　きよ秀","address":"群馬県富岡市妙義町上高田7-2","source":"厚生労働省 食品衛生申請等システム（オープンデータ）"},"geometry":{"type":"Point","coordinates":[138.813082,36.286252]}},{"type":"Feature","properties":{"layer_id":"cafe_restaurant","name":"ひしや旅館","address":"群馬県富岡市妙義町妙義42","source":"厚生労働省 食品衛生申請等システム（オープンデータ）"},"geometry":{"type":"Point","coordinates":[138.765431,36.300378]}},{"type":"Feature","properties":{"layer_id":"cafe_restaurant","name":"旅館　東雲館","address":"群馬県富岡市妙義町妙義36","source":"厚生労働省 食品衛生申請等システム（オープンデータ）"},"geometry":{"type":"Point","coordinates":[138.765422,36.300999]}},{"type":"Feature","properties":{"layer_id":"cafe_restaurant","name":"東雲館売店アルペン妙義","address":"群馬県富岡市妙義町妙義36","source":"厚生労働省 食品衛生申請等システム（オープンデータ）"},"geometry":{"type":"Point","coordinates":[138.765422,36.300999]}},{"type":"Feature","properties":{"layer_id":"cafe_restaurant","name":"B&I6442群馬","address":"群馬県富岡市一ノ宮820-1","source":"厚生労働省 食品衛生申請等システム（オープンデータ）"},"geometry":{"type":"Point","coordinates":[138.848072,36.253972]}},{"type":"Feature","properties":{"layer_id":"cafe_restaurant","name":"マカプコーヒー","address":"群馬県富岡市富岡1450　おかって市場","source":"厚生労働省 食品衛生申請等システム（オープンデータ）"},"geometry":{"type":"Point","coordinates":[138.890783,36.260099]}},{"type":"Feature","properties":{"layer_id":"cafe_restaurant","name":"鳥新","address":"群馬県富岡市富岡2330-1 スーパー丸幸バイパス店","source":"厚生労働省 食品衛生申請等システム（オープンデータ）"},"geometry":{"type":"Point","coordinates":[138.89599,36.263663]}},{"type":"Feature","properties":{"layer_id":"cafe_restaurant","name":"大塚屋","address":"群馬県富岡市富岡1169","source":"厚生労働省 食品衛生申請等システム（オープンデータ）"},"geometry":{"type":"Point","coordinates":[138.892893,36.255738]}},{"type":"Feature","properties":{"layer_id":"cafe_restaurant","name":"ヴァンヴェール","address":"群馬県富岡市富岡2638-1","source":"厚生労働省 食品衛生申請等システム（オープンデータ）"},"geometry":{"type":"Point","coordinates":[138.905367,36.261104]}},{"type":"Feature","properties":{"layer_id":"cafe_restaurant","name":"みやげ処　扇屋","address":"群馬県富岡市富岡38-12","source":"厚生労働省 食品衛生申請等システム（オープンデータ）"},"geometry":{"type":"Point","coordinates":[138.890036,36.255719]}},{"type":"Feature","properties":{"layer_id":"cafe_restaurant","name":"がってん寿司旬亭　富岡店","address":"群馬県富岡市富岡1292-1","source":"厚生労働省 食品衛生申請等システム（オープンデータ）"},"geometry":{"type":"Point","coordinates":[138.900991,36.258041]}},{"type":"Feature","properties":{"layer_id":"cafe_restaurant","name":"おかって市場","address":"群馬県富岡市富岡1450 （主として営業する場所、ほか営業場所）","source":"厚生労働省 食品衛生申請等システム（オープンデータ）"},"geometry":{"type":"Point","coordinates":[138.891285,36.259993]}},{"type":"Feature","properties":{"layer_id":"cafe_restaurant","name":"絹のヒロイン","address":"群馬県富岡市富岡34-2","source":"厚生労働省 食品衛生申請等システム（オープンデータ）"},"geometry":{"type":"Point","coordinates":[138.889003,36.255978]}},{"type":"Feature","properties":{"layer_id":"cafe_restaurant","name":"上原屋","address":"群馬県富岡市富岡1163","source":"厚生労働省 食品衛生申請等システム（オープンデータ）"},"geometry":{"type":"Point","coordinates":[138.892382,36.255715]}},{"type":"Feature","properties":{"layer_id":"cafe_restaurant","name":"宮","address":"群馬県富岡市富岡19","source":"厚生労働省 食品衛生申請等システム（オープンデータ）"},"geometry":{"type":"Point","coordinates":[138.889102,36.256876]}},{"type":"Feature","properties":{"layer_id":"cafe_restaurant","name":"ほっともっと富岡バイパス店","address":"群馬県富岡市富岡2359-16","source":"厚生労働省 食品衛生申請等システム（オープンデータ）"},"geometry":{"type":"Point","coordinates":[138.891294,36.264017]}},{"type":"Feature","properties":{"layer_id":"cafe_restaurant","name":"割烹しま岡","address":"群馬県富岡市富岡2595","source":"厚生労働省 食品衛生申請等システム（オープンデータ）"},"geometry":{"type":"Point","coordinates":[138.906187,36.264641]}},{"type":"Feature","properties":{"layer_id":"cafe_restaurant","name":"アルファルファ","address":"群馬県富岡市富岡267-1","source":"厚生労働省 食品衛生申請等システム（オープンデータ）"},"geometry":{"type":"Point","coordinates":[138.895561,36.250678]}},{"type":"Feature","properties":{"layer_id":"cafe_restaurant","name":"Mulungi Coffee Room","address":"群馬県富岡市神農原759-3","source":"厚生労働省 食品衛生申請等システム（オープンデータ）"},"geometry":{"type":"Point","coordinates":[138.840281,36.240533]}},{"type":"Feature","properties":{"layer_id":"cafe_restaurant","name":"ニュージプシー","address":"群馬県富岡市富岡21-1","source":"厚生労働省 食品衛生申請等システム（オープンデータ）"},"geometry":{"type":"Point","coordinates":[138.889676,36.257155]}},{"type":"Feature","properties":{"layer_id":"cafe_restaurant","name":"大衆食堂　アサヒ","address":"群馬県富岡市富岡1192-1","source":"厚生労働省 食品衛生申請等システム（オープンデータ）"},"geometry":{"type":"Point","coordinates":[138.895081,36.255901]}},{"type":"Feature","properties":{"layer_id":"cafe_restaurant","name":"だるまだるま","address":"群馬県富岡市富岡1450　おかって市場 （主として営業する場所、ほか営業場所）","source":"厚生労働省 食品衛生申請等システム（オープンデータ）"},"geometry":{"type":"Point","coordinates":[138.890783,36.260099]}},{"type":"Feature","properties":{"layer_id":"cafe_restaurant","name":"エームSJ5176第二工場","address":"群馬県富岡市富岡2027-1","source":"厚生労働省 食品衛生申請等システム（オープンデータ）"},"geometry":{"type":"Point","coordinates":[138.903989,36.261787]}},{"type":"Feature","properties":{"layer_id":"cafe_restaurant","name":"エームサービス（株）七日市寮","address":"群馬県富岡市七日市54","source":"厚生労働省 食品衛生申請等システム（オープンデータ）"},"geometry":{"type":"Point","coordinates":[138.873602,36.260123]}},{"type":"Feature","properties":{"layer_id":"cafe_restaurant","name":"エーム4973","address":"群馬県富岡市富岡2073-1","source":"厚生労働省 食品衛生申請等システム（オープンデータ）"},"geometry":{"type":"Point","coordinates":[138.903677,36.263205]}},{"type":"Feature","properties":{"layer_id":"cafe_restaurant","name":"本場インド料理　スターサンジ","address":"群馬県富岡市富岡1064","source":"厚生労働省 食品衛生申請等システム（オープンデータ）"},"geometry":{"type":"Point","coordinates":[138.889957,36.257594]}},{"type":"Feature","properties":{"layer_id":"cafe_restaurant","name":"元祖からあげ本舗マルタカ富岡店","address":"群馬県富岡市富岡914","source":"厚生労働省 食品衛生申請等システム（オープンデータ）"},"geometry":{"type":"Point","coordinates":[138.90032,36.255824]}},{"type":"Feature","properties":{"layer_id":"cafe_restaurant","name":"中華そば　マルタカ","address":"群馬県富岡市富岡914","source":"厚生労働省 食品衛生申請等システム（オープンデータ）"},"geometry":{"type":"Point","coordinates":[138.900331,36.25581]}},{"type":"Feature","properties":{"layer_id":"cafe_restaurant","name":"Yogiyo","address":"群馬県富岡市富岡267-1","source":"厚生労働省 食品衛生申請等システム（オープンデータ）"},"geometry":{"type":"Point","coordinates":[138.895435,36.250889]}},{"type":"Feature","properties":{"layer_id":"cafe_restaurant","name":"テンダーミール","address":"群馬県富岡市黒川1057-1","source":"厚生労働省 食品衛生申請等システム（オープンデータ）"},"geometry":{"type":"Point","coordinates":[138.874058,36.264511]}},{"type":"Feature","properties":{"layer_id":"cafe_restaurant","name":"株式会社グリーンケアー","address":"群馬県富岡市富岡1004-1","source":"厚生労働省 食品衛生申請等システム（オープンデータ）"},"geometry":{"type":"Point","coordinates":[138.894103,36.255523]}},{"type":"Feature","properties":{"layer_id":"cafe_restaurant","name":"一ノ宮ピッコロこども園","address":"群馬県富岡市一ノ宮382-3","source":"厚生労働省 食品衛生申請等システム（オープンデータ）"},"geometry":{"type":"Point","coordinates":[138.863849,36.25709]}},{"type":"Feature","properties":{"layer_id":"cafe_restaurant","name":"ミツバ富岡工場社員食堂","address":"群馬県富岡市富岡1259-1","source":"厚生労働省 食品衛生申請等システム（オープンデータ）"},"geometry":{"type":"Point","coordinates":[138.902947,36.259525]}},{"type":"Feature","properties":{"layer_id":"cafe_restaurant","name":"TANAKA　富岡寮","address":"群馬県富岡市一ノ宮1648","source":"厚生労働省 食品衛生申請等システム（オープンデータ）"},"geometry":{"type":"Point","coordinates":[138.857463,36.250432]}},{"type":"Feature","properties":{"layer_id":"cafe_restaurant","name":"ファミリーマート富岡下高尾店","address":"群馬県富岡市下高尾478-12","source":"厚生労働省 食品衛生申請等システム（オープンデータ）"},"geometry":{"type":"Point","coordinates":[138.917803,36.285241]}},{"type":"Feature","properties":{"layer_id":"cafe_restaurant","name":"富岡倶楽部","address":"群馬県富岡市藤木621-1","source":"厚生労働省 食品衛生申請等システム（オープンデータ）"},"geometry":{"type":"Point","coordinates":[138.913592,36.305063]}},{"type":"Feature","properties":{"layer_id":"cafe_restaurant","name":"富岡倶楽部　コース売店No15","address":"群馬県富岡市藤木621-1","source":"厚生労働省 食品衛生申請等システム（オープンデータ）"},"geometry":{"type":"Point","coordinates":[138.913592,36.305063]}},{"type":"Feature","properties":{"layer_id":"cafe_restaurant","name":"富岡倶楽部　コース売店No5","address":"群馬県富岡市藤木621-1","source":"厚生労働省 食品衛生申請等システム（オープンデータ）"},"geometry":{"type":"Point","coordinates":[138.913592,36.305063]}},{"type":"Feature","properties":{"layer_id":"cafe_restaurant","name":"下田魚店","address":"群馬県富岡市下黒岩806","source":"厚生労働省 食品衛生申請等システム（オープンデータ）"},"geometry":{"type":"Point","coordinates":[138.892642,36.27552]}},{"type":"Feature","properties":{"layer_id":"cafe_restaurant","name":"居酒屋　灯（ともしび）","address":"群馬県富岡市下高瀬638-1","source":"厚生労働省 食品衛生申請等システム（オープンデータ）"},"geometry":{"type":"Point","coordinates":[138.891905,36.243346]}},{"type":"Feature","properties":{"layer_id":"cafe_restaurant","name":"ニュー飯店","address":"群馬県富岡市下丹生1299-1","source":"厚生労働省 食品衛生申請等システム（オープンデータ）"},"geometry":{"type":"Point","coordinates":[138.830704,36.257082]}},{"type":"Feature","properties":{"layer_id":"cafe_restaurant","name":"レストラン　ミラベル","address":"群馬県富岡市下丹生457-3","source":"厚生労働省 食品衛生申請等システム（オープンデータ）"},"geometry":{"type":"Point","coordinates":[138.828145,36.262663]}},{"type":"Feature","properties":{"layer_id":"cafe_restaurant","name":"松竹飯店","address":"群馬県富岡市田島232-7","source":"厚生労働省 食品衛生申請等システム（オープンデータ）"},"geometry":{"type":"Point","coordinates":[138.857045,36.244999]}},{"type":"Feature","properties":{"layer_id":"cafe_restaurant","name":"焼肉　なかや","address":"群馬県富岡市七日市1292-3","source":"厚生労働省 食品衛生申請等システム（オープンデータ）"},"geometry":{"type":"Point","coordinates":[138.870509,36.255765]}},{"type":"Feature","properties":{"layer_id":"cafe_restaurant","name":"新富鮨","address":"群馬県富岡市南蛇井57-10","source":"厚生労働省 食品衛生申請等システム（オープンデータ）"},"geometry":{"type":"Point","coordinates":[138.82138,36.238703]}},{"type":"Feature","properties":{"layer_id":"cafe_restaurant","name":"磯寿司","address":"群馬県富岡市宇田54-2","source":"厚生労働省 食品衛生申請等システム（オープンデータ）"},"geometry":{"type":"Point","coordinates":[138.850191,36.265613]}},{"type":"Feature","properties":{"layer_id":"cafe_restaurant","name":"旬の膳　白嘉賀","address":"群馬県富岡市中高瀬343","source":"厚生労働省 食品衛生申請等システム（オープンデータ）"},"geometry":{"type":"Point","coordinates":[138.879587,36.250337]}},{"type":"Feature","properties":{"layer_id":"cafe_restaurant","name":"そば処　杉乃家","address":"群馬県富岡市七日市480-2","source":"厚生労働省 食品衛生申請等システム（オープンデータ）"},"geometry":{"type":"Point","coordinates":[138.886422,36.264677]}},{"type":"Feature","properties":{"layer_id":"cafe_restaurant","name":"入丸飯店","address":"群馬県富岡市南後箇670-2","source":"厚生労働省 食品衛生申請等システム（オープンデータ）"},"geometry":{"type":"Point","coordinates":[138.876182,36.23314]}},{"type":"Feature","properties":{"layer_id":"cafe_restaurant","name":"有限会社　のがみ苑","address":"群馬県富岡市野上2658-2","source":"厚生労働省 食品衛生申請等システム（オープンデータ）"},"geometry":{"type":"Point","coordinates":[138.84477,36.20723]}},{"type":"Feature","properties":{"layer_id":"cafe_restaurant","name":"Yショップいりやま店","address":"群馬県富岡市南後箇335-4","source":"厚生労働省 食品衛生申請等システム（オープンデータ）"},"geometry":{"type":"Point","coordinates":[138.868047,36.23297]}},{"type":"Feature","properties":{"layer_id":"cafe_restaurant","name":"倶楽部我山","address":"群馬県富岡市野上1063","source":"厚生労働省 食品衛生申請等システム（オープンデータ）"},"geometry":{"type":"Point","coordinates":[138.84477,36.20723]}},{"type":"Feature","properties":{"layer_id":"cafe_restaurant","name":"田島屋","address":"群馬県富岡市富岡34","source":"厚生労働省 食品衛生申請等システム（オープンデータ）"},"geometry":{"type":"Point","coordinates":[138.889023,36.25596]}},{"type":"Feature","properties":{"layer_id":"cafe_restaurant","name":"ベストライフ　星の里","address":"群馬県富岡市後賀529-1","source":"厚生労働省 食品衛生申請等システム（オープンデータ）"},"geometry":{"type":"Point","coordinates":[138.926101,36.273384]}},{"type":"Feature","properties":{"layer_id":"cafe_restaurant","name":"ローソン富岡田篠店","address":"群馬県富岡市田篠1622-5","source":"厚生労働省 食品衛生申請等システム（オープンデータ）"},"geometry":{"type":"Point","coordinates":[138.918216,36.249159]}},{"type":"Feature","properties":{"layer_id":"cafe_restaurant","name":"天流水舎","address":"群馬県富岡市富岡23-2","source":"厚生労働省 食品衛生申請等システム（オープンデータ）"},"geometry":{"type":"Point","coordinates":[138.889977,36.257143]}},{"type":"Feature","properties":{"layer_id":"cafe_restaurant","name":"みょうぎ物産センター","address":"群馬県富岡市妙義町岳322-7","source":"厚生労働省 食品衛生申請等システム（オープンデータ）"},"geometry":{"type":"Point","coordinates":[138.766053,36.299641]}},{"type":"Feature","properties":{"layer_id":"cafe_restaurant","name":"みょうぎ物産センター","address":"群馬県富岡市妙義町岳322-7","source":"厚生労働省 食品衛生申請等システム（オープンデータ）"},"geometry":{"type":"Point","coordinates":[138.766053,36.299641]}},{"type":"Feature","properties":{"layer_id":"cafe_restaurant","name":"花庵","address":"群馬県富岡市妙義町下高田115-3","source":"厚生労働省 食品衛生申請等システム（オープンデータ）"},"geometry":{"type":"Point","coordinates":[138.848776,36.266553]}},{"type":"Feature","properties":{"layer_id":"cafe_restaurant","name":"ほのか","address":"群馬県富岡市富岡1109","source":"厚生労働省 食品衛生申請等システム（オープンデータ）"},"geometry":{"type":"Point","coordinates":[138.888405,36.258147]}},{"type":"Feature","properties":{"layer_id":"cafe_restaurant","name":"海鮮四季北海亭富岡店","address":"群馬県富岡市富岡1035-1","source":"厚生労働省 食品衛生申請等システム（オープンデータ）"},"geometry":{"type":"Point","coordinates":[138.891117,36.25578]}},{"type":"Feature","properties":{"layer_id":"cafe_restaurant","name":"だんらんや　isami","address":"群馬県富岡市七日市1413-1","source":"厚生労働省 食品衛生申請等システム（オープンデータ）"},"geometry":{"type":"Point","coordinates":[138.872309,36.256563]}},{"type":"Feature","properties":{"layer_id":"cafe_restaurant","name":"カーリー・グルメ・レストラン富岡店","address":"群馬県富岡市黒川737-2","source":"厚生労働省 食品衛生申請等システム（オープンデータ）"},"geometry":{"type":"Point","coordinates":[138.866485,36.258497]}},{"type":"Feature","properties":{"layer_id":"cafe_restaurant","name":"Destiny","address":"群馬県富岡市富岡37-4","source":"厚生労働省 食品衛生申請等システム（オープンデータ）"},"geometry":{"type":"Point","coordinates":[138.889859,36.25591]}},{"type":"Feature","properties":{"layer_id":"cafe_restaurant","name":"妙義四季の会","address":"群馬県富岡市妙義町上高田971-3","source":"厚生労働省 食品衛生申請等システム（オープンデータ）"},"geometry":{"type":"Point","coordinates":[138.819296,36.283442]}},{"type":"Feature","properties":{"layer_id":"cafe_restaurant","name":"１４１","address":"群馬県富岡市富岡29-1 1階","source":"厚生労働省 食品衛生申請等システム（オープンデータ）"},"geometry":{"type":"Point","coordinates":[138.889752,36.256325]}},{"type":"Feature","properties":{"layer_id":"cafe_restaurant","name":"AMORE（アモーレ）","address":"群馬県富岡市富岡17-3 1-2号室","source":"厚生労働省 食品衛生申請等システム（オープンデータ）"},"geometry":{"type":"Point","coordinates":[138.888866,36.256777]}},{"type":"Feature","properties":{"layer_id":"cafe_restaurant","name":"妙義自然の家プラス","address":"群馬県富岡市妙義町諸戸1106","source":"厚生労働省 食品衛生申請等システム（オープンデータ）"},"geometry":{"type":"Point","coordinates":[138.757623,36.29089]}},{"type":"Feature","properties":{"layer_id":"cafe_restaurant","name":"（株）ジー・オー・フードサービス","address":"群馬県富岡市富岡1256-1","source":"厚生労働省 食品衛生申請等システム（オープンデータ）"},"geometry":{"type":"Point","coordinates":[138.900451,36.259531]}},{"type":"Feature","properties":{"layer_id":"cafe_restaurant","name":"山カフェ　妙義","address":"群馬県富岡市妙義町妙義1-5","source":"厚生労働省 食品衛生申請等システム（オープンデータ）"},"geometry":{"type":"Point","coordinates":[138.765725,36.298017]}},{"type":"Feature","properties":{"layer_id":"cafe_restaurant","name":"セブン－イレブン富岡田篠店","address":"群馬県富岡市田篠1380-1","source":"厚生労働省 食品衛生申請等システム（オープンデータ）"},"geometry":{"type":"Point","coordinates":[138.912727,36.246824]}},{"type":"Feature","properties":{"layer_id":"cafe_restaurant","name":"ウィング","address":"群馬県富岡市富岡23","source":"厚生労働省 食品衛生申請等システム（オープンデータ）"},"geometry":{"type":"Point","coordinates":[138.889997,36.256656]}},{"type":"Feature","properties":{"layer_id":"cafe_restaurant","name":"昼カラ　なごみ","address":"群馬県富岡市富岡611-2","source":"厚生労働省 食品衛生申請等システム（オープンデータ）"},"geometry":{"type":"Point","coordinates":[138.900706,36.254213]}},{"type":"Feature","properties":{"layer_id":"cafe_restaurant","name":"BURGER LUANA","address":"群馬県富岡市七日市878-1　南側","source":"厚生労働省 食品衛生申請等システム（オープンデータ）"},"geometry":{"type":"Point","coordinates":[138.885709,36.257928]}},{"type":"Feature","properties":{"layer_id":"cafe_restaurant","name":"はなうらら","address":"群馬県富岡市曽木925-25","source":"厚生労働省 食品衛生申請等システム（オープンデータ）"},"geometry":{"type":"Point","coordinates":[138.904169,36.250846]}},{"type":"Feature","properties":{"layer_id":"cafe_restaurant","name":"アトリエ","address":"群馬県富岡市富岡1045","source":"厚生労働省 食品衛生申請等システム（オープンデータ）"},"geometry":{"type":"Point","coordinates":[138.890891,36.256719]}},{"type":"Feature","properties":{"layer_id":"cafe_restaurant","name":"上州　やなぎや","address":"群馬県富岡市富岡1031-3","source":"厚生労働省 食品衛生申請等システム（オープンデータ）"},"geometry":{"type":"Point","coordinates":[138.890993,36.255593]}},{"type":"Feature","properties":{"layer_id":"cafe_restaurant","name":"本と雑貨とクリオ","address":"群馬県富岡市富岡509-1","source":"厚生労働省 食品衛生申請等システム（オープンデータ）"},"geometry":{"type":"Point","coordinates":[138.901021,36.250421]}},{"type":"Feature","properties":{"layer_id":"cafe_restaurant","name":"FREE GALLERY 絆","address":"群馬県富岡市富岡1361-8","source":"厚生労働省 食品衛生申請等システム（オープンデータ）"},"geometry":{"type":"Point","coordinates":[138.895332,36.257965]}},{"type":"Feature","properties":{"layer_id":"cafe_restaurant","name":"カフェネリネ","address":"群馬県富岡市富岡1045-3","source":"厚生労働省 食品衛生申請等システム（オープンデータ）"},"geometry":{"type":"Point","coordinates":[138.891164,36.256721]}},{"type":"Feature","properties":{"layer_id":"cafe_restaurant","name":"ＪＡ甘楽富岡ふれあいデイホーム","address":"群馬県富岡市上丹生8-1","source":"厚生労働省 食品衛生申請等システム（オープンデータ）"},"geometry":{"type":"Point","coordinates":[138.823488,36.26071]}},{"type":"Feature","properties":{"layer_id":"cafe_restaurant","name":"だん家","address":"群馬県富岡市中高瀬525-3","source":"厚生労働省 食品衛生申請等システム（オープンデータ）"},"geometry":{"type":"Point","coordinates":[138.883586,36.249325]}},{"type":"Feature","properties":{"layer_id":"cafe_restaurant","name":"日清医療食品（株）北関東支店ふれあいホーム事業所","address":"群馬県富岡市黒川1380","source":"厚生労働省 食品衛生申請等システム（オープンデータ）"},"geometry":{"type":"Point","coordinates":[138.879521,36.268224]}},{"type":"Feature","properties":{"layer_id":"cafe_restaurant","name":"なのかいちこども園．アイコーメディカル","address":"群馬県富岡市七日市1074-15","source":"厚生労働省 食品衛生申請等システム（オープンデータ）"},"geometry":{"type":"Point","coordinates":[138.880134,36.25657]}},{"type":"Feature","properties":{"layer_id":"cafe_restaurant","name":"ビストロ　ユジェーヌ","address":"群馬県富岡市七日市456-3","source":"厚生労働省 食品衛生申請等システム（オープンデータ）"},"geometry":{"type":"Point","coordinates":[138.882638,36.265333]}},{"type":"Feature","properties":{"layer_id":"cafe_restaurant","name":"迎賓館","address":"群馬県富岡市七日市1530-2","source":"厚生労働省 食品衛生申請等システム（オープンデータ）"},"geometry":{"type":"Point","coordinates":[138.873282,36.25647]}},{"type":"Feature","properties":{"layer_id":"cafe_restaurant","name":"ベーカリーカフェレストラン　ケンケン","address":"群馬県富岡市七日市422-5","source":"厚生労働省 食品衛生申請等システム（オープンデータ）"},"geometry":{"type":"Point","coordinates":[138.881339,36.264291]}},{"type":"Feature","properties":{"layer_id":"cafe_restaurant","name":"モスバーガー富岡バイパス店","address":"群馬県富岡市七日市257-1","source":"厚生労働省 食品衛生申請等システム（オープンデータ）"},"geometry":{"type":"Point","coordinates":[138.877473,36.264037]}},{"type":"Feature","properties":{"layer_id":"cafe_restaurant","name":"日本料理　稀家","address":"群馬県富岡市内匠228-1","source":"厚生労働省 食品衛生申請等システム（オープンデータ）"},"geometry":{"type":"Point","coordinates":[138.900255,36.246614]}},{"type":"Feature","properties":{"layer_id":"cafe_restaurant","name":"イル・ピアット","address":"群馬県富岡市内匠144","source":"厚生労働省 食品衛生申請等システム（オープンデータ）"},"geometry":{"type":"Point","coordinates":[138.89732,36.246858]}},{"type":"Feature","properties":{"layer_id":"cafe_restaurant","name":"ほっともっと富岡内匠店","address":"群馬県富岡市内匠262-1","source":"厚生労働省 食品衛生申請等システム（オープンデータ）"},"geometry":{"type":"Point","coordinates":[138.896304,36.245161]}},{"type":"Feature","properties":{"layer_id":"cafe_restaurant","name":"郷土料理　ひなた","address":"群馬県富岡市中沢337-1","source":"厚生労働省 食品衛生申請等システム（オープンデータ）"},"geometry":{"type":"Point","coordinates":[138.811626,36.244217]}},{"type":"Feature","properties":{"layer_id":"cafe_restaurant","name":"Komiya（こみや）","address":"群馬県富岡市神農原148-3","source":"厚生労働省 食品衛生申請等システム（オープンデータ）"},"geometry":{"type":"Point","coordinates":[138.850711,36.243165]}},{"type":"Feature","properties":{"layer_id":"cafe_restaurant","name":"セブンイレブン富岡宇田店","address":"群馬県富岡市宇田491-1","source":"厚生労働省 食品衛生申請等システム（オープンデータ）"},"geometry":{"type":"Point","coordinates":[138.855716,36.259727]}},{"type":"Feature","properties":{"layer_id":"cafe_restaurant","name":"れんれん","address":"群馬県富岡市富岡35-13","source":"厚生労働省 食品衛生申請等システム（オープンデータ）"},"geometry":{"type":"Point","coordinates":[138.889131,36.255837]}},{"type":"Feature","properties":{"layer_id":"cafe_restaurant","name":"芋ハチ","address":"群馬県富岡市黒川629-1","source":"厚生労働省 食品衛生申請等システム（オープンデータ）"},"geometry":{"type":"Point","coordinates":[138.867553,36.262205]}},{"type":"Feature","properties":{"layer_id":"cafe_restaurant","name":"富岡ゴルフ倶楽部","address":"群馬県富岡市下丹生914","source":"厚生労働省 食品衛生申請等システム（オープンデータ）"},"geometry":{"type":"Point","coordinates":[138.832195,36.258514]}},{"type":"Feature","properties":{"layer_id":"cafe_restaurant","name":"イタリア食堂　ＹＡＭＡＺＡＫＩ","address":"群馬県富岡市富岡21-14","source":"厚生労働省 食品衛生申請等システム（オープンデータ）"},"geometry":{"type":"Point","coordinates":[138.889735,36.256677]}},{"type":"Feature","properties":{"layer_id":"cafe_restaurant","name":"楊貴妃","address":"群馬県富岡市富岡17-3　クラブハイツ１階３号室","source":"厚生労働省 食品衛生申請等システム（オープンデータ）"},"geometry":{"type":"Point","coordinates":[138.888866,36.256777]}},{"type":"Feature","properties":{"layer_id":"cafe_restaurant","name":"大衆酒場　アサヒ","address":"群馬県富岡市富岡22","source":"厚生労働省 食品衛生申請等システム（オープンデータ）"},"geometry":{"type":"Point","coordinates":[138.88982,36.256936]}},{"type":"Feature","properties":{"layer_id":"cafe_restaurant","name":"大塚の魚屋","address":"群馬県富岡市富岡1015","source":"厚生労働省 食品衛生申請等システム（オープンデータ）"},"geometry":{"type":"Point","coordinates":[138.892639,36.255412]}},{"type":"Feature","properties":{"layer_id":"cafe_restaurant","name":"セブンイレブン富岡上小林諏訪店","address":"群馬県富岡市上小林諏訪383－2","source":"厚生労働省 食品衛生申請等システム（オープンデータ）"},"geometry":{"type":"Point","coordinates":[138.832824,36.238997]}},{"type":"Feature","properties":{"layer_id":"cafe_restaurant","name":"花季","address":"群馬県富岡市富岡1109","source":"厚生労働省 食品衛生申請等システム（オープンデータ）"},"geometry":{"type":"Point","coordinates":[138.888405,36.258147]}},{"type":"Feature","properties":{"layer_id":"cafe_restaurant","name":"越山","address":"群馬県富岡市富岡1075","source":"厚生労働省 食品衛生申請等システム（オープンデータ）"},"geometry":{"type":"Point","coordinates":[138.88861,36.257678]}},{"type":"Feature","properties":{"layer_id":"cafe_restaurant","name":"酔い処　Ren","address":"群馬県富岡市富岡36-8","source":"厚生労働省 食品衛生申請等システム（オープンデータ）"},"geometry":{"type":"Point","coordinates":[138.889731,36.256078]}},{"type":"Feature","properties":{"layer_id":"cafe_restaurant","name":"鶴田商店（ハッピーランチ）","address":"群馬県富岡市富岡1010","source":"厚生労働省 食品衛生申請等システム（オープンデータ）"},"geometry":{"type":"Point","coordinates":[138.893143,36.255333]}},{"type":"Feature","properties":{"layer_id":"cafe_restaurant","name":"あんことカフェ","address":"群馬県富岡市富岡1489-3","source":"厚生労働省 食品衛生申請等システム（オープンデータ）"},"geometry":{"type":"Point","coordinates":[138.888282,36.259184]}},{"type":"Feature","properties":{"layer_id":"cafe_restaurant","name":"ひともと","address":"群馬県富岡市富岡1066","source":"厚生労働省 食品衛生申請等システム（オープンデータ）"},"geometry":{"type":"Point","coordinates":[138.889708,36.257311]}},{"type":"Feature","properties":{"layer_id":"cafe_restaurant","name":"洋食膳処　ま・めぞん","address":"群馬県富岡市富岡1007-1","source":"厚生労働省 食品衛生申請等システム（オープンデータ）"},"geometry":{"type":"Point","coordinates":[138.893735,36.255216]}},{"type":"Feature","properties":{"layer_id":"cafe_restaurant","name":"たこ顔　富岡店","address":"群馬県富岡市富岡2277-1","source":"厚生労働省 食品衛生申請等システム（オープンデータ）"},"geometry":{"type":"Point","coordinates":[138.899764,36.25825]}},{"type":"Feature","properties":{"layer_id":"cafe_restaurant","name":"焼肉あぐり　かぶら苑","address":"群馬県富岡市中高瀬364-4","source":"厚生労働省 食品衛生申請等システム（オープンデータ）"},"geometry":{"type":"Point","coordinates":[138.882367,36.250573]}},{"type":"Feature","properties":{"layer_id":"cafe_restaurant","name":"NOCE","address":"群馬県富岡市富岡526-1","source":"厚生労働省 食品衛生申請等システム（オープンデータ）"},"geometry":{"type":"Point","coordinates":[138.899764,36.25825]}},{"type":"Feature","properties":{"layer_id":"cafe_restaurant","name":"梅もと","address":"群馬県富岡市富岡42","source":"厚生労働省 食品衛生申請等システム（オープンデータ）"},"geometry":{"type":"Point","coordinates":[138.890596,36.255766]}},{"type":"Feature","properties":{"layer_id":"cafe_restaurant","name":"94HIBISCUS","address":"群馬県富岡市富岡37-4","source":"厚生労働省 食品衛生申請等システム（オープンデータ）"},"geometry":{"type":"Point","coordinates":[138.889859,36.25591]}},{"type":"Feature","properties":{"layer_id":"cafe_restaurant","name":"学校法人龍光寺学園　とみおかこども園","address":"群馬県富岡市富岡1093-1","source":"厚生労働省 食品衛生申請等システム（オープンデータ）"},"geometry":{"type":"Point","coordinates":[138.887188,36.258952]}},{"type":"Feature","properties":{"layer_id":"cafe_restaurant","name":"台湾料理　味味軒","address":"群馬県富岡市田島234-1","source":"厚生労働省 食品衛生申請等システム（オープンデータ）"},"geometry":{"type":"Point","coordinates":[138.857616,36.245389]}},{"type":"Feature","properties":{"layer_id":"cafe_restaurant","name":"セブンーイレブン富岡上高尾店","address":"群馬県富岡市上高尾145-1","source":"厚生労働省 食品衛生申請等システム（オープンデータ）"},"geometry":{"type":"Point","coordinates":[138.900175,36.277119]}},{"type":"Feature","properties":{"layer_id":"cafe_restaurant","name":"カフェスタジオ　美トン","address":"群馬県富岡市田篠318-1　5区割　南より2番目","source":"厚生労働省 食品衛生申請等システム（オープンデータ）"},"geometry":{"type":"Point","coordinates":[138.907704,36.248152]}},{"type":"Feature","properties":{"layer_id":"cafe_restaurant","name":"THUY　XUKA　MART－TOMIOKA","address":"群馬県富岡市富岡1145","source":"厚生労働省 食品衛生申請等システム（オープンデータ）"},"geometry":{"type":"Point","coordinates":[138.891463,36.25674]}},{"type":"Feature","properties":{"layer_id":"cafe_restaurant","name":"かぶら聖苑","address":"群馬県富岡市上黒岩318","source":"厚生労働省 食品衛生申請等システム（オープンデータ）"},"geometry":{"type":"Point","coordinates":[138.876151,36.285352]}},{"type":"Feature","properties":{"layer_id":"cafe_restaurant","name":"サンディーノ","address":"群馬県富岡市田篠1200-5","source":"厚生労働省 食品衛生申請等システム（オープンデータ）"},"geometry":{"type":"Point","coordinates":[138.917201,36.257188]}},{"type":"Feature","properties":{"layer_id":"cafe_restaurant","name":"シニアライフ白岩","address":"群馬県富岡市白岩703","source":"厚生労働省 食品衛生申請等システム（オープンデータ）"},"geometry":{"type":"Point","coordinates":[138.925285,36.282069]}},{"type":"Feature","properties":{"layer_id":"cafe_restaurant","name":"ショート・デイセンター　こまち","address":"群馬県富岡市七日市761-10","source":"厚生労働省 食品衛生申請等システム（オープンデータ）"},"geometry":{"type":"Point","coordinates":[138.879118,36.258793]}},{"type":"Feature","properties":{"layer_id":"cafe_restaurant","name":"介護老人保健施設　こまち","address":"群馬県富岡市相野田469","source":"厚生労働省 食品衛生申請等システム（オープンデータ）"},"geometry":{"type":"Point","coordinates":[138.925766,36.283365]}},{"type":"Feature","properties":{"layer_id":"cafe_restaurant","name":"水鳥記","address":"群馬県富岡市黒川1807-9","source":"厚生労働省 食品衛生申請等システム（オープンデータ）"},"geometry":{"type":"Point","coordinates":[138.858076,36.268155]}},{"type":"Feature","properties":{"layer_id":"cafe_restaurant","name":"富岡メモリードホール","address":"群馬県富岡市黒川740-1","source":"厚生労働省 食品衛生申請等システム（オープンデータ）"},"geometry":{"type":"Point","coordinates":[138.866991,36.258349]}},{"type":"Feature","properties":{"layer_id":"cafe_restaurant","name":"ベイシア富岡店（惣菜作業室）","address":"群馬県富岡市黒川650","source":"厚生労働省 食品衛生申請等システム（オープンデータ）"},"geometry":{"type":"Point","coordinates":[138.866279,36.260881]}},{"type":"Feature","properties":{"layer_id":"cafe_restaurant","name":"セレモニーホール甘楽富岡","address":"群馬県富岡市富岡2664-1","source":"厚生労働省 食品衛生申請等システム（オープンデータ）"},"geometry":{"type":"Point","coordinates":[138.906735,36.261195]}},{"type":"Feature","properties":{"layer_id":"cafe_restaurant","name":"oudo.","address":"群馬県富岡市上高尾29","source":"厚生労働省 食品衛生申請等システム（オープンデータ）"},"geometry":{"type":"Point","coordinates":[138.895767,36.27655]}},{"type":"Feature","properties":{"layer_id":"cafe_restaurant","name":"極濃湯麺シントミ","address":"群馬県富岡市内匠253-1","source":"厚生労働省 食品衛生申請等システム（オープンデータ）"},"geometry":{"type":"Point","coordinates":[138.897705,36.245575]}},{"type":"Feature","properties":{"layer_id":"cafe_restaurant","name":"萩原芳泉堂","address":"群馬県富岡市妙義町妙義199","source":"厚生労働省 食品衛生申請等システム（オープンデータ）"},"geometry":{"type":"Point","coordinates":[138.765607,36.300758]}},{"type":"Feature","properties":{"layer_id":"cafe_restaurant","name":"MAHARANI INDIAN RESTAURANT","address":"群馬県富岡市七日市264-1","source":"厚生労働省 食品衛生申請等システム（オープンデータ）"},"geometry":{"type":"Point","coordinates":[138.878531,36.264527]}},{"type":"Feature","properties":{"layer_id":"cafe_restaurant","name":"おかって市場","address":"群馬県富岡市富岡1450-1","source":"厚生労働省 食品衛生申請等システム（オープンデータ）"},"geometry":{"type":"Point","coordinates":[138.891285,36.259993]}},{"type":"Feature","properties":{"layer_id":"cafe_restaurant","name":"桂花房","address":"群馬県富岡市富岡1588-6","source":"厚生労働省 食品衛生申請等システム（オープンデータ）"},"geometry":{"type":"Point","coordinates":[138.890349,36.26354]}},{"type":"Feature","properties":{"layer_id":"cafe_restaurant","name":"丸亀製麺富岡","address":"群馬県富岡市七日市276‐1","source":"厚生労働省 食品衛生申請等システム（オープンデータ）"},"geometry":{"type":"Point","coordinates":[138.880446,36.265574]}},{"type":"Feature","properties":{"layer_id":"cafe_restaurant","name":"和と洋","address":"群馬県富岡市富岡５１－１３","source":"厚生労働省 食品衛生申請等システム（オープンデータ）"},"geometry":{"type":"Point","coordinates":[138.889195,36.255645]}},{"type":"Feature","properties":{"layer_id":"cafe_restaurant","name":"友人町","address":"群馬県富岡市南後箇1031-2","source":"厚生労働省 食品衛生申請等システム（オープンデータ）"},"geometry":{"type":"Point","coordinates":[138.875582,36.231137]}},{"type":"Feature","properties":{"layer_id":"cafe_restaurant","name":"みの助茶屋","address":"群馬県富岡市富岡1038","source":"厚生労働省 食品衛生申請等システム（オープンデータ）"},"geometry":{"type":"Point","coordinates":[138.891275,36.256083]}},{"type":"Feature","properties":{"layer_id":"cafe_restaurant","name":"（有）萬屋料理店","address":"群馬県富岡市富岡1045","source":"厚生労働省 食品衛生申請等システム（オープンデータ）"},"geometry":{"type":"Point","coordinates":[138.891278,36.256703]}},{"type":"Feature","properties":{"layer_id":"cafe_restaurant","name":"株式会社　まるいち　茶のまるいち園","address":"群馬県富岡市富岡1052","source":"厚生労働省 食品衛生申請等システム（オープンデータ）"},"geometry":{"type":"Point","coordinates":[138.891196,36.257385]}},{"type":"Feature","properties":{"layer_id":"cafe_restaurant","name":"居酒屋　味来","address":"群馬県富岡市富岡1052-10","source":"厚生労働省 食品衛生申請等システム（オープンデータ）"},"geometry":{"type":"Point","coordinates":[138.891176,36.257504]}},{"type":"Feature","properties":{"layer_id":"cafe_restaurant","name":"大村支店","address":"群馬県富岡市富岡1178-1","source":"厚生労働省 食品衛生申請等システム（オープンデータ）"},"geometry":{"type":"Point","coordinates":[138.893743,36.255804]}},{"type":"Feature","properties":{"layer_id":"cafe_restaurant","name":"かわら屋","address":"群馬県富岡市富岡148","source":"厚生労働省 食品衛生申請等システム（オープンデータ）"},"geometry":{"type":"Point","coordinates":[138.891597,36.254155]}},{"type":"Feature","properties":{"layer_id":"cafe_restaurant","name":"新正軒","address":"群馬県富岡市富岡1542-25","source":"厚生労働省 食品衛生申請等システム（オープンデータ）"},"geometry":{"type":"Point","coordinates":[138.88864,36.260952]}},{"type":"Feature","properties":{"layer_id":"cafe_restaurant","name":"若","address":"群馬県富岡市富岡16-1　ウイング21　2階Ｊ","source":"厚生労働省 食品衛生申請等システム（オープンデータ）"},"geometry":{"type":"Point","coordinates":[138.888833,36.257095]}},{"type":"Feature","properties":{"layer_id":"cafe_restaurant","name":"呑み処「わいわい」","address":"群馬県富岡市富岡20-23","source":"厚生労働省 食品衛生申請等システム（オープンデータ）"},"geometry":{"type":"Point","coordinates":[138.889604,36.256622]}},{"type":"Feature","properties":{"layer_id":"cafe_restaurant","name":"天心","address":"群馬県富岡市富岡21-15","source":"厚生労働省 食品衛生申請等システム（オープンデータ）"},"geometry":{"type":"Point","coordinates":[138.88978,36.256531]}},{"type":"Feature","properties":{"layer_id":"cafe_restaurant","name":"三代目　小澤家","address":"群馬県富岡市富岡29","source":"厚生労働省 食品衛生申請等システム（オープンデータ）"},"geometry":{"type":"Point","coordinates":[138.889884,36.256341]}},{"type":"Feature","properties":{"layer_id":"cafe_restaurant","name":"はや味","address":"群馬県富岡市富岡51","source":"厚生労働省 食品衛生申請等システム（オープンデータ）"},"geometry":{"type":"Point","coordinates":[138.889141,36.255655]}},{"type":"Feature","properties":{"layer_id":"cafe_restaurant","name":"焼肉　蒼","address":"群馬県富岡市富岡1120","source":"厚生労働省 食品衛生申請等システム（オープンデータ）"},"geometry":{"type":"Point","coordinates":[138.890008,36.258186]}},{"type":"Feature","properties":{"layer_id":"cafe_restaurant","name":"富岡市学校給食センター","address":"群馬県富岡市一ノ宮525","source":"厚生労働省 食品衛生申請等システム（オープンデータ）"},"geometry":{"type":"Point","coordinates":[138.865031,36.258809]}},{"type":"Feature","properties":{"layer_id":"cafe_restaurant","name":"いこいパートⅡ","address":"群馬県富岡市上高瀬336-4","source":"厚生労働省 食品衛生申請等システム（オープンデータ）"},"geometry":{"type":"Point","coordinates":[138.863254,36.238632]}},{"type":"Feature","properties":{"layer_id":"cafe_restaurant","name":"鳴門屋富岡スズラン店","address":"群馬県富岡市富岡29-7","source":"厚生労働省 食品衛生申請等システム（オープンデータ）"},"geometry":{"type":"Point","coordinates":[138.890006,36.256227]}},{"type":"Feature","properties":{"layer_id":"cafe_restaurant","name":"合同会社手作りアイス工房じぇら２１","address":"群馬県富岡市富岡2638-1","source":"厚生労働省 食品衛生申請等システム（オープンデータ）"},"geometry":{"type":"Point","coordinates":[138.905367,36.261104]}},{"type":"Feature","properties":{"layer_id":"cafe_restaurant","name":"もつ煮　なかみ","address":"群馬県富岡市富岡29-6","source":"厚生労働省 食品衛生申請等システム（オープンデータ）"},"geometry":{"type":"Point","coordinates":[138.89011,36.256182]}},{"type":"Feature","properties":{"layer_id":"public_facilities","name":"黒岩公民館","address":"富岡市上黒岩174","source":"国土交通省 国土数値情報"},"geometry":{"type":"Point","coordinates":[138.8822,36.281482]}},{"type":"Feature","properties":{"layer_id":"public_facilities","name":"宇田集落センター","address":"富岡市宇田559-1","source":"国土交通省 国土数値情報"},"geometry":{"type":"Point","coordinates":[138.853835,36.259915]}},{"type":"Feature","properties":{"layer_id":"public_facilities","name":"妙義中央公民館","address":"富岡市妙義町上高田1195-1","source":"国土交通省 国土数値情報"},"geometry":{"type":"Point","coordinates":[138.816842,36.286228]}},{"type":"Feature","properties":{"layer_id":"public_facilities","name":"宮本町まちなか交流館","address":"富岡市富岡1406-4","source":"国土交通省 国土数値情報"},"geometry":{"type":"Point","coordinates":[138.892431,36.256812]}},{"type":"Feature","properties":{"layer_id":"public_facilities","name":"一ノ宮公民館","address":"富岡市一ノ宮1702","source":"国土交通省 国土数値情報"},"geometry":{"type":"Point","coordinates":[138.858723,36.2514]}},{"type":"Feature","properties":{"layer_id":"public_facilities","name":"社会教育館","address":"富岡市一ノ宮1465-1","source":"国土交通省 国土数値情報"},"geometry":{"type":"Point","coordinates":[138.859576,36.25517]}},{"type":"Feature","properties":{"layer_id":"public_facilities","name":"妙義ふれあいプラザ","address":"富岡市妙義町妙義1-1","source":"国土交通省 国土数値情報"},"geometry":{"type":"Point","coordinates":[138.767396,36.297751]}},{"type":"Feature","properties":{"layer_id":"public_facilities","name":"丹生公民館","address":"富岡市上丹生2876","source":"国土交通省 国土数値情報"},"geometry":{"type":"Point","coordinates":[138.821178,36.262064]}},{"type":"Feature","properties":{"layer_id":"public_facilities","name":"コミュニティセンター上高尾","address":"富岡市上高尾187-8","source":"国土交通省 国土数値情報"},"geometry":{"type":"Point","coordinates":[138.896104,36.280788]}},{"type":"Feature","properties":{"layer_id":"public_facilities","name":"藤木公会堂","address":"富岡市藤木1027-1","source":"国土交通省 国土数値情報"},"geometry":{"type":"Point","coordinates":[138.920397,36.294788]}},{"type":"Feature","properties":{"layer_id":"public_facilities","name":"かぶら文化ホール","address":"富岡市上黒岩1674-1","source":"国土交通省 国土数値情報"},"geometry":{"type":"Point","coordinates":[138.86751,36.269717]}},{"type":"Feature","properties":{"layer_id":"public_facilities","name":"まちかど遊ＹＯＵプラザ","address":"富岡市富岡1151","source":"国土交通省 国土数値情報"},"geometry":{"type":"Point","coordinates":[138.891511,36.256118]}},{"type":"Feature","properties":{"layer_id":"public_facilities","name":"北塚集落センター","address":"富岡市岡本397","source":"国土交通省 国土数値情報"},"geometry":{"type":"Point","coordinates":[138.888135,36.236238]}},{"type":"Feature","properties":{"layer_id":"public_facilities","name":"野上区民会館","address":"富岡市野上2565-3","source":"国土交通省 国土数値情報"},"geometry":{"type":"Point","coordinates":[138.853538,36.226639]}},{"type":"Feature","properties":{"layer_id":"public_facilities","name":"勤労者会館","address":"富岡市富岡379","source":"国土交通省 国土数値情報"},"geometry":{"type":"Point","coordinates":[138.899599,36.252824]}},{"type":"Feature","properties":{"layer_id":"public_facilities","name":"高瀬公民館","address":"富岡市中高瀬815","source":"国土交通省 国土数値情報"},"geometry":{"type":"Point","coordinates":[138.878388,36.245051]}},{"type":"Feature","properties":{"layer_id":"public_facilities","name":"富岡市役所","address":"富岡市富岡1460-1","source":"国土交通省 国土数値情報"},"geometry":{"type":"Point","coordinates":[138.889958,36.259852]}},{"type":"Feature","properties":{"layer_id":"public_facilities","name":"菅原町公会堂","address":"富岡市妙義町菅原1472-7","source":"国土交通省 国土数値情報"},"geometry":{"type":"Point","coordinates":[138.765697,36.268723]}},{"type":"Feature","properties":{"layer_id":"public_facilities","name":"内匠公会堂","address":"富岡市内匠317","source":"国土交通省 国土数値情報"},"geometry":{"type":"Point","coordinates":[138.899617,36.245506]}},{"type":"Feature","properties":{"layer_id":"public_facilities","name":"仲町まちなか交流館","address":"富岡市富岡1025-1","source":"国土交通省 国土数値情報"},"geometry":{"type":"Point","coordinates":[138.891601,36.255331]}},{"type":"Feature","properties":{"layer_id":"public_facilities","name":"妙義東部公民館","address":"富岡市妙義町下高田762-1","source":"国土交通省 国土数値情報"},"geometry":{"type":"Point","coordinates":[138.841915,36.270461]}},{"type":"Feature","properties":{"layer_id":"public_facilities","name":"生涯学習センター","address":"富岡市七日市400-1","source":"国土交通省 国土数値情報"},"geometry":{"type":"Point","coordinates":[138.880326,36.263815]}},{"type":"Feature","properties":{"layer_id":"public_facilities","name":"下黒川集落センター","address":"富岡市黒川1299","source":"国土交通省 国土数値情報"},"geometry":{"type":"Point","coordinates":[138.876095,36.264865]}},{"type":"Feature","properties":{"layer_id":"public_facilities","name":"銀座まちなか交流館","address":"富岡市富岡19-2","source":"国土交通省 国土数値情報"},"geometry":{"type":"Point","coordinates":[138.889134,36.256983]}},{"type":"Feature","properties":{"layer_id":"public_facilities","name":"富岡公民館","address":"富岡市富岡1775-2","source":"国土交通省 国土数値情報"},"geometry":{"type":"Point","coordinates":[138.894772,36.260095]}},{"type":"Feature","properties":{"layer_id":"public_facilities","name":"小野公民館","address":"富岡市白岩608-6","source":"国土交通省 国土数値情報"},"geometry":{"type":"Point","coordinates":[138.921207,36.284806]}},{"type":"Feature","properties":{"layer_id":"public_facilities","name":"かのはら公会堂","address":"富岡市神農原643-3","source":"国土交通省 国土数値情報"},"geometry":{"type":"Point","coordinates":[138.847388,36.242869]}},{"type":"Feature","properties":{"layer_id":"public_facilities","name":"神成公会堂","address":"富岡市神成1206","source":"国土交通省 国土数値情報"},"geometry":{"type":"Point","coordinates":[138.833631,36.245831]}},{"type":"Feature","properties":{"layer_id":"public_facilities","name":"吉田公民館","address":"富岡市中沢183","source":"国土交通省 国土数値情報"},"geometry":{"type":"Point","coordinates":[138.81417,36.239079]}},{"type":"Feature","properties":{"layer_id":"public_facilities","name":"七日市公民館","address":"富岡市七日市756-1","source":"国土交通省 国土数値情報"},"geometry":{"type":"Point","coordinates":[138.88007,36.258716]}},{"type":"Feature","properties":{"layer_id":"public_facilities","name":"かぶら聖苑","address":"富岡市上黒岩318","source":"国土交通省 国土数値情報"},"geometry":{"type":"Point","coordinates":[138.876011,36.285423]}},{"type":"Feature","properties":{"layer_id":"public_facilities","name":"東富岡公民館","address":"富岡市曽木119-1","source":"国土交通省 国土数値情報"},"geometry":{"type":"Point","coordinates":[138.908893,36.258712]}},{"type":"Feature","properties":{"layer_id":"public_facilities","name":"額部公民館","address":"富岡市南後箇1183","source":"国土交通省 国土数値情報"},"geometry":{"type":"Point","coordinates":[138.872509,36.233149]}},{"type":"Feature","properties":{"layer_id":"public_facilities","name":"勤労青少年ホームウイングプラザとみおか","address":"富岡市田篠1330","source":"国土交通省 国土数値情報"},"geometry":{"type":"Point","coordinates":[138.920194,36.256973]}},{"type":"Feature","properties":{"layer_id":"public_facilities","name":"Ｙｏｋｏｗｏシルクアリーナ富岡","address":"富岡市上黒岩1377-1","source":"国土交通省 国土数値情報"},"geometry":{"type":"Point","coordinates":[138.868279,36.27122]}},{"type":"Feature","properties":{"layer_id":"public_facilities","name":"妙義総合体育館","address":"富岡市妙義町中里801","source":"国土交通省 国土数値情報"},"geometry":{"type":"Point","coordinates":[138.798196,36.29407]}},{"type":"Feature","properties":{"layer_id":"cultural_facilities","name":"富岡市立図書館","address":"七日市400-1","source":"国土交通省 国土数値情報"},"geometry":{"type":"Point","coordinates":[138.879978,36.264315]}},{"type":"Feature","properties":{"layer_id":"cultural_facilities","name":"富岡北部運動公園","address":"上黒岩1377-1","source":"国土交通省 国土数値情報"},"geometry":{"type":"Point","coordinates":[138.868227,36.271479]}},{"type":"Feature","properties":{"layer_id":"cultural_facilities","name":"富岡市民運動場","address":"一ノ宮1702","source":"国土交通省 国土数値情報"},"geometry":{"type":"Point","coordinates":[138.858624,36.250782]}},{"type":"Feature","properties":{"layer_id":"cultural_facilities","name":"富岡市民運動場","address":"一ノ宮1702","source":"国土交通省 国土数値情報"},"geometry":{"type":"Point","coordinates":[138.859486,36.251275]}},{"type":"Feature","properties":{"layer_id":"cultural_facilities","name":"富岡市一ノ宮体育館","address":"一ノ宮1702","source":"国土交通省 国土数値情報"},"geometry":{"type":"Point","coordinates":[138.858707,36.251467]}},{"type":"Feature","properties":{"layer_id":"cultural_facilities","name":"富岡市藤田峠森林公園キャンプ場","address":"岩染870-1","source":"国土交通省 国土数値情報"},"geometry":{"type":"Point","coordinates":[138.864495,36.207232]}},{"type":"Feature","properties":{"layer_id":"cultural_facilities","name":"富岡市和合公園内運動場","address":"上高瀬889","source":"国土交通省 国土数値情報"},"geometry":{"type":"Point","coordinates":[138.86659,36.252528]}},{"type":"Feature","properties":{"layer_id":"cultural_facilities","name":"富岡市立岡部温故館","address":"上丹生2395","source":"国土交通省 国土数値情報"},"geometry":{"type":"Point","coordinates":[138.816613,36.270227]}},{"type":"Feature","properties":{"layer_id":"cultural_facilities","name":"富岡市桐渕公園内運動場","address":"中高瀬69","source":"国土交通省 国土数値情報"},"geometry":{"type":"Point","coordinates":[138.884907,36.253639]}},{"type":"Feature","properties":{"layer_id":"cultural_facilities","name":"富岡市民プール","address":"七日市1208","source":"国土交通省 国土数値情報"},"geometry":{"type":"Point","coordinates":[138.879319,36.254207]}},{"type":"Feature","properties":{"layer_id":"cultural_facilities","name":"富岡北部運動公園","address":"上黒岩1377-1","source":"国土交通省 国土数値情報"},"geometry":{"type":"Point","coordinates":[138.869202,36.271843]}},{"type":"Feature","properties":{"layer_id":"cultural_facilities","name":"富岡北部運動公園","address":"上黒岩1377-1","source":"国土交通省 国土数値情報"},"geometry":{"type":"Point","coordinates":[138.8649,36.271115]}},{"type":"Feature","properties":{"layer_id":"cultural_facilities","name":"群馬県立自然史博物館","address":"上黒岩1674-1","source":"国土交通省 国土数値情報"},"geometry":{"type":"Point","coordinates":[138.867302,36.269534]}},{"type":"Feature","properties":{"layer_id":"cultural_facilities","name":"富岡市立美術博物館・福沢一郎記念美術館","address":"黒川351-1（もみじ平総合公園内）","source":"国土交通省 国土数値情報"},"geometry":{"type":"Point","coordinates":[138.864886,36.268673]}},{"type":"Feature","properties":{"layer_id":"cultural_facilities","name":"富岡北部運動公園","address":"上黒岩1377-1","source":"国土交通省 国土数値情報"},"geometry":{"type":"Point","coordinates":[138.868275,36.271335]}},{"type":"Feature","properties":{"layer_id":"cultural_facilities","name":"富岡北部運動公園","address":"上黒岩1377-1","source":"国土交通省 国土数値情報"},"geometry":{"type":"Point","coordinates":[138.868346,36.271182]}},{"type":"Feature","properties":{"layer_id":"cultural_facilities","name":"富岡北部運動公園","address":"上黒岩1377-1","source":"国土交通省 国土数値情報"},"geometry":{"type":"Point","coordinates":[138.864199,36.269735]}},{"type":"Feature","properties":{"layer_id":"cultural_facilities","name":"富岡市和合公園内運動場","address":"上高瀬889","source":"国土交通省 国土数値情報"},"geometry":{"type":"Point","coordinates":[138.865711,36.251397]}},{"type":"Feature","properties":{"layer_id":"parks_playgrounds","name":"黒川ふれあい公園","address":"富岡市","source":"国土交通省 国土数値情報"},"geometry":{"type":"Point","coordinates":[138.863908,36.263304]}},{"type":"Feature","properties":{"layer_id":"parks_playgrounds","name":"城町公園","address":"富岡市","source":"国土交通省 国土数値情報"},"geometry":{"type":"Point","coordinates":[138.890122,36.254616]}},{"type":"Feature","properties":{"layer_id":"parks_playgrounds","name":"かぶら公園","address":"富岡市","source":"国土交通省 国土数値情報"},"geometry":{"type":"Point","coordinates":[138.897074,36.255246]}},{"type":"Feature","properties":{"layer_id":"parks_playgrounds","name":"しののめ公園","address":"富岡市","source":"国土交通省 国土数値情報"},"geometry":{"type":"Point","coordinates":[138.899876,36.261407]}},{"type":"Feature","properties":{"layer_id":"parks_playgrounds","name":"桐淵２号公園","address":"富岡市","source":"国土交通省 国土数値情報"},"geometry":{"type":"Point","coordinates":[138.879227,36.253082]}},{"type":"Feature","properties":{"layer_id":"parks_playgrounds","name":"城山公園","address":"富岡市","source":"国土交通省 国土数値情報"},"geometry":{"type":"Point","coordinates":[138.896711,36.267546]}},{"type":"Feature","properties":{"layer_id":"parks_playgrounds","name":"宮崎公園","address":"富岡市","source":"国土交通省 国土数値情報"},"geometry":{"type":"Point","coordinates":[138.845538,36.247485]}},{"type":"Feature","properties":{"layer_id":"parks_playgrounds","name":"富岡北部運動公園","address":"富岡市","source":"国土交通省 国土数値情報"},"geometry":{"type":"Point","coordinates":[138.864234,36.269766]}},{"type":"Feature","properties":{"layer_id":"parks_playgrounds","name":"一峰公園","address":"富岡市","source":"国土交通省 国土数値情報"},"geometry":{"type":"Point","coordinates":[138.868884,36.256703]}},{"type":"Feature","properties":{"layer_id":"parks_playgrounds","name":"阿曽岡公園","address":"富岡市","source":"国土交通省 国土数値情報"},"geometry":{"type":"Point","coordinates":[138.857673,36.260067]}},{"type":"Feature","properties":{"layer_id":"parks_playgrounds","name":"桐淵公園","address":"富岡市","source":"国土交通省 国土数値情報"},"geometry":{"type":"Point","coordinates":[138.884965,36.253538]}},{"type":"Feature","properties":{"layer_id":"parks_playgrounds","name":"和合公園","address":"富岡市","source":"国土交通省 国土数値情報"},"geometry":{"type":"Point","coordinates":[138.866381,36.251773]}},{"type":"Feature","properties":{"layer_id":"tourism_resources","name":"神成の崖","address":"山地（非火山性）景観 / 山地 断崖・岩壁","source":"国土交通省 国土数値情報"},"geometry":{"type":"Point","coordinates":[138.828003,36.246326]}},{"type":"Feature","properties":{"layer_id":"tourism_resources","name":"崇台山","address":"山地（非火山性）景観 / 非火山性弧峰","source":"国土交通省 国土数値情報"},"geometry":{"type":"Point","coordinates":[138.903381,36.291679]}}]}