{"type":"FeatureCollection","municipality_code":"10384","pref":"群馬県","city":"甘楽町","display_comment":"甘楽町には、江戸期の小幡藩と小幡藩陣屋跡に連なる領主・城下の記憶が残っています。 周辺には城跡や陣屋跡、寺社や信仰の場、史跡や遺跡にまつわる場所が点在し、「国峰城跡」、「白倉城跡」、「庭谷城跡」などを起点に歩くと、地域の歴史がぐっと見えやすくなります。 現地では城跡・陣屋跡、史跡説明板、秋畑村、轟村ゆかりの旧境石標や村の歴史案内板が、地域の歴史を読み解く手がかりになるでしょう。 川沿いや水辺では、暮らしや堤防整備の歴史を伝える案内板、治水碑、河川改修の記念碑にも注目してみてください。 小幡藩にゆかりのある領主碑や旧領境のしるべも、現地で探してみたい歴史の手がかりです。 「楽山園」や「小幡郷ゴルフ倶楽部」などの名所も、地域の物語を深掘りする絶好の入口です。","layer_counts":{"cafe_restaurant":40,"historical_scenic_priority_areas":1,"public_facilities":11,"cultural_facilities":17,"parks_playgrounds":1},"total_features":70,"features":[{"type":"Feature","properties":{"layer_id":"cafe_restaurant","name":"ツルヤかんら店","address":"群馬県甘楽郡甘楽町福島384-1","source":"厚生労働省 食品衛生申請等システム（オープンデータ）"},"geometry":{"type":"Point","coordinates":[138.927839,36.253106]}},{"type":"Feature","properties":{"layer_id":"cafe_restaurant","name":"ツルヤかんら店　精肉部門","address":"群馬県甘楽郡甘楽町福島384-1","source":"厚生労働省 食品衛生申請等システム（オープンデータ）"},"geometry":{"type":"Point","coordinates":[138.927839,36.253106]}},{"type":"Feature","properties":{"layer_id":"cafe_restaurant","name":"ツルヤかんら店","address":"群馬県甘楽郡甘楽町福島384-1","source":"厚生労働省 食品衛生申請等システム（オープンデータ）"},"geometry":{"type":"Point","coordinates":[138.927839,36.253106]}},{"type":"Feature","properties":{"layer_id":"cafe_restaurant","name":"ツルヤかんら店　鮮魚部門","address":"群馬県甘楽郡甘楽町福島384-1","source":"厚生労働省 食品衛生申請等システム（オープンデータ）"},"geometry":{"type":"Point","coordinates":[138.927839,36.253106]}},{"type":"Feature","properties":{"layer_id":"cafe_restaurant","name":"ツルヤかんら店　季節限定１","address":"群馬県甘楽郡甘楽町福島384-1","source":"厚生労働省 食品衛生申請等システム（オープンデータ）"},"geometry":{"type":"Point","coordinates":[138.927839,36.253106]}},{"type":"Feature","properties":{"layer_id":"cafe_restaurant","name":"ツルヤかんら店　季節限定２","address":"群馬県甘楽郡甘楽町福島384-1","source":"厚生労働省 食品衛生申請等システム（オープンデータ）"},"geometry":{"type":"Point","coordinates":[138.927839,36.253106]}},{"type":"Feature","properties":{"layer_id":"cafe_restaurant","name":"上信越自動車道　甘楽パーキングエリア下り線売店","address":"群馬県甘楽郡甘楽町天引2525","source":"厚生労働省 食品衛生申請等システム（オープンデータ）"},"geometry":{"type":"Point","coordinates":[138.945475,36.221961]}},{"type":"Feature","properties":{"layer_id":"cafe_restaurant","name":"上信越自動車道　甘楽パーキングエリア上り線フードコート","address":"群馬県甘楽郡甘楽町天引2671","source":"厚生労働省 食品衛生申請等システム（オープンデータ）"},"geometry":{"type":"Point","coordinates":[138.945475,36.221961]}},{"type":"Feature","properties":{"layer_id":"cafe_restaurant","name":"ヨコオデイリーフーズこんにゃくパーク（バイキング）","address":"群馬県甘楽郡甘楽町小幡204-1","source":"厚生労働省 食品衛生申請等システム（オープンデータ）"},"geometry":{"type":"Point","coordinates":[138.918557,36.244012]}},{"type":"Feature","properties":{"layer_id":"cafe_restaurant","name":"ヨコオデイリーフーズこんにゃくパーク(ソフト)","address":"群馬県甘楽郡甘楽町小幡204-1","source":"厚生労働省 食品衛生申請等システム（オープンデータ）"},"geometry":{"type":"Point","coordinates":[138.918557,36.244012]}},{"type":"Feature","properties":{"layer_id":"cafe_restaurant","name":"セブンイレブン甘楽福島北店","address":"群馬県甘楽郡甘楽町福島580-1","source":"厚生労働省 食品衛生申請等システム（オープンデータ）"},"geometry":{"type":"Point","coordinates":[138.932818,36.260071]}},{"type":"Feature","properties":{"layer_id":"cafe_restaurant","name":"5061甘楽","address":"群馬県甘楽郡甘楽町白倉1411","source":"厚生労働省 食品衛生申請等システム（オープンデータ）"},"geometry":{"type":"Point","coordinates":[138.935821,36.24538]}},{"type":"Feature","properties":{"layer_id":"cafe_restaurant","name":"セブンーイレブン甘楽福島店","address":"群馬県甘楽郡甘楽町福島1622-1","source":"厚生労働省 食品衛生申請等システム（オープンデータ）"},"geometry":{"type":"Point","coordinates":[138.927936,36.25009]}},{"type":"Feature","properties":{"layer_id":"cafe_restaurant","name":"特定非営利活動法人プレパレ","address":"群馬県甘楽郡甘楽町善慶寺1415-4","source":"厚生労働省 食品衛生申請等システム（オープンデータ）"},"geometry":{"type":"Point","coordinates":[138.908231,36.244251]}},{"type":"Feature","properties":{"layer_id":"cafe_restaurant","name":"特別養護老人ホーム　シルクおばた事業所","address":"群馬県甘楽郡甘楽町善慶寺1351","source":"厚生労働省 食品衛生申請等システム（オープンデータ）"},"geometry":{"type":"Point","coordinates":[138.908024,36.237808]}},{"type":"Feature","properties":{"layer_id":"cafe_restaurant","name":"はるのぱん","address":"群馬県甘楽郡甘楽町金井438‐5","source":"厚生労働省 食品衛生申請等システム（オープンデータ）"},"geometry":{"type":"Point","coordinates":[138.950716,36.250005]}},{"type":"Feature","properties":{"layer_id":"cafe_restaurant","name":"大栄","address":"群馬県甘楽郡甘楽町善慶寺679-1","source":"厚生労働省 食品衛生申請等システム（オープンデータ）"},"geometry":{"type":"Point","coordinates":[138.912846,36.238645]}},{"type":"Feature","properties":{"layer_id":"cafe_restaurant","name":"道の駅甘楽","address":"群馬県甘楽郡甘楽町小幡444-1","source":"厚生労働省 食品衛生申請等システム（オープンデータ）"},"geometry":{"type":"Point","coordinates":[138.916633,36.233773]}},{"type":"Feature","properties":{"layer_id":"cafe_restaurant","name":"古民家かふぇ　信州屋","address":"群馬県甘楽郡甘楽町小幡7","source":"厚生労働省 食品衛生申請等システム（オープンデータ）"},"geometry":{"type":"Point","coordinates":[138.919062,36.232312]}},{"type":"Feature","properties":{"layer_id":"cafe_restaurant","name":"NSSカンラ株式会社　社員食堂","address":"群馬県甘楽郡甘楽町福島916","source":"厚生労働省 食品衛生申請等システム（オープンデータ）"},"geometry":{"type":"Point","coordinates":[138.921443,36.255614]}},{"type":"Feature","properties":{"layer_id":"cafe_restaurant","name":"ローソン甘楽町役場前店","address":"群馬県甘楽郡甘楽町小幡135-2","source":"厚生労働省 食品衛生申請等システム（オープンデータ）"},"geometry":{"type":"Point","coordinates":[138.922034,36.242014]}},{"type":"Feature","properties":{"layer_id":"cafe_restaurant","name":"食事処　つちや","address":"群馬県甘楽郡甘楽町金井199-5","source":"厚生労働省 食品衛生申請等システム（オープンデータ）"},"geometry":{"type":"Point","coordinates":[138.947228,36.253436]}},{"type":"Feature","properties":{"layer_id":"cafe_restaurant","name":"齊藤商店　kanrano base","address":"群馬県甘楽郡甘楽町秋畑814-3","source":"厚生労働省 食品衛生申請等システム（オープンデータ）"},"geometry":{"type":"Point","coordinates":[138.899015,36.204124]}},{"type":"Feature","properties":{"layer_id":"cafe_restaurant","name":"ポシェット","address":"群馬県甘楽郡甘楽町小幡789","source":"厚生労働省 食品衛生申請等システム（オープンデータ）"},"geometry":{"type":"Point","coordinates":[138.918163,36.227358]}},{"type":"Feature","properties":{"layer_id":"cafe_restaurant","name":"Pizzeria deco","address":"群馬県甘楽郡甘楽町造石502-1","source":"厚生労働省 食品衛生申請等システム（オープンデータ）"},"geometry":{"type":"Point","coordinates":[138.95071,36.259651]}},{"type":"Feature","properties":{"layer_id":"cafe_restaurant","name":"ふるさとホーム甘楽町","address":"群馬県甘楽郡甘楽町金井57-1","source":"厚生労働省 食品衛生申請等システム（オープンデータ）"},"geometry":{"type":"Point","coordinates":[138.946062,36.253731]}},{"type":"Feature","properties":{"layer_id":"cafe_restaurant","name":"ainoa","address":"群馬県甘楽郡甘楽町天引229-1","source":"厚生労働省 食品衛生申請等システム（オープンデータ）"},"geometry":{"type":"Point","coordinates":[138.951974,36.24423]}},{"type":"Feature","properties":{"layer_id":"cafe_restaurant","name":"上信越自動車道　甘楽パーキングエリア上り線テイクアウトコーナー","address":"群馬県甘楽郡甘楽町天引2671","source":"厚生労働省 食品衛生申請等システム（オープンデータ）"},"geometry":{"type":"Point","coordinates":[138.945475,36.221961]}},{"type":"Feature","properties":{"layer_id":"cafe_restaurant","name":"上信越自動車道　甘楽パーキングエリア上り線ショッピングコーナー","address":"群馬県甘楽郡甘楽町天引2671","source":"厚生労働省 食品衛生申請等システム（オープンデータ）"},"geometry":{"type":"Point","coordinates":[138.945475,36.221961]}},{"type":"Feature","properties":{"layer_id":"cafe_restaurant","name":"上信越自動車道甘楽パーキングエリア下り線ショッピングコーナー","address":"群馬県甘楽郡甘楽町天引2525","source":"厚生労働省 食品衛生申請等システム（オープンデータ）"},"geometry":{"type":"Point","coordinates":[138.945475,36.221961]}},{"type":"Feature","properties":{"layer_id":"cafe_restaurant","name":"秋畑マス池","address":"群馬県甘楽郡甘楽町秋畑乙7172","source":"厚生労働省 食品衛生申請等システム（オープンデータ）"},"geometry":{"type":"Point","coordinates":[138.88273,36.191022]}},{"type":"Feature","properties":{"layer_id":"cafe_restaurant","name":"国指定名勝　楽山園　凌雲亭","address":"群馬県甘楽郡甘楽町小幡655-1","source":"厚生労働省 食品衛生申請等システム（オープンデータ）"},"geometry":{"type":"Point","coordinates":[138.915147,36.228298]}},{"type":"Feature","properties":{"layer_id":"cafe_restaurant","name":"ささや","address":"群馬県甘楽郡甘楽町小川57-4","source":"厚生労働省 食品衛生申請等システム（オープンデータ）"},"geometry":{"type":"Point","coordinates":[138.937004,36.247953]}},{"type":"Feature","properties":{"layer_id":"cafe_restaurant","name":"手打ちそばやさん・うどんやさん","address":"群馬県甘楽郡甘楽町小幡143-4","source":"厚生労働省 食品衛生申請等システム（オープンデータ）"},"geometry":{"type":"Point","coordinates":[138.923294,36.243543]}},{"type":"Feature","properties":{"layer_id":"cafe_restaurant","name":"焼肉けいちゃん","address":"群馬県甘楽郡甘楽町白倉105-1","source":"厚生労働省 食品衛生申請等システム（オープンデータ）"},"geometry":{"type":"Point","coordinates":[138.936462,36.264515]}},{"type":"Feature","properties":{"layer_id":"cafe_restaurant","name":"しまや","address":"群馬県甘楽郡甘楽町福島1169","source":"厚生労働省 食品衛生申請等システム（オープンデータ）"},"geometry":{"type":"Point","coordinates":[138.928239,36.254032]}},{"type":"Feature","properties":{"layer_id":"cafe_restaurant","name":"みやもん","address":"群馬県甘楽郡甘楽町小幡171-7","source":"厚生労働省 食品衛生申請等システム（オープンデータ）"},"geometry":{"type":"Point","coordinates":[138.921031,36.242369]}},{"type":"Feature","properties":{"layer_id":"cafe_restaurant","name":"鈴鈴","address":"群馬県甘楽郡甘楽町金井364-6","source":"厚生労働省 食品衛生申請等システム（オープンデータ）"},"geometry":{"type":"Point","coordinates":[138.950914,36.254849]}},{"type":"Feature","properties":{"layer_id":"cafe_restaurant","name":"とうふ屋　豆忠","address":"群馬県甘楽郡甘楽町小幡87-2","source":"厚生労働省 食品衛生申請等システム（オープンデータ）"},"geometry":{"type":"Point","coordinates":[138.919696,36.236737]}},{"type":"Feature","properties":{"layer_id":"cafe_restaurant","name":"7.321Cafe","address":"群馬県甘楽郡甘楽町金井648-7","source":"厚生労働省 食品衛生申請等システム（オープンデータ）"},"geometry":{"type":"Point","coordinates":[138.952825,36.256493]}},{"type":"Feature","properties":{"layer_id":"historical_scenic_priority_areas","name":"10384","source":"国土交通省 国土数値情報"},"geometry":{"type":"Polygon","coordinates":[[[138.919094,36.242621],[138.920783,36.241717],[138.92164,36.241407],[138.922211,36.240598],[138.922496,36.240194],[138.92252,36.239742],[138.922401,36.239075],[138.922187,36.237862],[138.922139,36.237362],[138.921782,36.236934],[138.921211,36.236672],[138.920926,36.236553],[138.920831,36.236363],[138.921045,36.23622],[138.921402,36.236006],[138.921521,36.235911],[138.921854,36.235958],[138.922282,36.235887],[138.922496,36.235744],[138.922568,36.23553],[138.922425,36.234983],[138.922568,36.234531],[138.922773,36.234141],[138.922821,36.233962],[138.922583,36.233903],[138.922345,36.233891],[138.922071,36.233498],[138.922583,36.233332],[138.922404,36.232261],[138.923189,36.232118],[138.923106,36.231976],[138.922916,36.231702],[138.922666,36.230917],[138.922416,36.230988],[138.92213,36.231155],[138.921833,36.231369],[138.921452,36.231714],[138.921512,36.231393],[138.921583,36.231083],[138.921571,36.230893],[138.921357,36.230453],[138.921143,36.230239],[138.921072,36.229917],[138.920905,36.229144],[138.920739,36.22887],[138.920572,36.228002],[138.920512,36.227264],[138.920834,36.227074],[138.920893,36.226717],[138.921155,36.226693],[138.921084,36.226039],[138.920834,36.225527],[138.920786,36.22498],[138.920667,36.224457],[138.920584,36.223933],[138.920584,36.223719],[138.920667,36.223493],[138.920774,36.223183],[138.920917,36.222731],[138.921084,36.222089],[138.921095,36.221899],[138.921012,36.22153],[138.920822,36.220899],[138.920655,36.220423],[138.920512,36.220233],[138.920346,36.220138],[138.920096,36.220126],[138.919822,36.220126],[138.919144,36.220352],[138.918526,36.219234],[138.91805,36.218234],[138.917824,36.21802],[138.917598,36.217889],[138.91711,36.217651],[138.916384,36.217282],[138.915956,36.21645],[138.915456,36.215569],[138.91542,36.215391],[138.91542,36.215117],[138.915409,36.214891],[138.915218,36.214546],[138.914707,36.213737],[138.914552,36.213701],[138.914338,36.213737],[138.914254,36.21432],[138.914052,36.214772],[138.914064,36.215462],[138.913981,36.215712],[138.913886,36.216081],[138.913886,36.216462],[138.914243,36.217556],[138.914457,36.218056],[138.914659,36.218436],[138.91379,36.218544],[138.913029,36.218698],[138.912268,36.218972],[138.911554,36.219293],[138.910614,36.219983],[138.9099,36.220578],[138.909567,36.220911],[138.909317,36.221304],[138.909139,36.221637],[138.909103,36.222018],[138.909174,36.222517],[138.909412,36.223374],[138.909829,36.224385],[138.909817,36.224778],[138.909757,36.225087],[138.909638,36.225301],[138.909162,36.225694],[138.908901,36.225991],[138.908817,36.226205],[138.908758,36.226491],[138.908829,36.226729],[138.909103,36.22711],[138.909079,36.227383],[138.909055,36.227716],[138.909246,36.228157],[138.909091,36.228347],[138.909067,36.228585],[138.909174,36.228787],[138.909174,36.228954],[138.908972,36.229263],[138.908948,36.229715],[138.909115,36.230167],[138.909329,36.230358],[138.910745,36.231345],[138.910959,36.231535],[138.91109,36.231619],[138.911149,36.231345],[138.911161,36.231107],[138.911292,36.230869],[138.911482,36.230703],[138.911827,36.230679],[138.912184,36.230524],[138.912351,36.230322],[138.912482,36.229989],[138.912434,36.229727],[138.91222,36.229608],[138.91222,36.22937],[138.912256,36.228989],[138.912862,36.229406],[138.913303,36.22981],[138.913838,36.230369],[138.91429,36.231036],[138.914897,36.231797],[138.915682,36.23263],[138.916039,36.233034],[138.916325,36.233546],[138.91642,36.233998],[138.91636,36.23451],[138.916146,36.234974],[138.915742,36.235592],[138.915337,36.236068],[138.914849,36.236532],[138.914599,36.236972],[138.914433,36.237413],[138.914457,36.237877],[138.914599,36.2384],[138.914885,36.238745],[138.915301,36.239066],[138.915563,36.239209],[138.915968,36.239031],[138.916229,36.238793],[138.916348,36.238638],[138.916777,36.238709],[138.917122,36.238864],[138.917502,36.239221],[138.917931,36.239804],[138.918169,36.240197],[138.918442,36.24078],[138.918656,36.241505],[138.919094,36.242621]]]}},{"type":"Feature","properties":{"layer_id":"public_facilities","name":"生活改善センター","address":"甘楽町秋畑1614-2","source":"国土交通省 国土数値情報"},"geometry":{"type":"Point","coordinates":[138.869239,36.186445]}},{"type":"Feature","properties":{"layer_id":"public_facilities","name":"甘楽町営体育館","address":"甘楽町白倉1355","source":"国土交通省 国土数値情報"},"geometry":{"type":"Point","coordinates":[138.936885,36.242731]}},{"type":"Feature","properties":{"layer_id":"public_facilities","name":"地域包括支援センター","address":"甘楽町白倉1395-1","source":"国土交通省 国土数値情報"},"geometry":{"type":"Point","coordinates":[138.934566,36.24137]}},{"type":"Feature","properties":{"layer_id":"public_facilities","name":"ふるさと活性化センター","address":"甘楽町小幡854-2","source":"国土交通省 国土数値情報"},"geometry":{"type":"Point","coordinates":[138.918887,36.231868]}},{"type":"Feature","properties":{"layer_id":"public_facilities","name":"ら・ら・かんら","address":"甘楽町福島1258-2","source":"国土交通省 国土数値情報"},"geometry":{"type":"Point","coordinates":[138.927716,36.251582]}},{"type":"Feature","properties":{"layer_id":"public_facilities","name":"地域活動支援センターあゆみ","address":"甘楽町大字小幡699","source":"国土交通省 国土数値情報"},"geometry":{"type":"Point","coordinates":[138.917501,36.228554]}},{"type":"Feature","properties":{"layer_id":"public_facilities","name":"多世代サポートセンター","address":"甘楽町大字白倉1395-1","source":"国土交通省 国土数値情報"},"geometry":{"type":"Point","coordinates":[138.934546,36.241392]}},{"type":"Feature","properties":{"layer_id":"public_facilities","name":"文化会館","address":"甘楽町大字白倉1322-1","source":"国土交通省 国土数値情報"},"geometry":{"type":"Point","coordinates":[138.936399,36.240789]}},{"type":"Feature","properties":{"layer_id":"public_facilities","name":"甘楽町役場","address":"甘楽町大字小幡161-1","source":"国土交通省 国土数値情報"},"geometry":{"type":"Point","coordinates":[138.921756,36.243008]}},{"type":"Feature","properties":{"layer_id":"public_facilities","name":"甘楽町研修センター","address":"甘楽町白倉618-1","source":"国土交通省 国土数値情報"},"geometry":{"type":"Point","coordinates":[138.943593,36.248569]}},{"type":"Feature","properties":{"layer_id":"public_facilities","name":"甘楽町公民館","address":"甘楽町大字小幡161-1","source":"国土交通省 国土数値情報"},"geometry":{"type":"Point","coordinates":[138.921697,36.243608]}},{"type":"Feature","properties":{"layer_id":"cultural_facilities","name":"甘楽町歴史民俗資料館","address":"大字小幡852-1","source":"国土交通省 国土数値情報"},"geometry":{"type":"Point","coordinates":[138.918412,36.231751]}},{"type":"Feature","properties":{"layer_id":"cultural_facilities","name":"群馬サファリパーク","address":"岡本1","source":"国土交通省 国土数値情報"},"geometry":{"type":"Point","coordinates":[138.886248,36.225455]}},{"type":"Feature","properties":{"layer_id":"cultural_facilities","name":"甘楽町鏑川河川緑地広場","address":"福島鏑川河川敷","source":"国土交通省 国土数値情報"},"geometry":{"type":"Point","coordinates":[138.929613,36.259829]}},{"type":"Feature","properties":{"layer_id":"cultural_facilities","name":"甘楽町琴平山運動公園","address":"秋畑1430","source":"国土交通省 国土数値情報"},"geometry":{"type":"Point","coordinates":[138.884107,36.193672]}},{"type":"Feature","properties":{"layer_id":"cultural_facilities","name":"甘楽町琴平山運動公園","address":"秋畑1430","source":"国土交通省 国土数値情報"},"geometry":{"type":"Point","coordinates":[138.884131,36.193864]}},{"type":"Feature","properties":{"layer_id":"cultural_facilities","name":"甘楽の里オリエンテーリングコース","address":"吉井町岩井232吉田方","source":"国土交通省 国土数値情報"},"geometry":{"type":"Point","coordinates":[138.912273,36.227097]}},{"type":"Feature","properties":{"layer_id":"cultural_facilities","name":"甘楽総合公園","address":"小幡1343","source":"国土交通省 国土数値情報"},"geometry":{"type":"Point","coordinates":[138.912726,36.227248]}},{"type":"Feature","properties":{"layer_id":"cultural_facilities","name":"甘楽総合公園","address":"小幡1343","source":"国土交通省 国土数値情報"},"geometry":{"type":"Point","coordinates":[138.913701,36.226788]}},{"type":"Feature","properties":{"layer_id":"cultural_facilities","name":"甘楽町勤労者体育センター","address":"白倉1355","source":"国土交通省 国土数値情報"},"geometry":{"type":"Point","coordinates":[138.936893,36.242722]}},{"type":"Feature","properties":{"layer_id":"cultural_facilities","name":"富岡市かぶらウォーターランド","address":"福島852-1","source":"国土交通省 国土数値情報"},"geometry":{"type":"Point","coordinates":[138.923068,36.258902]}},{"type":"Feature","properties":{"layer_id":"cultural_facilities","name":"甘楽総合公園","address":"小幡1343","source":"国土交通省 国土数値情報"},"geometry":{"type":"Point","coordinates":[138.913819,36.228973]}},{"type":"Feature","properties":{"layer_id":"cultural_facilities","name":"甘楽古代館","address":"大字白倉1326（甘楽ふれあいの丘内）","source":"国土交通省 国土数値情報"},"geometry":{"type":"Point","coordinates":[138.942284,36.247505]}},{"type":"Feature","properties":{"layer_id":"cultural_facilities","name":"甘楽町陸上競技場","address":"白倉1365-1","source":"国土交通省 国土数値情報"},"geometry":{"type":"Point","coordinates":[138.935766,36.242162]}},{"type":"Feature","properties":{"layer_id":"cultural_facilities","name":"甘楽町図書館","address":"大字福島1258-2","source":"国土交通省 国土数値情報"},"geometry":{"type":"Point","coordinates":[138.92783,36.251514]}},{"type":"Feature","properties":{"layer_id":"cultural_facilities","name":"甘楽町勤労者体育センター","address":"白倉1355","source":"国土交通省 国土数値情報"},"geometry":{"type":"Point","coordinates":[138.936893,36.242818]}},{"type":"Feature","properties":{"layer_id":"cultural_facilities","name":"甘楽総合公園","address":"小幡1343","source":"国土交通省 国土数値情報"},"geometry":{"type":"Point","coordinates":[138.917385,36.224449]}},{"type":"Feature","properties":{"layer_id":"cultural_facilities","name":"富岡市民弓道場","address":"田篠1238","source":"国土交通省 国土数値情報"},"geometry":{"type":"Point","coordinates":[138.921288,36.258237]}},{"type":"Feature","properties":{"layer_id":"parks_playgrounds","name":"甘楽総合公園","address":"甘楽郡甘楽町","source":"国土交通省 国土数値情報"},"geometry":{"type":"Point","coordinates":[138.914651,36.22569]}}]}