{"type":"FeatureCollection","municipality_code":"10424","pref":"群馬県","city":"長野原町","display_comment":"長野原町には、長野原村、横壁村、林村など、近世の村々の記憶を伝える地名が残っています。 周辺には史跡や遺跡、城跡や陣屋跡にまつわる場所が点在し、「羽尾城跡」、「石畑岩陰遺跡」、「勘場木石器時代住居跡」などを起点に歩くと、地域の歴史がぐっと見えやすくなります。 現地では史跡説明板に加え、長野原村や横壁村にゆかりのある旧境石標、村の歴史を紹介する案内板にも注目してみてください。 川沿いや水辺では、暮らしや堤防整備の歴史を伝える案内板、治水碑、河川改修の記念碑にも注目してみてください。 ゆかりの人物では萩原進に注目すると、地域に残る文化や時代背景をさらに深く知るきっかけになります。 「川原湯温泉」や「川原湯温泉あそびの基地NOA」などの名所も、地域の物語を深掘りする絶好の入口です。","layer_counts":{"cafe_restaurant":66,"public_facilities":20,"cultural_facilities":4,"tourism_resources":7},"total_features":97,"features":[{"type":"Feature","properties":{"layer_id":"cafe_restaurant","name":"ローソン北軽井沢店","category":"food","address":"群馬県吾妻郡長野原町北軽井沢1988-1096","source":"厚生労働省 食品衛生申請等システム（オープンデータ）","municipality_code":"10424","municipality_pref":"群馬県","municipality_name":"長野原町","municipality_code_method":"food_exact_coord"},"geometry":{"type":"Point","coordinates":[138.608822,36.4558]}},{"type":"Feature","properties":{"layer_id":"cafe_restaurant","name":"浅間酒造観光センター　駐車場売店","category":"food","address":"群馬県吾妻郡長野原町大字長野原1392-10","source":"厚生労働省 食品衛生申請等システム（オープンデータ）","municipality_code":"10424","municipality_pref":"群馬県","municipality_name":"長野原町","municipality_code_method":"food_exact_coord"},"geometry":{"type":"Point","coordinates":[138.641415,36.54849]}},{"type":"Feature","properties":{"layer_id":"cafe_restaurant","name":"KURATTORIA150","category":"food","address":"群馬県吾妻郡長野原町大字長野原1392-10","source":"厚生労働省 食品衛生申請等システム（オープンデータ）","municipality_code":"10424","municipality_pref":"群馬県","municipality_name":"長野原町","municipality_code_method":"food_exact_coord"},"geometry":{"type":"Point","coordinates":[138.641415,36.54849]}},{"type":"Feature","properties":{"layer_id":"cafe_restaurant","name":"fiore","category":"food","address":"群馬県吾妻郡長野原町大津997-4","source":"厚生労働省 食品衛生申請等システム（オープンデータ）","municipality_code":"10424","municipality_pref":"群馬県","municipality_name":"長野原町","municipality_code_method":"food_exact_coord"},"geometry":{"type":"Point","coordinates":[138.598017,36.567153]}},{"type":"Feature","properties":{"layer_id":"cafe_restaurant","name":"北軽井沢Golden Forest Hotel","category":"food","address":"群馬県吾妻郡長野原町北軽井沢1990番地2837","source":"厚生労働省 食品衛生申請等システム（オープンデータ）","municipality_code":"10424","municipality_pref":"群馬県","municipality_name":"長野原町","municipality_code_method":"food_exact_coord"},"geometry":{"type":"Point","coordinates":[138.608822,36.4558]}},{"type":"Feature","properties":{"layer_id":"cafe_restaurant","category":"food","address":"群馬県吾妻郡長野原町北軽井沢1988","source":"厚生労働省 食品衛生申請等システム（オープンデータ）","municipality_code":"10424","municipality_pref":"群馬県","municipality_name":"長野原町","municipality_code_method":"food_exact_coord"},"geometry":{"type":"Point","coordinates":[138.608822,36.4558]}},{"type":"Feature","properties":{"layer_id":"cafe_restaurant","name":"ヤノマキトレーラー","category":"food","address":"群馬県吾妻郡長野原町与喜屋120","source":"厚生労働省 食品衛生申請等システム（オープンデータ）","municipality_code":"10424","municipality_pref":"群馬県","municipality_name":"長野原町","municipality_code_method":"food_exact_coord"},"geometry":{"type":"Point","coordinates":[138.631311,36.549276]}},{"type":"Feature","properties":{"layer_id":"cafe_restaurant","name":"coco_kala","category":"food","address":"群馬県吾妻郡長野原町北軽井沢字熊ノ内2032-19","source":"厚生労働省 食品衛生申請等システム（オープンデータ）","municipality_code":"10424","municipality_pref":"群馬県","municipality_name":"長野原町","municipality_code_method":"food_exact_coord"},"geometry":{"type":"Point","coordinates":[138.608822,36.4558]}},{"type":"Feature","properties":{"layer_id":"cafe_restaurant","name":"ルオムの森・コッペ","category":"food","address":"群馬県吾妻郡長野原町大字北軽井沢1984-43","source":"厚生労働省 食品衛生申請等システム（オープンデータ）","municipality_code":"10424","municipality_pref":"群馬県","municipality_name":"長野原町","municipality_code_method":"food_exact_coord"},"geometry":{"type":"Point","coordinates":[138.583271,36.476559]}},{"type":"Feature","properties":{"layer_id":"cafe_restaurant","name":"北軽井沢スウィートグラス・Asama  Hutte","category":"food","address":"群馬県吾妻郡長野原町大字北軽井沢1990-579","source":"厚生労働省 食品衛生申請等システム（オープンデータ）","municipality_code":"10424","municipality_pref":"群馬県","municipality_name":"長野原町","municipality_code_method":"food_exact_coord"},"geometry":{"type":"Point","coordinates":[138.577131,36.46023]}},{"type":"Feature","properties":{"layer_id":"cafe_restaurant","name":"ルオムの森・洋館","category":"food","address":"群馬県吾妻郡長野原町大字北軽井沢1984-239","source":"厚生労働省 食品衛生申請等システム（オープンデータ）","municipality_code":"10424","municipality_pref":"群馬県","municipality_name":"長野原町","municipality_code_method":"food_exact_coord"},"geometry":{"type":"Point","coordinates":[138.583181,36.476313]}},{"type":"Feature","properties":{"layer_id":"cafe_restaurant","name":"有限会社　旭昇園","category":"food","address":"群馬県吾妻郡長野原町北軽井沢1353-318","source":"厚生労働省 食品衛生申請等システム（オープンデータ）","municipality_code":"10424","municipality_pref":"群馬県","municipality_name":"長野原町","municipality_code_method":"food_exact_coord"},"geometry":{"type":"Point","coordinates":[138.608822,36.4558]}},{"type":"Feature","properties":{"layer_id":"cafe_restaurant","name":"中国料理　松里","category":"food","address":"群馬県吾妻郡長野原町大津251-1","source":"厚生労働省 食品衛生申請等システム（オープンデータ）","municipality_code":"10424","municipality_pref":"群馬県","municipality_name":"長野原町","municipality_code_method":"food_exact_coord"},"geometry":{"type":"Point","coordinates":[138.616648,36.55367]}},{"type":"Feature","properties":{"layer_id":"cafe_restaurant","name":"ハーバルＴ","category":"food","address":"群馬県吾妻郡長野原町大字北軽井沢1990-4053","source":"厚生労働省 食品衛生申請等システム（オープンデータ）","municipality_code":"10424","municipality_pref":"群馬県","municipality_name":"長野原町","municipality_code_method":"food_exact_coord"},"geometry":{"type":"Point","coordinates":[138.578323,36.465213]}},{"type":"Feature","properties":{"layer_id":"cafe_restaurant","name":"みどり食堂","category":"food","address":"群馬県吾妻郡長野原町大字長野原51-3","source":"厚生労働省 食品衛生申請等システム（オープンデータ）","municipality_code":"10424","municipality_pref":"群馬県","municipality_name":"長野原町","municipality_code_method":"food_exact_coord"},"geometry":{"type":"Point","coordinates":[138.636753,36.550972]}},{"type":"Feature","properties":{"layer_id":"cafe_restaurant","name":"大火山","category":"food","address":"群馬県吾妻郡長野原町大字北軽井沢1924-1431","source":"厚生労働省 食品衛生申請等システム（オープンデータ）","municipality_code":"10424","municipality_pref":"群馬県","municipality_name":"長野原町","municipality_code_method":"food_exact_coord"},"geometry":{"type":"Point","coordinates":[138.590485,36.466039]}},{"type":"Feature","properties":{"layer_id":"cafe_restaurant","name":"樹（こだち）","category":"food","address":"群馬県吾妻郡長野原町大津978-1","source":"厚生労働省 食品衛生申請等システム（オープンデータ）","municipality_code":"10424","municipality_pref":"群馬県","municipality_name":"長野原町","municipality_code_method":"food_exact_coord"},"geometry":{"type":"Point","coordinates":[138.600422,36.563975]}},{"type":"Feature","properties":{"layer_id":"cafe_restaurant","name":"民宿  ひぐち","category":"food","address":"群馬県吾妻郡長野原町大字古森133","source":"厚生労働省 食品衛生申請等システム（オープンデータ）","municipality_code":"10424","municipality_pref":"群馬県","municipality_name":"長野原町","municipality_code_method":"food_exact_coord"},"geometry":{"type":"Point","coordinates":[138.601973,36.543179]}},{"type":"Feature","properties":{"layer_id":"cafe_restaurant","name":"軽井沢高原ゴルフ倶楽部コース売店(イン15番）","category":"food","address":"群馬県吾妻郡長野原町大字北軽井沢2032-5807","source":"厚生労働省 食品衛生申請等システム（オープンデータ）","municipality_code":"10424","municipality_pref":"群馬県","municipality_name":"長野原町","municipality_code_method":"food_exact_coord"},"geometry":{"type":"Point","coordinates":[138.628785,36.440506]}},{"type":"Feature","properties":{"layer_id":"cafe_restaurant","name":"軽井沢高原ゴルフ倶楽部コース売店（アウト６番）","category":"food","address":"群馬県吾妻郡長野原町大字北軽井沢2032-5807","source":"厚生労働省 食品衛生申請等システム（オープンデータ）","municipality_code":"10424","municipality_pref":"群馬県","municipality_name":"長野原町","municipality_code_method":"food_exact_coord"},"geometry":{"type":"Point","coordinates":[138.628785,36.440506]}},{"type":"Feature","properties":{"layer_id":"cafe_restaurant","name":"そば処　やんば","category":"food","address":"群馬県吾妻郡長野原町大字川原畑991-6","source":"厚生労働省 食品衛生申請等システム（オープンデータ）","municipality_code":"10424","municipality_pref":"群馬県","municipality_name":"長野原町","municipality_code_method":"food_exact_coord"},"geometry":{"type":"Point","coordinates":[138.709672,36.558284]}},{"type":"Feature","properties":{"layer_id":"cafe_restaurant","name":"カフェレストラン  ソニアン","category":"food","address":"群馬県吾妻郡長野原町大字北軽井沢1990-422","source":"厚生労働省 食品衛生申請等システム（オープンデータ）","municipality_code":"10424","municipality_pref":"群馬県","municipality_name":"長野原町","municipality_code_method":"food_exact_coord"},"geometry":{"type":"Point","coordinates":[138.579776,36.465572]}},{"type":"Feature","properties":{"layer_id":"cafe_restaurant","name":"ヴィラ北軽井沢エルウイング","category":"food","address":"群馬県吾妻郡長野原町大字北軽井沢1924-172","source":"厚生労働省 食品衛生申請等システム（オープンデータ）","municipality_code":"10424","municipality_pref":"群馬県","municipality_name":"長野原町","municipality_code_method":"food_exact_coord"},"geometry":{"type":"Point","coordinates":[138.593599,36.465099]}},{"type":"Feature","properties":{"layer_id":"cafe_restaurant","name":"フォレストウイング","category":"food","address":"群馬県吾妻郡長野原町大字北軽井沢1924-172","source":"厚生労働省 食品衛生申請等システム（オープンデータ）","municipality_code":"10424","municipality_pref":"群馬県","municipality_name":"長野原町","municipality_code_method":"food_exact_coord"},"geometry":{"type":"Point","coordinates":[138.593599,36.465099]}},{"type":"Feature","properties":{"layer_id":"cafe_restaurant","name":"ローランギャロ","category":"food","address":"群馬県吾妻郡長野原町大字北軽井沢1924-172","source":"厚生労働省 食品衛生申請等システム（オープンデータ）","municipality_code":"10424","municipality_pref":"群馬県","municipality_name":"長野原町","municipality_code_method":"food_exact_coord"},"geometry":{"type":"Point","coordinates":[138.593599,36.465099]}},{"type":"Feature","properties":{"layer_id":"cafe_restaurant","name":"金井亭","category":"food","address":"群馬県吾妻郡長野原町大字大津458","source":"厚生労働省 食品衛生申請等システム（オープンデータ）","municipality_code":"10424","municipality_pref":"群馬県","municipality_name":"長野原町","municipality_code_method":"food_exact_coord"},"geometry":{"type":"Point","coordinates":[138.613812,36.556686]}},{"type":"Feature","properties":{"layer_id":"cafe_restaurant","name":"カフェレストラン　バーディー","category":"food","address":"群馬県吾妻郡長野原町大字北軽井沢1990-5391","source":"厚生労働省 食品衛生申請等システム（オープンデータ）","municipality_code":"10424","municipality_pref":"群馬県","municipality_name":"長野原町","municipality_code_method":"food_exact_coord"},"geometry":{"type":"Point","coordinates":[138.58624,36.460121]}},{"type":"Feature","properties":{"layer_id":"cafe_restaurant","name":"ラムロ","category":"food","address":"群馬県吾妻郡長野原町大字北軽井沢1987-483","source":"厚生労働省 食品衛生申請等システム（オープンデータ）","municipality_code":"10424","municipality_pref":"群馬県","municipality_name":"長野原町","municipality_code_method":"food_exact_coord"},"geometry":{"type":"Point","coordinates":[138.588464,36.479654]}},{"type":"Feature","properties":{"layer_id":"cafe_restaurant","name":"太平洋クラブ軽井沢リゾート　メインダイニング","category":"food","address":"群馬県吾妻郡長野原町北軽井沢2032-279","source":"厚生労働省 食品衛生申請等システム（オープンデータ）","municipality_code":"10424","municipality_pref":"群馬県","municipality_name":"長野原町","municipality_code_method":"food_exact_coord"},"geometry":{"type":"Point","coordinates":[138.608822,36.4558]}},{"type":"Feature","properties":{"layer_id":"cafe_restaurant","name":"アゼリア館","category":"food","address":"群馬県吾妻郡長野原町北軽井沢2032-279","source":"厚生労働省 食品衛生申請等システム（オープンデータ）","municipality_code":"10424","municipality_pref":"群馬県","municipality_name":"長野原町","municipality_code_method":"food_exact_coord"},"geometry":{"type":"Point","coordinates":[138.608822,36.4558]}},{"type":"Feature","properties":{"layer_id":"cafe_restaurant","name":"鮨　おにかい　芝のよこ","category":"food","address":"群馬県吾妻郡長野原町北軽井沢2032-279","source":"厚生労働省 食品衛生申請等システム（オープンデータ）","municipality_code":"10424","municipality_pref":"群馬県","municipality_name":"長野原町","municipality_code_method":"food_exact_coord"},"geometry":{"type":"Point","coordinates":[138.592469,36.466119]}},{"type":"Feature","properties":{"layer_id":"cafe_restaurant","name":"北軽井沢の高原コテージ　ＫＥＮの家","category":"food","address":"群馬県吾妻郡長野原町大字北軽井沢1990-2603","source":"厚生労働省 食品衛生申請等システム（オープンデータ）","municipality_code":"10424","municipality_pref":"群馬県","municipality_name":"長野原町","municipality_code_method":"food_exact_coord"},"geometry":{"type":"Point","coordinates":[138.573745,36.432782]}},{"type":"Feature","properties":{"layer_id":"cafe_restaurant","name":"北軽井沢ジェラート　Ｈｏｓｈｉｎｏ　Ｆａｒｍ","category":"food","address":"群馬県吾妻郡長野原町大字北軽井沢1988-75","source":"厚生労働省 食品衛生申請等システム（オープンデータ）","municipality_code":"10424","municipality_pref":"群馬県","municipality_name":"長野原町","municipality_code_method":"food_exact_coord"},"geometry":{"type":"Point","coordinates":[138.587131,36.466341]}},{"type":"Feature","properties":{"layer_id":"cafe_restaurant","name":"北軽応桑温泉　かくれの湯","category":"food","address":"群馬県吾妻郡長野原町応桑1985-172","source":"厚生労働省 食品衛生申請等システム（オープンデータ）","municipality_code":"10424","municipality_pref":"群馬県","municipality_name":"長野原町","municipality_code_method":"food_exact_coord"},"geometry":{"type":"Point","coordinates":[138.589354,36.49411]}},{"type":"Feature","properties":{"layer_id":"cafe_restaurant","name":"北軽井沢一心荘","category":"food","address":"群馬県吾妻郡長野原町大字北軽井沢字地蔵堂1990-1618,619","source":"厚生労働省 食品衛生申請等システム（オープンデータ）","municipality_code":"10424","municipality_pref":"群馬県","municipality_name":"長野原町","municipality_code_method":"food_exact_coord"},"geometry":{"type":"Point","coordinates":[138.608822,36.4558]}},{"type":"Feature","properties":{"layer_id":"cafe_restaurant","name":"スミレハウス","category":"food","address":"群馬県吾妻郡長野原町大字北軽井沢1990-2376","source":"厚生労働省 食品衛生申請等システム（オープンデータ）","municipality_code":"10424","municipality_pref":"群馬県","municipality_name":"長野原町","municipality_code_method":"food_exact_coord"},"geometry":{"type":"Point","coordinates":[138.576641,36.440147]}},{"type":"Feature","properties":{"layer_id":"cafe_restaurant","name":"ｃａｆｅ　ＳＡＤＡＨＩＫＯ","category":"food","address":"群馬県吾妻郡長野原町大字川原湯551-2","source":"厚生労働省 食品衛生申請等システム（オープンデータ）","municipality_code":"10424","municipality_pref":"群馬県","municipality_name":"長野原町","municipality_code_method":"food_exact_coord"},"geometry":{"type":"Point","coordinates":[138.695441,36.544079]}},{"type":"Feature","properties":{"layer_id":"cafe_restaurant","name":"長野原町立応桑こども園","category":"food","address":"群馬県吾妻郡長野原町大字応桑１９－１","source":"厚生労働省 食品衛生申請等システム（オープンデータ）","municipality_code":"10424","municipality_pref":"群馬県","municipality_name":"長野原町","municipality_code_method":"food_exact_coord"},"geometry":{"type":"Point","coordinates":[138.59506,36.510767]}},{"type":"Feature","properties":{"layer_id":"cafe_restaurant","name":"長野原町立中央こども園","category":"food","address":"群馬県吾妻郡長野原町大字大津４","source":"厚生労働省 食品衛生申請等システム（オープンデータ）","municipality_code":"10424","municipality_pref":"群馬県","municipality_name":"長野原町","municipality_code_method":"food_exact_coord"},"geometry":{"type":"Point","coordinates":[138.62636,36.553557]}},{"type":"Feature","properties":{"layer_id":"cafe_restaurant","name":"ゆきのやよりみち店","category":"food","address":"群馬県吾妻郡長野原町北軽井沢1924-930","source":"厚生労働省 食品衛生申請等システム（オープンデータ）","municipality_code":"10424","municipality_pref":"群馬県","municipality_name":"長野原町","municipality_code_method":"food_exact_coord"},"geometry":{"type":"Point","coordinates":[138.608822,36.4558]}},{"type":"Feature","properties":{"layer_id":"cafe_restaurant","name":"ANAホリデイ・インリゾート軽井沢  軽井沢スノーパーク","category":"food","address":"群馬県吾妻郡長野原町大字北軽井沢2032-16","source":"厚生労働省 食品衛生申請等システム（オープンデータ）","municipality_code":"10424","municipality_pref":"群馬県","municipality_name":"長野原町","municipality_code_method":"food_exact_coord"},"geometry":{"type":"Point","coordinates":[138.625945,36.424916]}},{"type":"Feature","properties":{"layer_id":"cafe_restaurant","name":"ANAホリデイ・インリゾート軽井沢","category":"food","address":"群馬県吾妻郡長野原町北軽井沢2032番地16","source":"厚生労働省 食品衛生申請等システム（オープンデータ）","municipality_code":"10424","municipality_pref":"群馬県","municipality_name":"長野原町","municipality_code_method":"food_exact_coord"},"geometry":{"type":"Point","coordinates":[138.637639,36.552357]}},{"type":"Feature","properties":{"layer_id":"cafe_restaurant","name":"あきちゃんラーメン","category":"food","address":"群馬県吾妻郡長野原町大字与喜屋146-1","source":"厚生労働省 食品衛生申請等システム（オープンデータ）","municipality_code":"10424","municipality_pref":"群馬県","municipality_name":"長野原町","municipality_code_method":"food_exact_coord"},"geometry":{"type":"Point","coordinates":[138.629197,36.549298]}},{"type":"Feature","properties":{"layer_id":"cafe_restaurant","name":"もり亭","category":"food","address":"群馬県吾妻郡長野原町長野原1572-1","source":"厚生労働省 食品衛生申請等システム（オープンデータ）","municipality_code":"10424","municipality_pref":"群馬県","municipality_name":"長野原町","municipality_code_method":"food_exact_coord"},"geometry":{"type":"Point","coordinates":[138.621444,36.551928]}},{"type":"Feature","properties":{"layer_id":"cafe_restaurant","name":"和食処清水屋ファミリーレストランフラワー","category":"food","address":"群馬県吾妻郡長野原町大字大津966-1","source":"厚生労働省 食品衛生申請等システム（オープンデータ）","municipality_code":"10424","municipality_pref":"群馬県","municipality_name":"長野原町","municipality_code_method":"food_exact_coord"},"geometry":{"type":"Point","coordinates":[138.601454,36.564276]}},{"type":"Feature","properties":{"layer_id":"cafe_restaurant","name":"やまと屋八ッ場本店","category":"food","address":"群馬県吾妻郡長野原町大字林1567-4","source":"厚生労働省 食品衛生申請等システム（オープンデータ）","municipality_code":"10424","municipality_pref":"群馬県","municipality_name":"長野原町","municipality_code_method":"food_exact_coord"},"geometry":{"type":"Point","coordinates":[138.684237,36.547515]}},{"type":"Feature","properties":{"layer_id":"cafe_restaurant","name":"お食事　素都廊","category":"food","address":"群馬県吾妻郡長野原町大字大津馬込72-3","source":"厚生労働省 食品衛生申請等システム（オープンデータ）","municipality_code":"10424","municipality_pref":"群馬県","municipality_name":"長野原町","municipality_code_method":"food_exact_coord"},"geometry":{"type":"Point","coordinates":[138.603812,36.56611]}},{"type":"Feature","properties":{"layer_id":"cafe_restaurant","name":"うどん専科　麦の香り","category":"food","address":"群馬県吾妻郡長野原町大字川原畑994-11","source":"厚生労働省 食品衛生申請等システム（オープンデータ）","municipality_code":"10424","municipality_pref":"群馬県","municipality_name":"長野原町","municipality_code_method":"food_exact_coord"},"geometry":{"type":"Point","coordinates":[138.710006,36.557809]}},{"type":"Feature","properties":{"layer_id":"cafe_restaurant","name":"グッドブランチ","category":"food","address":"群馬県吾妻郡長野原町応桑田通257番3","source":"厚生労働省 食品衛生申請等システム（オープンデータ）","municipality_code":"10424","municipality_pref":"群馬県","municipality_name":"長野原町","municipality_code_method":"food_exact_coord"},"geometry":{"type":"Point","coordinates":[138.637639,36.552357]}},{"type":"Feature","properties":{"layer_id":"cafe_restaurant","name":"ASAMA 4way,Stella Cafetta","category":"food","address":"群馬県吾妻郡長野原町北軽井沢1988-75","source":"厚生労働省 食品衛生申請等システム（オープンデータ）","municipality_code":"10424","municipality_pref":"群馬県","municipality_name":"長野原町","municipality_code_method":"food_exact_coord"},"geometry":{"type":"Point","coordinates":[138.608822,36.4558]}},{"type":"Feature","properties":{"layer_id":"cafe_restaurant","name":"ローソン長野原横壁店","category":"food","address":"群馬県吾妻郡長野原町横壁373-1","source":"厚生労働省 食品衛生申請等システム（オープンデータ）","municipality_code":"10424","municipality_pref":"群馬県","municipality_name":"長野原町","municipality_code_method":"food_exact_coord"},"geometry":{"type":"Point","coordinates":[138.668621,36.538389]}},{"type":"Feature","properties":{"layer_id":"cafe_restaurant","name":"フードショップ","category":"food","address":"群馬県吾妻郡長野原町大字林1567-4","source":"厚生労働省 食品衛生申請等システム（オープンデータ）","municipality_code":"10424","municipality_pref":"群馬県","municipality_name":"長野原町","municipality_code_method":"food_exact_coord"},"geometry":{"type":"Point","coordinates":[138.684237,36.547515]}},{"type":"Feature","properties":{"layer_id":"cafe_restaurant","name":"株式会社 八ツ場ふるさと館　直売厨房","category":"food","address":"群馬県吾妻郡長野原町大字林1567-4","source":"厚生労働省 食品衛生申請等システム（オープンデータ）","municipality_code":"10424","municipality_pref":"群馬県","municipality_name":"長野原町","municipality_code_method":"food_exact_coord"},"geometry":{"type":"Point","coordinates":[138.684237,36.547515]}},{"type":"Feature","properties":{"layer_id":"cafe_restaurant","name":"株式会社八ツ場ふるさと館 八ツ場食堂","category":"food","address":"群馬県吾妻郡長野原町大字林1567-4","source":"厚生労働省 食品衛生申請等システム（オープンデータ）","municipality_code":"10424","municipality_pref":"群馬県","municipality_name":"長野原町","municipality_code_method":"food_exact_coord"},"geometry":{"type":"Point","coordinates":[138.684237,36.547515]}},{"type":"Feature","properties":{"layer_id":"cafe_restaurant","name":"株式会社 八ツ場ふるさと館 　ヤマザキショップ","category":"food","address":"群馬県吾妻郡長野原町大字林1567-4","source":"厚生労働省 食品衛生申請等システム（オープンデータ）","municipality_code":"10424","municipality_pref":"群馬県","municipality_name":"長野原町","municipality_code_method":"food_exact_coord"},"geometry":{"type":"Point","coordinates":[138.684237,36.547515]}},{"type":"Feature","properties":{"layer_id":"cafe_restaurant","name":"株式会社　田村商店（スーパー大津）","category":"food","address":"群馬県吾妻郡長野原町大字大津230-1","source":"厚生労働省 食品衛生申請等システム（オープンデータ）","municipality_code":"10424","municipality_pref":"群馬県","municipality_name":"長野原町","municipality_code_method":"food_exact_coord"},"geometry":{"type":"Point","coordinates":[138.619094,36.553841]}},{"type":"Feature","properties":{"layer_id":"cafe_restaurant","name":"Full cafe ReBirth","category":"food","address":"群馬県吾妻郡長野原町北軽井沢1988-224","source":"厚生労働省 食品衛生申請等システム（オープンデータ）","municipality_code":"10424","municipality_pref":"群馬県","municipality_name":"長野原町","municipality_code_method":"food_exact_coord"},"geometry":{"type":"Point","coordinates":[138.608822,36.4558]}},{"type":"Feature","properties":{"layer_id":"cafe_restaurant","name":"長野原・草津・六合ステーション","category":"food","address":"群馬県吾妻郡長野原町長野原1263-5","source":"厚生労働省 食品衛生申請等システム（オープンデータ）","municipality_code":"10424","municipality_pref":"群馬県","municipality_name":"長野原町","municipality_code_method":"food_exact_coord"},"geometry":{"type":"Point","coordinates":[138.647756,36.546821]}},{"type":"Feature","properties":{"layer_id":"cafe_restaurant","name":"八ッ場湖の駅丸岩内　まるいわカフェ","category":"food","address":"群馬県吾妻郡長野原町横壁904-3","source":"厚生労働省 食品衛生申請等システム（オープンデータ）","municipality_code":"10424","municipality_pref":"群馬県","municipality_name":"長野原町","municipality_code_method":"food_exact_coord"},"geometry":{"type":"Point","coordinates":[138.673013,36.538854]}},{"type":"Feature","properties":{"layer_id":"cafe_restaurant","name":"北軽井沢ムースレストラン　BUNCH","category":"food","address":"群馬県吾妻郡長野原町北軽井沢1988-75","source":"厚生労働省 食品衛生申請等システム（オープンデータ）","municipality_code":"10424","municipality_pref":"群馬県","municipality_name":"長野原町","municipality_code_method":"food_exact_coord"},"geometry":{"type":"Point","coordinates":[138.592469,36.466119]}},{"type":"Feature","properties":{"layer_id":"cafe_restaurant","name":"カフェ　森のガーデン　かんな","category":"food","address":"群馬県吾妻郡長野原町大字北軽井沢1924-1413","source":"厚生労働省 食品衛生申請等システム（オープンデータ）","municipality_code":"10424","municipality_pref":"群馬県","municipality_name":"長野原町","municipality_code_method":"food_exact_coord"},"geometry":{"type":"Point","coordinates":[138.589311,36.461639]}},{"type":"Feature","properties":{"layer_id":"cafe_restaurant","name":"やまた旅館","category":"food","address":"群馬県吾妻郡長野原町大字川原湯字金花山454-51","source":"厚生労働省 食品衛生申請等システム（オープンデータ）","municipality_code":"10424","municipality_pref":"群馬県","municipality_name":"長野原町","municipality_code_method":"food_exact_coord"},"geometry":{"type":"Point","coordinates":[138.701576,36.54207]}},{"type":"Feature","properties":{"layer_id":"cafe_restaurant","name":"マンジャーレ","category":"food","address":"群馬県吾妻郡長野原町大字大津239-1","source":"厚生労働省 食品衛生申請等システム（オープンデータ）","municipality_code":"10424","municipality_pref":"群馬県","municipality_name":"長野原町","municipality_code_method":"food_exact_coord"},"geometry":{"type":"Point","coordinates":[138.618483,36.553236]}},{"type":"Feature","properties":{"layer_id":"cafe_restaurant","name":"山木館","category":"food","address":"群馬県吾妻郡長野原町大字川原湯454-91","source":"厚生労働省 食品衛生申請等システム（オープンデータ）","municipality_code":"10424","municipality_pref":"群馬県","municipality_name":"長野原町","municipality_code_method":"food_exact_coord"},"geometry":{"type":"Point","coordinates":[138.708788,36.550892]}},{"type":"Feature","properties":{"layer_id":"cafe_restaurant","name":"M2 Calm","category":"food","address":"群馬県吾妻郡長野原町北軽井沢地蔵堂1988-651","source":"厚生労働省 食品衛生申請等システム（オープンデータ）","municipality_code":"10424","municipality_pref":"群馬県","municipality_name":"長野原町","municipality_code_method":"food_exact_coord"},"geometry":{"type":"Point","coordinates":[138.592469,36.466119]}},{"type":"Feature","properties":{"layer_id":"cafe_restaurant","name":"Anju　Art　358","category":"food","address":"群馬県吾妻郡長野原町北軽井沢1988-391","source":"厚生労働省 食品衛生申請等システム（オープンデータ）","municipality_code":"10424","municipality_pref":"群馬県","municipality_name":"長野原町","municipality_code_method":"food_exact_coord"},"geometry":{"type":"Point","coordinates":[138.592469,36.466119]}},{"type":"Feature","properties":{"layer_id":"public_facilities","name":"屋内運動場","category":"public","address":"長野原町与喜屋270-1","source":"国土交通省 国土数値情報","municipality_code":"10424","municipality_pref":"群馬県","municipality_name":"長野原町","municipality_code_method":"source_exact_coord"},"geometry":{"type":"Point","coordinates":[138.62724769753777,36.54947347626879]}},{"type":"Feature","properties":{"layer_id":"public_facilities","name":"中央こども館","category":"public","address":"長野原町大津4","source":"国土交通省 国土数値情報","municipality_code":"10424","municipality_pref":"群馬県","municipality_name":"長野原町","municipality_code_method":"source_exact_coord"},"geometry":{"type":"Point","coordinates":[138.62631669233076,36.55411147137792]}},{"type":"Feature","properties":{"layer_id":"public_facilities","name":"横壁住民センター","category":"public","address":"長野原町横壁383","source":"国土交通省 国土数値情報","municipality_code":"10424","municipality_pref":"群馬県","municipality_name":"長野原町","municipality_code_method":"source_exact_coord"},"geometry":{"type":"Point","coordinates":[138.668247829518,36.53837252373526]}},{"type":"Feature","properties":{"layer_id":"public_facilities","name":"長野原町役場","category":"public","address":"長野原町大字長野原1340-1","source":"国土交通省 国土数値情報","municipality_code":"10424","municipality_pref":"群馬県","municipality_name":"長野原町","municipality_code_method":"source_exact_coord"},"geometry":{"type":"Point","coordinates":[138.63757673473316,36.552433489312676]}},{"type":"Feature","properties":{"layer_id":"public_facilities","name":"与喜屋公民館","category":"public","address":"長野原町与喜屋956-1","source":"国土交通省 国土数値情報","municipality_code":"10424","municipality_pref":"群馬県","municipality_name":"長野原町","municipality_code_method":"source_exact_coord"},"geometry":{"type":"Point","coordinates":[138.62011367318973,36.54001347078843]}},{"type":"Feature","properties":{"layer_id":"public_facilities","name":"応桑こども館","category":"public","address":"長野原町応桑1449-2","source":"国土交通省 国土数値情報","municipality_code":"10424","municipality_pref":"群馬県","municipality_name":"長野原町","municipality_code_method":"source_exact_coord"},"geometry":{"type":"Point","coordinates":[138.59080454126283,36.50295742660518]}},{"type":"Feature","properties":{"layer_id":"public_facilities","name":"川原畑住民センター","category":"public","address":"長野原町川原湯566-1","source":"国土交通省 国土数値情報","municipality_code":"10424","municipality_pref":"群馬県","municipality_name":"長野原町","municipality_code_method":"source_exact_coord"},"geometry":{"type":"Point","coordinates":[138.71069353646612,36.551868208249275]}},{"type":"Feature","properties":{"layer_id":"public_facilities","name":"住民総合センター","category":"public","address":"長野原町大字長野原1340-1","source":"国土交通省 国土数値情報","municipality_code":"10424","municipality_pref":"群馬県","municipality_name":"長野原町","municipality_code_method":"source_exact_coord"},"geometry":{"type":"Point","coordinates":[138.64987278115515,36.54424308308413]}},{"type":"Feature","properties":{"layer_id":"public_facilities","name":"林地区多目的集会施設","category":"public","address":"長野原町林502","source":"国土交通省 国土数値情報","municipality_code":"10424","municipality_pref":"群馬県","municipality_name":"長野原町","municipality_code_method":"source_exact_coord"},"geometry":{"type":"Point","coordinates":[138.67161583730973,36.54426351823126]}},{"type":"Feature","properties":{"layer_id":"public_facilities","name":"応桑地区多目的集会施設","category":"public","address":"長野原町応桑271-6","source":"国土交通省 国土数値情報","municipality_code":"10424","municipality_pref":"群馬県","municipality_name":"長野原町","municipality_code_method":"source_exact_coord"},"geometry":{"type":"Point","coordinates":[138.59348655764367,36.509689426158644]}},{"type":"Feature","properties":{"layer_id":"public_facilities","name":"長野原町図書室","category":"public","address":"長野原町大字長野原1340-1","source":"国土交通省 国土数値情報","municipality_code":"10424","municipality_pref":"群馬県","municipality_name":"長野原町","municipality_code_method":"source_exact_coord"},"geometry":{"type":"Point","coordinates":[138.6498527810854,36.544243083061914]}},{"type":"Feature","properties":{"layer_id":"public_facilities","name":"与喜屋地区多目的集会施設","category":"public","address":"長野原町与喜屋326-4","source":"国土交通省 国土数値情報","municipality_code":"10424","municipality_pref":"群馬県","municipality_name":"長野原町","municipality_code_method":"source_exact_coord"},"geometry":{"type":"Point","coordinates":[138.62365568489508,36.54730047212612]}},{"type":"Feature","properties":{"layer_id":"public_facilities","name":"山村開発センター","category":"public","address":"長野原町与喜屋174","source":"国土交通省 国土数値情報","municipality_code":"10424","municipality_pref":"群馬県","municipality_name":"長野原町","municipality_code_method":"source_exact_coord"},"geometry":{"type":"Point","coordinates":[138.6277996995261,36.54976447682251]}},{"type":"Feature","properties":{"layer_id":"public_facilities","name":"シルバーコミュニティープラザ","category":"public","address":"長野原町北軽井沢字地蔵堂1990-5372","source":"国土交通省 国土数値情報","municipality_code":"10424","municipality_pref":"群馬県","municipality_name":"長野原町","municipality_code_method":"source_exact_coord"},"geometry":{"type":"Point","coordinates":[138.58135145499799,36.457190491447214]}},{"type":"Feature","properties":{"layer_id":"public_facilities","name":"にしあがつま地域活動支援センター","category":"public","address":"長野原町与喜屋1624","source":"国土交通省 国土数値情報","municipality_code":"10424","municipality_pref":"群馬県","municipality_name":"長野原町","municipality_code_method":"source_exact_coord"},"geometry":{"type":"Point","coordinates":[138.6189436679784,36.54627446322315]}},{"type":"Feature","properties":{"layer_id":"public_facilities","name":"老人福祉センター","category":"public","address":"長野原町与喜屋1624","source":"国土交通省 国土数値情報","municipality_code":"10424","municipality_pref":"群馬県","municipality_name":"長野原町","municipality_code_method":"source_exact_coord"},"geometry":{"type":"Point","coordinates":[138.61865566679802,36.54705346197144]}},{"type":"Feature","properties":{"layer_id":"public_facilities","name":"長野原町公民館","category":"public","address":"長野原町長野原1340-1","source":"国土交通省 国土数値情報","municipality_code":"10424","municipality_pref":"群馬県","municipality_name":"長野原町","municipality_code_method":"source_exact_coord"},"geometry":{"type":"Point","coordinates":[138.64971489057467,36.54428851284812]}},{"type":"Feature","properties":{"layer_id":"public_facilities","name":"若人の館","category":"public","address":"長野原町与喜屋270-3","source":"国土交通省 国土数値情報","municipality_code":"10424","municipality_pref":"群馬県","municipality_name":"長野原町","municipality_code_method":"source_exact_coord"},"geometry":{"type":"Point","coordinates":[138.62878254525202,36.54972565800027]}},{"type":"Feature","properties":{"layer_id":"public_facilities","name":"北軽井沢ミュージックホール","category":"public","address":"長野原町大字北軽井沢1988-74","source":"国土交通省 国土数値情報","municipality_code":"10424","municipality_pref":"群馬県","municipality_name":"長野原町","municipality_code_method":"source_exact_coord"},"geometry":{"type":"Point","coordinates":[138.58728028019746,36.46666049753999]}},{"type":"Feature","properties":{"layer_id":"public_facilities","name":"大津地区多目的集会施設","category":"public","address":"長野原町大津244-2","source":"国土交通省 国土数値情報","municipality_code":"10424","municipality_pref":"群馬県","municipality_name":"長野原町","municipality_code_method":"source_exact_coord"},"geometry":{"type":"Point","coordinates":[138.61744566146086,36.55418645431289]}},{"type":"Feature","properties":{"layer_id":"cultural_facilities","name":"長野原町総合運動場","category":"public","address":"与喜屋282","source":"国土交通省 国土数値情報","municipality_code":"10424","municipality_pref":"群馬県","municipality_name":"長野原町","municipality_code_method":"nearest_centroid"},"geometry":{"type":"Point","coordinates":[138.625002,36.550967]}},{"type":"Feature","properties":{"layer_id":"cultural_facilities","name":"長野原町総合運動場","category":"public","address":"与喜屋282","source":"国土交通省 国土数値情報","municipality_code":"10424","municipality_pref":"群馬県","municipality_name":"長野原町","municipality_code_method":"nearest_centroid"},"geometry":{"type":"Point","coordinates":[138.623683,36.549716]}},{"type":"Feature","properties":{"layer_id":"cultural_facilities","name":"長野原町総合運動場","category":"public","address":"与喜屋282","source":"国土交通省 国土数値情報","municipality_code":"10424","municipality_pref":"群馬県","municipality_name":"長野原町","municipality_code_method":"nearest_centroid"},"geometry":{"type":"Point","coordinates":[138.623576,36.550299]}},{"type":"Feature","properties":{"layer_id":"cultural_facilities","name":"長野原町総合運動場","category":"public","address":"与喜屋282","source":"国土交通省 国土数値情報","municipality_code":"10424","municipality_pref":"群馬県","municipality_name":"長野原町","municipality_code_method":"nearest_centroid"},"geometry":{"type":"Point","coordinates":[138.623398,36.550241]}},{"type":"Feature","properties":{"layer_id":"tourism_resources","name":"浅間大滝","category":"nature","address":"河川景観 / 滝","source":"国土交通省 国土数値情報","municipality_code":"10424","municipality_pref":"群馬県","municipality_name":"長野原町","municipality_code_method":"nearest_centroid","resource_code":"610"},"geometry":{"type":"Point","coordinates":[138.6096954345703,36.447967529296875]}},{"type":"Feature","properties":{"layer_id":"tourism_resources","name":"王城山","category":"nature","address":"山地（非火山性）景観 / 非火山性弧峰","source":"国土交通省 国土数値情報","municipality_code":"10424","municipality_pref":"群馬県","municipality_name":"長野原町","municipality_code_method":"nearest_centroid","resource_code":"205"},"geometry":{"type":"Point","coordinates":[138.66943359375,36.557979583740234]}},{"type":"Feature","properties":{"layer_id":"tourism_resources","name":"丸岩","category":"nature","address":"山地（非火山性）景観 / 非火山性弧峰","source":"国土交通省 国土数値情報","municipality_code":"10424","municipality_pref":"群馬県","municipality_name":"長野原町","municipality_code_method":"nearest_centroid","resource_code":"205"},"geometry":{"type":"Point","coordinates":[138.66265869140625,36.52834701538086]}},{"type":"Feature","properties":{"layer_id":"tourism_resources","name":"鷹繁山","category":"nature","address":"山地（非火山性）景観 / 非火山性弧峰","source":"国土交通省 国土数値情報","municipality_code":"10424","municipality_pref":"群馬県","municipality_name":"長野原町","municipality_code_method":"nearest_centroid","resource_code":"205"},"geometry":{"type":"Point","coordinates":[138.6233367919922,36.45411682128906]}},{"type":"Feature","properties":{"layer_id":"tourism_resources","name":"千ｶﾞ滝","category":"nature","address":"河川景観 / 滝","source":"国土交通省 国土数値情報","municipality_code":"10424","municipality_pref":"群馬県","municipality_name":"長野原町","municipality_code_method":"nearest_centroid","resource_code":"610"},"geometry":{"type":"Point","coordinates":[138.61602783203125,36.5166015625]}},{"type":"Feature","properties":{"layer_id":"tourism_resources","name":"川原湯岩脈","category":"nature","address":"陸景 特殊地学景観 / 陸景 岩脈","source":"国土交通省 国土数値情報","municipality_code":"10424","municipality_pref":"群馬県","municipality_name":"長野原町","municipality_code_method":"nearest_centroid","resource_code":"402"},"geometry":{"type":"Point","coordinates":[138.69932556152344,36.55082702636719]}},{"type":"Feature","properties":{"layer_id":"tourism_resources","name":"菅峰","category":"nature","address":"山地（非火山性）景観 / 非火山性弧峰","source":"国土交通省 国土数値情報","municipality_code":"10424","municipality_pref":"群馬県","municipality_name":"長野原町","municipality_code_method":"nearest_centroid","resource_code":"205"},"geometry":{"type":"Point","coordinates":[138.64463806152344,36.51516342163086]}}],"display_comment_original":"長野原町周辺には、近世村の記憶として長野原村、横壁村、林村などの旧村名が見える。 この地域には史跡や遺跡、城跡や陣屋跡に関わる場所が見え、羽尾城跡、石畑岩陰遺跡、勘場木石器時代住居跡のような地点が探索の入口になる。 現地では史跡説明板、長野原村、横壁村ゆかりの旧境石標や村の歴史案内板が手がかりになりそうだ。さらに水辺の暮らしや堤防整備の歴史を示す案内板に加え、治水碑や河川改修の記念碑が狙い目になる。","story_enrichment":{"samurai_priority_people":[],"notable_people":["萩原進"],"honorary_citizens":[],"tourism_landmarks":["川原湯温泉","川原湯温泉あそびの基地NOA","やんば天明泥流ミュージアム","八ッ場湖の駅丸岩","不動の滝","浅間園","浅間火山博物館","林温泉"],"specialties":[],"food_culture":[],"historical_domains":[],"heian_place_names":[],"japan_search_support":[],"enrichment_sources":["https://ja.wikipedia.org/wiki/%E9%95%B7%E9%87%8E%E5%8E%9F%E7%94%BA","https://www.wikidata.org/wiki/Q63131152"],"enrichment_errors":[],"wikipedia_title":"長野原町","wikipedia_revision_id":"110092401","wikidata_qid":"Q1203366","wikipedia_url":"https://ja.wikipedia.org/wiki/%E9%95%B7%E9%87%8E%E5%8E%9F%E7%94%BA","japan_search_query_url":"","status":"wikipedia_ok"}}