{"type":"FeatureCollection","municipality_code":"10421","pref":"群馬県","city":"中之条町","display_comment":"中之条町には、西中之条村、伊勢町、青山村など、近世の村々の記憶を伝える地名が残っています。 周辺には史跡や遺跡、寺社や信仰の場、城跡や陣屋跡にまつわる場所が点在し、「嶽山城跡」、「有笠山遺跡」、「四万遺跡」などを起点に歩くと、地域の歴史がぐっと見えやすくなります。 現地では史跡説明板に加え、西中之条村や伊勢町にゆかりのある旧境石標、村の歴史を紹介する案内板にも注目してみてください。 田・新田・用水にちなむ地名が多い場所では、土地改良碑や用水記念碑も注目したい探索対象です。 川沿いや水辺では、暮らしや堤防整備の歴史を伝える案内板、治水碑、河川改修の記念碑にも注目してみてください。 ゆかりの人物では小渕恵三や伊能芳雄に注目すると、地域に残る文化や時代背景をさらに深く知るきっかけになります。 「四万温泉（国民保養温泉地）」や「日向見薬師堂（重要文化財）」などの名所も、地域の物語を深掘りする絶好の入口です。","layer_counts":{"cafe_restaurant":76,"public_facilities":16,"scenic_nature_areas":2,"cultural_facilities":11,"tourism_resources":13},"total_features":118,"features":[{"type":"Feature","properties":{"layer_id":"cafe_restaurant","name":"中之条町ふるさと交流センターつむじ／spice WAGANCE","category":"food","address":"群馬県吾妻郡中之条町中之条町938","source":"厚生労働省 食品衛生申請等システム（オープンデータ）","municipality_code":"10421","municipality_pref":"群馬県","municipality_name":"中之条町","municipality_code_method":"food_exact_coord"},"geometry":{"type":"Point","coordinates":[138.842294,36.58866]}},{"type":"Feature","properties":{"layer_id":"cafe_restaurant","name":"喜久豆腐店","category":"food","address":"群馬県吾妻郡中之条町入山1899-27","source":"厚生労働省 食品衛生申請等システム（オープンデータ）","municipality_code":"10421","municipality_pref":"群馬県","municipality_name":"中之条町","municipality_code_method":"food_exact_coord"},"geometry":{"type":"Point","coordinates":[138.649794,36.642444]}},{"type":"Feature","properties":{"layer_id":"cafe_restaurant","name":"Hamaya.中之条店","category":"food","address":"群馬県吾妻郡中之条町中之条町1756-2","source":"厚生労働省 食品衛生申請等システム（オープンデータ）","municipality_code":"10421","municipality_pref":"群馬県","municipality_name":"中之条町","municipality_code_method":"food_exact_coord"},"geometry":{"type":"Point","coordinates":[138.841646,36.585346]}},{"type":"Feature","properties":{"layer_id":"cafe_restaurant","name":"饂飩屋","category":"food","address":"群馬県吾妻郡中之条町入山4049-28","source":"厚生労働省 食品衛生申請等システム（オープンデータ）","municipality_code":"10421","municipality_pref":"群馬県","municipality_name":"中之条町","municipality_code_method":"food_exact_coord"},"geometry":{"type":"Point","coordinates":[138.656942,36.607075]}},{"type":"Feature","properties":{"layer_id":"cafe_restaurant","name":"さんざし","category":"food","address":"群馬県吾妻郡中之条町伊勢町988-1","source":"厚生労働省 食品衛生申請等システム（オープンデータ）","municipality_code":"10421","municipality_pref":"群馬県","municipality_name":"中之条町","municipality_code_method":"food_exact_coord"},"geometry":{"type":"Point","coordinates":[138.848396,36.587042]}},{"type":"Feature","properties":{"layer_id":"cafe_restaurant","name":"ママン食堂はなまる","category":"food","address":"群馬県吾妻郡中之条町伊勢町850-5","source":"厚生労働省 食品衛生申請等システム（オープンデータ）","municipality_code":"10421","municipality_pref":"群馬県","municipality_name":"中之条町","municipality_code_method":"food_exact_coord"},"geometry":{"type":"Point","coordinates":[138.850724,36.586071]}},{"type":"Feature","properties":{"layer_id":"cafe_restaurant","name":"かぎねこのしっぽ","category":"food","address":"群馬県吾妻郡中之条町中之条町574-3","source":"厚生労働省 食品衛生申請等システム（オープンデータ）","municipality_code":"10421","municipality_pref":"群馬県","municipality_name":"中之条町","municipality_code_method":"food_exact_coord"},"geometry":{"type":"Point","coordinates":[138.846167,36.582572]}},{"type":"Feature","properties":{"layer_id":"cafe_restaurant","name":"OKOME　CLUB","category":"food","address":"群馬県吾妻郡中之条町中之条町938","source":"厚生労働省 食品衛生申請等システム（オープンデータ）","municipality_code":"10421","municipality_pref":"群馬県","municipality_name":"中之条町","municipality_code_method":"food_exact_coord"},"geometry":{"type":"Point","coordinates":[138.840947,36.589992]}},{"type":"Feature","properties":{"layer_id":"cafe_restaurant","name":"さわや","category":"food","address":"群馬県吾妻郡中之条町大字伊勢町853-4","source":"厚生労働省 食品衛生申請等システム（オープンデータ）","municipality_code":"10421","municipality_pref":"群馬県","municipality_name":"中之条町","municipality_code_method":"food_exact_coord"},"geometry":{"type":"Point","coordinates":[138.85104,36.586637]}},{"type":"Feature","properties":{"layer_id":"cafe_restaurant","name":"わしの屋酒店","category":"food","address":"群馬県吾妻郡中之条町大字四万3894-1","source":"厚生労働省 食品衛生申請等システム（オープンデータ）","municipality_code":"10421","municipality_pref":"群馬県","municipality_name":"中之条町","municipality_code_method":"food_exact_coord"},"geometry":{"type":"Point","coordinates":[138.78195,36.680532]}},{"type":"Feature","properties":{"layer_id":"cafe_restaurant","name":"CraftBeer & Cafe こはるび","category":"food","address":"群馬県吾妻郡中之条町四万3841-4","source":"厚生労働省 食品衛生申請等システム（オープンデータ）","municipality_code":"10421","municipality_pref":"群馬県","municipality_name":"中之条町","municipality_code_method":"food_exact_coord"},"geometry":{"type":"Point","coordinates":[138.76936,36.68521]}},{"type":"Feature","properties":{"layer_id":"cafe_restaurant","name":"四万温泉  ShimaBlue","category":"food","address":"群馬県吾妻郡中之条町大字四万4355","source":"厚生労働省 食品衛生申請等システム（オープンデータ）","municipality_code":"10421","municipality_pref":"群馬県","municipality_name":"中之条町","municipality_code_method":"food_exact_coord"},"geometry":{"type":"Point","coordinates":[138.774173,36.692447]}},{"type":"Feature","properties":{"layer_id":"cafe_restaurant","name":"KACHI  SOBA","category":"food","address":"群馬県吾妻郡中之条町四万3497","source":"厚生労働省 食品衛生申請等システム（オープンデータ）","municipality_code":"10421","municipality_pref":"群馬県","municipality_name":"中之条町","municipality_code_method":"food_exact_coord"},"geometry":{"type":"Point","coordinates":[138.794269,36.665126]}},{"type":"Feature","properties":{"layer_id":"cafe_restaurant","name":"叶　KANOUYA　四万温泉","category":"food","address":"群馬県吾妻郡中之条町四万4139-12","source":"厚生労働省 食品衛生申請等システム（オープンデータ）","municipality_code":"10421","municipality_pref":"群馬県","municipality_name":"中之条町","municipality_code_method":"food_exact_coord"},"geometry":{"type":"Point","coordinates":[138.774477,36.689988]}},{"type":"Feature","properties":{"layer_id":"cafe_restaurant","name":"四万温泉ゆずりは１","category":"food","address":"群馬県吾妻郡中之条町四万4345","source":"厚生労働省 食品衛生申請等システム（オープンデータ）","municipality_code":"10421","municipality_pref":"群馬県","municipality_name":"中之条町","municipality_code_method":"food_exact_coord"},"geometry":{"type":"Point","coordinates":[138.774033,36.690624]}},{"type":"Feature","properties":{"layer_id":"cafe_restaurant","name":"四万温泉ゆずりは2","category":"food","address":"群馬県吾妻郡中之条町四万4345","source":"厚生労働省 食品衛生申請等システム（オープンデータ）","municipality_code":"10421","municipality_pref":"群馬県","municipality_name":"中之条町","municipality_code_method":"food_exact_coord"},"geometry":{"type":"Point","coordinates":[138.774033,36.690624]}},{"type":"Feature","properties":{"layer_id":"cafe_restaurant","name":"森のカフェ　KISEKI","category":"food","address":"群馬県吾妻郡中之条町大字四万3497","source":"厚生労働省 食品衛生申請等システム（オープンデータ）","municipality_code":"10421","municipality_pref":"群馬県","municipality_name":"中之条町","municipality_code_method":"food_exact_coord"},"geometry":{"type":"Point","coordinates":[138.794269,36.665126]}},{"type":"Feature","properties":{"layer_id":"cafe_restaurant","name":"赤提灯　べいす","category":"food","address":"群馬県吾妻郡中之条町大字中之条町405-3","source":"厚生労働省 食品衛生申請等システム（オープンデータ）","municipality_code":"10421","municipality_pref":"群馬県","municipality_name":"中之条町","municipality_code_method":"food_exact_coord"},"geometry":{"type":"Point","coordinates":[138.835468,36.583408]}},{"type":"Feature","properties":{"layer_id":"cafe_restaurant","name":"桜田","category":"food","address":"群馬県吾妻郡中之条町大字伊勢町881-5","source":"厚生労働省 食品衛生申請等システム（オープンデータ）","municipality_code":"10421","municipality_pref":"群馬県","municipality_name":"中之条町","municipality_code_method":"food_exact_coord"},"geometry":{"type":"Point","coordinates":[138.854479,36.586932]}},{"type":"Feature","properties":{"layer_id":"cafe_restaurant","name":"和光庵","category":"food","address":"群馬県吾妻郡中之条町大字折田419-1","source":"厚生労働省 食品衛生申請等システム（オープンデータ）","municipality_code":"10421","municipality_pref":"群馬県","municipality_name":"中之条町","municipality_code_method":"food_exact_coord"},"geometry":{"type":"Point","coordinates":[138.816578,36.59339]}},{"type":"Feature","properties":{"layer_id":"cafe_restaurant","name":"居酒屋　光","category":"food","address":"群馬県吾妻郡中之条町大字伊勢町27-1","source":"厚生労働省 食品衛生申請等システム（オープンデータ）","municipality_code":"10421","municipality_pref":"群馬県","municipality_name":"中之条町","municipality_code_method":"food_exact_coord"},"geometry":{"type":"Point","coordinates":[138.855277,36.582119]}},{"type":"Feature","properties":{"layer_id":"cafe_restaurant","name":"Moment 中之条店","category":"food","address":"群馬県吾妻郡中之条町大字青山194-1","source":"厚生労働省 食品衛生申請等システム（オープンデータ）","municipality_code":"10421","municipality_pref":"群馬県","municipality_name":"中之条町","municipality_code_method":"food_exact_coord"},"geometry":{"type":"Point","coordinates":[138.870952,36.579919]}},{"type":"Feature","properties":{"layer_id":"cafe_restaurant","name":"伊参スタジオ公園","category":"food","address":"群馬県吾妻郡中之条町五反田3527-5・-1","source":"厚生労働省 食品衛生申請等システム（オープンデータ）","municipality_code":"10421","municipality_pref":"群馬県","municipality_name":"中之条町","municipality_code_method":"food_exact_coord"},"geometry":{"type":"Point","coordinates":[138.833693,36.624371]}},{"type":"Feature","properties":{"layer_id":"cafe_restaurant","name":"海鮮四季北海亭中之条店","category":"food","address":"群馬県吾妻郡中之条町中之条町958","source":"厚生労働省 食品衛生申請等システム（オープンデータ）","municipality_code":"10421","municipality_pref":"群馬県","municipality_name":"中之条町","municipality_code_method":"food_exact_coord"},"geometry":{"type":"Point","coordinates":[138.840947,36.589992]}},{"type":"Feature","properties":{"layer_id":"cafe_restaurant","name":"唐澤農園　いちご＆スイーツカフェ","category":"food","address":"群馬県吾妻郡中之条町中之条町597-1","source":"厚生労働省 食品衛生申請等システム（オープンデータ）","municipality_code":"10421","municipality_pref":"群馬県","municipality_name":"中之条町","municipality_code_method":"food_exact_coord"},"geometry":{"type":"Point","coordinates":[138.840947,36.589992]}},{"type":"Feature","properties":{"layer_id":"cafe_restaurant","name":"宿　花まめ","category":"food","address":"群馬県吾妻郡中之条町小雨21-1","source":"厚生労働省 食品衛生申請等システム（オープンデータ）","municipality_code":"10421","municipality_pref":"群馬県","municipality_name":"中之条町","municipality_code_method":"food_exact_coord"},"geometry":{"type":"Point","coordinates":[138.638907,36.607814]}},{"type":"Feature","properties":{"layer_id":"cafe_restaurant","name":"湯けむりらーめん　桜","category":"food","address":"群馬県吾妻郡中之条町四万4143","source":"厚生労働省 食品衛生申請等システム（オープンデータ）","municipality_code":"10421","municipality_pref":"群馬県","municipality_name":"中之条町","municipality_code_method":"food_exact_coord"},"geometry":{"type":"Point","coordinates":[138.775209,36.686508]}},{"type":"Feature","properties":{"layer_id":"cafe_restaurant","name":"中之条町ふるさと活性化センター","category":"food","address":"群馬県吾妻郡中之条町入山2694-2","source":"厚生労働省 食品衛生申請等システム（オープンデータ）","municipality_code":"10421","municipality_pref":"群馬県","municipality_name":"中之条町","municipality_code_method":"food_exact_coord"},"geometry":{"type":"Point","coordinates":[138.656927,36.639535]}},{"type":"Feature","properties":{"layer_id":"cafe_restaurant","name":"Miki＋Amigos","category":"food","address":"群馬県吾妻郡中之条町中之条町123-22","source":"厚生労働省 食品衛生申請等システム（オープンデータ）","municipality_code":"10421","municipality_pref":"群馬県","municipality_name":"中之条町","municipality_code_method":"food_exact_coord"},"geometry":{"type":"Point","coordinates":[138.834926,36.583519]}},{"type":"Feature","properties":{"layer_id":"cafe_restaurant","name":"もつ煮家　コトこと","category":"food","address":"群馬県吾妻郡中之条町中之条町938","source":"厚生労働省 食品衛生申請等システム（オープンデータ）","municipality_code":"10421","municipality_pref":"群馬県","municipality_name":"中之条町","municipality_code_method":"food_exact_coord"},"geometry":{"type":"Point","coordinates":[138.840947,36.589992]}},{"type":"Feature","properties":{"layer_id":"cafe_restaurant","name":"中之条町立六合学校給食センター","category":"food","address":"群馬県吾妻郡中之条町大字小雨584","source":"厚生労働省 食品衛生申請等システム（オープンデータ）","municipality_code":"10421","municipality_pref":"群馬県","municipality_name":"中之条町","municipality_code_method":"food_exact_coord"},"geometry":{"type":"Point","coordinates":[138.627612,36.597816]}},{"type":"Feature","properties":{"layer_id":"cafe_restaurant","name":"中之条町立六合こども園","category":"food","address":"群馬県吾妻郡中之条町生須528-3","source":"厚生労働省 食品衛生申請等システム（オープンデータ）","municipality_code":"10421","municipality_pref":"群馬県","municipality_name":"中之条町","municipality_code_method":"food_exact_coord"},"geometry":{"type":"Point","coordinates":[138.637883,36.604651]}},{"type":"Feature","properties":{"layer_id":"cafe_restaurant","name":"ほっともっと中之条町店","category":"food","address":"群馬県吾妻郡中之条町中之条町658-1","source":"厚生労働省 食品衛生申請等システム（オープンデータ）","municipality_code":"10421","municipality_pref":"群馬県","municipality_name":"中之条町","municipality_code_method":"food_exact_coord"},"geometry":{"type":"Point","coordinates":[138.847724,36.586658]}},{"type":"Feature","properties":{"layer_id":"cafe_restaurant","name":"丼もの専門店　よるべ","category":"food","address":"群馬県吾妻郡中之条町伊勢町819-1","source":"厚生労働省 食品衛生申請等システム（オープンデータ）","municipality_code":"10421","municipality_pref":"群馬県","municipality_name":"中之条町","municipality_code_method":"food_exact_coord"},"geometry":{"type":"Point","coordinates":[138.85045,36.585651]}},{"type":"Feature","properties":{"layer_id":"cafe_restaurant","name":"中之条ガーデンズ　茶屋　たんぽぽ","category":"food","address":"群馬県吾妻郡中之条町折田2411","source":"厚生労働省 食品衛生申請等システム（オープンデータ）","municipality_code":"10421","municipality_pref":"群馬県","municipality_name":"中之条町","municipality_code_method":"food_exact_coord"},"geometry":{"type":"Point","coordinates":[138.809124,36.601476]}},{"type":"Feature","properties":{"layer_id":"cafe_restaurant","name":"ロカーレ・ジェラート","category":"food","address":"群馬県吾妻郡中之条町中之条町字王子原939","source":"厚生労働省 食品衛生申請等システム（オープンデータ）","municipality_code":"10421","municipality_pref":"群馬県","municipality_name":"中之条町","municipality_code_method":"food_exact_coord"},"geometry":{"type":"Point","coordinates":[138.840652,36.584893]}},{"type":"Feature","properties":{"layer_id":"cafe_restaurant","name":"焼肉集い","category":"food","address":"群馬県吾妻郡中之条町伊勢町1093番地3","source":"厚生労働省 食品衛生申請等システム（オープンデータ）","municipality_code":"10421","municipality_pref":"群馬県","municipality_name":"中之条町","municipality_code_method":"food_exact_coord"},"geometry":{"type":"Point","coordinates":[138.849301,36.590824]}},{"type":"Feature","properties":{"layer_id":"cafe_restaurant","name":"美郷館","category":"food","address":"群馬県吾妻郡中之条町大字上沢渡1521-2他4筆","source":"厚生労働省 食品衛生申請等システム（オープンデータ）","municipality_code":"10421","municipality_pref":"群馬県","municipality_name":"中之条町","municipality_code_method":"food_exact_coord"},"geometry":{"type":"Point","coordinates":[138.746733,36.645681]}},{"type":"Feature","properties":{"layer_id":"cafe_restaurant","name":"有限会社　オリーヴ","category":"food","address":"群馬県吾妻郡中之条町大字伊勢町21-1","source":"厚生労働省 食品衛生申請等システム（オープンデータ）","municipality_code":"10421","municipality_pref":"群馬県","municipality_name":"中之条町","municipality_code_method":"food_exact_coord"},"geometry":{"type":"Point","coordinates":[138.853227,36.58268]}},{"type":"Feature","properties":{"layer_id":"cafe_restaurant","name":"カフェ・ビスケット","category":"food","address":"群馬県吾妻郡中之条町大字西中之条114-1","source":"厚生労働省 食品衛生申請等システム（オープンデータ）","municipality_code":"10421","municipality_pref":"群馬県","municipality_name":"中之条町","municipality_code_method":"food_exact_coord"},"geometry":{"type":"Point","coordinates":[138.829136,36.588772]}},{"type":"Feature","properties":{"layer_id":"cafe_restaurant","name":"宮田屋旅館","category":"food","address":"群馬県吾妻郡中之条町大字上沢渡字湯2163-3","source":"厚生労働省 食品衛生申請等システム（オープンデータ）","municipality_code":"10421","municipality_pref":"群馬県","municipality_name":"中之条町","municipality_code_method":"food_exact_coord"},"geometry":{"type":"Point","coordinates":[138.739224,36.627602]}},{"type":"Feature","properties":{"layer_id":"cafe_restaurant","name":"旅館やまびこ","category":"food","address":"群馬県吾妻郡中之条町大字西中之条187","source":"厚生労働省 食品衛生申請等システム（オープンデータ）","municipality_code":"10421","municipality_pref":"群馬県","municipality_name":"中之条町","municipality_code_method":"food_exact_coord"},"geometry":{"type":"Point","coordinates":[138.833266,36.588812]}},{"type":"Feature","properties":{"layer_id":"cafe_restaurant","name":"ＫＩＴＣＨＥＮ　ＳＴＵＤＩＯ　山乃気","category":"food","address":"群馬県吾妻郡中之条町大字伊勢町5-6","source":"厚生労働省 食品衛生申請等システム（オープンデータ）","municipality_code":"10421","municipality_pref":"群馬県","municipality_name":"中之条町","municipality_code_method":"food_exact_coord"},"geometry":{"type":"Point","coordinates":[138.850473,36.581975]}},{"type":"Feature","properties":{"layer_id":"cafe_restaurant","name":"太陽誘電株式会社社員食堂","category":"food","address":"群馬県吾妻郡中之条町大字中之条町1988","source":"厚生労働省 食品衛生申請等システム（オープンデータ）","municipality_code":"10421","municipality_pref":"群馬県","municipality_name":"中之条町","municipality_code_method":"food_exact_coord"},"geometry":{"type":"Point","coordinates":[138.843067,36.58406]}},{"type":"Feature","properties":{"layer_id":"cafe_restaurant","name":"有限会社吾妻弁当","category":"food","address":"群馬県吾妻郡中之条町横尾字七日市1368-1","source":"厚生労働省 食品衛生申請等システム（オープンデータ）","municipality_code":"10421","municipality_pref":"群馬県","municipality_name":"中之条町","municipality_code_method":"food_exact_coord"},"geometry":{"type":"Point","coordinates":[138.857349,36.602872]}},{"type":"Feature","properties":{"layer_id":"cafe_restaurant","name":"ローソン西中之条店","category":"food","address":"群馬県吾妻郡中之条町大字西中之条113-3","source":"厚生労働省 食品衛生申請等システム（オープンデータ）","municipality_code":"10421","municipality_pref":"群馬県","municipality_name":"中之条町","municipality_code_method":"food_exact_coord"},"geometry":{"type":"Point","coordinates":[138.829385,36.588728]}},{"type":"Feature","properties":{"layer_id":"cafe_restaurant","name":"ニューサイトウ","category":"food","address":"群馬県吾妻郡中之条町大字伊勢町819-9","source":"厚生労働省 食品衛生申請等システム（オープンデータ）","municipality_code":"10421","municipality_pref":"群馬県","municipality_name":"中之条町","municipality_code_method":"food_exact_coord"},"geometry":{"type":"Point","coordinates":[138.850479,36.58564]}},{"type":"Feature","properties":{"layer_id":"cafe_restaurant","name":"クニッコハウス","category":"food","address":"群馬県吾妻郡中之条町大字小雨29","source":"厚生労働省 食品衛生申請等システム（オープンデータ）","municipality_code":"10421","municipality_pref":"群馬県","municipality_name":"中之条町","municipality_code_method":"food_exact_coord"},"geometry":{"type":"Point","coordinates":[138.638516,36.607563]}},{"type":"Feature","properties":{"layer_id":"cafe_restaurant","name":"ボン・ボヤージュ","category":"food","address":"群馬県吾妻郡中之条町大字伊勢町815-4","source":"厚生労働省 食品衛生申請等システム（オープンデータ）","municipality_code":"10421","municipality_pref":"群馬県","municipality_name":"中之条町","municipality_code_method":"food_exact_coord"},"geometry":{"type":"Point","coordinates":[138.850893,36.585573]}},{"type":"Feature","properties":{"layer_id":"cafe_restaurant","name":"十色","category":"food","address":"群馬県吾妻郡中之条町赤岩1369-42","source":"厚生労働省 食品衛生申請等システム（オープンデータ）","municipality_code":"10421","municipality_pref":"群馬県","municipality_name":"中之条町","municipality_code_method":"food_exact_coord"},"geometry":{"type":"Point","coordinates":[138.653217,36.596102]}},{"type":"Feature","properties":{"layer_id":"cafe_restaurant","name":"萃点","category":"food","address":"群馬県吾妻郡中之条町赤岩301","source":"厚生労働省 食品衛生申請等システム（オープンデータ）","municipality_code":"10421","municipality_pref":"群馬県","municipality_name":"中之条町","municipality_code_method":"food_exact_coord"},"geometry":{"type":"Point","coordinates":[138.628139,36.575085]}},{"type":"Feature","properties":{"layer_id":"cafe_restaurant","name":"野反湖キャンプ場ビジターセンター","category":"food","address":"群馬県吾妻郡中之条町大字入山字入山国有林224ｲ1林小班","source":"厚生労働省 食品衛生申請等システム（オープンデータ）","municipality_code":"10421","municipality_pref":"群馬県","municipality_name":"中之条町","municipality_code_method":"food_exact_coord"},"geometry":{"type":"Point","coordinates":[138.65894,36.665718]}},{"type":"Feature","properties":{"layer_id":"cafe_restaurant","name":"cafe KURESAKA（暮坂牧水茶屋）","category":"food","address":"群馬県吾妻郡中之条町大字入山国有林105林班","source":"厚生労働省 食品衛生申請等システム（オープンデータ）","municipality_code":"10421","municipality_pref":"群馬県","municipality_name":"中之条町","municipality_code_method":"food_exact_coord"},"geometry":{"type":"Point","coordinates":[138.65894,36.665718]}},{"type":"Feature","properties":{"layer_id":"cafe_restaurant","name":"有限会社  三国園","category":"food","address":"群馬県吾妻郡中之条町大字四万4362","source":"厚生労働省 食品衛生申請等システム（オープンデータ）","municipality_code":"10421","municipality_pref":"群馬県","municipality_name":"中之条町","municipality_code_method":"food_exact_coord"},"geometry":{"type":"Point","coordinates":[138.775768,36.695162]}},{"type":"Feature","properties":{"layer_id":"cafe_restaurant","name":"山水荘  もりや","category":"food","address":"群馬県吾妻郡中之条町大字上沢渡2346-8","source":"厚生労働省 食品衛生申請等システム（オープンデータ）","municipality_code":"10421","municipality_pref":"群馬県","municipality_name":"中之条町","municipality_code_method":"food_exact_coord"},"geometry":{"type":"Point","coordinates":[138.763817,36.621376]}},{"type":"Feature","properties":{"layer_id":"cafe_restaurant","name":"カネイチ　ハナレ","category":"food","address":"群馬県吾妻郡中之条町大字四万4143","source":"厚生労働省 食品衛生申請等システム（オープンデータ）","municipality_code":"10421","municipality_pref":"群馬県","municipality_name":"中之条町","municipality_code_method":"food_exact_coord"},"geometry":{"type":"Point","coordinates":[138.775209,36.686508]}},{"type":"Feature","properties":{"layer_id":"cafe_restaurant","name":"寿し禄","category":"food","address":"群馬県吾妻郡中之条町大字横尾1460","source":"厚生労働省 食品衛生申請等システム（オープンデータ）","municipality_code":"10421","municipality_pref":"群馬県","municipality_name":"中之条町","municipality_code_method":"food_exact_coord"},"geometry":{"type":"Point","coordinates":[138.86364,36.597166]}},{"type":"Feature","properties":{"layer_id":"cafe_restaurant","name":"寿司光","category":"food","address":"群馬県吾妻郡中之条町大字中之条町1831-3","source":"厚生労働省 食品衛生申請等システム（オープンデータ）","municipality_code":"10421","municipality_pref":"群馬県","municipality_name":"中之条町","municipality_code_method":"food_exact_coord"},"geometry":{"type":"Point","coordinates":[138.843121,36.586766]}},{"type":"Feature","properties":{"layer_id":"cafe_restaurant","name":"えいた","category":"food","address":"群馬県吾妻郡中之条町大字西中之条79-3","source":"厚生労働省 食品衛生申請等システム（オープンデータ）","municipality_code":"10421","municipality_pref":"群馬県","municipality_name":"中之条町","municipality_code_method":"food_exact_coord"},"geometry":{"type":"Point","coordinates":[138.832195,36.59685]}},{"type":"Feature","properties":{"layer_id":"cafe_restaurant","name":"鈴　蘭","category":"food","address":"群馬県吾妻郡中之条町中之条町966","source":"厚生労働省 食品衛生申請等システム（オープンデータ）","municipality_code":"10421","municipality_pref":"群馬県","municipality_name":"中之条町","municipality_code_method":"food_exact_coord"},"geometry":{"type":"Point","coordinates":[138.841997,36.588419]}},{"type":"Feature","properties":{"layer_id":"cafe_restaurant","name":"山上屋旅館","category":"food","address":"群馬県吾妻郡中之条町大字中之条町912-3","source":"厚生労働省 食品衛生申請等システム（オープンデータ）","municipality_code":"10421","municipality_pref":"群馬県","municipality_name":"中之条町","municipality_code_method":"food_exact_coord"},"geometry":{"type":"Point","coordinates":[138.840664,36.588034]}},{"type":"Feature","properties":{"layer_id":"cafe_restaurant","name":"ふうらい坊","category":"food","address":"群馬県吾妻郡中之条町大字西中之条1838-6","source":"厚生労働省 食品衛生申請等システム（オープンデータ）","municipality_code":"10421","municipality_pref":"群馬県","municipality_name":"中之条町","municipality_code_method":"food_exact_coord"},"geometry":{"type":"Point","coordinates":[138.840969,36.593346]}},{"type":"Feature","properties":{"layer_id":"cafe_restaurant","name":"野のや","category":"food","address":"群馬県吾妻郡中之条町大字入山1899-3","source":"厚生労働省 食品衛生申請等システム（オープンデータ）","municipality_code":"10421","municipality_pref":"群馬県","municipality_name":"中之条町","municipality_code_method":"food_exact_coord"},"geometry":{"type":"Point","coordinates":[138.65007,36.642616]}},{"type":"Feature","properties":{"layer_id":"cafe_restaurant","name":"宿くじら屋","category":"food","address":"群馬県吾妻郡中之条町大字入山1996","source":"厚生労働省 食品衛生申請等システム（オープンデータ）","municipality_code":"10421","municipality_pref":"群馬県","municipality_name":"中之条町","municipality_code_method":"food_exact_coord"},"geometry":{"type":"Point","coordinates":[138.650752,36.64046]}},{"type":"Feature","properties":{"layer_id":"cafe_restaurant","name":"梅松食堂","category":"food","address":"群馬県吾妻郡中之条町大字伊勢町955-1","source":"厚生労働省 食品衛生申請等システム（オープンデータ）","municipality_code":"10421","municipality_pref":"群馬県","municipality_name":"中之条町","municipality_code_method":"food_exact_coord"},"geometry":{"type":"Point","coordinates":[138.852203,36.587241]}},{"type":"Feature","properties":{"layer_id":"cafe_restaurant","name":"あがつまメモワール","category":"food","address":"群馬県吾妻郡中之条町大字伊勢町4-3","source":"厚生労働省 食品衛生申請等システム（オープンデータ）","municipality_code":"10421","municipality_pref":"群馬県","municipality_name":"中之条町","municipality_code_method":"food_exact_coord"},"geometry":{"type":"Point","coordinates":[138.849184,36.582446]}},{"type":"Feature","properties":{"layer_id":"cafe_restaurant","name":"和食　光駕","category":"food","address":"群馬県吾妻郡中之条町大字伊勢町17-4","source":"厚生労働省 食品衛生申請等システム（オープンデータ）","municipality_code":"10421","municipality_pref":"群馬県","municipality_name":"中之条町","municipality_code_method":"food_exact_coord"},"geometry":{"type":"Point","coordinates":[138.852116,36.582056]}},{"type":"Feature","properties":{"layer_id":"cafe_restaurant","name":"夜光船","category":"food","address":"群馬県吾妻郡中之条町中之条町938 （中之条町ふるさと交流センターつむじ内）","source":"厚生労働省 食品衛生申請等システム（オープンデータ）","municipality_code":"10421","municipality_pref":"群馬県","municipality_name":"中之条町","municipality_code_method":"food_exact_coord"},"geometry":{"type":"Point","coordinates":[138.841997,36.588419]}},{"type":"Feature","properties":{"layer_id":"cafe_restaurant","name":"楽酔","category":"food","address":"群馬県吾妻郡中之条町伊勢町853-3","source":"厚生労働省 食品衛生申請等システム（オープンデータ）","municipality_code":"10421","municipality_pref":"群馬県","municipality_name":"中之条町","municipality_code_method":"food_exact_coord"},"geometry":{"type":"Point","coordinates":[138.850966,36.586461]}},{"type":"Feature","properties":{"layer_id":"cafe_restaurant","name":"ともえや","category":"food","address":"群馬県吾妻郡中之条町上沢渡2179","source":"厚生労働省 食品衛生申請等システム（オープンデータ）","municipality_code":"10421","municipality_pref":"群馬県","municipality_name":"中之条町","municipality_code_method":"food_exact_coord"},"geometry":{"type":"Point","coordinates":[138.765804,36.623745]}},{"type":"Feature","properties":{"layer_id":"cafe_restaurant","name":"開善学校　日本フーズ食堂","category":"food","address":"群馬県吾妻郡中之条町入山1-1","source":"厚生労働省 食品衛生申請等システム（オープンデータ）","municipality_code":"10421","municipality_pref":"群馬県","municipality_name":"中之条町","municipality_code_method":"food_exact_coord"},"geometry":{"type":"Point","coordinates":[138.612978,36.663374]}},{"type":"Feature","properties":{"layer_id":"cafe_restaurant","name":"はこけん　道の駅霊山たけやま店","category":"food","address":"群馬県吾妻郡中之条町大字五反田222-1","source":"厚生労働省 食品衛生申請等システム（オープンデータ）","municipality_code":"10421","municipality_pref":"群馬県","municipality_name":"中之条町","municipality_code_method":"food_exact_coord"},"geometry":{"type":"Point","coordinates":[138.830007,36.609109]}},{"type":"Feature","properties":{"layer_id":"cafe_restaurant","name":"株式会社BUILD　四万ベース","category":"food","address":"群馬県吾妻郡中之条町四万君ノ尾663-2","source":"厚生労働省 食品衛生申請等システム（オープンデータ）","municipality_code":"10421","municipality_pref":"群馬県","municipality_name":"中之条町","municipality_code_method":"food_exact_coord"},"geometry":{"type":"Point","coordinates":[138.774327,36.686376]}},{"type":"Feature","properties":{"layer_id":"cafe_restaurant","name":"JiJi CAFE","category":"food","address":"群馬県吾妻郡中之条町四万312","source":"厚生労働省 食品衛生申請等システム（オープンデータ）","municipality_code":"10421","municipality_pref":"群馬県","municipality_name":"中之条町","municipality_code_method":"food_exact_coord"},"geometry":{"type":"Point","coordinates":[138.774327,36.686376]}},{"type":"Feature","properties":{"layer_id":"cafe_restaurant","name":"チャツボミゴケ公園やまゆう販売店","category":"food","address":"群馬県吾妻郡中之条町入山13-3","source":"厚生労働省 食品衛生申請等システム（オープンデータ）","municipality_code":"10421","municipality_pref":"群馬県","municipality_name":"中之条町","municipality_code_method":"food_exact_coord"},"geometry":{"type":"Point","coordinates":[138.590537,36.64919]}},{"type":"Feature","properties":{"layer_id":"cafe_restaurant","name":"たくちゃん","category":"food","address":"群馬県吾妻郡中之条町五反田231","source":"厚生労働省 食品衛生申請等システム（オープンデータ）","municipality_code":"10421","municipality_pref":"群馬県","municipality_name":"中之条町","municipality_code_method":"food_exact_coord"},"geometry":{"type":"Point","coordinates":[138.863898,36.631435]}},{"type":"Feature","properties":{"layer_id":"public_facilities","name":"総合体育館","category":"public","address":"中之条町大字中之条町1440","source":"国土交通省 国土数値情報","municipality_code":"10421","municipality_pref":"群馬県","municipality_name":"中之条町","municipality_code_method":"source_exact_coord"},"geometry":{"type":"Point","coordinates":[138.84942629793795,36.598796522619665]}},{"type":"Feature","properties":{"layer_id":"public_facilities","name":"中之条町体育センター","category":"public","address":"中之条町西中之条135","source":"国土交通省 国土数値情報","municipality_code":"10421","municipality_pref":"群馬県","municipality_name":"中之条町","municipality_code_method":"source_exact_coord"},"geometry":{"type":"Point","coordinates":[138.82892324059338,36.589645510945346]}},{"type":"Feature","properties":{"layer_id":"public_facilities","name":"文化会館","category":"public","address":"中之条町西中之条135","source":"国土交通省 国土数値情報","municipality_code":"10421","municipality_pref":"群馬県","municipality_name":"中之条町","municipality_code_method":"source_exact_coord"},"geometry":{"type":"Point","coordinates":[138.8289332406117,36.58964551095201]}},{"type":"Feature","properties":{"layer_id":"public_facilities","name":"中之条町役場","category":"public","address":"中之条町大字中之条町1091","source":"国土交通省 国土数値情報","municipality_code":"10421","municipality_pref":"群馬県","municipality_name":"中之条町","municipality_code_method":"source_exact_coord"},"geometry":{"type":"Point","coordinates":[138.84108026259216,36.58984251949673]}},{"type":"Feature","properties":{"layer_id":"public_facilities","name":"バイテック文化ホール","category":"public","address":"中之条町大字西中之条135","source":"国土交通省 国土数値情報","municipality_code":"10421","municipality_pref":"群馬県","municipality_name":"中之条町","municipality_code_method":"source_exact_coord"},"geometry":{"type":"Point","coordinates":[138.8286313401079,36.58968528075074]}},{"type":"Feature","properties":{"layer_id":"public_facilities","name":"名久田公民館","category":"public","address":"中之条町赤坂164","source":"国土交通省 国土数値情報","municipality_code":"10421","municipality_pref":"群馬県","municipality_name":"中之条町","municipality_code_method":"source_exact_coord"},"geometry":{"type":"Point","coordinates":[138.87586542548212,36.60931551007377]}},{"type":"Feature","properties":{"layer_id":"public_facilities","name":"六合公民館","category":"public","address":"中之条町小雨577-1","source":"国土交通省 国土数値情報","municipality_code":"10421","municipality_pref":"群馬県","municipality_name":"中之条町","municipality_code_method":"source_exact_coord"},"geometry":{"type":"Point","coordinates":[138.62830970572088,36.59753844893699]}},{"type":"Feature","properties":{"layer_id":"public_facilities","name":"伊参公民館","category":"public","address":"中之条町五反田3534-23","source":"国土交通省 国土数値情報","municipality_code":"10421","municipality_pref":"群馬県","municipality_name":"中之条町","municipality_code_method":"source_exact_coord"},"geometry":{"type":"Point","coordinates":[138.8368993447308,36.62219650344277]}},{"type":"Feature","properties":{"layer_id":"public_facilities","name":"中之条町六合支所","category":"public","address":"中之条町小雨577-1","source":"国土交通省 国土数値情報","municipality_code":"10421","municipality_pref":"群馬県","municipality_name":"中之条町","municipality_code_method":"source_exact_coord"},"geometry":{"type":"Point","coordinates":[138.62838600608725,36.59758362900671]}},{"type":"Feature","properties":{"layer_id":"public_facilities","name":"六合体育館","category":"public","address":"中之条町生須543","source":"国土交通省 国土数値情報","municipality_code":"10421","municipality_pref":"群馬県","municipality_name":"中之条町","municipality_code_method":"source_exact_coord"},"geometry":{"type":"Point","coordinates":[138.63914676113015,36.60440345851773]}},{"type":"Feature","properties":{"layer_id":"public_facilities","name":"沢田公民館","category":"public","address":"中之条町下沢渡38-2","source":"国土交通省 国土数値情報","municipality_code":"10421","municipality_pref":"群馬県","municipality_name":"中之条町","municipality_code_method":"source_exact_coord"},"geometry":{"type":"Point","coordinates":[138.79585421471236,36.610090479980116]}},{"type":"Feature","properties":{"layer_id":"public_facilities","name":"東部火葬場なかのじょう聖苑","category":"public","address":"中之条町西中之条字宮沢1501-1","source":"国土交通省 国土数値情報","municipality_code":"10421","municipality_pref":"群馬県","municipality_name":"中之条町","municipality_code_method":"source_exact_coord"},"geometry":{"type":"Point","coordinates":[138.83065626965063,36.60259050845921]}},{"type":"Feature","properties":{"layer_id":"public_facilities","name":"四万老人福祉センター","category":"public","address":"中之条町四万4358-3","source":"国土交通省 国土数値情報","municipality_code":"10421","municipality_pref":"群馬県","municipality_name":"中之条町","municipality_code_method":"source_exact_coord"},"geometry":{"type":"Point","coordinates":[138.7764485421528,36.69459353641023]}},{"type":"Feature","properties":{"layer_id":"public_facilities","name":"中央公民館","category":"public","address":"中之条町伊勢町1005-1","source":"国土交通省 国土数値情報","municipality_code":"10421","municipality_pref":"群馬県","municipality_name":"中之条町","municipality_code_method":"source_exact_coord"},"geometry":{"type":"Point","coordinates":[138.8503492792554,36.589808526420526]}},{"type":"Feature","properties":{"layer_id":"public_facilities","name":"中之条公民館","category":"public","address":"中之条町伊勢町1334-3","source":"国土交通省 国土数値情報","municipality_code":"10421","municipality_pref":"群馬県","municipality_name":"中之条町","municipality_code_method":"source_exact_coord"},"geometry":{"type":"Point","coordinates":[138.85686230678226,36.58898452392316]}},{"type":"Feature","properties":{"layer_id":"public_facilities","name":"交流センターつむじ","category":"public","address":"中之条町大字中之条町938","source":"国土交通省 国土数値情報","municipality_code":"10421","municipality_pref":"群馬県","municipality_name":"中之条町","municipality_code_method":"source_exact_coord"},"geometry":{"type":"Point","coordinates":[138.84209426352,36.588582519991064]}},{"type":"Feature","properties":{"layer_id":"scenic_nature_areas","name":"中之条町","category":"nature","source":"国土交通省 国土数値情報","municipality_code":"10421","municipality_pref":"群馬県","municipality_name":"中之条町","municipality_code_method":"nearest_centroid"},"geometry":{"type":"Polygon","coordinates":[[[138.80238800905994,36.7167121110857],[138.80231085275636,36.71708088908717],[138.80190849567475,36.7177909446814],[138.80142898228976,36.71788744386285],[138.80112936004656,36.71801844243075],[138.800985480789,36.7183102316757],[138.80098371385066,36.718535437724256],[138.80115493858116,36.71878356077996],[138.80136040825764,36.719004121489306],[138.80150605445345,36.719507428516465],[138.80219953564662,36.72017610962216],[138.80272182781803,36.720899317958455],[138.8028594660767,36.7195206025198],[138.80276949944206,36.71909405525783],[138.80281989925217,36.71885578032142],[138.803232016564,36.71848582550069],[138.80238800905994,36.7167121110857]]]}},{"type":"Feature","properties":{"layer_id":"scenic_nature_areas","name":"中之条町","category":"nature","source":"国土交通省 国土数値情報","municipality_code":"10421","municipality_pref":"群馬県","municipality_name":"中之条町","municipality_code_method":"nearest_centroid"},"geometry":{"type":"Polygon","coordinates":[[[138.77662638593463,36.705716592996424],[138.7767362726658,36.70375241967075],[138.77693416974978,36.70263537041712],[138.777340817967,36.70220843276789],[138.77781343187883,36.7012086318779],[138.7774947098746,36.70079271916714],[138.77698928139517,36.69958945241646],[138.776692604049,36.69863387515647],[138.77646180825764,36.69641965870139],[138.77662663835432,36.69648159655854],[138.7769317296922,36.69593524272073],[138.77753879919095,36.696154316921465],[138.77884650177575,36.6961277455807],[138.7799454532273,36.69630476397646],[138.78015832721655,36.69618633879355],[138.78016657292832,36.695998357397144],[138.7800702327238,36.6958723138579],[138.77996177637118,36.69573790870787],[138.77971978997084,36.695502730664245],[138.77941941046834,36.69526761455855],[138.7791170116079,36.69513494366855],[138.77869976176112,36.695020668322115],[138.77832432945294,36.694933335943546],[138.77795705871674,36.69485269285356],[138.77738961911865,36.69476034350859],[138.77736462956344,36.694478216569266],[138.77728949261788,36.69437063051143],[138.77720552098106,36.694294880512174],[138.77749714993226,36.69424179976855],[138.7777217193698,36.6942238997279],[138.77791936403406,36.694253815712884],[138.7781079215872,36.69436765749431],[138.77826071967596,36.69460116321573],[138.77839542768248,36.69470298905283],[138.7785301356891,36.69476889093286],[138.7788985002443,36.69477489890503],[138.77941049163715,36.694798806917845],[138.77971591953462,36.69478679097361],[138.7799153311372,36.694796639092814],[138.78007713219696,36.69486991157787],[138.78031423848205,36.695004874168575],[138.78051659498163,36.69514751705354],[138.7806671212926,36.69532484513856],[138.78085778234373,36.695428962676445],[138.78103716864607,36.69552533798213],[138.78147579003166,36.69564785106359],[138.78160763728116,36.69545318037859],[138.7830582935843,36.69474535454714],[138.78290440167675,36.69457725520283],[138.7819702803219,36.69406410005645],[138.7818603935907,36.693895938774304],[138.7833220722231,36.691956107026456],[138.7830473553952,36.69173486500068],[138.78244769020907,36.69171231962072],[138.7831155087277,36.69155375870646],[138.7837790361105,36.6915641023286],[138.78424138495257,36.69173653732288],[138.78478997720924,36.69170426769928],[138.7850768101851,36.69164573642426],[138.78522607439723,36.691571039368604],[138.7859522860181,36.6911717879414],[138.78961346621205,36.691254970483584],[138.79246379002902,36.69070044084857],[138.79209004051918,36.69055885090711],[138.79156399776014,36.68931284703503],[138.79002558352389,36.68805420784004],[138.7894870039173,36.68741717697926],[138.7891039148767,36.68707286443146],[138.78893757026145,36.68669163692074],[138.7887617178356,36.686443823554285],[138.78853925189597,36.68617619007358],[138.7883194784336,36.68569840144359],[138.78820967584232,36.685264836443594],[138.78812166548954,36.6847340290079],[138.7876463591002,36.68382044561496],[138.78731678304663,36.68296217272861],[138.78719595812635,36.6823959368386],[138.78703104388967,36.68186506746498],[138.78660251929412,36.68123689371784],[138.7861739105586,36.680980285175686],[138.78593217657803,36.680688310117155],[138.78563541509197,36.680440496750705],[138.78520689049634,36.68024588800354],[138.78532771541666,36.679942826068526],[138.7861299053822,36.68001368297713],[138.7862617526316,36.680181720383615],[138.78906403255624,36.680668490002894],[138.78888834841015,36.68008447794782],[138.78729482252842,36.67940099369427],[138.78714101476075,36.679179813606424],[138.78685527560378,36.67914438515213],[138.7868442532747,36.67882590069074],[138.78655851411773,36.678763900895675],[138.78623979211338,36.678763900895675],[138.78555851120802,36.6785780873243],[138.78465745684053,36.678445416434286],[138.78409700085564,36.67851614946714],[138.78358669226094,36.678547861649974],[138.78359199307576,36.67839134468498],[138.78353351583368,36.67823687166927],[138.78339165593422,36.67796137208071],[138.7828995215616,36.6770543541007],[138.78268252471656,36.676624381496424],[138.7826492053095,36.67653035982926],[138.7826492053095,36.67640945713216],[138.78268260885645,36.67626161146711],[138.78274091781873,36.67616765173787],[138.7836093258985,36.67680294833853],[138.78382918350084,36.67680951375146],[138.78447201246422,36.67716125884212],[138.7849617067792,36.6769843643221],[138.78505787870392,36.676805178101404],[138.78418644158705,36.676206362898554],[138.7845130727435,36.67590144282785],[138.78463616944157,36.675825878642186],[138.78473629594245,36.67578890174144],[138.78500966653172,36.67570491400716],[138.78507209834984,36.67566124781783],[138.78527226721158,36.67539026969283],[138.78533478316962,36.675323624558615],[138.78560975241732,36.67514865011213],[138.78568472108302,36.675082004977824],[138.7859108891791,36.67485679892926],[138.78597963149102,36.674806381513605],[138.78605056144073,36.674761043002164],[138.78611736853463,36.67474085126073],[138.78624248459073,36.67473081732784],[138.78654496759108,36.67472072145713],[138.78659915369744,36.674707280942116],[138.78661690721992,36.67469421205428],[138.78608127251033,36.674411837363536],[138.78576524298327,36.67438303625999],[138.78529490084924,36.67413373638502],[138.78533091273354,36.67406733900215],[138.78535379879085,36.67396148720432],[138.78535379879085,36.673798590640004],[138.78531635652797,36.673650806912875],[138.7852579634258,36.67352990421569],[138.78509069327146,36.67337611251641],[138.78444576081023,36.673594505400715],[138.78426385031042,36.67468708920068],[138.7837912363984,36.67489061699929],[138.78316498299858,36.675049797292154],[138.78263750986108,36.67473125089285],[138.78206535842781,36.67468634594643],[138.78197541285684,36.67477182018931],[138.7817418404482,36.67506069835496],[138.78155824715006,36.67545703870289],[138.78145812064918,36.675739289517864],[138.7814247171023,36.67600122471576],[138.78134427934188,36.67698758509073],[138.78146510426225,36.67785465315288],[138.7816849618645,36.67865984529571],[138.78168218524726,36.67896228785213],[138.78144743487977,36.67921425105497],[138.78138609688054,36.67926262452144],[138.78108874641504,36.67949650187004],[138.78063817716134,36.67973161797573],[138.77936135392582,36.68054449041283],[138.77911734816757,36.68071234200572],[138.77892542501766,36.68085343644425],[138.77811810251725,36.68152527638074],[138.77791784951543,36.68166630888144],[138.77694780041625,36.68225248876145],[138.7767475474146,36.6823868939114],[138.77628856416922,36.682803426000746],[138.77613829027803,36.68289738572999],[138.7759798548149,36.68297133953139],[138.7758004685126,36.68304907154217],[138.77493180801284,36.68242659607784],[138.7734290691013,36.68252829803927],[138.77308847071865,36.68270525449711],[138.7727367658669,36.682820211159964],[138.77165985907357,36.68294408687427],[138.77140710276382,36.68298837244211],[138.77133011474012,36.68314761467289],[138.77135207525833,36.6832360619329],[138.77190150891414,36.68402360178641],[138.77142889500223,36.68504111690355],[138.7709784098885,36.68555433398784],[138.7703849710562,36.68542153922217],[138.77078059694435,36.68500568844933],[138.77062670503676,36.68447481907572],[138.7702751684649,36.68436865758856],[138.76974752704743,36.6843155149071],[138.7690992289896,36.68443053350788],[138.7685168124864,36.68458098056287],[138.7679232895143,36.6848287319914],[138.76756073061335,36.68512950222572],[138.76719808757252,36.68566037159924],[138.76676947883706,36.68647435891786],[138.7673299348219,36.68678411014146],[138.7672969519746,36.687828196599284],[138.76634070182166,36.68814661912283],[138.76692682048122,36.688336644468606],[138.76665319747218,36.68846398870288],[138.76650326014067,36.68851917533361],[138.76611823588203,36.6901529101914],[138.76694238636583,36.69053339444786],[138.76686556662182,36.69075463647354],[138.76696443102392,36.690887245425714],[138.76787381524332,36.691048779357104],[138.76715946735084,36.69165930081502],[138.766621056024,36.69194241876002],[138.7648956828928,36.69236706470856],[138.76443409131008,36.692844853338556],[138.76393968515973,36.693464169972174],[138.763763748594,36.69384459229071],[138.76325832011455,36.694525846781396],[138.7627390085489,36.695636206746435],[138.76142028363492,36.69686604483789],[138.76122247069083,36.69729075272426],[138.7615411085553,36.6988302801014],[138.7608816198884,36.69948502518932],[138.7604200283056,36.70003354685217],[138.75932107685406,36.70194247160928],[138.7617331999851,36.7019513287229],[138.76257939512695,36.70211063289142],[138.76441457084934,36.70215491845926],[138.7648101967375,36.7046412898586],[138.76505193071813,36.70542870583645],[138.7647001417265,36.706074593810754],[138.76445840774585,36.70616310300859],[138.76436231996104,36.70650146952215],[138.76598866041036,36.70739517086282],[138.76701752331138,36.707338807412825],[138.76641912022401,36.70641952573715],[138.76681659719037,36.70624857725147],[138.76710435570536,36.70598868600287],[138.7671344777955,36.70566908665997],[138.76982670270908,36.707474946822884],[138.77103545675192,36.707474946822884],[138.77149704833474,36.70773155536503],[138.7732689508399,36.709264455391406],[138.77606584580974,36.710321796550744],[138.7769010186226,36.70917161054359],[138.77712087622479,36.70868279697504],[138.77716479726135,36.70825815102641],[138.77710993803566,36.70782452408859],[138.7769120409517,36.707293654714974],[138.77662638593463,36.705716592996424]]]}},{"type":"Feature","properties":{"layer_id":"cultural_facilities","name":"中之条町総合運動場","category":"public","address":"中之条町1440","source":"国土交通省 国土数値情報","municipality_code":"10421","municipality_pref":"群馬県","municipality_name":"中之条町","municipality_code_method":"address_city"},"geometry":{"type":"Point","coordinates":[138.849605,36.599096]}},{"type":"Feature","properties":{"layer_id":"cultural_facilities","name":"中之条町総合運動場","category":"public","address":"中之条町1440","source":"国土交通省 国土数値情報","municipality_code":"10421","municipality_pref":"群馬県","municipality_name":"中之条町","municipality_code_method":"address_city"},"geometry":{"type":"Point","coordinates":[138.849106,36.598246]}},{"type":"Feature","properties":{"layer_id":"cultural_facilities","name":"沢渡温泉アウトドアパーク","category":"public","address":"上沢渡","source":"国土交通省 国土数値情報","municipality_code":"10421","municipality_pref":"群馬県","municipality_name":"中之条町","municipality_code_method":"nearest_centroid"},"geometry":{"type":"Point","coordinates":[138.750254,36.617323]}},{"type":"Feature","properties":{"layer_id":"cultural_facilities","name":"中之条町山村広場小原崎テニスコート","category":"public","address":"中之条町1395-17","source":"国土交通省 国土数値情報","municipality_code":"10421","municipality_pref":"群馬県","municipality_name":"中之条町","municipality_code_method":"address_city"},"geometry":{"type":"Point","coordinates":[138.847886,36.599897]}},{"type":"Feature","properties":{"layer_id":"cultural_facilities","name":"中之条町総合運動場","category":"public","address":"中之条町1440","source":"国土交通省 国土数値情報","municipality_code":"10421","municipality_pref":"群馬県","municipality_name":"中之条町","municipality_code_method":"address_city"},"geometry":{"type":"Point","coordinates":[138.849629,36.59921]}},{"type":"Feature","properties":{"layer_id":"cultural_facilities","name":"中之条町総合運動場","category":"public","address":"中之条町1440","source":"国土交通省 国土数値情報","municipality_code":"10421","municipality_pref":"群馬県","municipality_name":"中之条町","municipality_code_method":"address_city"},"geometry":{"type":"Point","coordinates":[138.84957,36.598981]}},{"type":"Feature","properties":{"layer_id":"cultural_facilities","name":"中之条町総合運動場","category":"public","address":"中之条町1440","source":"国土交通省 国土数値情報","municipality_code":"10421","municipality_pref":"群馬県","municipality_name":"中之条町","municipality_code_method":"address_city"},"geometry":{"type":"Point","coordinates":[138.848132,36.599439]}},{"type":"Feature","properties":{"layer_id":"cultural_facilities","name":"中之条町弓道場","category":"public","address":"中之条町中之条1440","source":"国土交通省 国土数値情報","municipality_code":"10421","municipality_pref":"群馬県","municipality_name":"中之条町","municipality_code_method":"address_city"},"geometry":{"type":"Point","coordinates":[138.850301,36.598759]}},{"type":"Feature","properties":{"layer_id":"cultural_facilities","name":"中之条町四万野外スポーツ林","category":"public","address":"四万","source":"国土交通省 国土数値情報","municipality_code":"10421","municipality_pref":"群馬県","municipality_name":"中之条町","municipality_code_method":"nearest_centroid"},"geometry":{"type":"Point","coordinates":[138.762134,36.686165]}},{"type":"Feature","properties":{"layer_id":"cultural_facilities","name":"中之条町四万野外スポーツ林","category":"public","address":"四万","source":"国土交通省 国土数値情報","municipality_code":"10421","municipality_pref":"群馬県","municipality_name":"中之条町","municipality_code_method":"nearest_centroid"},"geometry":{"type":"Point","coordinates":[138.763156,36.68646]}},{"type":"Feature","properties":{"layer_id":"cultural_facilities","name":"中之条町ふれあい町民プール","category":"public","address":"中之条町2120-1","source":"国土交通省 国土数値情報","municipality_code":"10421","municipality_pref":"群馬県","municipality_name":"中之条町","municipality_code_method":"address_city"},"geometry":{"type":"Point","coordinates":[138.844308,36.594009]}},{"type":"Feature","properties":{"layer_id":"tourism_resources","name":"小泉の滝","category":"nature","address":"河川景観 / 滝","source":"国土交通省 国土数値情報","municipality_code":"10421","municipality_pref":"群馬県","municipality_name":"中之条町","municipality_code_method":"nearest_centroid","resource_code":"610"},"geometry":{"type":"Point","coordinates":[138.77435302734375,36.69420623779297]}},{"type":"Feature","properties":{"layer_id":"tourism_resources","name":"蟻川岳","category":"nature","address":"山地（非火山性）景観 / 非火山性弧峰","source":"国土交通省 国土数値情報","municipality_code":"10421","municipality_pref":"群馬県","municipality_name":"中之条町","municipality_code_method":"nearest_centroid","resource_code":"205"},"geometry":{"type":"Point","coordinates":[138.85125732421875,36.633907318115234]}},{"type":"Feature","properties":{"layer_id":"tourism_resources","name":"不納山","category":"nature","address":"山地（非火山性）景観 / 非火山性弧峰","source":"国土交通省 国土数値情報","municipality_code":"10421","municipality_pref":"群馬県","municipality_name":"中之条町","municipality_code_method":"nearest_centroid","resource_code":"205"},"geometry":{"type":"Point","coordinates":[138.80116271972656,36.69005584716797]}},{"type":"Feature","properties":{"layer_id":"tourism_resources","name":"ガマ石の滝","category":"nature","address":"河川景観 / 滝","source":"国土交通省 国土数値情報","municipality_code":"10421","municipality_pref":"群馬県","municipality_name":"中之条町","municipality_code_method":"nearest_centroid","resource_code":"610"},"geometry":{"type":"Point","coordinates":[138.76040649414062,36.689205169677734]}},{"type":"Feature","properties":{"layer_id":"tourism_resources","name":"崇山","category":"nature","address":"山地（非火山性）景観 / 非火山性弧峰","source":"国土交通省 国土数値情報","municipality_code":"10421","municipality_pref":"群馬県","municipality_name":"中之条町","municipality_code_method":"nearest_centroid","resource_code":"205"},"geometry":{"type":"Point","coordinates":[138.8310089111328,36.61394500732422]}},{"type":"Feature","properties":{"layer_id":"tourism_resources","name":"有笠山","category":"nature","address":"山地（非火山性）景観 / 非火山性弧峰","source":"国土交通省 国土数値情報","municipality_code":"10421","municipality_pref":"群馬県","municipality_name":"中之条町","municipality_code_method":"nearest_centroid","resource_code":"205"},"geometry":{"type":"Point","coordinates":[138.7464599609375,36.61240005493164]}},{"type":"Feature","properties":{"layer_id":"tourism_resources","name":"四万の甌穴群","category":"nature","address":"河川景観 / 河川 甌穴群","source":"国土交通省 国土数値情報","municipality_code":"10421","municipality_pref":"群馬県","municipality_name":"中之条町","municipality_code_method":"nearest_centroid","resource_code":"609"},"geometry":{"type":"Point","coordinates":[138.79324340820312,36.66525650024414]}},{"type":"Feature","properties":{"layer_id":"tourism_resources","name":"嘉満ヶ淵","category":"nature","address":"河川景観 / 峡谷・渓谷","source":"国土交通省 国土数値情報","municipality_code":"10421","municipality_pref":"群馬県","municipality_name":"中之条町","municipality_code_method":"nearest_centroid","resource_code":"601"},"geometry":{"type":"Point","coordinates":[138.78721618652344,36.671146392822266]}},{"type":"Feature","properties":{"layer_id":"tourism_resources","name":"小倉の滝","category":"nature","address":"河川景観 / 滝","source":"国土交通省 国土数値情報","municipality_code":"10421","municipality_pref":"群馬県","municipality_name":"中之条町","municipality_code_method":"nearest_centroid","resource_code":"610"},"geometry":{"type":"Point","coordinates":[138.75563049316406,36.6935920715332]}},{"type":"Feature","properties":{"layer_id":"tourism_resources","name":"摩耶の滝","category":"nature","address":"河川景観 / 滝","source":"国土交通省 国土数値情報","municipality_code":"10421","municipality_pref":"群馬県","municipality_name":"中之条町","municipality_code_method":"nearest_centroid","resource_code":"610"},"geometry":{"type":"Point","coordinates":[138.76673889160156,36.7056999206543]}},{"type":"Feature","properties":{"layer_id":"tourism_resources","name":"薬師山","category":"nature","address":"山地（非火山性）景観 / 非火山性弧峰","source":"国土交通省 国土数値情報","municipality_code":"10421","municipality_pref":"群馬県","municipality_name":"中之条町","municipality_code_method":"nearest_centroid","resource_code":"205"},"geometry":{"type":"Point","coordinates":[138.7819061279297,36.57602310180664]}},{"type":"Feature","properties":{"layer_id":"tourism_resources","name":"高田山","category":"nature","address":"山地（非火山性）景観 / 非火山性弧峰","source":"国土交通省 国土数値情報","municipality_code":"10421","municipality_pref":"群馬県","municipality_name":"中之条町","municipality_code_method":"nearest_centroid","resource_code":"205"},"geometry":{"type":"Point","coordinates":[138.7776336669922,36.65103530883789]}},{"type":"Feature","properties":{"layer_id":"tourism_resources","name":"不動の滝","category":"nature","address":"河川景観 / 滝","source":"国土交通省 国土数値情報","municipality_code":"10421","municipality_pref":"群馬県","municipality_name":"中之条町","municipality_code_method":"nearest_centroid","resource_code":"610"},"geometry":{"type":"Point","coordinates":[138.7936248779297,36.6737174987793]}}],"display_comment_original":"中之条町周辺には、近世村の記憶として西中之条村、伊勢町、青山村などの旧村名が見える。 この地域には史跡や遺跡、寺社や信仰の場、城跡や陣屋跡に関わる場所が見え、嶽山城跡、有笠山遺跡、四万遺跡のような地点が探索の入口になる。 現地では史跡説明板、西中之条村、伊勢町ゆかりの旧境石標や村の歴史案内板が手がかりになりそうだ。さらに田・新田・用水の地名が多く、土地改良碑や用水記念碑が見つかる可能性がある。水辺の暮らしや堤防整備の歴史を示す案内板に加え、治水碑や河川改修の記念碑が狙い目になる。","story_enrichment":{"samurai_priority_people":[],"notable_people":["小渕恵三","伊能芳雄","小渕光平","小渕光平 (2代目)","小池善吉"],"honorary_citizens":[],"tourism_landmarks":["四万温泉（国民保養温泉地）","日向見薬師堂（重要文化財）","沢渡温泉","中之条町歴史と民俗の博物館「ミュゼ」","中之条ガーデンズ","中之条山の上庭園","離山句碑公園","中之条ダム（四万湖）"],"specialties":[],"food_culture":[],"historical_domains":[],"heian_place_names":[],"japan_search_support":[],"enrichment_sources":["https://ja.wikipedia.org/wiki/%E4%B8%AD%E4%B9%8B%E6%9D%A1%E7%94%BA","https://www.wikidata.org/wiki/Q313339","https://www.wikidata.org/wiki/Q11379716","https://www.wikidata.org/wiki/Q11462670","https://www.wikidata.org/wiki/Q11462671","https://www.wikidata.org/wiki/Q11462255","https://www.wikidata.org/wiki/Q11357517","https://www.wikidata.org/wiki/Q11655560","https://www.wikidata.org/wiki/Q11427423","https://jpsearch.go.jp/csearch/jps-cross?csid=jps-cross&keyword=%E5%B0%8F%E6%B8%95%E6%81%B5%E4%B8%89&keyword=%E4%B8%AD%E4%B9%8B%E6%9D%A1%E7%94%BA"],"enrichment_errors":[],"wikipedia_title":"中之条町","wikipedia_revision_id":"109669773","wikidata_qid":"Q967920","wikipedia_url":"https://ja.wikipedia.org/wiki/%E4%B8%AD%E4%B9%8B%E6%9D%A1%E7%94%BA","japan_search_query_url":"https://jpsearch.go.jp/csearch/jps-cross?csid=jps-cross&keyword=%E5%B0%8F%E6%B8%95%E6%81%B5%E4%B8%89&keyword=%E4%B8%AD%E4%B9%8B%E6%9D%A1%E7%94%BA","status":"wikipedia_ok"}}