{"type":"FeatureCollection","municipality_code":"11235","pref":"埼玉県","city":"富士見市","display_comment":"富士見市には、鶴馬村、勝瀬村、水子村など、近世の村々の記憶を伝える地名が残っています。 周辺には史跡や遺跡、古墳や貝塚、寺社や信仰の場にまつわる場所が点在し、「貝塚山遺跡」、「打越遺跡」、「南通遺跡・北通遺跡」などを起点に歩くと、地域の歴史がぐっと見えやすくなります。 現地では史跡説明板に加え、鶴馬村や勝瀬村にゆかりのある旧境石標、村の歴史を紹介する案内板にも注目してみてください。 川沿いや水辺では、その土地の暮らしや水との関わりを伝える歴史案内板が見つかるかもしれません。 ゆかりの人物では渋谷定輔に注目すると、地域に残る文化や時代背景をさらに深く知るきっかけになります。 「水子貝塚公園」や「難波田城公園」などの名所も、地域の物語を深掘りする絶好の入口です。","layer_counts":{"cafe_restaurant":35,"public_facilities":55,"cultural_facilities":11,"parks_playgrounds":24},"total_features":125,"features":[{"type":"Feature","properties":{"layer_id":"cafe_restaurant","name":"キッチンオリジン　みずほ台東口店","address":"埼玉県富士見市東みずほ台2-1-11","source":"厚生労働省 食品衛生申請等システム（オープンデータ）"},"geometry":{"type":"Point","coordinates":[139.551178,35.838837]}},{"type":"Feature","properties":{"layer_id":"cafe_restaurant","name":"れんげ食堂Toshu　みずほ台東口店","address":"埼玉県富士見市東みずほ台2-1-11","source":"厚生労働省 食品衛生申請等システム（オープンデータ）"},"geometry":{"type":"Point","coordinates":[139.551178,35.838837]}},{"type":"Feature","properties":{"layer_id":"cafe_restaurant","name":"ヤオコー　ららぽーと富士見店　(惣菜厨房)","address":"埼玉県富士見市山室一丁目1313番","source":"厚生労働省 食品衛生申請等システム（オープンデータ）"},"geometry":{"type":"Point","coordinates":[139.548685,35.85929]}},{"type":"Feature","properties":{"layer_id":"cafe_restaurant","name":"ヤオコー　富士見羽沢店　(惣菜厨房)","address":"埼玉県富士見市羽沢3-31-1","source":"厚生労働省 食品衛生申請等システム（オープンデータ）"},"geometry":{"type":"Point","coordinates":[139.543757,35.852099]}},{"type":"Feature","properties":{"layer_id":"cafe_restaurant","name":"三〇三　ららぽーと富士見店","address":"埼玉県富士見市山室１丁目１３１３","source":"厚生労働省 食品衛生申請等システム（オープンデータ）"},"geometry":{"type":"Point","coordinates":[139.548685,35.85929]}},{"type":"Feature","properties":{"layer_id":"cafe_restaurant","name":"ステーキガスト 鶴瀬店","address":"埼玉県富士見市羽沢２丁目１－４１","source":"厚生労働省 食品衛生申請等システム（オープンデータ）"},"geometry":{"type":"Point","coordinates":[139.53941,35.854556]}},{"type":"Feature","properties":{"layer_id":"cafe_restaurant","name":"紫音","address":"埼玉県富士見市西みずほ台２－１－４ 内野ビルＢ－１","source":"厚生労働省 食品衛生申請等システム（オープンデータ）"},"geometry":{"type":"Point","coordinates":[139.551407,35.837439]}},{"type":"Feature","properties":{"layer_id":"cafe_restaurant","name":"ゴディバクレープ ららぽーと富士見店","address":"埼玉県富士見市山室一丁目1313番 ららぽーと富士見　1階","source":"厚生労働省 食品衛生申請等システム（オープンデータ）"},"geometry":{"type":"Point","coordinates":[139.548685,35.85929]}},{"type":"Feature","properties":{"layer_id":"cafe_restaurant","name":"鳥貴族　みずほ台店","address":"埼玉県富士見市西みずほ台２－２－７ シュベールビル２階","source":"厚生労働省 食品衛生申請等システム（オープンデータ）"},"geometry":{"type":"Point","coordinates":[139.550523,35.837063]}},{"type":"Feature","properties":{"layer_id":"cafe_restaurant","name":"ミニストップ富士見鶴瀬東店","address":"埼玉県富士見市鶴瀬東１－２－２１","source":"厚生労働省 食品衛生申請等システム（オープンデータ）"},"geometry":{"type":"Point","coordinates":[139.540427,35.847734]}},{"type":"Feature","properties":{"layer_id":"cafe_restaurant","name":"セブンイレブン富士見南畑店","address":"埼玉県富士見市下南畑３４８－１","source":"厚生労働省 食品衛生申請等システム（オープンデータ）"},"geometry":{"type":"Point","coordinates":[139.562485,35.859339]}},{"type":"Feature","properties":{"layer_id":"cafe_restaurant","name":"ローストビーフ YOSHIMI","address":"埼玉県富士見市山室1-1313 ららぽーと富士見 1階19621","source":"厚生労働省 食品衛生申請等システム（オープンデータ）"},"geometry":{"type":"Point","coordinates":[139.54765,35.858228]}},{"type":"Feature","properties":{"layer_id":"cafe_restaurant","name":"ｍａｓａ´ｓ　ｆａｃｔｏｒｙ","address":"埼玉県富士見市鶴馬９８２","source":"厚生労働省 食品衛生申請等システム（オープンデータ）"},"geometry":{"type":"Point","coordinates":[139.536008,35.862947]}},{"type":"Feature","properties":{"layer_id":"cafe_restaurant","name":"株式会社東武ストア　みずほ台店　惣菜コーナー（２階直営）","address":"埼玉県富士見市東みずほ台２－２９－１","source":"厚生労働省 食品衛生申請等システム（オープンデータ）"},"geometry":{"type":"Point","coordinates":[139.550873,35.838274]}},{"type":"Feature","properties":{"layer_id":"cafe_restaurant","name":"和幸富士見羽沢店","address":"埼玉県富士見市羽沢３丁目３ー２６","source":"厚生労働省 食品衛生申請等システム（オープンデータ）"},"geometry":{"type":"Point","coordinates":[139.545384,35.853952]}},{"type":"Feature","properties":{"layer_id":"cafe_restaurant","name":"J.S.PANCAKE CAFE ららぽーと富士見店","address":"埼玉県富士見市山室一丁目1313番 ららぽーと富士見2階","source":"厚生労働省 食品衛生申請等システム（オープンデータ）"},"geometry":{"type":"Point","coordinates":[139.54765,35.858228]}},{"type":"Feature","properties":{"layer_id":"cafe_restaurant","name":"Parrucchiere　di　Caffé","address":"埼玉県富士見市水子５０２９－１","source":"厚生労働省 食品衛生申請等システム（オープンデータ）"},"geometry":{"type":"Point","coordinates":[139.55904,35.834744]}},{"type":"Feature","properties":{"layer_id":"cafe_restaurant","name":"生活協同組合コープみらい　コープみずほ台店（惣菜作業室）","address":"埼玉県富士見市東みずほ台3-24","source":"厚生労働省 食品衛生申請等システム（オープンデータ）"},"geometry":{"type":"Point","coordinates":[139.550276,35.842499]}},{"type":"Feature","properties":{"layer_id":"cafe_restaurant","name":"生活協同組合コープみらい　コープみずほ台店（寿司作業室）","address":"埼玉県富士見市東みずほ台3-24","source":"厚生労働省 食品衛生申請等システム（オープンデータ）"},"geometry":{"type":"Point","coordinates":[139.550276,35.842499]}},{"type":"Feature","properties":{"layer_id":"cafe_restaurant","name":"松屋・松のや　浦和所沢バイパス店","address":"埼玉県富士見市水谷東1-1-2","source":"厚生労働省 食品衛生申請等システム（オープンデータ）"},"geometry":{"type":"Point","coordinates":[139.569806,35.842271]}},{"type":"Feature","properties":{"layer_id":"cafe_restaurant","name":"松のや・マイカリー食堂　ふじみ野店","address":"埼玉県富士見市ふじみ野西1-20-2 第7マツモトビル106","source":"厚生労働省 食品衛生申請等システム（オープンデータ）"},"geometry":{"type":"Point","coordinates":[139.522198,35.860632]}},{"type":"Feature","properties":{"layer_id":"cafe_restaurant","name":"松屋　鶴瀬店","address":"埼玉県富士見市鶴馬２６０５－１","source":"厚生労働省 食品衛生申請等システム（オープンデータ）"},"geometry":{"type":"Point","coordinates":[139.538063,35.845737]}},{"type":"Feature","properties":{"layer_id":"cafe_restaurant","name":"すき家　富士見下南畑店","address":"埼玉県富士見市下南畑島崎5006-4","source":"厚生労働省 食品衛生申請等システム（オープンデータ）"},"geometry":{"type":"Point","coordinates":[139.571288,35.852715]}},{"type":"Feature","properties":{"layer_id":"cafe_restaurant","name":"すき家　鶴瀬駅西口店","address":"埼玉県富士見市鶴馬2602-2 鶴瀬駅西口ビル１階","source":"厚生労働省 食品衛生申請等システム（オープンデータ）"},"geometry":{"type":"Point","coordinates":[139.538083,35.845941]}},{"type":"Feature","properties":{"layer_id":"cafe_restaurant","name":"すき家　富士見鶴瀬店","address":"埼玉県富士見市上沢1-18-60","source":"厚生労働省 食品衛生申請等システム（オープンデータ）"},"geometry":{"type":"Point","coordinates":[139.535961,35.853621]}},{"type":"Feature","properties":{"layer_id":"cafe_restaurant","name":"中国料理　宝山","address":"埼玉県富士見市西１－１０－１","source":"厚生労働省 食品衛生申請等システム（オープンデータ）"},"geometry":{"type":"Point","coordinates":[139.520005,35.861998]}},{"type":"Feature","properties":{"layer_id":"cafe_restaurant","name":"みずほ台バル　RINO","address":"埼玉県富士見市東みずほ台１－９－２０ アリュールみずほ台１０２","source":"厚生労働省 食品衛生申請等システム（オープンデータ）"},"geometry":{"type":"Point","coordinates":[139.555947,35.84156]}},{"type":"Feature","properties":{"layer_id":"cafe_restaurant","name":"かえるカフェ","address":"埼玉県富士見市関沢２－２５－４６ ベルメゾン２４３－２０３号室","source":"厚生労働省 食品衛生申請等システム（オープンデータ）"},"geometry":{"type":"Point","coordinates":[139.536701,35.840645]}},{"type":"Feature","properties":{"layer_id":"cafe_restaurant","name":"ULULU CREPE","address":"埼玉県富士見市山室１ー１３１３","source":"厚生労働省 食品衛生申請等システム（オープンデータ）"},"geometry":{"type":"Point","coordinates":[139.54765,35.858228]}},{"type":"Feature","properties":{"layer_id":"cafe_restaurant","name":"クリヒロ","address":"埼玉県富士見市⼭室","source":"厚生労働省 食品衛生申請等システム（オープンデータ）"},"geometry":{"type":"Point","coordinates":[139.547965,35.856857]}},{"type":"Feature","properties":{"layer_id":"cafe_restaurant","name":"パンプキンズコーポレーション　にしじまクリニック店","address":"埼玉県富士見市勝瀬1034-1","source":"厚生労働省 食品衛生申請等システム（オープンデータ）"},"geometry":{"type":"Point","coordinates":[139.53114,35.864433]}},{"type":"Feature","properties":{"layer_id":"cafe_restaurant","name":"鰻の成瀬鶴瀬店","address":"埼玉県富士見市鶴瀬東1-8-30","source":"厚生労働省 食品衛生申請等システム（オープンデータ）"},"geometry":{"type":"Point","coordinates":[139.53998,35.847065]}},{"type":"Feature","properties":{"layer_id":"cafe_restaurant","name":"ケンタッキーフライドチキン鶴瀬東口店","address":"埼玉県富士見市鶴瀬東1-9-18 鶴瀬駅前ビル1階","source":"厚生労働省 食品衛生申請等システム（オープンデータ）"},"geometry":{"type":"Point","coordinates":[139.539674,35.846641]}},{"type":"Feature","properties":{"layer_id":"cafe_restaurant","name":"イリーゼふじみの","address":"埼玉県富士見市羽沢3-14‐15","source":"厚生労働省 食品衛生申請等システム（オープンデータ）"},"geometry":{"type":"Point","coordinates":[139.541717,35.85184]}},{"type":"Feature","properties":{"layer_id":"cafe_restaurant","name":"丸亀製麺富士見","address":"埼玉県富士見市鶴馬1-20-20","source":"厚生労働省 食品衛生申請等システム（オープンデータ）"},"geometry":{"type":"Point","coordinates":[139.541176,35.851121]}},{"type":"Feature","properties":{"layer_id":"public_facilities","name":"富士見市民文化会館","address":"富士見市鶴馬1803-1","source":"国土交通省 国土数値情報"},"geometry":{"type":"Point","coordinates":[139.550888,35.857566]}},{"type":"Feature","properties":{"layer_id":"public_facilities","name":"水谷第２集会所","address":"富士見市水子2688-1","source":"国土交通省 国土数値情報"},"geometry":{"type":"Point","coordinates":[139.566096,35.842479]}},{"type":"Feature","properties":{"layer_id":"public_facilities","name":"鶴瀬コミュニティセンター","address":"富士見市羽沢3-23-10","source":"国土交通省 国土数値情報"},"geometry":{"type":"Point","coordinates":[139.540482,35.852877]}},{"type":"Feature","properties":{"layer_id":"public_facilities","name":"総合体育館","address":"富士見市鶴馬1887-1","source":"国土交通省 国土数値情報"},"geometry":{"type":"Point","coordinates":[139.551541,35.856789]}},{"type":"Feature","properties":{"layer_id":"public_facilities","name":"鶴馬関沢集会所","address":"富士見市鶴馬2-23-8","source":"国土交通省 国土数値情報"},"geometry":{"type":"Point","coordinates":[139.546128,35.842623]}},{"type":"Feature","properties":{"layer_id":"public_facilities","name":"勝瀬西集会所","address":"富士見市勝瀬1616-4","source":"国土交通省 国土数値情報"},"geometry":{"type":"Point","coordinates":[139.513069,35.855196]}},{"type":"Feature","properties":{"layer_id":"public_facilities","name":"水谷公民館","address":"富士見市水谷1-13-6","source":"国土交通省 国土数値情報"},"geometry":{"type":"Point","coordinates":[139.558838,35.841221]}},{"type":"Feature","properties":{"layer_id":"public_facilities","name":"諏訪集会所","address":"富士見市諏訪2-1-43","source":"国土交通省 国土数値情報"},"geometry":{"type":"Point","coordinates":[139.550158,35.854519]}},{"type":"Feature","properties":{"layer_id":"public_facilities","name":"鶴瀬西交流センター","address":"富士見市鶴馬3575-1","source":"国土交通省 国土数値情報"},"geometry":{"type":"Point","coordinates":[139.534926,35.842045]}},{"type":"Feature","properties":{"layer_id":"public_facilities","name":"ふじみ野交流センター","address":"富士見市ふじみ野東3-7-1","source":"国土交通省 国土数値情報"},"geometry":{"type":"Point","coordinates":[139.529209,35.864662]}},{"type":"Feature","properties":{"layer_id":"public_facilities","name":"南畑第３集会所","address":"富士見市下南畑311-36","source":"国土交通省 国土数値情報"},"geometry":{"type":"Point","coordinates":[139.563504,35.857947]}},{"type":"Feature","properties":{"layer_id":"public_facilities","name":"高齢者いきいきふれあいセンター","address":"富士見市鶴瀬西2-8-2","source":"国土交通省 国土数値情報"},"geometry":{"type":"Point","coordinates":[139.534571,35.846436]}},{"type":"Feature","properties":{"layer_id":"public_facilities","name":"みずほ台中央公園交流施設","address":"富士見市東みずほ台2-17","source":"国土交通省 国土数値情報"},"geometry":{"type":"Point","coordinates":[139.553936,35.84184]}},{"type":"Feature","properties":{"layer_id":"public_facilities","name":"健康増進センター","address":"富士見市鶴馬3351-2","source":"国土交通省 国土数値情報"},"geometry":{"type":"Point","coordinates":[139.554905,35.851075]}},{"type":"Feature","properties":{"layer_id":"public_facilities","name":"斎場しののめの里","address":"富士見市下南畑70-1","source":"国土交通省 国土数値情報"},"geometry":{"type":"Point","coordinates":[139.561013,35.856487]}},{"type":"Feature","properties":{"layer_id":"public_facilities","name":"鶴馬１丁目集会所","address":"富士見市鶴馬1-7-39","source":"国土交通省 国土数値情報"},"geometry":{"type":"Point","coordinates":[139.543623,35.849308]}},{"type":"Feature","properties":{"layer_id":"public_facilities","name":"羽沢２丁目集会所","address":"富士見市羽沢2-9-6","source":"国土交通省 国土数値情報"},"geometry":{"type":"Point","coordinates":[139.537053,35.855052]}},{"type":"Feature","properties":{"layer_id":"public_facilities","name":"勝瀬集会所","address":"富士見市勝瀬790-1","source":"国土交通省 国土数値情報"},"geometry":{"type":"Point","coordinates":[139.540122,35.865905]}},{"type":"Feature","properties":{"layer_id":"public_facilities","name":"西出張所","address":"富士見市鶴馬2602-3","source":"国土交通省 国土数値情報"},"geometry":{"type":"Point","coordinates":[139.538701,35.845896]}},{"type":"Feature","properties":{"layer_id":"public_facilities","name":"丸池集会所","address":"富士見市関沢2-28-1","source":"国土交通省 国土数値情報"},"geometry":{"type":"Point","coordinates":[139.536446,35.839829]}},{"type":"Feature","properties":{"layer_id":"public_facilities","name":"水谷東１丁目集会所","address":"富士見市水谷東1-7-12","source":"国土交通省 国土数値情報"},"geometry":{"type":"Point","coordinates":[139.572276,35.844285]}},{"type":"Feature","properties":{"layer_id":"public_facilities","name":"上沢１丁目集会所","address":"富士見市上沢1-15-16","source":"国土交通省 国土数値情報"},"geometry":{"type":"Point","coordinates":[139.534321,35.851841]}},{"type":"Feature","properties":{"layer_id":"public_facilities","name":"南畑ふれあいプラザ","address":"富士見市東大久保84-13","source":"国土交通省 国土数値情報"},"geometry":{"type":"Point","coordinates":[139.552096,35.86967]}},{"type":"Feature","properties":{"layer_id":"public_facilities","name":"前谷集会所","address":"富士見市鶴馬3308-2","source":"国土交通省 国土数値情報"},"geometry":{"type":"Point","coordinates":[139.553127,35.851231]}},{"type":"Feature","properties":{"layer_id":"public_facilities","name":"水谷出張所","address":"富士見市水谷1-13-6","source":"国土交通省 国土数値情報"},"geometry":{"type":"Point","coordinates":[139.55882,35.841244]}},{"type":"Feature","properties":{"layer_id":"public_facilities","name":"水谷東２丁目集会所","address":"富士見市水谷東2-38-7","source":"国土交通省 国土数値情報"},"geometry":{"type":"Point","coordinates":[139.574101,35.840807]}},{"type":"Feature","properties":{"layer_id":"public_facilities","name":"南畑第２集会所","address":"富士見市上南畑189-1","source":"国土交通省 国土数値情報"},"geometry":{"type":"Point","coordinates":[139.555768,35.86336]}},{"type":"Feature","properties":{"layer_id":"public_facilities","name":"上沢２丁目集会所","address":"富士見市上沢2-5-15","source":"国土交通省 国土数値情報"},"geometry":{"type":"Point","coordinates":[139.530273,35.854602]}},{"type":"Feature","properties":{"layer_id":"public_facilities","name":"打越集会所","address":"富士見市鶴馬3-23-4","source":"国土交通省 国土数値情報"},"geometry":{"type":"Point","coordinates":[139.547856,35.844648]}},{"type":"Feature","properties":{"layer_id":"public_facilities","name":"サンライトホール","address":"富士見市鶴馬2602-3","source":"国土交通省 国土数値情報"},"geometry":{"type":"Point","coordinates":[139.538721,35.845896]}},{"type":"Feature","properties":{"layer_id":"public_facilities","name":"みずほ台コミュニティセンター","address":"富士見市西みずほ台1-19-2","source":"国土交通省 国土数値情報"},"geometry":{"type":"Point","coordinates":[139.549156,35.837871]}},{"type":"Feature","properties":{"layer_id":"public_facilities","name":"関沢集会所","address":"富士見市関沢3-19-34","source":"国土交通省 国土数値情報"},"geometry":{"type":"Point","coordinates":[139.542515,35.839435]}},{"type":"Feature","properties":{"layer_id":"public_facilities","name":"上沢３丁目集会所","address":"富士見市上沢3-4-16","source":"国土交通省 国土数値情報"},"geometry":{"type":"Point","coordinates":[139.528984,35.852662]}},{"type":"Feature","properties":{"layer_id":"public_facilities","name":"富士見市役所","address":"富士見市鶴馬1800-1","source":"国土交通省 国土数値情報"},"geometry":{"type":"Point","coordinates":[139.549078,35.856759]}},{"type":"Feature","properties":{"layer_id":"public_facilities","name":"山室集会所","address":"富士見市山室1-1171-24","source":"国土交通省 国土数値情報"},"geometry":{"type":"Point","coordinates":[139.545916,35.861951]}},{"type":"Feature","properties":{"layer_id":"public_facilities","name":"渡戸東集会所","address":"富士見市渡戸1-2-34","source":"国土交通省 国土数値情報"},"geometry":{"type":"Point","coordinates":[139.540997,35.862682]}},{"type":"Feature","properties":{"layer_id":"public_facilities","name":"鶴瀬東２丁目集会所","address":"富士見市鶴瀬東2-8-25","source":"国土交通省 国土数値情報"},"geometry":{"type":"Point","coordinates":[139.536754,35.850814]}},{"type":"Feature","properties":{"layer_id":"public_facilities","name":"鶴瀬西名シ久保集会所","address":"富士見市鶴馬2593","source":"国土交通省 国土数値情報"},"geometry":{"type":"Point","coordinates":[139.537104,35.844817]}},{"type":"Feature","properties":{"layer_id":"public_facilities","name":"鶴瀬西３丁目東集会所","address":"富士見市鶴瀬西3-6-8","source":"国土交通省 国土数値情報"},"geometry":{"type":"Point","coordinates":[139.53036,35.849836]}},{"type":"Feature","properties":{"layer_id":"public_facilities","name":"老人福祉センター","address":"富士見市東大久保3655","source":"国土交通省 国土数値情報"},"geometry":{"type":"Point","coordinates":[139.556087,35.88088]}},{"type":"Feature","properties":{"layer_id":"public_facilities","name":"鶴瀬公民館","address":"富士見市羽沢3-23-10","source":"国土交通省 国土数値情報"},"geometry":{"type":"Point","coordinates":[139.540462,35.852877]}},{"type":"Feature","properties":{"layer_id":"public_facilities","name":"水谷東公民館","address":"富士見市水谷東2-12-10","source":"国土交通省 国土数値情報"},"geometry":{"type":"Point","coordinates":[139.573876,35.839016]}},{"type":"Feature","properties":{"layer_id":"public_facilities","name":"針ケ谷集会所","address":"富士見市針ケ谷1-38","source":"国土交通省 国土数値情報"},"geometry":{"type":"Point","coordinates":[139.55386,35.832081]}},{"type":"Feature","properties":{"layer_id":"public_facilities","name":"市民福祉活動センター","address":"富士見市鶴馬1932-7","source":"国土交通省 国土数値情報"},"geometry":{"type":"Point","coordinates":[139.55143,35.854548]}},{"type":"Feature","properties":{"layer_id":"public_facilities","name":"南畑公民館","address":"富士見市上南畑306-1","source":"国土交通省 国土数値情報"},"geometry":{"type":"Point","coordinates":[139.558763,35.860543]}},{"type":"Feature","properties":{"layer_id":"public_facilities","name":"渡戸３丁目集会所","address":"富士見市渡戸3-4-3","source":"国土交通省 国土数値情報"},"geometry":{"type":"Point","coordinates":[139.534551,35.859499]}},{"type":"Feature","properties":{"layer_id":"public_facilities","name":"針ケ谷コミュニティセンター","address":"富士見市針ケ谷1-38","source":"国土交通省 国土数値情報"},"geometry":{"type":"Point","coordinates":[139.553779,35.832016]}},{"type":"Feature","properties":{"layer_id":"public_facilities","name":"みずほ台出張所","address":"富士見市西みずほ台1-19-2","source":"国土交通省 国土数値情報"},"geometry":{"type":"Point","coordinates":[139.549165,35.837919]}},{"type":"Feature","properties":{"layer_id":"public_facilities","name":"ふじみ野出張所","address":"富士見市ふじみ野東1-16-6","source":"国土交通省 国土数値情報"},"geometry":{"type":"Point","coordinates":[139.523088,35.860821]}},{"type":"Feature","properties":{"layer_id":"public_facilities","name":"水谷第１集会所","address":"富士見市水子679-1","source":"国土交通省 国土数値情報"},"geometry":{"type":"Point","coordinates":[139.553963,35.846197]}},{"type":"Feature","properties":{"layer_id":"public_facilities","name":"羽沢集会所","address":"富士見市羽沢3-6-4","source":"国土交通省 国土数値情報"},"geometry":{"type":"Point","coordinates":[139.542881,35.855033]}},{"type":"Feature","properties":{"layer_id":"public_facilities","name":"南畑出張所","address":"富士見市上南畑306-1","source":"国土交通省 国土数値情報"},"geometry":{"type":"Point","coordinates":[139.558799,35.860522]}},{"type":"Feature","properties":{"layer_id":"public_facilities","name":"水谷第３集会所","address":"富士見市水子4543-44","source":"国土交通省 国土数値情報"},"geometry":{"type":"Point","coordinates":[139.561024,35.838807]}},{"type":"Feature","properties":{"layer_id":"public_facilities","name":"水谷東出張所","address":"富士見市水谷東2-12-10","source":"国土交通省 国土数値情報"},"geometry":{"type":"Point","coordinates":[139.573877,35.839016]}},{"type":"Feature","properties":{"layer_id":"public_facilities","name":"水谷東３丁目集会所","address":"富士見市水谷東3-28-9","source":"国土交通省 国土数値情報"},"geometry":{"type":"Point","coordinates":[139.578376,35.839174]}},{"type":"Feature","properties":{"layer_id":"cultural_facilities","name":"市民総合体育館","address":"鶴馬1887-1","source":"国土交通省 国土数値情報"},"geometry":{"type":"Point","coordinates":[139.551558,35.856915]}},{"type":"Feature","properties":{"layer_id":"cultural_facilities","name":"市民総合体育館","address":"鶴馬1887-1","source":"国土交通省 国土数値情報"},"geometry":{"type":"Point","coordinates":[139.551558,35.856838]}},{"type":"Feature","properties":{"layer_id":"cultural_facilities","name":"富士見市立図書館鶴瀬西分館","address":"鶴瀬西2-9-1","source":"国土交通省 国土数値情報"},"geometry":{"type":"Point","coordinates":[139.533134,35.847895]}},{"type":"Feature","properties":{"layer_id":"cultural_facilities","name":"富士見市第２運動公園","address":"みどり野南4-1","source":"国土交通省 国土数値情報"},"geometry":{"type":"Point","coordinates":[139.563841,35.865485]}},{"type":"Feature","properties":{"layer_id":"cultural_facilities","name":"富士見市立難波田城資料館","address":"下南畑568-1","source":"国土交通省 国土数値情報"},"geometry":{"type":"Point","coordinates":[139.566939,35.857673]}},{"type":"Feature","properties":{"layer_id":"cultural_facilities","name":"市民総合体育館","address":"鶴馬1887-1","source":"国土交通省 国土数値情報"},"geometry":{"type":"Point","coordinates":[139.551552,35.856674]}},{"type":"Feature","properties":{"layer_id":"cultural_facilities","name":"富士見市立水子貝塚資料館","address":"水子2003-1","source":"国土交通省 国土数値情報"},"geometry":{"type":"Point","coordinates":[139.562142,35.845554]}},{"type":"Feature","properties":{"layer_id":"cultural_facilities","name":"富士見市第２運動公園","address":"みどり野南4-1","source":"国土交通省 国土数値情報"},"geometry":{"type":"Point","coordinates":[139.565101,35.865384]}},{"type":"Feature","properties":{"layer_id":"cultural_facilities","name":"富士見市立中央図書館","address":"鶴馬1873-1","source":"国土交通省 国土数値情報"},"geometry":{"type":"Point","coordinates":[139.550316,35.855471]}},{"type":"Feature","properties":{"layer_id":"cultural_facilities","name":"市民総合体育館","address":"鶴馬1887-1","source":"国土交通省 国土数値情報"},"geometry":{"type":"Point","coordinates":[139.551558,35.856756]}},{"type":"Feature","properties":{"layer_id":"cultural_facilities","name":"市民総合体育館","address":"鶴馬1887-1","source":"国土交通省 国土数値情報"},"geometry":{"type":"Point","coordinates":[139.551558,35.856997]}},{"type":"Feature","properties":{"layer_id":"parks_playgrounds","name":"松の木公園","address":"富士見市","source":"国土交通省 国土数値情報"},"geometry":{"type":"Point","coordinates":[139.548703,35.83738]}},{"type":"Feature","properties":{"layer_id":"parks_playgrounds","name":"みずほ東公園","address":"富士見市","source":"国土交通省 国土数値情報"},"geometry":{"type":"Point","coordinates":[139.558261,35.841641]}},{"type":"Feature","properties":{"layer_id":"parks_playgrounds","name":"やまがた公園","address":"富士見市","source":"国土交通省 国土数値情報"},"geometry":{"type":"Point","coordinates":[139.563784,35.857706]}},{"type":"Feature","properties":{"layer_id":"parks_playgrounds","name":"山室公園","address":"富士見市","source":"国土交通省 国土数値情報"},"geometry":{"type":"Point","coordinates":[139.545668,35.862861]}},{"type":"Feature","properties":{"layer_id":"parks_playgrounds","name":"びん沼公園","address":"富士見市","source":"国土交通省 国土数値情報"},"geometry":{"type":"Point","coordinates":[139.57031,35.871885]}},{"type":"Feature","properties":{"layer_id":"parks_playgrounds","name":"唐沢公園","address":"富士見市","source":"国土交通省 国土数値情報"},"geometry":{"type":"Point","coordinates":[139.545737,35.835534]}},{"type":"Feature","properties":{"layer_id":"parks_playgrounds","name":"大原公園","address":"富士見市","source":"国土交通省 国土数値情報"},"geometry":{"type":"Point","coordinates":[139.549827,35.841605]}},{"type":"Feature","properties":{"layer_id":"parks_playgrounds","name":"みずほ台中央公園","address":"富士見市","source":"国土交通省 国土数値情報"},"geometry":{"type":"Point","coordinates":[139.553992,35.841758]}},{"type":"Feature","properties":{"layer_id":"parks_playgrounds","name":"難波田城公園","address":"富士見市","source":"国土交通省 国土数値情報"},"geometry":{"type":"Point","coordinates":[139.567195,35.857676]}},{"type":"Feature","properties":{"layer_id":"parks_playgrounds","name":"水子貝塚公園","address":"富士見市","source":"国土交通省 国土数値情報"},"geometry":{"type":"Point","coordinates":[139.561225,35.845519]}},{"type":"Feature","properties":{"layer_id":"parks_playgrounds","name":"八ケ上公園","address":"富士見市","source":"国土交通省 国土数値情報"},"geometry":{"type":"Point","coordinates":[139.544179,35.842098]}},{"type":"Feature","properties":{"layer_id":"parks_playgrounds","name":"むさし野緑地公園","address":"富士見市","source":"国土交通省 国土数値情報"},"geometry":{"type":"Point","coordinates":[139.534891,35.846599]}},{"type":"Feature","properties":{"layer_id":"parks_playgrounds","name":"文化の杜公園","address":"富士見市","source":"国土交通省 国土数値情報"},"geometry":{"type":"Point","coordinates":[139.550971,35.855815]}},{"type":"Feature","properties":{"layer_id":"parks_playgrounds","name":"登戸公園","address":"富士見市","source":"国土交通省 国土数値情報"},"geometry":{"type":"Point","coordinates":[139.575065,35.866686]}},{"type":"Feature","properties":{"layer_id":"parks_playgrounds","name":"打越公園","address":"富士見市","source":"国土交通省 国土数値情報"},"geometry":{"type":"Point","coordinates":[139.548806,35.844178]}},{"type":"Feature","properties":{"layer_id":"parks_playgrounds","name":"谷津の森公園","address":"富士見市","source":"国土交通省 国土数値情報"},"geometry":{"type":"Point","coordinates":[139.542535,35.849496]}},{"type":"Feature","properties":{"layer_id":"parks_playgrounds","name":"山崎公園","address":"富士見市","source":"国土交通省 国土数値情報"},"geometry":{"type":"Point","coordinates":[139.551649,35.848178]}},{"type":"Feature","properties":{"layer_id":"parks_playgrounds","name":"縄文の丘公園","address":"富士見市","source":"国土交通省 国土数値情報"},"geometry":{"type":"Point","coordinates":[139.541636,35.862778]}},{"type":"Feature","properties":{"layer_id":"parks_playgrounds","name":"西原公園","address":"富士見市","source":"国土交通省 国土数値情報"},"geometry":{"type":"Point","coordinates":[139.553336,35.836007]}},{"type":"Feature","properties":{"layer_id":"parks_playgrounds","name":"栗谷津公園","address":"富士見市","source":"国土交通省 国土数値情報"},"geometry":{"type":"Point","coordinates":[139.553437,35.834795]}},{"type":"Feature","properties":{"layer_id":"parks_playgrounds","name":"びん沼自然公園","address":"富士見市","source":"国土交通省 国土数値情報"},"geometry":{"type":"Point","coordinates":[139.556418,35.87902]}},{"type":"Feature","properties":{"layer_id":"parks_playgrounds","name":"関沢公園","address":"富士見市","source":"国土交通省 国土数値情報"},"geometry":{"type":"Point","coordinates":[139.547579,35.839389]}},{"type":"Feature","properties":{"layer_id":"parks_playgrounds","name":"山室緑地公園","address":"富士見市","source":"国土交通省 国土数値情報"},"geometry":{"type":"Point","coordinates":[139.543832,35.861062]}},{"type":"Feature","properties":{"layer_id":"parks_playgrounds","name":"竹の内公園","address":"富士見市","source":"国土交通省 国土数値情報"},"geometry":{"type":"Point","coordinates":[139.564167,35.849283]}}]}