{"type":"FeatureCollection","municipality_code":"12238","pref":"千葉県","city":"いすみ市","display_comment":"いすみ市には、江戸期の苅谷藩と苅谷藩陣屋跡に連なる領主・城下の記憶が残っています。 周辺には寺社や信仰の場、城跡や陣屋跡、古墳や貝塚にまつわる場所が点在し、「鶴ヶ城跡」、「万喜城跡」、「大野城跡」などを起点に歩くと、地域の歴史がぐっと見えやすくなります。 現地では城跡・陣屋跡、史跡説明板が、地域の歴史を読み解く手がかりになるでしょう。 さらに苅谷藩にゆかりのある領主碑や旧領境のしるべも、現地で探してみたい歴史の手がかりです。 ゆかりの人物ではつげ義春や春日錦孝嘉に注目すると、地域に残る文化や時代背景をさらに深く知るきっかけになります。 「出雲大社上総分院（上総出雲大社）」や「小浜八幡神社」などの名所も、地域の物語を深掘りする絶好の入口です。 江戸時代の大多喜藩や苅谷藩に関わる記憶も、古い道標や領主碑、地域の案内板を探す手がかりになります。","layer_counts":{"cafe_restaurant":8,"public_facilities":15,"scenic_nature_areas":4,"cultural_facilities":1,"parks_playgrounds":10,"tourism_resources":3},"total_features":41,"features":[{"type":"Feature","properties":{"layer_id":"cafe_restaurant","name":"ガスト　大原店","category":"food","address":"千葉県いすみ市大原９７１３－１","source":"厚生労働省 食品衛生申請等システム（オープンデータ）","municipality_code":"12238","municipality_pref":"千葉県","municipality_name":"いすみ市","municipality_code_method":"food_exact_coord"},"geometry":{"type":"Point","coordinates":[140.395175,35.247935]}},{"type":"Feature","properties":{"layer_id":"cafe_restaurant","name":"クスリのアオキいすみ大原店（惣菜）","category":"food","address":"千葉県いすみ市大原1176","source":"厚生労働省 食品衛生申請等システム（オープンデータ）","municipality_code":"12238","municipality_pref":"千葉県","municipality_name":"いすみ市","municipality_code_method":"food_exact_coord"},"geometry":{"type":"Point","coordinates":[140.392194,35.240609]}},{"type":"Feature","properties":{"layer_id":"cafe_restaurant","name":"クスリのアオキいすみ大原店（鮮魚）","category":"food","address":"千葉県いすみ市大原1176","source":"厚生労働省 食品衛生申請等システム（オープンデータ）","municipality_code":"12238","municipality_pref":"千葉県","municipality_name":"いすみ市","municipality_code_method":"food_exact_coord"},"geometry":{"type":"Point","coordinates":[140.392194,35.240609]}},{"type":"Feature","properties":{"layer_id":"cafe_restaurant","name":"すき家　128号いすみ店","category":"food","address":"千葉県いすみ市若山16-1","source":"厚生労働省 食品衛生申請等システム（オープンデータ）","municipality_code":"12238","municipality_pref":"千葉県","municipality_name":"いすみ市","municipality_code_method":"food_exact_coord"},"geometry":{"type":"Point","coordinates":[140.393021,35.261901]}},{"type":"Feature","properties":{"layer_id":"cafe_restaurant","name":"パンプキンズコーポレーション　産後ケアハウスまるる店","category":"food","address":"千葉県いすみ市岬町長者386番地","source":"厚生労働省 食品衛生申請等システム（オープンデータ）","municipality_code":"12238","municipality_pref":"千葉県","municipality_name":"いすみ市","municipality_code_method":"food_exact_coord"},"geometry":{"type":"Point","coordinates":[140.390525,35.295415]}},{"type":"Feature","properties":{"layer_id":"cafe_restaurant","name":"うたうファーム加工所","category":"food","address":"千葉県いすみ市岬町井沢1287-11","source":"厚生労働省 食品衛生申請等システム（オープンデータ）","municipality_code":"12238","municipality_pref":"千葉県","municipality_name":"いすみ市","municipality_code_method":"food_exact_coord"},"geometry":{"type":"Point","coordinates":[140.382904,35.286415]}},{"type":"Feature","properties":{"layer_id":"cafe_restaurant","name":"ココス　岬店","category":"food","address":"千葉県いすみ市岬町三門1925-1","source":"厚生労働省 食品衛生申請等システム（オープンデータ）","municipality_code":"12238","municipality_pref":"千葉県","municipality_name":"いすみ市","municipality_code_method":"food_exact_coord"},"geometry":{"type":"Point","coordinates":[140.392343,35.287826]}},{"type":"Feature","properties":{"layer_id":"cafe_restaurant","name":"My Lover Coffee","category":"food","address":"千葉県いすみ市岬町中原192-3","source":"厚生労働省 食品衛生申請等システム（オープンデータ）","municipality_code":"12238","municipality_pref":"千葉県","municipality_name":"いすみ市","municipality_code_method":"food_exact_coord"},"geometry":{"type":"Point","coordinates":[140.399795,35.325463]}},{"type":"Feature","properties":{"layer_id":"public_facilities","name":"Ｂ＆Ｇ海洋センター","category":"public","address":"いすみ市岬町和泉4448-1","source":"国土交通省 国土数値情報","municipality_code":"12238","municipality_pref":"千葉県","municipality_name":"いすみ市","municipality_code_method":"source_exact_coord"},"geometry":{"type":"Point","coordinates":[140.40367813730182,35.29307749858256]}},{"type":"Feature","properties":{"layer_id":"public_facilities","name":"岬庁舎","category":"public","address":"いすみ市岬町長者22","source":"国土交通省 国土数値情報","municipality_code":"12238","municipality_pref":"千葉県","municipality_name":"いすみ市","municipality_code_method":"source_exact_coord"},"geometry":{"type":"Point","coordinates":[140.38675943459899,35.29994174951248]}},{"type":"Feature","properties":{"layer_id":"public_facilities","name":"文化とスポーツの森","category":"public","address":"いすみ市深谷1968-1","source":"国土交通省 国土数値情報","municipality_code":"12238","municipality_pref":"千葉県","municipality_name":"いすみ市","municipality_code_method":"source_exact_coord"},"geometry":{"type":"Point","coordinates":[140.30214927005295,35.286987500944214]}},{"type":"Feature","properties":{"layer_id":"public_facilities","name":"いすみ市ふるさと憩いの家","category":"public","address":"いすみ市大野3990-7","source":"国土交通省 国土数値情報","municipality_code":"12238","municipality_pref":"千葉県","municipality_name":"いすみ市","municipality_code_method":"source_exact_coord"},"geometry":{"type":"Point","coordinates":[140.28517320401542,35.245982219150136]}},{"type":"Feature","properties":{"layer_id":"public_facilities","name":"夷隅文化会館","category":"public","address":"いすみ市深谷1968-1","source":"国土交通省 国土数値情報","municipality_code":"12238","municipality_pref":"千葉県","municipality_name":"いすみ市","municipality_code_method":"source_exact_coord"},"geometry":{"type":"Point","coordinates":[140.302159270071,35.28698750087977]}},{"type":"Feature","properties":{"layer_id":"public_facilities","name":"いすみ市役所","category":"public","address":"いすみ市大原7400-1","source":"国土交通省 国土数値情報","municipality_code":"12238","municipality_pref":"千葉県","municipality_name":"いすみ市","municipality_code_method":"source_exact_coord"},"geometry":{"type":"Point","coordinates":[140.38511861355605,35.25388668344477]}},{"type":"Feature","properties":{"layer_id":"public_facilities","name":"大原公民館","category":"public","address":"いすみ市大原7838","source":"国土交通省 国土数値情報","municipality_code":"12238","municipality_pref":"千葉県","municipality_name":"いすみ市","municipality_code_method":"source_exact_coord"},"geometry":{"type":"Point","coordinates":[140.3865577500649,35.248277011768316]}},{"type":"Feature","properties":{"layer_id":"public_facilities","name":"大原聖苑","category":"public","address":"いすみ市大原4891-1","source":"国土交通省 国土数値情報","municipality_code":"12238","municipality_pref":"千葉県","municipality_name":"いすみ市","municipality_code_method":"source_exact_coord"},"geometry":{"type":"Point","coordinates":[140.38405265334563,35.23582867346144]}},{"type":"Feature","properties":{"layer_id":"public_facilities","name":"大原文化センター","category":"public","address":"いすみ市大原7838","source":"国土交通省 国土数値情報","municipality_code":"12238","municipality_pref":"千葉県","municipality_name":"いすみ市","municipality_code_method":"source_exact_coord"},"geometry":{"type":"Point","coordinates":[140.38653774996496,35.24827701187958]}},{"type":"Feature","properties":{"layer_id":"public_facilities","name":"夷隅地区多目的研修センター","category":"public","address":"いすみ市行川721-1","source":"国土交通省 国土数値情報","municipality_code":"12238","municipality_pref":"千葉県","municipality_name":"いすみ市","municipality_code_method":"source_exact_coord"},"geometry":{"type":"Point","coordinates":[140.2824227153524,35.28372977438814]}},{"type":"Feature","properties":{"layer_id":"public_facilities","name":"夷隅公民館","category":"public","address":"いすみ市深谷1968-1","source":"国土交通省 国土数値情報","municipality_code":"12238","municipality_pref":"千葉県","municipality_name":"いすみ市","municipality_code_method":"source_exact_coord"},"geometry":{"type":"Point","coordinates":[140.30222037000985,35.28693918051822]}},{"type":"Feature","properties":{"layer_id":"public_facilities","name":"いすみ市つどいの家","category":"public","address":"いすみ市松丸2863","source":"国土交通省 国土数値情報","municipality_code":"12238","municipality_pref":"千葉県","municipality_name":"いすみ市","municipality_code_method":"source_exact_coord"},"geometry":{"type":"Point","coordinates":[140.32162150513994,35.31674101098393]}},{"type":"Feature","properties":{"layer_id":"public_facilities","name":"夷隅庁舎","category":"public","address":"いすみ市国府台1524-1","source":"国土交通省 国土数値情報","municipality_code":"12238","municipality_pref":"千葉県","municipality_name":"いすみ市","municipality_code_method":"source_exact_coord"},"geometry":{"type":"Point","coordinates":[140.31182338060157,35.28471012011822]}},{"type":"Feature","properties":{"layer_id":"public_facilities","name":"岬公民館","category":"public","address":"いすみ市岬町長者22","source":"国土交通省 国土数値情報","municipality_code":"12238","municipality_pref":"千葉県","municipality_name":"いすみ市","municipality_code_method":"source_exact_coord"},"geometry":{"type":"Point","coordinates":[140.38462993865284,35.29949629602651]}},{"type":"Feature","properties":{"layer_id":"public_facilities","name":"岬ふれあい会館","category":"public","address":"いすみ市岬町東中滝720-1","source":"国土交通省 国土数値情報","municipality_code":"12238","municipality_pref":"千葉県","municipality_name":"いすみ市","municipality_code_method":"source_exact_coord"},"geometry":{"type":"Point","coordinates":[140.38776853320118,35.30112386620261]}},{"type":"Feature","properties":{"layer_id":"scenic_nature_areas","name":"自然公園特別地域","category":"nature","source":"国土交通省 国土数値情報","municipality_code":"12238","municipality_pref":"千葉県","municipality_name":"いすみ市","municipality_code_method":"nearest_centroid","resource_class":"自然公園特別地域","source_dataset_code":"A10"},"geometry":{"type":"Polygon","coordinates":[[[140.4100500001486,35.2978319997976],[140.4098187988397,35.29742403134462],[140.40963800003487,35.29710500044606],[140.4096040002656,35.29704899966225],[140.4093429999207,35.29678400003223],[140.40931368741795,35.29673632247396],[140.40925999969045,35.29664900010192],[140.4091780004056,35.296474000125656],[140.4090509999449,35.29627099975748],[140.40867799983104,35.2957049997366],[140.40831300008608,35.295068000038825],[140.40827600017846,35.295024999854505],[140.40829750817954,35.29494255144243],[140.408146,35.29478],[140.406222,35.290966],[140.40538158696853,35.28806333744051],[140.40521800035165,35.28786199958226],[140.40516299961394,35.28780000032041],[140.40506100030612,35.28764799960614],[140.40499199982213,35.287495999791204],[140.40473799980006,35.28667299960989],[140.4046900002845,35.286470000141044],[140.40467599963887,35.285749000166874],[140.40459300030793,35.28549500014479],[140.40424999977887,35.284717000240015],[140.4041949999405,35.28452000014854],[140.4041679995947,35.284316999780366],[140.40415484056393,35.28382633643596],[140.40326437136125,35.28075078724976],[140.40321899989814,35.280692999932654],[140.40301999971442,35.280344000026226],[140.40295799955325,35.280191000165175],[140.4028550001993,35.279780000097574],[140.40275199994605,35.27945300030637],[140.40267700008468,35.27926699982283],[140.40256000008515,35.27905800007729],[140.4022229998328,35.27851700030997],[140.40208599981025,35.278258000057306],[140.40203800029468,35.278128000357576],[140.40197600013352,35.277845999943594],[140.40192100029515,35.277441000152685],[140.40183900011098,35.27707999969288],[140.4017559998807,35.276781000293575],[140.40166700027305,35.276567000317456],[140.40141899962833,35.27610399965051],[140.40140499988203,35.276068999835125],[140.40135800041259,35.27595199983557],[140.4011590002289,35.27526499963068],[140.40102799958373,35.2746560003248],[140.4008769998149,35.27418200004991],[140.40080800023023,35.27391200018931],[140.40072600004606,35.27352300023692],[140.40067799963117,35.27330299998411],[140.40057500027726,35.27298199957027],[140.4004790003468,35.27277900010142],[140.40030699960954,35.27236199975713],[140.4002180000019,35.272103000403796],[140.40016300016353,35.271883000150986],[140.40016300016353,35.27165200029023],[140.4002109996791,35.27147100003727],[140.40033600004756,35.271189999669396],[140.40036899977073,35.27098900029278],[140.40031399993237,35.27083500038562],[140.40013499977164,35.27059199997147],[140.39990199981864,35.27013599962733],[140.39985400030307,35.269965999881634],[140.39983300023397,35.26975199990552],[140.39985400030307,35.269504000160126],[140.39984699998027,35.26927899967674],[140.3997229996579,35.26887299983972],[140.39966100039607,35.26859100032505],[140.39957199988908,35.2679210000048],[140.39948899965881,35.267475000121806],[140.39944799956675,35.26739099984542],[140.39938600030487,35.26735099979945],[140.39929999993626,35.26708800026165],[140.39929948732268,35.267084566650084],[140.39925000032846,35.26675300010153],[140.39926300002864,35.26630800026466],[140.3992969997979,35.266217999711564],[140.3992830000516,35.265907999804995],[140.3992830000516,35.26556400012915],[140.3993240001437,35.265356000429726],[140.3993505562244,35.26524746754724],[140.39939299972835,35.26507400001574],[140.39941399979745,35.26484300015498],[140.39941399979745,35.264250999834424],[140.39938600030487,35.264131999742645],[140.39931100044353,35.26401999997367],[140.3993660002819,35.26334300022992],[140.39942700039697,35.262780000347384],[140.39955099981998,35.26215400025755],[140.39957199988908,35.2618950000049],[140.39964000032697,35.261651999590754],[140.39972721478034,35.261486009922066],[140.39987851941933,35.26091245020007],[140.39993973357306,35.260111129975314],[140.39987390050132,35.259380630462374],[140.3999490982135,35.258840676606596],[140.39957606932134,35.25874162167914],[140.39922055022942,35.25864721624668],[140.39822321646946,35.25841572355745],[140.39819925763084,35.25869405563681],[140.3981755308173,35.25913385739225],[140.39811217717644,35.26010384186946],[140.3980068440818,35.26101951089236],[140.3979660193575,35.26209718109068],[140.3979167005365,35.262842465458064],[140.39770712522485,35.26367554074426],[140.39771268573307,35.26378963413496],[140.39759034735786,35.26407426236796],[140.39753372244454,35.264277723189025],[140.3974914624023,35.264487382137624],[140.3974541378394,35.26467254715098],[140.39746369313613,35.2648612231176],[140.39746282888765,35.2649779883941],[140.39749461902267,35.26512186283435],[140.397603003517,35.265275101015746],[140.39772419345798,35.26542479047235],[140.39789670141283,35.265546031674674],[140.39814705828132,35.26575386949613],[140.39815688157603,35.26590661664769],[140.3980889602785,35.26625003985811],[140.39810719583164,35.26636130308232],[140.39810643770315,35.26646373496405],[140.3981313282394,35.267016919645776],[140.3982077031642,35.26766053205856],[140.39847602039325,35.26844395937188],[140.39863895956154,35.26988702052023],[140.39891380676798,35.27092456117021],[140.399310803492,35.27210209388717],[140.39949193774393,35.273212012874744],[140.39972782272204,35.27423348084112],[140.40004158089545,35.275698942302995],[140.4001394415232,35.277205119671194],[140.3999612084842,35.277295024896134],[140.3997678092782,35.27747135227174],[140.3998348888103,35.27762146261106],[140.39992487227624,35.277836442848205],[140.3999908816151,35.27799693136394],[140.40005955024924,35.27813698818211],[140.40015149783457,35.27827081000053],[140.40019972307996,35.27855238863248],[140.4002380692727,35.27923765404515],[140.4002872082293,35.28000138980295],[140.40034670467787,35.28084601688083],[140.40045061324642,35.28161002333456],[140.40046616522255,35.28247239673437],[140.40047586081354,35.28264310784381],[140.4004960478955,35.28287674631544],[140.4005498903064,35.283002764716464],[140.40062570675218,35.283119909506865],[140.40075556615767,35.28333612811047],[140.40084194064426,35.28350721783448],[140.40099364188427,35.28373252588601],[140.40108028167086,35.28386768769428],[140.4012278190498,35.28465885637177],[140.40122603299622,35.28490136845404],[140.40132962410408,35.28571028345347],[140.40131615765577,35.28605154199572],[140.40131384370014,35.28636590990946],[140.4012244888603,35.28659900519059],[140.4012127410164,35.28670673497849],[140.4011078144153,35.28682298494345],[140.40104544823006,35.28711010789581],[140.40128311926176,35.287083617465626],[140.40149952222637,35.28708468855818],[140.40166100809026,35.28719638975223],[140.4018213536138,35.287463347206355],[140.401847098506,35.28764091744503],[140.40187121292735,35.28804028298333],[140.4020046732183,35.288284925559516],[140.40213878461842,35.28844085181451],[140.4023532360542,35.28870807546796],[140.40235176925995,35.28890769078795],[140.4023489975494,35.28928474234763],[140.40234573750698,35.28972833294686],[140.4023978837965,35.28999475530436],[140.4024484005145,35.29048297206216],[140.40247382165074,35.290704900461435],[140.40260696178308,35.290993902097554],[140.40276747997643,35.291238678672734],[140.40306358355875,35.291439763484945],[140.40349478779544,35.29166369467442],[140.40384516186595,35.29184286390769],[140.40427685623314,35.29200025335965],[140.40470773941186,35.292268538213115],[140.4048418643018,35.29242446087082],[140.40492091111236,35.29271319450898],[140.40491928783607,35.29293498980858],[140.40491717712723,35.29322332324842],[140.4049417942696,35.29355614884784],[140.4049395216828,35.2938666622673],[140.40496495091296,35.294088590666576],[140.4050697534076,35.294554892744756],[140.40501370046312,35.29482078090496],[140.404823841888,35.294886387347546],[140.4046885766577,35.294885721849234],[140.4045533123267,35.294885055451594],[140.4043919685557,35.29475117967385],[140.40417700810366,35.29455049865724],[140.4038538367264,35.294349283443324],[140.403583633619,35.294303589789486],[140.40290294935284,35.29416501955066],[140.40311773983302,35.294513389032325],[140.40347331648158,35.294956423850536],[140.40387744662806,35.29545994796887],[140.40466104751053,35.29601041400006],[140.40565951351695,35.29653182743254],[140.406707699442,35.297143416785914],[140.40692035762962,35.29730283600773],[140.40738531701996,35.29793741023394],[140.40763134994805,35.298357514138615],[140.40770515371108,35.2989437965696],[140.40766873206755,35.29936305421223],[140.4074489053839,35.299728513510736],[140.40708114382093,35.300234625877934],[140.40686606016175,35.300397234095726],[140.40668912934106,35.300562586145084],[140.40645164446903,35.300721125829945],[140.40632315742897,35.300822601732335],[140.4062396679675,35.30088502727284],[140.40615608137927,35.3009605415464],[140.406041793735,35.301085649833524],[140.40614183521873,35.3011620661271],[140.40626965226386,35.301152222147984],[140.40647438292763,35.30110610041685],[140.40660873984268,35.30107534270355],[140.40678149601044,35.30103430034333],[140.4069222785815,35.30099833645471],[140.407069638794,35.3009362247776],[140.40744708515606,35.30085429563988],[140.40769040303087,35.300771707299106],[140.40785897105587,35.300734409715886],[140.4081344828613,35.30067344917099],[140.40857297160656,35.30065932531826],[140.4088727273357,35.30067800333783],[140.40988096537546,35.300808596590116],[140.4105248781618,35.3009740601554],[140.41222476140481,35.30216294591387],[140.41226494302438,35.30212855844137],[140.411502,35.30117],[140.41009248396935,35.297895449759366],[140.4100500001486,35.2978319997976]]]}},{"type":"Feature","properties":{"layer_id":"scenic_nature_areas","name":"自然公園地域","category":"nature","source":"国土交通省 国土数値情報","municipality_code":"12238","municipality_pref":"千葉県","municipality_name":"いすみ市","municipality_code_method":"nearest_centroid","resource_class":"自然公園地域","source_dataset_code":"A10"},"geometry":{"type":"Polygon","coordinates":[[[140.41005000014866,35.297831999797594],[140.40981879883975,35.29742403134461],[140.40963800003493,35.29710500044605],[140.40960400026566,35.29704899966225],[140.40934299992077,35.29678400003222],[140.409313687418,35.29673632247395],[140.4092599996905,35.296649000101915],[140.40917800040566,35.29647400012565],[140.40905099994495,35.296270999757475],[140.4086779998311,35.29570499973659],[140.40831300008614,35.29506800003881],[140.40827600017852,35.2950249998545],[140.4082975081796,35.294942551442475],[140.408146,35.29478],[140.406222,35.290966],[140.4053815869685,35.28806333744039],[140.4052180003517,35.287861999582255],[140.405162999614,35.2878000003204],[140.40506100030618,35.287647999606136],[140.4049919998222,35.2874959997912],[140.40473799980012,35.28667299960989],[140.40469000028455,35.28647000014104],[140.40467599963893,35.28574900016687],[140.40459300030798,35.285495000144785],[140.40424999977893,35.28471700024001],[140.40419499994056,35.28452000014853],[140.40416799959476,35.28431699978036],[140.404154840564,35.28382633643617],[140.40326437136122,35.28075078724962],[140.4032189998982,35.28069299993264],[140.40301999971447,35.28034400002622],[140.4029579995533,35.28019100016517],[140.40285500019937,35.27978000009757],[140.4027519999461,35.27945300030636],[140.40267700008474,35.27926699982282],[140.4025600000852,35.279058000077285],[140.40222299983284,35.27851700030996],[140.4020859998103,35.278258000057306],[140.40203800029474,35.27812800035757],[140.40197600013357,35.27784599994359],[140.4019210002952,35.27744100015268],[140.40183900011104,35.27707999969287],[140.40175599988075,35.27678100029357],[140.4016670002731,35.27656700031745],[140.4014189996284,35.2761039996505],[140.4014049998821,35.27606899983512],[140.40135800041264,35.27595199983556],[140.40115900022894,35.27526499963067],[140.4010279995838,35.274656000324796],[140.40087699981495,35.274182000049905],[140.40080800023028,35.2739120001893],[140.40072600004612,35.273523000236914],[140.40067799963123,35.273302999984104],[140.4005750002773,35.27298199957026],[140.40047900034685,35.272779000101416],[140.4003069996096,35.27236199975712],[140.40021800000196,35.27210300040379],[140.4001630001636,35.27188300015098],[140.4001630001636,35.271652000290224],[140.40021099967916,35.271471000037266],[140.40033600004762,35.27118999966939],[140.4003689997708,35.27098900029277],[140.40031399993242,35.2708350003856],[140.4001349997717,35.27059199997147],[140.3999019998187,35.27013599962732],[140.39985400030312,35.26996599988163],[140.39983300023403,35.269751999905516],[140.39985400030312,35.269504000160126],[140.39984699998033,35.26927899967674],[140.39972299965797,35.268872999839715],[140.39966100039612,35.268591000325046],[140.39957199988913,35.26792100000479],[140.39948899965887,35.2674750001218],[140.3994479995668,35.26739099984541],[140.39938600030493,35.26735099979944],[140.39929999993632,35.26708800026165],[140.39929948732274,35.26708456665007],[140.39925000032852,35.26675300010152],[140.3992630000287,35.266308000264644],[140.39929699979797,35.26621799971156],[140.39928300005167,35.26590799980499],[140.39928300005167,35.265564000129146],[140.39932400014376,35.26535600042972],[140.39935055622445,35.26524746754723],[140.3993929997284,35.26507400001573],[140.3994139997975,35.26484300015498],[140.3994139997975,35.26425099983442],[140.39938600030493,35.26413199974264],[140.3993110004436,35.26401999997366],[140.39936600028196,35.263343000229916],[140.39942700039703,35.26278000034738],[140.39955099982004,35.262154000257546],[140.39957199988913,35.2618950000049],[140.39964000032703,35.26165199959075],[140.39976399975006,35.26141600039874],[140.399819138084,35.2613392306716],[140.3998785194194,35.26091245020006],[140.39993973357312,35.260111129975314],[140.39987390050138,35.25938063046237],[140.39994909821357,35.25884067660658],[140.3995760693214,35.258741621679135],[140.39922055022947,35.25864721624667],[140.39822321646952,35.25841572355744],[140.3981992576309,35.2586940556368],[140.39817553081735,35.25913385739224],[140.3981121771765,35.26010384186945],[140.39800684408186,35.26101951089235],[140.39796601935757,35.26209718109068],[140.39791670053657,35.26284246545806],[140.3977071252249,35.26367554074425],[140.39771268573313,35.26378963413495],[140.39759034735792,35.264074262367956],[140.3975337224446,35.26427772318902],[140.39749146240234,35.26448738213762],[140.39745413783945,35.26467254715097],[140.3974636931362,35.26486122311759],[140.3974628288877,35.264977988394094],[140.39749461902272,35.26512186283435],[140.39760300351705,35.26527510101574],[140.39772419345803,35.265424790472345],[140.3978967014129,35.26554603167467],[140.39814705828138,35.26575386949612],[140.39815688157609,35.26590661664768],[140.39808896027856,35.26625003985809],[140.3981071958317,35.26636130308231],[140.3981064377032,35.26646373496404],[140.39813132823946,35.26701691964577],[140.39820770316425,35.26766053205855],[140.3984760203933,35.26844395937188],[140.3986389595616,35.26988702052023],[140.39891380676804,35.270924561170204],[140.39931080349206,35.27210209388717],[140.399491937744,35.27321201287474],[140.3997278227221,35.27423348084112],[140.4000415808955,35.27569894230299],[140.40013944152327,35.27720511967118],[140.39996120848426,35.277295024896134],[140.39976780927825,35.27747135227173],[140.39983488881035,35.27762146261105],[140.3999248722763,35.2778364428482],[140.39999088161517,35.27799693136393],[140.4000595502493,35.2781369881821],[140.40015149783463,35.27827081000052],[140.40019972308002,35.27855238863247],[140.40023806927275,35.27923765404514],[140.40028720822934,35.28000138980294],[140.40034670467793,35.280846016880815],[140.40045061324648,35.28161002333455],[140.4004661652226,35.28247239673436],[140.4004758608136,35.282643107843796],[140.40049604789556,35.28287674631543],[140.40054989030645,35.28300276471646],[140.40062570675224,35.283119909506865],[140.40075556615773,35.28333612811046],[140.4008419406443,35.283507217834476],[140.40099364188433,35.283732525886],[140.40108028167091,35.283867687694276],[140.40122781904986,35.28465885637176],[140.40122603299628,35.28490136845403],[140.40132962410414,35.28571028345346],[140.40131615765583,35.28605154199571],[140.4013138437002,35.286365909909456],[140.40122448886035,35.28659900519058],[140.40121274101645,35.28670673497848],[140.40110781441535,35.28682298494344],[140.40104544823012,35.287110107895806],[140.40128311926182,35.28708361746561],[140.40149952222643,35.287084688558174],[140.40166100809031,35.287196389752225],[140.40182135361385,35.28746334720635],[140.40184709850607,35.287640917445025],[140.4018712129274,35.28804028298332],[140.40200467321836,35.28828492555951],[140.40213878461847,35.2884408518145],[140.40235323605427,35.28870807546795],[140.40235176926,35.28890769078795],[140.40234899754947,35.289284742347625],[140.40234573750703,35.28972833294685],[140.40239788379657,35.289994755304356],[140.40244840051454,35.29048297206215],[140.4024738216508,35.29070490046143],[140.40260696178314,35.29099390209755],[140.4027674799765,35.29123867867273],[140.4030635835588,35.29143976348494],[140.4034947877955,35.29166369467441],[140.403845161866,35.29184286390769],[140.4042768562332,35.292000253359646],[140.40470773941192,35.29226853821311],[140.40484186430186,35.29242446087081],[140.4049209111124,35.29271319450896],[140.40491928783612,35.29293498980857],[140.4049171771273,35.29322332324841],[140.40494179426966,35.29355614884784],[140.40493952168285,35.29386666226729],[140.404964950913,35.29408859066657],[140.40506975340764,35.29455489274475],[140.40501370046317,35.294820780904956],[140.40482384188806,35.29488638734754],[140.40468857665775,35.29488572184923],[140.40455331232675,35.29488505545159],[140.40439196855576,35.29475117967385],[140.40417700810372,35.29455049865723],[140.40385383672646,35.29434928344332],[140.40358363361906,35.29430358978948],[140.4029029493529,35.294165019550654],[140.40311773983308,35.29451338903232],[140.40347331648164,35.29495642385052],[140.40387744662812,35.295459947968865],[140.4046610475106,35.29601041400005],[140.405659513517,35.29653182743253],[140.40670769944205,35.2971434167859],[140.40692035762967,35.29730283600772],[140.40738531702002,35.297937410233935],[140.4076313499481,35.29835751413861],[140.40770515371113,35.298943796569596],[140.4076687320676,35.29936305421222],[140.40744890538394,35.29972851351073],[140.407081143821,35.30023462587793],[140.4068660601618,35.30039723409572],[140.40668912934112,35.30056258614508],[140.4064516444691,35.30072112582994],[140.40632315742903,35.30082260173233],[140.40623966796755,35.300885027272834],[140.40615608137932,35.300960541546395],[140.40604179373506,35.30108564983352],[140.4061418352188,35.30116206612709],[140.40626965226392,35.30115222214798],[140.40647438292768,35.301106100416845],[140.40660873984274,35.30107534270354],[140.4067814960105,35.301034300343325],[140.40692227858156,35.300998336454704],[140.40706963879407,35.300936224777594],[140.40744708515612,35.30085429563987],[140.40769040303093,35.30077170729909],[140.40785897105593,35.30073440971588],[140.40813448286136,35.300673449170986],[140.40857297160662,35.30065932531825],[140.40887272733576,35.30067800333782],[140.40988096537552,35.3008085965901],[140.41052487816185,35.30097406015539],[140.41222476140487,35.302162945913864],[140.4122649430244,35.30212855844139],[140.411502,35.30117],[140.41009248396924,35.29789544975911],[140.41005000014866,35.297831999797594]]]}},{"type":"Feature","properties":{"layer_id":"scenic_nature_areas","name":"自然公園地域","category":"nature","source":"国土交通省 国土数値情報","municipality_code":"12238","municipality_pref":"千葉県","municipality_name":"いすみ市","municipality_code_method":"nearest_centroid","resource_class":"自然公園地域","source_dataset_code":"A10"},"geometry":{"type":"Polygon","coordinates":[[[140.40672600035208,35.249508000067316],[140.40666999956827,35.24949100018267],[140.40660900035252,35.2494859999521],[140.40655399961483,35.24949500036713],[140.40643500042236,35.24955400038997],[140.40629100007703,35.24963799976704],[140.40627600028463,35.24961799974405],[140.40627300014629,35.24957000022849],[140.4062809996159,35.24953100022864],[140.40629868298527,35.24948458262055],[140.40636900007672,35.24930000036789],[140.4063669999845,35.24921099986092],[140.40628491493993,35.24903993680319],[140.40614656677354,35.24890479892575],[140.40594186610483,35.248828806635444],[140.40596970927965,35.24893468397129],[140.40615300000837,35.24900800039207],[140.40617700021582,35.24905199972317],[140.40624899993884,35.24920100029909],[140.4062530001233,35.24929199999897],[140.40617403335239,35.24953518117684],[140.40616499966245,35.24956299990569],[140.4061629995702,35.2496209998824],[140.4062039996623,35.24968300004358],[140.40615099991615,35.24970099997433],[140.40612499961648,35.24973000041235],[140.40608599961664,35.24979499981255],[140.4060539999396,35.24982400025058],[140.40602200026254,35.24983599990463],[140.40592400023985,35.24984100013521],[140.40587099959438,35.24982999962795],[140.40554584161472,35.24980462165912],[140.4053361565858,35.24989939581363],[140.40521034323018,35.249994998243736],[140.405204464362,35.25022945959505],[140.4052206557561,35.25072761296213],[140.40534979120733,35.25085325274858],[140.40549481947778,35.25089755694986],[140.40568358087998,35.25085966851206],[140.40584546874084,35.25086335033651],[140.4059655210394,35.25091783396403],[140.4060879646353,35.25102785252653],[140.40622374697577,35.25113394644763],[140.40627139750697,35.25113222265526],[140.407032,35.250343],[140.406803,35.249546],[140.40678783714256,35.24953118898788],[140.40672600035208,35.249508000067316]]]}},{"type":"Feature","properties":{"layer_id":"scenic_nature_areas","name":"自然公園特別地域","category":"nature","source":"国土交通省 国土数値情報","municipality_code":"12238","municipality_pref":"千葉県","municipality_name":"いすみ市","municipality_code_method":"nearest_centroid","resource_class":"自然公園特別地域","source_dataset_code":"A10"},"geometry":{"type":"Polygon","coordinates":[[[140.4067260003521,35.249508000067316],[140.4066699995683,35.24949100018267],[140.40660900035255,35.2494859999521],[140.40655399961486,35.24949500036713],[140.4064350004224,35.24955400038997],[140.40629100007706,35.249637999767046],[140.40627600028466,35.24961799974405],[140.4062730001463,35.24957000022849],[140.40628099961592,35.24953100022864],[140.4062986829853,35.24948458262055],[140.40636900007675,35.24930000036789],[140.40636699998453,35.24921099986092],[140.40628491494,35.24903993680324],[140.40614656677351,35.248904798925736],[140.40594186610483,35.24882880663544],[140.40596970927965,35.24893468397128],[140.4061530000084,35.24900800039207],[140.40617700021585,35.24905199972317],[140.40624899993887,35.24920100029909],[140.40625300012331,35.24929199999897],[140.4061740333524,35.24953518117683],[140.40616499966248,35.249562999905685],[140.40616299957023,35.2496209998824],[140.40620399966232,35.24968300004358],[140.40615099991618,35.24970099997433],[140.4061249996165,35.24973000041235],[140.40608599961666,35.24979499981255],[140.40605399993962,35.249824000250584],[140.40602200026257,35.24983599990463],[140.40592400023988,35.24984100013522],[140.4058709995944,35.24982999962794],[140.40554584161475,35.24980462165912],[140.40533615658583,35.24989939581363],[140.4052103432302,35.249994998243736],[140.40520446436201,35.25022945959505],[140.40522065575612,35.25072761296213],[140.40534979120736,35.25085325274858],[140.4054948194778,35.250897556949866],[140.40568358088,35.25085966851206],[140.40584546874086,35.250863350336516],[140.40596552103943,35.25091783396403],[140.40608796463533,35.25102785252653],[140.4062237469758,35.25113394644763],[140.40627139750697,35.25113222265526],[140.407032,35.250343],[140.406803,35.249546],[140.40678783714256,35.249531188987866],[140.4067260003521,35.249508000067316]]]}},{"type":"Feature","properties":{"layer_id":"cultural_facilities","name":"いすみ市郷土資料館（田園の美術館）","category":"public","address":"弥正93-1","source":"国土交通省 国土数値情報","municipality_code":"12238","municipality_pref":"千葉県","municipality_name":"いすみ市","municipality_code_method":"nearest_centroid"},"geometry":{"type":"Point","coordinates":[140.308869,35.285242]}},{"type":"Feature","properties":{"layer_id":"parks_playgrounds","name":"梶野下公園","category":"nature","address":"いすみ市","source":"国土交通省 国土数値情報","municipality_code":"12238","municipality_pref":"千葉県","municipality_name":"いすみ市","municipality_code_method":"nearest_centroid"},"geometry":{"type":"Point","coordinates":[140.39347189,35.25550092]}},{"type":"Feature","properties":{"layer_id":"parks_playgrounds","name":"音羽の森公園","category":"nature","address":"いすみ市","source":"国土交通省 国土数値情報","municipality_code":"12238","municipality_pref":"千葉県","municipality_name":"いすみ市","municipality_code_method":"nearest_centroid"},"geometry":{"type":"Point","coordinates":[140.35757901,35.29023247]}},{"type":"Feature","properties":{"layer_id":"parks_playgrounds","name":"椿公園","category":"nature","address":"いすみ市","source":"国土交通省 国土数値情報","municipality_code":"12238","municipality_pref":"千葉県","municipality_name":"いすみ市","municipality_code_method":"nearest_centroid"},"geometry":{"type":"Point","coordinates":[140.38268019,35.25565516]}},{"type":"Feature","properties":{"layer_id":"parks_playgrounds","name":"伊能滝公園","category":"nature","address":"いすみ市","source":"国土交通省 国土数値情報","municipality_code":"12238","municipality_pref":"千葉県","municipality_name":"いすみ市","municipality_code_method":"nearest_centroid"},"geometry":{"type":"Point","coordinates":[140.39545723,35.25961386]}},{"type":"Feature","properties":{"layer_id":"parks_playgrounds","name":"大原駅前北広場公園","category":"nature","address":"いすみ市","source":"国土交通省 国土数値情報","municipality_code":"12238","municipality_pref":"千葉県","municipality_name":"いすみ市","municipality_code_method":"nearest_centroid"},"geometry":{"type":"Point","coordinates":[140.39073173,35.25172436]}},{"type":"Feature","properties":{"layer_id":"parks_playgrounds","name":"瀬崎公園","category":"nature","address":"いすみ市","source":"国土交通省 国土数値情報","municipality_code":"12238","municipality_pref":"千葉県","municipality_name":"いすみ市","municipality_code_method":"nearest_centroid"},"geometry":{"type":"Point","coordinates":[140.39556856,35.25780984]}},{"type":"Feature","properties":{"layer_id":"parks_playgrounds","name":"沢田公園","category":"nature","address":"いすみ市","source":"国土交通省 国土数値情報","municipality_code":"12238","municipality_pref":"千葉県","municipality_name":"いすみ市","municipality_code_method":"nearest_centroid"},"geometry":{"type":"Point","coordinates":[140.39117704,35.24241413]}},{"type":"Feature","properties":{"layer_id":"parks_playgrounds","name":"長者児童遊園","category":"nature","address":"いすみ市","source":"国土交通省 国土数値情報","municipality_code":"12238","municipality_pref":"千葉県","municipality_name":"いすみ市","municipality_code_method":"nearest_centroid"},"geometry":{"type":"Point","coordinates":[140.38818169,35.29524456]}},{"type":"Feature","properties":{"layer_id":"parks_playgrounds","name":"塩田公園","category":"nature","address":"いすみ市","source":"国土交通省 国土数値情報","municipality_code":"12238","municipality_pref":"千葉県","municipality_name":"いすみ市","municipality_code_method":"nearest_centroid"},"geometry":{"type":"Point","coordinates":[140.39612999,35.25554531]}},{"type":"Feature","properties":{"layer_id":"parks_playgrounds","name":"大原駅前南広場公園","category":"nature","address":"いすみ市","source":"国土交通省 国土数値情報","municipality_code":"12238","municipality_pref":"千葉県","municipality_name":"いすみ市","municipality_code_method":"nearest_centroid"},"geometry":{"type":"Point","coordinates":[140.39072125,35.25053381]}},{"type":"Feature","properties":{"layer_id":"tourism_resources","name":"太東岬（太東崎）","category":"nature","address":"海岸景観 / 海食崖","source":"国土交通省 国土数値情報","municipality_code":"12238","municipality_pref":"千葉県","municipality_name":"いすみ市","municipality_code_method":"nearest_centroid","resource_code":"812"},"geometry":{"type":"Point","coordinates":[140.4149169921875,35.30582046508789]}},{"type":"Feature","properties":{"layer_id":"tourism_resources","name":"台河湿地","category":"nature","address":"湖沼景観 / 湿原","source":"国土交通省 国土数値情報","municipality_code":"12238","municipality_pref":"千葉県","municipality_name":"いすみ市","municipality_code_method":"nearest_centroid","resource_code":"702"},"geometry":{"type":"Point","coordinates":[140.3418731689453,35.270999908447266]}},{"type":"Feature","properties":{"layer_id":"tourism_resources","name":"八幡岬","category":"nature","address":"海岸景観 / 海食崖","source":"国土交通省 国土数値情報","municipality_code":"12238","municipality_pref":"千葉県","municipality_name":"いすみ市","municipality_code_method":"nearest_centroid","resource_code":"812"},"geometry":{"type":"Point","coordinates":[140.4066162109375,35.24982833862305]}}],"display_comment_original":"いすみ市には、江戸期の苅谷藩と苅谷藩陣屋跡に連なる領主・城下の記憶が残る。 この地域には寺社や信仰の場、城跡や陣屋跡、古墳や貝塚に関わる場所が見え、鶴ヶ城跡、万喜城跡、大野城跡のような地点が探索の入口になる。 現地では城跡・陣屋跡、史跡説明板が手がかりになりそうだ。さらに苅谷藩ゆかりの領主碑や旧領境を示すしるべにも期待できる。","story_enrichment":{"samurai_priority_people":[],"notable_people":["つげ義春","春日錦孝嘉","河野密","吉原三郎","青木半治"],"honorary_citizens":[],"tourism_landmarks":["出雲大社上総分院（上総出雲大社）","小浜八幡神社","大原八幡神社","廣田神社","清水寺（坂東三十三観音霊場32番札所）","大聖寺","行元寺（波の伊八、欄間彫刻「波と宝珠」）","長福寺（波の伊八、欄間彫刻「波雲に龍」、「波に麒麟」）"],"specialties":[],"food_culture":[],"historical_domains":["大多喜藩","苅谷藩"],"heian_place_names":[],"japan_search_support":[],"enrichment_sources":["https://ja.wikipedia.org/wiki/%E3%81%84%E3%81%99%E3%81%BF%E5%B8%82","https://www.wikidata.org/wiki/Q1353888","https://www.wikidata.org/wiki/Q6374880","https://www.wikidata.org/wiki/Q11554187","https://www.wikidata.org/wiki/Q11412688","https://www.wikidata.org/wiki/Q5648250","https://www.wikidata.org/wiki/Q17991307","https://jpsearch.go.jp/csearch/jps-cross?csid=jps-cross&keyword=%E3%81%A4%E3%81%92%E7%BE%A9%E6%98%A5&keyword=%E3%81%84%E3%81%99%E3%81%BF%E5%B8%82"],"enrichment_errors":[],"wikipedia_title":"いすみ市","wikipedia_revision_id":"110659600","wikidata_qid":"Q840834","wikipedia_url":"https://ja.wikipedia.org/wiki/%E3%81%84%E3%81%99%E3%81%BF%E5%B8%82","japan_search_query_url":"https://jpsearch.go.jp/csearch/jps-cross?csid=jps-cross&keyword=%E3%81%A4%E3%81%92%E7%BE%A9%E6%98%A5&keyword=%E3%81%84%E3%81%99%E3%81%BF%E5%B8%82","status":"wikipedia_ok"}}