{"type":"FeatureCollection","municipality_code":"13110","pref":"東京都","city":"目黒区","display_comment":"目黒区には、上目黒村、中目黒村、下目黒村など、近世の村々の記憶を伝える地名が残っています。 周辺には寺社や信仰の場、史跡や遺跡、古墳や貝塚にまつわる場所が点在し、「中目黒遺跡」、「目黒不動遺跡」、「東光寺裏山遺跡」などを起点に歩くと、地域の歴史がぐっと見えやすくなります。 現地では史跡説明板に加え、上目黒村や中目黒村にゆかりのある旧境石標、村の歴史を紹介する案内板にも注目してみてください。 川沿いや水辺では、その土地の暮らしや水との関わりを伝える歴史案内板が見つかるかもしれません。","layer_counts":{"cafe_restaurant":83,"public_facilities":72,"cultural_facilities":38,"parks_playgrounds":68},"total_features":261,"features":[{"type":"Feature","properties":{"layer_id":"cafe_restaurant","name":"タイの食卓クルン・サイアム　自由が丘店","address":"東京都目黒区自由が丘二丁目１１番１６号 エクセレンスビル２F","source":"厚生労働省 食品衛生申請等システム（オープンデータ）"},"geometry":{"type":"Point","coordinates":[139.667391,35.607542]}},{"type":"Feature","properties":{"layer_id":"cafe_restaurant","name":"タイの食卓クルン・サイアム　中目黒店","address":"東京都目黒区上目黒一丁目6番5号 森ビル２F","source":"厚生労働省 食品衛生申請等システム（オープンデータ）"},"geometry":{"type":"Point","coordinates":[139.700589,35.645349]}},{"type":"Feature","properties":{"layer_id":"cafe_restaurant","name":"おにまる自由が丘店","address":"東京都目黒区自由が丘一丁目31番11号 etomo自由が丘1階","source":"厚生労働省 食品衛生申請等システム（オープンデータ）"},"geometry":{"type":"Point","coordinates":[139.668327,35.607091]}},{"type":"Feature","properties":{"layer_id":"cafe_restaurant","name":"キッチンオリジン　学芸大学店","address":"東京都目黒区五本木二丁目54番10号","source":"厚生労働省 食品衛生申請等システム（オープンデータ）"},"geometry":{"type":"Point","coordinates":[139.686899,35.632498]}},{"type":"Feature","properties":{"layer_id":"cafe_restaurant","name":"キッチンオリジン　池尻大橋店","address":"東京都目黒区東山三丁目4番6号","source":"厚生労働省 食品衛生申請等システム（オープンデータ）"},"geometry":{"type":"Point","coordinates":[139.686352,35.649979]}},{"type":"Feature","properties":{"layer_id":"cafe_restaurant","name":"キッチンオリジン学芸大学駅前店","address":"東京都目黒区鷹番二丁目19番21号","source":"厚生労働省 食品衛生申請等システム（オープンデータ）"},"geometry":{"type":"Point","coordinates":[139.686374,35.628797]}},{"type":"Feature","properties":{"layer_id":"cafe_restaurant","name":"七甲山都立大学店","address":"東京都目黒区中根2-13-4 ハイツ大河原　１F","source":"厚生労働省 食品衛生申請等システム（オープンデータ）"},"geometry":{"type":"Point","coordinates":[139.676372,35.616666]}},{"type":"Feature","properties":{"layer_id":"cafe_restaurant","name":"イーズデリ　オオゼキ碑文谷店","address":"東京都目黒区碑文谷四丁目16番14号","source":"厚生労働省 食品衛生申請等システム（オープンデータ）"},"geometry":{"type":"Point","coordinates":[139.6821,35.621285]}},{"type":"Feature","properties":{"layer_id":"cafe_restaurant","name":"イーズデリ　オオゼキ祐天寺店","address":"東京都目黒区中町2丁目50番16号","source":"厚生労働省 食品衛生申請等システム（オープンデータ）"},"geometry":{"type":"Point","coordinates":[139.690375,35.633656]}},{"type":"Feature","properties":{"layer_id":"cafe_restaurant","name":"ビオセボン　自由が丘店","address":"東京都目黒区自由が丘2丁目11-21   NEWNO自由が丘1階","source":"厚生労働省 食品衛生申請等システム（オープンデータ）"},"geometry":{"type":"Point","coordinates":[139.667575,35.607776]}},{"type":"Feature","properties":{"layer_id":"cafe_restaurant","name":"ビオセボン　中目黒店","address":"東京都目黒区上目黒1丁目26番2号 中目黒アトラスタワー1階","source":"厚生労働省 食品衛生申請等システム（オープンデータ）"},"geometry":{"type":"Point","coordinates":[139.700756,35.643656]}},{"type":"Feature","properties":{"layer_id":"cafe_restaurant","name":"ドン・キホーテ中目黒本店","address":"東京都目黒区青葉台二丁目19番10号","source":"厚生労働省 食品衛生申請等システム（オープンデータ）"},"geometry":{"type":"Point","coordinates":[139.692875,35.648742]}},{"type":"Feature","properties":{"layer_id":"cafe_restaurant","name":"MARZAC7","address":"東京都目黒区上目黒一丁目14番5号","source":"厚生労働省 食品衛生申請等システム（オープンデータ）"},"geometry":{"type":"Point","coordinates":[139.698666,35.646083]}},{"type":"Feature","properties":{"layer_id":"cafe_restaurant","name":"魚屋路　碑文谷店","address":"東京都目黒区碑文谷２丁目１－１８","source":"厚生労働省 食品衛生申請等システム（オープンデータ）"},"geometry":{"type":"Point","coordinates":[139.688542,35.624875]}},{"type":"Feature","properties":{"layer_id":"cafe_restaurant","name":"ジョナサン 都立大学駅前店","address":"東京都目黒区柿の木坂１丁目３０－１６ 松壽ハイツ１Ｆ","source":"厚生労働省 食品衛生申請等システム（オープンデータ）"},"geometry":{"type":"Point","coordinates":[139.676096,35.618744]}},{"type":"Feature","properties":{"layer_id":"cafe_restaurant","name":"ガスト 学芸大学店","address":"東京都目黒区鷹番２丁目２０－６ タシロビル２階","source":"厚生労働省 食品衛生申請等システム（オープンデータ）"},"geometry":{"type":"Point","coordinates":[139.686751,35.62903]}},{"type":"Feature","properties":{"layer_id":"cafe_restaurant","name":"くら寿司　中目黒駅前店","address":"東京都目黒区上目黒３丁目７番６号 松村第二ビル1F","source":"厚生労働省 食品衛生申請等システム（オープンデータ）"},"geometry":{"type":"Point","coordinates":[139.698018,35.643874]}},{"type":"Feature","properties":{"layer_id":"cafe_restaurant","name":"くら寿司　無添蔵 中目黒店","address":"東京都目黒区上目黒3丁目7番11号 松村ビル2F","source":"厚生労働省 食品衛生申請等システム（オープンデータ）"},"geometry":{"type":"Point","coordinates":[139.698123,35.644099]}},{"type":"Feature","properties":{"layer_id":"cafe_restaurant","name":"グテ　学芸大学駅店","address":"東京都目黒区鷹番3丁目8-1","source":"厚生労働省 食品衛生申請等システム（オープンデータ）"},"geometry":{"type":"Point","coordinates":[139.685693,35.629853]}},{"type":"Feature","properties":{"layer_id":"cafe_restaurant","name":"we ♡ donuts自由が丘店","address":"東京都目黒区自由が丘1-3-13　8ビル1階","source":"厚生労働省 食品衛生申請等システム（オープンデータ）"},"geometry":{"type":"Point","coordinates":[139.670978,35.608586]}},{"type":"Feature","properties":{"layer_id":"cafe_restaurant","name":"洗足東急ストア","address":"東京都目黒区洗足二丁目２１番１号","source":"厚生労働省 食品衛生申請等システム（オープンデータ）"},"geometry":{"type":"Point","coordinates":[139.694368,35.610398]}},{"type":"Feature","properties":{"layer_id":"cafe_restaurant","name":"フレル・ウィズ自由が丘　東急ストア","address":"東京都目黒区自由が丘一丁目６番９号","source":"厚生労働省 食品衛生申請等システム（オープンデータ）"},"geometry":{"type":"Point","coordinates":[139.670321,35.607734]}},{"type":"Feature","properties":{"layer_id":"cafe_restaurant","name":"学芸大学東急ストア","address":"東京都目黒区鷹番三丁目１番１１号","source":"厚生労働省 食品衛生申請等システム（オープンデータ）"},"geometry":{"type":"Point","coordinates":[139.685579,35.629333]}},{"type":"Feature","properties":{"layer_id":"cafe_restaurant","name":"清水台東急ストア","address":"東京都目黒区下目黒四丁目１１番１８号","source":"厚生労働省 食品衛生申請等システム（オープンデータ）"},"geometry":{"type":"Point","coordinates":[139.704017,35.631135]}},{"type":"Feature","properties":{"layer_id":"cafe_restaurant","name":"祐天寺　東急ストア","address":"東京都目黒区祐天寺二丁目１３番６号","source":"厚生労働省 食品衛生申請等システム（オープンデータ）"},"geometry":{"type":"Point","coordinates":[139.690976,35.637585]}},{"type":"Feature","properties":{"layer_id":"cafe_restaurant","name":"祐天寺　東急ストア","address":"東京都目黒区祐天寺二丁目１３番６号","source":"厚生労働省 食品衛生申請等システム（オープンデータ）"},"geometry":{"type":"Point","coordinates":[139.690976,35.637585]}},{"type":"Feature","properties":{"layer_id":"cafe_restaurant","name":"プレッセ中目黒店","address":"東京都目黒区上目黒二丁目１番１号 中目黒GTタワーB１東側","source":"厚生労働省 食品衛生申請等システム（オープンデータ）"},"geometry":{"type":"Point","coordinates":[139.698979,35.643737]}},{"type":"Feature","properties":{"layer_id":"cafe_restaurant","name":"プレッセ中目黒店","address":"東京都目黒区上目黒二丁目１番１号 中目黒GTタワーB１東側","source":"厚生労働省 食品衛生申請等システム（オープンデータ）"},"geometry":{"type":"Point","coordinates":[139.698979,35.643737]}},{"type":"Feature","properties":{"layer_id":"cafe_restaurant","name":"中目黒東急ストア","address":"東京都目黒区上目黒一丁目２１番１２号","source":"厚生労働省 食品衛生申請等システム（オープンデータ）"},"geometry":{"type":"Point","coordinates":[139.699234,35.645054]}},{"type":"Feature","properties":{"layer_id":"cafe_restaurant","name":"中目黒東急ストア","address":"東京都目黒区上目黒一丁目２１番１２号","source":"厚生労働省 食品衛生申請等システム（オープンデータ）"},"geometry":{"type":"Point","coordinates":[139.699234,35.645054]}},{"type":"Feature","properties":{"layer_id":"cafe_restaurant","name":"洗足東急ストア","address":"東京都目黒区洗足二丁目２１番１号","source":"厚生労働省 食品衛生申請等システム（オープンデータ）"},"geometry":{"type":"Point","coordinates":[139.694368,35.610398]}},{"type":"Feature","properties":{"layer_id":"cafe_restaurant","name":"学芸大学東急ストア","address":"東京都目黒区鷹番三丁目１番１１号","source":"厚生労働省 食品衛生申請等システム（オープンデータ）"},"geometry":{"type":"Point","coordinates":[139.685579,35.629333]}},{"type":"Feature","properties":{"layer_id":"cafe_restaurant","name":"フレル・ウィズ自由が丘　東急ストア","address":"東京都目黒区自由が丘一丁目６番９号","source":"厚生労働省 食品衛生申請等システム（オープンデータ）"},"geometry":{"type":"Point","coordinates":[139.670321,35.607734]}},{"type":"Feature","properties":{"layer_id":"cafe_restaurant","name":"都立大学東急ストア","address":"東京都目黒区中根一丁目４番３号","source":"厚生労働省 食品衛生申請等システム（オープンデータ）"},"geometry":{"type":"Point","coordinates":[139.677168,35.61868]}},{"type":"Feature","properties":{"layer_id":"cafe_restaurant","name":"都立大学東急ストア","address":"東京都目黒区中根一丁目４番３号","source":"厚生労働省 食品衛生申請等システム（オープンデータ）"},"geometry":{"type":"Point","coordinates":[139.677168,35.61868]}},{"type":"Feature","properties":{"layer_id":"cafe_restaurant","name":"大岡山東急ストア","address":"東京都目黒区大岡山二丁目１０番１号","source":"厚生労働省 食品衛生申請等システム（オープンデータ）"},"geometry":{"type":"Point","coordinates":[139.684276,35.607034]}},{"type":"Feature","properties":{"layer_id":"cafe_restaurant","name":"大岡山東急ストア","address":"東京都目黒区大岡山二丁目１０番１号","source":"厚生労働省 食品衛生申請等システム（オープンデータ）"},"geometry":{"type":"Point","coordinates":[139.684276,35.607034]}},{"type":"Feature","properties":{"layer_id":"cafe_restaurant","name":"デニーズ祐天寺店","address":"東京都目黒区中町二丁目48番7号","source":"厚生労働省 食品衛生申請等システム（オープンデータ）"},"geometry":{"type":"Point","coordinates":[139.692118,35.634571]}},{"type":"Feature","properties":{"layer_id":"cafe_restaurant","name":"Zen集中カフェ","address":"東京都目黒区下目黒2-16-14 プラチナフォルム目黒1F 100","source":"厚生労働省 食品衛生申請等システム（オープンデータ）"},"geometry":{"type":"Point","coordinates":[139.711461,35.629476]}},{"type":"Feature","properties":{"layer_id":"cafe_restaurant","name":"鳥貴族　都立大学駅前店","address":"東京都目黒区平町一丁目27番1号 ﾊﾟﾙ都立大ﾋﾞﾙ地下1階","source":"厚生労働省 食品衛生申請等システム（オープンデータ）"},"geometry":{"type":"Point","coordinates":[139.676242,35.617304]}},{"type":"Feature","properties":{"layer_id":"cafe_restaurant","name":"鳥貴族　目黒西口店","address":"東京都目黒区下目黒一丁目1番2号 七幸5ﾋﾞﾙ4階・5階","source":"厚生労働省 食品衛生申請等システム（オープンデータ）"},"geometry":{"type":"Point","coordinates":[139.714254,35.63361]}},{"type":"Feature","properties":{"layer_id":"cafe_restaurant","name":"鳥貴族 自由が丘北口店","address":"東京都目黒区自由が丘一丁目14番15号 ｻｰｶｽ自由が丘2階","source":"厚生労働省 食品衛生申請等システム（オープンデータ）"},"geometry":{"type":"Point","coordinates":[139.669837,35.608675]}},{"type":"Feature","properties":{"layer_id":"cafe_restaurant","name":"知るカフェ東京大学(駒場)前店","address":"東京都目黒区駒場2-1-7 駒場パークサイドヒルズ1F","source":"厚生労働省 食品衛生申請等システム（オープンデータ）"},"geometry":{"type":"Point","coordinates":[139.683228,35.658658]}},{"type":"Feature","properties":{"layer_id":"cafe_restaurant","name":"カラオケ館　自由が丘店","address":"東京都目黒区自由が丘二丁目11番16号","source":"厚生労働省 食品衛生申請等システム（オープンデータ）"},"geometry":{"type":"Point","coordinates":[139.667381,35.607834]}},{"type":"Feature","properties":{"layer_id":"cafe_restaurant","name":"木曽路碑文谷店","address":"東京都目黒区碑文谷三丁目17番15号","source":"厚生労働省 食品衛生申請等システム（オープンデータ）"},"geometry":{"type":"Point","coordinates":[139.68282,35.61727]}},{"type":"Feature","properties":{"layer_id":"cafe_restaurant","name":"町田商店　池尻大橋店","address":"東京都目黒区東山3-15-2 ソナー第二ビル１階","source":"厚生労働省 食品衛生申請等システム（オープンデータ）"},"geometry":{"type":"Point","coordinates":[139.684871,35.650402]}},{"type":"Feature","properties":{"layer_id":"cafe_restaurant","name":"屋台屋　博多劇場　目黒店","address":"東京都目黒区下目黒一丁目3番28号 サンウッド目黒1階","source":"厚生労働省 食品衛生申請等システム（オープンデータ）"},"geometry":{"type":"Point","coordinates":[139.712993,35.634264]}},{"type":"Feature","properties":{"layer_id":"cafe_restaurant","name":"すき家　目黒三丁目店","address":"東京都目黒区目黒三丁目9番3号 須田ビル102号室","source":"厚生労働省 食品衛生申請等システム（オープンデータ）"},"geometry":{"type":"Point","coordinates":[139.70793,35.632776]}},{"type":"Feature","properties":{"layer_id":"cafe_restaurant","name":"FLIPPER'S 自由が丘店","address":"東京都目黒区自由が丘一丁目8番7号　3階","source":"厚生労働省 食品衛生申請等システム（オープンデータ）"},"geometry":{"type":"Point","coordinates":[139.669288,35.606922]}},{"type":"Feature","properties":{"layer_id":"cafe_restaurant","name":"おむすびごっつ食べなはれ・咖哩屋ボングー中目黒","address":"東京都目黒区上目黒1-19-7 タカギアネックス1階～3階","source":"厚生労働省 食品衛生申請等システム（オープンデータ）"},"geometry":{"type":"Point","coordinates":[139.698496,35.645005]}},{"type":"Feature","properties":{"layer_id":"cafe_restaurant","name":"Roasted COFFEE LABORATORY自由が丘店","address":"東京都目黒区自由が丘2-17-7","source":"厚生労働省 食品衛生申請等システム（オープンデータ）"},"geometry":{"type":"Point","coordinates":[139.667164,35.609434]}},{"type":"Feature","properties":{"layer_id":"cafe_restaurant","name":"温野菜　中目黒店","address":"東京都目黒区上目黒二丁目12番11号２F","source":"厚生労働省 食品衛生申請等システム（オープンデータ）"},"geometry":{"type":"Point","coordinates":[139.698467,35.642597]}},{"type":"Feature","properties":{"layer_id":"cafe_restaurant","name":"京樽 都立大学東急ストア店","address":"東京都目黒区中根１丁目４番３号 東急ストア１F","source":"厚生労働省 食品衛生申請等システム（オープンデータ）"},"geometry":{"type":"Point","coordinates":[139.67708,35.618753]}},{"type":"Feature","properties":{"layer_id":"cafe_restaurant","name":"CHOPPED SALAD DAY　中目黒店","address":"東京都目黒区上目黒1-17-8 中目黒K.R.Kビル　1-2階","source":"厚生労働省 食品衛生申請等システム（オープンデータ）"},"geometry":{"type":"Point","coordinates":[139.697858,35.645606]}},{"type":"Feature","properties":{"layer_id":"cafe_restaurant","name":"松屋　中目黒店","address":"東京都目黒区上目黒3-3-1 中津川ビル1・2F","source":"厚生労働省 食品衛生申請等システム（オープンデータ）"},"geometry":{"type":"Point","coordinates":[139.698478,35.644578]}},{"type":"Feature","properties":{"layer_id":"cafe_restaurant","name":"松屋　学芸大学店","address":"東京都目黒区鷹番三丁目8番7号 O･Nビル1F","source":"厚生労働省 食品衛生申請等システム（オープンデータ）"},"geometry":{"type":"Point","coordinates":[139.685165,35.629312]}},{"type":"Feature","properties":{"layer_id":"cafe_restaurant","name":"松屋　祐天寺店","address":"東京都目黒区祐天寺二丁目2番7号 青埜ビル1F","source":"厚生労働省 食品衛生申請等システム（オープンデータ）"},"geometry":{"type":"Point","coordinates":[139.691745,35.637601]}},{"type":"Feature","properties":{"layer_id":"cafe_restaurant","name":"フロレスタ学芸大学店","address":"東京都目黒区鷹番3-14-6","source":"厚生労働省 食品衛生申請等システム（オープンデータ）"},"geometry":{"type":"Point","coordinates":[139.684297,35.6294]}},{"type":"Feature","properties":{"layer_id":"cafe_restaurant","name":"東京共済病院内レストランビアンモール","address":"東京都目黒区中目黒二丁目３番８号","source":"厚生労働省 食品衛生申請等システム（オープンデータ）"},"geometry":{"type":"Point","coordinates":[139.704226,35.641495]}},{"type":"Feature","properties":{"layer_id":"cafe_restaurant","name":"本気野菜マルシェ（川崎830さ8315）","address":"東京都目黒区中目黒1丁目付近","source":"厚生労働省 食品衛生申請等システム（オープンデータ）"},"geometry":{"type":"Point","coordinates":[139.701986,35.643624]}},{"type":"Feature","properties":{"layer_id":"cafe_restaurant","name":"土間土間　自由が丘店","address":"東京都目黒区自由が丘2-10-8 自由が丘エヌケービル５Ｆ","source":"厚生労働省 食品衛生申請等システム（オープンデータ）"},"geometry":{"type":"Point","coordinates":[139.667814,35.608198]}},{"type":"Feature","properties":{"layer_id":"cafe_restaurant","name":"AKOMEYA TOKYO JIYUGAOKA de aone","address":"東京都目黒区自由が丘2-15-4 JIYUGAOKA de aone　1階","source":"厚生労働省 食品衛生申請等システム（オープンデータ）"},"geometry":{"type":"Point","coordinates":[139.666697,35.607708]}},{"type":"Feature","properties":{"layer_id":"cafe_restaurant","name":"目黒区児童発達支援センター　すくすくのびのび園","address":"東京都目黒区中央町二丁目23番24号","source":"厚生労働省 食品衛生申請等システム（オープンデータ）"},"geometry":{"type":"Point","coordinates":[139.690938,35.63083]}},{"type":"Feature","properties":{"layer_id":"cafe_restaurant","name":"九州らーめん　博多吉もん","address":"東京都目黒区自由が丘1-10-5 タイガービル1階","source":"厚生労働省 食品衛生申請等システム（オープンデータ）"},"geometry":{"type":"Point","coordinates":[139.669145,35.607745]}},{"type":"Feature","properties":{"layer_id":"cafe_restaurant","name":"ラベンダーキッチン","address":"東京都目黒区自由が丘1-10-5 タイガービル3階","source":"厚生労働省 食品衛生申請等システム（オープンデータ）"},"geometry":{"type":"Point","coordinates":[139.669145,35.607745]}},{"type":"Feature","properties":{"layer_id":"cafe_restaurant","name":"ラベンダーキッチン","address":"東京都目黒区自由が丘1-10-5 タイガービル3階","source":"厚生労働省 食品衛生申請等システム（オープンデータ）"},"geometry":{"type":"Point","coordinates":[139.669145,35.607745]}},{"type":"Feature","properties":{"layer_id":"cafe_restaurant","name":"つけめん　結心","address":"東京都目黒区自由が丘1-11-3","source":"厚生労働省 食品衛生申請等システム（オープンデータ）"},"geometry":{"type":"Point","coordinates":[139.669409,35.608249]}},{"type":"Feature","properties":{"layer_id":"cafe_restaurant","name":"沖縄料理とそーきそば　たいよう食堂","address":"東京都目黒区自由が丘2-11-13","source":"厚生労働省 食品衛生申請等システム（オープンデータ）"},"geometry":{"type":"Point","coordinates":[139.667092,35.607548]}},{"type":"Feature","properties":{"layer_id":"cafe_restaurant","name":"和牛ひつまぶし　にく味","address":"東京都目黒区自由が丘1-11-1","source":"厚生労働省 食品衛生申請等システム（オープンデータ）"},"geometry":{"type":"Point","coordinates":[139.669541,35.608492]}},{"type":"Feature","properties":{"layer_id":"cafe_restaurant","name":"焼鳥　サントラ","address":"東京都目黒区祐天寺1-16-5","source":"厚生労働省 食品衛生申請等システム（オープンデータ）"},"geometry":{"type":"Point","coordinates":[139.69658,35.637661]}},{"type":"Feature","properties":{"layer_id":"cafe_restaurant","name":"ビッグエコー自由が丘駅前店","address":"東京都目黒区自由が丘2-11-23 自由が丘南風ビルB1・B2F","source":"厚生労働省 食品衛生申請等システム（オープンデータ）"},"geometry":{"type":"Point","coordinates":[139.667857,35.60782]}},{"type":"Feature","properties":{"layer_id":"cafe_restaurant","name":"ビッグエコープライム中目黒店","address":"東京都目黒区上目黒3-8-5 中目黒サンライズビルB1F","source":"厚生労働省 食品衛生申請等システム（オープンデータ）"},"geometry":{"type":"Point","coordinates":[139.697878,35.644377]}},{"type":"Feature","properties":{"layer_id":"cafe_restaurant","name":"KollaBo  学芸大学店","address":"東京都目黒区鷹番3丁目6番1号 大鷲ビル２F・３F","source":"厚生労働省 食品衛生申請等システム（オープンデータ）"},"geometry":{"type":"Point","coordinates":[139.685103,35.629008]}},{"type":"Feature","properties":{"layer_id":"cafe_restaurant","name":"3・6・5酒場 自由が丘店","address":"東京都目黒区自由が丘2-10-8 自由が丘エヌケービルB1F","source":"厚生労働省 食品衛生申請等システム（オープンデータ）"},"geometry":{"type":"Point","coordinates":[139.667805,35.608215]}},{"type":"Feature","properties":{"layer_id":"cafe_restaurant","name":"ラ・パウザ自由が丘店","address":"東京都目黒区自由が丘2-10-8 自由が丘エヌケービルB1F","source":"厚生労働省 食品衛生申請等システム（オープンデータ）"},"geometry":{"type":"Point","coordinates":[139.667816,35.608214]}},{"type":"Feature","properties":{"layer_id":"cafe_restaurant","name":"快活CLUB中目黒駅前店","address":"東京都目黒区上目黒3-7-6 第二松村ビル　2F","source":"厚生労働省 食品衛生申請等システム（オープンデータ）"},"geometry":{"type":"Point","coordinates":[139.698017,35.643877]}},{"type":"Feature","properties":{"layer_id":"cafe_restaurant","name":"ゴーゴーカレー目黒西口店","address":"東京都目黒区目黒1-4-8 脇田ビル1階","source":"厚生労働省 食品衛生申請等システム（オープンデータ）"},"geometry":{"type":"Point","coordinates":[139.714055,35.634283]}},{"type":"Feature","properties":{"layer_id":"cafe_restaurant","name":"meaningress","address":"東京都目黒区鷹番１丁目１３−２０ 目黒サンケイハウス1階店舗","source":"厚生労働省 食品衛生申請等システム（オープンデータ）"},"geometry":{"type":"Point","coordinates":[139.686914,35.626932]}},{"type":"Feature","properties":{"layer_id":"cafe_restaurant","name":"快活CLUB自由が丘駅北口店","address":"東京都目黒区自由が丘1丁目13-7 サンケンビルB1F","source":"厚生労働省 食品衛生申請等システム（オープンデータ）"},"geometry":{"type":"Point","coordinates":[139.669982,35.607938]}},{"type":"Feature","properties":{"layer_id":"cafe_restaurant","name":"温野菜　自由が丘店","address":"東京都目黒区自由が丘2-11-8 キネスビルＢ１Ｆ","source":"厚生労働省 食品衛生申請等システム（オープンデータ）"},"geometry":{"type":"Point","coordinates":[139.667757,35.607346]}},{"type":"Feature","properties":{"layer_id":"cafe_restaurant","name":"𠮷野家　自由が丘店","address":"東京都目黒区自由が丘１丁目１０－４","source":"厚生労働省 食品衛生申請等システム（オープンデータ）"},"geometry":{"type":"Point","coordinates":[139.669404,35.60776]}},{"type":"Feature","properties":{"layer_id":"cafe_restaurant","name":"Call me","address":"東京都目黒区下目黒1丁目5番21号 目黒DKウエストIII 301号室","source":"厚生労働省 食品衛生申請等システム（オープンデータ）"},"geometry":{"type":"Point","coordinates":[139.712398,35.634285]}},{"type":"Feature","properties":{"layer_id":"cafe_restaurant","name":"linne Maison concept dining","address":"東京都目黒区中央町2-10-1 アベニール目黒１F","source":"厚生労働省 食品衛生申請等システム（オープンデータ）"},"geometry":{"type":"Point","coordinates":[139.691755,35.631248]}},{"type":"Feature","properties":{"layer_id":"public_facilities","name":"目黒区民センター","address":"目黒区目黒2-4-36","source":"国土交通省 国土数値情報"},"geometry":{"type":"Point","coordinates":[139.70826,35.635669]}},{"type":"Feature","properties":{"layer_id":"public_facilities","name":"上目黒老人いこいの家","address":"目黒区上目黒4-18-15","source":"国土交通省 国土数値情報"},"geometry":{"type":"Point","coordinates":[139.691175,35.640854]}},{"type":"Feature","properties":{"layer_id":"public_facilities","name":"東山住区センター","address":"目黒区東山2-24-30","source":"国土交通省 国土数値情報"},"geometry":{"type":"Point","coordinates":[139.687136,35.64867]}},{"type":"Feature","properties":{"layer_id":"public_facilities","name":"自由が丘老人いこいの家","address":"目黒区自由が丘1-23-26","source":"国土交通省 国土数値情報"},"geometry":{"type":"Point","coordinates":[139.669639,35.611538]}},{"type":"Feature","properties":{"layer_id":"public_facilities","name":"高齢者センター","address":"目黒区目黒1-25-26","source":"国土交通省 国土数値情報"},"geometry":{"type":"Point","coordinates":[139.708185,35.63676]}},{"type":"Feature","properties":{"layer_id":"public_facilities","name":"目黒本町社会教育館","address":"目黒区目黒本町2-1-20","source":"国土交通省 国土数値情報"},"geometry":{"type":"Point","coordinates":[139.695247,35.62519]}},{"type":"Feature","properties":{"layer_id":"public_facilities","name":"目黒区民センター社会教育館","address":"目黒区目黒2-4-36","source":"国土交通省 国土数値情報"},"geometry":{"type":"Point","coordinates":[139.707871,35.635453]}},{"type":"Feature","properties":{"layer_id":"public_facilities","name":"鷹番老人いこいの家","address":"目黒区鷹-3-17-20鷹番住区センター内","source":"国土交通省 国土数値情報"},"geometry":{"type":"Point","coordinates":[139.683241,35.628276]}},{"type":"Feature","properties":{"layer_id":"public_facilities","name":"八雲体育館","address":"目黒区八雲1-1-1","source":"国土交通省 国土数値情報"},"geometry":{"type":"Point","coordinates":[139.672832,35.621465]}},{"type":"Feature","properties":{"layer_id":"public_facilities","name":"原町住区センター","address":"目黒区南1-8-9","source":"国土交通省 国土数値情報"},"geometry":{"type":"Point","coordinates":[139.689355,35.6151]}},{"type":"Feature","properties":{"layer_id":"public_facilities","name":"宮前分室老人いこいの家","address":"目黒区八雲3-22-15自由が丘住区センター宮前分室内","source":"国土交通省 国土数値情報"},"geometry":{"type":"Point","coordinates":[139.665404,35.615557]}},{"type":"Feature","properties":{"layer_id":"public_facilities","name":"東山社会教育館","address":"目黒区東山3-24-2","source":"国土交通省 国土数値情報"},"geometry":{"type":"Point","coordinates":[139.6854,35.64787]}},{"type":"Feature","properties":{"layer_id":"public_facilities","name":"下目黒老人いこいの家","address":"目黒区下目黒2-20-19下目黒住区センター内","source":"国土交通省 国土数値情報"},"geometry":{"type":"Point","coordinates":[139.709972,35.632903]}},{"type":"Feature","properties":{"layer_id":"public_facilities","name":"向原老人いこいの家","address":"目黒区目黒本町5-22-11向原住区センター内","source":"国土交通省 国土数値情報"},"geometry":{"type":"Point","coordinates":[139.698605,35.618721]}},{"type":"Feature","properties":{"layer_id":"public_facilities","name":"不動住区センター","address":"目黒区下目黒6-8-23","source":"国土交通省 国土数値情報"},"geometry":{"type":"Point","coordinates":[139.701041,35.626409]}},{"type":"Feature","properties":{"layer_id":"public_facilities","name":"目黒区保健所","address":"目黒区上目黒2-19-15","source":"国土交通省 国土数値情報"},"geometry":{"type":"Point","coordinates":[139.69848,35.64111]}},{"type":"Feature","properties":{"layer_id":"public_facilities","name":"平町老人いこいの家","address":"目黒区平町2-4-10","source":"国土交通省 国土数値情報"},"geometry":{"type":"Point","coordinates":[139.683082,35.614424]}},{"type":"Feature","properties":{"layer_id":"public_facilities","name":"八雲住区センター","address":"目黒区八雲1-10-5","source":"国土交通省 国土数値情報"},"geometry":{"type":"Point","coordinates":[139.672283,35.618709]}},{"type":"Feature","properties":{"layer_id":"public_facilities","name":"自由が丘住区センター","address":"目黒区自由が丘1-24-12","source":"国土交通省 国土数値情報"},"geometry":{"type":"Point","coordinates":[139.669164,35.609913]}},{"type":"Feature","properties":{"layer_id":"public_facilities","name":"めぐろ区民キャンパス","address":"目黒区八雲1-1-1","source":"国土交通省 国土数値情報"},"geometry":{"type":"Point","coordinates":[139.672822,35.621465]}},{"type":"Feature","properties":{"layer_id":"public_facilities","name":"烏森住区センター","address":"目黒区上目黒3-44-2","source":"国土交通省 国土数値情報"},"geometry":{"type":"Point","coordinates":[139.691647,35.643932]}},{"type":"Feature","properties":{"layer_id":"public_facilities","name":"大岡山東住区センター","address":"目黒区碑文谷3-15-5","source":"国土交通省 国土数値情報"},"geometry":{"type":"Point","coordinates":[139.684215,35.617849]}},{"type":"Feature","properties":{"layer_id":"public_facilities","name":"駒場体育館","address":"目黒区駒場2-19-39","source":"国土交通省 国土数値情報"},"geometry":{"type":"Point","coordinates":[139.680192,35.658021]}},{"type":"Feature","properties":{"layer_id":"public_facilities","name":"不動老人いこいの家","address":"目黒区下目黒6-8-23不動住区センター内","source":"国土交通省 国土数値情報"},"geometry":{"type":"Point","coordinates":[139.701041,35.626409]}},{"type":"Feature","properties":{"layer_id":"public_facilities","name":"五本木老人いこいの家","address":"目黒区五本木2-11-29","source":"国土交通省 国土数値情報"},"geometry":{"type":"Point","coordinates":[139.689536,35.635208]}},{"type":"Feature","properties":{"layer_id":"public_facilities","name":"菅刈住区センター","address":"目黒区青葉台2-10-18","source":"国土交通省 国土数値情報"},"geometry":{"type":"Point","coordinates":[139.695616,35.649801]}},{"type":"Feature","properties":{"layer_id":"public_facilities","name":"月光原住区センター","address":"目黒区目黒本町4-16-18","source":"国土交通省 国土数値情報"},"geometry":{"type":"Point","coordinates":[139.694689,35.622073]}},{"type":"Feature","properties":{"layer_id":"public_facilities","name":"下目黒住区センター","address":"目黒区下目黒2-20-19","source":"国土交通省 国土数値情報"},"geometry":{"type":"Point","coordinates":[139.709907,35.632942]}},{"type":"Feature","properties":{"layer_id":"public_facilities","name":"田道住区センター","address":"目黒区目黒1-25-26","source":"国土交通省 国土数値情報"},"geometry":{"type":"Point","coordinates":[139.70837,35.636781]}},{"type":"Feature","properties":{"layer_id":"public_facilities","name":"青少年プラザ","address":"目黒区中目黒2-10-13","source":"国土交通省 国土数値情報"},"geometry":{"type":"Point","coordinates":[139.702971,35.640466]}},{"type":"Feature","properties":{"layer_id":"public_facilities","name":"向原住区センター","address":"目黒区目黒本町5-22-11","source":"国土交通省 国土数値情報"},"geometry":{"type":"Point","coordinates":[139.698625,35.618718]}},{"type":"Feature","properties":{"layer_id":"public_facilities","name":"西部地区サービス事務所","address":"目黒区柿の木坂1-28-10","source":"国土交通省 国土数値情報"},"geometry":{"type":"Point","coordinates":[139.675674,35.619979]}},{"type":"Feature","properties":{"layer_id":"public_facilities","name":"月光原老人いこいの家","address":"目黒区目黒本町4-16-18月光原住区センター内","source":"国土交通省 国土数値情報"},"geometry":{"type":"Point","coordinates":[139.694689,35.622073]}},{"type":"Feature","properties":{"layer_id":"public_facilities","name":"北部地区サービス事務所","address":"目黒区大橋1-5-1","source":"国土交通省 国土数値情報"},"geometry":{"type":"Point","coordinates":[139.688436,35.651456]}},{"type":"Feature","properties":{"layer_id":"public_facilities","name":"駒場住区センター","address":"目黒区駒場1-22-4","source":"国土交通省 国土数値情報"},"geometry":{"type":"Point","coordinates":[139.686547,35.656302]}},{"type":"Feature","properties":{"layer_id":"public_facilities","name":"烏森老人いこいの家","address":"目黒区上目黒3-44-2烏森住区センター内","source":"国土交通省 国土数値情報"},"geometry":{"type":"Point","coordinates":[139.691623,35.643971]}},{"type":"Feature","properties":{"layer_id":"public_facilities","name":"中町老人いこいの家","address":"目黒区中町1-6-19","source":"国土交通省 国土数値情報"},"geometry":{"type":"Point","coordinates":[139.700044,35.630887]}},{"type":"Feature","properties":{"layer_id":"public_facilities","name":"鷹番住区センター","address":"目黒区鷹-3-17-20","source":"国土交通省 国土数値情報"},"geometry":{"type":"Point","coordinates":[139.683162,35.628225]}},{"type":"Feature","properties":{"layer_id":"public_facilities","name":"中央町社会教育館","address":"目黒区中央町2-4-18","source":"国土交通省 国土数値情報"},"geometry":{"type":"Point","coordinates":[139.692131,35.632183]}},{"type":"Feature","properties":{"layer_id":"public_facilities","name":"大岡山東老人いこいの家","address":"目黒区碑文谷3-15-5大岡山東住区センター内","source":"国土交通省 国土数値情報"},"geometry":{"type":"Point","coordinates":[139.684217,35.617868]}},{"type":"Feature","properties":{"layer_id":"public_facilities","name":"中央体育館・武道場","address":"目黒本町5-22-8","source":"国土交通省 国土数値情報"},"geometry":{"type":"Point","coordinates":[139.69891,35.618999]}},{"type":"Feature","properties":{"layer_id":"public_facilities","name":"原町老人いこいの家","address":"目黒区原町2-2-14","source":"国土交通省 国土数値情報"},"geometry":{"type":"Point","coordinates":[139.692184,35.616196]}},{"type":"Feature","properties":{"layer_id":"public_facilities","name":"男女平等・共同参画センター","address":"目黒区中目黒2-10-13中目黒スクエア内","source":"国土交通省 国土数値情報"},"geometry":{"type":"Point","coordinates":[139.703022,35.640394]}},{"type":"Feature","properties":{"layer_id":"public_facilities","name":"区民センターホール","address":"目黒区目黒2-4-36目黒区民センター内","source":"国土交通省 国土数値情報"},"geometry":{"type":"Point","coordinates":[139.698191,35.641418]}},{"type":"Feature","properties":{"layer_id":"public_facilities","name":"大岡山西住区センター","address":"目黒区平町1-15-12","source":"国土交通省 国土数値情報"},"geometry":{"type":"Point","coordinates":[139.679229,35.615863]}},{"type":"Feature","properties":{"layer_id":"public_facilities","name":"上二老人いこいの家","address":"目黒区上目黒2-10-4","source":"国土交通省 国土数値情報"},"geometry":{"type":"Point","coordinates":[139.699168,35.64146]}},{"type":"Feature","properties":{"layer_id":"public_facilities","name":"自由が丘住区センター宮前分室","address":"目黒区八雲3-22-15","source":"国土交通省 国土数値情報"},"geometry":{"type":"Point","coordinates":[139.665406,35.61564]}},{"type":"Feature","properties":{"layer_id":"public_facilities","name":"駒場老人いこいの家","address":"目黒区駒場1-26-6","source":"国土交通省 国土数値情報"},"geometry":{"type":"Point","coordinates":[139.685481,35.65715]}},{"type":"Feature","properties":{"layer_id":"public_facilities","name":"菅刈老人いこいの家","address":"目黒区青葉台2-10-18菅刈住区センター内","source":"国土交通省 国土数値情報"},"geometry":{"type":"Point","coordinates":[139.695612,35.649893]}},{"type":"Feature","properties":{"layer_id":"public_facilities","name":"五本木住区センター","address":"目黒区中央町2-17-2","source":"国土交通省 国土数値情報"},"geometry":{"type":"Point","coordinates":[139.689261,35.633039]}},{"type":"Feature","properties":{"layer_id":"public_facilities","name":"めぐろパーシモンホール","address":"目黒区八雲1-1-1","source":"国土交通省 国土数値情報"},"geometry":{"type":"Point","coordinates":[139.672822,35.621475]}},{"type":"Feature","properties":{"layer_id":"public_facilities","name":"碑文谷体育館","address":"目黒区碑文谷6-12-43","source":"国土交通省 国土数値情報"},"geometry":{"type":"Point","coordinates":[139.682162,35.627231]}},{"type":"Feature","properties":{"layer_id":"public_facilities","name":"三田分室老人いこいの家","address":"目黒区三田2-10-33田道住区センター三田分室内","source":"国土交通省 国土数値情報"},"geometry":{"type":"Point","coordinates":[139.712487,35.63875]}},{"type":"Feature","properties":{"layer_id":"public_facilities","name":"東根老人いこいの家","address":"目黒区東が丘1-7-14東根住区センター内","source":"国土交通省 国土数値情報"},"geometry":{"type":"Point","coordinates":[139.669999,35.627219]}},{"type":"Feature","properties":{"layer_id":"public_facilities","name":"田道老人いこいの家","address":"目黒区目黒3-1-18","source":"国土交通省 国土数値情報"},"geometry":{"type":"Point","coordinates":[139.706007,35.635106]}},{"type":"Feature","properties":{"layer_id":"public_facilities","name":"上目黒住区センター","address":"目黒区祐天寺2-6-6","source":"国土交通省 国土数値情報"},"geometry":{"type":"Point","coordinates":[139.693769,35.637083]}},{"type":"Feature","properties":{"layer_id":"public_facilities","name":"八雲老人いこいの家","address":"目黒区八雲1-10-5八雲住区センター内","source":"国土交通省 国土数値情報"},"geometry":{"type":"Point","coordinates":[139.672255,35.618717]}},{"type":"Feature","properties":{"layer_id":"public_facilities","name":"東山老人いこいの家","address":"目黒区東山2-24-30東山住区センター内","source":"国土交通省 国土数値情報"},"geometry":{"type":"Point","coordinates":[139.68618,35.647088]}},{"type":"Feature","properties":{"layer_id":"public_facilities","name":"油面住区センター","address":"目黒区中町1-6-23","source":"国土交通省 国土数値情報"},"geometry":{"type":"Point","coordinates":[139.699772,35.631375]}},{"type":"Feature","properties":{"layer_id":"public_facilities","name":"中央地区サービス事務所","address":"目黒区中央町2-9-13","source":"国土交通省 国土数値情報"},"geometry":{"type":"Point","coordinates":[139.691961,35.630972]}},{"type":"Feature","properties":{"layer_id":"public_facilities","name":"中根老人いこいの家","address":"目黒区大岡山1-37-2中根住区センター内","source":"国土交通省 国土数値情報"},"geometry":{"type":"Point","coordinates":[139.679603,35.612263]}},{"type":"Feature","properties":{"layer_id":"public_facilities","name":"勤労福祉会館","address":"目黒区目黒2-4-36目黒区民センター内","source":"国土交通省 国土数値情報"},"geometry":{"type":"Point","coordinates":[139.708477,35.635523]}},{"type":"Feature","properties":{"layer_id":"public_facilities","name":"セレモニー目黒","address":"目黒区八雲1-1-9","source":"国土交通省 国土数値情報"},"geometry":{"type":"Point","coordinates":[139.673863,35.62057]}},{"type":"Feature","properties":{"layer_id":"public_facilities","name":"立駒場老人いこいの家","address":"目黒区駒場1-26-6","source":"国土交通省 国土数値情報"},"geometry":{"type":"Point","coordinates":[139.685428,35.657158]}},{"type":"Feature","properties":{"layer_id":"public_facilities","name":"中目黒住区センター","address":"目黒区中目黒2-10-13","source":"国土交通省 国土数値情報"},"geometry":{"type":"Point","coordinates":[139.703114,35.640379]}},{"type":"Feature","properties":{"layer_id":"public_facilities","name":"緑が丘文化会館","address":"目黒区緑が丘2-14-23","source":"国土交通省 国土数値情報"},"geometry":{"type":"Point","coordinates":[139.67328,35.609352]}},{"type":"Feature","properties":{"layer_id":"public_facilities","name":"碑住区センター","address":"目黒区碑文谷2-16-6","source":"国土交通省 国土数値情報"},"geometry":{"type":"Point","coordinates":[139.68767,35.620768]}},{"type":"Feature","properties":{"layer_id":"public_facilities","name":"田道住区センター三田分室","address":"目黒区三田2-10-33","source":"国土交通省 国土数値情報"},"geometry":{"type":"Point","coordinates":[139.71249,35.638819]}},{"type":"Feature","properties":{"layer_id":"public_facilities","name":"目黒区役所","address":"目黒区上目黒2-19-15","source":"国土交通省 国土数値情報"},"geometry":{"type":"Point","coordinates":[139.698121,35.64141]}},{"type":"Feature","properties":{"layer_id":"public_facilities","name":"中根住区センター","address":"目黒区大岡山1-37-2","source":"国土交通省 国土数値情報"},"geometry":{"type":"Point","coordinates":[139.679552,35.612696]}},{"type":"Feature","properties":{"layer_id":"public_facilities","name":"南部地区サービス事務所","address":"目黒区碑文谷1-18-14","source":"国土交通省 国土数値情報"},"geometry":{"type":"Point","coordinates":[139.69057,35.619354]}},{"type":"Feature","properties":{"layer_id":"public_facilities","name":"東根住区センター","address":"目黒区東が丘1-7-14","source":"国土交通省 国土数値情報"},"geometry":{"type":"Point","coordinates":[139.669999,35.627272]}},{"type":"Feature","properties":{"layer_id":"cultural_facilities","name":"駒沢オリンピック公園総合運動場","address":"駒沢公園1-1","source":"国土交通省 国土数値情報"},"geometry":{"type":"Point","coordinates":[139.664346,35.626339]}},{"type":"Feature","properties":{"layer_id":"cultural_facilities","name":"駒沢オリンピック公園総合運動場","address":"駒沢公園1-1","source":"国土交通省 国土数値情報"},"geometry":{"type":"Point","coordinates":[139.663662,35.625595]}},{"type":"Feature","properties":{"layer_id":"cultural_facilities","name":"目黒区立八雲中央図書館","address":"八雲1-1-1","source":"国土交通省 国土数値情報"},"geometry":{"type":"Point","coordinates":[139.673286,35.62178]}},{"type":"Feature","properties":{"layer_id":"cultural_facilities","name":"目黒区民センター体育館","address":"目黒2-4-36","source":"国土交通省 国土数値情報"},"geometry":{"type":"Point","coordinates":[139.708373,35.635448]}},{"type":"Feature","properties":{"layer_id":"cultural_facilities","name":"駒沢オリンピック公園総合運動場","address":"駒沢公園1-1","source":"国土交通省 国土数値情報"},"geometry":{"type":"Point","coordinates":[139.664387,35.625755]}},{"type":"Feature","properties":{"layer_id":"cultural_facilities","name":"碑文谷体育館","address":"碑文谷6-12-43","source":"国土交通省 国土数値情報"},"geometry":{"type":"Point","coordinates":[139.682109,35.627249]}},{"type":"Feature","properties":{"layer_id":"cultural_facilities","name":"目黒区民センター体育館","address":"目黒2-4-36","source":"国土交通省 国土数値情報"},"geometry":{"type":"Point","coordinates":[139.70837,35.635675]}},{"type":"Feature","properties":{"layer_id":"cultural_facilities","name":"目黒区守屋教育会館郷土資料室","address":"五本木2-20-17","source":"国土交通省 国土数値情報"},"geometry":{"type":"Point","coordinates":[139.689235,35.634294]}},{"type":"Feature","properties":{"layer_id":"cultural_facilities","name":"目黒区立守屋図書館","address":"五本木2-20-15","source":"国土交通省 国土数値情報"},"geometry":{"type":"Point","coordinates":[139.689286,35.634292]}},{"type":"Feature","properties":{"layer_id":"cultural_facilities","name":"勤労福祉会館","address":"目黒2-4-36","source":"国土交通省 国土数値情報"},"geometry":{"type":"Point","coordinates":[139.708088,35.635941]}},{"type":"Feature","properties":{"layer_id":"cultural_facilities","name":"目黒区立洗足図書館","address":"洗足2-8-26","source":"国土交通省 国土数値情報"},"geometry":{"type":"Point","coordinates":[139.692291,35.612353]}},{"type":"Feature","properties":{"layer_id":"cultural_facilities","name":"目黒区民センター体育館","address":"目黒2-4-36","source":"国土交通省 国土数値情報"},"geometry":{"type":"Point","coordinates":[139.708373,35.635598]}},{"type":"Feature","properties":{"layer_id":"cultural_facilities","name":"碑文谷体育館","address":"碑文谷6-12-43","source":"国土交通省 国土数値情報"},"geometry":{"type":"Point","coordinates":[139.682109,35.627288]}},{"type":"Feature","properties":{"layer_id":"cultural_facilities","name":"碑文谷体育館","address":"碑文谷6-12-43","source":"国土交通省 国土数値情報"},"geometry":{"type":"Point","coordinates":[139.681277,35.627172]}},{"type":"Feature","properties":{"layer_id":"cultural_facilities","name":"勤労福祉会館","address":"目黒2-4-36","source":"国土交通省 国土数値情報"},"geometry":{"type":"Point","coordinates":[139.708094,35.635863]}},{"type":"Feature","properties":{"layer_id":"cultural_facilities","name":"目黒区民センター体育館","address":"目黒2-4-36","source":"国土交通省 国土数値情報"},"geometry":{"type":"Point","coordinates":[139.708373,35.635711]}},{"type":"Feature","properties":{"layer_id":"cultural_facilities","name":"目黒区民センター体育館","address":"目黒2-4-36","source":"国土交通省 国土数値情報"},"geometry":{"type":"Point","coordinates":[139.708771,35.635156]}},{"type":"Feature","properties":{"layer_id":"cultural_facilities","name":"碑文谷体育館","address":"碑文谷6-12-43","source":"国土交通省 国土数値情報"},"geometry":{"type":"Point","coordinates":[139.680481,35.627384]}},{"type":"Feature","properties":{"layer_id":"cultural_facilities","name":"長泉院附属現代彫刻美術館","address":"中目黒4-12-18","source":"国土交通省 国土数値情報"},"geometry":{"type":"Point","coordinates":[139.703051,35.635908]}},{"type":"Feature","properties":{"layer_id":"cultural_facilities","name":"駒沢オリンピック公園総合運動場","address":"駒沢公園1-1","source":"国土交通省 国土数値情報"},"geometry":{"type":"Point","coordinates":[139.664286,35.626431]}},{"type":"Feature","properties":{"layer_id":"cultural_facilities","name":"碑文谷体育館","address":"碑文谷6-12-43","source":"国土交通省 国土数値情報"},"geometry":{"type":"Point","coordinates":[139.682106,35.627131]}},{"type":"Feature","properties":{"layer_id":"cultural_facilities","name":"目黒寄生虫館","address":"下目黒4-1-1","source":"国土交通省 国土数値情報"},"geometry":{"type":"Point","coordinates":[139.706666,35.6317]}},{"type":"Feature","properties":{"layer_id":"cultural_facilities","name":"目黒区立目黒区民センター図書館","address":"目黒2-4-36","source":"国土交通省 国土数値情報"},"geometry":{"type":"Point","coordinates":[139.708469,35.635512]}},{"type":"Feature","properties":{"layer_id":"cultural_facilities","name":"目黒区立緑が丘図書館","address":"緑が丘2-14-23","source":"国土交通省 国土数値情報"},"geometry":{"type":"Point","coordinates":[139.673309,35.609362]}},{"type":"Feature","properties":{"layer_id":"cultural_facilities","name":"碑文谷体育館","address":"碑文谷6-12-43","source":"国土交通省 国土数値情報"},"geometry":{"type":"Point","coordinates":[139.682109,35.627211]}},{"type":"Feature","properties":{"layer_id":"cultural_facilities","name":"目黒区民センター体育館","address":"目黒2-4-36","source":"国土交通省 国土数値情報"},"geometry":{"type":"Point","coordinates":[139.709223,35.634746]}},{"type":"Feature","properties":{"layer_id":"cultural_facilities","name":"碑文谷体育館","address":"碑文谷6-12-43","source":"国土交通省 国土数値情報"},"geometry":{"type":"Point","coordinates":[139.682106,35.627087]}},{"type":"Feature","properties":{"layer_id":"cultural_facilities","name":"目黒区民センター体育館","address":"目黒2-4-36","source":"国土交通省 国土数値情報"},"geometry":{"type":"Point","coordinates":[139.70837,35.635559]}},{"type":"Feature","properties":{"layer_id":"cultural_facilities","name":"目黒区民センター体育館","address":"目黒2-4-36","source":"国土交通省 国土数値情報"},"geometry":{"type":"Point","coordinates":[139.70837,35.635484]}},{"type":"Feature","properties":{"layer_id":"cultural_facilities","name":"東京都写真美術館","address":"三田1-13-1","source":"国土交通省 国土数値情報"},"geometry":{"type":"Point","coordinates":[139.714533,35.641872]}},{"type":"Feature","properties":{"layer_id":"cultural_facilities","name":"目黒区美術館","address":"目黒2-4-36（目黒区民センター敷地内）","source":"国土交通省 国土数値情報"},"geometry":{"type":"Point","coordinates":[139.708469,35.635512]}},{"type":"Feature","properties":{"layer_id":"cultural_facilities","name":"東京工業大学附属図書館","address":"大岡山2-12-1","source":"国土交通省 国土数値情報"},"geometry":{"type":"Point","coordinates":[139.684007,35.606472]}},{"type":"Feature","properties":{"layer_id":"cultural_facilities","name":"目黒区民センター体育館","address":"目黒2-4-36","source":"国土交通省 国土数値情報"},"geometry":{"type":"Point","coordinates":[139.70837,35.635637]}},{"type":"Feature","properties":{"layer_id":"cultural_facilities","name":"目黒区民センター体育館","address":"目黒2-4-36","source":"国土交通省 国土数値情報"},"geometry":{"type":"Point","coordinates":[139.70837,35.635523]}},{"type":"Feature","properties":{"layer_id":"cultural_facilities","name":"目黒区立目黒本町図書館","address":"目黒本町2-1-20","source":"国土交通省 国土数値情報"},"geometry":{"type":"Point","coordinates":[139.695215,35.625277]}},{"type":"Feature","properties":{"layer_id":"cultural_facilities","name":"目黒区立中目黒駅前図書館","address":"上目黒2-1-3","source":"国土交通省 国土数値情報"},"geometry":{"type":"Point","coordinates":[139.698674,35.643185]}},{"type":"Feature","properties":{"layer_id":"cultural_facilities","name":"めぐろ歴史資料館","address":"中目黒3-6-10","source":"国土交通省 国土数値情報"},"geometry":{"type":"Point","coordinates":[139.702691,35.639387]}},{"type":"Feature","properties":{"layer_id":"cultural_facilities","name":"碑文谷体育館","address":"碑文谷6-12-43","source":"国土交通省 国土数値情報"},"geometry":{"type":"Point","coordinates":[139.682103,35.627169]}},{"type":"Feature","properties":{"layer_id":"parks_playgrounds","name":"下二南街かど公園","address":"目黒区","source":"国土交通省 国土数値情報"},"geometry":{"type":"Point","coordinates":[139.711611,35.628923]}},{"type":"Feature","properties":{"layer_id":"parks_playgrounds","name":"中央緑地公園","address":"目黒区","source":"国土交通省 国土数値情報"},"geometry":{"type":"Point","coordinates":[139.69051,35.63005]}},{"type":"Feature","properties":{"layer_id":"parks_playgrounds","name":"三田公園","address":"目黒区","source":"国土交通省 国土数値情報"},"geometry":{"type":"Point","coordinates":[139.71107,35.63889]}},{"type":"Feature","properties":{"layer_id":"parks_playgrounds","name":"さくらの里街かど公園","address":"目黒区","source":"国土交通省 国土数値情報"},"geometry":{"type":"Point","coordinates":[139.70284,35.62832]}},{"type":"Feature","properties":{"layer_id":"parks_playgrounds","name":"大鳥公園","address":"目黒区","source":"国土交通省 国土数値情報"},"geometry":{"type":"Point","coordinates":[139.70995,35.63282]}},{"type":"Feature","properties":{"layer_id":"parks_playgrounds","name":"茶屋坂街かど公園","address":"目黒区","source":"国土交通省 国土数値情報"},"geometry":{"type":"Point","coordinates":[139.70943,35.63874]}},{"type":"Feature","properties":{"layer_id":"parks_playgrounds","name":"三田丘の上公園","address":"目黒区","source":"国土交通省 国土数値情報"},"geometry":{"type":"Point","coordinates":[139.714233,35.640161]}},{"type":"Feature","properties":{"layer_id":"parks_playgrounds","name":"八幡公園","address":"目黒区","source":"国土交通省 国土数値情報"},"geometry":{"type":"Point","coordinates":[139.70174,35.63804]}},{"type":"Feature","properties":{"layer_id":"parks_playgrounds","name":"碑文谷公園","address":"目黒区","source":"国土交通省 国土数値情報"},"geometry":{"type":"Point","coordinates":[139.68228,35.62587]}},{"type":"Feature","properties":{"layer_id":"parks_playgrounds","name":"五本木ふれあい街かど公園","address":"目黒区","source":"国土交通省 国土数値情報"},"geometry":{"type":"Point","coordinates":[139.69064,35.63465]}},{"type":"Feature","properties":{"layer_id":"parks_playgrounds","name":"呑川駒沢支流緑道","address":"目黒区","source":"国土交通省 国土数値情報"},"geometry":{"type":"Point","coordinates":[139.668344,35.619777]}},{"type":"Feature","properties":{"layer_id":"parks_playgrounds","name":"中目黒南緑地公園","address":"目黒区","source":"国土交通省 国土数値情報"},"geometry":{"type":"Point","coordinates":[139.70157,35.63695]}},{"type":"Feature","properties":{"layer_id":"parks_playgrounds","name":"本町北公園","address":"目黒区","source":"国土交通省 国土数値情報"},"geometry":{"type":"Point","coordinates":[139.69891,35.62151]}},{"type":"Feature","properties":{"layer_id":"parks_playgrounds","name":"大塚山公園","address":"目黒区","source":"国土交通省 国土数値情報"},"geometry":{"type":"Point","coordinates":[139.7021,35.63298]}},{"type":"Feature","properties":{"layer_id":"parks_playgrounds","name":"立会川緑道","address":"目黒区","source":"国土交通省 国土数値情報"},"geometry":{"type":"Point","coordinates":[139.697675,35.617368]}},{"type":"Feature","properties":{"layer_id":"parks_playgrounds","name":"中目黒駅前街かど公園","address":"目黒区","source":"国土交通省 国土数値情報"},"geometry":{"type":"Point","coordinates":[139.698774,35.643824]}},{"type":"Feature","properties":{"layer_id":"parks_playgrounds","name":"向原西街かど公園","address":"目黒区","source":"国土交通省 国土数値情報"},"geometry":{"type":"Point","coordinates":[139.69501,35.6212]}},{"type":"Feature","properties":{"layer_id":"parks_playgrounds","name":"中根ねむの木公園","address":"目黒区","source":"国土交通省 国土数値情報"},"geometry":{"type":"Point","coordinates":[139.67395,35.61436]}},{"type":"Feature","properties":{"layer_id":"parks_playgrounds","name":"清水池公園","address":"目黒区","source":"国土交通省 国土数値情報"},"geometry":{"type":"Point","coordinates":[139.69238,35.62423]}},{"type":"Feature","properties":{"layer_id":"parks_playgrounds","name":"宮前公園","address":"目黒区","source":"国土交通省 国土数値情報"},"geometry":{"type":"Point","coordinates":[139.66516,35.61736]}},{"type":"Feature","properties":{"layer_id":"parks_playgrounds","name":"油面公園","address":"目黒区","source":"国土交通省 国土数値情報"},"geometry":{"type":"Point","coordinates":[139.69656,35.63211]}},{"type":"Feature","properties":{"layer_id":"parks_playgrounds","name":"境橋街かど公園","address":"目黒区","source":"国土交通省 国土数値情報"},"geometry":{"type":"Point","coordinates":[139.68051,35.60221]}},{"type":"Feature","properties":{"layer_id":"parks_playgrounds","name":"自由が丘公園","address":"目黒区","source":"国土交通省 国土数値情報"},"geometry":{"type":"Point","coordinates":[139.66785,35.61037]}},{"type":"Feature","properties":{"layer_id":"parks_playgrounds","name":"やくも街かど公園","address":"目黒区","source":"国土交通省 国土数値情報"},"geometry":{"type":"Point","coordinates":[139.665829,35.621892]}},{"type":"Feature","properties":{"layer_id":"parks_playgrounds","name":"呑川柿の木坂支流緑道","address":"目黒区","source":"国土交通省 国土数値情報"},"geometry":{"type":"Point","coordinates":[139.676764,35.624575]}},{"type":"Feature","properties":{"layer_id":"parks_playgrounds","name":"菅刈公園","address":"目黒区","source":"国土交通省 国土数値情報"},"geometry":{"type":"Point","coordinates":[139.69449,35.64976]}},{"type":"Feature","properties":{"layer_id":"parks_playgrounds","name":"蛇崩川支流緑道","address":"目黒区","source":"国土交通省 国土数値情報"},"geometry":{"type":"Point","coordinates":[139.69025,35.64183]}},{"type":"Feature","properties":{"layer_id":"parks_playgrounds","name":"八雲三丁目緑地","address":"目黒区","source":"国土交通省 国土数値情報"},"geometry":{"type":"Point","coordinates":[139.6633,35.61417]}},{"type":"Feature","properties":{"layer_id":"parks_playgrounds","name":"目黒川田道街かど公園","address":"目黒区","source":"国土交通省 国土数値情報"},"geometry":{"type":"Point","coordinates":[139.70935,35.63551]}},{"type":"Feature","properties":{"layer_id":"parks_playgrounds","name":"田向公園","address":"目黒区","source":"国土交通省 国土数値情報"},"geometry":{"type":"Point","coordinates":[139.68645,35.62297]}},{"type":"Feature","properties":{"layer_id":"parks_playgrounds","name":"東根公園","address":"目黒区","source":"国土交通省 国土数値情報"},"geometry":{"type":"Point","coordinates":[139.66737,35.62868]}},{"type":"Feature","properties":{"layer_id":"parks_playgrounds","name":"中目黒公園","address":"目黒区","source":"国土交通省 国土数値情報"},"geometry":{"type":"Point","coordinates":[139.7048,35.64097]}},{"type":"Feature","properties":{"layer_id":"parks_playgrounds","name":"呑川本流緑道","address":"目黒区","source":"国土交通省 国土数値情報"},"geometry":{"type":"Point","coordinates":[139.679719,35.609078]}},{"type":"Feature","properties":{"layer_id":"parks_playgrounds","name":"衾町公園","address":"目黒区","source":"国土交通省 国土数値情報"},"geometry":{"type":"Point","coordinates":[139.66809,35.62317]}},{"type":"Feature","properties":{"layer_id":"parks_playgrounds","name":"羅漢寺川緑道","address":"目黒区","source":"国土交通省 国土数値情報"},"geometry":{"type":"Point","coordinates":[139.697722,35.625151]}},{"type":"Feature","properties":{"layer_id":"parks_playgrounds","name":"なべころ坂緑地公園","address":"目黒区","source":"国土交通省 国土数値情報"},"geometry":{"type":"Point","coordinates":[139.700118,35.636411]}},{"type":"Feature","properties":{"layer_id":"parks_playgrounds","name":"蛇崩川緑道","address":"目黒区","source":"国土交通省 国土数値情報"},"geometry":{"type":"Point","coordinates":[139.697495,35.642673]}},{"type":"Feature","properties":{"layer_id":"parks_playgrounds","name":"本町みなみ街かど公園","address":"目黒区","source":"国土交通省 国土数値情報"},"geometry":{"type":"Point","coordinates":[139.70026,35.61819]}},{"type":"Feature","properties":{"layer_id":"parks_playgrounds","name":"西小山公園","address":"目黒区","source":"国土交通省 国土数値情報"},"geometry":{"type":"Point","coordinates":[139.69751,35.61688]}},{"type":"Feature","properties":{"layer_id":"parks_playgrounds","name":"東山貝塚公園","address":"目黒区","source":"国土交通省 国土数値情報"},"geometry":{"type":"Point","coordinates":[139.68512,35.64939]}},{"type":"Feature","properties":{"layer_id":"parks_playgrounds","name":"富士見台公園","address":"目黒区","source":"国土交通省 国土数値情報"},"geometry":{"type":"Point","coordinates":[139.68791,35.6131]}},{"type":"Feature","properties":{"layer_id":"parks_playgrounds","name":"月光原公園","address":"目黒区","source":"国土交通省 国土数値情報"},"geometry":{"type":"Point","coordinates":[139.69966,35.62321]}},{"type":"Feature","properties":{"layer_id":"parks_playgrounds","name":"三角山公園","address":"目黒区","source":"国土交通省 国土数値情報"},"geometry":{"type":"Point","coordinates":[139.6942,35.63297]}},{"type":"Feature","properties":{"layer_id":"parks_playgrounds","name":"田道広場公園","address":"目黒区","source":"国土交通省 国土数値情報"},"geometry":{"type":"Point","coordinates":[139.70863,35.63631]}},{"type":"Feature","properties":{"layer_id":"parks_playgrounds","name":"大岡山公園","address":"目黒区","source":"国土交通省 国土数値情報"},"geometry":{"type":"Point","coordinates":[139.68384,35.61]}},{"type":"Feature","properties":{"layer_id":"parks_playgrounds","name":"洗足北街かど公園","address":"目黒区","source":"国土交通省 国土数値情報"},"geometry":{"type":"Point","coordinates":[139.69501,35.61457]}},{"type":"Feature","properties":{"layer_id":"parks_playgrounds","name":"めぐろ区民キャンパス公園","address":"目黒区","source":"国土交通省 国土数値情報"},"geometry":{"type":"Point","coordinates":[139.6723,35.62105]}},{"type":"Feature","properties":{"layer_id":"parks_playgrounds","name":"東山街かど公園","address":"目黒区","source":"国土交通省 国土数値情報"},"geometry":{"type":"Point","coordinates":[139.68684,35.64811]}},{"type":"Feature","properties":{"layer_id":"parks_playgrounds","name":"中根公園","address":"目黒区","source":"国土交通省 国土数値情報"},"geometry":{"type":"Point","coordinates":[139.67679,35.61292]}},{"type":"Feature","properties":{"layer_id":"parks_playgrounds","name":"洗足ひだまり公園","address":"目黒区","source":"国土交通省 国土数値情報"},"geometry":{"type":"Point","coordinates":[139.69345,35.6109]}},{"type":"Feature","properties":{"layer_id":"parks_playgrounds","name":"芳窪街かど公園","address":"目黒区","source":"国土交通省 国土数値情報"},"geometry":{"type":"Point","coordinates":[139.6671,35.6296]}},{"type":"Feature","properties":{"layer_id":"parks_playgrounds","name":"こなべ野公園","address":"目黒区","source":"国土交通省 国土数値情報"},"geometry":{"type":"Point","coordinates":[139.6958,35.626]}},{"type":"Feature","properties":{"layer_id":"parks_playgrounds","name":"不動公園","address":"目黒区","source":"国土交通省 国土数値情報"},"geometry":{"type":"Point","coordinates":[139.7081,35.62922]}},{"type":"Feature","properties":{"layer_id":"parks_playgrounds","name":"芦毛塚街かど公園","address":"目黒区","source":"国土交通省 国土数値情報"},"geometry":{"type":"Point","coordinates":[139.68686,35.63891]}},{"type":"Feature","properties":{"layer_id":"parks_playgrounds","name":"中目黒しぜんとなかよし公園","address":"目黒区","source":"国土交通省 国土数値情報"},"geometry":{"type":"Point","coordinates":[139.698396,35.640202]}},{"type":"Feature","properties":{"layer_id":"parks_playgrounds","name":"伊勢脇公園","address":"目黒区","source":"国土交通省 国土数値情報"},"geometry":{"type":"Point","coordinates":[139.69672,35.63935]}},{"type":"Feature","properties":{"layer_id":"parks_playgrounds","name":"五本木二丁目街かど公園","address":"目黒区","source":"国土交通省 国土数値情報"},"geometry":{"type":"Point","coordinates":[139.68611,35.63387]}},{"type":"Feature","properties":{"layer_id":"parks_playgrounds","name":"五本木西みどり街かど公園","address":"目黒区","source":"国土交通省 国土数値情報"},"geometry":{"type":"Point","coordinates":[139.68361,35.63202]}},{"type":"Feature","properties":{"layer_id":"parks_playgrounds","name":"金杉原南緑地公園","address":"目黒区","source":"国土交通省 国土数値情報"},"geometry":{"type":"Point","coordinates":[139.69916,35.61757]}},{"type":"Feature","properties":{"layer_id":"parks_playgrounds","name":"目黒区民センター公園","address":"目黒区","source":"国土交通省 国土数値情報"},"geometry":{"type":"Point","coordinates":[139.70834,35.63503]}},{"type":"Feature","properties":{"layer_id":"parks_playgrounds","name":"すずめのお宿緑地公園","address":"目黒区","source":"国土交通省 国土数値情報"},"geometry":{"type":"Point","coordinates":[139.68471,35.61812]}},{"type":"Feature","properties":{"layer_id":"parks_playgrounds","name":"中町せせらぎ緑地公園","address":"目黒区","source":"国土交通省 国土数値情報"},"geometry":{"type":"Point","coordinates":[139.69746,35.63396]}},{"type":"Feature","properties":{"layer_id":"parks_playgrounds","name":"東山公園","address":"目黒区","source":"国土交通省 国土数値情報"},"geometry":{"type":"Point","coordinates":[139.68517,35.64757]}},{"type":"Feature","properties":{"layer_id":"parks_playgrounds","name":"田切公園","address":"目黒区","source":"国土交通省 国土数値情報"},"geometry":{"type":"Point","coordinates":[139.68741,35.6386]}},{"type":"Feature","properties":{"layer_id":"parks_playgrounds","name":"祐天寺一丁目ふれあい公園","address":"目黒区","source":"国土交通省 国土数値情報"},"geometry":{"type":"Point","coordinates":[139.693129,35.638711]}},{"type":"Feature","properties":{"layer_id":"parks_playgrounds","name":"原町タンポポ公園","address":"目黒区","source":"国土交通省 国土数値情報"},"geometry":{"type":"Point","coordinates":[139.69441,35.61676]}},{"type":"Feature","properties":{"layer_id":"parks_playgrounds","name":"けこぼ坂街かど公園","address":"目黒区","source":"国土交通省 国土数値情報"},"geometry":{"type":"Point","coordinates":[139.69984,35.64252]}},{"type":"Feature","properties":{"layer_id":"parks_playgrounds","name":"谷戸前川緑道","address":"目黒区","source":"国土交通省 国土数値情報"},"geometry":{"type":"Point","coordinates":[139.7037,35.63325]}}]}