{"type":"FeatureCollection","municipality_code":"13202","pref":"東京都","city":"立川市","display_comment":"立川市には、柴崎村、砂川村、殿ヶ谷新田など、近世の村々の記憶を伝える地名が残っています。 周辺には寺社や信仰の場、史跡や遺跡にまつわる場所が点在し、「大和田遺跡」、「向郷遺跡」、「普済寺」などを起点に歩くと、地域の歴史がぐっと見えやすくなります。 現地では史跡説明板に加え、柴崎村や砂川村にゆかりのある旧境石標、村の歴史を紹介する案内板にも注目してみてください。 田・新田・用水にちなむ地名が多い場所では、土地改良碑や用水記念碑も注目したい探索対象です。 川沿いや水辺では、暮らしや堤防整備の歴史を伝える案内板、治水碑、河川改修の記念碑にも注目してみてください。 ゆかりの人物では小澤征爾やアラン・ヘールに注目すると、地域に残る文化や時代背景をさらに深く知るきっかけになります。 「六面石幢（国宝）」や「玉川上水（指定史跡）」などの名所も、地域の物語を深掘りする絶好の入口です。 さらに、「立川うど」や「おでんそば・うどん」といった名物や食文化に触れると、その土地らしい暮らしまで感じられるでしょう。","layer_counts":{"cafe_restaurant":89,"cultural_facilities":19,"parks_playgrounds":50,"public_facilities":38},"total_features":196,"features":[{"type":"Feature","properties":{"layer_id":"cafe_restaurant","name":"鎌倉パスタ　髙島屋立川店","address":"東京都立川市曙町二丁目39番3号 立川髙島屋９F立川ガーデンテーブルズ","source":"厚生労働省 食品衛生申請等システム（オープンデータ）"},"geometry":{"type":"Point","coordinates":[139.413423,35.700807]}},{"type":"Feature","properties":{"layer_id":"cafe_restaurant","name":"魚屋路 立川幸町店","address":"東京都立川市幸町５丁目８６－１７","source":"厚生労働省 食品衛生申請等システム（オープンデータ）"},"geometry":{"type":"Point","coordinates":[139.418385,35.728102]}},{"type":"Feature","properties":{"layer_id":"cafe_restaurant","name":"魚屋路　立川富士見店","address":"東京都立川市富士見町７丁目３８番６号","source":"厚生労働省 食品衛生申請等システム（オープンデータ）"},"geometry":{"type":"Point","coordinates":[139.396782,35.691296]}},{"type":"Feature","properties":{"layer_id":"cafe_restaurant","name":"ガスト 砂川三番店","address":"東京都立川市上砂町２丁目４５－４","source":"厚生労働省 食品衛生申請等システム（オープンデータ）"},"geometry":{"type":"Point","coordinates":[139.396468,35.725007]}},{"type":"Feature","properties":{"layer_id":"cafe_restaurant","name":"から好し 立川駅南口店","address":"東京都立川市柴崎町３丁目３－６","source":"厚生労働省 食品衛生申請等システム（オープンデータ）"},"geometry":{"type":"Point","coordinates":[139.414091,35.6969]}},{"type":"Feature","properties":{"layer_id":"cafe_restaurant","name":"しゃぶ葉 立川駅南口店","address":"東京都立川市柴崎町２丁目２－２７ オスロー立川第２ビル１F","source":"厚生労働省 食品衛生申請等システム（オープンデータ）"},"geometry":{"type":"Point","coordinates":[139.411528,35.697229]}},{"type":"Feature","properties":{"layer_id":"cafe_restaurant","name":"chawan エキュート立川店","address":"東京都立川市柴崎町３丁目１－１ エキュート立川３Ｆ","source":"厚生労働省 食品衛生申請等システム（オープンデータ）"},"geometry":{"type":"Point","coordinates":[139.412072,35.697385]}},{"type":"Feature","properties":{"layer_id":"cafe_restaurant","name":"ガスト 立川栄店","address":"東京都立川市栄町３丁目４５－１","source":"厚生労働省 食品衛生申請等システム（オープンデータ）"},"geometry":{"type":"Point","coordinates":[139.426087,35.709549]}},{"type":"Feature","properties":{"layer_id":"cafe_restaurant","name":"ガスト 立川駅南口店","address":"東京都立川市柴崎町２丁目２－１ ＫＳビル２階","source":"厚生労働省 食品衛生申請等システム（オープンデータ）"},"geometry":{"type":"Point","coordinates":[139.411746,35.697184]}},{"type":"Feature","properties":{"layer_id":"cafe_restaurant","name":"ガスト 立川曙橋店","address":"東京都立川市曙町２丁目１０－１ ふどうやビルＢ１階","source":"厚生労働省 食品衛生申請等システム（オープンデータ）"},"geometry":{"type":"Point","coordinates":[139.415271,35.700542]}},{"type":"Feature","properties":{"layer_id":"cafe_restaurant","name":"すし銚子丸立川店","address":"東京都立川市錦町五丁目19番16号","source":"厚生労働省 食品衛生申請等システム（オープンデータ）"},"geometry":{"type":"Point","coordinates":[139.414438,35.686533]}},{"type":"Feature","properties":{"layer_id":"cafe_restaurant","name":"イーティーズ立川幸町店","address":"東京都立川市幸町3-19-1 ダイレックス立川幸町店内","source":"厚生労働省 食品衛生申請等システム（オープンデータ）"},"geometry":{"type":"Point","coordinates":[139.428938,35.72142]}},{"type":"Feature","properties":{"layer_id":"cafe_restaurant","name":"くら寿司　立川店","address":"東京都立川市砂川町一丁目50番地の3","source":"厚生労働省 食品衛生申請等システム（オープンデータ）"},"geometry":{"type":"Point","coordinates":[139.402062,35.723335]}},{"type":"Feature","properties":{"layer_id":"cafe_restaurant","name":"いなげや 立川栄町店　寿司","address":"東京都立川市栄町3-7-1","source":"厚生労働省 食品衛生申請等システム（オープンデータ）"},"geometry":{"type":"Point","coordinates":[139.423007,35.708961]}},{"type":"Feature","properties":{"layer_id":"cafe_restaurant","name":"いなげや 立川栄町店  デリカ","address":"東京都立川市栄町3-7-1","source":"厚生労働省 食品衛生申請等システム（オープンデータ）"},"geometry":{"type":"Point","coordinates":[139.423007,35.708961]}},{"type":"Feature","properties":{"layer_id":"cafe_restaurant","name":"ブルーミングブルーミーららぽーと立川立飛店（喫茶）","address":"東京都立川市泉町９３５－１","source":"厚生労働省 食品衛生申請等システム（オープンデータ）"},"geometry":{"type":"Point","coordinates":[139.418447,35.713269]}},{"type":"Feature","properties":{"layer_id":"cafe_restaurant","name":"ブルーミングブルーミーららぽーと立川立飛店（ミートデリカ）","address":"東京都立川市泉町９３５－１","source":"厚生労働省 食品衛生申請等システム（オープンデータ）"},"geometry":{"type":"Point","coordinates":[139.418447,35.713269]}},{"type":"Feature","properties":{"layer_id":"cafe_restaurant","name":"ブルーミングブルーミーららぽーと立川立飛店（惣菜・おはぎ）","address":"東京都立川市泉町９３５－１","source":"厚生労働省 食品衛生申請等システム（オープンデータ）"},"geometry":{"type":"Point","coordinates":[139.418447,35.713269]}},{"type":"Feature","properties":{"layer_id":"cafe_restaurant","name":"いなげや立川栄町店（鮮魚鮨）","address":"東京都立川市栄町３－７－１","source":"厚生労働省 食品衛生申請等システム（オープンデータ）"},"geometry":{"type":"Point","coordinates":[139.423007,35.708961]}},{"type":"Feature","properties":{"layer_id":"cafe_restaurant","name":"立川駅南口東急ストア","address":"東京都立川市柴崎町三丁目６番２９号 アレアレア２　２階","source":"厚生労働省 食品衛生申請等システム（オープンデータ）"},"geometry":{"type":"Point","coordinates":[139.413008,35.696156]}},{"type":"Feature","properties":{"layer_id":"cafe_restaurant","name":"立川駅南口東急ストア","address":"東京都立川市柴崎町三丁目６番２９号 アレアレア２　２階","source":"厚生労働省 食品衛生申請等システム（オープンデータ）"},"geometry":{"type":"Point","coordinates":[139.413008,35.696156]}},{"type":"Feature","properties":{"layer_id":"cafe_restaurant","name":"デニーズ立川店","address":"東京都立川市柏町1-5-1","source":"厚生労働省 食品衛生申請等システム（オープンデータ）"},"geometry":{"type":"Point","coordinates":[139.41775,35.720477]}},{"type":"Feature","properties":{"layer_id":"cafe_restaurant","name":"奥多摩そば青梅ホーム店","address":"東京都立川市曙町2丁目1番1号 JR立川駅構内","source":"厚生労働省 食品衛生申請等システム（オープンデータ）"},"geometry":{"type":"Point","coordinates":[139.414763,35.69804]}},{"type":"Feature","properties":{"layer_id":"cafe_restaurant","name":"ベックスコーヒーショップ立川店","address":"東京都立川市曙町二丁目１－１ ＪＲ立川駅東改札外","source":"厚生労働省 食品衛生申請等システム（オープンデータ）"},"geometry":{"type":"Point","coordinates":[139.413788,35.698391]}},{"type":"Feature","properties":{"layer_id":"cafe_restaurant","name":"草の花　グランデュオ立川","address":"東京都立川市柴崎町3丁目2-1 グランデュオ立川　７階","source":"厚生労働省 食品衛生申請等システム（オープンデータ）"},"geometry":{"type":"Point","coordinates":[139.414358,35.69749]}},{"type":"Feature","properties":{"layer_id":"cafe_restaurant","name":"ガブ飲み処 鬼ぞりゴリラ 立川店","address":"東京都立川市曙町二丁目10番10号 五光曙第1ビル2階","source":"厚生労働省 食品衛生申請等システム（オープンデータ）"},"geometry":{"type":"Point","coordinates":[139.414259,35.695645]}},{"type":"Feature","properties":{"layer_id":"cafe_restaurant","name":"居酒屋いくなら俺んち来い。立川店","address":"東京都立川市曙町2-7-5 ピタゴラスビル6Ｆ","source":"厚生労働省 食品衛生申請等システム（オープンデータ）"},"geometry":{"type":"Point","coordinates":[139.413735,35.699666]}},{"type":"Feature","properties":{"layer_id":"cafe_restaurant","name":"サーティワンアイスクリーム　若葉ケヤキモール店","address":"東京都立川市若葉町1丁目7番１ 若葉ケヤキモール","source":"厚生労働省 食品衛生申請等システム（オープンデータ）"},"geometry":{"type":"Point","coordinates":[139.434089,35.720162]}},{"type":"Feature","properties":{"layer_id":"cafe_restaurant","name":"鳥貴族　立川南口店","address":"東京都立川市柴崎町三丁目３番５号 ﾍﾞﾙﾌｪｱｰ立川2階","source":"厚生労働省 食品衛生申請等システム（オープンデータ）"},"geometry":{"type":"Point","coordinates":[139.414249,35.696968]}},{"type":"Feature","properties":{"layer_id":"cafe_restaurant","name":"鳥貴族 立川北口店","address":"東京都立川市曙町二丁目11番7号 立川ﾘｰｼﾞｪﾝﾄﾋﾞﾙ3階","source":"厚生労働省 食品衛生申請等システム（オープンデータ）"},"geometry":{"type":"Point","coordinates":[139.415092,35.70013]}},{"type":"Feature","properties":{"layer_id":"cafe_restaurant","name":"鳥貴族　立川諏訪通り店","address":"東京都立川市柴崎町二丁目2番27号 ｵｽﾛｰ立川第2ﾋﾞﾙ2階B","source":"厚生労働省 食品衛生申請等システム（オープンデータ）"},"geometry":{"type":"Point","coordinates":[139.411528,35.697229]}},{"type":"Feature","properties":{"layer_id":"cafe_restaurant","name":"鳥貴族　立川伊勢丹前店","address":"東京都立川市曙町二丁目７番５号 ピタゴラスビル　4階","source":"厚生労働省 食品衛生申請等システム（オープンデータ）"},"geometry":{"type":"Point","coordinates":[139.413735,35.699666]}},{"type":"Feature","properties":{"layer_id":"cafe_restaurant","name":"キッチンコート  立川店","address":"東京都立川市柴崎町3-18-10","source":"厚生労働省 食品衛生申請等システム（オープンデータ）"},"geometry":{"type":"Point","coordinates":[139.409994,35.69208]}},{"type":"Feature","properties":{"layer_id":"cafe_restaurant","name":"カラオケ館　立川店","address":"東京都立川市錦町2丁目1番35号","source":"厚生労働省 食品衛生申請等システム（オープンデータ）"},"geometry":{"type":"Point","coordinates":[139.414944,35.696037]}},{"type":"Feature","properties":{"layer_id":"cafe_restaurant","name":"一風堂COMMONS立川立飛店","address":"東京都立川市泉町935-27 COMMONS立川立飛","source":"厚生労働省 食品衛生申請等システム（オープンデータ）"},"geometry":{"type":"Point","coordinates":[139.412611,35.716098]}},{"type":"Feature","properties":{"layer_id":"cafe_restaurant","name":"博多一風堂　ルミネ立川店","address":"東京都立川市曙町2丁目1番1号 ルミネ立川8F","source":"厚生労働省 食品衛生申請等システム（オープンデータ）"},"geometry":{"type":"Point","coordinates":[139.413647,35.698012]}},{"type":"Feature","properties":{"layer_id":"cafe_restaurant","name":"沖縄料理ニライカナイ立川ぱなり","address":"東京都立川市柴崎町3-4-17 花伝ビルB1","source":"厚生労働省 食品衛生申請等システム（オープンデータ）"},"geometry":{"type":"Point","coordinates":[139.414602,35.696868]}},{"type":"Feature","properties":{"layer_id":"cafe_restaurant","name":"ローソンストア１００　立川羽衣町店","address":"東京都立川市羽衣町一丁目6番10号 小川ビル1階","source":"厚生労働省 食品衛生申請等システム（オープンデータ）"},"geometry":{"type":"Point","coordinates":[139.423954,35.696364]}},{"type":"Feature","properties":{"layer_id":"cafe_restaurant","name":"狭山園","address":"東京都立川市羽衣町1-23-7","source":"厚生労働省 食品衛生申請等システム（オープンデータ）"},"geometry":{"type":"Point","coordinates":[139.425375,35.69466]}},{"type":"Feature","properties":{"layer_id":"cafe_restaurant","name":"キッチンオリジン　立川店","address":"東京都立川市柴崎町三丁目５番１号","source":"厚生労働省 食品衛生申請等システム（オープンデータ）"},"geometry":{"type":"Point","coordinates":[139.414166,35.696505]}},{"type":"Feature","properties":{"layer_id":"cafe_restaurant","name":"キッチンオリジン　立川柴崎町店","address":"東京都立川市柴崎町二丁目６番３号 まるごビル１Ｆ","source":"厚生労働省 食品衛生申請等システム（オープンデータ）"},"geometry":{"type":"Point","coordinates":[139.409138,35.696926]}},{"type":"Feature","properties":{"layer_id":"cafe_restaurant","name":"鉄鍋焼きスパ　ゲッティ　立川南口店","address":"東京都立川市錦町2-1-3 ICHIGO-M2ビル１階","source":"厚生労働省 食品衛生申請等システム（オープンデータ）"},"geometry":{"type":"Point","coordinates":[139.415078,35.696157]}},{"type":"Feature","properties":{"layer_id":"cafe_restaurant","name":"スターバックスコーヒーららぽーと立川立飛２階パークサイド店","address":"東京都立川市泉町９３５番地の１ ららぽーと立川立飛2階","source":"厚生労働省 食品衛生申請等システム（オープンデータ）"},"geometry":{"type":"Point","coordinates":[139.418316,35.713258]}},{"type":"Feature","properties":{"layer_id":"cafe_restaurant","name":"ヤオコー　立川若葉町店　(精肉)","address":"東京都立川市若葉町1丁目12番地の1","source":"厚生労働省 食品衛生申請等システム（オープンデータ）"},"geometry":{"type":"Point","coordinates":[139.437482,35.719948]}},{"type":"Feature","properties":{"layer_id":"cafe_restaurant","name":"ヤオコー　立川若葉町店　(惣菜・寿司)","address":"東京都立川市若葉町1丁目12番地の1","source":"厚生労働省 食品衛生申請等システム（オープンデータ）"},"geometry":{"type":"Point","coordinates":[139.437482,35.719948]}},{"type":"Feature","properties":{"layer_id":"cafe_restaurant","name":"生そばあずま　立川店","address":"東京都立川市幸町3-3-9","source":"厚生労働省 食品衛生申請等システム（オープンデータ）"},"geometry":{"type":"Point","coordinates":[139.431006,35.718696]}},{"type":"Feature","properties":{"layer_id":"cafe_restaurant","name":"オリーブの丘　立川店","address":"東京都立川市柏町二丁目１３番地の１","source":"厚生労働省 食品衛生申請等システム（オープンデータ）"},"geometry":{"type":"Point","coordinates":[139.416303,35.720976]}},{"type":"Feature","properties":{"layer_id":"cafe_restaurant","name":"スシロー立川幸町店","address":"東京都立川市幸町5-39-1","source":"厚生労働省 食品衛生申請等システム（オープンデータ）"},"geometry":{"type":"Point","coordinates":[139.424333,35.72315]}},{"type":"Feature","properties":{"layer_id":"cafe_restaurant","name":"茅乃舎 ルミネ立川店","address":"東京都立川市曙町2-1-1 ルミネ立川 1F","source":"厚生労働省 食品衛生申請等システム（オープンデータ）"},"geometry":{"type":"Point","coordinates":[139.413749,35.698475]}},{"type":"Feature","properties":{"layer_id":"cafe_restaurant","name":"アンテンドゥ　エキュート立川店","address":"東京都立川市柴崎町三丁目1番1号 エキュート立川2F改札外","source":"厚生労働省 食品衛生申請等システム（オープンデータ）"},"geometry":{"type":"Point","coordinates":[139.412088,35.697414]}},{"type":"Feature","properties":{"layer_id":"cafe_restaurant","name":"Rituel Cafe GREEN SPRINGS立川","address":"東京都立川市緑町3-1 GREEN SPRINGS立川2階（区画E1　203）","source":"厚生労働省 食品衛生申請等システム（オープンデータ）"},"geometry":{"type":"Point","coordinates":[139.411498,35.703552]}},{"type":"Feature","properties":{"layer_id":"cafe_restaurant","name":"温野菜　立川店","address":"東京都立川市柴崎町三丁目3番1号 山川電機ビル5F","source":"厚生労働省 食品衛生申請等システム（オープンデータ）"},"geometry":{"type":"Point","coordinates":[139.413895,35.696856]}},{"type":"Feature","properties":{"layer_id":"cafe_restaurant","name":"竈火　立川南口店","address":"東京都立川市柴崎町三丁目6番30号 中晋ビル８F","source":"厚生労働省 食品衛生申請等システム（オープンデータ）"},"geometry":{"type":"Point","coordinates":[139.413201,35.696452]}},{"type":"Feature","properties":{"layer_id":"cafe_restaurant","name":"生活協同組合コープみらい　ミニコープ立川店（惣菜作業室）","address":"東京都立川市富士見町７丁目３９番１１号","source":"厚生労働省 食品衛生申請等システム（オープンデータ）"},"geometry":{"type":"Point","coordinates":[139.397588,35.691377]}},{"type":"Feature","properties":{"layer_id":"cafe_restaurant","name":"サイゼリヤ立川ビックカメラ店","address":"東京都立川市曙町2-12-2 立川ビックカメラ8F","source":"厚生労働省 食品衛生申請等システム（オープンデータ）"},"geometry":{"type":"Point","coordinates":[139.41473,35.699338]}},{"type":"Feature","properties":{"layer_id":"cafe_restaurant","name":"㈱サイゼリヤ　立川若葉ケヤキモール","address":"東京都立川市若葉町1-7-1 若葉ケヤキモール１F","source":"厚生労働省 食品衛生申請等システム（オープンデータ）"},"geometry":{"type":"Point","coordinates":[139.434089,35.720162]}},{"type":"Feature","properties":{"layer_id":"cafe_restaurant","name":"まんまるおにぎり","address":"東京都立川市曙町2丁目39-3 立川高島屋S.C.地下1階","source":"厚生労働省 食品衛生申請等システム（オープンデータ）"},"geometry":{"type":"Point","coordinates":[139.413423,35.700807]}},{"type":"Feature","properties":{"layer_id":"cafe_restaurant","name":"立川・鼎泰豊","address":"東京都立川市曙町2丁目39-3 立川髙島屋９階ガーデンテーブルズ","source":"厚生労働省 食品衛生申請等システム（オープンデータ）"},"geometry":{"type":"Point","coordinates":[139.413423,35.700807]}},{"type":"Feature","properties":{"layer_id":"cafe_restaurant","name":"ダッキーダックキッチン　グランデュオ立川店","address":"東京都立川市柴崎町3-2-1 グランデュオ立川7階","source":"厚生労働省 食品衛生申請等システム（オープンデータ）"},"geometry":{"type":"Point","coordinates":[139.414547,35.697379]}},{"type":"Feature","properties":{"layer_id":"cafe_restaurant","name":"松屋・松のや　立川柴崎町店","address":"東京都立川市柴崎町六丁目10番8号","source":"厚生労働省 食品衛生申請等システム（オープンデータ）"},"geometry":{"type":"Point","coordinates":[139.407724,35.687835]}},{"type":"Feature","properties":{"layer_id":"cafe_restaurant","name":"グランデュオ立川　イベントマルシェ","address":"東京都立川市柴崎町3丁目2-1 グランデュオ立川G１（イベントマルシェ）","source":"厚生労働省 食品衛生申請等システム（オープンデータ）"},"geometry":{"type":"Point","coordinates":[139.414358,35.69749]}},{"type":"Feature","properties":{"layer_id":"cafe_restaurant","name":"Ｍｏｆｆ　ａｎｉｍａｌ　ｃａｆｅ　ららぽーと立川立飛店","address":"東京都立川市泉町935-1 ららぽーと立川立飛2階2020区画","source":"厚生労働省 食品衛生申請等システム（オープンデータ）"},"geometry":{"type":"Point","coordinates":[139.418316,35.713258]}},{"type":"Feature","properties":{"layer_id":"cafe_restaurant","name":"蓮屋珈琲店　立川若葉町店","address":"東京都立川市若葉町3-56-1","source":"厚生労働省 食品衛生申請等システム（オープンデータ）"},"geometry":{"type":"Point","coordinates":[139.442818,35.718832]}},{"type":"Feature","properties":{"layer_id":"cafe_restaurant","name":"gelato pique cafe ルミネ立川店","address":"東京都立川市曙町2丁目1番地1 ルミネ立川店1階110","source":"厚生労働省 食品衛生申請等システム（オープンデータ）"},"geometry":{"type":"Point","coordinates":[139.414874,35.698207]}},{"type":"Feature","properties":{"layer_id":"cafe_restaurant","name":"海宝丸　立川幸町店","address":"東京都立川市幸町３－１９－１ ダイレックス内","source":"厚生労働省 食品衛生申請等システム（オープンデータ）"},"geometry":{"type":"Point","coordinates":[139.428938,35.72142]}},{"type":"Feature","properties":{"layer_id":"cafe_restaurant","name":"Italianbar ATTACHMENT","address":"東京都立川市曙町2-8-30 三上ビルB1","source":"厚生労働省 食品衛生申請等システム（オープンデータ）"},"geometry":{"type":"Point","coordinates":[139.414656,35.700739]}},{"type":"Feature","properties":{"layer_id":"cafe_restaurant","name":"牛かつもと村　立川グランデュオ店","address":"東京都立川市柴崎町３丁目２番地１号 立川グランデュオ7階","source":"厚生労働省 食品衛生申請等システム（オープンデータ）"},"geometry":{"type":"Point","coordinates":[139.414358,35.69749]}},{"type":"Feature","properties":{"layer_id":"cafe_restaurant","name":"ミツバチ","address":"東京都立川市柴崎町３丁目３番２号 立川ステーションフロントビル７F","source":"厚生労働省 食品衛生申請等システム（オープンデータ）"},"geometry":{"type":"Point","coordinates":[139.413996,35.696846]}},{"type":"Feature","properties":{"layer_id":"cafe_restaurant","name":"ゴンチャ ルミネ立川8階店","address":"東京都立川市曙町2丁目１－１ ルミネ立川8F","source":"厚生労働省 食品衛生申請等システム（オープンデータ）"},"geometry":{"type":"Point","coordinates":[139.413788,35.698391]}},{"type":"Feature","properties":{"layer_id":"cafe_restaurant","name":"ゴンチャ グランデュオ立川店","address":"東京都立川市柴崎町三丁目２番１号 グランデュオ立川 ３F","source":"厚生労働省 食品衛生申請等システム（オープンデータ）"},"geometry":{"type":"Point","coordinates":[139.414358,35.69749]}},{"type":"Feature","properties":{"layer_id":"cafe_restaurant","name":"かぶら屋　立川店","address":"東京都立川市柴崎町3-4-7 栄屋ビル１階","source":"厚生労働省 食品衛生申請等システム（オープンデータ）"},"geometry":{"type":"Point","coordinates":[139.415162,35.696968]}},{"type":"Feature","properties":{"layer_id":"cafe_restaurant","name":"いしがまやハンバーグ　グランデュオ立川店","address":"東京都立川市柴崎町三丁目2番1号 グランデュオ立川　7階","source":"厚生労働省 食品衛生申請等システム（オープンデータ）"},"geometry":{"type":"Point","coordinates":[139.414358,35.69749]}},{"type":"Feature","properties":{"layer_id":"cafe_restaurant","name":"快活CLUB立川駅北口店","address":"東京都立川市曙町2-7-20 カメヤビル　3階","source":"厚生労働省 食品衛生申請等システム（オープンデータ）"},"geometry":{"type":"Point","coordinates":[139.414023,35.699625]}},{"type":"Feature","properties":{"layer_id":"cafe_restaurant","name":"諏訪神社","address":"東京都立川市柴崎町1丁目5番15号","source":"厚生労働省 食品衛生申請等システム（オープンデータ）"},"geometry":{"type":"Point","coordinates":[139.405563,35.694377]}},{"type":"Feature","properties":{"layer_id":"cafe_restaurant","name":"魚鶏ヤロー　立川北口店","address":"東京都立川市曙町２丁目６−５ 山田ビルB1F","source":"厚生労働省 食品衛生申請等システム（オープンデータ）"},"geometry":{"type":"Point","coordinates":[139.413555,35.699387]}},{"type":"Feature","properties":{"layer_id":"cafe_restaurant","name":"恋する惑星","address":"東京都立川市曙町2-21-11 TIビル2階,3階","source":"厚生労働省 食品衛生申請等システム（オープンデータ）"},"geometry":{"type":"Point","coordinates":[139.417345,35.699518]}},{"type":"Feature","properties":{"layer_id":"cafe_restaurant","name":"猫カフェモカ 立川店","address":"東京都立川市曙町2-11-2 フロム中武 6階","source":"厚生労働省 食品衛生申請等システム（オープンデータ）"},"geometry":{"type":"Point","coordinates":[139.414914,35.699789]}},{"type":"Feature","properties":{"layer_id":"cafe_restaurant","name":"Moat frontier","address":"東京都立川市錦町６丁目8-17","source":"厚生労働省 食品衛生申請等システム（オープンデータ）"},"geometry":{"type":"Point","coordinates":[139.418209,35.68807]}},{"type":"Feature","properties":{"layer_id":"cafe_restaurant","name":"ケンタッキーフライドチキン立川店","address":"東京都立川市曙町２－１２－１６","source":"厚生労働省 食品衛生申請等システム（オープンデータ）"},"geometry":{"type":"Point","coordinates":[139.41471,35.699103]}},{"type":"Feature","properties":{"layer_id":"cafe_restaurant","name":"トマトアンドオニオン 立川店","address":"東京都立川市砂川町１丁目１４－１","source":"厚生労働省 食品衛生申請等システム（オープンデータ）"},"geometry":{"type":"Point","coordinates":[139.408993,35.721468]}},{"type":"Feature","properties":{"layer_id":"cafe_restaurant","name":"KIRARI","address":"東京都立川市栄町2-66-3","source":"厚生労働省 食品衛生申請等システム（オープンデータ）"},"geometry":{"type":"Point","coordinates":[139.429259,35.713939]}},{"type":"Feature","properties":{"layer_id":"cafe_restaurant","name":"しゃぶしゃぶ すき焼き 千宮 立川店","address":"東京都立川市曙町2-13-7 S-cube north B1F","source":"厚生労働省 食品衛生申請等システム（オープンデータ）"},"geometry":{"type":"Point","coordinates":[139.415167,35.698877]}},{"type":"Feature","properties":{"layer_id":"cafe_restaurant","name":"アスリート発酵LAB　MAO RINK DINING","address":"東京都立川市泉町935-1 MAO RINK TACHIKAWA TACHIHI","source":"厚生労働省 食品衛生申請等システム（オープンデータ）"},"geometry":{"type":"Point","coordinates":[139.419313,35.712835]}},{"type":"Feature","properties":{"layer_id":"cafe_restaurant","name":"丸亀製麺　立川南口","address":"東京都立川市柴崎町3丁目4番2号","source":"厚生労働省 食品衛生申請等システム（オープンデータ）"},"geometry":{"type":"Point","coordinates":[139.414756,35.697051]}},{"type":"Feature","properties":{"layer_id":"cafe_restaurant","name":"丸亀製麺 手づくり体験教室　東京立川","address":"東京都立川市栄町3-5-1","source":"厚生労働省 食品衛生申請等システム（オープンデータ）"},"geometry":{"type":"Point","coordinates":[139.422403,35.708807]}},{"type":"Feature","properties":{"layer_id":"cafe_restaurant","name":"丸亀製麺立川","address":"東京都立川市栄町3丁目5番地の1","source":"厚生労働省 食品衛生申請等システム（オープンデータ）"},"geometry":{"type":"Point","coordinates":[139.422403,35.708807]}},{"type":"Feature","properties":{"layer_id":"cafe_restaurant","name":"丸亀製麺　立川若葉店","address":"東京都立川市若葉町三丁目８番地の１","source":"厚生労働省 食品衛生申請等システム（オープンデータ）"},"geometry":{"type":"Point","coordinates":[139.4341,35.721561]}},{"type":"Feature","properties":{"layer_id":"cafe_restaurant","name":"丸亀製麺立川北口","address":"東京都立川市曙町2－9－4 野口ビル1階","source":"厚生労働省 食品衛生申請等システム（オープンデータ）"},"geometry":{"type":"Point","coordinates":[139.415569,35.701305]}},{"type":"Feature","properties":{"layer_id":"cafe_restaurant","name":"ワンカルビ　立川日野橋店","address":"東京都立川市錦町5丁目１９番１９号","source":"厚生労働省 食品衛生申請等システム（オープンデータ）"},"geometry":{"type":"Point","coordinates":[139.41425,35.686214]}},{"type":"Feature","properties":{"layer_id":"public_facilities","name":"さかえ会館","address":"立川市栄町4-6-2","source":"国土交通省 国土数値情報"},"geometry":{"type":"Point","coordinates":[139.424897,35.710971]}},{"type":"Feature","properties":{"layer_id":"public_facilities","name":"立川市魅力発信拠点施設ＣｏｔｏＬｉｎｋ","address":"立川市柴崎町3-9-2","source":"国土交通省 国土数値情報"},"geometry":{"type":"Point","coordinates":[139.411924,35.695243]}},{"type":"Feature","properties":{"layer_id":"public_facilities","name":"柴崎福祉会館","address":"立川市柴崎町5-11-26","source":"国土交通省 国土数値情報"},"geometry":{"type":"Point","coordinates":[139.401345,35.688489]}},{"type":"Feature","properties":{"layer_id":"public_facilities","name":"曙福祉会館","address":"立川市曙町3-44-17","source":"国土交通省 国土数値情報"},"geometry":{"type":"Point","coordinates":[139.424825,35.705785]}},{"type":"Feature","properties":{"layer_id":"public_facilities","name":"幸学習館","address":"立川市幸町2-1-3","source":"国土交通省 国土数値情報"},"geometry":{"type":"Point","coordinates":[139.423522,35.719236]}},{"type":"Feature","properties":{"layer_id":"public_facilities","name":"市民会館","address":"立川市錦町3-3-20","source":"国土交通省 国土数値情報"},"geometry":{"type":"Point","coordinates":[139.42004,35.693419]}},{"type":"Feature","properties":{"layer_id":"public_facilities","name":"西砂会館","address":"立川市西砂町5-11-13","source":"国土交通省 国土数値情報"},"geometry":{"type":"Point","coordinates":[139.360808,35.732408]}},{"type":"Feature","properties":{"layer_id":"public_facilities","name":"砂川学習館","address":"立川市砂川町1-52-7","source":"国土交通省 国土数値情報"},"geometry":{"type":"Point","coordinates":[139.403107,35.722857]}},{"type":"Feature","properties":{"layer_id":"public_facilities","name":"東部連絡所","address":"立川市若葉町3-34-1","source":"国土交通省 国土数値情報"},"geometry":{"type":"Point","coordinates":[139.439202,35.720247]}},{"type":"Feature","properties":{"layer_id":"public_facilities","name":"たましんＲＩＳＵＲＵホール","address":"立川市錦町3-3-20","source":"国土交通省 国土数値情報"},"geometry":{"type":"Point","coordinates":[139.42005,35.693419]}},{"type":"Feature","properties":{"layer_id":"public_facilities","name":"柴崎学習館","address":"立川市柴崎町2-15-8","source":"国土交通省 国土数値情報"},"geometry":{"type":"Point","coordinates":[139.406808,35.696688]}},{"type":"Feature","properties":{"layer_id":"public_facilities","name":"総合福祉センター","address":"立川市富士見町2-36-47","source":"国土交通省 国土数値情報"},"geometry":{"type":"Point","coordinates":[139.40183,35.701329]}},{"type":"Feature","properties":{"layer_id":"public_facilities","name":"高松学習館","address":"立川市高松町3-22-5","source":"国土交通省 国土数値情報"},"geometry":{"type":"Point","coordinates":[139.41904,35.703096]}},{"type":"Feature","properties":{"layer_id":"public_facilities","name":"立川市斎場","address":"立川市羽衣町3-20-23","source":"国土交通省 国土数値情報"},"geometry":{"type":"Point","coordinates":[139.424195,35.689384]}},{"type":"Feature","properties":{"layer_id":"public_facilities","name":"窓口サービスセンター","address":"立川市曙町2-2-27","source":"国土交通省 国土数値情報"},"geometry":{"type":"Point","coordinates":[139.411818,35.697788]}},{"type":"Feature","properties":{"layer_id":"public_facilities","name":"こんぴら橋会館","address":"立川市砂川町3-26-1","source":"国土交通省 国土数値情報"},"geometry":{"type":"Point","coordinates":[139.399502,35.727843]}},{"type":"Feature","properties":{"layer_id":"public_facilities","name":"練成館","address":"立川市柴崎町1-5-7","source":"国土交通省 国土数値情報"},"geometry":{"type":"Point","coordinates":[139.406425,35.695033]}},{"type":"Feature","properties":{"layer_id":"public_facilities","name":"一番福祉会館","address":"立川市一番町6-17-87","source":"国土交通省 国土数値情報"},"geometry":{"type":"Point","coordinates":[139.372688,35.734388]}},{"type":"Feature","properties":{"layer_id":"public_facilities","name":"柴崎会館","address":"立川市柴崎町1-16-3","source":"国土交通省 国土数値情報"},"geometry":{"type":"Point","coordinates":[139.407366,35.692389]}},{"type":"Feature","properties":{"layer_id":"public_facilities","name":"西砂学習館","address":"立川市西砂町6-12-10","source":"国土交通省 国土数値情報"},"geometry":{"type":"Point","coordinates":[139.372141,35.729617]}},{"type":"Feature","properties":{"layer_id":"public_facilities","name":"天王橋会館","address":"立川市一番町3-6-1","source":"国土交通省 国土数値情報"},"geometry":{"type":"Point","coordinates":[139.380984,35.728209]}},{"type":"Feature","properties":{"layer_id":"public_facilities","name":"高松会館","address":"立川市高松町2-25-26","source":"国土交通省 国土数値情報"},"geometry":{"type":"Point","coordinates":[139.420126,35.70418]}},{"type":"Feature","properties":{"layer_id":"public_facilities","name":"西部連絡所","address":"立川市西砂町6-12-10","source":"国土交通省 国土数値情報"},"geometry":{"type":"Point","coordinates":[139.372121,35.729617]}},{"type":"Feature","properties":{"layer_id":"public_facilities","name":"錦学習館","address":"立川市錦町3-12-25","source":"国土交通省 国土数値情報"},"geometry":{"type":"Point","coordinates":[139.416429,35.691197]}},{"type":"Feature","properties":{"layer_id":"public_facilities","name":"滝ノ上会館","address":"立川市富士見町4-16-10","source":"国土交通省 国土数値情報"},"geometry":{"type":"Point","coordinates":[139.399011,35.69588]}},{"type":"Feature","properties":{"layer_id":"public_facilities","name":"上砂会館","address":"立川市上砂町1-13-1","source":"国土交通省 国土数値情報"},"geometry":{"type":"Point","coordinates":[139.391461,35.72021]}},{"type":"Feature","properties":{"layer_id":"public_facilities","name":"立川市子ども未来センター","address":"立川市錦町3-2-26","source":"国土交通省 国土数値情報"},"geometry":{"type":"Point","coordinates":[139.419716,35.694283]}},{"type":"Feature","properties":{"layer_id":"public_facilities","name":"羽衣中央会館","address":"立川市羽衣町2-26-7","source":"国土交通省 国土数値情報"},"geometry":{"type":"Point","coordinates":[139.428578,35.694145]}},{"type":"Feature","properties":{"layer_id":"public_facilities","name":"健康会館","address":"立川市高松町3-22-9","source":"国土交通省 国土数値情報"},"geometry":{"type":"Point","coordinates":[139.419212,35.70289]}},{"type":"Feature","properties":{"layer_id":"public_facilities","name":"錦連絡所","address":"立川市錦町3-2-26子ども未来センター1F","source":"国土交通省 国土数値情報"},"geometry":{"type":"Point","coordinates":[139.419696,35.694283]}},{"type":"Feature","properties":{"layer_id":"public_facilities","name":"こぶし会館","address":"立川市幸町5-83-1","source":"国土交通省 国土数値情報"},"geometry":{"type":"Point","coordinates":[139.418423,35.725621]}},{"type":"Feature","properties":{"layer_id":"public_facilities","name":"富士見連絡所","address":"立川市富士見町7-17-12","source":"国土交通省 国土数値情報"},"geometry":{"type":"Point","coordinates":[139.396457,35.694053]}},{"type":"Feature","properties":{"layer_id":"public_facilities","name":"柴崎市民体育館","address":"立川市柴崎町6-15-9","source":"国土交通省 国土数値情報"},"geometry":{"type":"Point","coordinates":[139.411119,35.688278]}},{"type":"Feature","properties":{"layer_id":"public_facilities","name":"若葉会館","address":"立川市若葉町3-34-1","source":"国土交通省 国土数値情報"},"geometry":{"type":"Point","coordinates":[139.439222,35.720247]}},{"type":"Feature","properties":{"layer_id":"public_facilities","name":"女性総合センターアイム","address":"立川市曙町2-36-2","source":"国土交通省 国土数値情報"},"geometry":{"type":"Point","coordinates":[139.414046,35.702482]}},{"type":"Feature","properties":{"layer_id":"public_facilities","name":"幸福祉会館","address":"立川市幸町5-57-14","source":"国土交通省 国土数値情報"},"geometry":{"type":"Point","coordinates":[139.423225,35.725891]}},{"type":"Feature","properties":{"layer_id":"public_facilities","name":"泉市民体育館","address":"立川市泉町786-11","source":"国土交通省 国土数値情報"},"geometry":{"type":"Point","coordinates":[139.418709,35.718978]}},{"type":"Feature","properties":{"layer_id":"public_facilities","name":"立川市役所","address":"立川市泉町1156-9","source":"国土交通省 国土数値情報"},"geometry":{"type":"Point","coordinates":[139.407849,35.713981]}},{"type":"Feature","properties":{"layer_id":"cultural_facilities","name":"国文学研究資料館図書館","address":"緑町10-3","source":"国土交通省 国土数値情報"},"geometry":{"type":"Point","coordinates":[139.408876,35.712278]}},{"type":"Feature","properties":{"layer_id":"cultural_facilities","name":"砂川中央地区北多目的運動広場","address":"砂川町5-12-1","source":"国土交通省 国土数値情報"},"geometry":{"type":"Point","coordinates":[139.4055585,35.7246685]}},{"type":"Feature","properties":{"layer_id":"cultural_facilities","name":"立川市幸図書館","address":"幸町5-83-1","source":"国土交通省 国土数値情報"},"geometry":{"type":"Point","coordinates":[139.418458,35.725776]}},{"type":"Feature","properties":{"layer_id":"cultural_facilities","name":"立川市柴崎市民体育館","address":"柴崎町6-15-9","source":"国土交通省 国土数値情報"},"geometry":{"type":"Point","coordinates":[139.4110454,35.6883786]}},{"type":"Feature","properties":{"layer_id":"cultural_facilities","name":"たちかわ中央公園スケートパーク","address":"緑町3173-17","source":"国土交通省 国土数値情報"},"geometry":{"type":"Point","coordinates":[139.412796,35.705816]}},{"type":"Feature","properties":{"layer_id":"cultural_facilities","name":"泉町庭球場","address":"泉町786-7","source":"国土交通省 国土数値情報"},"geometry":{"type":"Point","coordinates":[139.418738,35.717123]}},{"type":"Feature","properties":{"layer_id":"cultural_facilities","name":"立川市高松図書館","address":"高松町3-22-5","source":"国土交通省 国土数値情報"},"geometry":{"type":"Point","coordinates":[139.41903,35.703118]}},{"type":"Feature","properties":{"layer_id":"cultural_facilities","name":"泉町ゲートボール場","address":"泉町786-7","source":"国土交通省 国土数値情報"},"geometry":{"type":"Point","coordinates":[139.418934,35.716877]}},{"type":"Feature","properties":{"layer_id":"cultural_facilities","name":"砂川中央地区支所前ゲートボール場","address":"砂川町1-42-6","source":"国土交通省 国土数値情報"},"geometry":{"type":"Point","coordinates":[139.403465,35.722412]}},{"type":"Feature","properties":{"layer_id":"cultural_facilities","name":"立川市柴崎図書館","address":"柴崎町1-1-43","source":"国土交通省 国土数値情報"},"geometry":{"type":"Point","coordinates":[139.406752,35.696656]}},{"type":"Feature","properties":{"layer_id":"cultural_facilities","name":"立川市上砂図書館","address":"上砂町1-13-1","source":"国土交通省 国土数値情報"},"geometry":{"type":"Point","coordinates":[139.391741,35.720701]}},{"type":"Feature","properties":{"layer_id":"cultural_facilities","name":"立川市中央図書館","address":"曙町2-36-2（ファーレ立川センタースクエア内）","source":"国土交通省 国土数値情報"},"geometry":{"type":"Point","coordinates":[139.414071,35.70228]}},{"type":"Feature","properties":{"layer_id":"cultural_facilities","name":"立川市泉市民体育館","address":"泉町86-11","source":"国土交通省 国土数値情報"},"geometry":{"type":"Point","coordinates":[139.4187976,35.7188884]}},{"type":"Feature","properties":{"layer_id":"cultural_facilities","name":"泉町野球場","address":"泉町786-13","source":"国土交通省 国土数値情報"},"geometry":{"type":"Point","coordinates":[139.417803,35.718957]}},{"type":"Feature","properties":{"layer_id":"cultural_facilities","name":"砂川中央地区支所前庭球場","address":"砂川町1-41-5","source":"国土交通省 国土数値情報"},"geometry":{"type":"Point","coordinates":[139.404023,35.722655]}},{"type":"Feature","properties":{"layer_id":"cultural_facilities","name":"昭和天皇記念館","address":"緑町3173（国営昭和記念公園花みどり文化センター内）","source":"国土交通省 国土数値情報"},"geometry":{"type":"Point","coordinates":[139.410419,35.70302]}},{"type":"Feature","properties":{"layer_id":"cultural_facilities","name":"砂川中央地区支所前多目的運動広場","address":"砂川町1-54-1","source":"国土交通省 国土数値情報"},"geometry":{"type":"Point","coordinates":[139.404139,35.723132]}},{"type":"Feature","properties":{"layer_id":"cultural_facilities","name":"砂川中央地区支所東ゲートボール場","address":"砂川町1-61-4","source":"国土交通省 国土数値情報"},"geometry":{"type":"Point","coordinates":[139.407154,35.723059]}},{"type":"Feature","properties":{"layer_id":"cultural_facilities","name":"砂川中央地区支所東野球場","address":"砂川町1-27-1","source":"国土交通省 国土数値情報"},"geometry":{"type":"Point","coordinates":[139.406278,35.721431]}},{"type":"Feature","properties":{"layer_id":"parks_playgrounds","name":"富士見第三","address":"立川市","source":"国土交通省 国土数値情報"},"geometry":{"type":"Point","coordinates":[139.38689,35.69171]}},{"type":"Feature","properties":{"layer_id":"parks_playgrounds","name":"緑町北","address":"立川市","source":"国土交通省 国土数値情報"},"geometry":{"type":"Point","coordinates":[139.412047,35.710074]}},{"type":"Feature","properties":{"layer_id":"parks_playgrounds","name":"東栄","address":"立川市","source":"国土交通省 国土数値情報"},"geometry":{"type":"Point","coordinates":[139.42873,35.71432]}},{"type":"Feature","properties":{"layer_id":"parks_playgrounds","name":"曙一丁目","address":"立川市","source":"国土交通省 国土数値情報"},"geometry":{"type":"Point","coordinates":[139.410731,35.701318]}},{"type":"Feature","properties":{"layer_id":"parks_playgrounds","name":"曙第四","address":"立川市","source":"国土交通省 国土数値情報"},"geometry":{"type":"Point","coordinates":[139.42438,35.70499]}},{"type":"Feature","properties":{"layer_id":"parks_playgrounds","name":"九番","address":"立川市","source":"国土交通省 国土数値情報"},"geometry":{"type":"Point","coordinates":[139.4262,35.722773]}},{"type":"Feature","properties":{"layer_id":"parks_playgrounds","name":"大山","address":"立川市","source":"国土交通省 国土数値情報"},"geometry":{"type":"Point","coordinates":[139.389771,35.720316]}},{"type":"Feature","properties":{"layer_id":"parks_playgrounds","name":"曙","address":"立川市","source":"国土交通省 国土数値情報"},"geometry":{"type":"Point","coordinates":[139.42484,35.70502]}},{"type":"Feature","properties":{"layer_id":"parks_playgrounds","name":"富士見七東","address":"立川市","source":"国土交通省 国土数値情報"},"geometry":{"type":"Point","coordinates":[139.39876,35.69292]}},{"type":"Feature","properties":{"layer_id":"parks_playgrounds","name":"江の島","address":"立川市","source":"国土交通省 国土数値情報"},"geometry":{"type":"Point","coordinates":[139.422943,35.719063]}},{"type":"Feature","properties":{"layer_id":"parks_playgrounds","name":"江の島第二","address":"立川市","source":"国土交通省 国土数値情報"},"geometry":{"type":"Point","coordinates":[139.425362,35.718586]}},{"type":"Feature","properties":{"layer_id":"parks_playgrounds","name":"曙三北","address":"立川市","source":"国土交通省 国土数値情報"},"geometry":{"type":"Point","coordinates":[139.42471,35.70671]}},{"type":"Feature","properties":{"layer_id":"parks_playgrounds","name":"栄","address":"立川市","source":"国土交通省 国土数値情報"},"geometry":{"type":"Point","coordinates":[139.43077,35.71233]}},{"type":"Feature","properties":{"layer_id":"parks_playgrounds","name":"富士見一東","address":"立川市","source":"国土交通省 国土数値情報"},"geometry":{"type":"Point","coordinates":[139.39825,35.69834]}},{"type":"Feature","properties":{"layer_id":"parks_playgrounds","name":"富士見七南","address":"立川市","source":"国土交通省 国土数値情報"},"geometry":{"type":"Point","coordinates":[139.39784,35.69361]}},{"type":"Feature","properties":{"layer_id":"parks_playgrounds","name":"曙第五","address":"立川市","source":"国土交通省 国土数値情報"},"geometry":{"type":"Point","coordinates":[139.42444,35.70415]}},{"type":"Feature","properties":{"layer_id":"parks_playgrounds","name":"曙第二","address":"立川市","source":"国土交通省 国土数値情報"},"geometry":{"type":"Point","coordinates":[139.42424,35.70668]}},{"type":"Feature","properties":{"layer_id":"parks_playgrounds","name":"高砂","address":"立川市","source":"国土交通省 国土数値情報"},"geometry":{"type":"Point","coordinates":[139.42299,35.70649]}},{"type":"Feature","properties":{"layer_id":"parks_playgrounds","name":"富士見五丁目","address":"立川市","source":"国土交通省 国土数値情報"},"geometry":{"type":"Point","coordinates":[139.40201,35.69597]}},{"type":"Feature","properties":{"layer_id":"parks_playgrounds","name":"富士見二さくら","address":"立川市","source":"国土交通省 国土数値情報"},"geometry":{"type":"Point","coordinates":[139.40051,35.70123]}},{"type":"Feature","properties":{"layer_id":"parks_playgrounds","name":"曙三東","address":"立川市","source":"国土交通省 国土数値情報"},"geometry":{"type":"Point","coordinates":[139.42403,35.702641]}},{"type":"Feature","properties":{"layer_id":"parks_playgrounds","name":"曙第三","address":"立川市","source":"国土交通省 国土数値情報"},"geometry":{"type":"Point","coordinates":[139.4243,35.70583]}},{"type":"Feature","properties":{"layer_id":"parks_playgrounds","name":"錦","address":"立川市","source":"国土交通省 国土数値情報"},"geometry":{"type":"Point","coordinates":[139.41402,35.6892]}},{"type":"Feature","properties":{"layer_id":"parks_playgrounds","name":"曙三南","address":"立川市","source":"国土交通省 国土数値情報"},"geometry":{"type":"Point","coordinates":[139.42493,35.70417]}},{"type":"Feature","properties":{"layer_id":"parks_playgrounds","name":"高松三東","address":"立川市","source":"国土交通省 国土数値情報"},"geometry":{"type":"Point","coordinates":[139.41899,35.70199]}},{"type":"Feature","properties":{"layer_id":"parks_playgrounds","name":"緑町","address":"立川市","source":"国土交通省 国土数値情報"},"geometry":{"type":"Point","coordinates":[139.413251,35.705047]}},{"type":"Feature","properties":{"layer_id":"parks_playgrounds","name":"富士見一北","address":"立川市","source":"国土交通省 国土数値情報"},"geometry":{"type":"Point","coordinates":[139.39813,35.7018]}},{"type":"Feature","properties":{"layer_id":"parks_playgrounds","name":"富士見六","address":"立川市","source":"国土交通省 国土数値情報"},"geometry":{"type":"Point","coordinates":[139.39221,35.69112]}},{"type":"Feature","properties":{"layer_id":"parks_playgrounds","name":"南部","address":"立川市","source":"国土交通省 国土数値情報"},"geometry":{"type":"Point","coordinates":[139.4239,35.71265]}},{"type":"Feature","properties":{"layer_id":"parks_playgrounds","name":"青柳","address":"立川市","source":"国土交通省 国土数値情報"},"geometry":{"type":"Point","coordinates":[139.415743,35.719418]}},{"type":"Feature","properties":{"layer_id":"parks_playgrounds","name":"江の島南","address":"立川市","source":"国土交通省 国土数値情報"},"geometry":{"type":"Point","coordinates":[139.42186,35.71738]}},{"type":"Feature","properties":{"layer_id":"parks_playgrounds","name":"富士見六西","address":"立川市","source":"国土交通省 国土数値情報"},"geometry":{"type":"Point","coordinates":[139.39125,35.69231]}},{"type":"Feature","properties":{"layer_id":"parks_playgrounds","name":"高松第二","address":"立川市","source":"国土交通省 国土数値情報"},"geometry":{"type":"Point","coordinates":[139.41675,35.70834]}},{"type":"Feature","properties":{"layer_id":"parks_playgrounds","name":"錦五南","address":"立川市","source":"国土交通省 国土数値情報"},"geometry":{"type":"Point","coordinates":[139.412971,35.687583]}},{"type":"Feature","properties":{"layer_id":"parks_playgrounds","name":"富士見","address":"立川市","source":"国土交通省 国土数値情報"},"geometry":{"type":"Point","coordinates":[139.39117,35.69762]}},{"type":"Feature","properties":{"layer_id":"parks_playgrounds","name":"錦第二","address":"立川市","source":"国土交通省 国土数値情報"},"geometry":{"type":"Point","coordinates":[139.418206,35.697373]}},{"type":"Feature","properties":{"layer_id":"parks_playgrounds","name":"幸五東","address":"立川市","source":"国土交通省 国土数値情報"},"geometry":{"type":"Point","coordinates":[139.42111,35.72475]}},{"type":"Feature","properties":{"layer_id":"parks_playgrounds","name":"柴崎","address":"立川市","source":"国土交通省 国土数値情報"},"geometry":{"type":"Point","coordinates":[139.41049,35.69339]}},{"type":"Feature","properties":{"layer_id":"parks_playgrounds","name":"富士見七","address":"立川市","source":"国土交通省 国土数値情報"},"geometry":{"type":"Point","coordinates":[139.39651,35.69189]}},{"type":"Feature","properties":{"layer_id":"parks_playgrounds","name":"江の島道東","address":"立川市","source":"国土交通省 国土数値情報"},"geometry":{"type":"Point","coordinates":[139.4276,35.71948]}},{"type":"Feature","properties":{"layer_id":"parks_playgrounds","name":"諏訪の森","address":"立川市","source":"国土交通省 国土数値情報"},"geometry":{"type":"Point","coordinates":[139.40602,35.69632]}},{"type":"Feature","properties":{"layer_id":"parks_playgrounds","name":"多摩川","address":"立川市","source":"国土交通省 国土数値情報"},"geometry":{"type":"Point","coordinates":[139.400677,35.687646]}},{"type":"Feature","properties":{"layer_id":"parks_playgrounds","name":"錦中央","address":"立川市","source":"国土交通省 国土数値情報"},"geometry":{"type":"Point","coordinates":[139.4203,35.69357]}},{"type":"Feature","properties":{"layer_id":"parks_playgrounds","name":"曙第六","address":"立川市","source":"国土交通省 国土数値情報"},"geometry":{"type":"Point","coordinates":[139.425151,35.699451]}},{"type":"Feature","properties":{"layer_id":"parks_playgrounds","name":"柴崎中央","address":"立川市","source":"国土交通省 国土数値情報"},"geometry":{"type":"Point","coordinates":[139.410457,35.696977]}},{"type":"Feature","properties":{"layer_id":"parks_playgrounds","name":"柴西","address":"立川市","source":"国土交通省 国土数値情報"},"geometry":{"type":"Point","coordinates":[139.40321,35.68782]}},{"type":"Feature","properties":{"layer_id":"parks_playgrounds","name":"富士見第二","address":"立川市","source":"国土交通省 国土数値情報"},"geometry":{"type":"Point","coordinates":[139.39664,35.69599]}},{"type":"Feature","properties":{"layer_id":"parks_playgrounds","name":"栄五東","address":"立川市","source":"国土交通省 国土数値情報"},"geometry":{"type":"Point","coordinates":[139.43117,35.71611]}},{"type":"Feature","properties":{"layer_id":"parks_playgrounds","name":"栄緑地","address":"立川市","source":"国土交通省 国土数値情報"},"geometry":{"type":"Point","coordinates":[139.423248,35.71289]}},{"type":"Feature","properties":{"layer_id":"parks_playgrounds","name":"上砂","address":"立川市","source":"国土交通省 国土数値情報"},"geometry":{"type":"Point","coordinates":[139.39268,35.72085]}}]}
