{"type":"FeatureCollection","municipality_code":"15208","pref":"新潟県","city":"小千谷市","display_comment":"小千谷市には、土川村、平沢新田、谷内村など、近世の村々の記憶を伝える地名が残っています。 周辺には寺社や信仰の場、史跡や遺跡、城跡や陣屋跡にまつわる場所が点在し、「深地城跡」、「薭生城跡」、「時水城跡」などを起点に歩くと、地域の歴史がぐっと見えやすくなります。 現地では史跡説明板に加え、土川村や平沢新田にゆかりのある旧境石標、村の歴史を紹介する案内板にも注目してみてください。 川沿いや水辺では、暮らしや堤防整備の歴史を伝える案内板、治水碑、河川改修の記念碑にも注目してみてください。 ゆかりの人物では西脇順三郎や小林麻央に注目すると、地域に残る文化や時代背景をさらに深く知るきっかけになります。 「魚沼神社」や「浅原神社（片貝まつりで花火を奉納）」などの名所も、地域の物語を深掘りする絶好の入口です。 さらに、「小千谷縮」や「錦鯉」といった名物や食文化に触れると、その土地らしい暮らしまで感じられるでしょう。 江戸時代の高田藩や天領に関わる記憶も、古い道標や領主碑、地域の案内板を探す手がかりになります。","layer_counts":{"cafe_restaurant":3,"public_facilities":56,"scenic_nature_areas":9,"cultural_facilities":27,"parks_playgrounds":13,"tourism_resources":1},"total_features":109,"features":[{"type":"Feature","properties":{"layer_id":"cafe_restaurant","name":"ガスト 小千谷店","address":"新潟県小千谷市平沢新田字荒田４０－２","source":"厚生労働省 食品衛生申請等システム（オープンデータ）"},"geometry":{"type":"Point","coordinates":[138.79455,37.320544]}},{"type":"Feature","properties":{"layer_id":"cafe_restaurant","name":"すき家　117号小千谷店","address":"新潟県小千谷市大字桜町字天田5314番","source":"厚生労働省 食品衛生申請等システム（オープンデータ）"},"geometry":{"type":"Point","coordinates":[138.771998,37.313853]}},{"type":"Feature","properties":{"layer_id":"cafe_restaurant","name":"丸亀製麺小千谷","address":"新潟県小千谷市若葉1丁目99","source":"厚生労働省 食品衛生申請等システム（オープンデータ）"},"geometry":{"type":"Point","coordinates":[138.784623,37.307017]}},{"type":"Feature","properties":{"layer_id":"public_facilities","name":"千谷分館","address":"小千谷市千谷甲1946","source":"国土交通省 国土数値情報"},"geometry":{"type":"Point","coordinates":[138.803904,37.326975]}},{"type":"Feature","properties":{"layer_id":"public_facilities","name":"塩殿分館","address":"小千谷市大字塩殿甲1995","source":"国土交通省 国土数値情報"},"geometry":{"type":"Point","coordinates":[138.820698,37.273114]}},{"type":"Feature","properties":{"layer_id":"public_facilities","name":"若栃分館","address":"小千谷市真人町戊2438-1","source":"国土交通省 国土数値情報"},"geometry":{"type":"Point","coordinates":[138.753582,37.249028]}},{"type":"Feature","properties":{"layer_id":"public_facilities","name":"平沢町分館","address":"小千谷市平沢1-6-36","source":"国土交通省 国土数値情報"},"geometry":{"type":"Point","coordinates":[138.794311,37.316859]}},{"type":"Feature","properties":{"layer_id":"public_facilities","name":"東小千谷分館","address":"小千谷市旭町13-8","source":"国土交通省 国土数値情報"},"geometry":{"type":"Point","coordinates":[138.812733,37.304202]}},{"type":"Feature","properties":{"layer_id":"public_facilities","name":"稗生分館","address":"小千谷市稗生乙149-2","source":"国土交通省 国土数値情報"},"geometry":{"type":"Point","coordinates":[138.816247,37.321245]}},{"type":"Feature","properties":{"layer_id":"public_facilities","name":"城内分館","address":"小千谷市城内1-8-9","source":"国土交通省 国土数値情報"},"geometry":{"type":"Point","coordinates":[138.795469,37.311544]}},{"type":"Feature","properties":{"layer_id":"public_facilities","name":"南荷頃分館","address":"小千谷市南荷頃2666-1","source":"国土交通省 国土数値情報"},"geometry":{"type":"Point","coordinates":[138.862798,37.325937]}},{"type":"Feature","properties":{"layer_id":"public_facilities","name":"真人連絡所","address":"小千谷市真人町甲587-1","source":"国土交通省 国土数値情報"},"geometry":{"type":"Point","coordinates":[138.771976,37.227472]}},{"type":"Feature","properties":{"layer_id":"public_facilities","name":"吉谷分館","address":"小千谷市大字四ツ子66-2","source":"国土交通省 国土数値情報"},"geometry":{"type":"Point","coordinates":[138.788068,37.287638]}},{"type":"Feature","properties":{"layer_id":"public_facilities","name":"二俣分館","address":"小千谷市西吉谷丙108","source":"国土交通省 国土数値情報"},"geometry":{"type":"Point","coordinates":[138.778303,37.271122]}},{"type":"Feature","properties":{"layer_id":"public_facilities","name":"千谷川分館","address":"小千谷市千谷川1-6-8","source":"国土交通省 国土数値情報"},"geometry":{"type":"Point","coordinates":[138.801868,37.313839]}},{"type":"Feature","properties":{"layer_id":"public_facilities","name":"塩谷分館","address":"小千谷市塩谷290","source":"国土交通省 国土数値情報"},"geometry":{"type":"Point","coordinates":[138.884541,37.305401]}},{"type":"Feature","properties":{"layer_id":"public_facilities","name":"市民会館","address":"小千谷市土川1-3-3","source":"国土交通省 国土数値情報"},"geometry":{"type":"Point","coordinates":[138.792264,37.30741]}},{"type":"Feature","properties":{"layer_id":"public_facilities","name":"勤労青少年ホーム","address":"小千谷市旭町13-8","source":"国土交通省 国土数値情報"},"geometry":{"type":"Point","coordinates":[138.812684,37.303729]}},{"type":"Feature","properties":{"layer_id":"public_facilities","name":"山本分館","address":"小千谷市山本588-7","source":"国土交通省 国土数値情報"},"geometry":{"type":"Point","coordinates":[138.802193,37.294657]}},{"type":"Feature","properties":{"layer_id":"public_facilities","name":"真人住民センター","address":"小千谷市真人町甲110-5","source":"国土交通省 国土数値情報"},"geometry":{"type":"Point","coordinates":[138.77311,37.228109]}},{"type":"Feature","properties":{"layer_id":"public_facilities","name":"総合福祉センター","address":"小千谷市大字桜町5140","source":"国土交通省 国土数値情報"},"geometry":{"type":"Point","coordinates":[138.781715,37.313418]}},{"type":"Feature","properties":{"layer_id":"public_facilities","name":"市民学習センター楽集館","address":"小千谷市上ノ山4-4-2","source":"国土交通省 国土数値情報"},"geometry":{"type":"Point","coordinates":[138.78916,37.300681]}},{"type":"Feature","properties":{"layer_id":"public_facilities","name":"内ケ巻分館","address":"小千谷市川井2575","source":"国土交通省 国土数値情報"},"geometry":{"type":"Point","coordinates":[138.843458,37.254069]}},{"type":"Feature","properties":{"layer_id":"public_facilities","name":"冬井戸屋分館","address":"小千谷市大字川井5205-4","source":"国土交通省 国土数値情報"},"geometry":{"type":"Point","coordinates":[138.816992,37.23856]}},{"type":"Feature","properties":{"layer_id":"public_facilities","name":"片貝支所","address":"小千谷市片貝町4823-1","source":"国土交通省 国土数値情報"},"geometry":{"type":"Point","coordinates":[138.779513,37.370013]}},{"type":"Feature","properties":{"layer_id":"public_facilities","name":"岩沢連絡所","address":"小千谷市大字岩沢1003-1","source":"国土交通省 国土数値情報"},"geometry":{"type":"Point","coordinates":[138.796171,37.242351]}},{"type":"Feature","properties":{"layer_id":"public_facilities","name":"住民票交付センター","address":"小千谷市土川1-3-7","source":"国土交通省 国土数値情報"},"geometry":{"type":"Point","coordinates":[138.791934,37.307647]}},{"type":"Feature","properties":{"layer_id":"public_facilities","name":"公民館","address":"小千谷市土川1-3-3","source":"国土交通省 国土数値情報"},"geometry":{"type":"Point","coordinates":[138.792274,37.30741]}},{"type":"Feature","properties":{"layer_id":"public_facilities","name":"東小千谷体育センター","address":"小千谷市旭町13-8","source":"国土交通省 国土数値情報"},"geometry":{"type":"Point","coordinates":[138.812664,37.303729]}},{"type":"Feature","properties":{"layer_id":"public_facilities","name":"池ケ原分館","address":"小千谷市池ケ原815-1","source":"国土交通省 国土数値情報"},"geometry":{"type":"Point","coordinates":[138.79489,37.266387]}},{"type":"Feature","properties":{"layer_id":"public_facilities","name":"高梨分館","address":"小千谷市高梨町1931-6","source":"国土交通省 国土数値情報"},"geometry":{"type":"Point","coordinates":[138.812652,37.353074]}},{"type":"Feature","properties":{"layer_id":"public_facilities","name":"山谷分館","address":"小千谷市山谷1313-2","source":"国土交通省 国土数値情報"},"geometry":{"type":"Point","coordinates":[138.776196,37.329799]}},{"type":"Feature","properties":{"layer_id":"public_facilities","name":"上片貝分館","address":"小千谷市大字上片貝517-9","source":"国土交通省 国土数値情報"},"geometry":{"type":"Point","coordinates":[138.824414,37.285405]}},{"type":"Feature","properties":{"layer_id":"public_facilities","name":"桜町分館","address":"小千谷市桜町5254","source":"国土交通省 国土数値情報"},"geometry":{"type":"Point","coordinates":[138.781455,37.315492]}},{"type":"Feature","properties":{"layer_id":"public_facilities","name":"おぢやクラインガルテンふれあいの里","address":"小千谷市大字塩殿甲1814-2","source":"国土交通省 国土数値情報"},"geometry":{"type":"Point","coordinates":[138.824967,37.276953]}},{"type":"Feature","properties":{"layer_id":"public_facilities","name":"大崩分館","address":"小千谷市岩沢5760","source":"国土交通省 国土数値情報"},"geometry":{"type":"Point","coordinates":[138.82393,37.221867]}},{"type":"Feature","properties":{"layer_id":"public_facilities","name":"東山連絡所","address":"小千谷市大字南荷頃2666-1","source":"国土交通省 国土数値情報"},"geometry":{"type":"Point","coordinates":[138.862811,37.325931]}},{"type":"Feature","properties":{"layer_id":"public_facilities","name":"三仏生分館","address":"小千谷市三仏生3127-2","source":"国土交通省 国土数値情報"},"geometry":{"type":"Point","coordinates":[138.819118,37.335343]}},{"type":"Feature","properties":{"layer_id":"public_facilities","name":"横渡分館","address":"小千谷市横渡156-1","source":"国土交通省 国土数値情報"},"geometry":{"type":"Point","coordinates":[138.820925,37.325785]}},{"type":"Feature","properties":{"layer_id":"public_facilities","name":"小栗山分館","address":"小千谷市小栗山2401-3","source":"国土交通省 国土数値情報"},"geometry":{"type":"Point","coordinates":[138.856696,37.340767]}},{"type":"Feature","properties":{"layer_id":"public_facilities","name":"西山斎場","address":"小千谷市大字時水581","source":"国土交通省 国土数値情報"},"geometry":{"type":"Point","coordinates":[138.767736,37.303805]}},{"type":"Feature","properties":{"layer_id":"public_facilities","name":"総合体育館","address":"小千谷市桜町4915","source":"国土交通省 国土数値情報"},"geometry":{"type":"Point","coordinates":[138.783457,37.314574]}},{"type":"Feature","properties":{"layer_id":"public_facilities","name":"西中分館","address":"小千谷市西中709","source":"国土交通省 国土数値情報"},"geometry":{"type":"Point","coordinates":[138.795535,37.295598]}},{"type":"Feature","properties":{"layer_id":"public_facilities","name":"川井分館","address":"小千谷市川井新田586","source":"国土交通省 国土数値情報"},"geometry":{"type":"Point","coordinates":[138.821358,37.262494]}},{"type":"Feature","properties":{"layer_id":"public_facilities","name":"時水分館","address":"小千谷市時水1350","source":"国土交通省 国土数値情報"},"geometry":{"type":"Point","coordinates":[138.772116,37.299311]}},{"type":"Feature","properties":{"layer_id":"public_facilities","name":"真人分館","address":"小千谷市真人町甲587-1","source":"国土交通省 国土数値情報"},"geometry":{"type":"Point","coordinates":[138.771977,37.227472]}},{"type":"Feature","properties":{"layer_id":"public_facilities","name":"市之沢分館","address":"小千谷市西吉谷1086-4","source":"国土交通省 国土数値情報"},"geometry":{"type":"Point","coordinates":[138.76832,37.256931]}},{"type":"Feature","properties":{"layer_id":"public_facilities","name":"小千谷市役所分庁舎","address":"小千谷市城内1-13-20","source":"国土交通省 国土数値情報"},"geometry":{"type":"Point","coordinates":[138.794478,37.313015]}},{"type":"Feature","properties":{"layer_id":"public_facilities","name":"片貝公民館","address":"小千谷市片貝町4823-1","source":"国土交通省 国土数値情報"},"geometry":{"type":"Point","coordinates":[138.779514,37.370013]}},{"type":"Feature","properties":{"layer_id":"public_facilities","name":"小千谷市役所","address":"小千谷市城内2-7-5","source":"国土交通省 国土数値情報"},"geometry":{"type":"Point","coordinates":[138.795105,37.314348]}},{"type":"Feature","properties":{"layer_id":"public_facilities","name":"木津分館","address":"小千谷市稗生丙1298-1","source":"国土交通省 国土数値情報"},"geometry":{"type":"Point","coordinates":[138.82413,37.296896]}},{"type":"Feature","properties":{"layer_id":"public_facilities","name":"川井連絡所","address":"小千谷市大字川井新田586","source":"国土交通省 国土数値情報"},"geometry":{"type":"Point","coordinates":[138.821358,37.262496]}},{"type":"Feature","properties":{"layer_id":"public_facilities","name":"市民の家・小千谷信濃川水力発電館","address":"小千谷市大字山本1216-3","source":"国土交通省 国土数値情報"},"geometry":{"type":"Point","coordinates":[138.81176,37.290029]}},{"type":"Feature","properties":{"layer_id":"public_facilities","name":"浦柄分館","address":"小千谷市浦柄1258-2","source":"国土交通省 国土数値情報"},"geometry":{"type":"Point","coordinates":[138.834613,37.333954]}},{"type":"Feature","properties":{"layer_id":"public_facilities","name":"総合産業会館サンプラザ","address":"小千谷市城内1-8-25","source":"国土交通省 国土数値情報"},"geometry":{"type":"Point","coordinates":[138.796253,37.31083]}},{"type":"Feature","properties":{"layer_id":"public_facilities","name":"上ノ山分館","address":"小千谷市上ノ山2-3-28","source":"国土交通省 国土数値情報"},"geometry":{"type":"Point","coordinates":[138.790413,37.302922]}},{"type":"Feature","properties":{"layer_id":"public_facilities","name":"小土山分館","address":"小千谷市岩沢4797甲丑","source":"国土交通省 国土数値情報"},"geometry":{"type":"Point","coordinates":[138.80672,37.220615]}},{"type":"Feature","properties":{"layer_id":"public_facilities","name":"小粟田分館","address":"小千谷市小粟田847","source":"国土交通省 国土数値情報"},"geometry":{"type":"Point","coordinates":[138.793189,37.333411]}},{"type":"Feature","properties":{"layer_id":"public_facilities","name":"岩沢分館","address":"小千谷市岩沢1003","source":"国土交通省 国土数値情報"},"geometry":{"type":"Point","coordinates":[138.79613,37.242301]}},{"type":"Feature","properties":{"layer_id":"scenic_nature_areas","name":"小千谷市","source":"国土交通省 国土数値情報"},"geometry":{"type":"Polygon","coordinates":[[[138.84539,37.330202],[138.845673,37.329731],[138.845849,37.329402],[138.845957,37.329112],[138.845982,37.328814],[138.845994,37.328688],[138.84602,37.328642],[138.846079,37.328624],[138.846153,37.328638],[138.846227,37.328679],[138.846308,37.328754],[138.84642,37.328889],[138.846533,37.329017],[138.846598,37.329078],[138.846631,37.329098],[138.846697,37.329099],[138.846764,37.329081],[138.846816,37.329029],[138.846944,37.328898],[138.846997,37.32878],[138.847127,37.32809],[138.847127,37.327207],[138.847234,37.326963],[138.847304,37.326845],[138.847389,37.32676],[138.847432,37.326708],[138.847474,37.326696],[138.847533,37.32669],[138.847649,37.326679],[138.847773,37.326708],[138.847897,37.326763],[138.848122,37.326489],[138.848548,37.325824],[138.848772,37.325357],[138.848888,37.324721],[138.848944,37.323725],[138.848927,37.323344],[138.848817,37.322759],[138.848662,37.322296],[138.848402,37.321586],[138.848053,37.321019],[138.8479,37.320949],[138.847703,37.320968],[138.847617,37.321022],[138.847557,37.321156],[138.847538,37.321335],[138.847506,37.321468],[138.847404,37.321612],[138.847332,37.321667],[138.847148,37.321709],[138.846966,37.321716],[138.846701,37.321656],[138.846369,37.32147],[138.845886,37.32117],[138.84592,37.320514],[138.845833,37.320214],[138.845458,37.319342],[138.845112,37.318961],[138.844561,37.318452],[138.844273,37.318197],[138.843189,37.316806],[138.84294,37.316406],[138.84261,37.316088],[138.842411,37.315977],[138.842229,37.315932],[138.842082,37.315922],[138.841887,37.31603],[138.841628,37.316275],[138.841555,37.316419],[138.841514,37.316979],[138.841225,37.316955],[138.841031,37.316887],[138.840835,37.316838],[138.840608,37.316695],[138.84045,37.316572],[138.84042,37.316387],[138.840246,37.316024],[138.839998,37.315798],[138.839827,37.315693],[138.839667,37.315644],[138.839389,37.315639],[138.839216,37.315645],[138.838983,37.315696],[138.838853,37.315786],[138.838723,37.315904],[138.838626,37.316059],[138.838473,37.316951],[138.838395,37.317364],[138.838302,37.317372],[138.837992,37.317311],[138.837673,37.317129],[138.837309,37.316929],[138.83709,37.316897],[138.83672,37.31689],[138.836431,37.316904],[138.835563,37.316906],[138.833794,37.316901],[138.833653,37.316973],[138.833554,37.317183],[138.833532,37.317571],[138.833499,37.317912],[138.833408,37.318251],[138.8334,37.318537],[138.833418,37.318713],[138.833471,37.31888],[138.833572,37.318993],[138.83392,37.3192],[138.83414,37.319398],[138.83459,37.319781],[138.834734,37.319909],[138.834798,37.320084],[138.83481,37.320301],[138.834755,37.320418],[138.834665,37.320493],[138.834436,37.320614],[138.834039,37.320822],[138.833923,37.320923],[138.833771,37.321066],[138.833714,37.321211],[138.833675,37.321384],[138.833671,37.321518],[138.834216,37.32191],[138.834291,37.322015],[138.834306,37.32212],[138.834286,37.32221],[138.834163,37.322263],[138.833902,37.322237],[138.833729,37.322234],[138.833659,37.322226],[138.833552,37.322103],[138.83338,37.322063],[138.833116,37.322003],[138.832746,37.321978],[138.832482,37.321927],[138.832102,37.321865],[138.831756,37.321812],[138.831116,37.321542],[138.831015,37.321822],[138.830935,37.321876],[138.830796,37.321859],[138.830539,37.32175],[138.830436,37.321693],[138.830386,37.321602],[138.830373,37.321463],[138.830406,37.321235],[138.830469,37.320542],[138.830476,37.320306],[138.830394,37.320145],[138.830223,37.320031],[138.82953,37.319643],[138.829291,37.319486],[138.829029,37.319204],[138.828686,37.318733],[138.828528,37.318494],[138.828361,37.318197],[138.828365,37.318079],[138.82841,37.317108],[138.82843,37.316709],[138.82849,37.316439],[138.828646,37.316144],[138.828854,37.315877],[138.828996,37.315783],[138.829136,37.31573],[138.829276,37.315718],[138.829571,37.315731],[138.829838,37.315826],[138.829983,37.315926],[138.83016,37.316095],[138.830428,37.316468],[138.830765,37.316842],[138.830943,37.316998],[138.83107,37.317104],[138.831225,37.31717],[138.831364,37.317186],[138.831547,37.317155],[138.831775,37.317076],[138.831969,37.316989],[138.832103,37.316887],[138.832229,37.316709],[138.832302,37.316613],[138.832323,37.316475],[138.832365,37.315921],[138.832247,37.315176],[138.832196,37.314828],[138.832015,37.314238],[138.831851,37.313888],[138.831429,37.313457],[138.830968,37.313157],[138.830694,37.31302],[138.830436,37.312905],[138.830004,37.31282],[138.829642,37.312723],[138.829364,37.312666],[138.829244,37.312602],[138.829169,37.312489],[138.829164,37.312364],[138.82916,37.312208],[138.829216,37.311764],[138.829309,37.311253],[138.829342,37.311003],[138.82926,37.310218],[138.829249,37.309996],[138.829341,37.309845],[138.829447,37.309777],[138.829848,37.309743],[138.830171,37.309679],[138.830068,37.309555],[138.830021,37.309455],[138.830013,37.309286],[138.830236,37.308892],[138.830399,37.308409],[138.830415,37.30829],[138.830407,37.308131],[138.83034,37.307871],[138.830256,37.307761],[138.830021,37.307707],[138.82965,37.30764],[138.828185,37.307514],[138.827539,37.307452],[138.826993,37.307413],[138.826692,37.307477],[138.82649,37.307572],[138.826243,37.307965],[138.826087,37.308201],[138.825893,37.308445],[138.825748,37.308731],[138.825632,37.308878],[138.825519,37.308905],[138.825394,37.308903],[138.825321,37.308852],[138.825237,37.308741],[138.82521,37.308383],[138.82521,37.307966],[138.825191,37.307747],[138.825157,37.307637],[138.825098,37.307537],[138.825074,37.307497],[138.825013,37.307456],[138.824915,37.307394],[138.824778,37.307382],[138.824691,37.30738],[138.824578,37.307428],[138.824388,37.307534],[138.824274,37.307611],[138.824152,37.307947],[138.824107,37.308224],[138.824113,37.308452],[138.824273,37.308932],[138.824496,37.309423],[138.824608,37.309862],[138.824659,37.31023],[138.824708,37.310708],[138.824895,37.311443],[138.824889,37.311661],[138.82481,37.311809],[138.825233,37.311698],[138.825453,37.311661],[138.825491,37.311713],[138.825488,37.311806],[138.825458,37.31195],[138.825332,37.312277],[138.825335,37.312648],[138.825393,37.312845],[138.8254,37.313052],[138.825393,37.313309],[138.825339,37.313401],[138.825144,37.313449],[138.825053,37.313468],[138.824911,37.313465],[138.824707,37.313369],[138.824494,37.313293],[138.824571,37.31314],[138.824624,37.312669],[138.824641,37.312512],[138.824582,37.312371],[138.824409,37.312358],[138.824166,37.312421],[138.823774,37.312548],[138.823449,37.312645],[138.823191,37.312723],[138.823015,37.312894],[138.822835,37.312964],[138.822687,37.312972],[138.822456,37.312886],[138.822026,37.312599],[138.821046,37.312086],[138.820663,37.311882],[138.820343,37.311776],[138.820085,37.311652],[138.819886,37.311639],[138.819751,37.311743],[138.819693,37.311948],[138.819758,37.312393],[138.819904,37.312694],[138.82,37.312954],[138.820032,37.313202],[138.820003,37.313304],[138.819899,37.313333],[138.819694,37.313268],[138.819278,37.31292],[138.818735,37.312292],[138.818608,37.312228],[138.818467,37.312205],[138.818209,37.31219],[138.817964,37.312175],[138.817001,37.312405],[138.816531,37.312582],[138.81618,37.312647],[138.815702,37.312669],[138.815378,37.312684],[138.815144,37.312752],[138.814881,37.312902],[138.814694,37.313115],[138.814649,37.31332],[138.814707,37.314012],[138.814914,37.314459],[138.815037,37.314519],[138.814809,37.314855],[138.814667,37.315118],[138.814578,37.315315],[138.814519,37.315538],[138.814538,37.315962],[138.814682,37.316396],[138.814914,37.316641],[138.815168,37.316828],[138.815434,37.316974],[138.815879,37.317074],[138.816252,37.317097],[138.816553,37.317136],[138.816729,37.317147],[138.816956,37.317226],[138.816948,37.317475],[138.816818,37.318051],[138.816734,37.318423],[138.816725,37.31873],[138.816742,37.318863],[138.816823,37.318947],[138.81702,37.318967],[138.817426,37.31895],[138.817708,37.318914],[138.818105,37.318846],[138.818301,37.318891],[138.818434,37.318969],[138.818482,37.319102],[138.818478,37.319235],[138.818443,37.319367],[138.818093,37.319626],[138.817784,37.319894],[138.817581,37.320065],[138.817513,37.320254],[138.817528,37.320454],[138.817603,37.320729],[138.817734,37.320881],[138.817969,37.321026],[138.818217,37.321072],[138.818478,37.321232],[138.818679,37.32146],[138.818734,37.321735],[138.818818,37.322077],[138.818914,37.322336],[138.818985,37.32276],[138.81902,37.322993],[138.819228,37.323337],[138.81962,37.323801],[138.819913,37.324113],[138.820813,37.325154],[138.821356,37.325748],[138.821657,37.326018],[138.821892,37.326187],[138.82256,37.326437],[138.823421,37.326699],[138.823991,37.326782],[138.82439,37.326799],[138.825033,37.32671],[138.825253,37.326623],[138.825417,37.326498],[138.825437,37.3264],[138.825661,37.32627],[138.825874,37.326057],[138.826034,37.325421],[138.826211,37.325094],[138.82645,37.324872],[138.826875,37.324488],[138.827071,37.324409],[138.827213,37.324401],[138.827366,37.324466],[138.82739,37.324539],[138.827288,37.325403],[138.827146,37.325843],[138.826973,37.326016],[138.826256,37.326673],[138.825712,37.327199],[138.825587,37.327475],[138.825557,37.327618],[138.825744,37.32788],[138.825941,37.328203],[138.825997,37.328493],[138.826267,37.329626],[138.826548,37.330642],[138.82688,37.331715],[138.827127,37.33188],[138.827408,37.332238],[138.827668,37.332677],[138.827979,37.333044],[138.828155,37.333224],[138.828444,37.33335],[138.828784,37.333437],[138.829055,37.333466],[138.829326,37.333479],[138.829557,37.333491],[138.829982,37.333435],[138.830589,37.333156],[138.83088,37.332994],[138.831144,37.332763],[138.831331,37.332531],[138.831562,37.332125],[138.831657,37.331815],[138.831914,37.330494],[138.83212,37.329553],[138.83229,37.328779],[138.832529,37.328342],[138.832909,37.327718],[138.833013,37.3274],[138.83318,37.327251],[138.833527,37.32709],[138.833882,37.327013],[138.834283,37.326983],[138.834644,37.327004],[138.834842,37.327076],[138.834981,37.327193],[138.835098,37.327446],[138.835226,37.32795],[138.834957,37.329356],[138.834886,37.329601],[138.834806,37.32968],[138.834977,37.329832],[138.835152,37.329888],[138.835392,37.329936],[138.835601,37.32994],[138.835843,37.329944],[138.835998,37.329912],[138.836346,37.329749],[138.836421,37.329462],[138.836586,37.328682],[138.836626,37.328287],[138.836662,37.328045],[138.836702,37.327962],[138.836798,37.327933],[138.836951,37.327913],[138.837055,37.327938],[138.837187,37.328016],[138.83725,37.328139],[138.837291,37.328375],[138.837316,37.328832],[138.837222,37.329423],[138.837056,37.329906],[138.836909,37.330339],[138.836692,37.330616],[138.836465,37.330857],[138.836265,37.330924],[138.835978,37.330954],[138.835803,37.330924],[138.835629,37.330833],[138.835445,37.330725],[138.835274,37.330572],[138.835036,37.33041],[138.834712,37.330193],[138.834516,37.330137],[138.834351,37.330125],[138.834154,37.330151],[138.833941,37.330249],[138.833716,37.330412],[138.833511,37.330663],[138.833234,37.331106],[138.833151,37.331324],[138.832784,37.331844],[138.832665,37.33214],[138.832627,37.332306],[138.832609,37.33256],[138.832648,37.332719],[138.83269,37.332817],[138.832743,37.33287],[138.832797,37.332898],[138.832951,37.3329],[138.833095,37.332877],[138.833273,37.332801],[138.833553,37.332639],[138.833903,37.332321],[138.834104,37.332219],[138.834181,37.33222],[138.834279,37.332249],[138.834366,37.332312],[138.834386,37.332365],[138.834392,37.33254],[138.834364,37.332742],[138.834325,37.332961],[138.834232,37.333126],[138.83413,37.333432],[138.834536,37.333553],[138.834953,37.333606],[138.835257,37.333635],[138.835448,37.333646],[138.835618,37.333695],[138.835712,37.333727],[138.835994,37.333853],[138.836191,37.333979],[138.836378,37.334081],[138.836549,37.334099],[138.836664,37.334094],[138.83676,37.33405],[138.836819,37.333983],[138.836851,37.333877],[138.836864,37.333748],[138.836857,37.333664],[138.836746,37.333556],[138.83672,37.333464],[138.836752,37.333343],[138.836821,37.333245],[138.836888,37.333239],[138.837093,37.33341],[138.837535,37.333927],[138.837841,37.334206],[138.838339,37.334607],[138.838508,37.334686],[138.838754,37.334744],[138.839001,37.334771],[138.83925,37.334737],[138.83949,37.334666],[138.83985,37.334478],[138.840139,37.33429],[138.840669,37.33373],[138.840859,37.333437],[138.841144,37.3331],[138.841378,37.332937],[138.842251,37.331451],[138.842679,37.330783],[138.84293,37.330346],[138.843082,37.33012],[138.843168,37.330114],[138.843242,37.330169],[138.843342,37.330353],[138.8433,37.33115],[138.843129,37.332812],[138.842997,37.33344],[138.842903,37.333717],[138.842259,37.333833],[138.841682,37.334013],[138.841012,37.334234],[138.840582,37.334396],[138.84022,37.334538],[138.840083,37.334673],[138.840038,37.334852],[138.840057,37.335117],[138.840105,37.33532],[138.840219,37.335481],[138.840402,37.33559],[138.840811,37.335703],[138.841076,37.335719],[138.84133,37.33567],[138.841465,37.335578],[138.842061,37.335154],[138.842466,37.334928],[138.842721,37.334827],[138.843166,37.334613],[138.843339,37.334459],[138.843749,37.334182],[138.844594,37.333694],[138.844967,37.333446],[138.845186,37.333192],[138.845372,37.332758],[138.84575,37.331985],[138.845816,37.331935],[138.845908,37.331893],[138.846075,37.33183],[138.846297,37.331739],[138.846368,37.331497],[138.846391,37.331023],[138.846249,37.330853],[138.845889,37.330664],[138.845546,37.330519],[138.84542,37.330444],[138.845395,37.330348],[138.84539,37.330202]]]}},{"type":"Feature","properties":{"layer_id":"scenic_nature_areas","name":"小千谷市","source":"国土交通省 国土数値情報"},"geometry":{"type":"Polygon","coordinates":[[[138.819808,37.284929],[138.81992,37.284922],[138.820106,37.284975],[138.820486,37.285251],[138.820732,37.285815],[138.820891,37.285947],[138.821075,37.286061],[138.82121,37.286133],[138.821323,37.286145],[138.821487,37.286088],[138.821653,37.285961],[138.821795,37.285804],[138.82185,37.285626],[138.821832,37.285386],[138.821743,37.285005],[138.821389,37.28427],[138.821211,37.283937],[138.82109,37.283815],[138.82108,37.283725],[138.821073,37.283516],[138.82094,37.282924],[138.820921,37.282714],[138.821018,37.282387],[138.82115,37.28217],[138.821262,37.282172],[138.821647,37.283107],[138.821902,37.28383],[138.822249,37.284346],[138.822419,37.284518],[138.822605,37.284582],[138.822708,37.28441],[138.822859,37.283892],[138.822998,37.283356],[138.823018,37.283187],[138.823027,37.28286],[138.822943,37.28264],[138.822841,37.282493],[138.822542,37.282342],[138.822154,37.282093],[138.82201,37.281835],[138.821929,37.281471],[138.82191,37.281095],[138.821996,37.280733],[138.822234,37.280386],[138.822303,37.279648],[138.822593,37.278407],[138.822497,37.278398],[138.822208,37.2784],[138.82181,37.278544],[138.821597,37.27861],[138.821394,37.278669],[138.821147,37.278714],[138.820963,37.278711],[138.820788,37.278693],[138.820676,37.278614],[138.820653,37.278488],[138.820685,37.278313],[138.820788,37.278084],[138.821396,37.277367],[138.821767,37.276999],[138.821697,37.276804],[138.821537,37.276547],[138.82126,37.276166],[138.820966,37.275841],[138.820432,37.275383],[138.820206,37.275053],[138.820003,37.275014],[138.819602,37.274887],[138.819336,37.274695],[138.819253,37.274565],[138.819225,37.274253],[138.819104,37.273949],[138.819096,37.273856],[138.818898,37.273865],[138.818714,37.273922],[138.818577,37.273944],[138.818381,37.273891],[138.818296,37.273708],[138.818102,37.273571],[138.817992,37.273216],[138.818049,37.272963],[138.817976,37.272719],[138.817892,37.272614],[138.817777,37.272538],[138.817544,37.272469],[138.817433,37.272438],[138.817093,37.272441],[138.816931,37.272458],[138.816633,37.272502],[138.81641,37.272508],[138.816045,37.272516],[138.815866,37.272493],[138.815813,37.272408],[138.815514,37.272411],[138.815208,37.272502],[138.814793,37.272664],[138.814303,37.272825],[138.813998,37.272892],[138.81377,37.272888],[138.813485,37.272798],[138.813107,37.272742],[138.812803,37.272737],[138.812468,37.272779],[138.812149,37.272822],[138.81178,37.272972],[138.81124,37.273277],[138.810571,37.273846],[138.810381,37.274122],[138.810345,37.274339],[138.810334,37.274714],[138.810517,37.275711],[138.810477,37.276062],[138.810442,37.276207],[138.810305,37.27624],[138.810123,37.276225],[138.810004,37.27615],[138.809782,37.27594],[138.809669,37.275671],[138.809353,37.274527],[138.809194,37.273736],[138.809147,37.273263],[138.808948,37.272787],[138.80873,37.272468],[138.808509,37.272233],[138.808196,37.272022],[138.807791,37.271857],[138.807354,37.271776],[138.807272,37.271968],[138.807273,37.272153],[138.807256,37.272376],[138.807233,37.272971],[138.80724,37.273114],[138.807165,37.273179],[138.807092,37.273196],[138.806954,37.273184],[138.806671,37.273134],[138.80599,37.272979],[138.805642,37.272862],[138.805095,37.272709],[138.803895,37.272084],[138.80356,37.271922],[138.803243,37.271729],[138.802804,37.271494],[138.802567,37.271396],[138.802142,37.27125],[138.801994,37.271163],[138.801863,37.271072],[138.801768,37.270905],[138.801667,37.270743],[138.801565,37.270595],[138.801393,37.270513],[138.801098,37.270507],[138.80077,37.27051],[138.800569,37.270511],[138.800315,37.270431],[138.800103,37.270266],[138.799785,37.270056],[138.799629,37.269897],[138.799409,37.269786],[138.799144,37.269692],[138.798873,37.269643],[138.798176,37.269487],[138.797844,37.269387],[138.797437,37.269211],[138.797151,37.268973],[138.796957,37.268854],[138.796552,37.268688],[138.795724,37.268557],[138.794593,37.268388],[138.793721,37.268372],[138.7931,37.268371],[138.79241,37.268484],[138.792063,37.268625],[138.791843,37.268896],[138.791745,37.269084],[138.791694,37.269494],[138.791655,37.269936],[138.791709,37.270802],[138.791809,37.272798],[138.791874,37.272861],[138.792141,37.273115],[138.792187,37.273675],[138.792222,37.2742],[138.79233,37.274372],[138.792451,37.274484],[138.792636,37.274577],[138.792872,37.274622],[138.793137,37.274547],[138.793743,37.274319],[138.794185,37.274187],[138.794537,37.274094],[138.794813,37.274079],[138.795025,37.274103],[138.795123,37.274165],[138.795218,37.274316],[138.795251,37.274466],[138.795136,37.274564],[138.795047,37.274632],[138.79459,37.274873],[138.793894,37.27515],[138.793591,37.275264],[138.793388,37.27538],[138.793132,37.275585],[138.793052,37.275743],[138.79298,37.276071],[138.793049,37.276292],[138.793171,37.276384],[138.793369,37.276447],[138.793558,37.276391],[138.794041,37.276111],[138.794484,37.275929],[138.794838,37.275786],[138.79534,37.275706],[138.795968,37.275598],[138.796331,37.275584],[138.796646,37.27551],[138.796912,37.275396],[138.79715,37.27535],[138.797513,37.275337],[138.79795,37.275375],[138.797871,37.275523],[138.797541,37.275798],[138.797103,37.276144],[138.796494,37.276127],[138.796032,37.276088],[138.795545,37.276079],[138.795231,37.276123],[138.794631,37.276452],[138.794266,37.276722],[138.79417,37.276879],[138.794131,37.277147],[138.794118,37.277611],[138.794168,37.277979],[138.794345,37.278214],[138.794579,37.278573],[138.794735,37.279003],[138.794743,37.27926],[138.794725,37.279333],[138.794676,37.279442],[138.794614,37.279465],[138.794507,37.279463],[138.794386,37.279424],[138.794251,37.279336],[138.794058,37.279149],[138.793861,37.27906],[138.793633,37.279038],[138.793295,37.278613],[138.793052,37.278379],[138.792879,37.278306],[138.792367,37.278296],[138.792091,37.278341],[138.791771,37.278605],[138.791466,37.279208],[138.791271,37.279463],[138.790799,37.279774],[138.79029,37.280094],[138.790442,37.280237],[138.790654,37.280412],[138.79087,37.280169],[138.790996,37.280067],[138.791144,37.280014],[138.791306,37.280017],[138.791512,37.280101],[138.791694,37.280234],[138.791965,37.28048],[138.79221,37.281064],[138.792257,37.281311],[138.792211,37.28157],[138.792146,37.281679],[138.792425,37.281874],[138.793026,37.282252],[138.793477,37.282504],[138.793842,37.282584],[138.794193,37.282615],[138.794635,37.282685],[138.795486,37.282871],[138.796761,37.283237],[138.797611,37.283461],[138.798402,37.283622],[138.798822,37.283698],[138.799052,37.283678],[138.799235,37.283682],[138.799357,37.283708],[138.799493,37.28376],[138.799748,37.283935],[138.800212,37.28431],[138.801031,37.285071],[138.801748,37.28567],[138.802989,37.286671],[138.804904,37.288184],[138.805324,37.288485],[138.805414,37.288536],[138.805733,37.288603],[138.805916,37.288631],[138.8061,37.288634],[138.806453,37.28858],[138.80676,37.288549],[138.806977,37.288479],[138.807195,37.288325],[138.807261,37.288179],[138.807279,37.288082],[138.807268,37.287923],[138.807181,37.28775],[138.807047,37.28765],[138.806548,37.287445],[138.806276,37.287318],[138.806263,37.28722],[138.806276,37.286793],[138.806238,37.286499],[138.806194,37.286449],[138.806165,37.286388],[138.806061,37.286288],[138.805942,37.286176],[138.805883,37.286101],[138.805885,37.286016],[138.805919,37.285894],[138.805953,37.285785],[138.806001,37.285713],[138.806064,37.285665],[138.806232,37.285656],[138.806355,37.285646],[138.806523,37.285661],[138.806644,37.285712],[138.806717,37.285824],[138.806805,37.28596],[138.806818,37.286033],[138.806938,37.286121],[138.807121,37.286124],[138.807262,37.286041],[138.807506,37.285748],[138.807699,37.285446],[138.807951,37.285182],[138.808444,37.284544],[138.809059,37.283908],[138.809403,37.283645],[138.809683,37.283492],[138.809899,37.283447],[138.810052,37.283425],[138.810236,37.283429],[138.810417,37.283505],[138.810644,37.283619],[138.810762,37.283744],[138.810983,37.284041],[138.811129,37.2843],[138.811263,37.284413],[138.811443,37.284538],[138.811624,37.284627],[138.811853,37.284643],[138.812204,37.284674],[138.812404,37.284641],[138.812602,37.284694],[138.812738,37.284745],[138.812858,37.284833],[138.813571,37.285042],[138.813704,37.285191],[138.813733,37.285264],[138.813741,37.285509],[138.813552,37.285713],[138.812828,37.286384],[138.812605,37.286697],[138.812554,37.286976],[138.812562,37.287233],[138.81256,37.288369],[138.812538,37.288576],[138.812472,37.28877],[138.811775,37.290113],[138.811469,37.290645],[138.811418,37.290803],[138.811289,37.291021],[138.811237,37.291239],[138.811231,37.291447],[138.811253,37.291741],[138.811339,37.291938],[138.811489,37.29205],[138.811639,37.292163],[138.811852,37.292204],[138.812051,37.292195],[138.812373,37.292177],[138.81285,37.292075],[138.81367,37.291773],[138.814644,37.291449],[138.815094,37.291225],[138.815452,37.291012],[138.815719,37.290785],[138.815988,37.29046],[138.816369,37.28999],[138.816573,37.289811],[138.817308,37.289263],[138.818244,37.288657],[138.819609,37.288022],[138.820106,37.287775],[138.819587,37.287704],[138.819039,37.287609],[138.81867,37.28749],[138.818822,37.287423],[138.81895,37.287326],[138.819179,37.2872],[138.819572,37.287008],[138.819813,37.286863],[138.819954,37.286755],[138.820046,37.286607],[138.820073,37.286508],[138.820081,37.286259],[138.820023,37.286098],[138.819821,37.285725],[138.819789,37.285525],[138.819754,37.285048],[138.819808,37.284929]]]}},{"type":"Feature","properties":{"layer_id":"scenic_nature_areas","name":"長岡東山山本山自然公園地域","source":"国土交通省 国土数値情報","subarea_name":"自然公園地域"},"geometry":{"type":"Polygon","coordinates":[[[138.84539,37.330202],[138.845673,37.329731],[138.845849,37.329402],[138.845957,37.329112],[138.845982,37.328814],[138.845994,37.328688],[138.84602,37.328642],[138.846079,37.328624],[138.846153,37.328638],[138.846227,37.328679],[138.846308,37.328754],[138.84642,37.328889],[138.846533,37.329017],[138.846598,37.329078],[138.846631,37.329098],[138.846697,37.329099],[138.846764,37.329081],[138.846816,37.329029],[138.846944,37.328898],[138.846997,37.32878],[138.847127,37.32809],[138.847127,37.327207],[138.847234,37.326963],[138.847304,37.326845],[138.847389,37.32676],[138.847432,37.326708],[138.847474,37.326696],[138.847533,37.32669],[138.847649,37.326679],[138.847773,37.326708],[138.847897,37.326763],[138.848122,37.326489],[138.848548,37.325824],[138.848772,37.325357],[138.848888,37.324721],[138.848944,37.323725],[138.848927,37.323344],[138.848817,37.322759],[138.848662,37.322296],[138.848402,37.321586],[138.848053,37.321019],[138.8479,37.320949],[138.847703,37.320968],[138.847617,37.321022],[138.847557,37.321156],[138.847538,37.321335],[138.847506,37.321468],[138.847404,37.321612],[138.847332,37.321667],[138.847148,37.321709],[138.846966,37.321716],[138.846701,37.321656],[138.846369,37.32147],[138.845886,37.32117],[138.84592,37.320514],[138.845833,37.320214],[138.845458,37.319342],[138.845112,37.318961],[138.844561,37.318452],[138.844273,37.318197],[138.843189,37.316806],[138.84294,37.316406],[138.84261,37.316088],[138.842411,37.315977],[138.842229,37.315932],[138.842082,37.315922],[138.841887,37.31603],[138.841628,37.316275],[138.841555,37.316419],[138.841514,37.316979],[138.841225,37.316955],[138.841031,37.316887],[138.840835,37.316838],[138.840608,37.316695],[138.84045,37.316572],[138.84042,37.316387],[138.840246,37.316024],[138.839998,37.315798],[138.839827,37.315693],[138.839667,37.315644],[138.839389,37.315639],[138.839216,37.315645],[138.838983,37.315696],[138.838853,37.315786],[138.838723,37.315904],[138.838626,37.316059],[138.838473,37.316951],[138.838395,37.317364],[138.838302,37.317372],[138.837992,37.317311],[138.837673,37.317129],[138.837309,37.316929],[138.83709,37.316897],[138.83672,37.31689],[138.836431,37.316904],[138.835563,37.316906],[138.833794,37.316901],[138.833653,37.316973],[138.833554,37.317183],[138.833532,37.317571],[138.833499,37.317912],[138.833408,37.318251],[138.8334,37.318537],[138.833418,37.318713],[138.833471,37.31888],[138.833572,37.318993],[138.83392,37.3192],[138.83414,37.319398],[138.83459,37.319781],[138.834734,37.319909],[138.834798,37.320084],[138.83481,37.320301],[138.834755,37.320418],[138.834665,37.320493],[138.834436,37.320614],[138.834039,37.320822],[138.833923,37.320923],[138.833771,37.321066],[138.833714,37.321211],[138.833675,37.321384],[138.833671,37.321518],[138.834216,37.32191],[138.834291,37.322015],[138.834306,37.32212],[138.834286,37.32221],[138.834163,37.322263],[138.833902,37.322237],[138.833729,37.322234],[138.833659,37.322226],[138.833552,37.322103],[138.83338,37.322063],[138.833116,37.322003],[138.832746,37.321978],[138.832482,37.321927],[138.832102,37.321865],[138.831756,37.321812],[138.831116,37.321542],[138.831015,37.321822],[138.830935,37.321876],[138.830796,37.321859],[138.830539,37.32175],[138.830436,37.321693],[138.830386,37.321602],[138.830373,37.321463],[138.830406,37.321235],[138.830469,37.320542],[138.830476,37.320306],[138.830394,37.320145],[138.830223,37.320031],[138.82953,37.319643],[138.829291,37.319486],[138.829029,37.319204],[138.828686,37.318733],[138.828528,37.318494],[138.828361,37.318197],[138.828365,37.318079],[138.82841,37.317108],[138.82843,37.316709],[138.82849,37.316439],[138.828646,37.316144],[138.828854,37.315877],[138.828996,37.315783],[138.829136,37.31573],[138.829276,37.315718],[138.829571,37.315731],[138.829838,37.315826],[138.829983,37.315926],[138.83016,37.316095],[138.830428,37.316468],[138.830765,37.316842],[138.830943,37.316998],[138.83107,37.317104],[138.831225,37.31717],[138.831364,37.317186],[138.831547,37.317155],[138.831775,37.317076],[138.831969,37.316989],[138.832103,37.316887],[138.832229,37.316709],[138.832302,37.316613],[138.832323,37.316475],[138.832365,37.315921],[138.832247,37.315176],[138.832196,37.314828],[138.832015,37.314238],[138.831851,37.313888],[138.831429,37.313457],[138.830968,37.313157],[138.830694,37.31302],[138.830436,37.312905],[138.830004,37.31282],[138.829642,37.312723],[138.829364,37.312666],[138.829244,37.312602],[138.829169,37.312489],[138.829164,37.312364],[138.82916,37.312208],[138.829216,37.311764],[138.829309,37.311253],[138.829342,37.311003],[138.82926,37.310218],[138.829249,37.309996],[138.829341,37.309845],[138.829447,37.309777],[138.829848,37.309743],[138.830171,37.309679],[138.830068,37.309555],[138.830021,37.309455],[138.830013,37.309286],[138.830236,37.308892],[138.830399,37.308409],[138.830415,37.30829],[138.830407,37.308131],[138.83034,37.307871],[138.830256,37.307761],[138.830021,37.307707],[138.82965,37.30764],[138.828185,37.307514],[138.827539,37.307452],[138.826993,37.307413],[138.826692,37.307477],[138.82649,37.307572],[138.826243,37.307965],[138.826087,37.308201],[138.825893,37.308445],[138.825748,37.308731],[138.825632,37.308878],[138.825519,37.308905],[138.825394,37.308903],[138.825321,37.308852],[138.825237,37.308741],[138.82521,37.308383],[138.82521,37.307966],[138.825191,37.307747],[138.825157,37.307637],[138.825098,37.307537],[138.825074,37.307497],[138.825013,37.307456],[138.824915,37.307394],[138.824778,37.307382],[138.824691,37.30738],[138.824578,37.307428],[138.824388,37.307534],[138.824274,37.307611],[138.824152,37.307947],[138.824107,37.308224],[138.824113,37.308452],[138.824273,37.308932],[138.824496,37.309423],[138.824608,37.309862],[138.824659,37.31023],[138.824708,37.310708],[138.824895,37.311443],[138.824889,37.311661],[138.82481,37.311809],[138.825233,37.311698],[138.825453,37.311661],[138.825491,37.311713],[138.825488,37.311806],[138.825458,37.31195],[138.825332,37.312277],[138.825335,37.312648],[138.825393,37.312845],[138.8254,37.313052],[138.825393,37.313309],[138.825339,37.313401],[138.825144,37.313449],[138.825053,37.313468],[138.824911,37.313465],[138.824707,37.313369],[138.824494,37.313293],[138.824571,37.31314],[138.824624,37.312669],[138.824641,37.312512],[138.824582,37.312371],[138.824409,37.312358],[138.824166,37.312421],[138.823774,37.312548],[138.823449,37.312645],[138.823191,37.312723],[138.823015,37.312894],[138.822835,37.312964],[138.822687,37.312972],[138.822456,37.312886],[138.822026,37.312599],[138.821046,37.312086],[138.820663,37.311882],[138.820343,37.311776],[138.820085,37.311652],[138.819886,37.311639],[138.819751,37.311743],[138.819693,37.311948],[138.819758,37.312393],[138.819904,37.312694],[138.82,37.312954],[138.820032,37.313202],[138.820003,37.313304],[138.819899,37.313333],[138.819694,37.313268],[138.819278,37.31292],[138.818735,37.312292],[138.818608,37.312228],[138.818467,37.312205],[138.818209,37.31219],[138.817964,37.312175],[138.817001,37.312405],[138.816531,37.312582],[138.81618,37.312647],[138.815702,37.312669],[138.815378,37.312684],[138.815144,37.312752],[138.814881,37.312902],[138.814694,37.313115],[138.814649,37.31332],[138.814707,37.314012],[138.814914,37.314459],[138.815037,37.314519],[138.814809,37.314855],[138.814667,37.315118],[138.814578,37.315315],[138.814519,37.315538],[138.814538,37.315962],[138.814682,37.316396],[138.814914,37.316641],[138.815168,37.316828],[138.815434,37.316974],[138.815879,37.317074],[138.816252,37.317097],[138.816553,37.317136],[138.816729,37.317147],[138.816956,37.317226],[138.816948,37.317475],[138.816818,37.318051],[138.816734,37.318423],[138.816725,37.31873],[138.816742,37.318863],[138.816823,37.318947],[138.81702,37.318967],[138.817426,37.31895],[138.817708,37.318914],[138.818105,37.318846],[138.818301,37.318891],[138.818434,37.318969],[138.818482,37.319102],[138.818478,37.319235],[138.818443,37.319367],[138.818093,37.319626],[138.817784,37.319894],[138.817581,37.320065],[138.817513,37.320254],[138.817528,37.320454],[138.817603,37.320729],[138.817734,37.320881],[138.817969,37.321026],[138.818217,37.321072],[138.818478,37.321232],[138.818679,37.32146],[138.818734,37.321735],[138.818818,37.322077],[138.818914,37.322336],[138.818985,37.32276],[138.81902,37.322993],[138.819228,37.323337],[138.81962,37.323801],[138.819913,37.324113],[138.820813,37.325154],[138.821356,37.325748],[138.821657,37.326018],[138.821892,37.326187],[138.82256,37.326437],[138.823421,37.326699],[138.823991,37.326782],[138.82439,37.326799],[138.825033,37.32671],[138.825253,37.326623],[138.825417,37.326498],[138.825437,37.3264],[138.825661,37.32627],[138.825874,37.326057],[138.826034,37.325421],[138.826211,37.325094],[138.82645,37.324872],[138.826875,37.324488],[138.827071,37.324409],[138.827213,37.324401],[138.827366,37.324466],[138.82739,37.324539],[138.827288,37.325403],[138.827146,37.325843],[138.826973,37.326016],[138.826256,37.326673],[138.825712,37.327199],[138.825587,37.327475],[138.825557,37.327618],[138.825744,37.32788],[138.825941,37.328203],[138.825997,37.328493],[138.826267,37.329626],[138.826548,37.330642],[138.82688,37.331715],[138.827127,37.33188],[138.827408,37.332238],[138.827668,37.332677],[138.827979,37.333044],[138.828155,37.333224],[138.828444,37.33335],[138.828784,37.333437],[138.829055,37.333466],[138.829326,37.333479],[138.829557,37.333491],[138.829982,37.333435],[138.830589,37.333156],[138.83088,37.332994],[138.831144,37.332763],[138.831331,37.332531],[138.831562,37.332125],[138.831657,37.331815],[138.831914,37.330494],[138.83212,37.329553],[138.83229,37.328779],[138.832529,37.328342],[138.832909,37.327718],[138.833013,37.3274],[138.83318,37.327251],[138.833527,37.32709],[138.833882,37.327013],[138.834283,37.326983],[138.834644,37.327004],[138.834842,37.327076],[138.834981,37.327193],[138.835098,37.327446],[138.835226,37.32795],[138.834957,37.329356],[138.834886,37.329601],[138.834806,37.32968],[138.834977,37.329832],[138.835152,37.329888],[138.835392,37.329936],[138.835601,37.32994],[138.835843,37.329944],[138.835998,37.329912],[138.836346,37.329749],[138.836421,37.329462],[138.836586,37.328682],[138.836626,37.328287],[138.836662,37.328045],[138.836702,37.327962],[138.836798,37.327933],[138.836951,37.327913],[138.837055,37.327938],[138.837187,37.328016],[138.83725,37.328139],[138.837291,37.328375],[138.837316,37.328832],[138.837222,37.329423],[138.837056,37.329906],[138.836909,37.330339],[138.836692,37.330616],[138.836465,37.330857],[138.836265,37.330924],[138.835978,37.330954],[138.835803,37.330924],[138.835629,37.330833],[138.835445,37.330725],[138.835274,37.330572],[138.835036,37.33041],[138.834712,37.330193],[138.834516,37.330137],[138.834351,37.330125],[138.834154,37.330151],[138.833941,37.330249],[138.833716,37.330412],[138.833511,37.330663],[138.833234,37.331106],[138.833151,37.331324],[138.832784,37.331844],[138.832665,37.33214],[138.832627,37.332306],[138.832609,37.33256],[138.832648,37.332719],[138.83269,37.332817],[138.832743,37.33287],[138.832797,37.332898],[138.832951,37.3329],[138.833095,37.332877],[138.833273,37.332801],[138.833553,37.332639],[138.833903,37.332321],[138.834104,37.332219],[138.834181,37.33222],[138.834279,37.332249],[138.834366,37.332312],[138.834386,37.332365],[138.834392,37.33254],[138.834364,37.332742],[138.834325,37.332961],[138.834232,37.333126],[138.83413,37.333432],[138.834536,37.333553],[138.834953,37.333606],[138.835257,37.333635],[138.835448,37.333646],[138.835618,37.333695],[138.835712,37.333727],[138.835994,37.333853],[138.836191,37.333979],[138.836378,37.334081],[138.836549,37.334099],[138.836664,37.334094],[138.83676,37.33405],[138.836819,37.333983],[138.836851,37.333877],[138.836864,37.333748],[138.836857,37.333664],[138.836746,37.333556],[138.83672,37.333464],[138.836752,37.333343],[138.836821,37.333245],[138.836888,37.333239],[138.837093,37.33341],[138.837535,37.333927],[138.837841,37.334206],[138.838339,37.334607],[138.838508,37.334686],[138.838754,37.334744],[138.839001,37.334771],[138.83925,37.334737],[138.83949,37.334666],[138.83985,37.334478],[138.840139,37.33429],[138.840669,37.33373],[138.840859,37.333437],[138.841144,37.3331],[138.841378,37.332937],[138.842251,37.331451],[138.842679,37.330783],[138.84293,37.330346],[138.843082,37.33012],[138.843168,37.330114],[138.843242,37.330169],[138.843342,37.330353],[138.8433,37.33115],[138.843129,37.332812],[138.842997,37.33344],[138.842903,37.333717],[138.842259,37.333833],[138.841682,37.334013],[138.841012,37.334234],[138.840582,37.334396],[138.84022,37.334538],[138.840083,37.334673],[138.840038,37.334852],[138.840057,37.335117],[138.840105,37.33532],[138.840219,37.335481],[138.840402,37.33559],[138.840811,37.335703],[138.841076,37.335719],[138.84133,37.33567],[138.841465,37.335578],[138.842061,37.335154],[138.842466,37.334928],[138.842721,37.334827],[138.843166,37.334613],[138.843339,37.334459],[138.843749,37.334182],[138.844594,37.333694],[138.844967,37.333446],[138.845186,37.333192],[138.845372,37.332758],[138.84575,37.331985],[138.845816,37.331935],[138.845908,37.331893],[138.846075,37.33183],[138.846297,37.331739],[138.846368,37.331497],[138.846391,37.331023],[138.846249,37.330853],[138.845889,37.330664],[138.845546,37.330519],[138.84542,37.330444],[138.845395,37.330348],[138.84539,37.330202]]]}},{"type":"Feature","properties":{"layer_id":"scenic_nature_areas","name":"自然公園特別地域","source":"国土交通省 国土数値情報"},"geometry":{"type":"Polygon","coordinates":[[[138.819808,37.284929],[138.81992,37.284922],[138.820106,37.284975],[138.820486,37.285251],[138.820732,37.285815],[138.820891,37.285947],[138.821075,37.286061],[138.82121,37.286133],[138.821323,37.286145],[138.821487,37.286088],[138.821653,37.285961],[138.821795,37.285804],[138.82185,37.285626],[138.821832,37.285386],[138.821743,37.285005],[138.821389,37.28427],[138.821211,37.283937],[138.82109,37.283815],[138.82108,37.283725],[138.821073,37.283516],[138.82094,37.282924],[138.820921,37.282714],[138.821018,37.282387],[138.82115,37.28217],[138.821262,37.282172],[138.821647,37.283107],[138.821902,37.28383],[138.822249,37.284346],[138.822419,37.284518],[138.822605,37.284582],[138.822708,37.28441],[138.822859,37.283892],[138.822998,37.283356],[138.823018,37.283187],[138.823027,37.28286],[138.822943,37.28264],[138.822841,37.282493],[138.822542,37.282342],[138.822154,37.282093],[138.82201,37.281835],[138.821929,37.281471],[138.82191,37.281095],[138.821996,37.280733],[138.822234,37.280386],[138.822303,37.279648],[138.822593,37.278407],[138.822497,37.278398],[138.822208,37.2784],[138.82181,37.278544],[138.821597,37.27861],[138.821394,37.278669],[138.821147,37.278714],[138.820963,37.278711],[138.820788,37.278693],[138.820676,37.278614],[138.820653,37.278488],[138.820685,37.278313],[138.820788,37.278084],[138.821396,37.277367],[138.821767,37.276999],[138.821697,37.276804],[138.821537,37.276547],[138.82126,37.276166],[138.820966,37.275841],[138.820432,37.275383],[138.820206,37.275053],[138.820003,37.275014],[138.819602,37.274887],[138.819336,37.274695],[138.819253,37.274565],[138.819225,37.274253],[138.819104,37.273949],[138.819096,37.273856],[138.818898,37.273865],[138.818714,37.273922],[138.818577,37.273944],[138.818381,37.273891],[138.818296,37.273708],[138.818102,37.273571],[138.817992,37.273216],[138.818049,37.272963],[138.817976,37.272719],[138.817892,37.272614],[138.817777,37.272538],[138.817544,37.272469],[138.817433,37.272438],[138.817093,37.272441],[138.816931,37.272458],[138.816633,37.272502],[138.81641,37.272508],[138.816045,37.272516],[138.815866,37.272493],[138.815813,37.272408],[138.815514,37.272411],[138.815208,37.272502],[138.814793,37.272664],[138.814303,37.272825],[138.813998,37.272892],[138.81377,37.272888],[138.813485,37.272798],[138.813107,37.272742],[138.812803,37.272737],[138.812468,37.272779],[138.812149,37.272822],[138.81178,37.272972],[138.81124,37.273277],[138.810571,37.273846],[138.810381,37.274122],[138.810345,37.274339],[138.810334,37.274714],[138.810517,37.275711],[138.810477,37.276062],[138.810442,37.276207],[138.810305,37.27624],[138.810123,37.276225],[138.810004,37.27615],[138.809782,37.27594],[138.809669,37.275671],[138.809353,37.274527],[138.809194,37.273736],[138.809147,37.273263],[138.808948,37.272787],[138.80873,37.272468],[138.808509,37.272233],[138.808196,37.272022],[138.807791,37.271857],[138.807354,37.271776],[138.807272,37.271968],[138.807273,37.272153],[138.807256,37.272376],[138.807233,37.272971],[138.80724,37.273114],[138.807165,37.273179],[138.807092,37.273196],[138.806954,37.273184],[138.806671,37.273134],[138.80599,37.272979],[138.805642,37.272862],[138.805095,37.272709],[138.803895,37.272084],[138.80356,37.271922],[138.803243,37.271729],[138.802804,37.271494],[138.802567,37.271396],[138.802142,37.27125],[138.801994,37.271163],[138.801863,37.271072],[138.801768,37.270905],[138.801667,37.270743],[138.801565,37.270595],[138.801393,37.270513],[138.801098,37.270507],[138.80077,37.27051],[138.800569,37.270511],[138.800315,37.270431],[138.800103,37.270266],[138.799785,37.270056],[138.799629,37.269897],[138.799409,37.269786],[138.799144,37.269692],[138.798873,37.269643],[138.798176,37.269487],[138.797844,37.269387],[138.797437,37.269211],[138.797151,37.268973],[138.796957,37.268854],[138.796552,37.268688],[138.795724,37.268557],[138.794593,37.268388],[138.793721,37.268372],[138.7931,37.268371],[138.79241,37.268484],[138.792063,37.268625],[138.791843,37.268896],[138.791745,37.269084],[138.791694,37.269494],[138.791655,37.269936],[138.791709,37.270802],[138.791809,37.272798],[138.791874,37.272861],[138.792141,37.273115],[138.792187,37.273675],[138.792222,37.2742],[138.79233,37.274372],[138.792451,37.274484],[138.792636,37.274577],[138.792872,37.274622],[138.793137,37.274547],[138.793743,37.274319],[138.794185,37.274187],[138.794537,37.274094],[138.794813,37.274079],[138.795025,37.274103],[138.795123,37.274165],[138.795218,37.274316],[138.795251,37.274466],[138.795136,37.274564],[138.795047,37.274632],[138.79459,37.274873],[138.793894,37.27515],[138.793591,37.275264],[138.793388,37.27538],[138.793132,37.275585],[138.793052,37.275743],[138.79298,37.276071],[138.793049,37.276292],[138.793171,37.276384],[138.793369,37.276447],[138.793558,37.276391],[138.794041,37.276111],[138.794484,37.275929],[138.794838,37.275786],[138.79534,37.275706],[138.795968,37.275598],[138.796331,37.275584],[138.796646,37.27551],[138.796912,37.275396],[138.79715,37.27535],[138.797513,37.275337],[138.79795,37.275375],[138.797871,37.275523],[138.797541,37.275798],[138.797103,37.276144],[138.796494,37.276127],[138.796032,37.276088],[138.795545,37.276079],[138.795231,37.276123],[138.794631,37.276452],[138.794266,37.276722],[138.79417,37.276879],[138.794131,37.277147],[138.794118,37.277611],[138.794168,37.277979],[138.794345,37.278214],[138.794579,37.278573],[138.794735,37.279003],[138.794743,37.27926],[138.794725,37.279333],[138.794676,37.279442],[138.794614,37.279465],[138.794507,37.279463],[138.794386,37.279424],[138.794251,37.279336],[138.794058,37.279149],[138.793861,37.27906],[138.793633,37.279038],[138.793295,37.278613],[138.793052,37.278379],[138.792879,37.278306],[138.792367,37.278296],[138.792091,37.278341],[138.791771,37.278605],[138.791466,37.279208],[138.791271,37.279463],[138.790799,37.279774],[138.79029,37.280094],[138.790654,37.280412],[138.79087,37.280169],[138.790996,37.280067],[138.791144,37.280014],[138.791306,37.280017],[138.791512,37.280101],[138.791694,37.280234],[138.791965,37.28048],[138.79221,37.281064],[138.792257,37.281311],[138.792211,37.28157],[138.792146,37.281679],[138.792425,37.281874],[138.793026,37.282252],[138.793477,37.282504],[138.793842,37.282584],[138.794193,37.282615],[138.794635,37.282685],[138.795486,37.282871],[138.796761,37.283237],[138.797611,37.283461],[138.798402,37.283622],[138.798822,37.283698],[138.799052,37.283678],[138.799235,37.283682],[138.799357,37.283708],[138.799493,37.28376],[138.799748,37.283935],[138.800212,37.28431],[138.801031,37.285071],[138.801748,37.28567],[138.802989,37.286671],[138.804904,37.288184],[138.805324,37.288485],[138.805414,37.288536],[138.805733,37.288603],[138.805916,37.288631],[138.8061,37.288634],[138.806453,37.28858],[138.80676,37.288549],[138.806977,37.288479],[138.807195,37.288325],[138.807261,37.288179],[138.807279,37.288082],[138.807268,37.287923],[138.807181,37.28775],[138.807047,37.28765],[138.806548,37.287445],[138.806276,37.287318],[138.806263,37.28722],[138.806276,37.286793],[138.806238,37.286499],[138.806194,37.286449],[138.806165,37.286388],[138.806061,37.286288],[138.805942,37.286176],[138.805883,37.286101],[138.805885,37.286016],[138.805919,37.285894],[138.805953,37.285785],[138.806001,37.285713],[138.806064,37.285665],[138.806232,37.285656],[138.806355,37.285646],[138.806523,37.285661],[138.806644,37.285712],[138.806717,37.285824],[138.806805,37.28596],[138.806818,37.286033],[138.806938,37.286121],[138.807121,37.286124],[138.807262,37.286041],[138.807506,37.285748],[138.807699,37.285446],[138.807951,37.285182],[138.808444,37.284544],[138.809059,37.283908],[138.809403,37.283645],[138.809683,37.283492],[138.809899,37.283447],[138.810052,37.283425],[138.810236,37.283429],[138.810417,37.283505],[138.810644,37.283619],[138.810762,37.283744],[138.810983,37.284041],[138.811129,37.2843],[138.811263,37.284413],[138.811443,37.284538],[138.811624,37.284627],[138.811853,37.284643],[138.812204,37.284674],[138.812404,37.284641],[138.812602,37.284694],[138.812738,37.284745],[138.812858,37.284833],[138.813571,37.285042],[138.813704,37.285191],[138.813733,37.285264],[138.813741,37.285509],[138.813552,37.285713],[138.812828,37.286384],[138.812605,37.286697],[138.812554,37.286976],[138.812562,37.287233],[138.81256,37.288369],[138.812538,37.288576],[138.812472,37.28877],[138.811775,37.290113],[138.811469,37.290645],[138.811418,37.290803],[138.811289,37.291021],[138.811237,37.291239],[138.811231,37.291447],[138.811253,37.291741],[138.811339,37.291938],[138.811489,37.29205],[138.811639,37.292163],[138.811852,37.292204],[138.812051,37.292195],[138.812373,37.292177],[138.81285,37.292075],[138.81367,37.291773],[138.814644,37.291449],[138.815094,37.291225],[138.815452,37.291012],[138.815719,37.290785],[138.815988,37.29046],[138.816369,37.28999],[138.816573,37.289811],[138.817308,37.289263],[138.818244,37.288657],[138.819609,37.288022],[138.820106,37.287775],[138.819587,37.287704],[138.819039,37.287609],[138.81867,37.28749],[138.818822,37.287423],[138.81895,37.287326],[138.819179,37.2872],[138.819572,37.287008],[138.819813,37.286863],[138.819954,37.286755],[138.820046,37.286607],[138.820073,37.286508],[138.820081,37.286259],[138.820023,37.286098],[138.819821,37.285725],[138.819789,37.285525],[138.819754,37.285048],[138.819808,37.284929]]]}},{"type":"Feature","properties":{"layer_id":"scenic_nature_areas","name":"長岡市","source":"国土交通省 国土数値情報"},"geometry":{"type":"Polygon","coordinates":[[[138.874703,37.344203],[138.874779,37.343994],[138.87484,37.343883],[138.874862,37.343801],[138.874864,37.343729],[138.874847,37.343652],[138.874708,37.343578],[138.874598,37.343581],[138.874501,37.343615],[138.873761,37.34417],[138.873553,37.344269],[138.87341,37.344333],[138.873262,37.344325],[138.873173,37.344298],[138.87313,37.344226],[138.873154,37.344062],[138.873329,37.343784],[138.873664,37.343488],[138.874018,37.343238],[138.874327,37.342969],[138.874454,37.342782],[138.874544,37.342568],[138.874593,37.34174],[138.87453,37.341447],[138.874525,37.341391],[138.874426,37.341275],[138.874324,37.341237],[138.874259,37.341261],[138.874194,37.341301],[138.874004,37.341441],[138.873589,37.341843],[138.873454,37.342051],[138.873375,37.342152],[138.87325,37.342236],[138.873172,37.342266],[138.873045,37.342233],[138.872995,37.342175],[138.872976,37.34195],[138.873094,37.341635],[138.873176,37.341452],[138.873185,37.34135],[138.873169,37.341252],[138.87314,37.341149],[138.873096,37.341102],[138.87302,37.341075],[138.872898,37.341011],[138.872783,37.340993],[138.872012,37.341036],[138.871808,37.340996],[138.871656,37.340927],[138.871492,37.340816],[138.871442,37.340754],[138.871407,37.340631],[138.870916,37.340441],[138.870504,37.340317],[138.870202,37.340258],[138.870046,37.340238],[138.869967,37.340236],[138.870117,37.340544],[138.870398,37.340751],[138.870635,37.340974],[138.87088,37.34122],[138.870998,37.341484],[138.870954,37.341755],[138.870872,37.342019],[138.870784,37.342259],[138.870696,37.342506],[138.870633,37.34264],[138.870327,37.342983],[138.87015,37.343302],[138.870111,37.343498],[138.870108,37.343588],[138.870174,37.343652],[138.870284,37.343734],[138.870317,37.343753],[138.870014,37.343756],[138.86979,37.343752],[138.869599,37.343731],[138.869466,37.343684],[138.869323,37.343574],[138.869236,37.343474],[138.869149,37.343374],[138.869076,37.343175],[138.869093,37.34297],[138.869109,37.3428],[138.869168,37.342729],[138.869383,37.342635],[138.869332,37.342375],[138.869309,37.342138],[138.869303,37.341542],[138.869294,37.341048],[138.869141,37.340902],[138.869115,37.340587],[138.868979,37.340611],[138.868837,37.340649],[138.868592,37.340706],[138.868379,37.340748],[138.868186,37.340755],[138.868033,37.340727],[138.867874,37.340662],[138.867792,37.340625],[138.867749,37.340542],[138.867759,37.340415],[138.867271,37.340561],[138.866854,37.340625],[138.86646,37.34068],[138.866123,37.340701],[138.865742,37.340685],[138.865496,37.340627],[138.865353,37.340517],[138.865157,37.340334],[138.865027,37.340162],[138.864896,37.340025],[138.864764,37.339924],[138.8645,37.339749],[138.864302,37.339611],[138.863892,37.339434],[138.86347,37.339274],[138.863227,37.339135],[138.863006,37.338988],[138.862767,37.338733],[138.862227,37.338356],[138.861751,37.338142],[138.861242,37.337873],[138.860801,37.337699],[138.860345,37.337547],[138.859965,37.337514],[138.859651,37.337517],[138.859448,37.337522],[138.859358,37.337556],[138.859344,37.337655],[138.859757,37.337807],[138.860101,37.337913],[138.860374,37.338118],[138.860683,37.338431],[138.861161,37.338877],[138.861441,37.339182],[138.861607,37.339438],[138.86169,37.339593],[138.861751,37.33981],[138.861746,37.339994],[138.861691,37.340231],[138.861617,37.340452],[138.861535,37.340635],[138.861297,37.340861],[138.861082,37.340988],[138.860954,37.341078],[138.860827,37.341137],[138.860654,37.341149],[138.860578,37.341102],[138.860475,37.341016],[138.860353,37.340891],[138.860314,37.340583],[138.860359,37.340345],[138.860454,37.340063],[138.860497,37.339887],[138.86054,37.339742],[138.860534,37.339588],[138.860491,37.33941],[138.860362,37.339231],[138.860221,37.339098],[138.860069,37.339019],[138.85985,37.338946],[138.859628,37.338972],[138.859463,37.338992],[138.859318,37.339036],[138.859019,37.339384],[138.858631,37.33983],[138.858518,37.340066],[138.858464,37.340296],[138.858393,37.340402],[138.858315,37.340462],[138.858227,37.340483],[138.858189,37.340747],[138.858443,37.341258],[138.85881,37.341674],[138.859134,37.341884],[138.859544,37.342038],[138.860136,37.342253],[138.860608,37.342407],[138.861102,37.34264],[138.861426,37.342851],[138.861768,37.343266],[138.861894,37.343541],[138.862043,37.343885],[138.862119,37.344237],[138.862169,37.344347],[138.862433,37.3444],[138.862614,37.344427],[138.863195,37.344335],[138.863813,37.344177],[138.863994,37.344175],[138.864145,37.344196],[138.864362,37.344296],[138.864503,37.344389],[138.864598,37.344494],[138.864765,37.345025],[138.864828,37.345195],[138.864858,37.345473],[138.864937,37.345614],[138.865881,37.346999],[138.865976,37.34714],[138.866018,37.347249],[138.866006,37.3474],[138.866102,37.348295],[138.86612,37.348453],[138.866342,37.348638],[138.866476,37.348731],[138.86676,37.348845],[138.867458,37.348954],[138.86766,37.349054],[138.867748,37.34914],[138.867799,37.349225],[138.867816,37.349425],[138.867797,37.349558],[138.867684,37.349729],[138.867541,37.349918],[138.867495,37.350071],[138.867479,37.35017],[138.867469,37.35028],[138.867636,37.350689],[138.867666,37.35086],[138.867641,37.351008],[138.867639,37.35109],[138.867775,37.351384],[138.867819,37.351533],[138.867795,37.351654],[138.867683,37.351717],[138.867536,37.351786],[138.867246,37.351825],[138.866992,37.351815],[138.866898,37.35172],[138.866916,37.351094],[138.866874,37.350862],[138.866692,37.350727],[138.866531,37.350581],[138.866468,37.350366],[138.86641,37.350206],[138.866174,37.350047],[138.865851,37.350009],[138.865423,37.35005],[138.864977,37.350251],[138.864529,37.350501],[138.864077,37.350905],[138.864001,37.351032],[138.863908,37.351131],[138.863787,37.351223],[138.86364,37.3513],[138.863503,37.35137],[138.863385,37.351375],[138.863232,37.351321],[138.863136,37.351204],[138.863124,37.350987],[138.863204,37.350719],[138.863297,37.350648],[138.863798,37.350217],[138.864478,37.349543],[138.864776,37.349205],[138.864863,37.348997],[138.864987,37.34879],[138.864971,37.348378],[138.864895,37.348182],[138.864569,37.347865],[138.863971,37.347462],[138.863616,37.34721],[138.863126,37.346941],[138.86258,37.346707],[138.862247,37.346658],[138.862067,37.346611],[138.861867,37.346637],[138.861757,37.346692],[138.86171,37.346764],[138.861622,37.346979],[138.861591,37.347123],[138.861621,37.347347],[138.862035,37.34827],[138.862128,37.348729],[138.862177,37.349139],[138.862197,37.349488],[138.86195,37.350218],[138.861757,37.350647],[138.861736,37.350851],[138.861703,37.351488],[138.86171,37.351584],[138.868858,37.351991],[138.870882,37.351336],[138.871478,37.349747],[138.870452,37.347045],[138.870837,37.346003],[138.871792,37.345107],[138.874605,37.344394],[138.874703,37.344203]]]}},{"type":"Feature","properties":{"layer_id":"scenic_nature_areas","name":"長岡市","source":"国土交通省 国土数値情報"},"geometry":{"type":"Polygon","coordinates":[[[138.874703,37.344203],[138.874779,37.343994],[138.87484,37.343883],[138.874862,37.343801],[138.874864,37.343729],[138.874847,37.343652],[138.874708,37.343578],[138.874598,37.343581],[138.874501,37.343615],[138.873761,37.34417],[138.873553,37.344269],[138.87341,37.344333],[138.873262,37.344325],[138.873173,37.344298],[138.87313,37.344226],[138.873154,37.344062],[138.873329,37.343784],[138.873664,37.343488],[138.874018,37.343238],[138.874327,37.342969],[138.874454,37.342782],[138.874544,37.342568],[138.874593,37.34174],[138.87453,37.341447],[138.874525,37.341391],[138.874426,37.341275],[138.874324,37.341237],[138.874259,37.341261],[138.874194,37.341301],[138.874004,37.341441],[138.873589,37.341843],[138.873454,37.342051],[138.873375,37.342152],[138.87325,37.342236],[138.873172,37.342266],[138.873045,37.342233],[138.872995,37.342175],[138.872976,37.34195],[138.873094,37.341635],[138.873176,37.341452],[138.873185,37.34135],[138.873169,37.341252],[138.87314,37.341149],[138.873096,37.341102],[138.87302,37.341075],[138.872898,37.341011],[138.872783,37.340993],[138.872012,37.341036],[138.871808,37.340996],[138.871656,37.340927],[138.871492,37.340816],[138.871442,37.340754],[138.871407,37.340631],[138.870916,37.340441],[138.870504,37.340317],[138.870202,37.340258],[138.870046,37.340238],[138.869967,37.340236],[138.870117,37.340544],[138.870398,37.340751],[138.870635,37.340974],[138.87088,37.34122],[138.870998,37.341484],[138.870954,37.341755],[138.870872,37.342019],[138.870784,37.342259],[138.870696,37.342506],[138.870633,37.34264],[138.870327,37.342983],[138.87015,37.343302],[138.870111,37.343498],[138.870108,37.343588],[138.870174,37.343652],[138.870284,37.343734],[138.870317,37.343753],[138.870014,37.343756],[138.86979,37.343752],[138.869599,37.343731],[138.869466,37.343684],[138.869323,37.343574],[138.869236,37.343474],[138.869149,37.343374],[138.869076,37.343175],[138.869093,37.34297],[138.869109,37.3428],[138.869168,37.342729],[138.869383,37.342635],[138.869332,37.342375],[138.869309,37.342138],[138.869303,37.341542],[138.869294,37.341048],[138.869141,37.340902],[138.869115,37.340587],[138.868979,37.340611],[138.868837,37.340649],[138.868592,37.340706],[138.868379,37.340748],[138.868186,37.340755],[138.868033,37.340727],[138.867874,37.340662],[138.867792,37.340625],[138.867749,37.340542],[138.867759,37.340415],[138.867271,37.340561],[138.866854,37.340625],[138.86646,37.34068],[138.866123,37.340701],[138.865742,37.340685],[138.865496,37.340627],[138.865353,37.340517],[138.865157,37.340334],[138.865027,37.340162],[138.864896,37.340025],[138.864764,37.339924],[138.8645,37.339749],[138.864302,37.339611],[138.863892,37.339434],[138.86347,37.339274],[138.863227,37.339135],[138.863006,37.338988],[138.862767,37.338733],[138.862227,37.338356],[138.861751,37.338142],[138.861242,37.337873],[138.860801,37.337699],[138.860345,37.337547],[138.859965,37.337514],[138.859651,37.337517],[138.859448,37.337522],[138.859358,37.337556],[138.859344,37.337655],[138.859757,37.337807],[138.860101,37.337913],[138.860374,37.338118],[138.860683,37.338431],[138.861161,37.338877],[138.861441,37.339182],[138.861607,37.339438],[138.86169,37.339593],[138.861751,37.33981],[138.861746,37.339994],[138.861691,37.340231],[138.861617,37.340452],[138.861535,37.340635],[138.861297,37.340861],[138.861082,37.340988],[138.860954,37.341078],[138.860827,37.341137],[138.860654,37.341149],[138.860578,37.341102],[138.860475,37.341016],[138.860353,37.340891],[138.860314,37.340583],[138.860359,37.340345],[138.860454,37.340063],[138.860497,37.339887],[138.86054,37.339742],[138.860534,37.339588],[138.860491,37.33941],[138.860362,37.339231],[138.860221,37.339098],[138.860069,37.339019],[138.85985,37.338946],[138.859628,37.338972],[138.859463,37.338992],[138.859318,37.339036],[138.859019,37.339384],[138.858631,37.33983],[138.858518,37.340066],[138.858464,37.340296],[138.858393,37.340402],[138.858315,37.340462],[138.858227,37.340483],[138.858189,37.340747],[138.858443,37.341258],[138.85881,37.341674],[138.859134,37.341884],[138.859544,37.342038],[138.860136,37.342253],[138.860608,37.342407],[138.861102,37.34264],[138.861426,37.342851],[138.861768,37.343266],[138.861894,37.343541],[138.862043,37.343885],[138.862119,37.344237],[138.862169,37.344347],[138.862433,37.3444],[138.862614,37.344427],[138.863195,37.344335],[138.863813,37.344177],[138.863994,37.344175],[138.864145,37.344196],[138.864362,37.344296],[138.864503,37.344389],[138.864598,37.344494],[138.864765,37.345025],[138.864828,37.345195],[138.864858,37.345473],[138.864937,37.345614],[138.865881,37.346999],[138.865976,37.34714],[138.866018,37.347249],[138.866006,37.3474],[138.866102,37.348295],[138.86612,37.348453],[138.866342,37.348638],[138.866476,37.348731],[138.86676,37.348845],[138.867458,37.348954],[138.86766,37.349054],[138.867748,37.34914],[138.867799,37.349225],[138.867816,37.349425],[138.867797,37.349558],[138.867684,37.349729],[138.867541,37.349918],[138.867495,37.350071],[138.867479,37.35017],[138.867469,37.35028],[138.867636,37.350689],[138.867666,37.35086],[138.867641,37.351008],[138.867639,37.35109],[138.867775,37.351384],[138.867819,37.351533],[138.867795,37.351654],[138.867683,37.351717],[138.867536,37.351786],[138.867246,37.351825],[138.866992,37.351815],[138.866898,37.35172],[138.866916,37.351094],[138.866874,37.350862],[138.866692,37.350727],[138.866531,37.350581],[138.866468,37.350366],[138.86641,37.350206],[138.866174,37.350047],[138.865851,37.350009],[138.865423,37.35005],[138.864977,37.350251],[138.864529,37.350501],[138.864077,37.350905],[138.864001,37.351032],[138.863908,37.351131],[138.863787,37.351223],[138.86364,37.3513],[138.863503,37.35137],[138.863385,37.351375],[138.863232,37.351321],[138.863136,37.351204],[138.863124,37.350987],[138.863204,37.350719],[138.863297,37.350648],[138.863798,37.350217],[138.864478,37.349543],[138.864776,37.349205],[138.864863,37.348997],[138.864987,37.34879],[138.864971,37.348378],[138.864895,37.348182],[138.864569,37.347865],[138.863971,37.347462],[138.863616,37.34721],[138.863126,37.346941],[138.86258,37.346707],[138.862247,37.346658],[138.862067,37.346611],[138.861867,37.346637],[138.861757,37.346692],[138.86171,37.346764],[138.861622,37.346979],[138.861591,37.347123],[138.861621,37.347347],[138.862035,37.34827],[138.862128,37.348729],[138.862177,37.349139],[138.862197,37.349488],[138.86195,37.350218],[138.861757,37.350647],[138.861736,37.350851],[138.861703,37.351488],[138.86171,37.351584],[138.868858,37.351991],[138.870882,37.351336],[138.871478,37.349747],[138.870452,37.347045],[138.870837,37.346003],[138.871792,37.345107],[138.874605,37.344394],[138.874703,37.344203]]]}},{"type":"Feature","properties":{"layer_id":"scenic_nature_areas","name":"小千谷市","source":"国土交通省 国土数値情報"},"geometry":{"type":"Polygon","coordinates":[[[138.763183,37.275305],[138.762974,37.275245],[138.762044,37.275368],[138.761641,37.27551],[138.760739,37.275923],[138.760343,37.276215],[138.760222,37.276344],[138.760196,37.276447],[138.760229,37.276522],[138.760817,37.276823],[138.761402,37.277265],[138.761699,37.277514],[138.761989,37.277613],[138.762339,37.277666],[138.763196,37.277626],[138.763654,37.277607],[138.764041,37.277595],[138.764416,37.277593],[138.764407,37.277518],[138.764135,37.276802],[138.764037,37.276529],[138.76394,37.276255],[138.763627,37.275744],[138.763365,37.275468],[138.763183,37.275305]]]}},{"type":"Feature","properties":{"layer_id":"scenic_nature_areas","name":"自然保全地域","source":"国土交通省 国土数値情報"},"geometry":{"type":"Polygon","coordinates":[[[138.840032,37.242958],[138.84008,37.242738],[138.840091,37.242521],[138.839608,37.242623],[138.839126,37.242639],[138.838926,37.242611],[138.838913,37.242591],[138.836474,37.242998],[138.836408,37.24294],[138.836312,37.242923],[138.836158,37.242858],[138.836053,37.242744],[138.835385,37.242037],[138.835239,37.241908],[138.834813,37.242134],[138.834643,37.242296],[138.834512,37.242537],[138.834516,37.24288],[138.834613,37.243346],[138.83473,37.243591],[138.835002,37.243762],[138.835315,37.243955],[138.835505,37.244069],[138.835571,37.24417],[138.835581,37.244303],[138.835286,37.244972],[138.835254,37.245115],[138.835318,37.245304],[138.835425,37.245416],[138.835534,37.245462],[138.835878,37.245535],[138.836363,37.245511],[138.837311,37.245252],[138.838431,37.244786],[138.838838,37.244561],[138.839121,37.244334],[138.839549,37.2439],[138.839851,37.243486],[138.839969,37.243223],[138.840032,37.242958]]]}},{"type":"Feature","properties":{"layer_id":"scenic_nature_areas","name":"小千谷市","source":"国土交通省 国土数値情報"},"geometry":{"type":"Polygon","coordinates":[[[138.84008,37.242738],[138.840091,37.242521],[138.839608,37.242623],[138.839126,37.242639],[138.838926,37.242611],[138.838767,37.242692],[138.838502,37.242787],[138.838054,37.242967],[138.837772,37.24316],[138.837611,37.243445],[138.83756,37.243786],[138.837596,37.243986],[138.837743,37.244154],[138.838072,37.244282],[138.838097,37.244349],[138.838431,37.244786],[138.838838,37.244561],[138.839121,37.244334],[138.839549,37.2439],[138.839851,37.243486],[138.839969,37.243223],[138.840032,37.242958],[138.84008,37.242738]]]}},{"type":"Feature","properties":{"layer_id":"cultural_facilities","name":"白山運動公園シャンツェ","address":"山谷2234","source":"国土交通省 国土数値情報"},"geometry":{"type":"Point","coordinates":[138.771253,37.32175]}},{"type":"Feature","properties":{"layer_id":"cultural_facilities","name":"小千谷市東小千谷体育センター","address":"稗生乙1234","source":"国土交通省 国土数値情報"},"geometry":{"type":"Point","coordinates":[138.812648,37.304159]}},{"type":"Feature","properties":{"layer_id":"cultural_facilities","name":"信濃川河川公園多目的グラウンド","address":"ひ生乙885","source":"国土交通省 国土数値情報"},"geometry":{"type":"Point","coordinates":[138.806913,37.311728]}},{"type":"Feature","properties":{"layer_id":"cultural_facilities","name":"小千谷市民プール","address":"桜町4915","source":"国土交通省 国土数値情報"},"geometry":{"type":"Point","coordinates":[138.784114,37.31345]}},{"type":"Feature","properties":{"layer_id":"cultural_facilities","name":"信濃川河川公園野球場","address":"ひ生乙885","source":"国土交通省 国土数値情報"},"geometry":{"type":"Point","coordinates":[138.806937,37.311955]}},{"type":"Feature","properties":{"layer_id":"cultural_facilities","name":"小千谷市東小千谷体育センター","address":"稗生乙1234","source":"国土交通省 国土数値情報"},"geometry":{"type":"Point","coordinates":[138.812648,37.304159]}},{"type":"Feature","properties":{"layer_id":"cultural_facilities","name":"小千谷市民プール","address":"桜町4915","source":"国土交通省 国土数値情報"},"geometry":{"type":"Point","coordinates":[138.784114,37.31345]}},{"type":"Feature","properties":{"layer_id":"cultural_facilities","name":"白山運動公園野球場","address":"山谷2234","source":"国土交通省 国土数値情報"},"geometry":{"type":"Point","coordinates":[138.774581,37.320465]}},{"type":"Feature","properties":{"layer_id":"cultural_facilities","name":"白山運動公園第２庭球場","address":"山谷2234","source":"国土交通省 国土数値情報"},"geometry":{"type":"Point","coordinates":[138.775924,37.319784]}},{"type":"Feature","properties":{"layer_id":"cultural_facilities","name":"片貝スポーツセンター","address":"片貝町8701","source":"国土交通省 国土数値情報"},"geometry":{"type":"Point","coordinates":[138.773035,37.365311]}},{"type":"Feature","properties":{"layer_id":"cultural_facilities","name":"小千谷市総合体育館メインアリーナ","address":"桜町4915","source":"国土交通省 国土数値情報"},"geometry":{"type":"Point","coordinates":[138.78403,37.314414]}},{"type":"Feature","properties":{"layer_id":"cultural_facilities","name":"白山運動公園多目的広場","address":"山谷2234","source":"国土交通省 国土数値情報"},"geometry":{"type":"Point","coordinates":[138.77319,37.322884]}},{"type":"Feature","properties":{"layer_id":"cultural_facilities","name":"千谷運動公園多目的広場","address":"千谷甲3033-1","source":"国土交通省 国土数値情報"},"geometry":{"type":"Point","coordinates":[138.810201,37.328688]}},{"type":"Feature","properties":{"layer_id":"cultural_facilities","name":"千谷運動公園野球場","address":"千谷甲3033-1","source":"国土交通省 国土数値情報"},"geometry":{"type":"Point","coordinates":[138.808752,37.328413]}},{"type":"Feature","properties":{"layer_id":"cultural_facilities","name":"片貝スポーツセンター","address":"片貝町8701","source":"国土交通省 国土数値情報"},"geometry":{"type":"Point","coordinates":[138.773035,37.365311]}},{"type":"Feature","properties":{"layer_id":"cultural_facilities","name":"白山運動公園第３庭球場","address":"山谷2234","source":"国土交通省 国土数値情報"},"geometry":{"type":"Point","coordinates":[138.775068,37.319577]}},{"type":"Feature","properties":{"layer_id":"cultural_facilities","name":"小千谷市立図書館","address":"土川1-3-7","source":"国土交通省 国土数値情報"},"geometry":{"type":"Point","coordinates":[138.792136,37.307525]}},{"type":"Feature","properties":{"layer_id":"cultural_facilities","name":"片貝スポーツ広場野球場","address":"片貝町8787","source":"国土交通省 国土数値情報"},"geometry":{"type":"Point","coordinates":[138.772451,37.364514]}},{"type":"Feature","properties":{"layer_id":"cultural_facilities","name":"小千谷市吉谷トレーニングセンター","address":"四ツ子66-2","source":"国土交通省 国土数値情報"},"geometry":{"type":"Point","coordinates":[138.78809,37.287611]}},{"type":"Feature","properties":{"layer_id":"cultural_facilities","name":"白山運動公園第１庭球場","address":"山谷2234","source":"国土交通省 国土数値情報"},"geometry":{"type":"Point","coordinates":[138.775627,37.32124]}},{"type":"Feature","properties":{"layer_id":"cultural_facilities","name":"千谷運動公園庭球場","address":"千谷甲3033-1","source":"国土交通省 国土数値情報"},"geometry":{"type":"Point","coordinates":[138.809667,37.327695]}},{"type":"Feature","properties":{"layer_id":"cultural_facilities","name":"小千谷市総合体育館弓道場","address":"桜町4915","source":"国土交通省 国土数値情報"},"geometry":{"type":"Point","coordinates":[138.784161,37.314197]}},{"type":"Feature","properties":{"layer_id":"cultural_facilities","name":"小千谷市総合体育館武道場","address":"桜町4915","source":"国土交通省 国土数値情報"},"geometry":{"type":"Point","coordinates":[138.783127,37.314745]}},{"type":"Feature","properties":{"layer_id":"cultural_facilities","name":"白山運動公園グリーンヒル白山","address":"山谷2234","source":"国土交通省 国土数値情報"},"geometry":{"type":"Point","coordinates":[138.774557,37.320569]}},{"type":"Feature","properties":{"layer_id":"cultural_facilities","name":"白山運動公園","address":"山谷2234","source":"国土交通省 国土数値情報"},"geometry":{"type":"Point","coordinates":[138.772905,37.320342]}},{"type":"Feature","properties":{"layer_id":"cultural_facilities","name":"南部スポーツ広場野球場","address":"真人町678","source":"国土交通省 国土数値情報"},"geometry":{"type":"Point","coordinates":[138.803234,37.252147]}},{"type":"Feature","properties":{"layer_id":"cultural_facilities","name":"小千谷市総合体育館武道場","address":"桜町4915","source":"国土交通省 国土数値情報"},"geometry":{"type":"Point","coordinates":[138.783127,37.314745]}},{"type":"Feature","properties":{"layer_id":"parks_playgrounds","name":"片貝ふれあい公園けやき園","address":"小千谷市","source":"国土交通省 国土数値情報"},"geometry":{"type":"Point","coordinates":[138.77649,37.367109]}},{"type":"Feature","properties":{"layer_id":"parks_playgrounds","name":"江東公園","address":"小千谷市","source":"国土交通省 国土数値情報"},"geometry":{"type":"Point","coordinates":[138.784592,37.304784]}},{"type":"Feature","properties":{"layer_id":"parks_playgrounds","name":"信濃川左岸河川公園","address":"小千谷市","source":"国土交通省 国土数値情報"},"geometry":{"type":"Point","coordinates":[138.813511,37.362596]}},{"type":"Feature","properties":{"layer_id":"parks_playgrounds","name":"やすらぎ公園","address":"小千谷市","source":"国土交通省 国土数値情報"},"geometry":{"type":"Point","coordinates":[138.788562,37.307239]}},{"type":"Feature","properties":{"layer_id":"parks_playgrounds","name":"千谷運動公園","address":"小千谷市","source":"国土交通省 国土数値情報"},"geometry":{"type":"Point","coordinates":[138.809204,37.328284]}},{"type":"Feature","properties":{"layer_id":"parks_playgrounds","name":"白山運動公園","address":"小千谷市","source":"国土交通省 国土数値情報"},"geometry":{"type":"Point","coordinates":[138.774264,37.32133]}},{"type":"Feature","properties":{"layer_id":"parks_playgrounds","name":"諏訪公園","address":"小千谷市","source":"国土交通省 国土数値情報"},"geometry":{"type":"Point","coordinates":[138.780967,37.31206]}},{"type":"Feature","properties":{"layer_id":"parks_playgrounds","name":"ぽっぽの里公園","address":"小千谷市","source":"国土交通省 国土数値情報"},"geometry":{"type":"Point","coordinates":[138.792443,37.314654]}},{"type":"Feature","properties":{"layer_id":"parks_playgrounds","name":"旭町児童公園","address":"小千谷市","source":"国土交通省 国土数値情報"},"geometry":{"type":"Point","coordinates":[138.812299,37.304435]}},{"type":"Feature","properties":{"layer_id":"parks_playgrounds","name":"信濃川河川公園","address":"小千谷市","source":"国土交通省 国土数値情報"},"geometry":{"type":"Point","coordinates":[138.80669,37.311637]}},{"type":"Feature","properties":{"layer_id":"parks_playgrounds","name":"両新田公園","address":"小千谷市","source":"国土交通省 国土数値情報"},"geometry":{"type":"Point","coordinates":[138.780389,37.305172]}},{"type":"Feature","properties":{"layer_id":"parks_playgrounds","name":"草薙公園","address":"小千谷市","source":"国土交通省 国土数値情報"},"geometry":{"type":"Point","coordinates":[138.78782,37.312374]}},{"type":"Feature","properties":{"layer_id":"parks_playgrounds","name":"西部公園","address":"小千谷市","source":"国土交通省 国土数値情報"},"geometry":{"type":"Point","coordinates":[138.7831,37.307469]}},{"type":"Feature","properties":{"layer_id":"tourism_resources","name":"信濃川左岸・山本山周辺","address":"河川景観 / 河成段丘","source":"国土交通省 国土数値情報"},"geometry":{"type":"Point","coordinates":[138.812576,37.273071]}}]}