{"type":"FeatureCollection","municipality_code":"15405","pref":"新潟県","city":"出雲崎町","display_comment":"出雲崎町には、勝見村、尼瀬町、出雲崎町など、近世の村々の記憶を伝える地名が残っています。 周辺には史跡や遺跡、城跡や陣屋跡にまつわる場所が点在し、「小木城跡」、「新城跡」、「出雲崎代官所跡」などを起点に歩くと、地域の歴史がぐっと見えやすくなります。 現地では史跡説明板に加え、勝見村や尼瀬町にゆかりのある旧境石標、村の歴史を紹介する案内板にも注目してみてください。 田・新田・用水にちなむ地名が多い場所では、土地改良碑や用水記念碑も注目したい探索対象です。 川沿いや水辺では、その土地の暮らしや水との関わりを伝える歴史案内板が見つかるかもしれません。 ゆかりの人物では良寛や新津恒吉に注目すると、地域に残る文化や時代背景をさらに深く知るきっかけになります。 「良寛関係」や「良寛堂（生家橘屋の屋敷跡）」などの名所も、地域の物語を深掘りする絶好の入口です。","layer_counts":{"public_facilities":14,"cultural_facilities":9},"total_features":23,"features":[{"type":"Feature","properties":{"layer_id":"public_facilities","name":"柔道場","category":"public","address":"出雲崎町米田281-1","source":"国土交通省 国土数値情報","municipality_code":"15405","municipality_pref":"新潟県","municipality_name":"出雲崎町","municipality_code_method":"source_exact_coord"},"geometry":{"type":"Point","coordinates":[138.70036415352666,37.53892938029854]}},{"type":"Feature","properties":{"layer_id":"public_facilities","name":"多世代交流館","category":"public","address":"出雲崎町大字米田395","source":"国土交通省 国土数値情報","municipality_code":"15405","municipality_pref":"新潟県","municipality_name":"出雲崎町","municipality_code_method":"source_exact_coord"},"geometry":{"type":"Point","coordinates":[138.7033867591457,37.53806751161619]}},{"type":"Feature","properties":{"layer_id":"public_facilities","name":"保健福祉総合センターふれあいの里","category":"public","address":"出雲崎町大門394-1","source":"国土交通省 国土数値情報","municipality_code":"15405","municipality_pref":"新潟県","municipality_name":"出雲崎町","municipality_code_method":"source_exact_coord"},"geometry":{"type":"Point","coordinates":[138.71668320088614,37.538065380099454]}},{"type":"Feature","properties":{"layer_id":"public_facilities","name":"北国街道妻入り会館","category":"public","address":"出雲崎町大字尼瀬166","source":"国土交通省 国土数値情報","municipality_code":"15405","municipality_pref":"新潟県","municipality_name":"出雲崎町","municipality_code_method":"source_exact_coord"},"geometry":{"type":"Point","coordinates":[138.68365280125934,37.540277930018306]}},{"type":"Feature","properties":{"layer_id":"public_facilities","name":"出雲崎町役場","category":"public","address":"出雲崎町大字川西140","source":"国土交通省 国土数値情報","municipality_code":"15405","municipality_pref":"新潟県","municipality_name":"出雲崎町","municipality_code_method":"source_exact_coord"},"geometry":{"type":"Point","coordinates":[138.70937012588254,37.53071340123572]}},{"type":"Feature","properties":{"layer_id":"public_facilities","name":"海岸公民館","category":"public","address":"出雲崎町大字羽黒町431-1","source":"国土交通省 国土数値情報","municipality_code":"15405","municipality_pref":"新潟県","municipality_name":"出雲崎町","municipality_code_method":"source_exact_coord"},"geometry":{"type":"Point","coordinates":[138.69336617071556,37.5452033636361]}},{"type":"Feature","properties":{"layer_id":"public_facilities","name":"八手地区農村環境改善センター","category":"public","address":"出雲崎町大字船橋473","source":"国土交通省 国土数値情報","municipality_code":"15405","municipality_pref":"新潟県","municipality_name":"出雲崎町","municipality_code_method":"source_exact_coord"},"geometry":{"type":"Point","coordinates":[138.70269594220053,37.51464946939301]}},{"type":"Feature","properties":{"layer_id":"public_facilities","name":"町民体育館","category":"public","address":"出雲崎町米田281-1","source":"国土交通省 国土数値情報","municipality_code":"15405","municipality_pref":"新潟県","municipality_name":"出雲崎町","municipality_code_method":"source_exact_coord"},"geometry":{"type":"Point","coordinates":[138.70231615078842,37.53748338374003]}},{"type":"Feature","properties":{"layer_id":"public_facilities","name":"西越地区農村環境改善センター","category":"public","address":"出雲崎町沢田439-1","source":"国土交通省 国土数値情報","municipality_code":"15405","municipality_pref":"新潟県","municipality_name":"出雲崎町","municipality_code_method":"source_exact_coord"},"geometry":{"type":"Point","coordinates":[138.7235122737095,37.54708136010735]}},{"type":"Feature","properties":{"layer_id":"public_facilities","name":"中央公民館","category":"public","address":"出雲崎町米田281-1","source":"国土交通省 国土数値情報","municipality_code":"15405","municipality_pref":"新潟県","municipality_name":"出雲崎町","municipality_code_method":"source_exact_coord"},"geometry":{"type":"Point","coordinates":[138.70302415292036,37.53738338370872]}},{"type":"Feature","properties":{"layer_id":"public_facilities","name":"海岸出張所","category":"public","address":"出雲崎町大字羽黒町431-1","source":"国土交通省 国土数値情報","municipality_code":"15405","municipality_pref":"新潟県","municipality_name":"出雲崎町","municipality_code_method":"source_exact_coord"},"geometry":{"type":"Point","coordinates":[138.69318616910223,37.545063364057924]}},{"type":"Feature","properties":{"layer_id":"public_facilities","name":"藤巻地区コミュニティ消防センター","category":"public","address":"出雲崎町藤巻300","source":"国土交通省 国土数値情報","municipality_code":"15405","municipality_pref":"新潟県","municipality_name":"出雲崎町","municipality_code_method":"source_exact_coord"},"geometry":{"type":"Point","coordinates":[138.7315952779405,37.545989367155016]}},{"type":"Feature","properties":{"layer_id":"public_facilities","name":"川東地区コミュニティ消防センター","category":"public","address":"出雲崎町別ヶ谷500-30","source":"国土交通省 国土数値情報","municipality_code":"15405","municipality_pref":"新潟県","municipality_name":"出雲崎町","municipality_code_method":"source_exact_coord"},"geometry":{"type":"Point","coordinates":[138.71287510321775,37.527325413041]}},{"type":"Feature","properties":{"layer_id":"public_facilities","name":"井鼻地区コミュニティ消防センター","category":"public","address":"出雲崎町井鼻682-1","source":"国土交通省 国土数値情報","municipality_code":"15405","municipality_pref":"新潟県","municipality_name":"出雲崎町","municipality_code_method":"source_exact_coord"},"geometry":{"type":"Point","coordinates":[138.70340825318385,37.55238034386388]}},{"type":"Feature","properties":{"layer_id":"cultural_facilities","name":"出雲崎町柔道場","category":"public","address":"米田330","source":"国土交通省 国土数値情報","municipality_code":"15405","municipality_pref":"新潟県","municipality_name":"出雲崎町","municipality_code_method":"nearest_centroid"},"geometry":{"type":"Point","coordinates":[138.700397,37.538949]}},{"type":"Feature","properties":{"layer_id":"cultural_facilities","name":"出雲崎町屋内ゲートボール場","category":"public","address":"米田330","source":"国土交通省 国土数値情報","municipality_code":"15405","municipality_pref":"新潟県","municipality_name":"出雲崎町","municipality_code_method":"nearest_centroid"},"geometry":{"type":"Point","coordinates":[138.700522,37.538803]}},{"type":"Feature","properties":{"layer_id":"cultural_facilities","name":"出雲崎町テニスコート","category":"public","address":"米田400","source":"国土交通省 国土数値情報","municipality_code":"15405","municipality_pref":"新潟県","municipality_name":"出雲崎町","municipality_code_method":"nearest_centroid"},"geometry":{"type":"Point","coordinates":[138.70353,37.537959]}},{"type":"Feature","properties":{"layer_id":"cultural_facilities","name":"出雲崎町民野球場","category":"public","address":"米田278","source":"国土交通省 国土数値情報","municipality_code":"15405","municipality_pref":"新潟県","municipality_name":"出雲崎町","municipality_code_method":"nearest_centroid"},"geometry":{"type":"Point","coordinates":[138.701445,37.537992]}},{"type":"Feature","properties":{"layer_id":"cultural_facilities","name":"出雲崎町立出雲崎図書館","category":"public","address":"大字羽黒町431-1","source":"国土交通省 国土数値情報","municipality_code":"15405","municipality_pref":"新潟県","municipality_name":"出雲崎町","municipality_code_method":"nearest_centroid"},"geometry":{"type":"Point","coordinates":[138.693304,37.545243]}},{"type":"Feature","properties":{"layer_id":"cultural_facilities","name":"出雲崎町民体育館","category":"public","address":"米田281-1","source":"国土交通省 国土数値情報","municipality_code":"15405","municipality_pref":"新潟県","municipality_name":"出雲崎町","municipality_code_method":"nearest_centroid"},"geometry":{"type":"Point","coordinates":[138.702183,37.537531]}},{"type":"Feature","properties":{"layer_id":"cultural_facilities","name":"良寛記念館","category":"public","address":"大字米田1","source":"国土交通省 国土数値情報","municipality_code":"15405","municipality_pref":"新潟県","municipality_name":"出雲崎町","municipality_code_method":"nearest_centroid"},"geometry":{"type":"Point","coordinates":[138.688082,37.542382]}},{"type":"Feature","properties":{"layer_id":"cultural_facilities","name":"出雲崎町民プール","category":"public","address":"米田330","source":"国土交通省 国土数値情報","municipality_code":"15405","municipality_pref":"新潟県","municipality_name":"出雲崎町","municipality_code_method":"nearest_centroid"},"geometry":{"type":"Point","coordinates":[138.699999,37.539359]}},{"type":"Feature","properties":{"layer_id":"cultural_facilities","name":"天領出雲崎時代館・出雲崎石油記念館","category":"public","address":"大字尼瀬6-57","source":"国土交通省 国土数値情報","municipality_code":"15405","municipality_pref":"新潟県","municipality_name":"出雲崎町","municipality_code_method":"nearest_centroid"},"geometry":{"type":"Point","coordinates":[138.678287,37.538946]}}],"display_comment_original":"出雲崎町周辺には、近世村の記憶として勝見村、尼瀬町、出雲崎町などの旧村名が見える。 この地域には史跡や遺跡、城跡や陣屋跡に関わる場所が見え、小木城跡、新城跡、出雲崎代官所跡のような地点が探索の入口になる。 現地では史跡説明板、勝見村、尼瀬町ゆかりの旧境石標や村の歴史案内板が手がかりになりそうだ。さらに田・新田・用水の地名が多く、土地改良碑や用水記念碑が見つかる可能性がある。水辺の由緒を示す歴史案内板も見つかるかもしれない。","story_enrichment":{"samurai_priority_people":[],"notable_people":["良寛","新津恒吉","たかもちげん","長谷川巳之吉"],"honorary_citizens":[],"tourism_landmarks":["良寛関係","良寛堂（生家橘屋の屋敷跡）、良寛記念館、良寛逸話出雲崎油絵館など","参考","北国街道出雲崎宿","妻入り","石油関係","出雲崎石油記念館（道の駅内）、石油記念公園、綱堀式石油井戸C-2号など","その他歴史関係"],"specialties":[],"food_culture":[],"historical_domains":[],"heian_place_names":[],"japan_search_support":["良寛堂　出雲崎町 https://jpsearch.go.jp/item/cria-NM_P_056_006_10","良寛堂　出雲崎町 https://jpsearch.go.jp/item/cria-NM_P_056_006_08","良寛堂　出雲崎町 https://jpsearch.go.jp/item/cria-NM_P_056_006_09"],"enrichment_sources":["https://ja.wikipedia.org/wiki/%E5%87%BA%E9%9B%B2%E5%B4%8E%E7%94%BA","https://www.wikidata.org/wiki/Q5338269","https://www.wikidata.org/wiki/Q11502701","https://www.wikidata.org/wiki/Q11270850","https://www.wikidata.org/wiki/Q11653807","https://jpsearch.go.jp/csearch/jps-cross?csid=jps-cross&keyword=%E8%89%AF%E5%AF%9B&keyword=%E5%87%BA%E9%9B%B2%E5%B4%8E%E7%94%BA"],"enrichment_errors":[],"wikipedia_title":"出雲崎町","wikipedia_revision_id":"109103784","wikidata_qid":"Q1204583","wikipedia_url":"https://ja.wikipedia.org/wiki/%E5%87%BA%E9%9B%B2%E5%B4%8E%E7%94%BA","japan_search_query_url":"https://jpsearch.go.jp/csearch/jps-cross?csid=jps-cross&keyword=%E8%89%AF%E5%AF%9B&keyword=%E5%87%BA%E9%9B%B2%E5%B4%8E%E7%94%BA","status":"wikipedia_ok"}}