{"type":"FeatureCollection","municipality_code":"17407","pref":"石川県","city":"中能登町","display_comment":"中能登町には、地域の歴史や暮らしを伝える案内板や石碑があり、それらを手がかりに街歩きを楽しめます。 周辺には寺社や信仰の場、古墳や貝塚、城跡や陣屋跡にまつわる場所が点在し、「金丸城跡」、「勝山城跡」、「石動山城跡」などを起点に歩くと、地域の歴史がぐっと見えやすくなります。 現地では史跡説明板が、地域の歴史を読み解く手がかりになるでしょう。 川沿いや水辺では、暮らしや堤防整備の歴史を伝える案内板、治水碑、河川改修の記念碑にも注目してみてください。 ゆかりの人物では永源遙や鹿嶌嵜健太郎に注目すると、地域に残る文化や時代背景をさらに深く知るきっかけになります。 「石動山（大宮坊、旧観坊）」や「不動滝」などの名所も、地域の物語を深掘りする絶好の入口です。","layer_counts":{"cafe_restaurant":104,"public_facilities":19,"scenic_nature_areas":2,"cultural_facilities":42,"parks_playgrounds":2,"tourism_resources":7},"total_features":176,"features":[{"type":"Feature","properties":{"layer_id":"cafe_restaurant","name":"八幡のすしべん　羽坂店","category":"food","address":"石川県鹿島郡中能登町羽坂い43-1","source":"厚生労働省 食品衛生申請等システム（オープンデータ）","municipality_code":"17407","municipality_pref":"石川県","municipality_name":"中能登町","municipality_code_method":"food_exact_coord"},"geometry":{"type":"Point","coordinates":[136.903969,36.995415]}},{"type":"Feature","properties":{"layer_id":"cafe_restaurant","name":"移動式ホットサンド屋　Sunny to go","category":"food","address":"石川県鹿島郡中能登町井田カ部－３３　おうちショップ風はや　駐車場","source":"厚生労働省 食品衛生申請等システム（オープンデータ）","municipality_code":"17407","municipality_pref":"石川県","municipality_name":"中能登町","municipality_code_method":"food_exact_coord"},"geometry":{"type":"Point","coordinates":[136.906627,36.964297]}},{"type":"Feature","properties":{"layer_id":"cafe_restaurant","name":"回転寿司さと海鹿島店","category":"food","address":"石川県鹿島郡中能登町徳前よ１０９番１","source":"厚生労働省 食品衛生申請等システム（オープンデータ）","municipality_code":"17407","municipality_pref":"石川県","municipality_name":"中能登町","municipality_code_method":"food_exact_coord"},"geometry":{"type":"Point","coordinates":[136.920402,36.97447]}},{"type":"Feature","properties":{"layer_id":"cafe_restaurant","name":"竹若","category":"food","address":"石川県鹿島郡中能登町一青ケ部２６の１","source":"厚生労働省 食品衛生申請等システム（オープンデータ）","municipality_code":"17407","municipality_pref":"石川県","municipality_name":"中能登町","municipality_code_method":"food_exact_coord"},"geometry":{"type":"Point","coordinates":[136.896657,36.985922]}},{"type":"Feature","properties":{"layer_id":"cafe_restaurant","name":"東日本10475号店","category":"food","address":"石川県鹿島郡中能登町藤井ム部2番地 能登テック(株)内","source":"厚生労働省 食品衛生申請等システム（オープンデータ）","municipality_code":"17407","municipality_pref":"石川県","municipality_name":"中能登町","municipality_code_method":"food_exact_coord"},"geometry":{"type":"Point","coordinates":[136.871923,36.946393]}},{"type":"Feature","properties":{"layer_id":"cafe_restaurant","name":"西村ストアー","category":"food","address":"石川県鹿島郡中能登町良川１５部２６番地","source":"厚生労働省 食品衛生申請等システム（オープンデータ）","municipality_code":"17407","municipality_pref":"石川県","municipality_name":"中能登町","municipality_code_method":"food_exact_coord"},"geometry":{"type":"Point","coordinates":[136.894217,36.975972]}},{"type":"Feature","properties":{"layer_id":"cafe_restaurant","name":"竹若","category":"food","address":"石川県鹿島郡中能登町一青ケ部26の1","source":"厚生労働省 食品衛生申請等システム（オープンデータ）","municipality_code":"17407","municipality_pref":"石川県","municipality_name":"中能登町","municipality_code_method":"food_exact_coord"},"geometry":{"type":"Point","coordinates":[136.896657,36.985922]}},{"type":"Feature","properties":{"layer_id":"cafe_restaurant","name":"蕎麦処　旬㐂","category":"food","address":"石川県鹿島郡中能登町井田ぬ部１０－１ 道の駅織姫の里　施設内","source":"厚生労働省 食品衛生申請等システム（オープンデータ）","municipality_code":"17407","municipality_pref":"石川県","municipality_name":"中能登町","municipality_code_method":"food_exact_coord"},"geometry":{"type":"Point","coordinates":[136.90484,36.969815]}},{"type":"Feature","properties":{"layer_id":"cafe_restaurant","name":"NOT","category":"food","address":"石川県鹿島郡中能登町小竹ロ７３","source":"厚生労働省 食品衛生申請等システム（オープンデータ）","municipality_code":"17407","municipality_pref":"石川県","municipality_name":"中能登町","municipality_code_method":"food_exact_coord"},"geometry":{"type":"Point","coordinates":[136.901465,36.958022]}},{"type":"Feature","properties":{"layer_id":"cafe_restaurant","name":"どんたく　エブリィ鳥屋店","category":"food","address":"石川県鹿島郡中能登町良川と５７","source":"厚生労働省 食品衛生申請等システム（オープンデータ）","municipality_code":"17407","municipality_pref":"石川県","municipality_name":"中能登町","municipality_code_method":"food_exact_coord"},"geometry":{"type":"Point","coordinates":[136.892229,36.980951]}},{"type":"Feature","properties":{"layer_id":"cafe_restaurant","name":"セブン－イレブン中能登羽坂店","category":"food","address":"石川県鹿島郡中能登町羽坂い１５番地１","source":"厚生労働省 食品衛生申請等システム（オープンデータ）","municipality_code":"17407","municipality_pref":"石川県","municipality_name":"中能登町","municipality_code_method":"food_exact_coord"},"geometry":{"type":"Point","coordinates":[136.903971,36.993782]}},{"type":"Feature","properties":{"layer_id":"cafe_restaurant","name":"mog mog","category":"food","address":"石川県鹿島郡中能登町金丸ヒ部４９番地甲","source":"厚生労働省 食品衛生申請等システム（オープンデータ）","municipality_code":"17407","municipality_pref":"石川県","municipality_name":"中能登町","municipality_code_method":"food_exact_coord"},"geometry":{"type":"Point","coordinates":[136.843243,36.948534]}},{"type":"Feature","properties":{"layer_id":"cafe_restaurant","name":"近江ストアー","category":"food","address":"石川県鹿島郡中能登町能登部下１２４－３５","source":"厚生労働省 食品衛生申請等システム（オープンデータ）","municipality_code":"17407","municipality_pref":"石川県","municipality_name":"中能登町","municipality_code_method":"food_exact_coord"},"geometry":{"type":"Point","coordinates":[136.859279,36.959279]}},{"type":"Feature","properties":{"layer_id":"cafe_restaurant","name":"カウイン牛勝","category":"food","address":"石川県鹿島郡中能登町井田と部１－１","source":"厚生労働省 食品衛生申請等システム（オープンデータ）","municipality_code":"17407","municipality_pref":"石川県","municipality_name":"中能登町","municipality_code_method":"food_exact_coord"},"geometry":{"type":"Point","coordinates":[136.908063,36.969495]}},{"type":"Feature","properties":{"layer_id":"cafe_restaurant","name":"イタリアン　トマト　カフェ　ジュニア　アルプラザ鹿島店","category":"food","address":"石川県鹿島郡中能登町井田と部１番地１","source":"厚生労働省 食品衛生申請等システム（オープンデータ）","municipality_code":"17407","municipality_pref":"石川県","municipality_name":"中能登町","municipality_code_method":"food_exact_coord"},"geometry":{"type":"Point","coordinates":[136.908063,36.969495]}},{"type":"Feature","properties":{"layer_id":"cafe_restaurant","name":"よもぎ万頭　のと屋","category":"food","address":"石川県鹿島郡中能登町井田５３","source":"厚生労働省 食品衛生申請等システム（オープンデータ）","municipality_code":"17407","municipality_pref":"石川県","municipality_name":"中能登町","municipality_code_method":"food_exact_coord"},"geometry":{"type":"Point","coordinates":[136.912585,36.961368]}},{"type":"Feature","properties":{"layer_id":"cafe_restaurant","name":"ココス鹿島バイパス店","category":"food","address":"石川県鹿島郡中能登町井田と１－１","source":"厚生労働省 食品衛生申請等システム（オープンデータ）","municipality_code":"17407","municipality_pref":"石川県","municipality_name":"中能登町","municipality_code_method":"food_exact_coord"},"geometry":{"type":"Point","coordinates":[136.9066055,36.970383]}},{"type":"Feature","properties":{"layer_id":"cafe_restaurant","name":"ファミリーマート鹿島能登部店","category":"food","address":"石川県鹿島郡中能登町能登部上ヲ９４番地","source":"厚生労働省 食品衛生申請等システム（オープンデータ）","municipality_code":"17407","municipality_pref":"石川県","municipality_name":"中能登町","municipality_code_method":"food_exact_coord"},"geometry":{"type":"Point","coordinates":[136.872067,36.963866]}},{"type":"Feature","properties":{"layer_id":"cafe_restaurant","name":"株式会社　平和堂　アル・プラザ鹿島　すし作業室","category":"food","address":"石川県鹿島郡中能登町井田と１－１","source":"厚生労働省 食品衛生申請等システム（オープンデータ）","municipality_code":"17407","municipality_pref":"石川県","municipality_name":"中能登町","municipality_code_method":"food_exact_coord"},"geometry":{"type":"Point","coordinates":[136.906624,36.970383]}},{"type":"Feature","properties":{"layer_id":"cafe_restaurant","name":"株式会社　平和堂　アル・プラザ鹿島　鮮魚すし作業室","category":"food","address":"石川県鹿島郡中能登町井田と１－１","source":"厚生労働省 食品衛生申請等システム（オープンデータ）","municipality_code":"17407","municipality_pref":"石川県","municipality_name":"中能登町","municipality_code_method":"food_exact_coord"},"geometry":{"type":"Point","coordinates":[136.906624,36.970383]}},{"type":"Feature","properties":{"layer_id":"cafe_restaurant","name":"金井商店","category":"food","address":"石川県鹿島郡中能登町春木２１－３０－２","source":"厚生労働省 食品衛生申請等システム（オープンデータ）","municipality_code":"17407","municipality_pref":"石川県","municipality_name":"中能登町","municipality_code_method":"food_exact_coord"},"geometry":{"type":"Point","coordinates":[136.899008,37.001693]}},{"type":"Feature","properties":{"layer_id":"cafe_restaurant","name":"金井商店","category":"food","address":"石川県鹿島郡中能登町春木２１－３０－２","source":"厚生労働省 食品衛生申請等システム（オープンデータ）","municipality_code":"17407","municipality_pref":"石川県","municipality_name":"中能登町","municipality_code_method":"food_exact_coord"},"geometry":{"type":"Point","coordinates":[136.899008,37.001693]}},{"type":"Feature","properties":{"layer_id":"cafe_restaurant","name":"ローソン鹿島徳前店","category":"food","address":"石川県鹿島郡中能登町徳前31-1","source":"厚生労働省 食品衛生申請等システム（オープンデータ）","municipality_code":"17407","municipality_pref":"石川県","municipality_name":"中能登町","municipality_code_method":"food_exact_coord"},"geometry":{"type":"Point","coordinates":[136.907684,36.971345]}},{"type":"Feature","properties":{"layer_id":"cafe_restaurant","name":"マクドナルド　鹿島アルプラザ店","category":"food","address":"石川県鹿島郡中能登町井田とー１－１","source":"厚生労働省 食品衛生申請等システム（オープンデータ）","municipality_code":"17407","municipality_pref":"石川県","municipality_name":"中能登町","municipality_code_method":"food_exact_coord"},"geometry":{"type":"Point","coordinates":[136.9066055,36.970383]}},{"type":"Feature","properties":{"layer_id":"cafe_restaurant","name":"セブン－イレブン　中能登町徳前店","category":"food","address":"石川県鹿島郡中能登町徳前の部１０番地１","source":"厚生労働省 食品衛生申請等システム（オープンデータ）","municipality_code":"17407","municipality_pref":"石川県","municipality_name":"中能登町","municipality_code_method":"food_exact_coord"},"geometry":{"type":"Point","coordinates":[136.920402,36.97447]}},{"type":"Feature","properties":{"layer_id":"cafe_restaurant","name":"みやしたストア","category":"food","address":"石川県鹿島郡中能登町徳前14-50","source":"厚生労働省 食品衛生申請等システム（オープンデータ）","municipality_code":"17407","municipality_pref":"石川県","municipality_name":"中能登町","municipality_code_method":"food_exact_coord"},"geometry":{"type":"Point","coordinates":[136.923447,36.973502]}},{"type":"Feature","properties":{"layer_id":"cafe_restaurant","name":"ゴーゴーカレー鹿島店","category":"food","address":"石川県鹿島郡中能登町徳前よ109-1","source":"厚生労働省 食品衛生申請等システム（オープンデータ）","municipality_code":"17407","municipality_pref":"石川県","municipality_name":"中能登町","municipality_code_method":"food_exact_coord"},"geometry":{"type":"Point","coordinates":[136.920402,36.97447]}},{"type":"Feature","properties":{"layer_id":"cafe_restaurant","name":"コハネイロB","category":"food","address":"石川県鹿島郡中能登町徳前の１４－１","source":"厚生労働省 食品衛生申請等システム（オープンデータ）","municipality_code":"17407","municipality_pref":"石川県","municipality_name":"中能登町","municipality_code_method":"food_exact_coord"},"geometry":{"type":"Point","coordinates":[136.917963,36.980593]}},{"type":"Feature","properties":{"layer_id":"cafe_restaurant","name":"コハネイロA","category":"food","address":"石川県鹿島郡中能登町徳前の１４－１","source":"厚生労働省 食品衛生申請等システム（オープンデータ）","municipality_code":"17407","municipality_pref":"石川県","municipality_name":"中能登町","municipality_code_method":"food_exact_coord"},"geometry":{"type":"Point","coordinates":[136.917963,36.980593]}},{"type":"Feature","properties":{"layer_id":"cafe_restaurant","name":"食工房　勇造","category":"food","address":"石川県鹿島郡中能登町井田カ部５７－２","source":"厚生労働省 食品衛生申請等システム（オープンデータ）","municipality_code":"17407","municipality_pref":"石川県","municipality_name":"中能登町","municipality_code_method":"food_exact_coord"},"geometry":{"type":"Point","coordinates":[136.903357,36.96581]}},{"type":"Feature","properties":{"layer_id":"cafe_restaurant","name":"糸屋商店","category":"food","address":"石川県鹿島郡中能登町高畠ラー１","source":"厚生労働省 食品衛生申請等システム（オープンデータ）","municipality_code":"17407","municipality_pref":"石川県","municipality_name":"中能登町","municipality_code_method":"food_exact_coord"},"geometry":{"type":"Point","coordinates":[136.8690545,36.9364925]}},{"type":"Feature","properties":{"layer_id":"cafe_restaurant","name":"農家レストラン　太郎右衛門","category":"food","address":"石川県鹿島郡中能登町二宮ロ部１１１","source":"厚生労働省 食品衛生申請等システム（オープンデータ）","municipality_code":"17407","municipality_pref":"石川県","municipality_name":"中能登町","municipality_code_method":"food_exact_coord"},"geometry":{"type":"Point","coordinates":[136.926405,36.973171]}},{"type":"Feature","properties":{"layer_id":"cafe_restaurant","name":"m10666","category":"food","address":"石川県鹿島郡中能登町末坂2部33番地 (在宅複合施設ショートステイほのぼの)","source":"厚生労働省 食品衛生申請等システム（オープンデータ）","municipality_code":"17407","municipality_pref":"石川県","municipality_name":"中能登町","municipality_code_method":"food_exact_coord"},"geometry":{"type":"Point","coordinates":[136.901841,36.990994]}},{"type":"Feature","properties":{"layer_id":"cafe_restaurant","name":"ありす食堂","category":"food","address":"石川県鹿島郡中能登町井田ぬ部１０－１","source":"厚生労働省 食品衛生申請等システム（オープンデータ）","municipality_code":"17407","municipality_pref":"石川県","municipality_name":"中能登町","municipality_code_method":"food_exact_coord"},"geometry":{"type":"Point","coordinates":[136.914893,36.959439]}},{"type":"Feature","properties":{"layer_id":"cafe_restaurant","name":"0H4554石川","category":"food","address":"石川県鹿島郡中能登町武部は部11鹿島興亜電工株式会社","source":"厚生労働省 食品衛生申請等システム（オープンデータ）","municipality_code":"17407","municipality_pref":"石川県","municipality_name":"中能登町","municipality_code_method":"food_exact_coord"},"geometry":{"type":"Point","coordinates":[136.919563,36.985534]}},{"type":"Feature","properties":{"layer_id":"cafe_restaurant","name":"カラオケ喫茶　R’ｓ","category":"food","address":"石川県鹿島郡中能登町西馬場６－１","source":"厚生労働省 食品衛生申請等システム（オープンデータ）","municipality_code":"17407","municipality_pref":"石川県","municipality_name":"中能登町","municipality_code_method":"food_exact_coord"},"geometry":{"type":"Point","coordinates":[136.879077,36.971874]}},{"type":"Feature","properties":{"layer_id":"cafe_restaurant","name":"古民家ゲストハウス結舎-YUINOYA-、おにぎりカフェゆいのや","category":"food","address":"石川県鹿島郡中能登町良川ヲ71","source":"厚生労働省 食品衛生申請等システム（オープンデータ）","municipality_code":"17407","municipality_pref":"石川県","municipality_name":"中能登町","municipality_code_method":"food_exact_coord"},"geometry":{"type":"Point","coordinates":[136.889056,36.97971]}},{"type":"Feature","properties":{"layer_id":"cafe_restaurant","name":"日清医療食品　つばさ事業所","category":"food","address":"石川県鹿島郡中能登町良川け部71-1","source":"厚生労働省 食品衛生申請等システム（オープンデータ）","municipality_code":"17407","municipality_pref":"石川県","municipality_name":"中能登町","municipality_code_method":"food_exact_coord"},"geometry":{"type":"Point","coordinates":[136.892359,36.970712]}},{"type":"Feature","properties":{"layer_id":"cafe_restaurant","name":"サーティワンアイスクリーム　アルプラザ鹿島店","category":"food","address":"石川県鹿島郡中能登町井田と1-1","source":"厚生労働省 食品衛生申請等システム（オープンデータ）","municipality_code":"17407","municipality_pref":"石川県","municipality_name":"中能登町","municipality_code_method":"food_exact_coord"},"geometry":{"type":"Point","coordinates":[136.906625,36.970401]}},{"type":"Feature","properties":{"layer_id":"cafe_restaurant","name":"お食事処・民宿　美来里","category":"food","address":"石川県鹿島郡中能登町久乃木ち部24番地","source":"厚生労働省 食品衛生申請等システム（オープンデータ）","municipality_code":"17407","municipality_pref":"石川県","municipality_name":"中能登町","municipality_code_method":"food_exact_coord"},"geometry":{"type":"Point","coordinates":[136.927402,36.995745]}},{"type":"Feature","properties":{"layer_id":"cafe_restaurant","name":"春木の里っ子","category":"food","address":"石川県鹿島郡中能登町春木西123","source":"厚生労働省 食品衛生申請等システム（オープンデータ）","municipality_code":"17407","municipality_pref":"石川県","municipality_name":"中能登町","municipality_code_method":"food_exact_coord"},"geometry":{"type":"Point","coordinates":[136.918748,36.991999]}},{"type":"Feature","properties":{"layer_id":"cafe_restaurant","name":"焼肉まるにし","category":"food","address":"石川県鹿島郡中能登町井田あ部11-1","source":"厚生労働省 食品衛生申請等システム（オープンデータ）","municipality_code":"17407","municipality_pref":"石川県","municipality_name":"中能登町","municipality_code_method":"food_exact_coord"},"geometry":{"type":"Point","coordinates":[136.899913,36.963263]}},{"type":"Feature","properties":{"layer_id":"cafe_restaurant","name":"Zaran","category":"food","address":"石川県鹿島郡中能登町黒氏9-128","source":"厚生労働省 食品衛生申請等システム（オープンデータ）","municipality_code":"17407","municipality_pref":"石川県","municipality_name":"中能登町","municipality_code_method":"food_exact_coord"},"geometry":{"type":"Point","coordinates":[136.902581,36.982768]}},{"type":"Feature","properties":{"layer_id":"cafe_restaurant","name":"zaranのジプシー屋台","category":"food","address":"石川県鹿島郡中能登町黒氏9-128","source":"厚生労働省 食品衛生申請等システム（オープンデータ）","municipality_code":"17407","municipality_pref":"石川県","municipality_name":"中能登町","municipality_code_method":"food_exact_coord"},"geometry":{"type":"Point","coordinates":[136.902588,36.98276]}},{"type":"Feature","properties":{"layer_id":"cafe_restaurant","name":"珈琲あんぽんたん","category":"food","address":"石川県鹿島郡中能登町西馬場ヤ-10","source":"厚生労働省 食品衛生申請等システム（オープンデータ）","municipality_code":"17407","municipality_pref":"石川県","municipality_name":"中能登町","municipality_code_method":"food_exact_coord"},"geometry":{"type":"Point","coordinates":[136.890949,36.967883]}},{"type":"Feature","properties":{"layer_id":"cafe_restaurant","name":"農家食堂　和み","category":"food","address":"石川県鹿島郡中能登町能登部下47-13-1","source":"厚生労働省 食品衛生申請等システム（オープンデータ）","municipality_code":"17407","municipality_pref":"石川県","municipality_name":"中能登町","municipality_code_method":"food_exact_coord"},"geometry":{"type":"Point","coordinates":[136.8673,36.958283]}},{"type":"Feature","properties":{"layer_id":"cafe_restaurant","name":"割烹　かめや","category":"food","address":"石川県鹿島郡中能登町高畠ツ-181","source":"厚生労働省 食品衛生申請等システム（オープンデータ）","municipality_code":"17407","municipality_pref":"石川県","municipality_name":"中能登町","municipality_code_method":"food_exact_coord"},"geometry":{"type":"Point","coordinates":[136.871566,36.938067]}},{"type":"Feature","properties":{"layer_id":"cafe_restaurant","name":"おり姫の宿くつろぎ、旬膳くつろぎ","category":"food","address":"石川県鹿島郡中能登町末坂ツ部70-1","source":"厚生労働省 食品衛生申請等システム（オープンデータ）","municipality_code":"17407","municipality_pref":"石川県","municipality_name":"中能登町","municipality_code_method":"food_exact_coord"},"geometry":{"type":"Point","coordinates":[136.899352,36.992133]}},{"type":"Feature","properties":{"layer_id":"cafe_restaurant","name":"Pizzeria TETSU","category":"food","address":"石川県鹿島郡中能登町能登部下","source":"厚生労働省 食品衛生申請等システム（オープンデータ）","municipality_code":"17407","municipality_pref":"石川県","municipality_name":"中能登町","municipality_code_method":"food_exact_coord"},"geometry":{"type":"Point","coordinates":[136.861527,36.958266]}},{"type":"Feature","properties":{"layer_id":"cafe_restaurant","name":"石川県立鹿島少年自然の家","category":"food","address":"石川県鹿島郡中能登町高畠原山分ハ-1","source":"厚生労働省 食品衛生申請等システム（オープンデータ）","municipality_code":"17407","municipality_pref":"石川県","municipality_name":"中能登町","municipality_code_method":"food_exact_coord"},"geometry":{"type":"Point","coordinates":[136.934107,36.955518]}},{"type":"Feature","properties":{"layer_id":"cafe_restaurant","name":"千代寿司","category":"food","address":"石川県鹿島郡中能登町高畠ち部１－１番地","source":"厚生労働省 食品衛生申請等システム（オープンデータ）","municipality_code":"17407","municipality_pref":"石川県","municipality_name":"中能登町","municipality_code_method":"food_exact_coord"},"geometry":{"type":"Point","coordinates":[136.870989,36.938734]}},{"type":"Feature","properties":{"layer_id":"cafe_restaurant","name":"かんまち","category":"food","address":"石川県鹿島郡中能登町二宮子部１２番地1","source":"厚生労働省 食品衛生申請等システム（オープンデータ）","municipality_code":"17407","municipality_pref":"石川県","municipality_name":"中能登町","municipality_code_method":"food_exact_coord"},"geometry":{"type":"Point","coordinates":[136.92904,36.971073]}},{"type":"Feature","properties":{"layer_id":"cafe_restaurant","name":"ファミリーマート鹿島バイパス店","category":"food","address":"石川県鹿島郡中能登町最勝講る部49番地","source":"厚生労働省 食品衛生申請等システム（オープンデータ）","municipality_code":"17407","municipality_pref":"石川県","municipality_name":"中能登町","municipality_code_method":"food_exact_coord"},"geometry":{"type":"Point","coordinates":[136.900823,36.970236]}},{"type":"Feature","properties":{"layer_id":"cafe_restaurant","name":"旬彩割烹　あづま家","category":"food","address":"石川県鹿島郡中能登町良川リ7番地1","source":"厚生労働省 食品衛生申請等システム（オープンデータ）","municipality_code":"17407","municipality_pref":"石川県","municipality_name":"中能登町","municipality_code_method":"food_exact_coord"},"geometry":{"type":"Point","coordinates":[136.888113,36.976743]}},{"type":"Feature","properties":{"layer_id":"cafe_restaurant","name":"flap/福和堂","category":"food","address":"石川県鹿島郡中能登町井田と部1-1","source":"厚生労働省 食品衛生申請等システム（オープンデータ）","municipality_code":"17407","municipality_pref":"石川県","municipality_name":"中能登町","municipality_code_method":"food_exact_coord"},"geometry":{"type":"Point","coordinates":[136.908063,36.969495]}},{"type":"Feature","properties":{"layer_id":"cafe_restaurant","name":"焼肉　一平","category":"food","address":"石川県鹿島郡中能登町良川は部35-1","source":"厚生労働省 食品衛生申請等システム（オープンデータ）","municipality_code":"17407","municipality_pref":"石川県","municipality_name":"中能登町","municipality_code_method":"food_exact_coord"},"geometry":{"type":"Point","coordinates":[136.889386,36.979011]}},{"type":"Feature","properties":{"layer_id":"cafe_restaurant","name":"なにかとワーク","category":"food","address":"石川県鹿島郡中能登町井田れ部88番地","source":"厚生労働省 食品衛生申請等システム（オープンデータ）","municipality_code":"17407","municipality_pref":"石川県","municipality_name":"中能登町","municipality_code_method":"food_exact_coord"},"geometry":{"type":"Point","coordinates":[136.9139,36.964413]}},{"type":"Feature","properties":{"layer_id":"cafe_restaurant","name":"澤井","category":"food","address":"石川県鹿島郡中能登町能登部上ヲ179","source":"厚生労働省 食品衛生申請等システム（オープンデータ）","municipality_code":"17407","municipality_pref":"石川県","municipality_name":"中能登町","municipality_code_method":"food_exact_coord"},"geometry":{"type":"Point","coordinates":[136.871247,36.965049]}},{"type":"Feature","properties":{"layer_id":"cafe_restaurant","name":"Dog.Run.Cafe325","category":"food","address":"石川県鹿島郡中能登町徳前へ-18-1","source":"厚生労働省 食品衛生申請等システム（オープンデータ）","municipality_code":"17407","municipality_pref":"石川県","municipality_name":"中能登町","municipality_code_method":"food_exact_coord"},"geometry":{"type":"Point","coordinates":[136.920402,36.97447]}},{"type":"Feature","properties":{"layer_id":"cafe_restaurant","name":"歌島","category":"food","address":"石川県鹿島郡中能登町小金森チ部-30番地","source":"厚生労働省 食品衛生申請等システム（オープンデータ）","municipality_code":"17407","municipality_pref":"石川県","municipality_name":"中能登町","municipality_code_method":"food_exact_coord"},"geometry":{"type":"Point","coordinates":[136.867566,36.936588]}},{"type":"Feature","properties":{"layer_id":"cafe_restaurant","name":"杉野屋","category":"food","address":"石川県鹿島郡中能登町良川ル-5甲","source":"厚生労働省 食品衛生申請等システム（オープンデータ）","municipality_code":"17407","municipality_pref":"石川県","municipality_name":"中能登町","municipality_code_method":"food_exact_coord"},"geometry":{"type":"Point","coordinates":[136.886613,36.978852]}},{"type":"Feature","properties":{"layer_id":"cafe_restaurant","name":"珈琲屋クラムボン","category":"food","address":"石川県鹿島郡中能登町武部は8-1","source":"厚生労働省 食品衛生申請等システム（オープンデータ）","municipality_code":"17407","municipality_pref":"石川県","municipality_name":"中能登町","municipality_code_method":"food_exact_coord"},"geometry":{"type":"Point","coordinates":[136.918565,36.984772]}},{"type":"Feature","properties":{"layer_id":"cafe_restaurant","name":"えにし屋","category":"food","address":"石川県鹿島郡中能登町良川ヲ部61-1","source":"厚生労働省 食品衛生申請等システム（オープンデータ）","municipality_code":"17407","municipality_pref":"石川県","municipality_name":"中能登町","municipality_code_method":"food_exact_coord"},"geometry":{"type":"Point","coordinates":[136.888121,36.977799]}},{"type":"Feature","properties":{"layer_id":"cafe_restaurant","name":"たま姫茶屋","category":"food","address":"石川県鹿島郡中能登町良川ヲ部61-1","source":"厚生労働省 食品衛生申請等システム（オープンデータ）","municipality_code":"17407","municipality_pref":"石川県","municipality_name":"中能登町","municipality_code_method":"food_exact_coord"},"geometry":{"type":"Point","coordinates":[136.888121,36.977799]}},{"type":"Feature","properties":{"layer_id":"cafe_restaurant","name":"きろくさ","category":"food","address":"石川県鹿島郡中能登町武部イ部4番地甲1","source":"厚生労働省 食品衛生申請等システム（オープンデータ）","municipality_code":"17407","municipality_pref":"石川県","municipality_name":"中能登町","municipality_code_method":"food_exact_coord"},"geometry":{"type":"Point","coordinates":[136.92326,36.984318]}},{"type":"Feature","properties":{"layer_id":"cafe_restaurant","name":"きろくさ2","category":"food","address":"石川県鹿島郡中能登町金丸932 かねまる交流館　芝生広場","source":"厚生労働省 食品衛生申請等システム（オープンデータ）","municipality_code":"17407","municipality_pref":"石川県","municipality_name":"中能登町","municipality_code_method":"food_exact_coord"},"geometry":{"type":"Point","coordinates":[136.842683,36.947348]}},{"type":"Feature","properties":{"layer_id":"cafe_restaurant","name":"ハッピー　ダイヤモンド","category":"food","address":"石川県鹿島郡中能登町末坂ソ部76番1","source":"厚生労働省 食品衛生申請等システム（オープンデータ）","municipality_code":"17407","municipality_pref":"石川県","municipality_name":"中能登町","municipality_code_method":"food_exact_coord"},"geometry":{"type":"Point","coordinates":[136.900614,36.993272]}},{"type":"Feature","properties":{"layer_id":"cafe_restaurant","name":"m14489","category":"food","address":"石川県鹿島郡中能登町久乃木井部15番地","source":"厚生労働省 食品衛生申請等システム（オープンデータ）","municipality_code":"17407","municipality_pref":"石川県","municipality_name":"中能登町","municipality_code_method":"food_exact_coord"},"geometry":{"type":"Point","coordinates":[136.928578,36.994917]}},{"type":"Feature","properties":{"layer_id":"cafe_restaurant","name":"カニ汁太郎","category":"food","address":"石川県鹿島郡中能登町小田中コ部５番地８","source":"厚生労働省 食品衛生申請等システム（オープンデータ）","municipality_code":"17407","municipality_pref":"石川県","municipality_name":"中能登町","municipality_code_method":"food_exact_coord"},"geometry":{"type":"Point","coordinates":[136.884013,36.945841]}},{"type":"Feature","properties":{"layer_id":"cafe_restaurant","name":"カニ汁太郎","category":"food","address":"石川県鹿島郡中能登町小田中コ部５番地８","source":"厚生労働省 食品衛生申請等システム（オープンデータ）","municipality_code":"17407","municipality_pref":"石川県","municipality_name":"中能登町","municipality_code_method":"food_exact_coord"},"geometry":{"type":"Point","coordinates":[136.884013,36.945841]}},{"type":"Feature","properties":{"layer_id":"cafe_restaurant","name":"メッシモ","category":"food","address":"石川県鹿島郡中能登町東馬場子19-1","source":"厚生労働省 食品衛生申請等システム（オープンデータ）","municipality_code":"17407","municipality_pref":"石川県","municipality_name":"中能登町","municipality_code_method":"food_exact_coord"},"geometry":{"type":"Point","coordinates":[136.890934,36.965789]}},{"type":"Feature","properties":{"layer_id":"cafe_restaurant","name":"カフェ食堂　れんげや","category":"food","address":"石川県鹿島郡中能登町良川庚61-2","source":"厚生労働省 食品衛生申請等システム（オープンデータ）","municipality_code":"17407","municipality_pref":"石川県","municipality_name":"中能登町","municipality_code_method":"food_exact_coord"},"geometry":{"type":"Point","coordinates":[136.903668,36.976422]}},{"type":"Feature","properties":{"layer_id":"cafe_restaurant","name":"cafe　hanare","category":"food","address":"石川県鹿島郡中能登町徳前12-41","source":"厚生労働省 食品衛生申請等システム（オープンデータ）","municipality_code":"17407","municipality_pref":"石川県","municipality_name":"中能登町","municipality_code_method":"food_exact_coord"},"geometry":{"type":"Point","coordinates":[136.92189,36.976431]}},{"type":"Feature","properties":{"layer_id":"cafe_restaurant","name":"蕎麦工房　一休","category":"food","address":"石川県鹿島郡中能登町二宮あおば台74-7","source":"厚生労働省 食品衛生申請等システム（オープンデータ）","municipality_code":"17407","municipality_pref":"石川県","municipality_name":"中能登町","municipality_code_method":"food_exact_coord"},"geometry":{"type":"Point","coordinates":[136.917304,36.983826]}},{"type":"Feature","properties":{"layer_id":"cafe_restaurant","name":"弁当　こばやし","category":"food","address":"石川県鹿島郡中能登町良川12-152","source":"厚生労働省 食品衛生申請等システム（オープンデータ）","municipality_code":"17407","municipality_pref":"石川県","municipality_name":"中能登町","municipality_code_method":"food_exact_coord"},"geometry":{"type":"Point","coordinates":[136.890772,36.976396]}},{"type":"Feature","properties":{"layer_id":"cafe_restaurant","name":"パーティーランド","category":"food","address":"石川県鹿島郡中能登町井田と1番地1 アル・プラザ鹿島内","source":"厚生労働省 食品衛生申請等システム（オープンデータ）","municipality_code":"17407","municipality_pref":"石川県","municipality_name":"中能登町","municipality_code_method":"food_exact_coord"},"geometry":{"type":"Point","coordinates":[136.906624,36.970383]}},{"type":"Feature","properties":{"layer_id":"cafe_restaurant","name":"カラオケ　夢","category":"food","address":"石川県鹿島郡中能登町金丸396-1","source":"厚生労働省 食品衛生申請等システム（オープンデータ）","municipality_code":"17407","municipality_pref":"石川県","municipality_name":"中能登町","municipality_code_method":"food_exact_coord"},"geometry":{"type":"Point","coordinates":[136.850846,36.951566]}},{"type":"Feature","properties":{"layer_id":"cafe_restaurant","name":"達富商店","category":"food","address":"石川県鹿島郡中能登町春木11-35","source":"厚生労働省 食品衛生申請等システム（オープンデータ）","municipality_code":"17407","municipality_pref":"石川県","municipality_name":"中能登町","municipality_code_method":"food_exact_coord"},"geometry":{"type":"Point","coordinates":[136.901182,36.994932]}},{"type":"Feature","properties":{"layer_id":"cafe_restaurant","name":"御料理　吾・いち","category":"food","address":"石川県鹿島郡中能登町小竹の51","source":"厚生労働省 食品衛生申請等システム（オープンデータ）","municipality_code":"17407","municipality_pref":"石川県","municipality_name":"中能登町","municipality_code_method":"food_exact_coord"},"geometry":{"type":"Point","coordinates":[136.894945,36.955315]}},{"type":"Feature","properties":{"layer_id":"cafe_restaurant","name":"株式会社鳥木精肉店","category":"food","address":"石川県鹿島郡中能登町芹川コ部6番地1","source":"厚生労働省 食品衛生申請等システム（オープンデータ）","municipality_code":"17407","municipality_pref":"石川県","municipality_name":"中能登町","municipality_code_method":"food_exact_coord"},"geometry":{"type":"Point","coordinates":[136.921245,36.969533]}},{"type":"Feature","properties":{"layer_id":"cafe_restaurant","name":"炭火やきとりMOMIJI","category":"food","address":"石川県鹿島郡中能登町能登部上ア50","source":"厚生労働省 食品衛生申請等システム（オープンデータ）","municipality_code":"17407","municipality_pref":"石川県","municipality_name":"中能登町","municipality_code_method":"food_exact_coord"},"geometry":{"type":"Point","coordinates":[136.869046,36.964077]}},{"type":"Feature","properties":{"layer_id":"cafe_restaurant","name":"お食事処　匠","category":"food","address":"石川県鹿島郡中能登町井田て部123-1","source":"厚生労働省 食品衛生申請等システム（オープンデータ）","municipality_code":"17407","municipality_pref":"石川県","municipality_name":"中能登町","municipality_code_method":"food_exact_coord"},"geometry":{"type":"Point","coordinates":[136.900633,36.965869]}},{"type":"Feature","properties":{"layer_id":"cafe_restaurant","name":"mii","category":"food","address":"石川県鹿島郡中能登町能登部上イ-13-1","source":"厚生労働省 食品衛生申請等システム（オープンデータ）","municipality_code":"17407","municipality_pref":"石川県","municipality_name":"中能登町","municipality_code_method":"food_exact_coord"},"geometry":{"type":"Point","coordinates":[136.870219,36.967096]}},{"type":"Feature","properties":{"layer_id":"cafe_restaurant","name":"スプーンヌードル","category":"food","address":"石川県鹿島郡中能登町高畠ヘ-21-1","source":"厚生労働省 食品衛生申請等システム（オープンデータ）","municipality_code":"17407","municipality_pref":"石川県","municipality_name":"中能登町","municipality_code_method":"food_exact_coord"},"geometry":{"type":"Point","coordinates":[136.868596,36.938334]}},{"type":"Feature","properties":{"layer_id":"cafe_restaurant","name":"つくし保育園","category":"food","address":"石川県鹿島郡中能登町水白19-1-1","source":"厚生労働省 食品衛生申請等システム（オープンデータ）","municipality_code":"17407","municipality_pref":"石川県","municipality_name":"中能登町","municipality_code_method":"food_exact_coord"},"geometry":{"type":"Point","coordinates":[136.893844,36.95758]}},{"type":"Feature","properties":{"layer_id":"cafe_restaurant","name":"こすもす保育園","category":"food","address":"石川県鹿島郡中能登町良川た3","source":"厚生労働省 食品衛生申請等システム（オープンデータ）","municipality_code":"17407","municipality_pref":"石川県","municipality_name":"中能登町","municipality_code_method":"food_exact_coord"},"geometry":{"type":"Point","coordinates":[136.896429,36.98154]}},{"type":"Feature","properties":{"layer_id":"cafe_restaurant","name":"中能登町学校給食センター","category":"food","address":"石川県鹿島郡中能登町良川け1-1","source":"厚生労働省 食品衛生申請等システム（オープンデータ）","municipality_code":"17407","municipality_pref":"石川県","municipality_name":"中能登町","municipality_code_method":"food_exact_coord"},"geometry":{"type":"Point","coordinates":[136.892359,36.970712]}},{"type":"Feature","properties":{"layer_id":"cafe_restaurant","name":"宮miya","category":"food","address":"石川県鹿島郡中能登町良川ヌ24番地","source":"厚生労働省 食品衛生申請等システム（オープンデータ）","municipality_code":"17407","municipality_pref":"石川県","municipality_name":"中能登町","municipality_code_method":"food_exact_coord"},"geometry":{"type":"Point","coordinates":[136.88725,36.978692]}},{"type":"Feature","properties":{"layer_id":"cafe_restaurant","name":"旬鮮酒家　おやじ","category":"food","address":"石川県鹿島郡中能登町久乃木壱-19番地","source":"厚生労働省 食品衛生申請等システム（オープンデータ）","municipality_code":"17407","municipality_pref":"石川県","municipality_name":"中能登町","municipality_code_method":"food_exact_coord"},"geometry":{"type":"Point","coordinates":[136.945192,36.986746]}},{"type":"Feature","properties":{"layer_id":"cafe_restaurant","name":"山田 珈琲","category":"food","address":"石川県鹿島郡中能登町良川15 ラポールよしかわ","source":"厚生労働省 食品衛生申請等システム（オープンデータ）","municipality_code":"17407","municipality_pref":"石川県","municipality_name":"中能登町","municipality_code_method":"food_exact_coord"},"geometry":{"type":"Point","coordinates":[136.889553,36.977439]}},{"type":"Feature","properties":{"layer_id":"cafe_restaurant","name":"HINOKI","category":"food","address":"石川県鹿島郡中能登町井田と部1-1","source":"厚生労働省 食品衛生申請等システム（オープンデータ）","municipality_code":"17407","municipality_pref":"石川県","municipality_name":"中能登町","municipality_code_method":"food_exact_coord"},"geometry":{"type":"Point","coordinates":[136.908063,36.969495]}},{"type":"Feature","properties":{"layer_id":"cafe_restaurant","name":"Lemon","category":"food","address":"石川県鹿島郡中能登町金丸143番地 健康ハウス憩内","source":"厚生労働省 食品衛生申請等システム（オープンデータ）","municipality_code":"17407","municipality_pref":"石川県","municipality_name":"中能登町","municipality_code_method":"food_exact_coord"},"geometry":{"type":"Point","coordinates":[136.855552,36.95427]}},{"type":"Feature","properties":{"layer_id":"cafe_restaurant","name":"Lemon","category":"food","address":"石川県鹿島郡中能登町金丸143番地 （健康ハウス憩内）","source":"厚生労働省 食品衛生申請等システム（オープンデータ）","municipality_code":"17407","municipality_pref":"石川県","municipality_name":"中能登町","municipality_code_method":"food_exact_coord"},"geometry":{"type":"Point","coordinates":[136.855552,36.95427]}},{"type":"Feature","properties":{"layer_id":"cafe_restaurant","name":"さくま　お好み焼き店","category":"food","address":"石川県鹿島郡中能登町福田フ27-1","source":"厚生労働省 食品衛生申請等システム（オープンデータ）","municipality_code":"17407","municipality_pref":"石川県","municipality_name":"中能登町","municipality_code_method":"food_exact_coord"},"geometry":{"type":"Point","coordinates":[136.871118,36.941752]}},{"type":"Feature","properties":{"layer_id":"cafe_restaurant","name":"一兆","category":"food","address":"石川県鹿島郡中能登町井田と部１－１","source":"厚生労働省 食品衛生申請等システム（オープンデータ）","municipality_code":"17407","municipality_pref":"石川県","municipality_name":"中能登町","municipality_code_method":"food_exact_coord"},"geometry":{"type":"Point","coordinates":[136.908063,36.969495]}},{"type":"Feature","properties":{"layer_id":"cafe_restaurant","name":"やきとり　鳥八","category":"food","address":"石川県鹿島郡中能登町能登部上丙80-1","source":"厚生労働省 食品衛生申請等システム（オープンデータ）","municipality_code":"17407","municipality_pref":"石川県","municipality_name":"中能登町","municipality_code_method":"food_exact_coord"},"geometry":{"type":"Point","coordinates":[136.875128,36.966962]}},{"type":"Feature","properties":{"layer_id":"cafe_restaurant","name":"くつろぎ茶屋　紬（TSUMUGI）","category":"food","address":"石川県鹿島郡中能登町能登部上ヲ118-3","source":"厚生労働省 食品衛生申請等システム（オープンデータ）","municipality_code":"17407","municipality_pref":"石川県","municipality_name":"中能登町","municipality_code_method":"food_exact_coord"},"geometry":{"type":"Point","coordinates":[136.871053,36.964304]}},{"type":"Feature","properties":{"layer_id":"cafe_restaurant","name":"月とピエロ","category":"food","address":"石川県鹿島郡中能登町羽坂2-92","source":"厚生労働省 食品衛生申請等システム（オープンデータ）","municipality_code":"17407","municipality_pref":"石川県","municipality_name":"中能登町","municipality_code_method":"food_exact_coord"},"geometry":{"type":"Point","coordinates":[136.906927,36.997257]}},{"type":"Feature","properties":{"layer_id":"cafe_restaurant","name":"定塚","category":"food","address":"石川県鹿島郡中能登町二宮レ-199","source":"厚生労働省 食品衛生申請等システム（オープンデータ）","municipality_code":"17407","municipality_pref":"石川県","municipality_name":"中能登町","municipality_code_method":"food_exact_coord"},"geometry":{"type":"Point","coordinates":[136.928029,36.976247]}},{"type":"Feature","properties":{"layer_id":"cafe_restaurant","name":"身土不二","category":"food","address":"石川県鹿島郡中能登町高畠ム部49番地","source":"厚生労働省 食品衛生申請等システム（オープンデータ）","municipality_code":"17407","municipality_pref":"石川県","municipality_name":"中能登町","municipality_code_method":"food_exact_coord"},"geometry":{"type":"Point","coordinates":[136.871461,36.935631]}},{"type":"Feature","properties":{"layer_id":"cafe_restaurant","name":"横井や","category":"food","address":"石川県鹿島郡中能登町高畠ラ41番地","source":"厚生労働省 食品衛生申請等システム（オープンデータ）","municipality_code":"17407","municipality_pref":"石川県","municipality_name":"中能登町","municipality_code_method":"food_exact_coord"},"geometry":{"type":"Point","coordinates":[136.869571,36.936827]}},{"type":"Feature","properties":{"layer_id":"cafe_restaurant","name":"玉駒","category":"food","address":"石川県鹿島郡中能登町井田ぬ－１０ 道の駅織姫の里中能登","source":"厚生労働省 食品衛生申請等システム（オープンデータ）","municipality_code":"17407","municipality_pref":"石川県","municipality_name":"中能登町","municipality_code_method":"food_exact_coord"},"geometry":{"type":"Point","coordinates":[136.914893,36.959439]}},{"type":"Feature","properties":{"layer_id":"cafe_restaurant","name":"海織","category":"food","address":"石川県鹿島郡中能登町井田ぬ部10-1","source":"厚生労働省 食品衛生申請等システム（オープンデータ）","municipality_code":"17407","municipality_pref":"石川県","municipality_name":"中能登町","municipality_code_method":"food_exact_coord"},"geometry":{"type":"Point","coordinates":[136.914893,36.959439]}},{"type":"Feature","properties":{"layer_id":"cafe_restaurant","name":"フレッシュストア　正谷","category":"food","address":"石川県鹿島郡中能登町能登部下124-32","source":"厚生労働省 食品衛生申請等システム（オープンデータ）","municipality_code":"17407","municipality_pref":"石川県","municipality_name":"中能登町","municipality_code_method":"food_exact_coord"},"geometry":{"type":"Point","coordinates":[136.85984,36.959002]}},{"type":"Feature","properties":{"layer_id":"public_facilities","name":"ふれあい交流館喜楽館","category":"public","address":"中能登町水白二部80","source":"国土交通省 国土数値情報","municipality_code":"17407","municipality_pref":"石川県","municipality_name":"中能登町","municipality_code_method":"source_exact_coord"},"geometry":{"type":"Point","coordinates":[136.9012537644463,36.95630967455594]}},{"type":"Feature","properties":{"layer_id":"public_facilities","name":"老人福祉センターゆうゆう","category":"public","address":"中能登町末坂2部37-1地","source":"国土交通省 国土数値情報","municipality_code":"17407","municipality_pref":"石川県","municipality_name":"中能登町","municipality_code_method":"source_exact_coord"},"geometry":{"type":"Point","coordinates":[136.90352477182037,36.991598762168906]}},{"type":"Feature","properties":{"layer_id":"public_facilities","name":"鹿西武道館","category":"public","address":"中能登町能登部下90部57-2","source":"国土交通省 国土数値情報","municipality_code":"17407","municipality_pref":"石川県","municipality_name":"中能登町","municipality_code_method":"source_exact_coord"},"geometry":{"type":"Point","coordinates":[136.86610580326243,36.961285715970995]}},{"type":"Feature","properties":{"layer_id":"public_facilities","name":"瀬戸会館","category":"public","address":"中能登町瀬戸5部3","source":"国土交通省 国土数値情報","municipality_code":"17407","municipality_pref":"石川県","municipality_name":"中能登町","municipality_code_method":"source_exact_coord"},"geometry":{"type":"Point","coordinates":[136.87673680224844,37.008692817512376]}},{"type":"Feature","properties":{"layer_id":"public_facilities","name":"鹿島体育センター","category":"public","address":"中能登町井田い部34","source":"国土交通省 国土数値情報","municipality_code":"17407","municipality_pref":"石川県","municipality_name":"中能登町","municipality_code_method":"source_exact_coord"},"geometry":{"type":"Point","coordinates":[136.91638474186342,36.966108700425586]}},{"type":"Feature","properties":{"layer_id":"public_facilities","name":"ふれあい交流館北部","category":"public","address":"中能登町坪川リ部23","source":"国土交通省 国土数値情報","municipality_code":"17407","municipality_pref":"石川県","municipality_name":"中能登町","municipality_code_method":"source_exact_coord"},"geometry":{"type":"Point","coordinates":[136.9211747639121,36.99950876947884]}},{"type":"Feature","properties":{"layer_id":"public_facilities","name":"生涯学習センターラピア鹿島","category":"public","address":"中能登町井田に部50","source":"国土交通省 国土数値情報","municipality_code":"17407","municipality_pref":"石川県","municipality_name":"中能登町","municipality_code_method":"source_exact_coord"},"geometry":{"type":"Point","coordinates":[136.91102474984675,36.96861870553781]}},{"type":"Feature","properties":{"layer_id":"public_facilities","name":"中能登町役場","category":"public","address":"中能登町末坂9部46","source":"国土交通省 国土数値情報","municipality_code":"17407","municipality_pref":"石川県","municipality_name":"中能登町","municipality_code_method":"source_exact_coord"},"geometry":{"type":"Point","coordinates":[136.90148077172768,36.98888875675401]}},{"type":"Feature","properties":{"layer_id":"public_facilities","name":"社会福祉センター","category":"public","address":"中能登町末坂9部43","source":"国土交通省 国土数値情報","municipality_code":"17407","municipality_pref":"石川県","municipality_name":"中能登町","municipality_code_method":"source_exact_coord"},"geometry":{"type":"Point","coordinates":[136.90210477111233,36.98886875643001]}},{"type":"Feature","properties":{"layer_id":"public_facilities","name":"久江体育センター","category":"public","address":"中能登町久江ホ部14-2","source":"国土交通省 国土数値情報","municipality_code":"17407","municipality_pref":"石川県","municipality_name":"中能登町","municipality_code_method":"source_exact_coord"},"geometry":{"type":"Point","coordinates":[136.88898179141356,36.94729765325201]}},{"type":"Feature","properties":{"layer_id":"public_facilities","name":"鳥屋公民館","category":"public","address":"中能登町一青く部19","source":"国土交通省 国土数値情報","municipality_code":"17407","municipality_pref":"石川県","municipality_name":"中能登町","municipality_code_method":"source_exact_coord"},"geometry":{"type":"Point","coordinates":[136.8989017739307,36.9884487573638]}},{"type":"Feature","properties":{"layer_id":"public_facilities","name":"かねまる交流館","category":"public","address":"中能登町金丸932","source":"国土交通省 国土数値情報","municipality_code":"17407","municipality_pref":"石川県","municipality_name":"中能登町","municipality_code_method":"source_exact_coord"},"geometry":{"type":"Point","coordinates":[136.84209482066217,36.94715871088571]}},{"type":"Feature","properties":{"layer_id":"public_facilities","name":"スポーツセンターろくせい","category":"public","address":"中能登町能登部下134部17","source":"国土交通省 国土数値情報","municipality_code":"17407","municipality_pref":"石川県","municipality_name":"中能登町","municipality_code_method":"source_exact_coord"},"geometry":{"type":"Point","coordinates":[136.8668848071135,36.95663170151163]}},{"type":"Feature","properties":{"layer_id":"public_facilities","name":"鳥屋武道館","category":"public","address":"中能登町一青人部5-8地","source":"国土交通省 国土数値情報","municipality_code":"17407","municipality_pref":"石川県","municipality_name":"中能登町","municipality_code_method":"source_exact_coord"},"geometry":{"type":"Point","coordinates":[136.89724077517369,36.9878147573609]}},{"type":"Feature","properties":{"layer_id":"public_facilities","name":"ふれあい交流館ラポールみおや","category":"public","address":"中能登町高畠井部20","source":"国土交通省 国土数値情報","municipality_code":"17407","municipality_pref":"石川県","municipality_name":"中能登町","municipality_code_method":"source_exact_coord"},"geometry":{"type":"Point","coordinates":[136.87265783018802,36.93733663736557]}},{"type":"Feature","properties":{"layer_id":"public_facilities","name":"鹿島北部体育センター","category":"public","address":"中能登町在江る部7","source":"国土交通省 国土数値情報","municipality_code":"17407","municipality_pref":"石川県","municipality_name":"中能登町","municipality_code_method":"source_exact_coord"},"geometry":{"type":"Point","coordinates":[136.92154076434392,37.00012277042084]}},{"type":"Feature","properties":{"layer_id":"public_facilities","name":"能登部下集会所","category":"public","address":"中能登町能登部下76部112","source":"国土交通省 国土数値情報","municipality_code":"17407","municipality_pref":"石川県","municipality_name":"中能登町","municipality_code_method":"source_exact_coord"},"geometry":{"type":"Point","coordinates":[136.86317680678744,36.959449713717454]}},{"type":"Feature","properties":{"layer_id":"public_facilities","name":"カルチャーセンター飛翔","category":"public","address":"中能登町能登部下134部1","source":"国土交通省 国土数値情報","municipality_code":"17407","municipality_pref":"石川県","municipality_name":"中能登町","municipality_code_method":"source_exact_coord"},"geometry":{"type":"Point","coordinates":[136.86511480946655,36.95545870034891]}},{"type":"Feature","properties":{"layer_id":"public_facilities","name":"まなびや館","category":"public","address":"中能登町一青人部5-1","source":"国土交通省 国土数値情報","municipality_code":"17407","municipality_pref":"石川県","municipality_name":"中能登町","municipality_code_method":"source_exact_coord"},"geometry":{"type":"Point","coordinates":[136.89763677485342,36.987934757288905]}},{"type":"Feature","properties":{"layer_id":"scenic_nature_areas","name":"鹿島町","category":"nature","source":"国土交通省 国土数値情報","municipality_code":"17407","municipality_pref":"石川県","municipality_name":"中能登町","municipality_code_method":"nearest_centroid"},"geometry":{"type":"Polygon","coordinates":[[[136.98419099962115,36.963581000218966],[136.9841640001747,36.96355599996541],[136.98411900650459,36.963513006093905],[136.984119,36.963513],[136.9841190000007,36.96351299987909],[136.98411899989816,36.963512999781095],[136.98409399964459,36.96337599975856],[136.9840579997831,36.96302499975991],[136.984066000152,36.962953000036904],[136.9840870002211,36.96277299983006],[136.98412537775246,36.962440990921564],[136.98412983930123,36.961691068306976],[136.98412500017483,36.96163500041092],[136.98407100038258,36.96103699981367],[136.98407000033646,36.96102500015961],[136.9841344611126,36.96091420784207],[136.98415399997103,36.957630004869536],[136.98415399971353,36.95763000008042],[136.98415399928436,36.957629997993145],[136.982411,36.952742],[136.9737420015788,36.944313001535114],[136.97374199980857,36.94431300020746],[136.9722648715688,36.945913942315286],[136.97225100028965,36.94619599980153],[136.97224399996685,36.946265000285514],[136.97222399994388,36.9464639995699],[136.97221500042815,36.94654699980018],[136.97202299966793,36.94683999982211],[136.97169799996894,36.947073999821214],[136.9712180003167,36.94737400016595],[136.9711210003401,36.94743500028102],[136.97098600040982,36.94749799958899],[136.97066399994986,36.94764900025714],[136.97023099976704,36.9477179998418],[136.97011553580387,36.94771106132247],[136.968163,36.947932],[136.96660059668523,36.94889731746651],[136.96658799994248,36.94891700027532],[136.96634699962055,36.949054000297856],[136.96634699636294,36.94905399960148],[136.96331700060222,36.948722000065985],[136.96331700018564,36.94872200027607],[136.963129999656,36.94893200006773],[136.96306500025577,36.94900499983685],[136.96303299967943,36.94905100015951],[136.962874000441,36.94927999992804],[136.96274299979584,36.94946699955836],[136.9626479999115,36.94960499962701],[136.96264399972702,36.949609999857586],[136.96248100030414,36.949797000387235],[136.96241600000462,36.94987300029471],[136.96234700041995,36.949919999764155],[136.96201933225515,36.950142346418204],[136.96093700032768,36.95132699964135],[136.96093700014865,36.951326999897105],[136.96093700003038,36.951326999966746],[136.960937,36.951327],[136.96093699995617,36.951327000010444],[136.96055999985035,36.951549000242146],[136.96053999982735,36.95156099989621],[136.96009499999047,36.951649000357065],[136.9599460003139,36.95165799987277],[136.9594580002927,36.95168800035691],[136.9594151806721,36.95168967961694],[136.958604,36.951883],[136.95675407374065,36.95313555976437],[136.95665599968086,36.95327799993573],[136.9566290002344,36.95330700037375],[136.95635700028157,36.95359500016511],[136.95634399968208,36.953608999911395],[136.95598900039826,36.95383799967992],[136.95587399959163,36.95391200039448],[136.95574800007637,36.95396700023285],[136.95540100026219,36.9541190000478],[136.95511699975594,36.95424400041627],[136.9551169995928,36.95424400055331],[136.95421919306372,36.955463941410024],[136.95418099975956,36.955546000203725],[136.95398699980643,36.95596099955647],[136.95378200024533,36.95605800043236],[136.9533979996242,36.95605800043236],[136.95286800036416,36.95596499974093],[136.9525680000194,36.95591199999478],[136.95241358429337,36.95586768912737],[136.95092968412297,36.95566131738306],[136.95084399965708,36.95566200015716],[136.95039699972799,36.95566500029551],[136.95015600030538,36.955667000387734],[136.95006699979842,36.95566800043385],[136.94918999982485,36.95557000041117],[136.9488650001259,36.95553299960423],[136.94875599959593,36.95552099995017],[136.94848100040406,36.955477999765854],[136.94844399959712,36.9554720003885],[136.94796299989875,36.95536499995077],[136.94732500015485,36.95516000038968],[136.94732497976452,36.95515999218721],[136.94167349441372,36.95297798983615],[136.9416500001536,36.95297500035196],[136.9411329996944,36.95292599989096],[136.94088499994902,36.952821999591585],[136.94078399978798,36.95278000035271],[136.94053199985814,36.95262400035331],[136.94047522585754,36.95251534600988],[136.937646,36.951423],[136.93764599970785,36.951422999746875],[136.93763200012293,36.95141600040407],[136.9376300000307,36.95141500035796],[136.9375509999849,36.95137500031199],[136.93729800000892,36.95124799985129],[136.93724200012443,36.95119300001292],[136.93710700019412,36.95106200026708],[136.93683800037962,36.950799999876075],[136.9367560001955,36.95072099983026],[136.93664799971165,36.950608000015166],[136.93650400026561,36.950459000338576],[136.93635899987416,36.95030799967043],[136.93635836021917,36.95030733700936],[136.93587900064725,36.949892000560794],[136.93587900022192,36.949892000271575],[136.93587899906746,36.94989200013468],[136.93526136481222,36.949981200051454],[136.93524399971704,36.94999200038649],[136.93495299978733,36.95017399978624],[136.93457999967347,36.95039900026963],[136.9343760001585,36.95041800024649],[136.93406300011358,36.95032100026992],[136.93367800034565,36.95024300027023],[136.93348100025418,36.95025399987817],[136.93330510023594,36.95026372751156],[136.93137308290423,36.95054275313837],[136.9310309996871,36.95063000013038],[136.9309490006432,36.9506039999071],[136.930949,36.950604],[136.930949000888,36.95060399870975],[136.93097499980263,36.950543999761756],[136.93102605867267,36.95049203728959],[136.9314059996164,36.94994000055736],[136.9314059998932,36.94993999978714],[136.93140599987632,36.9499399997067],[136.930937,36.948828],[136.93020434324214,36.948546408084916],[136.9301850002438,36.948539999976994],[136.92989300026798,36.94844300000043],[136.92967400006128,36.94837000023131],[136.92955099978502,36.9483209997703],[136.92943199969326,36.948274000300856],[136.92930199999353,36.94822299974762],[136.92925451740516,36.9481813486303],[136.92776046311502,36.94760711846824],[136.92761899972328,36.947618999773],[136.9274700000467,36.94757400039579],[136.92738999995476,36.947550000188336],[136.9272580001628,36.94741400021192],[136.92725800010354,36.9474140000398],[136.927258,36.947414],[136.927258,36.94741399973903],[136.9271739998864,36.947169999751665],[136.92714999967896,36.94690600016776],[136.927258,36.94673552917549],[136.927258,36.94396],[136.92701947759087,36.94377407514834],[136.92683699963405,36.943696999672774],[136.92636899963586,36.94356099969636],[136.9262959998667,36.943540999673374],[136.9260680001443,36.94338399962786],[136.92597999968345,36.94327199985889],[136.92596699998327,36.94325499997425],[136.92573099989195,36.9429530004366],[136.92569500003046,36.94290600006783],[136.92549099961616,36.94274099965339],[136.92527400040103,36.94256499963101],[136.92490100028715,36.942232999609224],[136.92472800040312,36.942053000301705],[136.924476975909,36.94179223096937],[136.9236327025297,36.94113413178537],[136.92362699999228,36.94113100005159],[136.92348999996975,36.94102399961387],[136.92329099978605,36.94086799961447],[136.92329000077797,36.94086700060642],[136.92329,36.940867],[136.9232899999896,36.940866999818034],[136.92328999973992,36.94086699956836],[136.92320600036285,36.94071099956896],[136.92317099964814,36.940578999776996],[136.9231389999711,36.94046099973133],[136.92300199994855,36.93995000044815],[136.92298900024838,36.93990099998714],[136.9227980004336,36.93918900042801],[136.92277999960353,36.93910300005938],[136.92276199967276,36.939013999552415],[136.9228760004333,36.938797000337274],[136.92290600001812,36.938740999553474],[136.92300199994855,36.93843599987747],[136.92312200008647,36.938058000432356],[136.92312200008647,36.93793100151097],[136.923122,36.937931],[136.9209354550226,36.93764783324324],[136.92023700014366,36.93777499997225],[136.92015099977505,36.937769999741676],[136.91988800023725,36.93775499994927],[136.9196589995694,36.9376579999727],[136.9196300000307,36.93763199967302],[136.91951099993892,36.937524000088516],[136.91943099984698,36.93745300041162],[136.91937700005474,36.93733699955886],[136.91933499991654,36.93724799995122],[136.9192749998476,36.937052999951966],[136.91927299975535,36.93703700011345],[136.91924800040113,36.9367710004373],[136.91922999957106,36.936578999677074],[136.91921799991698,36.9364590004385],[136.91921399973253,36.93641900039253],[136.9191900004244,36.93634699977021],[136.91915799984804,36.93625099983976],[136.9190989998252,36.936077999955714],[136.91904700012518,36.935925000094656],[136.91902199987163,36.93585300037165],[136.91900299989476,36.9357360003721],[136.91896199980266,36.935482000350014],[136.91895500037919,36.93540100021197],[136.91891400045506,36.9349560021978],[136.918914,36.934956],[136.91891399977857,36.934955999652],[136.9188500000337,36.9348649997759],[136.91878199959584,36.934769999891564],[136.91846899955092,36.93466300035317],[136.91838099998938,36.93453599989246],[136.91826500003594,36.93437000033123],[136.9182409998285,36.93431699968578],[136.9181569995521,36.93412399977875],[136.91810799999044,36.93400999991754],[136.91805999957555,36.93390200033303],[136.91803600026742,36.933609000311094],[136.91801200005997,36.93355899980398],[136.91796399970548,36.933462999994305],[136.91740107387267,36.933452111680324],[136.9173059998782,36.93347999975816],[136.91726699987836,36.933492000311546],[136.91703900015597,36.93357000031125],[136.9168300004104,36.93362099996516],[136.91679799983405,36.93362900033408],[136.91660599997314,36.933579999873075],[136.91649400020418,36.93349499955057],[136.91641300006611,36.93343300028871],[136.91641300021544,36.933433000004165],[136.916413,36.933433],[136.91636500008306,36.9316770030383],[136.91636499965122,36.931677000249344],[136.91636499903134,36.93167699889075],[136.915607,36.930809],[136.9121127286192,36.93006839624729],[136.9120019998986,36.930050999909696],[136.91159600006156,36.929987999702405],[136.91148899962386,36.92997099981777],[136.9114840002926,36.92996999977165],[136.9111589996943,36.92988200021012],[136.91111097899454,36.92985607744018],[136.90888990422405,36.92938532513424],[136.90888600009504,36.9293849997739],[136.90861013180717,36.92932602793626],[136.90861,36.929326],[136.90860999959145,36.929325999580996],[136.9083580000279,36.929208999751516],[136.90832800044308,36.92918799968242],[136.90782199959182,36.92882800016805],[136.90776799979957,36.92879000021432],[136.90716399982495,36.92834899966258],[136.9071310001018,36.92832400030834],[136.9069269996875,36.928174999732434],[136.90676500031074,36.92801100026344],[136.90668600026493,36.9279310001715],[136.90647000019658,36.92765800017255],[136.90639899962036,36.927523000242246],[136.90633800040462,36.92740400015047],[136.90613299994422,36.927179999713196],[136.90612799971365,36.9271659999669],[136.90610400040552,36.92710599989796],[136.9061020003133,36.92710099966738],[136.9061249995753,36.92682100024494],[136.90612796969214,36.926780534072314],[136.905832,36.926477],[136.90502694354413,36.9267897878922],[136.90501200040973,36.926805000406425],[136.90497899978723,36.92683800012958],[136.90475100006483,36.926897000152415],[136.90475099877395,36.92689699977388],[136.9017664955613,36.92634658930658],[136.9015879998925,36.92633100013153],[136.90153300005414,36.92631899957815],[136.90133700000877,36.92627400020093],[136.90115599975582,36.92623400015496],[136.9011559975139,36.92623399855339],[136.898054,36.924429],[136.895577,36.924721],[136.8955769999537,36.92472099958076],[136.895576999685,36.92472099963041],[136.8955769998752,36.92472099886982],[136.895396,36.923082],[136.893232,36.920751],[136.892644,36.918667],[136.8906049669132,36.917963954606506],[136.89052300044233,36.917957999817816],[136.8899969995681,36.9177930003027],[136.88982834822312,36.91769618151538],[136.887583,36.916922],[136.88758528686267,36.91687644754341],[136.8875720001539,36.91685200007572],[136.8874869998314,36.91670000026078],[136.8874780003157,36.91668400042226],[136.88754399976202,36.91637999989306],[136.88757100010778,36.91625100023945],[136.8876140002921,36.915962000401976],[136.8876335813008,36.91591446136212],[136.887682,36.91495],[136.88588980821172,36.91391764782081],[136.88587500013736,36.91391100024845],[136.88566302502102,36.9137870144128],[136.885663,36.913787],[136.883583,36.914381],[136.878802,36.913148],[136.877058,36.914404],[136.876549,36.915598],[136.877388,36.920215],[136.876994,36.921537],[136.874815,36.924382],[136.873506,36.927926],[136.870595,36.929416],[136.869057,36.93155],[136.866858,36.932365],[136.867047,36.934226],[136.86618748699084,36.935232179194706],[136.86758300016155,36.93581100023345],[136.86844000011214,36.936244000416266],[136.86916500027075,36.93671799979184],[136.8703649998511,36.937271000112545],[136.87191300019103,36.9377420002491],[136.87304200009444,36.93789900029461],[136.87382800036815,36.937950999994634],[136.8741800004129,36.937983999717794],[136.87439899972028,36.938028999994344],[136.8745820000655,36.93811300027073],[136.87496199960282,36.93831100040832],[136.87550400031557,36.93868100038384],[136.87673699961906,36.93963200017265],[136.87769699982292,36.94030599977805],[136.87901100016376,36.94110099956745],[136.87955700016164,36.94152600028067],[136.87990500002195,36.94187900037156],[136.88020799960572,36.94239800002366],[136.88035299999717,36.94288099981427],[136.8804330000891,36.943170999697855],[136.8807650001109,36.94340899988142],[136.88184100026817,36.94434299978559],[136.88251499987356,36.94500000040567],[136.8829860000101,36.945429000404026],[136.88340799968566,36.94587899957215],[136.88403699991383,36.946364000354315],[136.8849050003717,36.946709000076275],[136.88567399986144,36.94697799989076],[136.8870759997638,36.94740199965854],[136.88763799960023,36.94760700011894],[136.8880679996447,36.947881000164],[136.88877499987257,36.948588000391894],[136.88930399998583,36.949198999789985],[136.88974399959213,36.94987100020248],[136.89019399965957,36.95044699978519],[136.89083300034892,36.95086300008337],[136.8915910002307,36.951171999943824],[136.8919600001601,36.95128299966669],[136.89216799985954,36.951396000381095],[136.89241799969716,36.95165399968832],[136.8925640001347,36.95181399987217],[136.89288599969535,36.95200299959474],[136.89366399960014,36.95202899989441],[136.89403200038274,36.951981000378844],[136.89438000024305,36.95187700007947],[136.8946979996192,36.95187399994113],[136.8948240000338,36.95192599964115],[136.89497799994098,36.952046999825164],[136.89513399994036,36.95234400003156],[136.89525900030884,36.9525529997771],[136.89554299991573,36.952761000375844],[136.8957309995922,36.95276999989156],[136.8958230002375,36.95277500012214],[136.89601900028285,36.952736000122286],[136.89616399977498,36.952703000399126],[136.89620800000543,36.95262899968457],[136.8962419997747,36.952488000376896],[136.89625999970545,36.952267000077974],[136.89627899968232,36.9521130001708],[136.89632099982052,36.951983999617866],[136.89638800021226,36.95191600007932],[136.8964409999584,36.95189600005634],[136.89661599993468,36.95183800007962],[136.89678200039523,36.95178100014902],[136.89702499991003,36.951696999872624],[136.89722900032433,36.95160800026498],[136.89747900016195,36.951512000334525],[136.89764499972318,36.95143000015037],[136.89793200036775,36.95130299968967],[136.89818200020537,36.95121900031259],[136.8984330000891,36.95116599966713],[136.89859200022684,36.95114499959804],[136.89879899988017,36.95114200035901],[136.89899099974107,36.951182000404984],[136.89923700029354,36.95124499971295],[136.89942199983165,36.95133800040438],[136.8995609999464,36.95149499955057],[136.89961999996925,36.95165199959608],[136.89951399957764,36.95191800017155],[136.89942900015447,36.952199999686215],[136.89954800024623,36.952356999731734],[136.89998199957583,36.95249199966204],[136.9005040002656,36.95253799998469],[136.90106800019427,36.95260100019199],[136.9014889998237,36.95246500021557],[136.90185100032963,36.95226299989351],[136.90210700044395,36.95200599973308],[136.90236199961282,36.95169299968816],[136.90267100037258,36.95143500038094],[136.90292999972593,36.9513049997819],[136.90333000018558,36.95118599969011],[136.90380100032212,36.951136000082315],[136.90434300013558,36.951113999967106],[136.9046420004342,36.951164999621014],[136.9049260000411,36.95134299973563],[136.90523299980933,36.951703000149315],[136.90541700020063,36.95187399994113],[136.90563200022285,36.952080999594436],[136.90599900006004,36.95223799963995],[136.90613900022092,36.952328000193035],[136.90619800024373,36.952486000284665],[136.90631000001272,36.95274799977635],[136.90655399957365,36.952956000375096],[136.90663999994226,36.953173999636356],[136.90664800031118,36.95349600009631],[136.90670900042625,36.953832000302555],[136.90685199982616,36.9539700003712],[136.90706599980228,36.95409299974812],[136.9073999999163,36.954171999793935],[136.90764999975391,36.95410200016316],[136.9080330003289,36.95430799977035],[136.9086960003264,36.95436999993153],[136.90882700007222,36.95455600041507],[136.90888299995672,36.95468199993033],[136.90902900039427,36.95490400027537],[136.90905499979462,36.955239999582304],[136.9091149998636,36.95556200004225],[136.9093309999319,36.95578300034117],[136.90968500006892,36.95593200001777],[136.9099669995836,36.956012000109695],[136.9105620000425,36.956396999877626],[136.91082799971863,36.956761999622564],[136.91107899960238,36.957010000267275],[136.91136200006247,36.95713199959808],[136.91167800024573,36.95718300015132],[136.9122410001283,36.95728600040457],[136.9127670001032,36.95733399992014],[136.9131869996865,36.95732699959734],[136.91358700014615,36.9573380001046],[136.91371199961532,36.957362000312045],[136.91411700030554,36.95747400008102],[136.91443000035045,36.95759800040337],[136.91467600000362,36.957710000172355],[136.91492499979512,36.957980000032954],[136.91507500041715,36.95856199989236],[136.91513999981737,36.959015000098155],[136.9151989998402,36.95956200014217],[136.91514099986347,36.95995999961027],[136.9151850000939,36.96009599958669],[136.91528900039327,36.96040400030035],[136.91543700002376,36.960543000415115],[136.91566599979228,36.96069400018394],[136.91592500004495,36.96077999965324],[136.9162489996978,36.96089000022931],[136.91641200002002,36.96100400009051],[136.91651300018103,36.96118200020513],[136.916696999673,36.961487999927236],[136.91696200020237,36.96180600020273],[136.9172889999936,36.962020000178846],[136.9175959997618,36.96209199990186],[136.91791700017563,36.96210000027077],[136.9182559996209,36.96218399964784],[136.91864799971165,36.962265999832006],[136.91897799964119,36.96220899990141],[136.91911699975594,36.962206999809176],[136.91927799998592,36.96222299964769],[136.91937700005474,36.96237999969321],[136.91941399996236,36.962519999854095],[136.9193760000086,36.96269599987647],[136.91945600010055,36.9628679997144],[136.91973300028397,36.96300799987527],[136.92017399993637,36.96303800035941],[136.92058199986562,36.96296199955262],[136.92099199988712,36.9629039995759],[136.9212310001168,36.96290000029076],[136.9214510003696,36.962915000083164],[136.9215789999771,36.96298399966783],[136.92160300018455,36.96317699957485],[136.92169499993054,36.96344000001197],[136.9220049998371,36.96354100017301],[136.92248400034256,36.96355199978095],[136.9229490002024,36.963457999942726],[136.92336000027,36.963399999966015],[136.9236569995771,36.96339599978155],[136.9237789998072,36.963411999620064],[136.92384700024508,36.963482000150165],[136.9238709995532,36.96367500005719],[136.9239189999681,36.9639029997796],[136.92409700008272,36.964058999779],[136.92422000035896,36.96409200040148],[136.9243019996438,36.964109000286115],[136.92431300015105,36.964196999847644],[136.9242879998975,36.96432000012389],[136.92424799985153,36.96447900026163],[136.92428499975915,36.964619000422516],[136.92449000021955,36.964669000030305],[136.92471099961915,36.96468399982271],[136.92498000033297,36.964768000099106],[136.92505200005598,36.96487300044459],[136.9249259996414,36.964979999982994],[136.92469000044937,36.96500100005209],[136.92436799998944,36.96497000042116],[136.92402400031358,36.964922000006275],[136.92382199999153,36.96488900028312],[136.9236429998308,36.964891000375346],[136.9234730000851,36.96496400014447],[136.92339299999318,36.96512300028222],[136.92341099992393,36.96526399958989],[136.9236290000845,36.965419000442495],[136.92374299994572,36.9655409997733],[136.9236429998308,36.96569999991105],[136.92318000006318,36.96581199968002],[136.92276299971888,36.96597600004834],[136.92254200031928,36.96612000039369],[136.9224650003657,36.966296000416065],[136.92267600020347,36.96639899977],[136.9231240001787,36.96632299986254],[136.92363799960023,36.96614000041667],[136.92386500017585,36.96604899981747],[136.9241170001057,36.96599299993298],[136.9243019996438,36.9660439995869],[136.92444099975856,36.966199999586294],[136.92453300040387,36.96646300002341],[136.92476400026462,36.96656500023056],[136.92521400033206,36.966702000253086],[136.92560200023834,36.966866999768214],[136.92611399956766,36.96689300006788],[136.9267340002801,36.966934000159966],[136.92746199967777,36.967076000413066],[136.92769999986132,36.967226000135774],[136.92779499974566,36.96758399955792],[136.92759400036906,36.96806500015561],[136.9265770002346,36.96915900024365],[136.9259540002831,36.969818000056634],[136.9257909999609,36.97012900000932],[136.92571600009956,36.97054000007692],[136.92582899991464,36.97079500014512],[136.92628300016653,36.9709009996374],[136.92681500041815,36.97070000026079],[136.92762199986163,36.970477999915744],[136.92824899999758,36.97024199982441],[136.92842399997383,36.970045999779046],[136.92870000011115,36.9702900002393],[136.92908900006353,36.970488000376896],[136.9296040004305,36.970633999915144],[136.93005499964474,36.97078000035271],[136.93042000028902,36.970860000444645],[136.93094900040228,36.970697000122435],[136.93162700019212,36.97053299975411],[136.9320709999829,36.970389000308096],[136.93245299961245,36.97033100033138],[136.93292099961067,36.97030600007782],[136.9334970000927,36.97029699966279],[136.93398900029834,36.97037399961637],[136.93426799967466,36.97045499975442],[136.9346300001806,36.97043199959309],[136.93484100001837,36.97034400003156],[136.93527000001671,36.97014499984785],[136.93533200017788,36.96988000021781],[136.93549999983134,36.96959000033423],[136.93572700040696,36.96956299998844],[136.93594299957599,36.96955999985009],[136.93618299985178,36.96964099998814],[136.93639399968956,36.96969799991874],[136.9366430003804,36.96974300019528],[136.9368999996415,36.96973900001082],[136.9372620001474,36.969710999618925],[136.93753400010024,36.96971899998784],[136.93775899968432,36.9697879995725],[136.93793199956835,36.96986999975666],[136.93804000005218,36.97008399973278],[136.93808799956776,36.97025100023945],[136.93875299965742,36.97002100042481],[136.9387359997728,36.96976899959564],[136.93886700041796,36.96929999955132],[136.9389849995643,36.96915500005918],[136.9391829997019,36.96911600005934],[136.9393530003469,36.969174000036055],[136.9395739997465,36.96931500024304],[136.93972500041465,36.969552000380496],[136.93982499963025,36.9698149999183],[136.94008099974457,36.96967799989576],[136.94037699990486,36.96958700019589],[136.94065400008824,36.96956600012678],[136.94114300015556,36.96952399998859],[136.9419959999217,36.96952700012693],[136.9421249995753,36.96955899980398],[136.94242099973556,36.96948600003486],[136.94256800021927,36.969397999574],[136.9429269996875,36.96923800028946],[136.94319999968647,36.969080000197835],[136.94358100016925,36.96897099966788],[136.94402600000612,36.96889499976041],[136.94457900032683,36.96883499969146],[136.94517599997863,36.968825000129634],[136.9458600000452,36.96888200006023],[136.94626699992833,36.96899499987532],[136.9466969999728,36.96912499957506],[136.94697700029454,36.96924000038169],[136.94723499960176,36.969320999620415],[136.94779300015307,36.96946600001188],[136.94830999971293,36.96966300010335],[136.94895699987188,36.96997700019438],[136.94941100012377,36.970209000101256],[136.94975499979964,36.97030600007782],[136.95013800037464,36.970298999755016],[136.950497999889,36.9701910001705],[136.95107000018658,36.97006199961757],[136.95166599979228,36.97000100040183],[136.95215499985957,36.96995800021752],[136.9526880001573,36.96996699973323],[136.95305199985614,36.970012000009774],[136.95339500038517,36.97010899998634],[136.9536529996924,36.97019000012438],[136.95414399985194,36.970198999640104],[136.95488299975685,36.970135000286014],[136.9555869998464,36.97015800044734],[136.95612100019022,36.970199999686216],[136.95650499991203,36.97022800007812],[136.95692999972593,36.970170000101405],[136.9572669999783,36.970010999963655],[136.95745399960862,36.96980200021812],[136.9574019999086,36.969443999896654],[136.95709600018648,36.969176000128286],[136.9568060003029,36.968668000084115],[136.9567359997728,36.968429999900565],[136.9566870002111,36.96817399978624],[136.9568280004181,36.96786399987967],[136.95718499979412,36.96763600015727],[136.9574379997701,36.96752899971954],[136.95771199981516,36.967422000181145],[136.95800799997545,36.96731499974342],[136.9583889995589,36.96718900022816],[136.95857700013468,36.96706599995191],[136.9589130003409,36.96683800022951],[136.95939199994706,36.966419999839104],[136.9596429998308,36.96621100009356],[136.95985199957633,36.96605400004805],[136.96008300033643,36.965946999610324],[136.96033800040462,36.96590899965659],[136.96053100031165,36.965923000302205],[136.96065399968856,36.96618199965555],[136.96035600033537,36.96669099974582],[136.96020799980556,36.96697600029816],[136.96011500001347,36.967170000251286],[136.95996600033686,36.96740899958164],[136.95992999957605,36.9676810004338],[136.95994100008332,36.96808700027083],[136.95995099964514,36.96847099999263],[136.9600460004288,36.96889899994487],[136.96006599955246,36.969136000082315],[136.96007299987528,36.96938399982771],[136.9599810001293,36.96965699982666],[136.9596560004303,36.97015899959413],[136.9595649998311,36.97046500021557],[136.95946100043105,36.97080599975307],[136.9594020004082,36.97114400005154],[136.95936699969351,36.97142699961232],[136.9594160001545,36.97169700037225],[136.95950699985437,36.971955999725594],[136.95952599983124,36.97212500032448],[136.9596140002921,36.97225900020867],[136.9596989997153,36.9722689997705],[136.9600339998754,36.97217299984005],[136.96038325786338,36.97206003013319],[136.960964,36.971731],[136.970092,36.972349],[136.97051418374755,36.972643132807356],[136.9708080002952,36.9727719995841],[136.971870999853,36.97356800031894],[136.97191321752607,36.97361783099324],[136.97606624187551,36.97651121738718],[136.97654073894003,36.976545590665324],[136.97922,36.974185],[136.981024,36.97009],[136.985877,36.96516],[136.98419226116633,36.9635816354613],[136.98419099962115,36.963581000218966]]]}},{"type":"Feature","properties":{"layer_id":"scenic_nature_areas","name":"鹿島町","category":"nature","source":"国土交通省 国土数値情報","municipality_code":"17407","municipality_pref":"石川県","municipality_name":"中能登町","municipality_code_method":"nearest_centroid"},"geometry":{"type":"Polygon","coordinates":[[[136.984191,36.963581000000005],[136.98416400000008,36.96355599999998],[136.98411900000696,36.96351300000651],[136.984119,36.963513],[136.984119,36.963512999999374],[136.98409399999997,36.96337600000001],[136.98405800000003,36.963025000000016],[136.98406600000007,36.962953000000006],[136.98408700000002,36.96277300000004],[136.98412537777193,36.96244098764763],[136.98412983929657,36.96169106909083],[136.98412500000006,36.96163500000003],[136.98407100000003,36.96103700000002],[136.98407000000003,36.961025],[136.98413446111488,36.960914207458906],[136.9841366658063,36.960543630330015],[136.9836400000001,36.96066800000004],[136.98293100000004,36.96106999999999],[136.982426,36.96136299999999],[136.982188,36.961434999999994],[136.98190700000004,36.96146200000001],[136.98177100000007,36.961080000000024],[136.98149899999996,36.960734999999985],[136.98119000000005,36.96062700000002],[136.98088099999998,36.960688000000005],[136.980217,36.96077100000004],[136.97942000000006,36.960968999999984],[136.979004,36.961179000000044],[136.97847000000007,36.96146599999999],[136.97833700000007,36.961244],[136.97813200000007,36.96111699999997],[136.977676,36.96084300000004],[136.97738900000004,36.960734999999985],[136.97679500000004,36.96087400000003],[136.97628500000002,36.961252000000044],[136.97567799999996,36.96185700000001],[136.975465,36.96213699999999],[136.97517200000004,36.96220999999999],[136.97452300000006,36.96218700000004],[136.97392400000007,36.96219799999997],[136.97330100000002,36.96236300000004],[136.97298800000007,36.962432000000064],[136.97265200000007,36.96243600000004],[136.972341,36.962391000000046],[136.97192900000002,36.96224700000003],[136.97162500000002,36.962059000000025],[136.97124499999993,36.961915000000005],[136.970427,36.96173400000004],[136.97008699999992,36.96168800000005],[136.96979300000004,36.96171299999999],[136.96953000000002,36.961801999999985],[136.96935600000003,36.961954000000034],[136.969242,36.962133000000016],[136.96915000000004,36.962234000000024],[136.968846,36.96244700000006],[136.96861800000008,36.96249100000006],[136.96848600000007,36.96255500000002],[136.96836000000005,36.962670000000045],[136.96831400000005,36.962867],[136.96828100000008,36.96316700000004],[136.96808400000003,36.96336599999998],[136.967867,36.963493000000014],[136.96754800000008,36.96355900000005],[136.96710100000004,36.963626999999995],[136.96675399999995,36.963652000000025],[136.96629999999993,36.96347300000005],[136.96612,36.96334200000004],[136.96574100000007,36.96320100000001],[136.96560499999998,36.96314100000002],[136.965369,36.96329],[136.96523100000005,36.963448000000014],[136.96511800000002,36.96357400000005],[136.964995,36.96379300000005],[136.96486200000007,36.96413600000001],[136.964742,36.964479000000054],[136.96463100000005,36.96467700000001],[136.96451800000003,36.964793000000014],[136.964288,36.964879000000025],[136.96398100000002,36.96494600000006],[136.96356899999995,36.96499500000003],[136.96313200000003,36.96503299999998],[136.96267100000006,36.965132999999994],[136.96226200000007,36.96528500000005],[136.961906,36.96545599999999],[136.96163900000002,36.96561599999998],[136.96142500000008,36.96582600000004],[136.961261,36.96596300000001],[136.96108400000003,36.96609000000004],[136.96099500000003,36.96612200000002],[136.96065400000006,36.96618200000001],[136.96035600000002,36.966691000000026],[136.96020800000002,36.96697599999998],[136.96011500000006,36.967170000000046],[136.95996600000007,36.96740900000002],[136.95993,36.967681000000056],[136.95994100000004,36.96808699999998],[136.95995100000007,36.96847100000005],[136.96004600000003,36.96889900000002],[136.96006599999998,36.969136],[136.96007300000005,36.969384000000005],[136.95998100000008,36.969657000000026],[136.959656,36.970158999999995],[136.95956500000003,36.970465000000004],[136.95946100000003,36.970805999999975],[136.95940200000004,36.97114400000005],[136.95936700000007,36.97142700000002],[136.95941600000003,36.97169699999998],[136.95950699999992,36.971956000000006],[136.9595260000001,36.97212500000004],[136.95961400000007,36.97225900000002],[136.95969900000009,36.972269000000054],[136.960034,36.97217300000001],[136.96038325770124,36.97206003022506],[136.960964,36.971731],[136.970092,36.972349],[136.97051418535648,36.97264313392828],[136.970808,36.97277200000002],[136.97187100000002,36.97356799999997],[136.9719132184994,36.97361783167136],[136.97606624209098,36.976511217537286],[136.9765407390742,36.97654559054709],[136.97922,36.974185],[136.981024,36.97009],[136.985877,36.96516],[136.98419226022958,36.96358163458369],[136.984191,36.963581000000005]]]}},{"type":"Feature","properties":{"layer_id":"cultural_facilities","name":"中能登町立鹿西図書館","category":"public","address":"能登部下134部1","source":"国土交通省 国土数値情報","municipality_code":"17407","municipality_pref":"石川県","municipality_name":"中能登町","municipality_code_method":"nearest_centroid"},"geometry":{"type":"Point","coordinates":[136.867153,36.956621]}},{"type":"Feature","properties":{"layer_id":"cultural_facilities","name":"中能登町農村環境改善センター","category":"public","address":"福田フ部111-1","source":"国土交通省 国土数値情報","municipality_code":"17407","municipality_pref":"石川県","municipality_name":"中能登町","municipality_code_method":"nearest_centroid"},"geometry":{"type":"Point","coordinates":[136.869873,36.942141]}},{"type":"Feature","properties":{"layer_id":"cultural_facilities","name":"中能登町鹿島運動場","category":"public","address":"井田ろ部1","source":"国土交通省 国土数値情報","municipality_code":"17407","municipality_pref":"石川県","municipality_name":"中能登町","municipality_code_method":"nearest_centroid"},"geometry":{"type":"Point","coordinates":[136.91632,36.967265]}},{"type":"Feature","properties":{"layer_id":"cultural_facilities","name":"中能登町鹿島北部体育センター","category":"public","address":"在江る部7","source":"国土交通省 国土数値情報","municipality_code":"17407","municipality_pref":"石川県","municipality_name":"中能登町","municipality_code_method":"nearest_centroid"},"geometry":{"type":"Point","coordinates":[136.921529,37.000102]}},{"type":"Feature","properties":{"layer_id":"cultural_facilities","name":"中能登町二宮あおば台テニスコート","category":"public","address":"二宮あおば台80-3","source":"国土交通省 国土数値情報","municipality_code":"17407","municipality_pref":"石川県","municipality_name":"中能登町","municipality_code_method":"nearest_centroid"},"geometry":{"type":"Point","coordinates":[136.919705,36.984056]}},{"type":"Feature","properties":{"layer_id":"cultural_facilities","name":"ゆうあいパーク","category":"public","address":"能登部下76","source":"国土交通省 国土数値情報","municipality_code":"17407","municipality_pref":"石川県","municipality_name":"中能登町","municipality_code_method":"nearest_centroid"},"geometry":{"type":"Point","coordinates":[136.862474,36.958434]}},{"type":"Feature","properties":{"layer_id":"cultural_facilities","name":"中能登町鹿島体育センター体育館","category":"public","address":"井田い部34","source":"国土交通省 国土数値情報","municipality_code":"17407","municipality_pref":"石川県","municipality_name":"中能登町","municipality_code_method":"nearest_centroid"},"geometry":{"type":"Point","coordinates":[136.916625,36.966412]}},{"type":"Feature","properties":{"layer_id":"cultural_facilities","name":"碁石ヶ峰キャンプ場","category":"public","address":"高畠原山","source":"国土交通省 国土数値情報","municipality_code":"17407","municipality_pref":"石川県","municipality_name":"中能登町","municipality_code_method":"nearest_centroid"},"geometry":{"type":"Point","coordinates":[136.885589,36.914012]}},{"type":"Feature","properties":{"layer_id":"cultural_facilities","name":"中能登町鹿島体育センター体育館","category":"public","address":"井田い部34","source":"国土交通省 国土数値情報","municipality_code":"17407","municipality_pref":"石川県","municipality_name":"中能登町","municipality_code_method":"nearest_centroid"},"geometry":{"type":"Point","coordinates":[136.916578,36.966317]}},{"type":"Feature","properties":{"layer_id":"cultural_facilities","name":"スポーツセンターろくせい","category":"public","address":"能登部下134-17","source":"国土交通省 国土数値情報","municipality_code":"17407","municipality_pref":"石川県","municipality_name":"中能登町","municipality_code_method":"nearest_centroid"},"geometry":{"type":"Point","coordinates":[136.866523,36.956668]}},{"type":"Feature","properties":{"layer_id":"cultural_facilities","name":"中能登町鳥屋緑の健康広場","category":"public","address":"春木13-21-1","source":"国土交通省 国土数値情報","municipality_code":"17407","municipality_pref":"石川県","municipality_name":"中能登町","municipality_code_method":"nearest_centroid"},"geometry":{"type":"Point","coordinates":[136.901542,36.99857]}},{"type":"Feature","properties":{"layer_id":"cultural_facilities","name":"健康ハウス憩","category":"public","address":"金丸143","source":"国土交通省 国土数値情報","municipality_code":"17407","municipality_pref":"石川県","municipality_name":"中能登町","municipality_code_method":"nearest_centroid"},"geometry":{"type":"Point","coordinates":[136.855494,36.954273]}},{"type":"Feature","properties":{"layer_id":"cultural_facilities","name":"中能登町立鳥屋図書館","category":"public","address":"一青こ部19-1","source":"国土交通省 国土数値情報","municipality_code":"17407","municipality_pref":"石川県","municipality_name":"中能登町","municipality_code_method":"nearest_centroid"},"geometry":{"type":"Point","coordinates":[136.897641,36.98795]}},{"type":"Feature","properties":{"layer_id":"cultural_facilities","name":"中能登町鳥屋体育館","category":"public","address":"一青くー22","source":"国土交通省 国土数値情報","municipality_code":"17407","municipality_pref":"石川県","municipality_name":"中能登町","municipality_code_method":"nearest_centroid"},"geometry":{"type":"Point","coordinates":[136.899186,36.988664]}},{"type":"Feature","properties":{"layer_id":"cultural_facilities","name":"中能登町久江体育センター","category":"public","address":"久江ホ部14-2","source":"国土交通省 国土数値情報","municipality_code":"17407","municipality_pref":"石川県","municipality_name":"中能登町","municipality_code_method":"nearest_centroid"},"geometry":{"type":"Point","coordinates":[136.888927,36.947412]}},{"type":"Feature","properties":{"layer_id":"cultural_facilities","name":"中能登町鹿西武道館","category":"public","address":"能登部下90-57-2","source":"国土交通省 国土数値情報","municipality_code":"17407","municipality_pref":"石川県","municipality_name":"中能登町","municipality_code_method":"nearest_centroid"},"geometry":{"type":"Point","coordinates":[136.866083,36.961487]}},{"type":"Feature","properties":{"layer_id":"cultural_facilities","name":"スポーツセンターろくせい","category":"public","address":"能登部下134-17","source":"国土交通省 国土数値情報","municipality_code":"17407","municipality_pref":"石川県","municipality_name":"中能登町","municipality_code_method":"nearest_centroid"},"geometry":{"type":"Point","coordinates":[136.866559,36.955367]}},{"type":"Feature","properties":{"layer_id":"cultural_facilities","name":"中能登町励志館","category":"public","address":"能登部下93-2","source":"国土交通省 国土数値情報","municipality_code":"17407","municipality_pref":"石川県","municipality_name":"中能登町","municipality_code_method":"nearest_centroid"},"geometry":{"type":"Point","coordinates":[136.868326,36.962121]}},{"type":"Feature","properties":{"layer_id":"cultural_facilities","name":"中能登町鹿島体育センター体育館","category":"public","address":"井田い部34","source":"国土交通省 国土数値情報","municipality_code":"17407","municipality_pref":"石川県","municipality_name":"中能登町","municipality_code_method":"nearest_centroid"},"geometry":{"type":"Point","coordinates":[136.916899,36.965795]}},{"type":"Feature","properties":{"layer_id":"cultural_facilities","name":"中能登町鳥屋武道館","category":"public","address":"一青く-5-8","source":"国土交通省 国土数値情報","municipality_code":"17407","municipality_pref":"石川県","municipality_name":"中能登町","municipality_code_method":"nearest_centroid"},"geometry":{"type":"Point","coordinates":[136.896865,36.987991]}},{"type":"Feature","properties":{"layer_id":"cultural_facilities","name":"石動山資料館","category":"public","address":"石動山ラ部1-2","source":"国土交通省 国土数値情報","municipality_code":"17407","municipality_pref":"石川県","municipality_name":"中能登町","municipality_code_method":"nearest_centroid"},"geometry":{"type":"Point","coordinates":[136.974478,36.961919]}},{"type":"Feature","properties":{"layer_id":"cultural_facilities","name":"中能登町鹿島体育センター体育館","category":"public","address":"井田い部34","source":"国土交通省 国土数値情報","municipality_code":"17407","municipality_pref":"石川県","municipality_name":"中能登町","municipality_code_method":"nearest_centroid"},"geometry":{"type":"Point","coordinates":[136.91722,36.96608]}},{"type":"Feature","properties":{"layer_id":"cultural_facilities","name":"中能登町鹿西武道館","category":"public","address":"能登部下90-57-2","source":"国土交通省 国土数値情報","municipality_code":"17407","municipality_pref":"石川県","municipality_name":"中能登町","municipality_code_method":"nearest_centroid"},"geometry":{"type":"Point","coordinates":[136.866095,36.961402]}},{"type":"Feature","properties":{"layer_id":"cultural_facilities","name":"中能登町かしまテニスコート","category":"public","address":"芹川20部9-6","source":"国土交通省 国土数値情報","municipality_code":"17407","municipality_pref":"石川県","municipality_name":"中能登町","municipality_code_method":"nearest_centroid"},"geometry":{"type":"Point","coordinates":[136.919775,36.963009]}},{"type":"Feature","properties":{"layer_id":"cultural_facilities","name":"中能登町鹿島水泳プール","category":"public","address":"芹川へ部60","source":"国土交通省 国土数値情報","municipality_code":"17407","municipality_pref":"石川県","municipality_name":"中能登町","municipality_code_method":"nearest_centroid"},"geometry":{"type":"Point","coordinates":[136.920373,36.963858]}},{"type":"Feature","properties":{"layer_id":"cultural_facilities","name":"中能登町鹿島体育センター体育館","category":"public","address":"井田い部34","source":"国土交通省 国土数値情報","municipality_code":"17407","municipality_pref":"石川県","municipality_name":"中能登町","municipality_code_method":"nearest_centroid"},"geometry":{"type":"Point","coordinates":[136.916507,36.96646]}},{"type":"Feature","properties":{"layer_id":"cultural_facilities","name":"中能登町野球場","category":"public","address":"東馬場ソ11","source":"国土交通省 国土数値情報","municipality_code":"17407","municipality_pref":"石川県","municipality_name":"中能登町","municipality_code_method":"nearest_centroid"},"geometry":{"type":"Point","coordinates":[136.890103,36.970494]}},{"type":"Feature","properties":{"layer_id":"cultural_facilities","name":"すぱーく鹿島","category":"public","address":"井田2部121-1","source":"国土交通省 国土数値情報","municipality_code":"17407","municipality_pref":"石川県","municipality_name":"中能登町","municipality_code_method":"nearest_centroid"},"geometry":{"type":"Point","coordinates":[136.917956,36.963886]}},{"type":"Feature","properties":{"layer_id":"cultural_facilities","name":"スポーツセンターろくせい","category":"public","address":"能登部下134-17","source":"国土交通省 国土数値情報","municipality_code":"17407","municipality_pref":"石川県","municipality_name":"中能登町","municipality_code_method":"nearest_centroid"},"geometry":{"type":"Point","coordinates":[136.866107,36.95513]}},{"type":"Feature","properties":{"layer_id":"cultural_facilities","name":"中能登町鳥屋トレーニングセンター","category":"public","address":"一青くー49","source":"国土交通省 国土数値情報","municipality_code":"17407","municipality_pref":"石川県","municipality_name":"中能登町","municipality_code_method":"nearest_centroid"},"geometry":{"type":"Point","coordinates":[136.899111,36.988684]}},{"type":"Feature","properties":{"layer_id":"cultural_facilities","name":"中能登町鳥屋相撲場","category":"public","address":"一青テ18","source":"国土交通省 国土数値情報","municipality_code":"17407","municipality_pref":"石川県","municipality_name":"中能登町","municipality_code_method":"nearest_centroid"},"geometry":{"type":"Point","coordinates":[136.896996,36.989681]}},{"type":"Feature","properties":{"layer_id":"cultural_facilities","name":"スポーツセンターろくせい","category":"public","address":"能登部下134-17","source":"国土交通省 国土数値情報","municipality_code":"17407","municipality_pref":"石川県","municipality_name":"中能登町","municipality_code_method":"nearest_centroid"},"geometry":{"type":"Point","coordinates":[136.866166,36.955984]}},{"type":"Feature","properties":{"layer_id":"cultural_facilities","name":"中能登町鹿島体育センター体育館","category":"public","address":"井田い部34","source":"国土交通省 国土数値情報","municipality_code":"17407","municipality_pref":"石川県","municipality_name":"中能登町","municipality_code_method":"nearest_centroid"},"geometry":{"type":"Point","coordinates":[136.916507,36.966232]}},{"type":"Feature","properties":{"layer_id":"cultural_facilities","name":"アッピー鹿西（カルチャーセンター飛翔）","category":"public","address":"能登部下134-1","source":"国土交通省 国土数値情報","municipality_code":"17407","municipality_pref":"石川県","municipality_name":"中能登町","municipality_code_method":"nearest_centroid"},"geometry":{"type":"Point","coordinates":[136.865008,36.955451]}},{"type":"Feature","properties":{"layer_id":"cultural_facilities","name":"中能登町鳥屋武道館","category":"public","address":"一青く-5-8","source":"国土交通省 国土数値情報","municipality_code":"17407","municipality_pref":"石川県","municipality_name":"中能登町","municipality_code_method":"nearest_centroid"},"geometry":{"type":"Point","coordinates":[136.897186,36.987887]}},{"type":"Feature","properties":{"layer_id":"cultural_facilities","name":"スポーツセンターろくせい","category":"public","address":"能登部下134-17","source":"国土交通省 国土数値情報","municipality_code":"17407","municipality_pref":"石川県","municipality_name":"中能登町","municipality_code_method":"nearest_centroid"},"geometry":{"type":"Point","coordinates":[136.866618,36.956364]}},{"type":"Feature","properties":{"layer_id":"cultural_facilities","name":"中能登町鳥屋武道館","category":"public","address":"一青く-5-8","source":"国土交通省 国土数値情報","municipality_code":"17407","municipality_pref":"石川県","municipality_name":"中能登町","municipality_code_method":"nearest_centroid"},"geometry":{"type":"Point","coordinates":[136.897221,36.988247]}},{"type":"Feature","properties":{"layer_id":"cultural_facilities","name":"中能登町鳥屋テニスコート","category":"public","address":"一青く部49","source":"国土交通省 国土数値情報","municipality_code":"17407","municipality_pref":"石川県","municipality_name":"中能登町","municipality_code_method":"nearest_centroid"},"geometry":{"type":"Point","coordinates":[136.898221,36.988671]}},{"type":"Feature","properties":{"layer_id":"cultural_facilities","name":"中能登町立鹿島図書館","category":"public","address":"井田に50","source":"国土交通省 国土数値情報","municipality_code":"17407","municipality_pref":"石川県","municipality_name":"中能登町","municipality_code_method":"nearest_centroid"},"geometry":{"type":"Point","coordinates":[136.910918,36.968675]}},{"type":"Feature","properties":{"layer_id":"cultural_facilities","name":"スポーツセンターろくせい","category":"public","address":"能登部下134-17","source":"国土交通省 国土数値情報","municipality_code":"17407","municipality_pref":"石川県","municipality_name":"中能登町","municipality_code_method":"nearest_centroid"},"geometry":{"type":"Point","coordinates":[136.86701,36.956839]}},{"type":"Feature","properties":{"layer_id":"cultural_facilities","name":"中能登町鹿島体育センター体育館","category":"public","address":"井田い部34","source":"国土交通省 国土数値情報","municipality_code":"17407","municipality_pref":"石川県","municipality_name":"中能登町","municipality_code_method":"nearest_centroid"},"geometry":{"type":"Point","coordinates":[136.916435,36.966118]}},{"type":"Feature","properties":{"layer_id":"cultural_facilities","name":"スポーツセンターろくせい","category":"public","address":"能登部下134-17","source":"国土交通省 国土数値情報","municipality_code":"17407","municipality_pref":"石川県","municipality_name":"中能登町","municipality_code_method":"nearest_centroid"},"geometry":{"type":"Point","coordinates":[136.867058,36.956706]}},{"type":"Feature","properties":{"layer_id":"parks_playgrounds","name":"中能登町運動公園","category":"nature","address":"鹿島郡中能登町","source":"国土交通省 国土数値情報","municipality_code":"17407","municipality_pref":"石川県","municipality_name":"中能登町","municipality_code_method":"nearest_centroid"},"geometry":{"type":"Point","coordinates":[136.88950475,36.97052042]}},{"type":"Feature","properties":{"layer_id":"parks_playgrounds","name":"能登歴史公園","category":"nature","address":"鹿島郡中能登町","source":"国土交通省 国土数値情報","municipality_code":"17407","municipality_pref":"石川県","municipality_name":"中能登町","municipality_code_method":"nearest_centroid"},"geometry":{"type":"Point","coordinates":[136.97083032,36.96097096]}},{"type":"Feature","properties":{"layer_id":"tourism_resources","name":"蛇池","category":"nature","address":"湖沼景観 / 湖沼","source":"国土交通省 国土数値情報","municipality_code":"17407","municipality_pref":"石川県","municipality_name":"中能登町","municipality_code_method":"nearest_centroid","resource_code":"701"},"geometry":{"type":"Point","coordinates":[136.9355926513672,36.95503616333008]}},{"type":"Feature","properties":{"layer_id":"tourism_resources","name":"石動山","category":"nature","address":"山地（非火山性）景観 / 非火山性弧峰","source":"国土交通省 国土数値情報","municipality_code":"17407","municipality_pref":"石川県","municipality_name":"中能登町","municipality_code_method":"nearest_centroid","resource_code":"205"},"geometry":{"type":"Point","coordinates":[136.97088623046875,36.96562957763672]}},{"type":"Feature","properties":{"layer_id":"tourism_resources","name":"碁石ヶ峰","category":"nature","address":"山地（非火山性）景観 / 非火山性弧峰","source":"国土交通省 国土数値情報","municipality_code":"17407","municipality_pref":"石川県","municipality_name":"中能登町","municipality_code_method":"nearest_centroid","resource_code":"205"},"geometry":{"type":"Point","coordinates":[136.88565063476562,36.913902282714844]}},{"type":"Feature","properties":{"layer_id":"tourism_resources","name":"原山大地","category":"nature","address":"湖沼景観 / 湖沼","source":"国土交通省 国土数値情報","municipality_code":"17407","municipality_pref":"石川県","municipality_name":"中能登町","municipality_code_method":"nearest_centroid","resource_code":"701"},"geometry":{"type":"Point","coordinates":[136.8902587890625,36.92256164550781]}},{"type":"Feature","properties":{"layer_id":"tourism_resources","name":"石動山","category":"nature","address":"山地（非火山性）景観 / 非火山性弧峰","source":"国土交通省 国土数値情報","municipality_code":"17407","municipality_pref":"石川県","municipality_name":"中能登町","municipality_code_method":"nearest_centroid","resource_code":"205"},"geometry":{"type":"Point","coordinates":[136.97093200683594,36.96560287475586]}},{"type":"Feature","properties":{"layer_id":"tourism_resources","name":"不動滝","category":"nature","address":"河川景観 / 滝","source":"国土交通省 国土数値情報","municipality_code":"17407","municipality_pref":"石川県","municipality_name":"中能登町","municipality_code_method":"nearest_centroid","resource_code":"610"},"geometry":{"type":"Point","coordinates":[136.92044067382812,36.951377868652344]}},{"type":"Feature","properties":{"layer_id":"tourism_resources","name":"基石ヶ峰","category":"nature","address":"山地（非火山性）景観 / 非火山性弧峰","source":"国土交通省 国土数値情報","municipality_code":"17407","municipality_pref":"石川県","municipality_name":"中能登町","municipality_code_method":"nearest_centroid","resource_code":"205"},"geometry":{"type":"Point","coordinates":[136.88565063476562,36.91389846801758]}}],"display_comment_original":"中能登町には、地域の由緒を示す案内板や石碑を探す余地がある。 この地域には寺社や信仰の場、古墳や貝塚、城跡や陣屋跡に関わる場所が見え、金丸城跡、勝山城跡、石動山城跡のような地点が探索の入口になる。 現地では史跡説明板が手がかりになりそうだ。さらに水辺の暮らしや堤防整備の歴史を示す案内板に加え、治水碑や河川改修の記念碑が狙い目になる。","story_enrichment":{"samurai_priority_people":[],"notable_people":["永源遙","鹿嶌嵜健太郎"],"honorary_citizens":[],"tourism_landmarks":["石動山（大宮坊、旧観坊）","不動滝","雨の宮古墳群（雨の宮古墳公園）","川田古墳群（古墳公園とりや）","小田中古墳群","杉谷チャノバタケ遺跡","杉谷ガメ塚古墳","鹿島中学校桜並木"],"specialties":[],"food_culture":[],"historical_domains":[],"heian_place_names":[],"japan_search_support":[],"enrichment_sources":["https://ja.wikipedia.org/wiki/%E4%B8%AD%E8%83%BD%E7%99%BB%E7%94%BA","https://www.wikidata.org/wiki/Q11550184","https://www.wikidata.org/wiki/Q17362595"],"enrichment_errors":[],"wikipedia_title":"中能登町","wikipedia_revision_id":"109449900","wikidata_qid":"Q1349436","wikipedia_url":"https://ja.wikipedia.org/wiki/%E4%B8%AD%E8%83%BD%E7%99%BB%E7%94%BA","japan_search_query_url":"","status":"wikipedia_ok"}}