{"type":"FeatureCollection","municipality_code":"19364","pref":"山梨県","city":"早川町","display_comment":"早川町には、初鹿島村、雨畑村、大島村など、近世の村々の記憶を伝える地名が残っています。 周辺には史跡や遺跡にまつわる場所が点在し、「雨畑金山跡」、「御料平遺跡」、「保金山跡」などを起点に歩くと、地域の歴史がぐっと見えやすくなります。 現地では史跡説明板に加え、初鹿島村や雨畑村にゆかりのある旧境石標、村の歴史を紹介する案内板にも注目してみてください。 川沿いや水辺では、暮らしや堤防整備の歴史を伝える案内板、治水碑、河川改修の記念碑にも注目してみてください。 「駿州往還」や「赤沢宿」などの名所も、地域の物語を深掘りする絶好の入口です。 さらに、「雨畑硯」といった名物や食文化に触れると、その土地らしい暮らしまで感じられるでしょう。","layer_counts":{"cafe_restaurant":29,"public_facilities":3,"scenic_nature_areas":6,"traditional_building_preservation_areas":1,"cultural_facilities":6,"tourism_resources":10},"total_features":55,"features":[{"type":"Feature","properties":{"layer_id":"cafe_restaurant","name":"早川町民会館","category":"food","address":"山梨県南巨摩郡早川町保509","source":"山梨県営業許可施設一覧","municipality_code":"19364","municipality_pref":"山梨県","municipality_name":"早川町","municipality_code_method":"food_exact_coord"},"geometry":{"type":"Point","coordinates":[138.296955,35.430838]}},{"type":"Feature","properties":{"layer_id":"cafe_restaurant","name":"大滝温泉文勝館","category":"food","address":"山梨県南巨摩郡早川町大原野420","source":"山梨県営業許可施設一覧","municipality_code":"19364","municipality_pref":"山梨県","municipality_name":"早川町","municipality_code_method":"food_exact_coord"},"geometry":{"type":"Point","coordinates":[138.36023,35.474967]}},{"type":"Feature","properties":{"layer_id":"cafe_restaurant","name":"増田屋旅館","category":"food","address":"山梨県南巨摩郡早川町赤沢1148","source":"山梨県営業許可施設一覧","municipality_code":"19364","municipality_pref":"山梨県","municipality_name":"早川町","municipality_code_method":"food_exact_coord"},"geometry":{"type":"Point","coordinates":[138.376465,35.376355]}},{"type":"Feature","properties":{"layer_id":"cafe_restaurant","name":"秘境冒険民宿山人砦","category":"food","address":"山梨県南巨摩郡早川町奈良田403","source":"山梨県営業許可施設一覧","municipality_code":"19364","municipality_pref":"山梨県","municipality_name":"早川町","municipality_code_method":"food_exact_coord"},"geometry":{"type":"Point","coordinates":[138.276608,35.603208]}},{"type":"Feature","properties":{"layer_id":"cafe_restaurant","name":"匣山　（ｃａｆ?　ジャコウネコ）","category":"food","address":"山梨県南巨摩郡早川町薬袋274","source":"山梨県営業許可施設一覧","municipality_code":"19364","municipality_pref":"山梨県","municipality_name":"早川町","municipality_code_method":"food_exact_coord"},"geometry":{"type":"Point","coordinates":[138.362571,35.421015]}},{"type":"Feature","properties":{"layer_id":"cafe_restaurant","name":"肝心坊","category":"food","address":"山梨県南巨摩郡早川町赤沢1337","source":"山梨県営業許可施設一覧","municipality_code":"19364","municipality_pref":"山梨県","municipality_name":"早川町","municipality_code_method":"food_exact_coord"},"geometry":{"type":"Point","coordinates":[138.376465,35.376355]}},{"type":"Feature","properties":{"layer_id":"cafe_restaurant","name":"南アルプス　大門沢小屋","category":"food","address":"山梨県南巨摩郡早川町奈良田農鳥山953","source":"厚生労働省 食品衛生申請等システム（オープンデータ）","municipality_code":"19364","municipality_pref":"山梨県","municipality_name":"早川町","municipality_code_method":"food_exact_coord"},"geometry":{"type":"Point","coordinates":[138.289135,35.598481]}},{"type":"Feature","properties":{"layer_id":"cafe_restaurant","name":"100468　ジャパンフード食堂","category":"food","address":"山梨県南巨摩郡早川町西之宮809","source":"厚生労働省 食品衛生申請等システム（オープンデータ）","municipality_code":"19364","municipality_pref":"山梨県","municipality_name":"早川町","municipality_code_method":"food_exact_coord"},"geometry":{"type":"Point","coordinates":[138.304079,35.446033]}},{"type":"Feature","properties":{"layer_id":"cafe_restaurant","name":"有限会社　白根館","category":"food","address":"山梨県南巨摩郡早川町奈良田344","source":"厚生労働省 食品衛生申請等システム（オープンデータ）","municipality_code":"19364","municipality_pref":"山梨県","municipality_name":"早川町","municipality_code_method":"food_exact_coord"},"geometry":{"type":"Point","coordinates":[138.300226,35.576567]}},{"type":"Feature","properties":{"layer_id":"cafe_restaurant","name":"明浄寺別院別館","category":"food","address":"山梨県南巨摩郡早川町赤沢1328","source":"厚生労働省 食品衛生申請等システム（オープンデータ）","municipality_code":"19364","municipality_pref":"山梨県","municipality_name":"早川町","municipality_code_method":"food_exact_coord"},"geometry":{"type":"Point","coordinates":[138.379796,35.385058]}},{"type":"Feature","properties":{"layer_id":"cafe_restaurant","name":"えびなや","category":"food","address":"山梨県南巨摩郡早川町湯島83-30","source":"厚生労働省 食品衛生申請等システム（オープンデータ）","municipality_code":"19364","municipality_pref":"山梨県","municipality_name":"早川町","municipality_code_method":"food_exact_coord"},"geometry":{"type":"Point","coordinates":[138.305422,35.558728]}},{"type":"Feature","properties":{"layer_id":"cafe_restaurant","name":"慶雲館","category":"food","address":"山梨県南巨摩郡早川町湯島825","source":"厚生労働省 食品衛生申請等システム（オープンデータ）","municipality_code":"19364","municipality_pref":"山梨県","municipality_name":"早川町","municipality_code_method":"food_exact_coord"},"geometry":{"type":"Point","coordinates":[138.305989,35.554723]}},{"type":"Feature","properties":{"layer_id":"cafe_restaurant","name":"慶雲館　クラブ舞扇","category":"food","address":"山梨県南巨摩郡早川町湯島825","source":"厚生労働省 食品衛生申請等システム（オープンデータ）","municipality_code":"19364","municipality_pref":"山梨県","municipality_name":"早川町","municipality_code_method":"food_exact_coord"},"geometry":{"type":"Point","coordinates":[138.305989,35.554723]}},{"type":"Feature","properties":{"layer_id":"cafe_restaurant","name":"御食事処　せいちゃん","category":"food","address":"山梨県南巨摩郡早川町高住911","source":"厚生労働省 食品衛生申請等システム（オープンデータ）","municipality_code":"19364","municipality_pref":"山梨県","municipality_name":"早川町","municipality_code_method":"food_exact_coord"},"geometry":{"type":"Point","coordinates":[138.366389,35.406361]}},{"type":"Feature","properties":{"layer_id":"cafe_restaurant","name":"草塩の里振興組合　草塩温泉　御食事処くさしお","category":"food","address":"山梨県南巨摩郡早川町草塩３２１－１","source":"厚生労働省 食品衛生申請等システム（オープンデータ）","municipality_code":"19364","municipality_pref":"山梨県","municipality_name":"早川町","municipality_code_method":"food_exact_coord"},"geometry":{"type":"Point","coordinates":[138.340658,35.42915]}},{"type":"Feature","properties":{"layer_id":"cafe_restaurant","name":"南アルプストンネル（山梨工区）作業所　JV宿舎（有）日本フーズ","category":"food","address":"山梨県南巨摩郡早川町新倉3210","source":"厚生労働省 食品衛生申請等システム（オープンデータ）","municipality_code":"19364","municipality_pref":"山梨県","municipality_name":"早川町","municipality_code_method":"food_exact_coord"},"geometry":{"type":"Point","coordinates":[138.328995,35.506445]}},{"type":"Feature","properties":{"layer_id":"cafe_restaurant","name":"ジャパンフード　リニア山梨作業所食堂","category":"food","address":"山梨県南巨摩郡早川町新倉3210","source":"厚生労働省 食品衛生申請等システム（オープンデータ）","municipality_code":"19364","municipality_pref":"山梨県","municipality_name":"早川町","municipality_code_method":"food_exact_coord"},"geometry":{"type":"Point","coordinates":[138.328995,35.506445]}},{"type":"Feature","properties":{"layer_id":"cafe_restaurant","name":"ヴィラ雨畑","category":"food","address":"山梨県南巨摩郡早川町雨畑699","source":"厚生労働省 食品衛生申請等システム（オープンデータ）","municipality_code":"19364","municipality_pref":"山梨県","municipality_name":"早川町","municipality_code_method":"food_exact_coord"},"geometry":{"type":"Point","coordinates":[138.329382,35.405674]}},{"type":"Feature","properties":{"layer_id":"cafe_restaurant","name":"チャレンジキッチン","category":"food","address":"山梨県南巨摩郡早川町高住650-1","source":"厚生労働省 食品衛生申請等システム（オープンデータ）","municipality_code":"19364","municipality_pref":"山梨県","municipality_name":"早川町","municipality_code_method":"food_exact_coord"},"geometry":{"type":"Point","coordinates":[138.36687,35.409939]}},{"type":"Feature","properties":{"layer_id":"cafe_restaurant","name":"ヘルシー美里","category":"food","address":"山梨県南巨摩郡早川町大原野651","source":"厚生労働省 食品衛生申請等システム（オープンデータ）","municipality_code":"19364","municipality_pref":"山梨県","municipality_name":"早川町","municipality_code_method":"food_exact_coord"},"geometry":{"type":"Point","coordinates":[138.339801,35.47672]}},{"type":"Feature","properties":{"layer_id":"cafe_restaurant","name":"奈良田温泉　女帝の湯","category":"food","address":"山梨県南巨摩郡早川町奈良田486","source":"厚生労働省 食品衛生申請等システム（オープンデータ）","municipality_code":"19364","municipality_pref":"山梨県","municipality_name":"早川町","municipality_code_method":"food_exact_coord"},"geometry":{"type":"Point","coordinates":[138.301871,35.577364]}},{"type":"Feature","properties":{"layer_id":"cafe_restaurant","name":"農家レストラン「早川舎」","category":"food","address":"山梨県南巨摩郡早川町高住650-1","source":"厚生労働省 食品衛生申請等システム（オープンデータ）","municipality_code":"19364","municipality_pref":"山梨県","municipality_name":"早川町","municipality_code_method":"food_exact_coord"},"geometry":{"type":"Point","coordinates":[138.36687,35.409939]}},{"type":"Feature","properties":{"layer_id":"cafe_restaurant","name":"ひのや旅館別館","category":"food","address":"山梨県南巨摩郡早川町高住字栃原島546","source":"厚生労働省 食品衛生申請等システム（オープンデータ）","municipality_code":"19364","municipality_pref":"山梨県","municipality_name":"早川町","municipality_code_method":"food_exact_coord"},"geometry":{"type":"Point","coordinates":[138.366389,35.406361]}},{"type":"Feature","properties":{"layer_id":"cafe_restaurant","name":"江戸屋","category":"food","address":"山梨県南巨摩郡早川町赤沢158","source":"厚生労働省 食品衛生申請等システム（オープンデータ）","municipality_code":"19364","municipality_pref":"山梨県","municipality_name":"早川町","municipality_code_method":"food_exact_coord"},"geometry":{"type":"Point","coordinates":[138.376006,35.39783]}},{"type":"Feature","properties":{"layer_id":"cafe_restaurant","name":"春木屋旅館","category":"food","address":"山梨県南巨摩郡早川町赤沢1328","source":"厚生労働省 食品衛生申請等システム（オープンデータ）","municipality_code":"19364","municipality_pref":"山梨県","municipality_name":"早川町","municipality_code_method":"food_exact_coord"},"geometry":{"type":"Point","coordinates":[138.379954,35.384878]}},{"type":"Feature","properties":{"layer_id":"cafe_restaurant","name":"春木屋別館","category":"food","address":"山梨県南巨摩郡早川町赤沢1328","source":"厚生労働省 食品衛生申請等システム（オープンデータ）","municipality_code":"19364","municipality_pref":"山梨県","municipality_name":"早川町","municipality_code_method":"food_exact_coord"},"geometry":{"type":"Point","coordinates":[138.379954,35.384878]}},{"type":"Feature","properties":{"layer_id":"cafe_restaurant","name":"西山温泉元湯蓬莱館","category":"food","address":"山梨県南巨摩郡早川町湯島73","source":"厚生労働省 食品衛生申請等システム（オープンデータ）","municipality_code":"19364","municipality_pref":"山梨県","municipality_name":"早川町","municipality_code_method":"food_exact_coord"},"geometry":{"type":"Point","coordinates":[138.307324,35.554417]}},{"type":"Feature","properties":{"layer_id":"cafe_restaurant","name":"俵屋","category":"food","address":"山梨県南巨摩郡早川町高住620","source":"厚生労働省 食品衛生申請等システム（オープンデータ）","municipality_code":"19364","municipality_pref":"山梨県","municipality_name":"早川町","municipality_code_method":"food_exact_coord"},"geometry":{"type":"Point","coordinates":[138.367653,35.408806]}},{"type":"Feature","properties":{"layer_id":"cafe_restaurant","name":"農鳥小屋","category":"food","address":"山梨県南巨摩郡早川町奈良田荒川5","source":"厚生労働省 食品衛生申請等システム（オープンデータ）","municipality_code":"19364","municipality_pref":"山梨県","municipality_name":"早川町","municipality_code_method":"food_exact_coord"},"geometry":{"type":"Point","coordinates":[138.289135,35.598481]}},{"type":"Feature","properties":{"layer_id":"public_facilities","name":"交流促進センター","category":"public","address":"早川町薬袋430","source":"国土交通省 国土数値情報","municipality_code":"19364","municipality_pref":"山梨県","municipality_name":"早川町","municipality_code_method":"source_exact_coord"},"geometry":{"type":"Point","coordinates":[138.36595116052996,35.414727764780004]}},{"type":"Feature","properties":{"layer_id":"public_facilities","name":"早川町役場","category":"public","address":"早川町高住758","source":"国土交通省 国土数値情報","municipality_code":"19364","municipality_pref":"山梨県","municipality_name":"早川町","municipality_code_method":"source_exact_coord"},"geometry":{"type":"Point","coordinates":[138.3631931758336,35.412657755814]}},{"type":"Feature","properties":{"layer_id":"public_facilities","name":"町民会館","category":"public","address":"早川町保509","source":"国土交通省 国土数値情報","municipality_code":"19364","municipality_pref":"山梨県","municipality_name":"早川町","municipality_code_method":"source_exact_coord"},"geometry":{"type":"Point","coordinates":[138.33176621726534,35.43457175297089]}},{"type":"Feature","properties":{"layer_id":"scenic_nature_areas","name":"中富町鰍沢町","category":"nature","source":"国土交通省 国土数値情報","municipality_code":"19364","municipality_pref":"山梨県","municipality_name":"早川町","municipality_code_method":"nearest_centroid"},"geometry":{"type":"MultiPolygon","coordinates":[[[[138.38111495000004,35.44735300000002],[138.38062901999996,35.447966020000024],[138.38056637419078,35.44806599660269],[138.38153113129684,35.44699594599705],[138.38111495000004,35.44735300000002]]],[[[138.37996004000004,35.462988970000026],[138.37978703999994,35.46336000000008],[138.37972400999996,35.46374396000005],[138.37969476690046,35.464171816062965],[138.379981359454,35.462968530673905],[138.37996004000004,35.462988970000026]]],[[[138.38270594000005,35.47529903],[138.38290102000002,35.47570896000008],[138.3830645716669,35.47590742279273],[138.38253420960714,35.47492092472222],[138.38270594000005,35.47529903]]],[[[138.38414897999996,35.47884502000003],[138.38391403999998,35.479049040000035],[138.38375696000006,35.47929198000007],[138.38374095000006,35.47949696000006],[138.38384775876887,35.47973712804933],[138.38418982899415,35.478810128073235],[138.38414897999996,35.47884502000003]]],[[[138.37711398000002,35.48606600000002],[138.37669098,35.48609096000004],[138.37587698,35.486078020000036],[138.37500003,35.48603902000001],[138.37410703,35.48594801000003],[138.37319899,35.48595996000004],[138.37210195,35.48597202000006],[138.37167901,35.48602202000002],[138.37141300000002,35.48609896999999],[138.37106795,35.48639304000008],[138.37062803999999,35.48710896000007],[138.37026700999996,35.487517960000076],[138.37014363893607,35.48772252893568],[138.371618,35.486057],[138.376993,35.486339],[138.377295439782,35.485958710641434],[138.37711398000002,35.48606600000002]]],[[[138.36984303999998,35.488220970000064],[138.36954501,35.48855302000001],[138.36951297000002,35.48910296000004],[138.36958303999995,35.48946197000007],[138.36939399000005,35.48984498000006],[138.36940899000004,35.490202960000005],[138.36953394999998,35.49051098],[138.36967500000003,35.49072804000002],[138.36975295,35.49104801000003],[138.3697767611292,35.49113171380023],[138.36987026050053,35.488175834060996],[138.36984303999998,35.488220970000064]]],[[[138.36973603,35.49149598000005],[138.36943797000004,35.49187904000004],[138.36935898999997,35.492263010000016],[138.36937296999997,35.49315900000008],[138.36935602,35.494297040000006],[138.36927697000004,35.49483496000001],[138.36934696000006,35.495345030000024],[138.36939093999996,35.495506980000016],[138.36943202999998,35.49574096000001],[138.36941501,35.496114020000064],[138.369196,35.49652297000006],[138.36890494999997,35.497329010000044],[138.36873099999997,35.49778897],[138.36835398999995,35.498723020000014],[138.36832202999997,35.499030040000015],[138.36841412612586,35.49911717768355],[138.368424,35.499111],[138.369616,35.496214],[138.3697682051244,35.49140220247704],[138.36973603,35.49149598000005]]]]}},{"type":"Feature","properties":{"layer_id":"scenic_nature_areas","name":"中富町早川町","category":"nature","source":"国土交通省 国土数値情報","municipality_code":"19364","municipality_pref":"山梨県","municipality_name":"早川町","municipality_code_method":"nearest_centroid"},"geometry":{"type":"MultiPolygon","coordinates":[[[[138.38111495000004,35.44735300000002],[138.38062902000007,35.447966020000024],[138.38056637419106,35.44806599660236],[138.381531131297,35.44699594599687],[138.38111495000004,35.44735300000002]]],[[[138.37996004000004,35.462988970000026],[138.37978704000002,35.463359999999994],[138.37972401000005,35.46374395999996],[138.37969476690049,35.46417181606281],[138.37998135945404,35.46296853067389],[138.37996004000004,35.462988970000026]]],[[[138.38270594000005,35.47529903],[138.38290102000002,35.47570895999999],[138.38306457166678,35.47590742279249],[138.38253420960714,35.47492092472222],[138.38270594000005,35.47529903]]],[[[138.38414897999996,35.47884502000004],[138.38391403999998,35.479049040000035],[138.38375696000006,35.47929197999997],[138.38374095000006,35.47949695999998],[138.38384775876887,35.47973712804933],[138.38418982899415,35.47881012807324],[138.38414897999996,35.47884502000004]]],[[[138.37711398000002,35.48606600000002],[138.37669098,35.48609096000004],[138.37587698,35.486078020000036],[138.37500003,35.48603902000001],[138.37410703,35.48594801000003],[138.37319899,35.48595996000004],[138.37210195,35.48597201999997],[138.37167901,35.48602202000002],[138.37141300000002,35.48609896999999],[138.37106795,35.48639303999999],[138.37062803999999,35.487108959999986],[138.37026700999996,35.487517959999984],[138.3701436389359,35.487722528935876],[138.371618,35.486057],[138.376993,35.486339],[138.377295439782,35.485958710641434],[138.37711398000002,35.48606600000002]]],[[[138.36984303999998,35.48822096999997],[138.36954501,35.488553020000005],[138.36951297000002,35.48910296000003],[138.36958304000004,35.48946196999998],[138.36939399000005,35.489844979999965],[138.36940899000004,35.490202960000005],[138.36953394999998,35.49051098],[138.36967500000003,35.49072804000002],[138.36975295,35.49104801000003],[138.3697767611292,35.49113171380012],[138.36987026050053,35.4881758340609],[138.36984303999998,35.48822096999997]]],[[[138.36973603,35.49149597999997],[138.36943797000004,35.49187904000004],[138.36935898999997,35.492263010000016],[138.36937296999997,35.49315899999999],[138.36935602,35.494297040000006],[138.36927697000004,35.49483496000001],[138.36934696000006,35.495345030000024],[138.36939094000005,35.495506980000016],[138.36943202999998,35.49574096000002],[138.36941501,35.49611401999997],[138.369196,35.49652296999997],[138.36890494999997,35.49732900999996],[138.36873099999997,35.49778897],[138.36835398999995,35.498723020000014],[138.36832202999997,35.499030040000015],[138.36841412612586,35.49911717768355],[138.368424,35.499111],[138.369616,35.496214],[138.3697682051244,35.4914022024771],[138.36973603,35.49149597999997]]]]}},{"type":"Feature","properties":{"layer_id":"scenic_nature_areas","name":"中川根町","category":"nature","source":"国土交通省 国土数値情報","municipality_code":"19364","municipality_pref":"山梨県","municipality_name":"早川町","municipality_code_method":"nearest_centroid"},"geometry":{"type":"MultiPolygon","coordinates":[[[[138.22903300013073,35.64558699959156],[138.2290580003843,35.645542000214334],[138.2291150003149,35.645486000329846],[138.22931100036024,35.64533399961559],[138.22957099975972,35.64511500030821],[138.22978699982806,35.64487299994019],[138.23011499966537,35.64452299998766],[138.23027499984923,35.64435999966545],[138.2304089983313,35.64418300144897],[138.22836600057732,35.6459569994987],[138.2286050001785,35.64593100016672],[138.22878100020088,35.64589700039745],[138.2289020003849,35.645852000120904],[138.2289899999464,35.64580899993659],[138.2290310000385,35.64575200000599],[138.22902899994628,35.64562799968363],[138.22903300013073,35.64558699959156]]],[[[138.23056799987117,35.64392700038196],[138.23069999966313,35.643670000221526],[138.23079799968582,35.64346599980724],[138.23085999984698,35.64326699962353],[138.23089692410318,35.643119555970394],[138.2304090014615,35.644182996814614],[138.23056799987117,35.64392700038196]]],[[[138.23227300025664,35.64016400041949],[138.2323140003487,35.64009700002772],[138.2323140003487,35.64003099968208],[138.23229799961086,35.63984500009788],[138.23228912580782,35.63980950488576],[138.232314,35.640031],[138.23223030476962,35.64021341606119],[138.23227300025664,35.64016400041949]]],[[[138.23201400000397,35.63732499990002],[138.23200699968118,35.637230000015684],[138.23198900040478,35.637137003604366],[138.23201108825467,35.63733368741225],[138.23201400000397,35.63732499990002]]],[[[138.23195099979668,35.637042000339235],[138.23188400030423,35.63693599994763],[138.23174300009725,35.63675000036342],[138.23162700014382,35.63656399987988],[138.23148800002906,35.63633400006525],[138.2314059998449,35.636226999627524],[138.23130599972998,35.63610500029672],[138.23119700009934,35.636016999835874],[138.23099399973117,35.635893000412835],[138.2309030000313,35.63583899972126],[138.2308915332145,35.63583049192201],[138.2319889993528,35.63713699922955],[138.23195099979668,35.637042000339235]]],[[[138.2304770001713,35.63533699995378],[138.23045900024056,35.6352389999311],[138.2304709998946,35.6351399998623],[138.23050499966388,35.63501699958606],[138.23053200000967,35.6349059998632],[138.23051700021728,35.63477500011736],[138.23044400044813,35.63456100014124],[138.23040100026384,35.634418999888126],[138.2303559999873,35.63429100028064],[138.23030999966463,35.634172000188855],[138.23021899996476,35.63397900028183],[138.23013599973447,35.6337850003287],[138.23006199991923,35.633612999591456],[138.2300389997579,35.63354400000679],[138.229916000381,35.633202000423175],[138.22986399978163,35.63303599996262],[138.2298540002198,35.632957999962926],[138.22980000042756,35.63272600005605],[138.22972499966687,35.63250799989548],[138.22967100042257,35.63237900155084],[138.230477,35.635337],[138.230477000469,35.635337000558316],[138.2304770001713,35.63533699995378]]],[[[138.2296279996903,35.631666999783405],[138.22963900019758,35.63143699996877],[138.2296620003589,35.631040999693575],[138.22965700012833,35.63080799974059],[138.22965299994388,35.63068200022533],[138.22964400042815,35.63056200008744],[138.22960200028996,35.63046600015698],[138.22950899959852,35.63034499997296],[138.22949492506186,35.63032103972561],[138.22962394836983,35.631829061509244],[138.2296279996903,35.631666999783405]]],[[[138.22930500008357,35.627915000328194],[138.22929599966852,35.627869000005546],[138.2292800000723,35.62780900084526],[138.22930376024732,35.62808670928467],[138.22930500008357,35.627915000328194]]],[[[138.22924299992238,35.627761000421025],[138.2291239998306,35.62766100030612],[138.22891477981034,35.627523728508585],[138.22927999969562,35.62780899976225],[138.22924299992238,35.627761000421025]]],[[[138.22827500024894,35.62702399970902],[138.22832699994896,35.6269239995941],[138.2285280002249,35.626759000078984],[138.22871699994747,35.62662500019481],[138.22879399990106,35.626545000102865],[138.22883800013147,35.62647400042597],[138.22889700015432,35.62634399982692],[138.22895900031548,35.62618799982752],[138.22899300008476,35.626047999666646],[138.22898799985418,35.625798999875144],[138.2289390002925,35.62549200010692],[138.22888294037134,35.625207766285335],[138.228275,35.627024],[138.22827500019295,35.62702400015071],[138.22827500024894,35.62702399970902]]],[[[138.22891600013116,35.62510900043122],[138.2289160051544,35.625108999215875],[138.228916,35.625109],[138.2289159996689,35.625109000989085],[138.22891600013116,35.62510900043122]]],[[[138.22912699996894,35.625078999947085],[138.22942300012923,35.6250519996013],[138.22973142884015,35.624984950353436],[138.22908621005595,35.625083106266246],[138.22912699996894,35.625078999947085]]],[[[138.23117099979967,35.62478499987904],[138.23128899952255,35.62474800007263],[138.23109530583866,35.62477746632627],[138.23117099979967,35.62478499987904]]],[[[138.23138699986802,35.62468599981024],[138.2314710001444,35.62459900029482],[138.23154399991353,35.62446100022618],[138.2316470001668,35.6242290003193],[138.23166410453712,35.624195750463045],[138.23128900015058,35.6247479997783],[138.23138699986802,35.62468599981024]]],[[[138.2321360002341,35.62350100002233],[138.23213600055794,35.62350099982458],[138.232136,35.623501],[138.2321359995382,35.62350100067987],[138.2321360002341,35.62350100002233]]],[[[138.2360790004034,35.62227200000399],[138.23620399987257,35.6222220003962],[138.23631300040253,35.622151999866105],[138.23635799977973,35.62210600044276],[138.2364110004252,35.62203399982043],[138.23644100001002,35.62196500023577],[138.2364769998715,35.62184400005176],[138.23650418515766,35.621729660921375],[138.236204,35.622222],[138.23586372355132,35.622328984655326],[138.2360790004034,35.62227200000399]]],[[[138.23671400000896,35.621399000214886],[138.2368819974629,35.621110004161174],[138.23667479655109,35.62144983810501],[138.23671400000896,35.621399000214886]]],[[[138.23691000005434,35.62096600003207],[138.2368940002158,35.62087400028608],[138.23687300014672,35.62078399973299],[138.2368299999624,35.62061500003342],[138.23681600021612,35.62054100021818],[138.23676399961676,35.62036400014969],[138.23674066148004,35.62031756203145],[138.23688199987362,35.62110999929138],[138.23691000005434,35.62096600003207]]],[[[138.2366590001706,35.619607000314005],[138.23668899975542,35.61950099992241],[138.23668200033194,35.61938199983062],[138.23664799966332,35.6191669998084],[138.2365959999633,35.61897499994748],[138.23652300019418,35.61878900036327],[138.23643200027763,35.618587001556584],[138.23662096206465,35.61964644730909],[138.2366590001706,35.619607000314005]]],[[[138.23632199991823,35.61836899988064],[138.23619200021852,35.61815299981229],[138.23602399966572,35.61788700013614],[138.23587600003526,35.617609999952734],[138.23576700040462,35.617390999746036],[138.2356440001284,35.617203000069594],[138.23554400001348,35.617039999747384],[138.2355320003594,35.61702099977052],[138.23539100015242,35.6168200003939],[138.23527200006063,35.6166640003945],[138.2351200002457,35.61647299968038],[138.2350060003845,35.616302999934696],[138.23485599976246,35.61606899993559],[138.23467799964783,35.61577699995978],[138.23455100008647,35.615550000283484],[138.2344269997641,35.61538299977681],[138.23433199987977,35.61528199961579],[138.23425499992618,35.615180000307966],[138.23419499985724,35.61509499998546],[138.2341522164967,35.61504593618771],[138.23643199803087,35.618586996941445],[138.23632199991823,35.61836899988064]]],[[[138.23544299985244,35.614542999710864],[138.2355819999672,35.61450000042587],[138.23572600031255,35.614428999849665],[138.23580500035837,35.61433800014978],[138.2358669996202,35.61422500033469],[138.23596899982735,35.61400900026634],[138.2360219995735,35.61386199978266],[138.2360639997117,35.61366100040604],[138.2360839997347,35.61342799955373],[138.23611200012658,35.61320700015413],[138.23611729512427,35.613166757663606],[138.235726,35.614429],[138.23485286231676,35.61469184035649],[138.23544299985244,35.614542999710864]]],[[[138.23625300033356,35.612728999694774],[138.2362639999415,35.612611999695226],[138.23625300033356,35.61249299960345],[138.23621400033372,35.61237899974225],[138.2361685855108,35.612324400445495],[138.236253,35.612729],[138.23625299407928,35.61272901909912],[138.23625300033356,35.612728999694774]]],[[[138.23597500010405,35.611263999585105],[138.23599800026537,35.611137000023724],[138.23599800026537,35.611007000324],[138.235985999712,35.61090700020909],[138.23596100035775,35.6107880001173],[138.23592000026568,35.61065600032535],[138.2358659995741,35.61055700025655],[138.2357949998972,35.61044599963437],[138.23576897274813,35.61040905217716],[138.23595829402865,35.61131647111046],[138.23597500010405,35.611263999585105]]],[[[138.23513700013032,35.60738000033794],[138.23513700160586,35.607379996495304],[138.235137,35.60738],[138.23513700010147,35.607380000486266],[138.23513700013032,35.60738000033794]]],[[[138.23532599985288,35.60696900027034],[138.2353690000372,35.60691499957876],[138.23544700003688,35.606823999878884],[138.2354979996908,35.60671900043272],[138.23554099987513,35.606615000133345],[138.23561000035912,35.606396999972766],[138.23565485763027,35.606249810712335],[138.2353228087871,35.60697448487681],[138.23532599985288,35.60696900027034]]],[[[138.23572900027182,35.6060879999414],[138.235729,35.606088],[138.23572899999695,35.606088000006615],[138.23572900027182,35.6060879999414]]],[[[138.2359509998966,35.60607000018156],[138.2361629997805,35.60609100025066],[138.23630299994136,35.60609500043512],[138.23645299966407,35.606076999605044],[138.23687500023894,35.605951000089775],[138.23725799991465,35.605792999998144],[138.2374180000985,35.60572400041348],[138.23742028829787,35.60572337062154],[138.2358680608501,35.606058019498505],[138.2359509998966,35.60607000018156]]],[[[138.2388369998855,35.60546900034529],[138.23912000034562,35.60549099956118],[138.23938900016012,35.60547100043752],[138.23962600029756,35.605424000068744],[138.23979600004324,35.60537699969997],[138.24008800001906,35.60527699958506],[138.24037000043305,35.605198999585355],[138.24063400001697,35.60510799988548],[138.24071200001666,35.605054000093226],[138.2407569999016,35.60500400002121],[138.23869039365405,35.60544954520267],[138.2388369998855,35.60546900034529]]],[[[138.2407570002932,35.60500399958611],[138.24079000001637,35.60494000023202],[138.24080199967042,35.604858000047855],[138.24078892570788,35.60480325195708],[138.24075700001703,35.60500399989297],[138.2407570002932,35.60500399958611]]],[[[138.2410320003844,35.60348399963807],[138.2410609999231,35.60337199986909],[138.2410819999922,35.60325099968508],[138.241089000315,35.60318600028488],[138.2410840000844,35.60302700014714],[138.24107916082204,35.602978260907],[138.24098302355367,35.60358276961672],[138.2410320003844,35.60348399963807]]],[[[138.24144399959877,35.600700999902415],[138.24147600017514,35.60062099981049],[138.24157100005948,35.60033500011136],[138.24159100008245,35.60012000008913],[138.2415930001747,35.60006600029687],[138.24159999432925,35.59970327299927],[138.24144025399104,35.60070771620195],[138.24144399959877,35.600700999902415]]],[[[138.24221400003395,35.598611999795146],[138.24241800044823,35.59843699981889],[138.24262700019378,35.598272000303766],[138.24268600021662,35.59820299981978],[138.2428270004236,35.59804699982038],[138.2429479997083,35.59792200035123],[138.24306699980008,35.59778200019035],[138.24314899998424,35.59769000044436],[138.24322800003006,35.5975870001911],[138.24329200028347,35.597455000399144],[138.2433090001681,35.59736499984606],[138.2433090001681,35.59729300012305],[138.2432959995686,35.59716799975458],[138.24323400030676,35.59701399984741],[138.24317200014556,35.596892999663396],[138.24308599977695,35.59678900026335],[138.24292300035407,35.59663100017171],[138.24279499984723,35.59656599987219],[138.24268400012437,35.59653000001069],[138.24257603837444,35.59648477283544],[138.243309,35.597365],[138.24196058804222,35.598775620489505],[138.24221400003395,35.598611999795146]]],[[[138.24351000044405,35.59476999978686],[138.24352600028257,35.59470300029443],[138.2435280003748,35.594624000248615],[138.2434870002827,35.594487000226074],[138.2434300003521,35.59438500001893],[138.24335200035242,35.59431200024981],[138.2432249998917,35.59423100011176],[138.24301500010006,35.59408699976642],[138.24297055046787,35.594046404097824],[138.24351,35.59477],[138.24350999797474,35.59477000292642],[138.24351000044405,35.59476999978686]]],[[[138.24280400026228,35.59382300018251],[138.24280400148695,35.59382299557762],[138.242804,35.593823],[138.24280400029863,35.59382300040055],[138.24280400026228,35.59382300018251]]],[[[138.24287199980083,35.593669000275334],[138.24296699968517,35.59359599960689],[138.24317899956904,35.59343999960749],[138.24333599961457,35.59327900027684],[138.2434589998908,35.59306700039295],[138.24356200014407,35.59290900030132],[138.24360200019004,35.59279400039401],[138.2436159999363,35.592712000209836],[138.24360600037448,35.592643999771965],[138.2435630001902,35.592519000302815],[138.24346099998303,35.59232200021133],[138.24339699972964,35.592120999935396],[138.24339515252422,35.592064837447346],[138.24284144441435,35.593711635564546],[138.24287199980083,35.593669000275334]]],[[[138.24354700035167,35.59166000026],[138.24357699993647,35.59159700005271],[138.24357699993647,35.591524000283584],[138.2435769999198,35.59152400023848],[138.24352102816178,35.59169046734291],[138.24354700035167,35.59166000026]]],[[[138.2435359998444,35.5914129996614],[138.24344900032898,35.59131799977706],[138.24332613110454,35.5912285854398],[138.24357699970219,35.591523999649326],[138.2435359998444,35.5914129996614]]],[[[138.2414160001062,35.58897499964771],[138.24138599962205,35.58891200033975],[138.24133099978368,35.58878199974069],[138.2412909997377,35.58867200006395],[138.24126100015292,35.58862999992576],[138.24121699992247,35.58856799976458],[138.24113599978443,35.588493999949335],[138.2409490001541,35.58835099965011],[138.24082225659652,35.588280109163875],[138.24141779718676,35.588981397226036],[138.2414160001062,35.58897499964771]]],[[[138.2399410004347,35.58723500034618],[138.23989600015815,35.58713000000069],[138.2398210002968,35.58701300000114],[138.2397089996285,35.58691299988623],[138.2396080003668,35.58683900007099],[138.2394940022262,35.586716002621486],[138.23995293110775,35.58725642144649],[138.2399410004347,35.58723500034618]]],[[[138.23942700011384,35.58645200021083],[138.2394169996527,35.58631200004996],[138.2393809997912,35.58617099984296],[138.23931999967613,35.58597399975149],[138.23929899960703,35.58586500012086],[138.23929899960703,35.58576199986759],[138.23930599992983,35.58567300025995],[138.23931999967613,35.585552000075936],[138.23933600041397,35.5853869996615],[138.23934900011415,35.585213999777466],[138.23935600043694,35.584980999824474],[138.23933799960687,35.58488099970957],[138.23927200016055,35.58477500021728],[138.2392110000455,35.584678000240714],[138.23913500013802,35.584585000448605],[138.23901700009236,35.58444200014938],[138.23891900006967,35.58428600014998],[138.2388309996088,35.58410199975869],[138.238749000324,35.583928999874644],[138.23872226611658,35.58387119597217],[138.23942583223183,35.58646471656461],[138.23942700011384,35.58645200021083]]],[[[138.23978799967432,35.58308699971646],[138.2398930000198,35.58306599964736],[138.2400409996503,35.583030999831976],[138.24011100018038,35.582998000108816],[138.24019999978805,35.58294200022433],[138.24027100036426,35.582889999624975],[138.24035899992577,35.58281199962528],[138.24044100010994,35.582733999625574],[138.24051199978683,35.58266700013314],[138.240593999971,35.58255500036417],[138.2406439995788,35.58243600027239],[138.2406709999246,35.582336000157476],[138.2406919999937,35.58223099981198],[138.24070699978608,35.58213499988153],[138.24071211782876,35.58207768056509],[138.240594,35.582555],[138.23973800815287,35.58310103269407],[138.23978799967432,35.58308699971646]]],[[[138.24113000040708,35.58038900030331],[138.24116900040693,35.58021799961219],[138.24117799992263,35.58011600030437],[138.24116900040693,35.5800059997283],[138.24113499973834,35.57990599961339],[138.24111699980756,35.57982600042078],[138.24107799980771,35.57973099963712],[138.24102800019992,35.57955599966085],[138.24100600008472,35.57940699998426],[138.2409989997619,35.57924399966205],[138.24100800017695,35.57912599961639],[138.24102099987712,35.57901099970906],[138.24104900026902,35.578891999617284],[138.24106700019976,35.57879000030946],[138.24108700022276,35.57867300030991],[138.24111399966924,35.57843300003412],[138.2411260002226,35.578235999942635],[138.24113699983056,35.578079999943235],[138.24113699983056,35.577954999574764],[138.24112800031483,35.57783100015173],[138.24111699980756,35.57767200001398],[138.2410830000383,35.577579000221874],[138.24099200033842,35.57741399980744],[138.24089400031573,35.57725999990028],[138.24076699985503,35.57704199973969],[138.24073900036245,35.57694599980924],[138.24069800027038,35.57684899983268],[138.24063199992474,35.57673399992535],[138.24058899974042,35.57663099967209],[138.24055099978668,35.57654400015667],[138.2405221868335,35.57647290694997],[138.24113,35.580389],[138.24112998760796,35.580389050076775],[138.24113000040708,35.58038900030331]]],[[[138.2405230002941,35.57608899985865],[138.24057800013247,35.57597900018192],[138.24062000027067,35.57588400029757],[138.2406299998325,35.575862000182354],[138.2406940000859,35.57575199960629],[138.2407510000165,35.575652000390704],[138.24078899997025,35.575553000321904],[138.24081899955507,35.575459999630475],[138.24086167070257,35.575302506828706],[138.24047300004094,35.57615599991011],[138.2405230002941,35.57608899985865]]],[[[138.24097400040768,35.57509699997776],[138.24107399962327,35.5750359998627],[138.24119899999172,35.5749729996554],[138.2413099997146,35.57491699977092],[138.24141299996785,35.574867000163124],[138.24146499966787,35.574816999656],[138.24146999989844,35.574739999702416],[138.24144899982934,35.57466399979495],[138.2414220003829,35.57454799984151],[138.24141700015232,35.574424999565274],[138.24143800022142,35.57428899958885],[138.24146999989844,35.57420400016567],[138.24153300010573,35.57411299956647],[138.24160399978263,35.574023999958825],[138.24169000015127,35.573929000074486],[138.24172199982831,35.57389200016688],[138.24183299955115,35.57375300005211],[138.24187000035812,35.573675000052404],[138.2418830000583,35.57359299986825],[138.24187199955102,35.57346900044521],[138.24184700019677,35.57335200044566],[138.24183799978175,35.57325899975423],[138.24183322923056,35.57316903352165],[138.24094103395632,35.575128230777835],[138.24097400040768,35.57509699997776]]],[[[138.24204500033437,35.57270400024061],[138.24204500230255,35.572703998295836],[138.242045,35.572704],[138.24204499918352,35.57270400179292],[138.24204500033437,35.57270400024061]]]]}},{"type":"Feature","properties":{"layer_id":"scenic_nature_areas","name":"春野町中川根町","category":"nature","source":"国土交通省 国土数値情報","municipality_code":"19364","municipality_pref":"山梨県","municipality_name":"早川町","municipality_code_method":"nearest_centroid"},"geometry":{"type":"MultiPolygon","coordinates":[[[[138.22903300013073,35.645586999591586],[138.2290580003843,35.64554200021438],[138.2291150003149,35.64548600032988],[138.22931100036024,35.64533399961563],[138.22957099975972,35.64511500030825],[138.22978699982806,35.64487299994023],[138.23011499966537,35.64452299998769],[138.23027499984923,35.64435999966548],[138.2304089983314,35.64418300144891],[138.22836600057727,35.645956999498736],[138.2286050001785,35.645931000166755],[138.22878100020088,35.64589700039748],[138.2289020003849,35.64585200012094],[138.2289899999464,35.64580899993663],[138.2290310000385,35.64575200000603],[138.22902899994628,35.64562799968367],[138.22903300013073,35.645586999591586]]],[[[138.23056799987117,35.64392700038199],[138.23069999966313,35.64367000022156],[138.23079799968582,35.643465999807276],[138.23085999984698,35.64326699962356],[138.2308969241032,35.64311955597036],[138.23040900146145,35.644182996814756],[138.23056799987117,35.64392700038199]]],[[[138.23227300025664,35.64016400041952],[138.2323140003487,35.640097000027765],[138.2323140003487,35.64003099968212],[138.23229799961086,35.63984500009791],[138.23228912580785,35.63980950488581],[138.232314,35.640031],[138.2322303047696,35.64021341606125],[138.23227300025664,35.64016400041952]]],[[[138.23201400000397,35.63732499990005],[138.23200699968118,35.63723000001572],[138.23198900040478,35.63713700360445],[138.23201108825467,35.63733368741228],[138.23201400000397,35.63732499990005]]],[[[138.23195099979668,35.63704200033928],[138.23188400030423,35.63693599994767],[138.23174300009725,35.636750000363456],[138.23162700014382,35.63656399987992],[138.23148800002906,35.63633400006528],[138.2314059998449,35.63622699962757],[138.23130599972998,35.63610500029676],[138.23119700009934,35.6360169998359],[138.23099399973117,35.63589300041287],[138.2309030000313,35.63583899972129],[138.23089153321456,35.6358304919221],[138.23198899935278,35.63713699922952],[138.23195099979668,35.63704200033928]]],[[[138.2304770001713,35.63533699995382],[138.23045900024056,35.63523899993113],[138.2304709998946,35.63513999986233],[138.23050499966388,35.63501699958609],[138.23053200000967,35.634905999863236],[138.23051700021728,35.63477500011739],[138.23044400044813,35.634561000141275],[138.23040100026384,35.63441899988816],[138.2303559999873,35.63429100028067],[138.23030999966463,35.63417200018889],[138.23021899996476,35.63397900028187],[138.23013599973447,35.633785000328736],[138.23006199991923,35.63361299959149],[138.2300389997579,35.63354400000682],[138.229916000381,35.63320200042321],[138.22986399978163,35.63303599996266],[138.2298540002198,35.63295799996296],[138.22980000042756,35.63272600005609],[138.22972499966687,35.63250799989551],[138.2296710004226,35.63237900155094],[138.230477,35.635337],[138.23047700046894,35.63533700055825],[138.2304770001713,35.63533699995382]]],[[[138.2296279996903,35.63166699978345],[138.22963900019758,35.631436999968805],[138.2296620003589,35.63104099969361],[138.22965700012833,35.630807999740625],[138.22965299994388,35.63068200022536],[138.22964400042815,35.630562000087465],[138.22960200028996,35.630466000157014],[138.22950899959852,35.630344999973005],[138.22949492506186,35.63032103972566],[138.22962394836983,35.63182906150925],[138.2296279996903,35.63166699978345]]],[[[138.22930500008357,35.62791500032823],[138.22929599966852,35.627869000005575],[138.22928000007232,35.62780900084531],[138.22930376024732,35.62808670928468],[138.22930500008357,35.62791500032823]]],[[[138.22924299992238,35.62776100042106],[138.2291239998306,35.62766100030615],[138.22891477981062,35.627523728508805],[138.22927999969554,35.627808999762195],[138.22924299992238,35.62776100042106]]],[[[138.22827500024894,35.62702399970905],[138.22832699994896,35.62692399959413],[138.2285280002249,35.62675900007902],[138.22871699994747,35.626625000194835],[138.22879399990106,35.6265450001029],[138.22883800013147,35.62647400042601],[138.22889700015432,35.62634399982696],[138.22895900031548,35.626187999827565],[138.22899300008476,35.62604799966668],[138.22898799985418,35.62579899987517],[138.2289390002925,35.62549200010696],[138.22888294037134,35.62520776628535],[138.228275,35.627024],[138.22827500019295,35.62702400015072],[138.22827500024894,35.62702399970905]]],[[[138.22891600013116,35.62510900043125],[138.2289160051547,35.625108999215826],[138.228916,35.625109],[138.2289159996689,35.625109000989134],[138.22891600013116,35.62510900043125]]],[[[138.22912699996894,35.62507899994712],[138.22942300012923,35.62505199960133],[138.2297314288407,35.62498495035335],[138.22908621005521,35.62508310626636],[138.22912699996894,35.62507899994712]]],[[[138.23117099979967,35.62478499987907],[138.23128899952277,35.6247480000726],[138.23109530583852,35.62477746632629],[138.23117099979967,35.62478499987907]]],[[[138.23138699986802,35.62468599981028],[138.2314710001444,35.62459900029486],[138.23154399991353,35.62446100022621],[138.2316470001668,35.62422900031934],[138.2316641045372,35.62419575046293],[138.23128900015055,35.62474799977836],[138.23138699986802,35.62468599981028]]],[[[138.2321360002341,35.623501000022365],[138.23213600055806,35.623500999824536],[138.232136,35.623501],[138.23213599953814,35.62350100067997],[138.2321360002341,35.623501000022365]]],[[[138.2360790004034,35.62227200000403],[138.23620399987257,35.622222000396235],[138.23631300040253,35.622151999866134],[138.23635799977973,35.6221060004428],[138.2364110004252,35.622033999820474],[138.23644100001002,35.621965000235804],[138.2364769998715,35.621844000051794],[138.23650418515766,35.62172966092135],[138.236204,35.622222],[138.23586372355058,35.62232898465555],[138.2360790004034,35.62227200000403]]],[[[138.23671400000896,35.62139900021492],[138.23688199746343,35.6211100041603],[138.23667479655097,35.62144983810518],[138.23671400000896,35.62139900021492]]],[[[138.23691000005434,35.62096600003211],[138.2368940002158,35.620874000286115],[138.23687300014672,35.620783999733035],[138.2368299999624,35.62061500003345],[138.23681600021612,35.62054100021822],[138.23676399961676,35.62036400014972],[138.23674066148007,35.6203175620315],[138.23688199987362,35.621109999291406],[138.23691000005434,35.62096600003211]]],[[[138.2366590001706,35.61960700031405],[138.23668899975542,35.61950099992244],[138.23668200033194,35.61938199983066],[138.23664799966332,35.61916699980843],[138.2365959999633,35.61897499994752],[138.23652300019418,35.61878900036331],[138.23643200027766,35.61858700155664],[138.23662096206465,35.619646447309115],[138.2366590001706,35.61960700031405]]],[[[138.23632199991823,35.61836899988067],[138.23619200021852,35.618152999812324],[138.23602399966572,35.61788700013618],[138.23587600003526,35.61760999995276],[138.23576700040462,35.61739099974607],[138.2356440001284,35.61720300006963],[138.23554400001348,35.61703999974742],[138.2355320003594,35.61702099977055],[138.23539100015242,35.616820000393936],[138.23527200006063,35.616664000394536],[138.2351200002457,35.61647299968042],[138.2350060003845,35.61630299993473],[138.23485599976246,35.61606899993563],[138.23467799964783,35.61577699995981],[138.23455100008647,35.61555000028352],[138.2344269997641,35.61538299977685],[138.23433199987977,35.61528199961582],[138.23425499992618,35.615180000308],[138.23419499985724,35.615094999985494],[138.2341522164968,35.61504593618785],[138.23643199803078,35.61858699694132],[138.23632199991823,35.61836899988067]]],[[[138.23544299985244,35.6145429997109],[138.2355819999672,35.614500000425906],[138.23572600031255,35.61442899984969],[138.23580500035837,35.614338000149814],[138.2358669996202,35.61422500033473],[138.23596899982735,35.61400900026638],[138.2360219995735,35.61386199978269],[138.2360639997117,35.613661000406076],[138.2360839997347,35.613427999553764],[138.23611200012658,35.61320700015416],[138.2361172951243,35.61316675766358],[138.235726,35.614429],[138.23485286231602,35.61469184035671],[138.23544299985244,35.6145429997109]]],[[[138.23625300033356,35.61272899969481],[138.2362639999415,35.61261199969526],[138.23625300033356,35.61249299960349],[138.23621400033372,35.612378999742276],[138.2361685855108,35.61232440044554],[138.236253,35.612729],[138.236252994079,35.61272901910005],[138.23625300033356,35.61272899969481]]],[[[138.23597500010405,35.61126399958514],[138.23599800026537,35.61113700002376],[138.23599800026537,35.61100700032404],[138.235985999712,35.610907000209124],[138.23596100035775,35.61078800011734],[138.23592000026568,35.610656000325385],[138.2358659995741,35.610557000256584],[138.2357949998972,35.61044599963441],[138.23576897274813,35.61040905217721],[138.23595829402868,35.611316471110484],[138.23597500010405,35.61126399958514]]],[[[138.23513700013032,35.607380000337976],[138.23513700160595,35.60737999649512],[138.235137,35.60738],[138.23513700010147,35.60738000048628],[138.23513700013032,35.607380000337976]]],[[[138.23532599985288,35.606969000270375],[138.2353690000372,35.6069149995788],[138.23544700003688,35.60682399987893],[138.2354979996908,35.606719000432754],[138.23554099987513,35.60661500013338],[138.23561000035912,35.6063969999728],[138.2356548576303,35.606249810712264],[138.23532280878703,35.60697448487698],[138.23532599985288,35.606969000270375]]],[[[138.23572900027344,35.606087999941046],[138.235729,35.606088],[138.23572899999695,35.60608800000666],[138.23572900027344,35.606087999941046]]],[[[138.2359509998966,35.606070000181596],[138.2361629997805,35.60609100025069],[138.23630299994136,35.60609500043516],[138.23645299966407,35.60607699960508],[138.23687500023894,35.60595100008982],[138.23725799991465,35.60579299999818],[138.2374180000985,35.60572400041352],[138.23742028829847,35.60572337062141],[138.23586806084998,35.606058019498526],[138.2359509998966,35.606070000181596]]],[[[138.2388369998855,35.60546900034532],[138.23912000034562,35.60549099956121],[138.23938900016012,35.60547100043756],[138.23962600029756,35.60542400006878],[138.23979600004324,35.605376999700006],[138.24008800001906,35.605276999585094],[138.24037000043305,35.60519899958539],[138.24063400001697,35.60510799988552],[138.24071200001666,35.60505400009326],[138.24075699990163,35.605004000021204],[138.23869039365394,35.60544954520269],[138.2388369998855,35.60546900034532]]],[[[138.2407570002932,35.605003999586145],[138.24079000001637,35.604940000232055],[138.24080199967042,35.6048580000479],[138.24078892570788,35.6048032519571],[138.24075700001703,35.60500399989302],[138.2407570002932,35.605003999586145]]],[[[138.2410320003844,35.6034839996381],[138.2410609999231,35.603371999869125],[138.2410819999922,35.603250999685116],[138.241089000315,35.603186000284914],[138.2410840000844,35.60302700014717],[138.24107916082204,35.602978260907015],[138.24098302355364,35.60358276961677],[138.2410320003844,35.6034839996381]]],[[[138.24144399959877,35.60070099990245],[138.24147600017514,35.60062099981052],[138.24157100005948,35.60033500011139],[138.24159100008245,35.60012000008916],[138.2415930001747,35.600066000296906],[138.24159999432925,35.59970327299927],[138.24144025399102,35.600707716202],[138.24144399959877,35.60070099990245]]],[[[138.24221400003395,35.59861199979518],[138.24241800044823,35.598436999818915],[138.24262700019378,35.59827200030381],[138.24268600021662,35.59820299981982],[138.2428270004236,35.59804699982042],[138.2429479997083,35.59792200035127],[138.24306699980008,35.597782000190385],[138.24314899998424,35.597690000444395],[138.24322800003006,35.59758700019113],[138.24329200028347,35.59745500039918],[138.2433090001681,35.59736499984609],[138.2433090001681,35.59729300012309],[138.2432959995686,35.59716799975462],[138.24323400030676,35.59701399984745],[138.24317200014556,35.59689299966343],[138.24308599977695,35.596789000263385],[138.24292300035407,35.59663100017175],[138.24279499984723,35.596565999872226],[138.24268400012437,35.59653000001072],[138.2425760383745,35.596484772835495],[138.243309,35.597365],[138.2419605880421,35.59877562048962],[138.24221400003395,35.59861199979518]]],[[[138.24351000044405,35.59476999978689],[138.24352600028257,35.59470300029446],[138.2435280003748,35.59462400024864],[138.2434870002827,35.59448700022611],[138.2434300003521,35.594385000018974],[138.24335200035242,35.59431200024984],[138.2432249998917,35.5942310001118],[138.24301500010006,35.59408699976645],[138.24297055046796,35.59404640409794],[138.24351,35.59477],[138.24350999797457,35.59477000292666],[138.24351000044405,35.59476999978689]]],[[[138.24280400026228,35.593823000182546],[138.242804001487,35.59382299557748],[138.242804,35.593823],[138.2428040002986,35.59382300040054],[138.24280400026228,35.593823000182546]]],[[[138.24287199980083,35.59366900027537],[138.24296699968517,35.59359599960693],[138.24317899956904,35.593439999607526],[138.24333599961457,35.59327900027688],[138.2434589998908,35.59306700039299],[138.24356200014407,35.592909000301354],[138.24360200019004,35.592794000394036],[138.2436159999363,35.59271200020987],[138.24360600037448,35.592643999772],[138.2435630001902,35.59251900030285],[138.24346099998303,35.59232200021137],[138.24339699972964,35.59212099993543],[138.24339515252422,35.592064837447346],[138.24284144441432,35.59371163556462],[138.24287199980083,35.59366900027537]]],[[[138.24354700035167,35.591660000260035],[138.24357699993647,35.591597000052744],[138.24357699993647,35.59152400028361],[138.2435769999198,35.59152400023849],[138.24352102816175,35.591690467342964],[138.24354700035167,35.591660000260035]]],[[[138.2435359998444,35.59141299966144],[138.24344900032898,35.5913179997771],[138.24332613110462,35.59122858543989],[138.24357699970216,35.5915239996493],[138.2435359998444,35.59141299966144]]],[[[138.2414160001062,35.588974999647746],[138.24138599962205,35.588912000339775],[138.24133099978368,35.58878199974073],[138.2412909997377,35.58867200006398],[138.24126100015292,35.588629999925786],[138.24121699992247,35.58856799976461],[138.24113599978443,35.58849399994937],[138.2409490001541,35.588350999650146],[138.24082225659657,35.58828010916394],[138.24141779718673,35.58898139722602],[138.2414160001062,35.588974999647746]]],[[[138.2399410004347,35.58723500034622],[138.23989600015815,35.58713000000073],[138.2398210002968,35.58701300000118],[138.2397089996285,35.586912999886266],[138.2396080003668,35.58683900007102],[138.23949400222656,35.58671600262191],[138.2399529311077,35.587256421446426],[138.2399410004347,35.58723500034622]]],[[[138.23942700011384,35.58645200021087],[138.2394169996527,35.58631200004999],[138.2393809997912,35.586170999843006],[138.23931999967613,35.585973999751516],[138.23929899960703,35.58586500012089],[138.23929899960703,35.58576199986763],[138.23930599992983,35.58567300025999],[138.23931999967613,35.58555200007597],[138.23933600041397,35.58538699966154],[138.23934900011415,35.5852139997775],[138.23935600043694,35.58498099982451],[138.23933799960687,35.5848809997096],[138.23927200016055,35.58477500021732],[138.2392110000455,35.58467800024075],[138.23913500013802,35.58458500044864],[138.23901700009236,35.584442000149416],[138.23891900006967,35.584286000150016],[138.2388309996088,35.584101999758715],[138.238749000324,35.58392899987467],[138.23872226611658,35.58387119597226],[138.23942583223186,35.58646471656462],[138.23942700011384,35.58645200021087]]],[[[138.23978799967432,35.58308699971649],[138.2398930000198,35.583065999647395],[138.2400409996503,35.583030999832005],[138.24011100018038,35.58299800010885],[138.24019999978805,35.582942000224364],[138.24027100036426,35.58288999962501],[138.24035899992577,35.582811999625314],[138.24044100010994,35.58273399962561],[138.24051199978683,35.582667000133185],[138.240593999971,35.5825550003642],[138.2406439995788,35.58243600027242],[138.2406709999246,35.58233600015751],[138.2406919999937,35.582230999812026],[138.24070699978608,35.58213499988157],[138.24071211782876,35.58207768056507],[138.240594,35.582555],[138.23973800815276,35.58310103269413],[138.23978799967432,35.58308699971649]]],[[[138.24113000040708,35.58038900030335],[138.24116900040693,35.58021799961222],[138.24117799992263,35.5801160003044],[138.24116900040693,35.580005999728336],[138.24113499973834,35.57990599961342],[138.24111699980756,35.579826000420816],[138.24107799980771,35.57973099963716],[138.24102800019992,35.57955599966088],[138.24100600008472,35.5794069999843],[138.2409989997619,35.57924399966208],[138.24100800017695,35.57912599961642],[138.24102099987712,35.5790109997091],[138.24104900026902,35.57889199961732],[138.24106700019976,35.578790000309496],[138.24108700022276,35.57867300030995],[138.24111399966924,35.57843300003415],[138.2411260002226,35.57823599994267],[138.24113699983056,35.57807999994327],[138.24113699983056,35.5779549995748],[138.24112800031483,35.577831000151775],[138.24111699980756,35.57767200001402],[138.2410830000383,35.57757900022191],[138.24099200033842,35.577413999807476],[138.24089400031573,35.577259999900306],[138.24076699985503,35.577041999739734],[138.24073900036245,35.576945999809276],[138.24069800027038,35.576848999832706],[138.24063199992474,35.57673399992539],[138.24058899974042,35.576630999672126],[138.24055099978668,35.576544000156716],[138.2405221868335,35.57647290695003],[138.24113,35.580389],[138.24112998760774,35.58038905007772],[138.24113000040708,35.58038900030335]]],[[[138.2405230002941,35.57608899985868],[138.24057800013247,35.575979000181945],[138.24062000027067,35.575884000297606],[138.2406299998325,35.57586200018239],[138.2406940000859,35.575751999606325],[138.2407510000165,35.57565200039073],[138.24078899997025,35.57555300032194],[138.24081899955507,35.57545999963051],[138.2408616707026,35.57530250682865],[138.2404730000409,35.5761559999102],[138.2405230002941,35.57608899985868]]],[[[138.24097400040768,35.575096999977795],[138.24107399962327,35.575035999862735],[138.24119899999172,35.57497299965544],[138.2413099997146,35.574916999770956],[138.24141299996785,35.57486700016316],[138.24146499966787,35.574816999656036],[138.24146999989844,35.57473999970245],[138.24144899982934,35.574663999794986],[138.2414220003829,35.57454799984155],[138.24141700015232,35.57442499956531],[138.24143800022142,35.57428899958889],[138.24146999989844,35.57420400016571],[138.24153300010573,35.57411299956651],[138.24160399978263,35.57402399995886],[138.24169000015127,35.57392900007453],[138.24172199982831,35.57389200016691],[138.24183299955115,35.57375300005214],[138.24187000035812,35.57367500005244],[138.2418830000583,35.57359299986828],[138.24187199955102,35.57346900044524],[138.24184700019677,35.573352000445695],[138.24183799978175,35.573258999754266],[138.24183322923056,35.57316903352166],[138.2409410339563,35.5751282307779],[138.24097400040768,35.575096999977795]]],[[[138.24204500033437,35.57270400024065],[138.2420450023027,35.57270399829574],[138.242045,35.572704],[138.24204499918346,35.572704001793014],[138.24204500033437,35.57270400024065]]]]}},{"type":"Feature","properties":{"layer_id":"scenic_nature_areas","name":"早川町","category":"nature","source":"国土交通省 国土数値情報","municipality_code":"19364","municipality_pref":"山梨県","municipality_name":"早川町","municipality_code_method":"nearest_centroid"},"geometry":{"type":"Polygon","coordinates":[[[138.26893705,35.43568001],[138.26969597,35.43568998000002],[138.27014803,35.43554103000004],[138.2703119800001,35.43529100999996],[138.27025503,35.435086019999964],[138.26982304000003,35.434617999999965],[138.26941403000004,35.43424596],[138.26928198000002,35.434017999999966],[138.26939702000004,35.43301200000005],[138.26949695000005,35.43181096999997],[138.26947598,35.430928980000004],[138.27000593999998,35.43038997999999],[138.27031704000004,35.430312020000024],[138.27112699,35.43021803999997],[138.27207503000002,35.43020602999996],[138.27239205000006,35.43007303999997],[138.27268097999996,35.42988497000004],[138.27296999,35.42960298999998],[138.27327799,35.42913999000004],[138.27353004000005,35.42844200000002],[138.27356103000005,35.427656999999996],[138.27353495000003,35.42662798000003],[138.27346404000002,35.42468804000001],[138.27331199999998,35.42404402000001],[138.273188,35.42363597000001],[138.27323801000006,35.422952989999985],[138.27333504,35.422466020000016],[138.27355702,35.42219197999999],[138.27379804000003,35.421963970000036],[138.27415394,35.42178398999998],[138.27442301000005,35.42173004000004],[138.27484504000006,35.42173101000004],[138.27552698,35.42184203999999],[138.276478,35.42180402000004],[138.27792793999998,35.421815009999975],[138.27847603000004,35.42172201],[138.27887004000002,35.42162003],[138.27996497000004,35.42165398999997],[138.28127103,35.42166396],[138.28192397000004,35.42166495999999],[138.28230805,35.421618990000006],[138.28288504000005,35.421416019999995],[138.28334703,35.42116503000001],[138.28391494,35.42059302000003],[138.28421404999997,35.42000496000004],[138.28430196000005,35.419479019999955],[138.28431196999998,35.419062999999994],[138.28424598000004,35.41873296999996],[138.28401699,35.41837098000003],[138.28373000999997,35.417923040000005],[138.28346201,35.41754600999998],[138.28344402000002,35.417285029999974],[138.28340098,35.41693704000004],[138.28358900000003,35.41674495999996],[138.28375302,35.41641497000001],[138.28381204000002,35.41587396000001],[138.283727,35.41542596999999],[138.28354504000004,35.41530001000004],[138.28311302999998,35.41527596],[138.28261302,35.41528299999997],[138.28217200000003,35.415195999999966],[138.28179701,35.41503802000004],[138.28140499999998,35.41473103000004],[138.28118397999998,35.41452604000004],[138.28104105000006,35.41418896000004],[138.28100299000002,35.41389003],[138.28101395999997,35.413403010000025],[138.28109205,35.41301899000005],[138.28112203,35.412696979999964],[138.28113200999996,35.41258697000001],[138.28080196,35.412278040000025],[138.28025996000002,35.41220498000002],[138.27981297000005,35.41237797000004],[138.27901595000003,35.41236803000001],[138.27871898000006,35.41235898999997],[138.27865996999998,35.412202000000036],[138.27797401000004,35.41213398000001],[138.27769296000008,35.41276102000002],[138.2772400300001,35.41366296000004],[138.27673900000002,35.414007959999985],[138.27596104000003,35.41422600999999],[138.27549997999998,35.414279960000016],[138.27488495,35.414341969999995],[138.27442400000004,35.41441196000002],[138.27403902999998,35.41463896999997],[138.27345103000002,35.41531295999996],[138.27271801,35.41655196999998],[138.27135699000002,35.41559201000004],[138.27126199999998,35.41531702000003],[138.27126499999997,35.414249000000034],[138.27113101999998,35.41394204000004],[138.27045099000003,35.41348598999996],[138.27043195000005,35.413312950000034],[138.27180703000005,35.41260098000001],[138.27396103,35.41157597000002],[138.27408701999997,35.41129398999996],[138.27386595000004,35.41104202999999],[138.27285001,35.410420040000034],[138.27246705000005,35.41013701999998],[138.27243901000003,35.40970500000003],[138.27294001,35.409281960000015],[138.27350798,35.408835019999984],[138.27375794,35.40859198000004],[138.27383494999998,35.40838804000004],[138.27376904000002,35.408144990000004],[138.27342402,35.40791599999997],[138.27297296999998,35.40782100000002],[138.27156098000003,35.407913019999995],[138.27017702,35.408263989999995],[138.26915899000005,35.408560029999975],[138.26894704000003,35.40852801999999],[138.26826698999997,35.40818202000005],[138.267605,35.40792096000003],[138.26718203000001,35.40786497000002],[138.26639502999998,35.40782398],[138.26642395,35.40767501000002],[138.26692494999998,35.40734699999997],[138.26723297000004,35.40702498999997],[138.26718805000007,35.40606701000002],[138.26705396999998,35.40591003],[138.26670900000005,35.40546199999997],[138.26643198000002,35.40497396],[138.26631799,35.40450304000002],[138.26626196,35.404040009999996],[138.26637802,35.40365497000002],[138.26658105,35.40328596000005],[138.26712000000003,35.40276898999999],[138.26763105000003,35.40227597999997],[138.26799602000003,35.40192298999998],[138.26811195000002,35.401688019999995],[138.26810305,35.40159299000003],[138.26744995999996,35.401663029999966],[138.26670097,35.40176296999998],[138.26621104000003,35.40181001000005],[138.26591302,35.401816960000005],[138.26255204,35.401856970000026],[138.26168702,35.40229496000003],[138.26072405,35.403236019999994],[138.25904395999999,35.40638899000002],[138.25812699999997,35.40746900000003],[138.25813999999997,35.407664999999994],[138.258165,35.407910000000015],[138.25817199999995,35.40796099999997],[138.25817700000002,35.408073],[138.25817099999998,35.40835599999997],[138.25813799999997,35.40851000000001],[138.25813743956888,35.4085110549291],[138.25819750825067,35.411553928052214],[138.25819900000005,35.41155900000004],[138.25819788240946,35.411572881651345],[138.25820424756043,35.411895318338274],[138.25823099999997,35.41200599999999],[138.25823099999997,35.41204600000001],[138.25822399999998,35.41224099999998],[138.25821499999998,35.41243999999914],[138.258215,35.41244],[138.2582149999999,35.412440000000416],[138.25819,35.412591999999975],[138.25814199999996,35.412737999999976],[138.25813000000005,35.41282100000001],[138.25814199999996,35.41291900000003],[138.25814500000004,35.41297299999997],[138.25813000000005,35.41304799999996],[138.258078,35.413144],[138.25803800000006,35.41323399999999],[138.25798600000002,35.41335399999997],[138.25795400000004,35.41343200000003],[138.25793699999997,35.41349999999997],[138.25792600000003,35.41356500000002],[138.257904,35.41379800000002],[138.25789700000004,35.41387599999999],[138.25787799999998,35.41393599999998],[138.25783299999998,35.41402399999998],[138.25779099999997,35.41408900000003],[138.25774800000005,35.414153],[138.25769400000001,35.41424199999999],[138.25768252366265,35.41426649756629],[138.2575990000001,35.41455299999965],[138.25759900000006,35.41455299999996],[138.25759900000008,35.41455300000044],[138.25765892689415,35.41485369257003],[138.25775200000004,35.41499600000002],[138.25778400000002,35.41507899999996],[138.25782900000002,35.41517200000002],[138.25792400000006,35.41535499999998],[138.258003,35.415533000000046],[138.25808099999998,35.41574699999999],[138.258194,35.415968999999976],[138.25819900000005,35.416001000000044],[138.25820500000003,35.41612699999999],[138.25821600000006,35.41637699999998],[138.25822399999998,35.41653999999997],[138.25822699999998,35.416768000000005],[138.25825900000007,35.41700899999996],[138.25824199999997,35.41725299999999],[138.25822999999997,35.41744599999997],[138.25821900000003,35.417588999999985],[138.25821222682657,35.4176299615728],[138.25901306046325,35.42164826967589],[138.25906199999997,35.42168900000003],[138.259219,35.42178499999997],[138.25926299999998,35.42183099999996],[138.25926699999997,35.42188799999997],[138.259219,35.422000999999995],[138.25911855108112,35.42217758536054],[138.25946799999997,35.42393099999992],[138.259468,35.42393099999999],[138.259468,35.423931],[138.259468,35.42404400000001],[138.25946478210267,35.4240546917234],[138.25941966643845,35.4257888782692],[138.259425,35.42580099999999],[138.259507,35.42602499999997],[138.259568,35.426228999999964],[138.259565,35.426340999999994],[138.259524,35.426512000000024],[138.25947200000004,35.426751999999986],[138.25939599999998,35.42696600000002],[138.25938787790372,35.427010787559475],[138.25929025576542,35.43076325362097],[138.25937300000004,35.430870000000006],[138.25941300000005,35.430958000000004],[138.25944199999998,35.43108400000004],[138.259451,35.43121900000001],[138.25944199999998,35.431311999999984],[138.259425,35.43140700000003],[138.25936699999997,35.431616000000005],[138.259323,35.43182599999997],[138.25925600000002,35.43208000000003],[138.25925599999965,35.432080000001015],[138.257278,35.437752],[138.25726817241372,35.43776537513073],[138.25721100000004,35.43785200000003],[138.2571946392342,35.437865452185285],[138.25539700000022,35.440311999999686],[138.25539700000004,35.440312],[138.255397,35.440312000000176],[138.25545290582554,35.44319716519988],[138.25545800000003,35.443234000000004],[138.25547000000003,35.44333899999999],[138.25549900000004,35.44347199999998],[138.25553900000006,35.443614000000004],[138.255551,35.44367899999996],[138.25555400000007,35.44374300000002],[138.25556899999998,35.443921],[138.255548,35.44410900000001],[138.25552199999998,35.444262999999964],[138.255476,35.444389],[138.255403,35.444506000000004],[138.25558599000004,35.444950980000044],[138.25594902999998,35.445579989999956],[138.25675302999997,35.44653899999999],[138.25734701,35.44702697000004],[138.25784603,35.44723300000004],[138.25863402,35.44726596000001],[138.25926794000003,35.447313989999984],[138.25996897000005,35.44752703000003],[138.26053503,35.44776396],[138.26113005000002,35.447852010000005],[138.26169704000003,35.44782099000001],[138.26233294999997,35.447320040000044],[138.26285404,35.44662197000002],[138.26343203000005,35.44597999000001],[138.26394194999997,35.445571980000004],[138.26453898,35.44529096000002],[138.26508698000004,35.44501703],[138.26588593999998,35.444634040000025],[138.26661693999998,35.44406203000004],[138.26742600000003,35.44331801000003],[138.26788903999997,35.44274497000004],[138.26820794999998,35.442157029999976],[138.26836305000003,35.441694010000035],[138.26849401,35.441051980000026],[138.26846799,35.44038503],[138.26810998000005,35.439644039999976],[138.26759495,35.43901603999997],[138.26749705000003,35.43867698999999],[138.26718199,35.438157990000036],[138.26670301,35.43770197000005],[138.26565800000003,35.43708799999996],[138.26642796000004,35.436491990000036],[138.26738898,35.43627401000003],[138.26845598,35.43595404000002],[138.26893705,35.43568001]]]}},{"type":"Feature","properties":{"layer_id":"scenic_nature_areas","name":"身廷町","category":"nature","source":"国土交通省 国土数値情報","municipality_code":"19364","municipality_pref":"山梨県","municipality_name":"早川町","municipality_code_method":"nearest_centroid"},"geometry":{"type":"MultiPolygon","coordinates":[[[[138.368564,35.38101199999997],[138.36899004999998,35.38101199999997],[138.36957600999997,35.38109695999998],[138.36985403000006,35.381229029999986],[138.37038199000003,35.381313989999995],[138.37288994999997,35.381328030000006],[138.37447395000004,35.381342020000005],[138.37551501000002,35.381271],[138.37592598,35.38135601000001],[138.37661399,35.38187202999998],[138.37711199,35.38237599000003],[138.37730302999998,35.38255699],[138.37752303999997,35.38258097000002],[138.37778601999997,35.38284502000002],[138.37837202999998,35.38321801999997],[138.37875304000005,35.383362039999994],[138.37916400000006,35.38343396999999],[138.37961801000003,35.38356703999999],[138.37983797000004,35.38380698000003],[138.37995500000002,35.38411896],[138.37995404000003,35.38440702000003],[138.37995405000004,35.384611000000035],[138.38037899000003,35.384707019999986],[138.38084903000004,35.38469495999996],[138.38118598,35.38443202999997],[138.38130394,35.38407197000002],[138.38133402,35.38349600999997],[138.38133505,35.383184969999995],[138.38114401,35.382956029999974],[138.38082202,35.382943990000044],[138.38054297000002,35.38285997000001],[138.37997199000003,35.382426999999986],[138.37981099,35.38233103000004],[138.37967897000001,35.382318970000014],[138.37917996000004,35.382067020000044],[138.37822798000005,35.381514000000024],[138.37690998000005,35.380529019999976],[138.37636694999998,35.38021598000001],[138.37468098000002,35.38016698000004],[138.37075096,35.38005497000001],[138.37023805000004,35.38006597000003],[138.36987103000004,35.37983804],[138.36819894999996,35.379860020000045],[138.36784798,35.379416019999994],[138.36726295999998,35.37881503],[138.367204,35.378611019999994],[138.36692602,35.37840702],[138.36651604,35.37829902000003],[138.36619295,35.37816596000003],[138.366149,35.37799797999999],[138.36609097000002,35.37767402000001],[138.36609196,35.37754199000001],[138.36562301,35.37727802000002],[138.36532994,35.377121999999986],[138.36446495,35.37670101999997],[138.36387795000005,35.37670001999997],[138.36307196000004,35.37689099999997],[138.36274899999998,35.37690295999998],[138.362133,35.37678197000001],[138.36145897,35.376601030000046],[138.36081394,35.376708980000004],[138.36049098,35.376791970000035],[138.36022597000004,35.37700799999997],[138.36048995000002,35.37753602999996],[138.36048902000005,35.37776395999999],[138.35881704999997,35.37775002999999],[138.3585414779689,35.37789988532074],[138.35743,35.384661],[138.3563497702633,35.38432840466232],[138.357074,35.38494600000004],[138.35745495,35.38502996999998],[138.35833501,35.38503101999997],[138.35870200999997,35.38506699000001],[138.35896598999997,35.385140010000015],[138.35923004000006,35.38524799999998],[138.35966902000004,35.38571602999998],[138.36004903000006,35.38641299000001],[138.36028195000006,35.387277],[138.36047199000004,35.38780502999999],[138.36079394000004,35.388261039999975],[138.36127698000004,35.388837020000025],[138.36230197000003,35.38970202],[138.36316597,35.39036302999999],[138.36378095,35.39086699000003],[138.36429405,35.39142000000004],[138.36460098,35.39169602999996],[138.36496799,35.39178002999999],[138.36636097000004,35.39184196999996],[138.36688903999996,35.39180698],[138.36724199000002,35.39142303000003],[138.36763898,35.39094396],[138.36802103,35.390595979999986],[138.36840303999998,35.390381029999965],[138.36907698999997,35.39018903999998],[138.36934103,35.390166040000025],[138.36935603999996,35.39007000999999],[138.36910699999999,35.389770010000035],[138.36824301,35.38909697000004],[138.36787701999998,35.38870103999996],[138.36765795999997,35.38806503000001],[138.36751302,35.387333030000015],[138.36736696000006,35.38680497000002],[138.36741095000005,35.38650495999998],[138.36786704000005,35.38582203000005],[138.36851400000003,35.38495899999997],[138.36869005000003,35.38481502000004],[138.36946796,35.38455200000004],[138.37015694999997,35.38437302999998],[138.37053894999997,35.38433701000001],[138.37068605000007,35.38419302],[138.37068599999998,35.384025000000044],[138.37014394999997,35.38368897000004],[138.36904405,35.38367601000003],[138.36861904,35.383315030000006],[138.36697897000002,35.38193398000005],[138.36703797,35.381777970000016],[138.36728803000003,35.38151401000003],[138.36777201,35.38121502999998],[138.368564,35.38101199999997]]],[[[138.35712503000005,35.37256599999996],[138.35684704000005,35.372636989999975],[138.35630394892073,35.3728154085512],[138.35735744582504,35.37258602246432],[138.35712503000005,35.37256599999996]]],[[[138.35527695,35.373032019999975],[138.35455799000002,35.37299500000002],[138.35382498000004,35.372802000000036],[138.35340102000004,35.372560969999995],[138.35322499000003,35.37238098000002],[138.35282897000005,35.37239303000004],[138.35282869560967,35.37253184193729],[138.353812,35.373358],[138.35537395653373,35.37301790303752],[138.35527695,35.373032019999975]]],[[[138.35294595000005,35.38097004000005],[138.35296359450697,35.38099182781453],[138.352943308146,35.380881596471234],[138.35294595000005,35.38097004000005]]]]}},{"type":"Feature","properties":{"layer_id":"traditional_building_preservation_areas","name":"19364","category":"landscape","source":"国土交通省 国土数値情報","municipality_code":"19364","municipality_pref":"山梨県","municipality_name":"早川町","municipality_code_method":"nearest_centroid"},"geometry":{"type":"Polygon","coordinates":[[[138.3767893547839,35.39970046755536],[138.37675663719506,35.39962016074651],[138.37673284258506,35.39954282826369],[138.37669417634368,35.39944764982346],[138.37666740740747,35.39934652273081],[138.37665848442862,35.39925729294299],[138.37666145875482,35.399168063155344],[138.3767417655639,35.399117499608906],[138.3768280210253,35.39909667932511],[138.37688155889794,35.3991026279777],[138.37697673733817,35.39910857663028],[138.3770927360622,35.39909965365149],[138.37719088882864,35.399055038757524],[138.3773068875529,35.39895391166482],[138.37740504031933,35.39888847648723],[138.37753293634842,35.398805195352],[138.37763108911486,35.398760580458145],[138.3777054472713,35.398805195352],[138.37777088244889,35.398846835919585],[138.37788985549912,35.398787349394354],[138.3780177515282,35.39873083719556],[138.37813969890487,35.398686222301706],[138.3782765179127,35.39862078712389],[138.37837942960118,35.398549403293885],[138.3784829361549,35.39850657299564],[138.37858287351708,35.398456604314504],[138.37870065683683,35.39841020482493],[138.37879702500777,35.39834239018626],[138.37884699368885,35.398388789676005],[138.3789076699445,35.39843518916558],[138.37892194671042,35.398485157846665],[138.3789968997321,35.398453035123],[138.3791610825416,35.398374512909925],[138.37928600424436,35.39831383665427],[138.37940735675556,35.39824602201554],[138.37953227845856,35.39820319171747],[138.37963578501228,35.39813894627031],[138.37970359965084,35.39809611597224],[138.37979639863022,35.398053285674166],[138.3798856284178,35.39802830133351],[138.37993202790744,35.39802830133351],[138.37993916629046,35.39795691750328],[138.37996771982262,35.39793193316285],[138.3800248268867,35.39789624124762],[138.3800926415255,35.39788910286478],[138.38019971727067,35.39791765639677],[138.3802461167603,35.39794977912027],[138.38031750059054,35.39796405588635],[138.3803781768462,35.39799260941851],[138.38042100714426,35.39800688618442],[138.38046740663378,35.39796048669484],[138.38052094450643,35.397996178610015],[138.38056734399606,35.39805685486567],[138.38060660510257,35.39808897758917],[138.38064943540087,35.3981353770788],[138.38066728135823,35.398171068993975],[138.38073152680545,35.39813894627031],[138.38082789497628,35.39810325435525],[138.380924263147,35.39806042405701],[138.38102776970072,35.398024732142005],[138.38108844595638,35.398024732142005],[138.38110629191397,35.39804971648266],[138.38116696816962,35.39805685486567],[138.38117410655252,35.398031870525074],[138.38122764442528,35.398053285674166],[138.38133472017034,35.39807827001465],[138.38139539642623,35.39812110031272],[138.38148819540538,35.398163930610735],[138.38154887166104,35.39818891495139],[138.3816166862996,35.39820676090898],[138.3816737933637,35.398171068993975],[138.3816737933637,35.39811039273832],[138.38167022417235,35.39804971648266],[138.38168450093826,35.397989040227],[138.38168093174693,35.39791765639677],[138.38166308578934,35.397856980141114],[138.3816416706402,35.397792734693894],[138.38165594740633,35.39772848924673],[138.38168093174693,35.39766424379957],[138.38171305447042,35.397589290778],[138.38168450093826,35.39751790694777],[138.3816166862996,35.39746793826663],[138.38154530246948,35.39744652311754],[138.38149176459694,35.39742510796856],[138.3814382267243,35.39737870847898],[138.3814132423836,35.397318032223325],[138.381388258043,35.39723237162701],[138.3813365047663,35.39719905917292],[138.38126036201413,35.39716336725786],[138.38119849602788,35.39712529588178],[138.38109379974367,35.39708246558371],[138.38101289806934,35.397046773668535],[138.3809415142391,35.397011081753476],[138.38087250986996,35.39696587199438],[138.3807963671179,35.39692304169631],[138.38073926005382,35.39685165786608],[138.38066311730154,35.39680168918494],[138.38059649239335,35.39675409996494],[138.38054176479022,35.39669223397863],[138.38049655503107,35.39663036799254],[138.38045610419397,35.39656374308447],[138.3804299301229,35.39650663602032],[138.38039899712976,35.39647808248816],[138.38032761329976,35.39644714949509],[138.38026098839146,35.39641621650202],[138.38017294833435,35.39636148889895],[138.38014677426338,35.396325796983774],[138.38009918504304,35.396263930997634],[138.38003969851798,35.39620444447246],[138.38000876552496,35.39617113201848],[138.37996117630473,35.39612354279825],[138.3799231049286,35.396080712500236],[138.37989455139666,35.39606881519518],[138.37981127026137,35.39605691789018],[138.37974226589222,35.396049779507166],[138.37964470799113,35.396037882202165],[138.37956142685573,35.396035502741086],[138.3794829046426,35.396037882202165],[138.3793758288973,35.396049779507166],[138.37926577882592,35.396049779507166],[138.37916465173305,35.39604680518096],[138.37909326790282,35.396025984897165],[138.37902485839902,35.396017061918315],[138.37895050024258,35.39599921596073],[138.37887911641235,35.39598434432952],[138.37881665556108,35.39597542135073],[138.37876014336211,35.39596649837193],[138.37870957981568,35.39596649837193],[138.37863819598567,35.3959397294355],[138.37857276080786,35.395892140215494],[138.37850137697762,35.39584752532164],[138.37842701882118,35.39580885908026],[138.37837348094854,35.39575234688141],[138.37830209711854,35.395669065746176],[138.3782723538559,35.39562445085238],[138.37818312406807,35.39557388730594],[138.37810579158543,35.39553522106456],[138.378031433429,35.39550250347571],[138.37794815229392,35.39546086290812],[138.37786487115875,35.39539542773048],[138.37779051300208,35.395327018226624],[138.37775482108702,35.395273480354035],[138.3777012832145,35.39520507085001],[138.37769236023564,35.39511584106236],[138.37769830888828,35.39497604772828],[138.37769236023564,35.39488384361425],[138.37764477101564,35.39480056247902],[138.3775704128592,35.39475297325902],[138.3774573884615,35.39471133269137],[138.37734436406367,35.394669692123784],[138.37725513427586,35.394645897513726],[138.377198622077,35.394634000208725],[138.37709452065792,35.39463102588235],[138.37706180306918,35.39462805155614],[138.37699636789148,35.39460128261976],[138.3769309327139,35.394562616378494],[138.37685657455745,35.3945180014847],[138.37677031909584,35.39447933524326],[138.37668703796078,35.39447933524326],[138.3766037568256,35.39451502715832],[138.3765175013641,35.3945536933997],[138.37648775810135,35.39463102588235],[138.37647586079652,35.39472917864896],[138.37647288647008,35.39479758815281],[138.37644314320767,35.394842203046665],[138.3763687850511,35.394892766593046],[138.37626468363226,35.3949373814869],[138.37617842817076,35.39497307340207],[138.376124890298,35.39502066262213],[138.37608324973053,35.39505040588472],[138.3760088915741,35.39508907212593],[138.37597617398524,35.39511584106236],[138.37592858476512,35.395163430282366],[138.37585125228247,35.3952467114176],[138.37580366306224,35.39529132631162],[138.37573822788454,35.39532106957404],[138.375684690012,35.395338915531624],[138.37561628050798,35.39536568446789],[138.37554192235166,35.39536865879427],[138.3754616155427,35.39534188985783],[138.37536643710246,35.39532106957404],[138.3752653100098,35.395312146595415],[138.37516120859073,35.39527942900645],[138.37509874773934,35.39524373709139],[138.3750452098667,35.39527942900645],[138.37498274901532,35.39530619794283],[138.37492028816382,35.39531809524783],[138.37486377596497,35.39532106957404],[138.374759674546,35.395312146595415],[138.37469126504197,35.39530619794283],[138.37457229199174,35.395300249290244],[138.37448603653024,35.39529727496404],[138.3744324986576,35.39531512092162],[138.37433137156484,35.39536271014168],[138.37426593638736,35.395425170993065],[138.3742332187984,35.395484657518296],[138.37418860390449,35.395544144043356],[138.3741439890107,35.39558875893715],[138.3740815281593,35.395657168441176],[138.37404583624425,35.39570773198761],[138.37398932404528,35.39576721851262],[138.37395363213022,35.39582373071164],[138.37390604291,35.395877268584286],[138.3738644023424,35.39593675510929],[138.37382573610103,35.396025984897165],[138.3737959928386,35.396091420074754],[138.37378112120734,35.39615982957861],[138.37372163468217,35.396210393125045],[138.37364430219952,35.39625500801901],[138.37358779000067,35.39628177695528],[138.37352532914906,35.39631746887028],[138.37347476560285,35.39636505809051],[138.37340338177262,35.39643941624689],[138.37337066418377,35.39648700546695],[138.37334984389997,35.39652864603454],[138.3733319979424,35.39660300419098],[138.37332307496354,35.396671413695],[138.37330225467997,35.396730900220064],[138.37327846006974,35.3967933610715],[138.37326061411216,35.39685879624909],[138.37323979382836,35.39691828277432],[138.37321302489215,35.39695992334197],[138.37321005056594,35.39705212745582],[138.37320707623974,35.397150280222434],[138.3732041019133,35.397236535683874],[138.3732219478709,35.39733171412411],[138.3732278965233,35.39741796958555],[138.37323384517595,35.39747745611078],[138.37323681950215,35.397566685898425],[138.37323681950215,35.39762914674981],[138.37323979382836,35.39768268462245],[138.37321897354468,35.39778976036769],[138.37317435865066,35.39783140093533],[138.37310594914686,35.397911707744356],[138.3730702572317,35.39794739965936],[138.373025642338,35.39799498887942],[138.3729840017702,35.39806637270965],[138.37295128418157,35.39811693625603],[138.3729215409188,35.39816452547609],[138.3729126179402,35.398244832285116],[138.3728977463088,35.39832216476776],[138.3728680030464,35.39838165129294],[138.3728085165211,35.398470881080584],[138.37272523538593,35.39856011086823],[138.3726746718395,35.398631494698634],[138.37264790290328,35.39868800689749],[138.37259436503064,35.39878021101134],[138.37253785283178,35.39886646647295],[138.37248728928523,35.39895867058681],[138.37246349467523,35.39905682335342],[138.37244564871776,35.39914307881486],[138.37242780276017,35.399220411297506],[138.37242780276017,35.39927692349636],[138.37250810956903,35.39930071810653],[138.37261221098822,35.39931261541153],[138.37269287471622,35.39932475066257],[138.37276711389973,35.3993514006259],[138.3728565816334,35.399360918469995],[138.3729251101105,35.39937424345146],[138.37297650646826,35.39939708627725],[138.37304503494522,35.399418025534146],[138.37312879197248,35.39944657906614],[138.37319541688066,35.39947513259813],[138.37331724528428,35.399488457579764],[138.3733876773299,35.39950939683666],[138.37351712000861,35.39951510754304],[138.37365608053142,35.39952081824947],[138.373796944623,35.39952081824947],[138.3739092551824,35.39952462538719],[138.37400253005376,35.39953033609356],[138.3741472012831,35.399537950368824],[138.37424237972334,35.399547468212745],[138.37436801526428,35.39955317891918],[138.3744327366038,35.399547468212745],[138.3745069757872,35.399517011111925],[138.3746782969796,35.39947893973584],[138.37476776471328,35.399448482634966],[138.37486865386006,35.39940470055251],[138.37495050731866,35.39935901490111],[138.37500761438275,35.39930761854339],[138.3750856607037,35.399292389992866],[138.37522271765772,35.39929429356175],[138.3753064746852,35.39930000426813],[138.3754378209327,35.39930952211222],[138.37557107074895,35.399301907837014],[138.37572716339093,35.399301907837014],[138.3758699310514,35.3993723398828],[138.3759593987852,35.39942183267169],[138.3760983593079,35.39947703616696],[138.37618973061046,35.39952462538719],[138.3763077518763,35.39957221460719],[138.37644671239923,35.39961409312082],[138.3765533122521,35.39964074308415],[138.3766770442245,35.39966548947859],[138.37675509054554,35.39968642873549],[138.3767893547839,35.39970046755536]]]}},{"type":"Feature","properties":{"layer_id":"cultural_facilities","name":"地蔵峠〜青笹〜浅間原〜下度村","category":"public","address":"梅ヶ島","source":"国土交通省 国土数値情報","municipality_code":"19364","municipality_pref":"山梨県","municipality_name":"早川町","municipality_code_method":"nearest_centroid"},"geometry":{"type":"Point","coordinates":[138.255665,35.34782]}},{"type":"Feature","properties":{"layer_id":"cultural_facilities","name":"町民体育館","category":"public","address":"保509","source":"国土交通省 国土数値情報","municipality_code":"19364","municipality_pref":"山梨県","municipality_name":"早川町","municipality_code_method":"nearest_centroid"},"geometry":{"type":"Point","coordinates":[138.332265,35.434892]}},{"type":"Feature","properties":{"layer_id":"cultural_facilities","name":"テニスコート","category":"public","address":"保","source":"国土交通省 国土数値情報","municipality_code":"19364","municipality_pref":"山梨県","municipality_name":"早川町","municipality_code_method":"nearest_centroid"},"geometry":{"type":"Point","coordinates":[138.332133,35.432507]}},{"type":"Feature","properties":{"layer_id":"cultural_facilities","name":"町民スポーツ広場","category":"public","address":"保","source":"国土交通省 国土数値情報","municipality_code":"19364","municipality_pref":"山梨県","municipality_name":"早川町","municipality_code_method":"nearest_centroid"},"geometry":{"type":"Point","coordinates":[138.332346,35.433282]}},{"type":"Feature","properties":{"layer_id":"cultural_facilities","name":"早川町郷土資料館","category":"public","address":"大原野146","source":"国土交通省 国土数値情報","municipality_code":"19364","municipality_pref":"山梨県","municipality_name":"早川町","municipality_code_method":"nearest_centroid"},"geometry":{"type":"Point","coordinates":[138.34114,35.469819]}},{"type":"Feature","properties":{"layer_id":"cultural_facilities","name":"有東木〜葵高原〜地蔵峠","category":"public","address":"梅ヶ島","source":"国土交通省 国土数値情報","municipality_code":"19364","municipality_pref":"山梨県","municipality_name":"早川町","municipality_code_method":"nearest_centroid"},"geometry":{"type":"Point","coordinates":[138.256124,35.349455]}},{"type":"Feature","properties":{"layer_id":"tourism_resources","name":"雨畑川上流河成段丘","category":"nature","address":"河川景観 / 穿入蛇行河川","source":"国土交通省 国土数値情報","municipality_code":"19364","municipality_pref":"山梨県","municipality_name":"早川町","municipality_code_method":"nearest_centroid","resource_code":"604"},"geometry":{"type":"Point","coordinates":[138.31809997558594,35.383331298828125]}},{"type":"Feature","properties":{"layer_id":"tourism_resources","name":"不動滝","category":"nature","address":"河川景観 / 滝","source":"国土交通省 国土数値情報","municipality_code":"19364","municipality_pref":"山梨県","municipality_name":"早川町","municipality_code_method":"nearest_centroid","resource_code":"610"},"geometry":{"type":"Point","coordinates":[138.282470703125,35.52924346923828]}},{"type":"Feature","properties":{"layer_id":"tourism_resources","name":"白糸の滝","category":"nature","address":"河川景観 / 滝","source":"国土交通省 国土数値情報","municipality_code":"19364","municipality_pref":"山梨県","municipality_name":"早川町","municipality_code_method":"nearest_centroid","resource_code":"610"},"geometry":{"type":"Point","coordinates":[138.38186645507812,35.3848762512207]}},{"type":"Feature","properties":{"layer_id":"tourism_resources","name":"見神の滝","category":"nature","address":"河川景観 / 滝","source":"国土交通省 国土数値情報","municipality_code":"19364","municipality_pref":"山梨県","municipality_name":"早川町","municipality_code_method":"nearest_centroid","resource_code":"610"},"geometry":{"type":"Point","coordinates":[138.31903076171875,35.3929443359375]}},{"type":"Feature","properties":{"layer_id":"tourism_resources","name":"早川中流河成段丘","category":"nature","address":"河川景観 / 穿入蛇行河川","source":"国土交通省 国土数値情報","municipality_code":"19364","municipality_pref":"山梨県","municipality_name":"早川町","municipality_code_method":"nearest_centroid","resource_code":"604"},"geometry":{"type":"Point","coordinates":[138.3555908203125,35.43135452270508]}},{"type":"Feature","properties":{"layer_id":"tourism_resources","name":"不動滝","category":"nature","address":"河川景観 / 滝","source":"国土交通省 国土数値情報","municipality_code":"19364","municipality_pref":"山梨県","municipality_name":"早川町","municipality_code_method":"nearest_centroid","resource_code":"610"},"geometry":{"type":"Point","coordinates":[138.33485412597656,35.42460632324219]}},{"type":"Feature","properties":{"layer_id":"tourism_resources","name":"雨畑川下流河成段丘","category":"nature","address":"河川景観 / 穿入蛇行河川","source":"国土交通省 国土数値情報","municipality_code":"19364","municipality_pref":"山梨県","municipality_name":"早川町","municipality_code_method":"nearest_centroid","resource_code":"604"},"geometry":{"type":"Point","coordinates":[138.35330200195312,35.41267013549805]}},{"type":"Feature","properties":{"layer_id":"tourism_resources","name":"保川渓谷","category":"nature","address":"河川景観 / 峡谷・渓谷","source":"国土交通省 国土数値情報","municipality_code":"19364","municipality_pref":"山梨県","municipality_name":"早川町","municipality_code_method":"nearest_centroid","resource_code":"601"},"geometry":{"type":"Point","coordinates":[138.3112030029297,35.437747955322266]}},{"type":"Feature","properties":{"layer_id":"tourism_resources","name":"早川渓谷","category":"nature","address":"河川景観 / 峡谷・渓谷","source":"国土交通省 国土数値情報","municipality_code":"19364","municipality_pref":"山梨県","municipality_name":"早川町","municipality_code_method":"nearest_centroid","resource_code":"601"},"geometry":{"type":"Point","coordinates":[138.33351135253906,35.507232666015625]}},{"type":"Feature","properties":{"layer_id":"tourism_resources","name":"草塩鉱泉","category":"nature","address":"火山景観 / 噴泉","source":"国土交通省 国土数値情報","municipality_code":"19364","municipality_pref":"山梨県","municipality_name":"早川町","municipality_code_method":"nearest_centroid","resource_code":"111"},"geometry":{"type":"Point","coordinates":[138.3406982421875,35.428955078125]}}],"display_comment_original":"早川町周辺には、近世村の記憶として初鹿島村、雨畑村、大島村などの旧村名が見える。 この地域には史跡や遺跡に関わる場所が見え、雨畑金山跡、御料平遺跡、保金山跡のような地点が探索の入口になる。 現地では史跡説明板、初鹿島村、雨畑村ゆかりの旧境石標や村の歴史案内板が手がかりになりそうだ。さらに水辺の暮らしや堤防整備の歴史を示す案内板に加え、治水碑や河川改修の記念碑が狙い目になる。","story_enrichment":{"samurai_priority_people":[],"notable_people":[],"honorary_citizens":[],"tourism_landmarks":["駿州往還","赤沢宿","奈良田温泉","西山温泉","雨畑湖温泉","光源の里温泉","湯島の大杉","新倉の糸魚川－静岡構造線（新倉の断層）"],"specialties":["雨畑硯"],"food_culture":[],"historical_domains":[],"heian_place_names":[],"japan_search_support":[],"enrichment_sources":["https://ja.wikipedia.org/wiki/%E6%97%A9%E5%B7%9D%E7%94%BA"],"enrichment_errors":[],"wikipedia_title":"早川町","wikipedia_revision_id":"110552073","wikidata_qid":"Q1204436","wikipedia_url":"https://ja.wikipedia.org/wiki/%E6%97%A9%E5%B7%9D%E7%94%BA","japan_search_query_url":"","status":"wikipedia_ok"}}