{"type":"FeatureCollection","municipality_code":"20412","pref":"長野県","city":"売木村","display_comment":"売木村には、売木村など、近世の村々の記憶を伝える地名が残っています。 周辺には寺社や信仰の場、史跡や遺跡、城跡や陣屋跡にまつわる場所が点在し、「日差城跡」、「網張遺跡」、「巣山遺跡」などを起点に歩くと、地域の歴史がぐっと見えやすくなります。 現地では史跡説明板、売木村ゆかりの旧境石標や村の歴史案内板を既存ピンと照らし合わせながら歩くと、見落としがちな地域の物語に出会いやすくなります。 「寶藏寺（曹洞宗）」や「道の駅南信州 うるぎ」などの名所も、地域の物語を深掘りする絶好の入口です。 さらに、「トウモロコシ」や「シイタケ」といった名物や食文化に触れると、その土地らしい暮らしまで感じられるでしょう。","layer_counts":{"cafe_restaurant":31,"public_facilities":2,"scenic_nature_areas":2,"cultural_facilities":5,"tourism_resources":3},"total_features":43,"features":[{"type":"Feature","properties":{"layer_id":"cafe_restaurant","name":"Mirabelle","address":"長野県下伊那郡売木村 ４１９－１３４８","source":"厚生労働省 食品衛生申請等システム（オープンデータ）"},"geometry":{"type":"Point","coordinates":[137.711274,35.271067]}},{"type":"Feature","properties":{"layer_id":"cafe_restaurant","name":"Ｍｉｒａｂｅｌｌｅ　ｆａｓｔ　ｆｏｏｄ","address":"長野県下伊那郡売木村２２３－５","source":"厚生労働省 食品衛生申請等システム（オープンデータ）"},"geometry":{"type":"Point","coordinates":[137.711274,35.271067]}},{"type":"Feature","properties":{"layer_id":"cafe_restaurant","name":"いいじま手打ち蕎麦の会　春色感謝祭","address":"長野県下伊那郡売木村売木村９６８１－１（役場敷地内）","source":"厚生労働省 食品衛生申請等システム（オープンデータ）"},"geometry":{"type":"Point","coordinates":[137.711274,35.271067]}},{"type":"Feature","properties":{"layer_id":"cafe_restaurant","name":"ありがとう","address":"長野県下伊那郡売木村 ５４５－４","source":"厚生労働省 食品衛生申請等システム（オープンデータ）"},"geometry":{"type":"Point","coordinates":[137.711274,35.271067]}},{"type":"Feature","properties":{"layer_id":"cafe_restaurant","name":"うるぎ","address":"長野県下伊那郡売木村 ９６８－１","source":"厚生労働省 食品衛生申請等システム（オープンデータ）"},"geometry":{"type":"Point","coordinates":[137.711274,35.271067]}},{"type":"Feature","properties":{"layer_id":"cafe_restaurant","name":"道の駅　南信州うるぎ","address":"長野県下伊那郡売木村　５４３－１","source":"厚生労働省 食品衛生申請等システム（オープンデータ）"},"geometry":{"type":"Point","coordinates":[137.711274,35.271067]}},{"type":"Feature","properties":{"layer_id":"cafe_restaurant","name":"うるぎ","address":"長野県下伊那郡売木村９６８－１","source":"厚生労働省 食品衛生申請等システム（オープンデータ）"},"geometry":{"type":"Point","coordinates":[137.711274,35.271067]}},{"type":"Feature","properties":{"layer_id":"cafe_restaurant","name":"うるぎ","address":"長野県下伊那郡売木村　９６８－１","source":"厚生労働省 食品衛生申請等システム（オープンデータ）"},"geometry":{"type":"Point","coordinates":[137.711274,35.271067]}},{"type":"Feature","properties":{"layer_id":"cafe_restaurant","name":"うるぎ","address":"長野県下伊那郡売木村　９６８－１","source":"厚生労働省 食品衛生申請等システム（オープンデータ）"},"geometry":{"type":"Point","coordinates":[137.711274,35.271067]}},{"type":"Feature","properties":{"layer_id":"cafe_restaurant","name":"売木村文化交流センター　ぶなの木","address":"長野県下伊那郡売木村旭９１５－２","source":"厚生労働省 食品衛生申請等システム（オープンデータ）"},"geometry":{"type":"Point","coordinates":[137.711274,35.271067]}},{"type":"Feature","properties":{"layer_id":"cafe_restaurant","name":"うるぎ","address":"長野県下伊那郡売木村　９６８－１","source":"厚生労働省 食品衛生申請等システム（オープンデータ）"},"geometry":{"type":"Point","coordinates":[137.711274,35.271067]}},{"type":"Feature","properties":{"layer_id":"cafe_restaurant","name":"うるぎ","address":"長野県下伊那郡売木村　９６８－１","source":"厚生労働省 食品衛生申請等システム（オープンデータ）"},"geometry":{"type":"Point","coordinates":[137.711274,35.271067]}},{"type":"Feature","properties":{"layer_id":"cafe_restaurant","name":"株式会社ワールドウッドゴルフクラブ","address":"長野県下伊那郡売木村　２６５５－８","source":"厚生労働省 食品衛生申請等システム（オープンデータ）"},"geometry":{"type":"Point","coordinates":[137.711274,35.271067]}},{"type":"Feature","properties":{"layer_id":"cafe_restaurant","name":"農家ゲストハウスポレポレ","address":"長野県下伊那郡売木村 ２２３―５","source":"厚生労働省 食品衛生申請等システム（オープンデータ）"},"geometry":{"type":"Point","coordinates":[137.711274,35.271067]}},{"type":"Feature","properties":{"layer_id":"cafe_restaurant","name":"Ｆａｒｍｅｒ’ｓ　Ｃａｍｐ　ポレポレ","address":"長野県下伊那郡売木村　１－４５","source":"厚生労働省 食品衛生申請等システム（オープンデータ）"},"geometry":{"type":"Point","coordinates":[137.711274,35.271067]}},{"type":"Feature","properties":{"layer_id":"cafe_restaurant","name":"ポレポレ","address":"長野県下伊那郡売木村　２２３－５","source":"厚生労働省 食品衛生申請等システム（オープンデータ）"},"geometry":{"type":"Point","coordinates":[137.711274,35.271067]}},{"type":"Feature","properties":{"layer_id":"cafe_restaurant","name":"ファンタジア　うるぎ店","address":"長野県下伊那郡売木村軒川２２３－５","source":"厚生労働省 食品衛生申請等システム（オープンデータ）"},"geometry":{"type":"Point","coordinates":[137.694754,35.256285]}},{"type":"Feature","properties":{"layer_id":"cafe_restaurant","name":"売木村農山村体験交流施設　山村留学センター","address":"長野県下伊那郡売木村４５－５５１","source":"厚生労働省 食品衛生申請等システム（オープンデータ）"},"geometry":{"type":"Point","coordinates":[137.711274,35.271067]}},{"type":"Feature","properties":{"layer_id":"cafe_restaurant","name":"のの庵","address":"長野県下伊那郡売木村　７０６","source":"厚生労働省 食品衛生申請等システム（オープンデータ）"},"geometry":{"type":"Point","coordinates":[137.711274,35.271067]}},{"type":"Feature","properties":{"layer_id":"cafe_restaurant","name":"遊星館","address":"長野県下伊那郡売木村　４５－７１","source":"厚生労働省 食品衛生申請等システム（オープンデータ）"},"geometry":{"type":"Point","coordinates":[137.711274,35.271067]}},{"type":"Feature","properties":{"layer_id":"cafe_restaurant","name":"遊星館","address":"長野県下伊那郡売木村　４５－７１","source":"厚生労働省 食品衛生申請等システム（オープンデータ）"},"geometry":{"type":"Point","coordinates":[137.711274,35.271067]}},{"type":"Feature","properties":{"layer_id":"cafe_restaurant","name":"アグリかなだ","address":"長野県下伊那郡売木村　１－３５６","source":"厚生労働省 食品衛生申請等システム（オープンデータ）"},"geometry":{"type":"Point","coordinates":[137.711274,35.271067]}},{"type":"Feature","properties":{"layer_id":"cafe_restaurant","name":"アグリかなだ","address":"長野県下伊那郡売木村　１－３５６","source":"厚生労働省 食品衛生申請等システム（オープンデータ）"},"geometry":{"type":"Point","coordinates":[137.711274,35.271067]}},{"type":"Feature","properties":{"layer_id":"cafe_restaurant","name":"ｔｏｎａｒｉｎｏ　ＣＯＦＦＥＥ　ＳＴＡＮＤ","address":"長野県下伊那郡売木村　８７７","source":"厚生労働省 食品衛生申請等システム（オープンデータ）"},"geometry":{"type":"Point","coordinates":[137.711274,35.271067]}},{"type":"Feature","properties":{"layer_id":"cafe_restaurant","name":"ｔｏｎａｒｉｎｏ　ＣＯＦＦＥＥ　ＳＴＡＮＤ","address":"長野県下伊那郡売木村　　４５－２７","source":"厚生労働省 食品衛生申請等システム（オープンデータ）"},"geometry":{"type":"Point","coordinates":[137.711274,35.271067]}},{"type":"Feature","properties":{"layer_id":"cafe_restaurant","name":"売木村総合交流促進センター","address":"長野県下伊那郡売木村　５４３－１","source":"厚生労働省 食品衛生申請等システム（オープンデータ）"},"geometry":{"type":"Point","coordinates":[137.711274,35.271067]}},{"type":"Feature","properties":{"layer_id":"cafe_restaurant","name":"あおい亭","address":"長野県下伊那郡売木村　４５－５０","source":"厚生労働省 食品衛生申請等システム（オープンデータ）"},"geometry":{"type":"Point","coordinates":[137.711274,35.271067]}},{"type":"Feature","properties":{"layer_id":"cafe_restaurant","name":"とんび農園","address":"長野県下伊那郡売木村　２３５５","source":"厚生労働省 食品衛生申請等システム（オープンデータ）"},"geometry":{"type":"Point","coordinates":[137.711274,35.271067]}},{"type":"Feature","properties":{"layer_id":"cafe_restaurant","name":"Ｇｒａｓｓ－ｆｅｄ","address":"長野県下伊那郡売木村　１１７７－６４２","source":"厚生労働省 食品衛生申請等システム（オープンデータ）"},"geometry":{"type":"Point","coordinates":[137.711274,35.271067]}},{"type":"Feature","properties":{"layer_id":"cafe_restaurant","name":"ペンション　風の森","address":"長野県下伊那郡売木村軒川５２５－１","source":"厚生労働省 食品衛生申請等システム（オープンデータ）"},"geometry":{"type":"Point","coordinates":[137.694754,35.256285]}},{"type":"Feature","properties":{"layer_id":"cafe_restaurant","name":"民宿　ゆりか","address":"長野県下伊那郡売木村１４５３","source":"厚生労働省 食品衛生申請等システム（オープンデータ）"},"geometry":{"type":"Point","coordinates":[137.711274,35.271067]}},{"type":"Feature","properties":{"layer_id":"public_facilities","name":"売木村文化交流センター","address":"売木村旭915-2","source":"国土交通省 国土数値情報"},"geometry":{"type":"Point","coordinates":[137.711695,35.272579]}},{"type":"Feature","properties":{"layer_id":"public_facilities","name":"売木村役場","address":"売木村968-1","source":"国土交通省 国土数値情報"},"geometry":{"type":"Point","coordinates":[137.711074,35.271095]}},{"type":"Feature","properties":{"layer_id":"scenic_nature_areas","name":"阿南町根羽村売木村","source":"国土交通省 国土数値情報"},"geometry":{"type":"MultiPolygon","coordinates":[[[[137.71568,35.2323],[137.715204,35.232204],[137.714777,35.232106],[137.71446,35.231899],[137.714219,35.231504],[137.714175,35.23129],[137.709812,35.231286],[137.707713,35.232018],[137.707713,35.232018],[137.707708,35.232084],[137.707708,35.232084],[137.707703,35.232157],[137.707682,35.23225],[137.707682,35.23225],[137.70764,35.232302],[137.707587,35.232349],[137.707578,35.232357],[137.707563,35.232368],[137.707508,35.232406],[137.707423,35.232465],[137.707423,35.232465],[137.707405,35.232475],[137.707129,35.232623],[137.706976,35.232714],[137.706964,35.23272],[137.705761,35.233849],[137.705761,35.233849],[137.705755,35.233852],[137.705727,35.233867],[137.70569,35.233876],[137.705649,35.233886],[137.705433,35.233878],[137.705152,35.233891],[137.705122,35.23389],[137.704607,35.233923],[137.704557,35.233932],[137.70441,35.233936],[137.704382,35.233938],[137.704379,35.233936],[137.704285,35.233924],[137.704254,35.23392],[137.704236,35.233917],[137.704193,35.233906],[137.704054,35.233872],[137.703983,35.233849],[137.703908,35.233825],[137.703804,35.233792],[137.70378,35.233783],[137.703689,35.23375],[137.703528,35.233664],[137.703501,35.233646],[137.703437,35.233605],[137.703305,35.233503],[137.703214,35.233433],[137.703156,35.233381],[137.703103,35.233334],[137.703085,35.233318],[137.69919,35.231456],[137.69919,35.231456],[137.69919,35.231456],[137.698794,35.23163],[137.698743,35.231693],[137.698726,35.231714],[137.698716,35.231732],[137.698682,35.231795],[137.698613,35.231873],[137.698567,35.231925],[137.698531,35.231955],[137.698474,35.232003],[137.698396,35.232063],[137.698365,35.23208],[137.698299,35.232117],[137.698219,35.232143],[137.698199,35.232146],[137.698172,35.232149],[137.698071,35.232159],[137.697925,35.232149],[137.697873,35.232149],[137.697767,35.232151],[137.697735,35.232151],[137.697639,35.232156],[137.697564,35.23219],[137.697475,35.232247],[137.697431,35.232295],[137.697403,35.232325],[137.697335,35.232406],[137.69732,35.232423],[137.697296,35.232449],[137.697252,35.232499],[137.697203,35.232539],[137.697181,35.232557],[137.697136,35.232579],[137.697002,35.232647],[137.696963,35.23266],[137.696945,35.232666],[137.696755,35.232697],[137.696715,35.232704],[137.696599,35.232723],[137.696551,35.23273],[137.696415,35.232749],[137.696337,35.232762],[137.696243,35.232777],[137.696151,35.232791],[137.694125,35.233682],[137.694112,35.233692],[137.694097,35.233705],[137.694062,35.233709],[137.694062,35.233709],[137.694062,35.233709],[137.69142,35.233157],[137.691392,35.233156],[137.691383,35.233154],[137.691363,35.233149],[137.691325,35.233139],[137.691291,35.23313],[137.691113,35.233052],[137.691112,35.233052],[137.691041,35.233009],[137.690916,35.232949],[137.690833,35.232909],[137.690495,35.232756],[137.690495,35.232756],[137.690433,35.232723],[137.690352,35.232646],[137.690306,35.232603],[137.690274,35.232559],[137.690251,35.232528],[137.690218,35.232473],[137.690169,35.232391],[137.690103,35.232265],[137.690072,35.232206],[137.690052,35.232167],[137.690013,35.232092],[137.68994,35.231977],[137.68981,35.231804],[137.689768,35.231749],[137.689716,35.231694],[137.689698,35.231672],[137.689602,35.231561],[137.68958,35.231533],[137.688965,35.230959],[137.687223,35.230726],[137.687223,35.230726],[137.685273,35.231271],[137.685273,35.231271],[137.68525,35.231304],[137.685239,35.231338],[137.685229,35.231368],[137.685202,35.231476],[137.68519,35.231524],[137.685172,35.231599],[137.685119,35.231712],[137.685101,35.231749],[137.685046,35.23185],[137.684909,35.231964],[137.684909,35.231964],[137.684886,35.231989],[137.684843,35.232021],[137.684831,35.232029],[137.684739,35.232079],[137.684718,35.23209],[137.684718,35.23209],[137.684691,35.23211],[137.684475,35.232267],[137.684372,35.232347],[137.684303,35.232401],[137.684288,35.23242],[137.684247,35.232472],[137.684137,35.232612],[137.684114,35.232642],[137.68402,35.232733],[137.683926,35.232843],[137.683825,35.232983],[137.683811,35.232995],[137.683779,35.233022],[137.683727,35.233051],[137.683601,35.233081],[137.683587,35.233084],[137.683568,35.233088],[137.683559,35.233089],[137.682486,35.234228],[137.682486,35.234253],[137.682489,35.234284],[137.682503,35.234412],[137.682522,35.234464],[137.682532,35.234611],[137.682516,35.234699],[137.68248,35.234786],[137.68248,35.234786],[137.68242,35.234838],[137.682327,35.23492],[137.68229,35.234942],[137.682278,35.234949],[137.682103,35.235062],[137.6818,35.235189],[137.681762,35.235206],[137.681732,35.235219],[137.681612,35.235235],[137.681537,35.235235],[137.681524,35.235232],[137.681462,35.235216],[137.681382,35.235186],[137.681374,35.235183],[137.681293,35.235127],[137.681275,35.235107],[137.68126,35.235089],[137.681193,35.234986],[137.681121,35.234877],[137.68107,35.234711],[137.681055,35.234662],[137.681019,35.234556],[137.68101,35.234529],[137.680942,35.234373],[137.6809,35.234284],[137.680868,35.234216],[137.68023,35.233245],[137.680185,35.233216],[137.68013,35.233181],[137.680101,35.23316],[137.680049,35.233123],[137.679906,35.232996],[137.679906,35.232996],[137.679802,35.23283],[137.679727,35.232662],[137.679669,35.232513],[137.679659,35.232476],[137.679652,35.232448],[137.679645,35.232407],[137.679645,35.232407],[137.679644,35.232402],[137.679632,35.232334],[137.678698,35.230912],[137.678697,35.230911],[137.675936,35.231052],[137.675935,35.231052],[137.675616,35.231091],[137.675496,35.231088],[137.675449,35.231077],[137.673829,35.231159],[137.673784,35.231166],[137.673696,35.231172],[137.673634,35.231169],[137.673634,35.231169],[137.672319,35.22963],[137.672312,35.229623],[137.672234,35.229532],[137.672231,35.229527],[137.671743,35.228956],[137.671743,35.228956],[137.671743,35.228956],[137.671602,35.228894],[137.671568,35.228884],[137.671488,35.22886],[137.671227,35.228733],[137.671211,35.228727],[137.671166,35.228711],[137.67109,35.228698],[137.671065,35.228694],[137.670916,35.228665],[137.670877,35.228651],[137.670811,35.228626],[137.670774,35.228616],[137.670733,35.228606],[137.670662,35.22858],[137.670616,35.228576],[137.67059,35.228574],[137.670536,35.228569],[137.670356,35.228554],[137.670093,35.228499],[137.67006,35.228489],[137.669983,35.228461],[137.669907,35.228434],[137.66978,35.228382],[137.669684,35.228331],[137.669663,35.22832],[137.669655,35.228315],[137.669541,35.228247],[137.669511,35.228234],[137.669449,35.228206],[137.669293,35.228167],[137.669267,35.228156],[137.66925,35.228148],[137.669224,35.228125],[137.669165,35.228074],[137.669093,35.228013],[137.669026,35.227952],[137.669014,35.227941],[137.668977,35.227907],[137.668933,35.227866],[137.668813,35.227733],[137.668813,35.227733],[137.668751,35.227652],[137.668722,35.227621],[137.668057,35.227327],[137.663788,35.227835],[137.665391,35.230594],[137.668318,35.23248],[137.66871,35.235055],[137.67025,35.23743],[137.669766,35.239366],[137.671386,35.241589],[137.668051,35.245531],[137.667534,35.246951],[137.667732,35.246903],[137.66956,35.246943],[137.669743,35.247046],[137.67006,35.24728],[137.670246,35.247463],[137.670676,35.247641],[137.671154,35.247804],[137.671552,35.248009],[137.671786,35.248164],[137.672088,35.248412],[137.67261,35.248908],[137.673026,35.24918],[137.673373,35.249306],[137.673493,35.249491],[137.673549,35.24969],[137.673699,35.24978],[137.674073,35.249745],[137.674696,35.249457],[137.67935,35.247642],[137.681475,35.246779],[137.681621,35.246762],[137.681821,35.246892],[137.68222,35.247097],[137.682532,35.247157],[137.682743,35.247139],[137.682939,35.247134],[137.68325,35.247168],[137.683627,35.247226],[137.68397,35.247232],[137.684196,35.247173],[137.68447,35.247074],[137.684707,35.246841],[137.68494,35.246501],[137.68529,35.245903],[137.685898,35.24506],[137.686185,35.244867],[137.686379,35.244809],[137.687062,35.244727],[137.689981,35.244702],[137.69078,35.244697],[137.690943,35.244694],[137.691117,35.244543],[137.69138,35.244096],[137.691853,35.243109],[137.69194,35.242799],[137.691932,35.242559],[137.69189,35.242279],[137.691846,35.241932],[137.691629,35.241281],[137.691743,35.240784],[137.691854,35.240207],[137.691975,35.23991],[137.692305,35.239541],[137.692666,35.239105],[137.692818,35.238782],[137.692856,35.23846],[137.692818,35.238287],[137.692715,35.238129],[137.692369,35.238016],[137.692023,35.23793],[137.691791,35.237815],[137.691622,35.237618],[137.691546,35.237299],[137.691439,35.237034],[137.691434,35.236887],[137.691588,35.236603],[137.691675,35.236266],[137.691827,35.235955],[137.691917,35.235713],[137.691941,35.235431],[137.692103,35.235401],[137.692543,35.235391],[137.693487,35.235343],[137.694039,35.235264],[137.694653,35.23509],[137.69552,35.234683],[137.696469,35.234287],[137.698673,35.233355],[137.69919,35.233223],[137.699419,35.233232],[137.699734,35.233385],[137.700987,35.23428],[137.702216,35.234975],[137.702912,35.235307],[137.703734,35.235529],[137.704144,35.235587],[137.704485,35.235539],[137.704922,35.235436],[137.705339,35.235226],[137.706025,35.234756],[137.706739,35.234178],[137.706997,35.234065],[137.70732,35.233991],[137.707563,35.233919],[137.70774,35.233862],[137.707873,35.233939],[137.708242,35.234238],[137.7088,35.234841],[137.70914,35.235248],[137.709515,35.235734],[137.710132,35.236148],[137.711214,35.236793],[137.712083,35.237224],[137.71319,35.237654],[137.714288,35.238298],[137.715605,35.239138],[137.716936,35.240418],[137.718907,35.242768],[137.719029,35.242993],[137.719019,35.24318],[137.718806,35.243666],[137.718453,35.244316],[137.717893,35.245116],[137.716164,35.246586],[137.715891,35.246699],[137.715813,35.246821],[137.715919,35.247046],[137.716401,35.247824],[137.716951,35.248641],[137.717488,35.249097],[137.71828,35.249387],[137.719335,35.249711],[137.720287,35.249877],[137.720436,35.249953],[137.720172,35.250347],[137.719874,35.250688],[137.719592,35.251042],[137.719705,35.251481],[137.720022,35.251715],[137.720336,35.251841],[137.720782,35.252005],[137.721131,35.252185],[137.721481,35.252417],[137.722156,35.252936],[137.722493,35.253276],[137.723045,35.253665],[137.72407,35.254083],[137.72487,35.254587],[137.725125,35.254875],[137.725078,35.255438],[137.725059,35.255826],[137.725004,35.256149],[137.725142,35.256373],[137.72522,35.256759],[137.725236,35.257227],[137.725403,35.257825],[137.726017,35.259122],[137.726584,35.260092],[137.725571,35.257753],[137.725248,35.254635],[137.71999,35.251342],[137.721465,35.248655],[137.723184,35.247708],[137.72297,35.246392],[137.72528,35.243666],[137.724988,35.242339],[137.720999,35.235814],[137.718584,35.23375],[137.716579,35.233118],[137.715834,35.232327],[137.71568,35.2323]]],[[[137.664559,35.25013],[137.664998,35.250093],[137.665514,35.249908],[137.66598,35.249697],[137.666263,35.249383],[137.666414,35.249126],[137.664526,35.250138],[137.664559,35.25013]]],[[[137.726999,35.26113],[137.727166,35.263172],[137.727029,35.265409],[137.726949,35.26644],[137.727084,35.267066],[137.72736,35.267501],[137.72757,35.267757],[137.727097,35.265403],[137.728034,35.263442],[137.726971,35.260986],[137.726999,35.26113]]],[[[137.729986,35.268939],[137.73007,35.269324],[137.730465,35.26993],[137.730584,35.270061],[137.730779,35.270069],[137.730377,35.26905],[137.72993,35.268874],[137.729986,35.268939]]],[[[137.731799,35.270274],[137.732017,35.270457],[137.732123,35.270708],[137.732049,35.270937],[137.731819,35.27137],[137.731736,35.2718],[137.73193,35.273682],[137.731999,35.273814],[137.732492,35.273921],[137.732268,35.273592],[137.732173,35.270298],[137.731747,35.27025],[137.731799,35.270274]]]]}},{"type":"Feature","properties":{"layer_id":"scenic_nature_areas","name":"阿南町根羽村売木村","source":"国土交通省 国土数値情報"},"geometry":{"type":"MultiPolygon","coordinates":[[[[137.71568,35.2323],[137.715204,35.232204],[137.714777,35.232106],[137.71446,35.231899],[137.714219,35.231504],[137.714175,35.23129],[137.709812,35.231286],[137.707713,35.232018],[137.707713,35.232018],[137.707708,35.232084],[137.707708,35.232084],[137.707703,35.232157],[137.707682,35.23225],[137.707682,35.23225],[137.70764,35.232302],[137.707587,35.232349],[137.707578,35.232357],[137.707563,35.232368],[137.707508,35.232406],[137.707423,35.232465],[137.707423,35.232465],[137.707405,35.232475],[137.707129,35.232623],[137.706976,35.232714],[137.706964,35.23272],[137.705761,35.233849],[137.705761,35.233849],[137.705755,35.233852],[137.705727,35.233867],[137.70569,35.233876],[137.705649,35.233886],[137.705433,35.233878],[137.705152,35.233891],[137.705122,35.23389],[137.704607,35.233923],[137.704557,35.233932],[137.70441,35.233936],[137.704382,35.233938],[137.704379,35.233936],[137.704285,35.233924],[137.704254,35.23392],[137.704236,35.233917],[137.704193,35.233906],[137.704054,35.233872],[137.703983,35.233849],[137.703908,35.233825],[137.703804,35.233792],[137.70378,35.233783],[137.703689,35.23375],[137.703528,35.233664],[137.703501,35.233646],[137.703437,35.233605],[137.703305,35.233503],[137.703214,35.233433],[137.703156,35.233381],[137.703103,35.233334],[137.703085,35.233318],[137.69919,35.231456],[137.69919,35.231456],[137.69919,35.231456],[137.698794,35.23163],[137.698743,35.231693],[137.698726,35.231714],[137.698716,35.231732],[137.698682,35.231795],[137.698613,35.231873],[137.698567,35.231925],[137.698531,35.231955],[137.698474,35.232003],[137.698396,35.232063],[137.698365,35.23208],[137.698299,35.232117],[137.698219,35.232143],[137.698199,35.232146],[137.698172,35.232149],[137.698071,35.232159],[137.697925,35.232149],[137.697873,35.232149],[137.697767,35.232151],[137.697735,35.232151],[137.697639,35.232156],[137.697564,35.23219],[137.697475,35.232247],[137.697431,35.232295],[137.697403,35.232325],[137.697335,35.232406],[137.69732,35.232423],[137.697296,35.232449],[137.697252,35.232499],[137.697203,35.232539],[137.697181,35.232557],[137.697136,35.232579],[137.697002,35.232647],[137.696963,35.23266],[137.696945,35.232666],[137.696755,35.232697],[137.696715,35.232704],[137.696599,35.232723],[137.696551,35.23273],[137.696415,35.232749],[137.696337,35.232762],[137.696243,35.232777],[137.696151,35.232791],[137.694125,35.233682],[137.694112,35.233692],[137.694097,35.233705],[137.694062,35.233709],[137.694062,35.233709],[137.694062,35.233709],[137.69142,35.233157],[137.691392,35.233156],[137.691383,35.233154],[137.691363,35.233149],[137.691325,35.233139],[137.691291,35.23313],[137.691113,35.233052],[137.691112,35.233052],[137.691041,35.233009],[137.690916,35.232949],[137.690833,35.232909],[137.690495,35.232756],[137.690495,35.232756],[137.690433,35.232723],[137.690352,35.232646],[137.690306,35.232603],[137.690274,35.232559],[137.690251,35.232528],[137.690218,35.232473],[137.690169,35.232391],[137.690103,35.232265],[137.690072,35.232206],[137.690052,35.232167],[137.690013,35.232092],[137.68994,35.231977],[137.68981,35.231804],[137.689768,35.231749],[137.689716,35.231694],[137.689698,35.231672],[137.689602,35.231561],[137.68958,35.231533],[137.688965,35.230959],[137.687223,35.230726],[137.687223,35.230726],[137.685273,35.231271],[137.685273,35.231271],[137.68525,35.231304],[137.685239,35.231338],[137.685229,35.231368],[137.685202,35.231476],[137.68519,35.231524],[137.685172,35.231599],[137.685119,35.231712],[137.685101,35.231749],[137.685046,35.23185],[137.684909,35.231964],[137.684909,35.231964],[137.684886,35.231989],[137.684843,35.232021],[137.684831,35.232029],[137.684739,35.232079],[137.684718,35.23209],[137.684718,35.23209],[137.684691,35.23211],[137.684475,35.232267],[137.684372,35.232347],[137.684303,35.232401],[137.684288,35.23242],[137.684247,35.232472],[137.684137,35.232612],[137.684114,35.232642],[137.68402,35.232733],[137.683926,35.232843],[137.683825,35.232983],[137.683811,35.232995],[137.683779,35.233022],[137.683727,35.233051],[137.683601,35.233081],[137.683587,35.233084],[137.683568,35.233088],[137.683559,35.233089],[137.682486,35.234228],[137.682486,35.234253],[137.682489,35.234284],[137.682503,35.234412],[137.682522,35.234464],[137.682532,35.234611],[137.682516,35.234699],[137.68248,35.234786],[137.68248,35.234786],[137.68242,35.234838],[137.682327,35.23492],[137.68229,35.234942],[137.682278,35.234949],[137.682103,35.235062],[137.6818,35.235189],[137.681762,35.235206],[137.681732,35.235219],[137.681612,35.235235],[137.681537,35.235235],[137.681524,35.235232],[137.681462,35.235216],[137.681382,35.235186],[137.681374,35.235183],[137.681293,35.235127],[137.681275,35.235107],[137.68126,35.235089],[137.681193,35.234986],[137.681121,35.234877],[137.68107,35.234711],[137.681055,35.234662],[137.681019,35.234556],[137.68101,35.234529],[137.680942,35.234373],[137.6809,35.234284],[137.680868,35.234216],[137.68023,35.233245],[137.680185,35.233216],[137.68013,35.233181],[137.680101,35.23316],[137.680049,35.233123],[137.679906,35.232996],[137.679906,35.232996],[137.679802,35.23283],[137.679727,35.232662],[137.679669,35.232513],[137.679659,35.232476],[137.679652,35.232448],[137.679645,35.232407],[137.679645,35.232407],[137.679644,35.232402],[137.679632,35.232334],[137.678698,35.230912],[137.678697,35.230911],[137.675936,35.231052],[137.675935,35.231052],[137.675616,35.231091],[137.675496,35.231088],[137.675449,35.231077],[137.673829,35.231159],[137.673784,35.231166],[137.673696,35.231172],[137.673634,35.231169],[137.673634,35.231169],[137.672319,35.22963],[137.672312,35.229623],[137.672234,35.229532],[137.672231,35.229527],[137.671743,35.228956],[137.671743,35.228956],[137.671743,35.228956],[137.671602,35.228894],[137.671568,35.228884],[137.671488,35.22886],[137.671227,35.228733],[137.671211,35.228727],[137.671166,35.228711],[137.67109,35.228698],[137.671065,35.228694],[137.670916,35.228665],[137.670877,35.228651],[137.670811,35.228626],[137.670774,35.228616],[137.670733,35.228606],[137.670662,35.22858],[137.670616,35.228576],[137.67059,35.228574],[137.670536,35.228569],[137.670356,35.228554],[137.670093,35.228499],[137.67006,35.228489],[137.669983,35.228461],[137.669907,35.228434],[137.66978,35.228382],[137.669684,35.228331],[137.669663,35.22832],[137.669655,35.228315],[137.669541,35.228247],[137.669511,35.228234],[137.669449,35.228206],[137.669293,35.228167],[137.669267,35.228156],[137.66925,35.228148],[137.669224,35.228125],[137.669165,35.228074],[137.669093,35.228013],[137.669026,35.227952],[137.669014,35.227941],[137.668977,35.227907],[137.668933,35.227866],[137.668813,35.227733],[137.668813,35.227733],[137.668751,35.227652],[137.668722,35.227621],[137.668057,35.227327],[137.663788,35.227835],[137.665391,35.230594],[137.668318,35.23248],[137.66871,35.235055],[137.67025,35.23743],[137.669766,35.239366],[137.671386,35.241589],[137.668051,35.245531],[137.667534,35.246951],[137.667732,35.246903],[137.66956,35.246943],[137.669743,35.247046],[137.67006,35.24728],[137.670246,35.247463],[137.670676,35.247641],[137.671154,35.247804],[137.671552,35.248009],[137.671786,35.248164],[137.672088,35.248412],[137.67261,35.248908],[137.673026,35.24918],[137.673373,35.249306],[137.673493,35.249491],[137.673549,35.24969],[137.673699,35.24978],[137.674073,35.249745],[137.674696,35.249457],[137.67935,35.247642],[137.681475,35.246779],[137.681621,35.246762],[137.681821,35.246892],[137.68222,35.247097],[137.682532,35.247157],[137.682743,35.247139],[137.682939,35.247134],[137.68325,35.247168],[137.683627,35.247226],[137.68397,35.247232],[137.684196,35.247173],[137.68447,35.247074],[137.684707,35.246841],[137.68494,35.246501],[137.68529,35.245903],[137.685898,35.24506],[137.686185,35.244867],[137.686379,35.244809],[137.687062,35.244727],[137.689981,35.244702],[137.69078,35.244697],[137.690943,35.244694],[137.691117,35.244543],[137.69138,35.244096],[137.691853,35.243109],[137.69194,35.242799],[137.691932,35.242559],[137.69189,35.242279],[137.691846,35.241932],[137.691629,35.241281],[137.691743,35.240784],[137.691854,35.240207],[137.691975,35.23991],[137.692305,35.239541],[137.692666,35.239105],[137.692818,35.238782],[137.692856,35.23846],[137.692818,35.238287],[137.692715,35.238129],[137.692369,35.238016],[137.692023,35.23793],[137.691791,35.237815],[137.691622,35.237618],[137.691546,35.237299],[137.691439,35.237034],[137.691434,35.236887],[137.691588,35.236603],[137.691675,35.236266],[137.691827,35.235955],[137.691917,35.235713],[137.691941,35.235431],[137.692103,35.235401],[137.692543,35.235391],[137.693487,35.235343],[137.694039,35.235264],[137.694653,35.23509],[137.69552,35.234683],[137.696469,35.234287],[137.698673,35.233355],[137.69919,35.233223],[137.699419,35.233232],[137.699734,35.233385],[137.700987,35.23428],[137.702216,35.234975],[137.702912,35.235307],[137.703734,35.235529],[137.704144,35.235587],[137.704485,35.235539],[137.704922,35.235436],[137.705339,35.235226],[137.706025,35.234756],[137.706739,35.234178],[137.706997,35.234065],[137.70732,35.233991],[137.707563,35.233919],[137.70774,35.233862],[137.707873,35.233939],[137.708242,35.234238],[137.7088,35.234841],[137.70914,35.235248],[137.709515,35.235734],[137.710132,35.236148],[137.711214,35.236793],[137.712083,35.237224],[137.71319,35.237654],[137.714288,35.238298],[137.715605,35.239138],[137.716936,35.240418],[137.718907,35.242768],[137.719029,35.242993],[137.719019,35.24318],[137.718806,35.243666],[137.718453,35.244316],[137.717893,35.245116],[137.716164,35.246586],[137.715891,35.246699],[137.715813,35.246821],[137.715919,35.247046],[137.716401,35.247824],[137.716951,35.248641],[137.717488,35.249097],[137.71828,35.249387],[137.719335,35.249711],[137.720287,35.249877],[137.720436,35.249953],[137.720172,35.250347],[137.719874,35.250688],[137.719592,35.251042],[137.719705,35.251481],[137.720022,35.251715],[137.720336,35.251841],[137.720782,35.252005],[137.721131,35.252185],[137.721481,35.252417],[137.722156,35.252936],[137.722493,35.253276],[137.723045,35.253665],[137.72407,35.254083],[137.72487,35.254587],[137.725125,35.254875],[137.725078,35.255438],[137.725059,35.255826],[137.725004,35.256149],[137.725142,35.256373],[137.72522,35.256759],[137.725236,35.257227],[137.725403,35.257825],[137.726017,35.259122],[137.726584,35.260092],[137.725571,35.257753],[137.725248,35.254635],[137.71999,35.251342],[137.721465,35.248655],[137.723184,35.247708],[137.72297,35.246392],[137.72528,35.243666],[137.724988,35.242339],[137.720999,35.235814],[137.718584,35.23375],[137.716579,35.233118],[137.715834,35.232327],[137.71568,35.2323]]],[[[137.664559,35.25013],[137.664998,35.250093],[137.665514,35.249908],[137.66598,35.249697],[137.666263,35.249383],[137.666414,35.249126],[137.664526,35.250138],[137.664559,35.25013]]],[[[137.726999,35.26113],[137.727166,35.263172],[137.727029,35.265409],[137.726949,35.26644],[137.727084,35.267066],[137.72736,35.267501],[137.72757,35.267757],[137.727097,35.265403],[137.728034,35.263442],[137.726971,35.260986],[137.726999,35.26113]]],[[[137.729986,35.268939],[137.73007,35.269324],[137.730465,35.26993],[137.730584,35.270061],[137.730779,35.270069],[137.730377,35.26905],[137.72993,35.268874],[137.729986,35.268939]]],[[[137.731799,35.270274],[137.732017,35.270457],[137.732123,35.270708],[137.732049,35.270937],[137.731819,35.27137],[137.731736,35.2718],[137.73193,35.273682],[137.731999,35.273814],[137.732492,35.273921],[137.732268,35.273592],[137.732173,35.270298],[137.731747,35.27025],[137.731799,35.270274]]]]}},{"type":"Feature","properties":{"layer_id":"cultural_facilities","name":"ささゆり荘（グラウンド・テニスコート）","address":"旭1-92","source":"国土交通省 国土数値情報"},"geometry":{"type":"Point","coordinates":[137.71468,35.270384]}},{"type":"Feature","properties":{"layer_id":"cultural_facilities","name":"茶臼山ゴルフ倶楽部","address":"軒川2653-1","source":"国土交通省 国土数値情報"},"geometry":{"type":"Point","coordinates":[137.692245,35.23911]}},{"type":"Feature","properties":{"layer_id":"cultural_facilities","name":"ささゆり荘（グラウンド・テニスコート）","address":"旭1-92","source":"国土交通省 国土数値情報"},"geometry":{"type":"Point","coordinates":[137.71572,35.269282]}},{"type":"Feature","properties":{"layer_id":"cultural_facilities","name":"南信州広域公園","address":"2653-3","source":"国土交通省 国土数値情報"},"geometry":{"type":"Point","coordinates":[137.669891,35.248838]}},{"type":"Feature","properties":{"layer_id":"cultural_facilities","name":"ブナの嶺ゴルフ倶楽部","address":"2653-3","source":"国土交通省 国土数値情報"},"geometry":{"type":"Point","coordinates":[137.668192,35.255669]}},{"type":"Feature","properties":{"layer_id":"tourism_resources","name":"瀬戸の滝","address":"河川景観 / 滝","source":"国土交通省 国土数値情報"},"geometry":{"type":"Point","coordinates":[137.732803,35.291851]}},{"type":"Feature","properties":{"layer_id":"tourism_resources","name":"茶臼山〜ぶなの峯高原","address":"山地（非火山性）景観 / 非火山性高原","source":"国土交通省 国土数値情報"},"geometry":{"type":"Point","coordinates":[137.687347,35.231392]}},{"type":"Feature","properties":{"layer_id":"tourism_resources","name":"丸畑渓谷","address":"河川景観 / 峡谷・渓谷","source":"国土交通省 国土数値情報"},"geometry":{"type":"Point","coordinates":[137.723907,35.283428]}}]}