{"type":"FeatureCollection","municipality_code":"21521","pref":"岐阜県","city":"御嵩町","display_comment":"御嵩町には、本郷村、新村、伏見村など、近世の村々の記憶を伝える地名が残っています。 周辺には寺社や信仰の場、古墳や貝塚、史跡や遺跡にまつわる場所が点在し、「定屋敷遺跡」、「明鏡寺」、「愚渓寺」などを起点に歩くと、地域の歴史がぐっと見えやすくなります。 現地では史跡説明板に加え、本郷村や新村にゆかりのある旧境石標、村の歴史を紹介する案内板にも注目してみてください。 川沿いや水辺では、その土地の暮らしや水との関わりを伝える歴史案内板が見つかるかもしれません。 人物に目を向けるなら、武将・武士の可児吉長との縁をたどることで、街の歴史をより立体的に楽しめます。 「鬼岩公園」や「鬼岩温泉」などの名所も、地域の物語を深掘りする絶好の入口です。","layer_counts":{"cafe_restaurant":109,"public_facilities":15,"scenic_nature_areas":4,"cultural_facilities":9,"parks_playgrounds":1,"tourism_resources":1},"total_features":139,"features":[{"type":"Feature","properties":{"layer_id":"cafe_restaurant","name":"ＶＩＥＴＣＯＯＫ","category":"food","address":"岐阜県可児郡御嵩町顔戸７１０－１","source":"岐阜県食品営業許可施設情報","municipality_code":"21521","municipality_pref":"岐阜県","municipality_name":"御嵩町","municipality_code_method":"food_exact_coord"},"geometry":{"type":"Point","coordinates":[137.110831,35.44234500000001]}},{"type":"Feature","properties":{"layer_id":"cafe_restaurant","name":"幸　ｃａｍｅｌｉａ","category":"food","address":"岐阜県可児郡御嵩町中２５１６－１","source":"岐阜県食品営業許可施設情報","municipality_code":"21521","municipality_pref":"岐阜県","municipality_name":"御嵩町","municipality_code_method":"food_exact_coord"},"geometry":{"type":"Point","coordinates":[137.120198,35.433642]}},{"type":"Feature","properties":{"layer_id":"cafe_restaurant","name":"ファミリーマート御嵩中坪店","category":"food","address":"岐阜県可児郡御嵩町中８３－３","source":"岐阜県食品営業許可施設情報","municipality_code":"21521","municipality_pref":"岐阜県","municipality_name":"御嵩町","municipality_code_method":"food_exact_coord"},"geometry":{"type":"Point","coordinates":[137.120198,35.433642]}},{"type":"Feature","properties":{"layer_id":"cafe_restaurant","name":"自然処","category":"food","address":"岐阜県可児郡御嵩町中切１３８１－３","source":"岐阜県食品営業許可施設情報","municipality_code":"21521","municipality_pref":"岐阜県","municipality_name":"御嵩町","municipality_code_method":"food_exact_coord"},"geometry":{"type":"Point","coordinates":[137.157624,35.416892]}},{"type":"Feature","properties":{"layer_id":"cafe_restaurant","name":"寧々花","category":"food","address":"岐阜県可児郡御嵩町上恵土１１４６－２","source":"岐阜県食品営業許可施設情報","municipality_code":"21521","municipality_pref":"岐阜県","municipality_name":"御嵩町","municipality_code_method":"food_exact_coord"},"geometry":{"type":"Point","coordinates":[137.07683,35.438972]}},{"type":"Feature","properties":{"layer_id":"cafe_restaurant","name":"カラオケ喫茶なかよし","category":"food","address":"岐阜県可児郡御嵩町御嵩２３１","source":"岐阜県食品営業許可施設情報","municipality_code":"21521","municipality_pref":"岐阜県","municipality_name":"御嵩町","municipality_code_method":"food_exact_coord"},"geometry":{"type":"Point","coordinates":[137.137804,35.430141]}},{"type":"Feature","properties":{"layer_id":"cafe_restaurant","name":"新丸山ダムＢ群宿舎食堂","category":"food","address":"岐阜県可児郡御嵩町御嵩字萩田９５５－６","source":"岐阜県食品営業許可施設情報","municipality_code":"21521","municipality_pref":"岐阜県","municipality_name":"御嵩町","municipality_code_method":"food_exact_coord"},"geometry":{"type":"Point","coordinates":[137.137804,35.430141]}},{"type":"Feature","properties":{"layer_id":"cafe_restaurant","name":"イズミクレープ","category":"food","address":"岐阜県可児郡御嵩町古屋敷４８０－８","source":"岐阜県食品営業許可施設情報","municipality_code":"21521","municipality_pref":"岐阜県","municipality_name":"御嵩町","municipality_code_method":"food_exact_coord"},"geometry":{"type":"Point","coordinates":[137.111902,35.42404]}},{"type":"Feature","properties":{"layer_id":"cafe_restaurant","name":"新丸山ダムＣ群宿舎食堂","category":"food","address":"岐阜県可児郡御嵩町御嵩字御嵩南山２１８８－４６","source":"岐阜県食品営業許可施設情報","municipality_code":"21521","municipality_pref":"岐阜県","municipality_name":"御嵩町","municipality_code_method":"food_exact_coord"},"geometry":{"type":"Point","coordinates":[137.137804,35.430141]}},{"type":"Feature","properties":{"layer_id":"cafe_restaurant","name":"まつやのおやつ","category":"food","address":"岐阜県可児郡御嵩町古屋敷２９５－１","source":"岐阜県食品営業許可施設情報","municipality_code":"21521","municipality_pref":"岐阜県","municipality_name":"御嵩町","municipality_code_method":"food_exact_coord"},"geometry":{"type":"Point","coordinates":[137.111902,35.42404]}},{"type":"Feature","properties":{"layer_id":"cafe_restaurant","name":"ファミリーマート御嵩上恵土店","category":"food","address":"岐阜県可児郡御嵩町上恵土１２６３－６","source":"岐阜県食品営業許可施設情報","municipality_code":"21521","municipality_pref":"岐阜県","municipality_name":"御嵩町","municipality_code_method":"food_exact_coord"},"geometry":{"type":"Point","coordinates":[137.07683,35.438972]}},{"type":"Feature","properties":{"layer_id":"cafe_restaurant","name":"ファミリーマート可児御嵩町店","category":"food","address":"岐阜県可児郡御嵩町中字四万堂１８９５－１","source":"岐阜県食品営業許可施設情報","municipality_code":"21521","municipality_pref":"岐阜県","municipality_name":"御嵩町","municipality_code_method":"food_exact_coord"},"geometry":{"type":"Point","coordinates":[137.120198,35.433642]}},{"type":"Feature","properties":{"layer_id":"cafe_restaurant","name":"ごはん家　ふぅ","category":"food","address":"岐阜県可児郡御嵩町中２１２７－１０","source":"岐阜県食品営業許可施設情報","municipality_code":"21521","municipality_pref":"岐阜県","municipality_name":"御嵩町","municipality_code_method":"food_exact_coord"},"geometry":{"type":"Point","coordinates":[137.120198,35.433642]}},{"type":"Feature","properties":{"layer_id":"cafe_restaurant","name":"お天気や","category":"food","address":"岐阜県可児郡御嵩町井尻８１６－１","source":"岐阜県食品営業許可施設情報","municipality_code":"21521","municipality_pref":"岐阜県","municipality_name":"御嵩町","municipality_code_method":"food_exact_coord"},"geometry":{"type":"Point","coordinates":[137.153978,35.431366]}},{"type":"Feature","properties":{"layer_id":"cafe_restaurant","name":"いちふく","category":"food","address":"岐阜県可児郡御嵩町上恵土５３７の２","source":"岐阜県食品営業許可施設情報","municipality_code":"21521","municipality_pref":"岐阜県","municipality_name":"御嵩町","municipality_code_method":"food_exact_coord"},"geometry":{"type":"Point","coordinates":[137.07683,35.438972]}},{"type":"Feature","properties":{"layer_id":"cafe_restaurant","name":"居酒屋マタギ","category":"food","address":"岐阜県可児郡御嵩町上恵土７９０－３","source":"岐阜県食品営業許可施設情報","municipality_code":"21521","municipality_pref":"岐阜県","municipality_name":"御嵩町","municipality_code_method":"food_exact_coord"},"geometry":{"type":"Point","coordinates":[137.07683,35.438972]}},{"type":"Feature","properties":{"layer_id":"cafe_restaurant","name":"アロハカフェオハナ","category":"food","address":"岐阜県可児郡御嵩町上恵土９５１－１","source":"岐阜県食品営業許可施設情報","municipality_code":"21521","municipality_pref":"岐阜県","municipality_name":"御嵩町","municipality_code_method":"food_exact_coord"},"geometry":{"type":"Point","coordinates":[137.07683,35.438972]}},{"type":"Feature","properties":{"layer_id":"cafe_restaurant","name":"美岳カントリークラブ","category":"food","address":"岐阜県可児郡御嵩町前沢８０７５－３","source":"岐阜県食品営業許可施設情報","municipality_code":"21521","municipality_pref":"岐阜県","municipality_name":"御嵩町","municipality_code_method":"food_exact_coord"},"geometry":{"type":"Point","coordinates":[137.194353,35.44383]}},{"type":"Feature","properties":{"layer_id":"cafe_restaurant","name":"ジェイテクトギヤシステムみたけ食堂内愛協産業株式会社","category":"food","address":"岐阜県可児郡御嵩町御嵩字南山２１８８－４８","source":"岐阜県食品営業許可施設情報","municipality_code":"21521","municipality_pref":"岐阜県","municipality_name":"御嵩町","municipality_code_method":"food_exact_coord"},"geometry":{"type":"Point","coordinates":[137.137804,35.430141]}},{"type":"Feature","properties":{"layer_id":"cafe_restaurant","name":"魚邦","category":"food","address":"岐阜県可児郡御嵩町御嵩１１４４－１","source":"岐阜県食品営業許可施設情報","municipality_code":"21521","municipality_pref":"岐阜県","municipality_name":"御嵩町","municipality_code_method":"food_exact_coord"},"geometry":{"type":"Point","coordinates":[137.137804,35.430141]}},{"type":"Feature","properties":{"layer_id":"cafe_restaurant","name":"千風","category":"food","address":"岐阜県可児郡御嵩町上之郷６４４３","source":"岐阜県食品営業許可施設情報","municipality_code":"21521","municipality_pref":"岐阜県","municipality_name":"御嵩町","municipality_code_method":"food_exact_coord"},"geometry":{"type":"Point","coordinates":[137.168934,35.44632]}},{"type":"Feature","properties":{"layer_id":"cafe_restaurant","name":"かしわ屋","category":"food","address":"岐阜県可児郡御嵩町御嵩１５２０番地１","source":"岐阜県食品営業許可施設情報","municipality_code":"21521","municipality_pref":"岐阜県","municipality_name":"御嵩町","municipality_code_method":"food_exact_coord"},"geometry":{"type":"Point","coordinates":[137.137804,35.430141]}},{"type":"Feature","properties":{"layer_id":"cafe_restaurant","name":"中華食堂　鑫洋","category":"food","address":"岐阜県可児郡御嵩町顔戸１００４番地８","source":"岐阜県食品営業許可施設情報","municipality_code":"21521","municipality_pref":"岐阜県","municipality_name":"御嵩町","municipality_code_method":"food_exact_coord"},"geometry":{"type":"Point","coordinates":[137.110831,35.44234500000001]}},{"type":"Feature","properties":{"layer_id":"cafe_restaurant","name":"７３ｃａｆｅ","category":"food","address":"岐阜県可児郡御嵩町中尼ヶ池２５５－２","source":"岐阜県食品営業許可施設情報","municipality_code":"21521","municipality_pref":"岐阜県","municipality_name":"御嵩町","municipality_code_method":"food_exact_coord"},"geometry":{"type":"Point","coordinates":[137.120198,35.433642]}},{"type":"Feature","properties":{"layer_id":"cafe_restaurant","name":"ザ・ビッグ可児御嵩店","category":"food","address":"岐阜県可児郡御嵩町上恵土９５６","source":"岐阜県食品営業許可施設情報","municipality_code":"21521","municipality_pref":"岐阜県","municipality_name":"御嵩町","municipality_code_method":"food_exact_coord"},"geometry":{"type":"Point","coordinates":[137.07683,35.438972]}},{"type":"Feature","properties":{"layer_id":"cafe_restaurant","name":"ザ・ビッグ可児御嵩店","category":"food","address":"岐阜県可児郡御嵩町上恵土９５６","source":"岐阜県食品営業許可施設情報","municipality_code":"21521","municipality_pref":"岐阜県","municipality_name":"御嵩町","municipality_code_method":"food_exact_coord"},"geometry":{"type":"Point","coordinates":[137.07683,35.438972]}},{"type":"Feature","properties":{"layer_id":"cafe_restaurant","name":"アピタ御嵩店","category":"food","address":"岐阜県可児郡御嵩町上恵土１０５２番１","source":"岐阜県食品営業許可施設情報","municipality_code":"21521","municipality_pref":"岐阜県","municipality_name":"御嵩町","municipality_code_method":"food_exact_coord"},"geometry":{"type":"Point","coordinates":[137.07683,35.438972]}},{"type":"Feature","properties":{"layer_id":"cafe_restaurant","name":"アピタ御嵩店","category":"food","address":"岐阜県可児郡御嵩町上恵土１０５２番１","source":"岐阜県食品営業許可施設情報","municipality_code":"21521","municipality_pref":"岐阜県","municipality_name":"御嵩町","municipality_code_method":"food_exact_coord"},"geometry":{"type":"Point","coordinates":[137.07683,35.438972]}},{"type":"Feature","properties":{"layer_id":"cafe_restaurant","name":"カネ美食品㈱アピタ御嵩店","category":"food","address":"岐阜県可児郡御嵩町上恵土字西畑１０５２番の１","source":"岐阜県食品営業許可施設情報","municipality_code":"21521","municipality_pref":"岐阜県","municipality_name":"御嵩町","municipality_code_method":"food_exact_coord"},"geometry":{"type":"Point","coordinates":[137.07683,35.438972]}},{"type":"Feature","properties":{"layer_id":"cafe_restaurant","name":"カフェ・ブラウン","category":"food","address":"岐阜県可児郡御嵩町御嵩５５５－７","source":"岐阜県食品営業許可施設情報","municipality_code":"21521","municipality_pref":"岐阜県","municipality_name":"御嵩町","municipality_code_method":"food_exact_coord"},"geometry":{"type":"Point","coordinates":[137.137804,35.430141]}},{"type":"Feature","properties":{"layer_id":"cafe_restaurant","name":"ユタカ","category":"food","address":"岐阜県可児郡御嵩町御嵩１４２６－２","source":"岐阜県食品営業許可施設情報","municipality_code":"21521","municipality_pref":"岐阜県","municipality_name":"御嵩町","municipality_code_method":"food_exact_coord"},"geometry":{"type":"Point","coordinates":[137.137804,35.430141]}},{"type":"Feature","properties":{"layer_id":"cafe_restaurant","name":"食房　るまん","category":"food","address":"岐阜県可児郡御嵩町御嵩１２３８－１","source":"岐阜県食品営業許可施設情報","municipality_code":"21521","municipality_pref":"岐阜県","municipality_name":"御嵩町","municipality_code_method":"food_exact_coord"},"geometry":{"type":"Point","coordinates":[137.137804,35.430141]}},{"type":"Feature","properties":{"layer_id":"cafe_restaurant","name":"お好み焼　せいらく","category":"food","address":"岐阜県可児郡御嵩町中２３０８番地２","source":"岐阜県食品営業許可施設情報","municipality_code":"21521","municipality_pref":"岐阜県","municipality_name":"御嵩町","municipality_code_method":"food_exact_coord"},"geometry":{"type":"Point","coordinates":[137.120198,35.433642]}},{"type":"Feature","properties":{"layer_id":"cafe_restaurant","name":"こぼけ","category":"food","address":"岐阜県可児郡御嵩町古屋敷７２０－２","source":"岐阜県食品営業許可施設情報","municipality_code":"21521","municipality_pref":"岐阜県","municipality_name":"御嵩町","municipality_code_method":"food_exact_coord"},"geometry":{"type":"Point","coordinates":[137.111902,35.42404]}},{"type":"Feature","properties":{"layer_id":"cafe_restaurant","name":"食事処かず","category":"food","address":"岐阜県可児郡御嵩町古屋敷字中屋敷７３９－１","source":"岐阜県食品営業許可施設情報","municipality_code":"21521","municipality_pref":"岐阜県","municipality_name":"御嵩町","municipality_code_method":"food_exact_coord"},"geometry":{"type":"Point","coordinates":[137.111902,35.42404]}},{"type":"Feature","properties":{"layer_id":"cafe_restaurant","name":"ぽっかぽか","category":"food","address":"岐阜県可児郡御嵩町上恵土５７５","source":"岐阜県食品営業許可施設情報","municipality_code":"21521","municipality_pref":"岐阜県","municipality_name":"御嵩町","municipality_code_method":"food_exact_coord"},"geometry":{"type":"Point","coordinates":[137.07683,35.438972]}},{"type":"Feature","properties":{"layer_id":"cafe_restaurant","name":"ちょい呑み　さぼてん","category":"food","address":"岐阜県可児郡御嵩町上恵土１０６３","source":"岐阜県食品営業許可施設情報","municipality_code":"21521","municipality_pref":"岐阜県","municipality_name":"御嵩町","municipality_code_method":"food_exact_coord"},"geometry":{"type":"Point","coordinates":[137.07683,35.438972]}},{"type":"Feature","properties":{"layer_id":"cafe_restaurant","name":"株式会社インディード御嵩店","category":"food","address":"岐阜県可児郡御嵩町上恵土字西畑１０５２－１","source":"岐阜県食品営業許可施設情報","municipality_code":"21521","municipality_pref":"岐阜県","municipality_name":"御嵩町","municipality_code_method":"food_exact_coord"},"geometry":{"type":"Point","coordinates":[137.07683,35.438972]}},{"type":"Feature","properties":{"layer_id":"cafe_restaurant","name":"ディッパーダン　ラスパ御嵩店","category":"food","address":"岐阜県可児郡御嵩町上恵土字西畑１０５２番１号","source":"岐阜県食品営業許可施設情報","municipality_code":"21521","municipality_pref":"岐阜県","municipality_name":"御嵩町","municipality_code_method":"food_exact_coord"},"geometry":{"type":"Point","coordinates":[137.07683,35.438972]}},{"type":"Feature","properties":{"layer_id":"cafe_restaurant","name":"サーティワンアイスクリーム　ラスパ御嵩店","category":"food","address":"岐阜県可児郡御嵩町上恵土字西畑１０５２－１","source":"岐阜県食品営業許可施設情報","municipality_code":"21521","municipality_pref":"岐阜県","municipality_name":"御嵩町","municipality_code_method":"food_exact_coord"},"geometry":{"type":"Point","coordinates":[137.07683,35.438972]}},{"type":"Feature","properties":{"layer_id":"cafe_restaurant","name":"アジアン亭　ラスパ御嵩店","category":"food","address":"岐阜県可児郡御嵩町上恵土１０５２番地１","source":"岐阜県食品営業許可施設情報","municipality_code":"21521","municipality_pref":"岐阜県","municipality_name":"御嵩町","municipality_code_method":"food_exact_coord"},"geometry":{"type":"Point","coordinates":[137.07683,35.438972]}},{"type":"Feature","properties":{"layer_id":"cafe_restaurant","name":"はなまるうどん　ラスパ御嵩店","category":"food","address":"岐阜県可児郡御嵩町上恵土１０５２－１","source":"岐阜県食品営業許可施設情報","municipality_code":"21521","municipality_pref":"岐阜県","municipality_name":"御嵩町","municipality_code_method":"food_exact_coord"},"geometry":{"type":"Point","coordinates":[137.07683,35.438972]}},{"type":"Feature","properties":{"layer_id":"cafe_restaurant","name":"ネコカフェ　ふわり","category":"food","address":"岐阜県可児郡御嵩町中１１１３－６","source":"岐阜県食品営業許可施設情報","municipality_code":"21521","municipality_pref":"岐阜県","municipality_name":"御嵩町","municipality_code_method":"food_exact_coord"},"geometry":{"type":"Point","coordinates":[137.120198,35.433642]}},{"type":"Feature","properties":{"layer_id":"cafe_restaurant","name":"東海化成工業株式会社","category":"food","address":"岐阜県可児郡御嵩町御嵩２１９２－３０","source":"岐阜県食品営業許可施設情報","municipality_code":"21521","municipality_pref":"岐阜県","municipality_name":"御嵩町","municipality_code_method":"food_exact_coord"},"geometry":{"type":"Point","coordinates":[137.137804,35.430141]}},{"type":"Feature","properties":{"layer_id":"cafe_restaurant","name":"ＰＡＳＴＡ　Ｒｏｃｈｉｅ　御嵩店","category":"food","address":"岐阜県可児郡御嵩町中１０－３","source":"岐阜県食品営業許可施設情報","municipality_code":"21521","municipality_pref":"岐阜県","municipality_name":"御嵩町","municipality_code_method":"food_exact_coord"},"geometry":{"type":"Point","coordinates":[137.120198,35.433642]}},{"type":"Feature","properties":{"layer_id":"cafe_restaurant","name":"ＫＭ４９７６","category":"food","address":"岐阜県可児郡御嵩町中２６２８番地４０","source":"岐阜県食品営業許可施設情報","municipality_code":"21521","municipality_pref":"岐阜県","municipality_name":"御嵩町","municipality_code_method":"food_exact_coord"},"geometry":{"type":"Point","coordinates":[137.120198,35.433642]}},{"type":"Feature","properties":{"layer_id":"cafe_restaurant","name":"極生プリン専門店　湊","category":"food","address":"岐阜県可児郡御嵩町上恵土９４８－１","source":"岐阜県食品営業許可施設情報","municipality_code":"21521","municipality_pref":"岐阜県","municipality_name":"御嵩町","municipality_code_method":"food_exact_coord"},"geometry":{"type":"Point","coordinates":[137.07683,35.438972]}},{"type":"Feature","properties":{"layer_id":"cafe_restaurant","name":"セブン－イレブン　御嵩町伏見店","category":"food","address":"岐阜県可児郡御嵩町上恵土５４２番２","source":"岐阜県食品営業許可施設情報","municipality_code":"21521","municipality_pref":"岐阜県","municipality_name":"御嵩町","municipality_code_method":"food_exact_coord"},"geometry":{"type":"Point","coordinates":[137.07683,35.438972]}},{"type":"Feature","properties":{"layer_id":"cafe_restaurant","name":"呑珍舘","category":"food","address":"岐阜県可児郡御嵩町井尻７４６－２","source":"岐阜県食品営業許可施設情報","municipality_code":"21521","municipality_pref":"岐阜県","municipality_name":"御嵩町","municipality_code_method":"food_exact_coord"},"geometry":{"type":"Point","coordinates":[137.153978,35.431366]}},{"type":"Feature","properties":{"layer_id":"cafe_restaurant","name":"こなもん屋","category":"food","address":"岐阜県可児郡御嵩町伏見７６０－２０","source":"岐阜県食品営業許可施設情報","municipality_code":"21521","municipality_pref":"岐阜県","municipality_name":"御嵩町","municipality_code_method":"food_exact_coord"},"geometry":{"type":"Point","coordinates":[137.090308,35.441895]}},{"type":"Feature","properties":{"layer_id":"cafe_restaurant","name":"みたけ華ずし","category":"food","address":"岐阜県可児郡御嵩町御嵩１４４６","source":"岐阜県食品営業許可施設情報","municipality_code":"21521","municipality_pref":"岐阜県","municipality_name":"御嵩町","municipality_code_method":"food_exact_coord"},"geometry":{"type":"Point","coordinates":[137.137804,35.430141]}},{"type":"Feature","properties":{"layer_id":"cafe_restaurant","name":"マルヒチ食料品店","category":"food","address":"岐阜県可児郡御嵩町御嵩１５０８－１","source":"岐阜県食品営業許可施設情報","municipality_code":"21521","municipality_pref":"岐阜県","municipality_name":"御嵩町","municipality_code_method":"food_exact_coord"},"geometry":{"type":"Point","coordinates":[137.137804,35.430141]}},{"type":"Feature","properties":{"layer_id":"cafe_restaurant","name":"ローソン御嵩バイパス店","category":"food","address":"岐阜県可児郡御嵩町御嵩１９０９－１","source":"岐阜県食品営業許可施設情報","municipality_code":"21521","municipality_pref":"岐阜県","municipality_name":"御嵩町","municipality_code_method":"food_exact_coord"},"geometry":{"type":"Point","coordinates":[137.137804,35.430141]}},{"type":"Feature","properties":{"layer_id":"cafe_restaurant","name":"中部フーズ株式会社　御嵩店","category":"food","address":"岐阜県可児郡御嵩町中１０３１－１","source":"岐阜県食品営業許可施設情報","municipality_code":"21521","municipality_pref":"岐阜県","municipality_name":"御嵩町","municipality_code_method":"food_exact_coord"},"geometry":{"type":"Point","coordinates":[137.120198,35.433642]}},{"type":"Feature","properties":{"layer_id":"cafe_restaurant","name":"中部フーズ株式会社　御嵩店","category":"food","address":"岐阜県可児郡御嵩町中１０３１－１","source":"岐阜県食品営業許可施設情報","municipality_code":"21521","municipality_pref":"岐阜県","municipality_name":"御嵩町","municipality_code_method":"food_exact_coord"},"geometry":{"type":"Point","coordinates":[137.120198,35.433642]}},{"type":"Feature","properties":{"layer_id":"cafe_restaurant","name":"サンクラシックゴルフクラブ","category":"food","address":"岐阜県可児郡御嵩町比衣字北大洞１０９７－１－１","source":"岐阜県食品営業許可施設情報","municipality_code":"21521","municipality_pref":"岐阜県","municipality_name":"御嵩町","municipality_code_method":"food_exact_coord"},"geometry":{"type":"Point","coordinates":[137.104933,35.447875]}},{"type":"Feature","properties":{"layer_id":"cafe_restaurant","name":"ワールドレイクゴルフ倶楽部","category":"food","address":"岐阜県可児郡御嵩町中切字天王洞１７１５","source":"岐阜県食品営業許可施設情報","municipality_code":"21521","municipality_pref":"岐阜県","municipality_name":"御嵩町","municipality_code_method":"food_exact_coord"},"geometry":{"type":"Point","coordinates":[137.157624,35.416892]}},{"type":"Feature","properties":{"layer_id":"cafe_restaurant","name":"グリルピート","category":"food","address":"岐阜県可児郡御嵩町御嵩９５４－１","source":"岐阜県食品営業許可施設情報","municipality_code":"21521","municipality_pref":"岐阜県","municipality_name":"御嵩町","municipality_code_method":"food_exact_coord"},"geometry":{"type":"Point","coordinates":[137.137804,35.430141]}},{"type":"Feature","properties":{"layer_id":"cafe_restaurant","name":"サッポロラーメン　みふく","category":"food","address":"岐阜県可児郡御嵩町御嵩９５３－５","source":"岐阜県食品営業許可施設情報","municipality_code":"21521","municipality_pref":"岐阜県","municipality_name":"御嵩町","municipality_code_method":"food_exact_coord"},"geometry":{"type":"Point","coordinates":[137.137804,35.430141]}},{"type":"Feature","properties":{"layer_id":"cafe_restaurant","name":"味和居江戸川","category":"food","address":"岐阜県可児郡御嵩町御嵩１５６６－１","source":"岐阜県食品営業許可施設情報","municipality_code":"21521","municipality_pref":"岐阜県","municipality_name":"御嵩町","municipality_code_method":"food_exact_coord"},"geometry":{"type":"Point","coordinates":[137.137804,35.430141]}},{"type":"Feature","properties":{"layer_id":"cafe_restaurant","name":"靖子","category":"food","address":"岐阜県可児郡御嵩町古屋敷２８９－３","source":"岐阜県食品営業許可施設情報","municipality_code":"21521","municipality_pref":"岐阜県","municipality_name":"御嵩町","municipality_code_method":"food_exact_coord"},"geometry":{"type":"Point","coordinates":[137.111902,35.42404]}},{"type":"Feature","properties":{"layer_id":"cafe_restaurant","name":"利休","category":"food","address":"岐阜県可児郡御嵩町上恵土２８２－５","source":"岐阜県食品営業許可施設情報","municipality_code":"21521","municipality_pref":"岐阜県","municipality_name":"御嵩町","municipality_code_method":"food_exact_coord"},"geometry":{"type":"Point","coordinates":[137.07683,35.438972]}},{"type":"Feature","properties":{"layer_id":"cafe_restaurant","name":"美岳カントリ－クラブ","category":"food","address":"岐阜県可児郡御嵩町前沢８０７５－３","source":"岐阜県食品営業許可施設情報","municipality_code":"21521","municipality_pref":"岐阜県","municipality_name":"御嵩町","municipality_code_method":"food_exact_coord"},"geometry":{"type":"Point","coordinates":[137.194353,35.44383]}},{"type":"Feature","properties":{"layer_id":"cafe_restaurant","name":"カフェレストＤｉｎｇＤｏｎｇ","category":"food","address":"岐阜県可児郡御嵩町井尻７４６－２","source":"岐阜県食品営業許可施設情報","municipality_code":"21521","municipality_pref":"岐阜県","municipality_name":"御嵩町","municipality_code_method":"food_exact_coord"},"geometry":{"type":"Point","coordinates":[137.153978,35.431366]}},{"type":"Feature","properties":{"layer_id":"cafe_restaurant","name":"有限会社　了山","category":"food","address":"岐阜県可児郡御嵩町次月３４２０番地の７","source":"岐阜県食品営業許可施設情報","municipality_code":"21521","municipality_pref":"岐阜県","municipality_name":"御嵩町","municipality_code_method":"food_exact_coord"},"geometry":{"type":"Point","coordinates":[137.187698,35.407945]}},{"type":"Feature","properties":{"layer_id":"cafe_restaurant","name":"有限会社　了山","category":"food","address":"岐阜県可児郡御嵩町次月３４２０番地の７","source":"岐阜県食品営業許可施設情報","municipality_code":"21521","municipality_pref":"岐阜県","municipality_name":"御嵩町","municipality_code_method":"food_exact_coord"},"geometry":{"type":"Point","coordinates":[137.187698,35.407945]}},{"type":"Feature","properties":{"layer_id":"cafe_restaurant","name":"お食事処　かえで","category":"food","address":"岐阜県可児郡御嵩町御嵩１３４１の４","source":"岐阜県食品営業許可施設情報","municipality_code":"21521","municipality_pref":"岐阜県","municipality_name":"御嵩町","municipality_code_method":"food_exact_coord"},"geometry":{"type":"Point","coordinates":[137.137804,35.430141]}},{"type":"Feature","properties":{"layer_id":"cafe_restaurant","name":"ヤマト山田商店","category":"food","address":"岐阜県可児郡御嵩町顔戸９４８","source":"岐阜県食品営業許可施設情報","municipality_code":"21521","municipality_pref":"岐阜県","municipality_name":"御嵩町","municipality_code_method":"food_exact_coord"},"geometry":{"type":"Point","coordinates":[137.110831,35.44234500000001]}},{"type":"Feature","properties":{"layer_id":"cafe_restaurant","name":"ラ・プロヴァンス","category":"food","address":"岐阜県可児郡御嵩町謡坂４９２９－７","source":"岐阜県食品営業許可施設情報","municipality_code":"21521","municipality_pref":"岐阜県","municipality_name":"御嵩町","municipality_code_method":"food_exact_coord"},"geometry":{"type":"Point","coordinates":[137.176593,35.431248]}},{"type":"Feature","properties":{"layer_id":"cafe_restaurant","name":"ミュージックスタジオ　昴","category":"food","address":"岐阜県可児郡御嵩町宿中北屋敷２１７３－８","source":"岐阜県食品営業許可施設情報","municipality_code":"21521","municipality_pref":"岐阜県","municipality_name":"御嵩町","municipality_code_method":"food_exact_coord"},"geometry":{"type":"Point","coordinates":[137.163658,35.412248]}},{"type":"Feature","properties":{"layer_id":"cafe_restaurant","name":"風見鶏","category":"food","address":"岐阜県可児郡御嵩町上之郷６３４４－９","source":"岐阜県食品営業許可施設情報","municipality_code":"21521","municipality_pref":"岐阜県","municipality_name":"御嵩町","municipality_code_method":"food_exact_coord"},"geometry":{"type":"Point","coordinates":[137.168934,35.44632]}},{"type":"Feature","properties":{"layer_id":"cafe_restaurant","name":"エクセレントゴルフクラブみたけ花トピアコース","category":"food","address":"岐阜県可児郡御嵩町古屋敷字東洞１５５－１","source":"岐阜県食品営業許可施設情報","municipality_code":"21521","municipality_pref":"岐阜県","municipality_name":"御嵩町","municipality_code_method":"food_exact_coord"},"geometry":{"type":"Point","coordinates":[137.111902,35.42404]}},{"type":"Feature","properties":{"layer_id":"cafe_restaurant","name":"こぶしゴルフ倶楽部","category":"food","address":"岐阜県可児郡御嵩町前沢８０７５－６","source":"岐阜県食品営業許可施設情報","municipality_code":"21521","municipality_pref":"岐阜県","municipality_name":"御嵩町","municipality_code_method":"food_exact_coord"},"geometry":{"type":"Point","coordinates":[137.194353,35.44383]}},{"type":"Feature","properties":{"layer_id":"cafe_restaurant","name":"こぶしゴルフ倶楽部","category":"food","address":"岐阜県可児郡御嵩町前沢８０７５－６","source":"岐阜県食品営業許可施設情報","municipality_code":"21521","municipality_pref":"岐阜県","municipality_name":"御嵩町","municipality_code_method":"food_exact_coord"},"geometry":{"type":"Point","coordinates":[137.194353,35.44383]}},{"type":"Feature","properties":{"layer_id":"cafe_restaurant","name":"こぶしゴルフ倶楽部","category":"food","address":"岐阜県可児郡御嵩町前沢８０７５－６","source":"岐阜県食品営業許可施設情報","municipality_code":"21521","municipality_pref":"岐阜県","municipality_name":"御嵩町","municipality_code_method":"food_exact_coord"},"geometry":{"type":"Point","coordinates":[137.194353,35.44383]}},{"type":"Feature","properties":{"layer_id":"cafe_restaurant","name":"有限会社　肉のキング","category":"food","address":"岐阜県可児郡御嵩町中１０００－１","source":"岐阜県食品営業許可施設情報","municipality_code":"21521","municipality_pref":"岐阜県","municipality_name":"御嵩町","municipality_code_method":"food_exact_coord"},"geometry":{"type":"Point","coordinates":[137.120198,35.433642]}},{"type":"Feature","properties":{"layer_id":"cafe_restaurant","name":"御嶽宿わいわい館","category":"food","address":"岐阜県可児郡御嵩町御嵩１５５４－１","source":"岐阜県食品営業許可施設情報","municipality_code":"21521","municipality_pref":"岐阜県","municipality_name":"御嵩町","municipality_code_method":"food_exact_coord"},"geometry":{"type":"Point","coordinates":[137.137804,35.430141]}},{"type":"Feature","properties":{"layer_id":"cafe_restaurant","name":"バロー御嵩店","category":"food","address":"岐阜県可児郡御嵩町中１０３１－１","source":"岐阜県食品営業許可施設情報","municipality_code":"21521","municipality_pref":"岐阜県","municipality_name":"御嵩町","municipality_code_method":"food_exact_coord"},"geometry":{"type":"Point","coordinates":[137.120198,35.433642]}},{"type":"Feature","properties":{"layer_id":"cafe_restaurant","name":"ベルビー　はなびし","category":"food","address":"岐阜県可児郡御嵩町御嵩９５８－１","source":"岐阜県食品営業許可施設情報","municipality_code":"21521","municipality_pref":"岐阜県","municipality_name":"御嵩町","municipality_code_method":"food_exact_coord"},"geometry":{"type":"Point","coordinates":[137.137804,35.430141]}},{"type":"Feature","properties":{"layer_id":"cafe_restaurant","name":"ＫＡＬＡＳＨ","category":"food","address":"岐阜県可児郡御嵩町上恵土１０５２－１ラスパ御嵩１Ｆ","source":"岐阜県食品営業許可施設情報","municipality_code":"21521","municipality_pref":"岐阜県","municipality_name":"御嵩町","municipality_code_method":"food_exact_coord"},"geometry":{"type":"Point","coordinates":[137.07683,35.438972]}},{"type":"Feature","properties":{"layer_id":"cafe_restaurant","name":"ファミリーマート御嵩中坪店","category":"food","address":"岐阜県可児郡御嵩町中８３－３","source":"岐阜県食品営業許可施設情報","municipality_code":"21521","municipality_pref":"岐阜県","municipality_name":"御嵩町","municipality_code_method":"food_exact_coord"},"geometry":{"type":"Point","coordinates":[137.120198,35.433642]}},{"type":"Feature","properties":{"layer_id":"cafe_restaurant","name":"（有）ヨシイ","category":"food","address":"岐阜県可児郡御嵩町中１４３１－９","source":"岐阜県食品営業許可施設情報","municipality_code":"21521","municipality_pref":"岐阜県","municipality_name":"御嵩町","municipality_code_method":"food_exact_coord"},"geometry":{"type":"Point","coordinates":[137.120198,35.433642]}},{"type":"Feature","properties":{"layer_id":"cafe_restaurant","name":"ロッテリア　ラスパ御嵩店","category":"food","address":"岐阜県可児郡御嵩町上恵土字西畑１０５２番地１（ラスパ御嵩１Ｆ）","source":"岐阜県食品営業許可施設情報","municipality_code":"21521","municipality_pref":"岐阜県","municipality_name":"御嵩町","municipality_code_method":"food_exact_coord"},"geometry":{"type":"Point","coordinates":[137.07683,35.438972]}},{"type":"Feature","properties":{"layer_id":"cafe_restaurant","name":"リンガーハット　ラスパ御嵩店","category":"food","address":"岐阜県可児郡御嵩町上恵土１０５２－１","source":"岐阜県食品営業許可施設情報","municipality_code":"21521","municipality_pref":"岐阜県","municipality_name":"御嵩町","municipality_code_method":"food_exact_coord"},"geometry":{"type":"Point","coordinates":[137.07683,35.438972]}},{"type":"Feature","properties":{"layer_id":"cafe_restaurant","name":"桃井病院","category":"food","address":"岐阜県可児郡御嵩町中２１６３","source":"岐阜県食品営業許可施設情報","municipality_code":"21521","municipality_pref":"岐阜県","municipality_name":"御嵩町","municipality_code_method":"food_exact_coord"},"geometry":{"type":"Point","coordinates":[137.120198,35.433642]}},{"type":"Feature","properties":{"layer_id":"cafe_restaurant","name":"Ｐｅｒｔｈ　Ｃａｆｅ","category":"food","address":"岐阜県可児郡御嵩町伏見３４８番地１","source":"岐阜県食品営業許可施設情報","municipality_code":"21521","municipality_pref":"岐阜県","municipality_name":"御嵩町","municipality_code_method":"food_exact_coord"},"geometry":{"type":"Point","coordinates":[137.090308,35.441895]}},{"type":"Feature","properties":{"layer_id":"cafe_restaurant","name":"多鞠庵","category":"food","address":"岐阜県可児郡御嵩町伏見９２４－１","source":"岐阜県食品営業許可施設情報","municipality_code":"21521","municipality_pref":"岐阜県","municipality_name":"御嵩町","municipality_code_method":"food_exact_coord"},"geometry":{"type":"Point","coordinates":[137.090308,35.441895]}},{"type":"Feature","properties":{"layer_id":"cafe_restaurant","name":"魚信山田","category":"food","address":"岐阜県可児郡御嵩町中８７７－２１","source":"岐阜県食品営業許可施設情報","municipality_code":"21521","municipality_pref":"岐阜県","municipality_name":"御嵩町","municipality_code_method":"food_exact_coord"},"geometry":{"type":"Point","coordinates":[137.120198,35.433642]}},{"type":"Feature","properties":{"layer_id":"cafe_restaurant","name":"いろは茶屋","category":"food","address":"岐阜県可児郡御嵩町謡坂５２８４－２","source":"岐阜県食品営業許可施設情報","municipality_code":"21521","municipality_pref":"岐阜県","municipality_name":"御嵩町","municipality_code_method":"food_exact_coord"},"geometry":{"type":"Point","coordinates":[137.176593,35.431248]}},{"type":"Feature","properties":{"layer_id":"cafe_restaurant","name":"ミニストップ御嵩古屋敷店","category":"food","address":"岐阜県可児郡御嵩町古屋敷７５０－２","source":"岐阜県食品営業許可施設情報","municipality_code":"21521","municipality_pref":"岐阜県","municipality_name":"御嵩町","municipality_code_method":"food_exact_coord"},"geometry":{"type":"Point","coordinates":[137.111902,35.42404]}},{"type":"Feature","properties":{"layer_id":"cafe_restaurant","name":"まんまる五平餅","category":"food","address":"岐阜県可児郡御嵩町比衣４９６－１０","source":"岐阜県食品営業許可施設情報","municipality_code":"21521","municipality_pref":"岐阜県","municipality_name":"御嵩町","municipality_code_method":"food_exact_coord"},"geometry":{"type":"Point","coordinates":[137.104933,35.447875]}},{"type":"Feature","properties":{"layer_id":"cafe_restaurant","name":"アピタ御嵩店","category":"food","address":"岐阜県可児郡御嵩町上恵土１０５２番地１","source":"岐阜県食品営業許可施設情報","municipality_code":"21521","municipality_pref":"岐阜県","municipality_name":"御嵩町","municipality_code_method":"food_exact_coord"},"geometry":{"type":"Point","coordinates":[137.07683,35.438972]}},{"type":"Feature","properties":{"layer_id":"cafe_restaurant","name":"アピタ御嵩店","category":"food","address":"岐阜県可児郡御嵩町上恵土１０５２番地１","source":"岐阜県食品営業許可施設情報","municipality_code":"21521","municipality_pref":"岐阜県","municipality_name":"御嵩町","municipality_code_method":"food_exact_coord"},"geometry":{"type":"Point","coordinates":[137.07683,35.438972]}},{"type":"Feature","properties":{"layer_id":"cafe_restaurant","name":"車","category":"food","address":"岐阜県可児郡御嵩町伏見８２５－３","source":"岐阜県食品営業許可施設情報","municipality_code":"21521","municipality_pref":"岐阜県","municipality_name":"御嵩町","municipality_code_method":"food_exact_coord"},"geometry":{"type":"Point","coordinates":[137.090308,35.441895]}},{"type":"Feature","properties":{"layer_id":"cafe_restaurant","name":"馬力家","category":"food","address":"岐阜県可児郡御嵩町伏見８１４－１","source":"岐阜県食品営業許可施設情報","municipality_code":"21521","municipality_pref":"岐阜県","municipality_name":"御嵩町","municipality_code_method":"food_exact_coord"},"geometry":{"type":"Point","coordinates":[137.090308,35.441895]}},{"type":"Feature","properties":{"layer_id":"cafe_restaurant","name":"戸田・リニア美佐野寮","category":"food","address":"岐阜県可児郡御嵩町御嵩南山２１８８番地４６","source":"岐阜県食品営業許可施設情報","municipality_code":"21521","municipality_pref":"岐阜県","municipality_name":"御嵩町","municipality_code_method":"food_exact_coord"},"geometry":{"type":"Point","coordinates":[137.137804,35.430141]}},{"type":"Feature","properties":{"layer_id":"cafe_restaurant","name":"コパンカフェ　ぽち","category":"food","address":"岐阜県可児郡御嵩町古屋敷４９６－１","source":"岐阜県食品営業許可施設情報","municipality_code":"21521","municipality_pref":"岐阜県","municipality_name":"御嵩町","municipality_code_method":"food_exact_coord"},"geometry":{"type":"Point","coordinates":[137.111902,35.42404]}},{"type":"Feature","properties":{"layer_id":"cafe_restaurant","name":"デイサービスセンター　あんしんみたけ","category":"food","address":"岐阜県可児郡御嵩町御嵩358-1","source":"厚生労働省 食品衛生申請等システム（オープンデータ）","municipality_code":"21521","municipality_pref":"岐阜県","municipality_name":"御嵩町","municipality_code_method":"food_exact_coord"},"geometry":{"type":"Point","coordinates":[137.142951,35.430389]}},{"type":"Feature","properties":{"layer_id":"cafe_restaurant","name":"アピタ御嵩店","category":"food","address":"岐阜県可児郡御嵩町上恵土1052番地1","source":"厚生労働省 食品衛生申請等システム（オープンデータ）","municipality_code":"21521","municipality_pref":"岐阜県","municipality_name":"御嵩町","municipality_code_method":"food_exact_coord"},"geometry":{"type":"Point","coordinates":[137.070517,35.433925]}},{"type":"Feature","properties":{"layer_id":"cafe_restaurant","name":"アピタ御嵩店","category":"food","address":"岐阜県可児郡御嵩町上恵土1052番地1","source":"厚生労働省 食品衛生申請等システム（オープンデータ）","municipality_code":"21521","municipality_pref":"岐阜県","municipality_name":"御嵩町","municipality_code_method":"food_exact_coord"},"geometry":{"type":"Point","coordinates":[137.070517,35.433925]}},{"type":"Feature","properties":{"layer_id":"cafe_restaurant","name":"ドトールコーヒーショップ　アピタ御嵩店","category":"food","address":"岐阜県可児郡御嵩町上恵土1052番地1","source":"厚生労働省 食品衛生申請等システム（オープンデータ）","municipality_code":"21521","municipality_pref":"岐阜県","municipality_name":"御嵩町","municipality_code_method":"food_exact_coord"},"geometry":{"type":"Point","coordinates":[137.070517,35.433925]}},{"type":"Feature","properties":{"layer_id":"cafe_restaurant","name":"アジアン亭　ラスパ御嵩店","category":"food","address":"岐阜県可児郡御嵩町上恵土1052番地1","source":"厚生労働省 食品衛生申請等システム（オープンデータ）","municipality_code":"21521","municipality_pref":"岐阜県","municipality_name":"御嵩町","municipality_code_method":"food_exact_coord"},"geometry":{"type":"Point","coordinates":[137.070517,35.433925]}},{"type":"Feature","properties":{"layer_id":"cafe_restaurant","name":"アピタ御嵩店","category":"food","address":"岐阜県可児郡御嵩町上恵土1052番1","source":"厚生労働省 食品衛生申請等システム（オープンデータ）","municipality_code":"21521","municipality_pref":"岐阜県","municipality_name":"御嵩町","municipality_code_method":"food_exact_coord"},"geometry":{"type":"Point","coordinates":[137.070399,35.435872]}},{"type":"Feature","properties":{"layer_id":"cafe_restaurant","name":"アピタ御嵩店","category":"food","address":"岐阜県可児郡御嵩町上恵土1052番地1","source":"厚生労働省 食品衛生申請等システム（オープンデータ）","municipality_code":"21521","municipality_pref":"岐阜県","municipality_name":"御嵩町","municipality_code_method":"food_exact_coord"},"geometry":{"type":"Point","coordinates":[137.071022,35.436098]}},{"type":"Feature","properties":{"layer_id":"cafe_restaurant","name":"アピタ御嵩店","category":"food","address":"岐阜県可児郡御嵩町上恵土1052番地1","source":"厚生労働省 食品衛生申請等システム（オープンデータ）","municipality_code":"21521","municipality_pref":"岐阜県","municipality_name":"御嵩町","municipality_code_method":"food_exact_coord"},"geometry":{"type":"Point","coordinates":[137.071022,35.436098]}},{"type":"Feature","properties":{"layer_id":"cafe_restaurant","name":"カネ美食品㈱アピタ御嵩店","category":"food","address":"岐阜県可児郡御嵩町上恵土字西畑1052番の1","source":"厚生労働省 食品衛生申請等システム（オープンデータ）","municipality_code":"21521","municipality_pref":"岐阜県","municipality_name":"御嵩町","municipality_code_method":"food_exact_coord"},"geometry":{"type":"Point","coordinates":[137.076551,35.438161]}},{"type":"Feature","properties":{"layer_id":"cafe_restaurant","name":"リンガーハットラスパ御嵩店","category":"food","address":"岐阜県可児郡御嵩町上恵土1052-1","source":"厚生労働省 食品衛生申請等システム（オープンデータ）","municipality_code":"21521","municipality_pref":"岐阜県","municipality_name":"御嵩町","municipality_code_method":"food_exact_coord"},"geometry":{"type":"Point","coordinates":[137.071022,35.436098]}},{"type":"Feature","properties":{"layer_id":"cafe_restaurant","name":"まつやのおやつ","category":"food","address":"岐阜県可児郡御嵩町古屋敷295-1","source":"厚生労働省 食品衛生申請等システム（オープンデータ）","municipality_code":"21521","municipality_pref":"岐阜県","municipality_name":"御嵩町","municipality_code_method":"food_exact_coord"},"geometry":{"type":"Point","coordinates":[137.113388,35.432214]}},{"type":"Feature","properties":{"layer_id":"cafe_restaurant","name":"KM4976","category":"food","address":"岐阜県可児郡御嵩町中2628番地40","source":"厚生労働省 食品衛生申請等システム（オープンデータ）","municipality_code":"21521","municipality_pref":"岐阜県","municipality_name":"御嵩町","municipality_code_method":"food_exact_coord"},"geometry":{"type":"Point","coordinates":[137.128291,35.435061]}},{"type":"Feature","properties":{"layer_id":"public_facilities","name":"上之郷出張所","category":"public","address":"御嵩町中切874-4","source":"国土交通省 国土数値情報","municipality_code":"21521","municipality_pref":"岐阜県","municipality_name":"御嵩町","municipality_code_method":"source_exact_coord"},"geometry":{"type":"Point","coordinates":[137.15749632356946,35.42690088887833]}},{"type":"Feature","properties":{"layer_id":"public_facilities","name":"Ｂ＆Ｇ海洋センター体育館","category":"public","address":"御嵩町中2777-28","source":"国土交通省 国土数値情報","municipality_code":"21521","municipality_pref":"岐阜県","municipality_name":"御嵩町","municipality_code_method":"source_exact_coord"},"geometry":{"type":"Point","coordinates":[137.12711034791985,35.42339888738303]}},{"type":"Feature","properties":{"layer_id":"public_facilities","name":"御嵩公民館","category":"public","address":"御嵩町御嵩626-1","source":"国土交通省 国土数値情報","municipality_code":"21521","municipality_pref":"岐阜県","municipality_name":"御嵩町","municipality_code_method":"source_exact_coord"},"geometry":{"type":"Point","coordinates":[137.13659234135378,35.42903188176533]}},{"type":"Feature","properties":{"layer_id":"public_facilities","name":"みたけ会館","category":"public","address":"御嵩町御嵩1502","source":"国土交通省 国土数値情報","municipality_code":"21521","municipality_pref":"岐阜県","municipality_name":"御嵩町","municipality_code_method":"source_exact_coord"},"geometry":{"type":"Point","coordinates":[137.13281034680446,35.42943987940445]}},{"type":"Feature","properties":{"layer_id":"public_facilities","name":"農業担い手センター","category":"public","address":"御嵩町中2777-1","source":"国土交通省 国土数値情報","municipality_code":"21521","municipality_pref":"岐阜県","municipality_name":"御嵩町","municipality_code_method":"source_exact_coord"},"geometry":{"type":"Point","coordinates":[137.1275003438331,35.42056989300911]}},{"type":"Feature","properties":{"layer_id":"public_facilities","name":"伏見出張所","category":"public","address":"御嵩町伏見990","source":"国土交通省 国土数値情報","municipality_code":"21521","municipality_pref":"岐阜県","municipality_name":"御嵩町","municipality_code_method":"source_exact_coord"},"geometry":{"type":"Point","coordinates":[137.08690546700302,35.43865682075722]}},{"type":"Feature","properties":{"layer_id":"public_facilities","name":"中山道みたけ館","category":"public","address":"御嵩町御嵩1389-1","source":"国土交通省 国土数値情報","municipality_code":"21521","municipality_pref":"岐阜県","municipality_name":"御嵩町","municipality_code_method":"source_exact_coord"},"geometry":{"type":"Point","coordinates":[137.13004135114045,35.430083877100444]}},{"type":"Feature","properties":{"layer_id":"public_facilities","name":"御嵩町役場","category":"public","address":"御嵩町御嵩1239-1","source":"国土交通省 国土数値情報","municipality_code":"21521","municipality_pref":"岐阜県","municipality_name":"御嵩町","municipality_code_method":"source_exact_coord"},"geometry":{"type":"Point","coordinates":[137.13088535424214,35.43449287012723]}},{"type":"Feature","properties":{"layer_id":"public_facilities","name":"伏見公民館","category":"public","address":"御嵩町伏見990","source":"国土交通省 国土数値情報","municipality_code":"21521","municipality_pref":"岐阜県","municipality_name":"御嵩町","municipality_code_method":"source_exact_coord"},"geometry":{"type":"Point","coordinates":[137.08689046705555,35.43865982072888]}},{"type":"Feature","properties":{"layer_id":"public_facilities","name":"中出張所","category":"public","address":"御嵩町中2171-1","source":"国土交通省 国土数値情報","municipality_code":"21521","municipality_pref":"岐阜県","municipality_name":"御嵩町","municipality_code_method":"source_exact_coord"},"geometry":{"type":"Point","coordinates":[137.12369436196562,35.43163487117326]}},{"type":"Feature","properties":{"layer_id":"public_facilities","name":"上之郷公民館","category":"public","address":"御嵩町中切874-4","source":"国土交通省 国土数値情報","municipality_code":"21521","municipality_pref":"岐阜県","municipality_name":"御嵩町","municipality_code_method":"source_exact_coord"},"geometry":{"type":"Point","coordinates":[137.15747032369998,35.42701988870238]}},{"type":"Feature","properties":{"layer_id":"public_facilities","name":"中公民館","category":"public","address":"御嵩町中2171-1","source":"国土交通省 国土数値情報","municipality_code":"21521","municipality_pref":"岐阜県","municipality_name":"御嵩町","municipality_code_method":"source_exact_coord"},"geometry":{"type":"Point","coordinates":[137.12370036196944,35.4316498711528]}},{"type":"Feature","properties":{"layer_id":"public_facilities","name":"御嵩町役場本庁舎","category":"public","address":"御嵩町御嵩1239-1","source":"国土交通省 国土数値情報","municipality_code":"21521","municipality_pref":"岐阜県","municipality_name":"御嵩町","municipality_code_method":"source_exact_coord"},"geometry":{"type":"Point","coordinates":[137.1308883542473,35.43450387011023]}},{"type":"Feature","properties":{"layer_id":"public_facilities","name":"御嵩町役場北庁舎","category":"public","address":"御嵩町御嵩1239-1","source":"国土交通省 国土数値情報","municipality_code":"21521","municipality_pref":"岐阜県","municipality_name":"御嵩町","municipality_code_method":"source_exact_coord"},"geometry":{"type":"Point","coordinates":[137.13064735495587,35.43495086925811]}},{"type":"Feature","properties":{"layer_id":"public_facilities","name":"老人憩いの家","category":"public","address":"御嵩町中2098-5","source":"国土交通省 国土数値情報","municipality_code":"21521","municipality_pref":"岐阜県","municipality_name":"御嵩町","municipality_code_method":"source_exact_coord"},"geometry":{"type":"Point","coordinates":[137.12377036526146,35.43496986562333]}},{"type":"Feature","properties":{"layer_id":"scenic_nature_areas","name":"自然公園特別保護地区","category":"nature","source":"国土交通省 国土数値情報","municipality_code":"21521","municipality_pref":"岐阜県","municipality_name":"御嵩町","municipality_code_method":"nearest_centroid","resource_class":"自然公園特別保護地区","source_dataset_code":"A10"},"geometry":{"type":"Polygon","coordinates":[[[137.19698999999997,35.411182999999966],[137.19682400000002,35.41154399999999],[137.19687800000003,35.411951],[137.19781400000005,35.41249399999999],[137.19876335792773,35.413386593892135],[137.199441,35.412122],[137.19721552663262,35.410453325267085],[137.19698999999997,35.411182999999966]]]}},{"type":"Feature","properties":{"layer_id":"scenic_nature_areas","name":"御嵩町","category":"nature","source":"国土交通省 国土数値情報","municipality_code":"21521","municipality_pref":"岐阜県","municipality_name":"御嵩町","municipality_code_method":"nearest_centroid"},"geometry":{"type":"Polygon","coordinates":[[[137.19104,35.409729999999996],[137.19026899999997,35.40959400000003],[137.18856099999996,35.40904899999996],[137.18784500000004,35.408777000000015],[137.18789999999998,35.409092999999956],[137.18883399999999,35.41013300000003],[137.188172,35.410313],[137.18805899999998,35.41103499999997],[137.18772699999997,35.41135000000001],[137.186131,35.410445],[137.184534,35.409991000000005],[137.18238300000002,35.410168],[137.180122,35.41043499999998],[137.17945900000004,35.41084099999999],[137.179071,35.41142699999999],[137.17824300000007,35.411696000000035],[137.176864,35.412145999999964],[137.17570300000003,35.41295600000002],[137.17470800000004,35.413856999999965],[137.17371399999996,35.41435199999997],[137.17310600000002,35.41471200000001],[137.173766,35.415165],[137.174701,35.415979000000036],[137.17497300000002,35.41706300000001],[137.17452799999998,35.41859700000002],[137.174304,35.419680000000014],[137.174962,35.420674000000005],[137.175675,35.421713999999994],[137.17606,35.42225599999999],[137.176775,35.42261800000001],[137.179202,35.42244200000002],[137.18014,35.422488],[137.18173699999994,35.42312299999996],[137.18245200000004,35.42348499999998],[137.18300499999998,35.42317000000003],[137.183557,35.42281],[137.18416199999996,35.423306999999994],[137.184712,35.42389499999997],[137.18603400000003,35.42443900000004],[137.18697100000003,35.42444000000003],[137.18730300000004,35.424259999999975],[137.187196,35.423176],[137.18802400000004,35.42263599999998],[137.188026,35.42222999999997],[137.18791699999997,35.421552000000005],[137.18813900000004,35.421146999999976],[137.18863500000003,35.42137300000003],[137.18885399999996,35.42173399999996],[137.18907400000003,35.422050999999996],[137.189459,35.42236700000002],[137.19001100000003,35.422187999999956],[137.19034300000004,35.421737000000036],[137.19045200000002,35.422233000000034],[137.190339,35.42313599999997],[137.191054,35.423588999999964],[137.19149499999997,35.42372500000003],[137.19210200000003,35.42345499999998],[137.19271099999997,35.422779000000006],[137.192878,35.42228200000001],[137.19304499999998,35.421651000000026],[137.19376199999996,35.42156100000004],[137.194313,35.42156200000003],[137.19475599999998,35.420931000000046],[137.19525399999998,35.42043500000004],[137.19608,35.42088800000004],[137.19624299999998,35.42161],[137.19558000000004,35.42201500000003],[137.19640699999997,35.42224199999998],[137.19623900000002,35.42291900000004],[137.19508200000004,35.422692],[137.19436400000004,35.42323200000001],[137.19359100000003,35.42363700000003],[137.19325800000001,35.424314],[137.193478,35.42458500000005],[137.19303400000004,35.42526200000002],[137.192646,35.42611899999996],[137.19280999999998,35.42652499999998],[137.19347300000004,35.42598499999997],[137.19424900000004,35.42490199999998],[137.19535299999998,35.42449800000004],[137.19618000000003,35.424272999999985],[137.197118,35.42404900000001],[137.197396,35.42332699999996],[137.197839,35.422831000000045],[137.198334,35.423192999999976],[137.198774,35.42368999999998],[137.199382,35.423013999999995],[137.19976899999997,35.42269899999996],[137.200375,35.42301499999999],[137.20059500000002,35.42319599999996],[137.200814,35.42360299999997],[137.20141999999998,35.423964999999995],[137.20119799999998,35.42432600000002],[137.20070199999998,35.42441500000001],[137.20064599999998,35.424731000000044],[137.20009500000003,35.42459499999998],[137.19959800000004,35.42472999999996],[137.19909999999996,35.42513499999998],[137.19838300000004,35.425223999999986],[137.19832700000003,35.425630999999996],[137.19865599999997,35.42612799999999],[137.19931700000006,35.426535],[137.20030999999997,35.42631100000004],[137.20130199999997,35.42644700000001],[137.202295,35.42649399999999],[137.20323300000007,35.426133999999955],[137.20428099999998,35.42613600000003],[137.20549499999998,35.425776],[137.2060438235756,35.425889108164],[137.205858,35.424775],[137.201472,35.420954],[137.199302,35.421435],[137.198915,35.420274],[137.197378,35.419607],[137.197035,35.416612],[137.199441,35.412122],[137.196855,35.410183],[137.192361,35.411339],[137.191363,35.410316],[137.19197268154173,35.409443658795055],[137.19104,35.409729999999996]]]}},{"type":"Feature","properties":{"layer_id":"scenic_nature_areas","name":"自然公園特別地域","category":"nature","source":"国土交通省 国土数値情報","municipality_code":"21521","municipality_pref":"岐阜県","municipality_name":"御嵩町","municipality_code_method":"nearest_centroid","resource_class":"自然公園特別地域","source_dataset_code":"A10"},"geometry":{"type":"Polygon","coordinates":[[[137.19104,35.409729999999996],[137.19026899999997,35.40959400000003],[137.18856099999996,35.40904899999997],[137.18784500000004,35.408777000000015],[137.18789999999998,35.40909299999996],[137.18883399999999,35.410132999999945],[137.188172,35.410313000000016],[137.18805899999998,35.41103499999997],[137.18772699999997,35.41135000000001],[137.186131,35.41044500000001],[137.184534,35.40999100000001],[137.18238300000002,35.410168],[137.180122,35.41043499999998],[137.17945900000004,35.410841],[137.179071,35.41142699999999],[137.17824299999995,35.41169599999995],[137.176864,35.41214599999997],[137.17570300000003,35.41295600000002],[137.17470800000004,35.413856999999965],[137.17371399999996,35.41435199999998],[137.17310600000002,35.41471200000001],[137.173766,35.41516500000001],[137.174701,35.41597899999995],[137.17497300000002,35.41706300000002],[137.17452799999998,35.41859700000002],[137.174304,35.419680000000014],[137.174962,35.42067400000001],[137.175675,35.421713999999994],[137.17606,35.42225599999999],[137.176775,35.422618000000014],[137.179202,35.42244200000002],[137.18014,35.422488],[137.18173699999994,35.42312299999996],[137.18245200000004,35.423484999999985],[137.18300499999998,35.42316999999994],[137.183557,35.42281],[137.18416199999996,35.423306999999994],[137.184712,35.42389499999997],[137.18603400000003,35.424438999999964],[137.18697100000003,35.42443999999995],[137.18730299999996,35.424259999999975],[137.187196,35.423176],[137.18802400000004,35.42263599999999],[137.188026,35.42222999999997],[137.18791699999997,35.421552000000005],[137.18813900000004,35.421146999999976],[137.18863500000003,35.42137300000003],[137.18885399999996,35.42173399999997],[137.18907400000003,35.422050999999996],[137.189459,35.42236700000002],[137.19001100000003,35.42218799999996],[137.19034299999996,35.42173699999995],[137.19045200000002,35.42223299999995],[137.190339,35.42313599999997],[137.191054,35.42358899999997],[137.19149499999997,35.42372499999995],[137.19210200000003,35.42345499999999],[137.19271099999997,35.422779000000006],[137.192878,35.42228200000001],[137.19304499999998,35.421651000000026],[137.19376199999996,35.421560999999954],[137.194313,35.421561999999945],[137.19475599999998,35.42093099999997],[137.19525399999998,35.420434999999955],[137.19608,35.420887999999955],[137.19624299999998,35.42161000000001],[137.19558000000004,35.422014999999945],[137.19640699999997,35.42224199999998],[137.19623900000002,35.42291899999996],[137.19508200000004,35.422692000000005],[137.19436400000004,35.42323200000001],[137.19359100000003,35.42363699999994],[137.19325800000001,35.42431400000001],[137.193478,35.42458499999996],[137.19303400000004,35.42526200000002],[137.192646,35.42611899999996],[137.19280999999998,35.426524999999984],[137.19347300000004,35.425984999999976],[137.19424900000004,35.42490199999999],[137.19535299999998,35.42449799999996],[137.19618000000003,35.424272999999985],[137.197118,35.424049000000025],[137.197396,35.42332699999997],[137.197839,35.42283099999996],[137.198334,35.42319299999998],[137.198774,35.42368999999998],[137.199382,35.42301400000001],[137.19976899999997,35.422698999999966],[137.200375,35.42301499999999],[137.20059500000002,35.42319599999996],[137.200814,35.42360299999997],[137.20141999999998,35.423964999999995],[137.20119799999998,35.42432600000002],[137.20070199999998,35.42441500000001],[137.20064599999998,35.42473099999996],[137.20009500000003,35.42459499999998],[137.19959800000004,35.42472999999997],[137.19909999999996,35.42513499999999],[137.19838300000004,35.425223999999986],[137.19832700000003,35.425630999999996],[137.19865599999997,35.42612799999999],[137.19931699999995,35.426535000000015],[137.20030999999997,35.42631099999995],[137.20130199999997,35.42644700000001],[137.202295,35.42649399999999],[137.20323299999995,35.42613399999996],[137.20428099999998,35.42613599999994],[137.20549499999998,35.425776],[137.2060438235756,35.425889108164],[137.205858,35.424775],[137.201472,35.420954],[137.199302,35.421435],[137.198915,35.420274],[137.197378,35.419607],[137.197035,35.416612],[137.199441,35.412122],[137.196855,35.410183],[137.192361,35.411339],[137.191363,35.410316],[137.19197268154176,35.40944365879503],[137.19104,35.409729999999996]]]}},{"type":"Feature","properties":{"layer_id":"scenic_nature_areas","name":"原生自然環境保全地域","category":"nature","source":"国土交通省 国土数値情報","municipality_code":"21521","municipality_pref":"岐阜県","municipality_name":"御嵩町","municipality_code_method":"nearest_centroid","resource_class":"原生自然環境保全地域","source_dataset_code":"A11"},"geometry":{"type":"Polygon","coordinates":[[[137.14347000014413,35.407030999862855],[137.14342667456074,35.40700721017597],[137.141004,35.406805],[137.138205,35.41046],[137.1353077163211,35.41199301216114],[137.1351820003075,35.41211600044022],[137.1349924338925,35.41215983455439],[137.133964,35.412704],[137.13321641069578,35.41361164758866],[137.13302499980261,35.414007000374625],[137.13270104722073,35.41423734998005],[137.132432,35.414564],[137.13190192840918,35.414444590689016],[137.13158900015776,35.41450099976396],[137.13169499964806,35.41572000019772],[137.1320760001238,35.417119999981765],[137.13129199995694,35.42027899991069],[137.13283399999136,35.420822999806205],[137.1335479996294,35.42154699990522],[137.1339880001268,35.42200000010257],[137.1368560001315,35.421870000405306],[137.1377940002027,35.421556000320095],[137.1384610003721,35.42002199975508],[137.1389020000163,35.42015799972893],[137.14005700019788,35.42106300007754],[137.1403369996151,35.41984499968987],[137.1407240003673,35.41939399958471],[137.1400140000144,35.41758699992516],[137.13891399967008,35.41690800010184],[137.13847600016425,35.41591400014727],[137.13842300041904,35.41523700041614],[137.13792800008434,35.414920000192694],[137.13804199994343,35.41397199966059],[137.13826899961543,35.412302000020986],[137.13860299972328,35.4113550004343],[137.13998499957688,35.41022899979089],[137.14136900042195,35.40883200014514],[137.14335600028505,35.40802399977133],[137.14600299999495,35.40784799975222],[137.14914800017777,35.40717700029768],[137.14975899956448,35.40604899956213],[137.1499371398791,35.40501341341906],[137.146671,35.407278],[137.14358448358328,35.407020381813105],[137.14347000014413,35.407030999862855]]]}},{"type":"Feature","properties":{"layer_id":"cultural_facilities","name":"ワールドレイクゴルフ倶楽部","category":"public","address":"中切天王洞1715","source":"国土交通省 国土数値情報","municipality_code":"21521","municipality_pref":"岐阜県","municipality_name":"御嵩町","municipality_code_method":"nearest_centroid"},"geometry":{"type":"Point","coordinates":[137.157306,35.404112]}},{"type":"Feature","properties":{"layer_id":"cultural_facilities","name":"南山公園野球場","category":"public","address":"中2777-28","source":"国土交通省 国土数値情報","municipality_code":"21521","municipality_pref":"岐阜県","municipality_name":"御嵩町","municipality_code_method":"nearest_centroid"},"geometry":{"type":"Point","coordinates":[137.130515,35.421671]}},{"type":"Feature","properties":{"layer_id":"cultural_facilities","name":"中山道みたけ館","category":"public","address":"御嵩1389-1","source":"国土交通省 国土数値情報","municipality_code":"21521","municipality_pref":"岐阜県","municipality_name":"御嵩町","municipality_code_method":"nearest_centroid"},"geometry":{"type":"Point","coordinates":[137.130167,35.430256]}},{"type":"Feature","properties":{"layer_id":"cultural_facilities","name":"御嵩町Ｂ＆Ｇ海洋センター","category":"public","address":"中2777-28","source":"国土交通省 国土数値情報","municipality_code":"21521","municipality_pref":"岐阜県","municipality_name":"御嵩町","municipality_code_method":"nearest_centroid"},"geometry":{"type":"Point","coordinates":[137.127039,35.423337]}},{"type":"Feature","properties":{"layer_id":"cultural_facilities","name":"中山道みたけ館","category":"public","address":"御嵩1389-1","source":"国土交通省 国土数値情報","municipality_code":"21521","municipality_pref":"岐阜県","municipality_name":"御嵩町","municipality_code_method":"nearest_centroid"},"geometry":{"type":"Point","coordinates":[137.130167,35.430256]}},{"type":"Feature","properties":{"layer_id":"cultural_facilities","name":"御嵩町Ｂ＆Ｇ海洋センター","category":"public","address":"中2777-28","source":"国土交通省 国土数値情報","municipality_code":"21521","municipality_pref":"岐阜県","municipality_name":"御嵩町","municipality_code_method":"nearest_centroid"},"geometry":{"type":"Point","coordinates":[137.127033,35.423433]}},{"type":"Feature","properties":{"layer_id":"cultural_facilities","name":"御嵩町Ｂ＆Ｇ海洋センター","category":"public","address":"中2777-28","source":"国土交通省 国土数値情報","municipality_code":"21521","municipality_pref":"岐阜県","municipality_name":"御嵩町","municipality_code_method":"nearest_centroid"},"geometry":{"type":"Point","coordinates":[137.127033,35.423487]}},{"type":"Feature","properties":{"layer_id":"cultural_facilities","name":"御嵩町Ｂ＆Ｇ海洋センター","category":"public","address":"中2777-28","source":"国土交通省 国土数値情報","municipality_code":"21521","municipality_pref":"岐阜県","municipality_name":"御嵩町","municipality_code_method":"nearest_centroid"},"geometry":{"type":"Point","coordinates":[137.127033,35.423385]}},{"type":"Feature","properties":{"layer_id":"cultural_facilities","name":"南山公園テニスコート","category":"public","address":"中2777-28","source":"国土交通省 国土数値情報","municipality_code":"21521","municipality_pref":"岐阜県","municipality_name":"御嵩町","municipality_code_method":"nearest_centroid"},"geometry":{"type":"Point","coordinates":[137.129124,35.422015]}},{"type":"Feature","properties":{"layer_id":"parks_playgrounds","name":"南山公園","category":"nature","address":"可児郡御嵩町","source":"国土交通省 国土数値情報","municipality_code":"21521","municipality_pref":"岐阜県","municipality_name":"御嵩町","municipality_code_method":"nearest_centroid"},"geometry":{"type":"Point","coordinates":[137.12906,35.42189]}},{"type":"Feature","properties":{"layer_id":"tourism_resources","name":"鬼岩","category":"nature","address":"陸景 特殊地学景観 / 陸景 節理","source":"国土交通省 国土数値情報","municipality_code":"21521","municipality_pref":"岐阜県","municipality_name":"御嵩町","municipality_code_method":"nearest_centroid","resource_code":"401"},"geometry":{"type":"Point","coordinates":[137.19891357421875,35.41269302368164]}}],"display_comment_original":"御嵩町周辺には、近世村の記憶として本郷村、新村、伏見村などの旧村名が見える。 この地域には寺社や信仰の場、古墳や貝塚、史跡や遺跡に関わる場所が見え、定屋敷遺跡、明鏡寺、愚渓寺のような地点が探索の入口になる。 現地では史跡説明板、本郷村、新村ゆかりの旧境石標や村の歴史案内板が手がかりになりそうだ。さらに水辺の由緒を示す歴史案内板も見つかるかもしれない。","story_enrichment":{"samurai_priority_people":["可児吉長"],"notable_people":["可児吉長","原真澄"],"honorary_citizens":[],"tourism_landmarks":["鬼岩公園","鬼岩温泉","生活環境保全林「みたけの森」","愚渓寺","願興寺","洞興寺","寶積寺","淨覺寺"],"specialties":[],"food_culture":[],"historical_domains":[],"heian_place_names":[],"japan_search_support":[],"enrichment_sources":["https://ja.wikipedia.org/wiki/%E5%BE%A1%E5%B5%A9%E7%94%BA","https://www.wikidata.org/wiki/Q8190371","https://www.wikidata.org/wiki/Q24845559","https://jpsearch.go.jp/csearch/jps-cross?csid=jps-cross&keyword=%E5%8F%AF%E5%85%90%E5%90%89%E9%95%B7&keyword=%E5%BE%A1%E5%B5%A9%E7%94%BA"],"enrichment_errors":[],"wikipedia_title":"御嵩町","wikipedia_revision_id":"110652166","wikidata_qid":"Q640925","wikipedia_url":"https://ja.wikipedia.org/wiki/%E5%BE%A1%E5%B5%A9%E7%94%BA","japan_search_query_url":"https://jpsearch.go.jp/csearch/jps-cross?csid=jps-cross&keyword=%E5%8F%AF%E5%85%90%E5%90%89%E9%95%B7&keyword=%E5%BE%A1%E5%B5%A9%E7%94%BA","status":"wikipedia_ok"}}