{"type":"FeatureCollection","municipality_code":"23222","pref":"愛知県","city":"東海市","display_comment":"東海市には、名和村、渡内村、寺中村など、近世の村々の記憶を伝える地名が残っています。 周辺には寺社や信仰の場、古墳や貝塚、城跡や陣屋跡にまつわる場所が点在し、「木田城跡」、「横須賀御殿跡」、「西方寺」などを起点に歩くと、地域の歴史がぐっと見えやすくなります。 現地では史跡説明板に加え、名和村や渡内村にゆかりのある旧境石標、村の歴史を紹介する案内板にも注目してみてください。 田・新田・用水にちなむ地名が多い場所では、土地改良碑や用水記念碑も注目したい探索対象です。 川沿いや水辺では、その土地の暮らしや水との関わりを伝える歴史案内板が見つかるかもしれません。 ゆかりの人物では良忍や細井平洲に注目すると、地域に残る文化や時代背景をさらに深く知るきっかけになります。 「木田城址」や「観福寺」などの名所も、地域の物語を深掘りする絶好の入口です。 さらに、「海老煎餅」や「フキ」といった名物や食文化に触れると、その土地らしい暮らしまで感じられるでしょう。","layer_counts":{"cafe_restaurant":10,"public_facilities":44,"cultural_facilities":58,"parks_playgrounds":41},"total_features":153,"features":[{"type":"Feature","properties":{"layer_id":"cafe_restaurant","name":"MEGAドン・キホーテUNY太田川店","category":"food","address":"愛知県東海市大田町下浜田102番地1","source":"厚生労働省 食品衛生申請等システム（オープンデータ）","municipality_code":"23222","municipality_pref":"愛知県","municipality_name":"東海市","municipality_code_method":"food_exact_coord"},"geometry":{"type":"Point","coordinates":[136.892989,35.02193]}},{"type":"Feature","properties":{"layer_id":"cafe_restaurant","name":"MEGAドン・キホーテUNY太田川店","category":"food","address":"愛知県東海市大田町下浜田102番地1","source":"厚生労働省 食品衛生申請等システム（オープンデータ）","municipality_code":"23222","municipality_pref":"愛知県","municipality_name":"東海市","municipality_code_method":"food_exact_coord"},"geometry":{"type":"Point","coordinates":[136.892989,35.02193]}},{"type":"Feature","properties":{"layer_id":"cafe_restaurant","name":"スターバックスコーヒーフォレストモール東海太田川店","category":"food","address":"愛知県東海市大田町後浜新田１１１番","source":"厚生労働省 食品衛生申請等システム（オープンデータ）","municipality_code":"23222","municipality_pref":"愛知県","municipality_name":"東海市","municipality_code_method":"food_exact_coord"},"geometry":{"type":"Point","coordinates":[136.89026,35.025461]}},{"type":"Feature","properties":{"layer_id":"cafe_restaurant","name":"カネ美食品㈱アピタ東海荒尾店","category":"food","address":"愛知県東海市荒尾町山王前60 アピタ東海荒尾店内","source":"厚生労働省 食品衛生申請等システム（オープンデータ）","municipality_code":"23222","municipality_pref":"愛知県","municipality_name":"東海市","municipality_code_method":"food_exact_coord"},"geometry":{"type":"Point","coordinates":[136.905748,35.039591]}},{"type":"Feature","properties":{"layer_id":"cafe_restaurant","name":"むすんでひらいて　元浜店","category":"food","address":"愛知県東海市元浜町12番地の12 クスリのアオキ元浜店内","source":"厚生労働省 食品衛生申請等システム（オープンデータ）","municipality_code":"23222","municipality_pref":"愛知県","municipality_name":"東海市","municipality_code_method":"food_exact_coord"},"geometry":{"type":"Point","coordinates":[136.87952,35.010095]}},{"type":"Feature","properties":{"layer_id":"cafe_restaurant","name":"夢庵　愛知東海店","category":"food","address":"愛知県東海市高横須賀町６－１７５","source":"厚生労働省 食品衛生申請等システム（オープンデータ）","municipality_code":"23222","municipality_pref":"愛知県","municipality_name":"東海市","municipality_code_method":"food_exact_coord"},"geometry":{"type":"Point","coordinates":[136.896351,35.008982]}},{"type":"Feature","properties":{"layer_id":"cafe_restaurant","name":"ゆず庵東海店","category":"food","address":"愛知県東海市加木屋町中井道128-2","source":"厚生労働省 食品衛生申請等システム（オープンデータ）","municipality_code":"23222","municipality_pref":"愛知県","municipality_name":"東海市","municipality_code_method":"food_exact_coord"},"geometry":{"type":"Point","coordinates":[136.910303,35.008059]}},{"type":"Feature","properties":{"layer_id":"cafe_restaurant","name":"なか卯東海名和店","category":"food","address":"愛知県東海市名和町細田42-4","source":"厚生労働省 食品衛生申請等システム（オープンデータ）","municipality_code":"23222","municipality_pref":"愛知県","municipality_name":"東海市","municipality_code_method":"food_exact_coord"},"geometry":{"type":"Point","coordinates":[136.9134375,35.04549]}},{"type":"Feature","properties":{"layer_id":"cafe_restaurant","name":"すき家　東海荒尾店","category":"food","address":"愛知県東海市荒尾町大城６８","source":"厚生労働省 食品衛生申請等システム（オープンデータ）","municipality_code":"23222","municipality_pref":"愛知県","municipality_name":"東海市","municipality_code_method":"food_exact_coord"},"geometry":{"type":"Point","coordinates":[136.907991,35.04045]}},{"type":"Feature","properties":{"layer_id":"cafe_restaurant","name":"0H5071愛知","category":"food","address":"愛知県東海市横須賀町扇島5-6 白扇寮","source":"厚生労働省 食品衛生申請等システム（オープンデータ）","municipality_code":"23222","municipality_pref":"愛知県","municipality_name":"東海市","municipality_code_method":"food_exact_coord"},"geometry":{"type":"Point","coordinates":[136.883633,35.012436]}},{"type":"Feature","properties":{"layer_id":"public_facilities","name":"清水公民館","category":"public","address":"東海市荒尾町東川16-1","source":"国土交通省 国土数値情報","municipality_code":"23222","municipality_pref":"愛知県","municipality_name":"東海市","municipality_code_method":"source_exact_coord"},"geometry":{"type":"Point","coordinates":[136.9128249,35.02873338]}},{"type":"Feature","properties":{"layer_id":"public_facilities","name":"東長口自治会集会所","category":"public","address":"東海市富木島町東長口93-3","source":"国土交通省 国土数値情報","municipality_code":"23222","municipality_pref":"愛知県","municipality_name":"東海市","municipality_code_method":"source_exact_coord"},"geometry":{"type":"Point","coordinates":[136.9366731,35.01474081]}},{"type":"Feature","properties":{"layer_id":"public_facilities","name":"加木屋児童館","category":"public","address":"東海市加木屋町仲新田43-1","source":"国土交通省 国土数値情報","municipality_code":"23222","municipality_pref":"愛知県","municipality_name":"東海市","municipality_code_method":"source_exact_coord"},"geometry":{"type":"Point","coordinates":[136.9044445,34.9938762]}},{"type":"Feature","properties":{"layer_id":"public_facilities","name":"百合ケ丘集会所","category":"public","address":"東海市加木屋町北鹿持40-24","source":"国土交通省 国土数値情報","municipality_code":"23222","municipality_pref":"愛知県","municipality_name":"東海市","municipality_code_method":"source_exact_coord"},"geometry":{"type":"Point","coordinates":[136.9179601,34.98139181]}},{"type":"Feature","properties":{"layer_id":"public_facilities","name":"緑陽市民館","category":"public","address":"東海市名和町蓮池18-1","source":"国土交通省 国土数値情報","municipality_code":"23222","municipality_pref":"愛知県","municipality_name":"東海市","municipality_code_method":"source_exact_coord"},"geometry":{"type":"Point","coordinates":[136.91485020000002,35.05931063]}},{"type":"Feature","properties":{"layer_id":"public_facilities","name":"上野公民館","category":"public","address":"東海市名和町南之山10-4","source":"国土交通省 国土数値情報","municipality_code":"23222","municipality_pref":"愛知県","municipality_name":"東海市","municipality_code_method":"source_exact_coord"},"geometry":{"type":"Point","coordinates":[136.9136914,35.04322899]}},{"type":"Feature","properties":{"layer_id":"public_facilities","name":"市民体育館","category":"public","address":"東海市高横須賀町桝形1-1","source":"国土交通省 国土数値情報","municipality_code":"23222","municipality_pref":"愛知県","municipality_name":"東海市","municipality_code_method":"source_exact_coord"},"geometry":{"type":"Point","coordinates":[136.884644,35.015318]}},{"type":"Feature","properties":{"layer_id":"public_facilities","name":"船島市民館","category":"public","address":"東海市富木島町船島2-1","source":"国土交通省 国土数値情報","municipality_code":"23222","municipality_pref":"愛知県","municipality_name":"東海市","municipality_code_method":"source_exact_coord"},"geometry":{"type":"Point","coordinates":[136.9129007,35.0133518]}},{"type":"Feature","properties":{"layer_id":"public_facilities","name":"市民交流プラザ","category":"public","address":"東海市大田町後田20-1","source":"国土交通省 国土数値情報","municipality_code":"23222","municipality_pref":"愛知県","municipality_name":"東海市","municipality_code_method":"source_exact_coord"},"geometry":{"type":"Point","coordinates":[136.8935015613,35.0195538814502]}},{"type":"Feature","properties":{"layer_id":"public_facilities","name":"三ツ池児童館","category":"public","address":"東海市加木屋町三ツ池12-74","source":"国土交通省 国土数値情報","municipality_code":"23222","municipality_pref":"愛知県","municipality_name":"東海市","municipality_code_method":"source_exact_coord"},"geometry":{"type":"Point","coordinates":[136.9127104,34.98944072]}},{"type":"Feature","properties":{"layer_id":"public_facilities","name":"富木島公民館","category":"public","address":"東海市富木島町東山田7-1","source":"国土交通省 国土数値情報","municipality_code":"23222","municipality_pref":"愛知県","municipality_name":"東海市","municipality_code_method":"source_exact_coord"},"geometry":{"type":"Point","coordinates":[136.9077983,35.03095807999999]}},{"type":"Feature","properties":{"layer_id":"public_facilities","name":"サンヒルズ加木屋集会所","category":"public","address":"東海市加木屋町社山313","source":"国土交通省 国土数値情報","municipality_code":"23222","municipality_pref":"愛知県","municipality_name":"東海市","municipality_code_method":"source_exact_coord"},"geometry":{"type":"Point","coordinates":[136.8982983,34.99078753]}},{"type":"Feature","properties":{"layer_id":"public_facilities","name":"市民活動センター","category":"public","address":"東海市大田町後田20-1ソラト太田川3F","source":"国土交通省 国土数値情報","municipality_code":"23222","municipality_pref":"愛知県","municipality_name":"東海市","municipality_code_method":"source_exact_coord"},"geometry":{"type":"Point","coordinates":[136.893606167445,35.0195055559767]}},{"type":"Feature","properties":{"layer_id":"public_facilities","name":"大田市民館","category":"public","address":"東海市大田町細田14","source":"国土交通省 国土数値情報","municipality_code":"23222","municipality_pref":"愛知県","municipality_name":"東海市","municipality_code_method":"source_exact_coord"},"geometry":{"type":"Point","coordinates":[136.9016101,35.01922873]}},{"type":"Feature","properties":{"layer_id":"public_facilities","name":"大田町公民館","category":"public","address":"東海市大田町蟹田112","source":"国土交通省 国土数値情報","municipality_code":"23222","municipality_pref":"愛知県","municipality_name":"東海市","municipality_code_method":"source_exact_coord"},"geometry":{"type":"Point","coordinates":[136.8949,35.01900086]}},{"type":"Feature","properties":{"layer_id":"public_facilities","name":"加家公民館","category":"public","address":"東海市東海町2-3-15","source":"国土交通省 国土数値情報","municipality_code":"23222","municipality_pref":"愛知県","municipality_name":"東海市","municipality_code_method":"source_exact_coord"},"geometry":{"type":"Point","coordinates":[136.898655,35.036233]}},{"type":"Feature","properties":{"layer_id":"public_facilities","name":"横須賀公民館","category":"public","address":"東海市横須賀町浜屋敷2-11","source":"国土交通省 国土数値情報","municipality_code":"23222","municipality_pref":"愛知県","municipality_name":"東海市","municipality_code_method":"source_exact_coord"},"geometry":{"type":"Point","coordinates":[136.883691,35.013779]}},{"type":"Feature","properties":{"layer_id":"public_facilities","name":"伏見集会所","category":"public","address":"東海市富木島町伏見2-12-1","source":"国土交通省 国土数値情報","municipality_code":"23222","municipality_pref":"愛知県","municipality_name":"東海市","municipality_code_method":"source_exact_coord"},"geometry":{"type":"Point","coordinates":[136.9126671,35.017748510000004]}},{"type":"Feature","properties":{"layer_id":"public_facilities","name":"渡内公民館","category":"public","address":"東海市荒尾町朝日出12-1","source":"国土交通省 国土数値情報","municipality_code":"23222","municipality_pref":"愛知県","municipality_name":"東海市","municipality_code_method":"source_exact_coord"},"geometry":{"type":"Point","coordinates":[136.913306,35.036638]}},{"type":"Feature","properties":{"layer_id":"public_facilities","name":"富田公民館","category":"public","address":"東海市富木島町貴船14-2","source":"国土交通省 国土数値情報","municipality_code":"23222","municipality_pref":"愛知県","municipality_name":"東海市","municipality_code_method":"source_exact_coord"},"geometry":{"type":"Point","coordinates":[136.918392,35.023109]}},{"type":"Feature","properties":{"layer_id":"public_facilities","name":"保健福祉センター","category":"public","address":"東海市荒尾町西廻間2-1しあわせ村内","source":"国土交通省 国土数値情報","municipality_code":"23222","municipality_pref":"愛知県","municipality_name":"東海市","municipality_code_method":"source_exact_coord"},"geometry":{"type":"Point","coordinates":[136.906748,35.042427]}},{"type":"Feature","properties":{"layer_id":"public_facilities","name":"加木屋市民館","category":"public","address":"東海市加木屋町一本木2-1","source":"国土交通省 国土数値情報","municipality_code":"23222","municipality_pref":"愛知県","municipality_name":"東海市","municipality_code_method":"source_exact_coord"},"geometry":{"type":"Point","coordinates":[136.9050721,34.99569266]}},{"type":"Feature","properties":{"layer_id":"public_facilities","name":"中央図書館","category":"public","address":"東海市中央町3-2","source":"国土交通省 国土数値情報","municipality_code":"23222","municipality_pref":"愛知県","municipality_name":"東海市","municipality_code_method":"source_exact_coord"},"geometry":{"type":"Point","coordinates":[136.9084227,35.02609196]}},{"type":"Feature","properties":{"layer_id":"public_facilities","name":"山王会館","category":"public","address":"東海市荒尾町東屋敷42-1他","source":"国土交通省 国土数値情報","municipality_code":"23222","municipality_pref":"愛知県","municipality_name":"東海市","municipality_code_method":"source_exact_coord"},"geometry":{"type":"Point","coordinates":[136.909303,35.03786566]}},{"type":"Feature","properties":{"layer_id":"public_facilities","name":"木庭公民館","category":"public","address":"東海市富木島町上り戸12-1","source":"国土交通省 国土数値情報","municipality_code":"23222","municipality_pref":"愛知県","municipality_name":"東海市","municipality_code_method":"source_exact_coord"},"geometry":{"type":"Point","coordinates":[136.907895633,35.022826404]}},{"type":"Feature","properties":{"layer_id":"public_facilities","name":"姫島公民館","category":"public","address":"東海市富木島町南島20","source":"国土交通省 国土数値情報","municipality_code":"23222","municipality_pref":"愛知県","municipality_name":"東海市","municipality_code_method":"source_exact_coord"},"geometry":{"type":"Point","coordinates":[136.9159308,35.01595154]}},{"type":"Feature","properties":{"layer_id":"public_facilities","name":"大田児童館","category":"public","address":"東海市大田町東畑117-7","source":"国土交通省 国土数値情報","municipality_code":"23222","municipality_pref":"愛知県","municipality_name":"東海市","municipality_code_method":"source_exact_coord"},"geometry":{"type":"Point","coordinates":[136.8967387,35.01721222]}},{"type":"Feature","properties":{"layer_id":"public_facilities","name":"三ツ池市民館","category":"public","address":"東海市加木屋町栗見坂2-1","source":"国土交通省 国土数値情報","municipality_code":"23222","municipality_pref":"愛知県","municipality_name":"東海市","municipality_code_method":"source_exact_coord"},"geometry":{"type":"Point","coordinates":[136.9108328,34.99103772]}},{"type":"Feature","properties":{"layer_id":"public_facilities","name":"大堀集会所","category":"public","address":"東海市加木屋町東大堀28-21","source":"国土交通省 国土数値情報","municipality_code":"23222","municipality_pref":"愛知県","municipality_name":"東海市","municipality_code_method":"source_exact_coord"},"geometry":{"type":"Point","coordinates":[136.9153241,34.98603561]}},{"type":"Feature","properties":{"layer_id":"public_facilities","name":"富木島児童館","category":"public","address":"東海市富木島町西山田1-13","source":"国土交通省 国土数値情報","municipality_code":"23222","municipality_pref":"愛知県","municipality_name":"東海市","municipality_code_method":"source_exact_coord"},"geometry":{"type":"Point","coordinates":[136.9262435,35.01604608]}},{"type":"Feature","properties":{"layer_id":"public_facilities","name":"石ケ根町内会集会所","category":"public","address":"東海市富木島町石ケ根110-1","source":"国土交通省 国土数値情報","municipality_code":"23222","municipality_pref":"愛知県","municipality_name":"東海市","municipality_code_method":"source_exact_coord"},"geometry":{"type":"Point","coordinates":[136.9081257,35.02233959]}},{"type":"Feature","properties":{"layer_id":"public_facilities","name":"大池健康交流の家","category":"public","address":"東海市加木屋町北鹿持4-3","source":"国土交通省 国土数値情報","municipality_code":"23222","municipality_pref":"愛知県","municipality_name":"東海市","municipality_code_method":"source_exact_coord"},"geometry":{"type":"Point","coordinates":[136.9172537,34.97842826]}},{"type":"Feature","properties":{"layer_id":"public_facilities","name":"東海市役所","category":"public","address":"東海市中央町1-1","source":"国土交通省 国土数値情報","municipality_code":"23222","municipality_pref":"愛知県","municipality_name":"東海市","municipality_code_method":"source_exact_coord"},"geometry":{"type":"Point","coordinates":[136.902229,35.022976]}},{"type":"Feature","properties":{"layer_id":"public_facilities","name":"上名和公民館","category":"public","address":"東海市名和町東田20-8","source":"国土交通省 国土数値情報","municipality_code":"23222","municipality_pref":"愛知県","municipality_name":"東海市","municipality_code_method":"source_exact_coord"},"geometry":{"type":"Point","coordinates":[136.917352,35.054037]}},{"type":"Feature","properties":{"layer_id":"public_facilities","name":"加木屋南児童館","category":"public","address":"東海市加木屋町南鹿持28-1","source":"国土交通省 国土数値情報","municipality_code":"23222","municipality_pref":"愛知県","municipality_name":"東海市","municipality_code_method":"source_exact_coord"},"geometry":{"type":"Point","coordinates":[136.9184408,34.97762005999999]}},{"type":"Feature","properties":{"layer_id":"public_facilities","name":"加木屋南市民館","category":"public","address":"東海市加木屋町北鹿持20-24","source":"国土交通省 国土数値情報","municipality_code":"23222","municipality_pref":"愛知県","municipality_name":"東海市","municipality_code_method":"source_exact_coord"},"geometry":{"type":"Point","coordinates":[136.9171631,34.98020304]}},{"type":"Feature","properties":{"layer_id":"public_facilities","name":"農業センター","category":"public","address":"東海市富木島町八幡下1","source":"国土交通省 国土数値情報","municipality_code":"23222","municipality_pref":"愛知県","municipality_name":"東海市","municipality_code_method":"source_exact_coord"},"geometry":{"type":"Point","coordinates":[136.906793,35.022112]}},{"type":"Feature","properties":{"layer_id":"public_facilities","name":"下名和公民館","category":"public","address":"東海市名和町岡前38","source":"国土交通省 国土数値情報","municipality_code":"23222","municipality_pref":"愛知県","municipality_name":"東海市","municipality_code_method":"source_exact_coord"},"geometry":{"type":"Point","coordinates":[136.9113556,35.05063653]}},{"type":"Feature","properties":{"layer_id":"public_facilities","name":"養父児童館","category":"public","address":"東海市養父町宮山17-1","source":"国土交通省 国土数値情報","municipality_code":"23222","municipality_pref":"愛知県","municipality_name":"東海市","municipality_code_method":"source_exact_coord"},"geometry":{"type":"Point","coordinates":[136.8863294,35.00624365]}},{"type":"Feature","properties":{"layer_id":"public_facilities","name":"大池集会所","category":"public","address":"東海市加木屋町北鹿持4-3","source":"国土交通省 国土数値情報","municipality_code":"23222","municipality_pref":"愛知県","municipality_name":"東海市","municipality_code_method":"source_exact_coord"},"geometry":{"type":"Point","coordinates":[136.9172437,34.97842826]}},{"type":"Feature","properties":{"layer_id":"public_facilities","name":"木田福祉会館","category":"public","address":"東海市大田町樹木8-1","source":"国土交通省 国土数値情報","municipality_code":"23222","municipality_pref":"愛知県","municipality_name":"東海市","municipality_code_method":"source_exact_coord"},"geometry":{"type":"Point","coordinates":[136.90151043,35.01371546]}},{"type":"Feature","properties":{"layer_id":"public_facilities","name":"高横須賀公民館","category":"public","address":"東海市高横須賀町戌亥屋敷11-2","source":"国土交通省 国土数値情報","municipality_code":"23222","municipality_pref":"愛知県","municipality_name":"東海市","municipality_code_method":"source_exact_coord"},"geometry":{"type":"Point","coordinates":[136.890629,35.011157]}},{"type":"Feature","properties":{"layer_id":"public_facilities","name":"平島公民館","category":"public","address":"東海市荒尾町中屋敷35","source":"国土交通省 国土数値情報","municipality_code":"23222","municipality_pref":"愛知県","municipality_name":"東海市","municipality_code_method":"source_exact_coord"},"geometry":{"type":"Point","coordinates":[136.9115445,35.03118864]}},{"type":"Feature","properties":{"layer_id":"public_facilities","name":"勤労センター","category":"public","address":"東海市高横須賀町桝形1-7","source":"国土交通省 国土数値情報","municipality_code":"23222","municipality_pref":"愛知県","municipality_name":"東海市","municipality_code_method":"source_exact_coord"},"geometry":{"type":"Point","coordinates":[136.884502,35.014785]}},{"type":"Feature","properties":{"layer_id":"cultural_facilities","name":"加木屋運動公園","category":"public","address":"加木屋町西御嶽","source":"国土交通省 国土数値情報","municipality_code":"23222","municipality_pref":"愛知県","municipality_name":"東海市","municipality_code_method":"nearest_centroid"},"geometry":{"type":"Point","coordinates":[136.900726,34.986613]}},{"type":"Feature","properties":{"layer_id":"cultural_facilities","name":"富木島小学校","category":"public","address":"富木島町手代44","source":"国土交通省 国土数値情報","municipality_code":"23222","municipality_pref":"愛知県","municipality_name":"東海市","municipality_code_method":"nearest_centroid"},"geometry":{"type":"Point","coordinates":[136.922943,35.01524]}},{"type":"Feature","properties":{"layer_id":"cultural_facilities","name":"東海市民体育館","category":"public","address":"高横須賀町桝形1-1","source":"国土交通省 国土数値情報","municipality_code":"23222","municipality_pref":"愛知県","municipality_name":"東海市","municipality_code_method":"nearest_centroid"},"geometry":{"type":"Point","coordinates":[136.884513,35.015396]}},{"type":"Feature","properties":{"layer_id":"cultural_facilities","name":"船島小学校","category":"public","address":"富木島町船島1-1","source":"国土交通省 国土数値情報","municipality_code":"23222","municipality_pref":"愛知県","municipality_name":"東海市","municipality_code_method":"nearest_centroid"},"geometry":{"type":"Point","coordinates":[136.912467,35.012751]}},{"type":"Feature","properties":{"layer_id":"cultural_facilities","name":"市営温水プール（休館中）","category":"public","address":"中央町1-1-1","source":"国土交通省 国土数値情報","municipality_code":"23222","municipality_pref":"愛知県","municipality_name":"東海市","municipality_code_method":"nearest_centroid"},"geometry":{"type":"Point","coordinates":[136.903793,35.022833]}},{"type":"Feature","properties":{"layer_id":"cultural_facilities","name":"東海市民体育館","category":"public","address":"高横須賀町桝形1-1","source":"国土交通省 国土数値情報","municipality_code":"23222","municipality_pref":"愛知県","municipality_name":"東海市","municipality_code_method":"nearest_centroid"},"geometry":{"type":"Point","coordinates":[136.88449,35.01525]}},{"type":"Feature","properties":{"layer_id":"cultural_facilities","name":"元浜スポーツ広場","category":"public","address":"元浜町54-1","source":"国土交通省 国土数値情報","municipality_code":"23222","municipality_pref":"愛知県","municipality_name":"東海市","municipality_code_method":"nearest_centroid"},"geometry":{"type":"Point","coordinates":[136.876889,35.012743]}},{"type":"Feature","properties":{"layer_id":"cultural_facilities","name":"三ツ池小学校","category":"public","address":"加木屋町鎌吉良根9","source":"国土交通省 国土数値情報","municipality_code":"23222","municipality_pref":"愛知県","municipality_name":"東海市","municipality_code_method":"nearest_centroid"},"geometry":{"type":"Point","coordinates":[136.91298,34.994553]}},{"type":"Feature","properties":{"layer_id":"cultural_facilities","name":"明倫小学校","category":"public","address":"荒尾町土取1-1","source":"国土交通省 国土数値情報","municipality_code":"23222","municipality_pref":"愛知県","municipality_name":"東海市","municipality_code_method":"nearest_centroid"},"geometry":{"type":"Point","coordinates":[136.917114,35.02819]}},{"type":"Feature","properties":{"layer_id":"cultural_facilities","name":"東海市民体育館","category":"public","address":"高横須賀町桝形1-1","source":"国土交通省 国土数値情報","municipality_code":"23222","municipality_pref":"愛知県","municipality_name":"東海市","municipality_code_method":"nearest_centroid"},"geometry":{"type":"Point","coordinates":[136.884668,35.01526]}},{"type":"Feature","properties":{"layer_id":"cultural_facilities","name":"渡内小学校","category":"public","address":"荒尾町義呂1-1","source":"国土交通省 国土数値情報","municipality_code":"23222","municipality_pref":"愛知県","municipality_name":"東海市","municipality_code_method":"nearest_centroid"},"geometry":{"type":"Point","coordinates":[136.918456,35.036142]}},{"type":"Feature","properties":{"layer_id":"cultural_facilities","name":"横須賀小学校","category":"public","address":"高横須賀町大塚36","source":"国土交通省 国土数値情報","municipality_code":"23222","municipality_pref":"愛知県","municipality_name":"東海市","municipality_code_method":"nearest_centroid"},"geometry":{"type":"Point","coordinates":[136.890727,35.011888]}},{"type":"Feature","properties":{"layer_id":"cultural_facilities","name":"平洲小学校","category":"public","address":"荒尾町片坂1","source":"国土交通省 国土数値情報","municipality_code":"23222","municipality_pref":"愛知県","municipality_name":"東海市","municipality_code_method":"nearest_centroid"},"geometry":{"type":"Point","coordinates":[136.909135,35.029844]}},{"type":"Feature","properties":{"layer_id":"cultural_facilities","name":"平洲中学校","category":"public","address":"富貴ノ台5-181","source":"国土交通省 国土数値情報","municipality_code":"23222","municipality_pref":"愛知県","municipality_name":"東海市","municipality_code_method":"nearest_centroid"},"geometry":{"type":"Point","coordinates":[136.90635,35.029212]}},{"type":"Feature","properties":{"layer_id":"cultural_facilities","name":"富木島中学校","category":"public","address":"富木島町向イ27","source":"国土交通省 国土数値情報","municipality_code":"23222","municipality_pref":"愛知県","municipality_name":"東海市","municipality_code_method":"nearest_centroid"},"geometry":{"type":"Point","coordinates":[136.916627,35.019425]}},{"type":"Feature","properties":{"layer_id":"cultural_facilities","name":"青少年センター","category":"public","address":"大田町細田9-1","source":"国土交通省 国土数値情報","municipality_code":"23222","municipality_pref":"愛知県","municipality_name":"東海市","municipality_code_method":"nearest_centroid"},"geometry":{"type":"Point","coordinates":[136.90142,35.018731]}},{"type":"Feature","properties":{"layer_id":"cultural_facilities","name":"名和小学校","category":"public","address":"名和町山東10","source":"国土交通省 国土数値情報","municipality_code":"23222","municipality_pref":"愛知県","municipality_name":"東海市","municipality_code_method":"nearest_centroid"},"geometry":{"type":"Point","coordinates":[136.91458,35.051459]}},{"type":"Feature","properties":{"layer_id":"cultural_facilities","name":"横須賀中学校","category":"public","address":"高横須賀町猫狭間2","source":"国土交通省 国土数値情報","municipality_code":"23222","municipality_pref":"愛知県","municipality_name":"東海市","municipality_code_method":"nearest_centroid"},"geometry":{"type":"Point","coordinates":[136.900304,35.002814]}},{"type":"Feature","properties":{"layer_id":"cultural_facilities","name":"聚楽園公園（キャンプ場）","category":"public","address":"荒尾町西廻間2-1","source":"国土交通省 国土数値情報","municipality_code":"23222","municipality_pref":"愛知県","municipality_name":"東海市","municipality_code_method":"nearest_centroid"},"geometry":{"type":"Point","coordinates":[136.905478,35.043158]}},{"type":"Feature","properties":{"layer_id":"cultural_facilities","name":"青少年センター","category":"public","address":"大田町細田9-1","source":"国土交通省 国土数値情報","municipality_code":"23222","municipality_pref":"愛知県","municipality_name":"東海市","municipality_code_method":"nearest_centroid"},"geometry":{"type":"Point","coordinates":[136.901694,35.018741]}},{"type":"Feature","properties":{"layer_id":"cultural_facilities","name":"加木屋中学校","category":"public","address":"加木屋町西御嶽18-1","source":"国土交通省 国土数値情報","municipality_code":"23222","municipality_pref":"愛知県","municipality_name":"東海市","municipality_code_method":"nearest_centroid"},"geometry":{"type":"Point","coordinates":[136.899379,34.989208]}},{"type":"Feature","properties":{"layer_id":"cultural_facilities","name":"渡内小学校","category":"public","address":"荒尾町義呂1-1","source":"国土交通省 国土数値情報","municipality_code":"23222","municipality_pref":"愛知県","municipality_name":"東海市","municipality_code_method":"nearest_centroid"},"geometry":{"type":"Point","coordinates":[136.919051,35.036989]}},{"type":"Feature","properties":{"layer_id":"cultural_facilities","name":"青少年センター","category":"public","address":"大田町細田9-1","source":"国土交通省 国土数値情報","municipality_code":"23222","municipality_pref":"愛知県","municipality_name":"東海市","municipality_code_method":"nearest_centroid"},"geometry":{"type":"Point","coordinates":[136.901884,35.018829]}},{"type":"Feature","properties":{"layer_id":"cultural_facilities","name":"三ツ池小学校","category":"public","address":"加木屋町鎌吉良根9","source":"国土交通省 国土数値情報","municipality_code":"23222","municipality_pref":"愛知県","municipality_name":"東海市","municipality_code_method":"nearest_centroid"},"geometry":{"type":"Point","coordinates":[136.912006,34.995137]}},{"type":"Feature","properties":{"layer_id":"cultural_facilities","name":"元浜スポーツ広場","category":"public","address":"元浜町54-1","source":"国土交通省 国土数値情報","municipality_code":"23222","municipality_pref":"愛知県","municipality_name":"東海市","municipality_code_method":"nearest_centroid"},"geometry":{"type":"Point","coordinates":[136.877875,35.013171]}},{"type":"Feature","properties":{"layer_id":"cultural_facilities","name":"富木島中学校","category":"public","address":"富木島町向イ27","source":"国土交通省 国土数値情報","municipality_code":"23222","municipality_pref":"愛知県","municipality_name":"東海市","municipality_code_method":"nearest_centroid"},"geometry":{"type":"Point","coordinates":[136.91665,35.019318]}},{"type":"Feature","properties":{"layer_id":"cultural_facilities","name":"青少年センター","category":"public","address":"大田町細田9-1","source":"国土交通省 国土数値情報","municipality_code":"23222","municipality_pref":"愛知県","municipality_name":"東海市","municipality_code_method":"nearest_centroid"},"geometry":{"type":"Point","coordinates":[136.901872,35.018722]}},{"type":"Feature","properties":{"layer_id":"cultural_facilities","name":"元浜スポーツ広場","category":"public","address":"元浜町54-1","source":"国土交通省 国土数値情報","municipality_code":"23222","municipality_pref":"愛知県","municipality_name":"東海市","municipality_code_method":"nearest_centroid"},"geometry":{"type":"Point","coordinates":[136.878018,35.013541]}},{"type":"Feature","properties":{"layer_id":"cultural_facilities","name":"船島小学校","category":"public","address":"富木島町船島1-1","source":"国土交通省 国土数値情報","municipality_code":"23222","municipality_pref":"愛知県","municipality_name":"東海市","municipality_code_method":"nearest_centroid"},"geometry":{"type":"Point","coordinates":[136.913608,35.01244]}},{"type":"Feature","properties":{"layer_id":"cultural_facilities","name":"平洲中学校","category":"public","address":"富貴ノ台5-181","source":"国土交通省 国土数値情報","municipality_code":"23222","municipality_pref":"愛知県","municipality_name":"東海市","municipality_code_method":"nearest_centroid"},"geometry":{"type":"Point","coordinates":[136.906398,35.029319]}},{"type":"Feature","properties":{"layer_id":"cultural_facilities","name":"東海市立平洲記念館・東海市立郷土資料館","category":"public","address":"荒尾町蜂ケ尻67","source":"国土交通省 国土数値情報","municipality_code":"23222","municipality_pref":"愛知県","municipality_name":"東海市","municipality_code_method":"nearest_centroid"},"geometry":{"type":"Point","coordinates":[136.917935,35.031476]}},{"type":"Feature","properties":{"layer_id":"cultural_facilities","name":"大窪公園（キャンプ場）","category":"public","address":"荒尾町大窪1","source":"国土交通省 国土数値情報","municipality_code":"23222","municipality_pref":"愛知県","municipality_name":"東海市","municipality_code_method":"nearest_centroid"},"geometry":{"type":"Point","coordinates":[136.900953,35.028087]}},{"type":"Feature","properties":{"layer_id":"cultural_facilities","name":"横須賀中学校","category":"public","address":"高横須賀町猫狭間2","source":"国土交通省 国土数値情報","municipality_code":"23222","municipality_pref":"愛知県","municipality_name":"東海市","municipality_code_method":"nearest_centroid"},"geometry":{"type":"Point","coordinates":[136.901588,35.003817]}},{"type":"Feature","properties":{"layer_id":"cultural_facilities","name":"東海市民体育館","category":"public","address":"高横須賀町桝形1-1","source":"国土交通省 国土数値情報","municipality_code":"23222","municipality_pref":"愛知県","municipality_name":"東海市","municipality_code_method":"nearest_centroid"},"geometry":{"type":"Point","coordinates":[136.884466,35.015094]}},{"type":"Feature","properties":{"layer_id":"cultural_facilities","name":"加木屋中学校","category":"public","address":"加木屋町西御嶽18-1","source":"国土交通省 国土数値情報","municipality_code":"23222","municipality_pref":"愛知県","municipality_name":"東海市","municipality_code_method":"nearest_centroid"},"geometry":{"type":"Point","coordinates":[136.899403,34.989072]}},{"type":"Feature","properties":{"layer_id":"cultural_facilities","name":"東海市立中央図書館","category":"public","address":"中央町3-2","source":"国土交通省 国土数値情報","municipality_code":"23222","municipality_pref":"愛知県","municipality_name":"東海市","municipality_code_method":"nearest_centroid"},"geometry":{"type":"Point","coordinates":[136.908437,35.026134]}},{"type":"Feature","properties":{"layer_id":"cultural_facilities","name":"しあわせ村","category":"public","address":"荒尾町西廻間2-1","source":"国土交通省 国土数値情報","municipality_code":"23222","municipality_pref":"愛知県","municipality_name":"東海市","municipality_code_method":"nearest_centroid"},"geometry":{"type":"Point","coordinates":[136.90587,35.04272]}},{"type":"Feature","properties":{"layer_id":"cultural_facilities","name":"平地公園野球場","category":"public","address":"名和町法秀1-1","source":"国土交通省 国土数値情報","municipality_code":"23222","municipality_pref":"愛知県","municipality_name":"東海市","municipality_code_method":"nearest_centroid"},"geometry":{"type":"Point","coordinates":[136.924502,35.046549]}},{"type":"Feature","properties":{"layer_id":"cultural_facilities","name":"加木屋小学校","category":"public","address":"加木屋町編笠9","source":"国土交通省 国土数値情報","municipality_code":"23222","municipality_pref":"愛知県","municipality_name":"東海市","municipality_code_method":"nearest_centroid"},"geometry":{"type":"Point","coordinates":[136.902685,34.997091]}},{"type":"Feature","properties":{"layer_id":"cultural_facilities","name":"名和小学校","category":"public","address":"名和町山東10","source":"国土交通省 国土数値情報","municipality_code":"23222","municipality_pref":"愛知県","municipality_name":"東海市","municipality_code_method":"nearest_centroid"},"geometry":{"type":"Point","coordinates":[136.913522,35.051576]}},{"type":"Feature","properties":{"layer_id":"cultural_facilities","name":"大田小学校","category":"public","address":"大田町細田23","source":"国土交通省 国土数値情報","municipality_code":"23222","municipality_pref":"愛知県","municipality_name":"東海市","municipality_code_method":"nearest_centroid"},"geometry":{"type":"Point","coordinates":[136.901724,35.018005]}},{"type":"Feature","properties":{"layer_id":"cultural_facilities","name":"東海市民体育館","category":"public","address":"高横須賀町桝形1-1","source":"国土交通省 国土数値情報","municipality_code":"23222","municipality_pref":"愛知県","municipality_name":"東海市","municipality_code_method":"nearest_centroid"},"geometry":{"type":"Point","coordinates":[136.884692,35.015396]}},{"type":"Feature","properties":{"layer_id":"cultural_facilities","name":"大池公園テニスコート","category":"public","address":"中央町3-1","source":"国土交通省 国土数値情報","municipality_code":"23222","municipality_pref":"愛知県","municipality_name":"東海市","municipality_code_method":"nearest_centroid"},"geometry":{"type":"Point","coordinates":[136.902205,35.024783]}},{"type":"Feature","properties":{"layer_id":"cultural_facilities","name":"平洲小学校","category":"public","address":"荒尾町片坂1","source":"国土交通省 国土数値情報","municipality_code":"23222","municipality_pref":"愛知県","municipality_name":"東海市","municipality_code_method":"nearest_centroid"},"geometry":{"type":"Point","coordinates":[136.910073,35.029883]}},{"type":"Feature","properties":{"layer_id":"cultural_facilities","name":"東海市民体育館","category":"public","address":"高横須賀町桝形1-1","source":"国土交通省 国土数値情報","municipality_code":"23222","municipality_pref":"愛知県","municipality_name":"東海市","municipality_code_method":"nearest_centroid"},"geometry":{"type":"Point","coordinates":[136.884668,35.015016]}},{"type":"Feature","properties":{"layer_id":"cultural_facilities","name":"東海市民体育館","category":"public","address":"高横須賀町桝形1-1","source":"国土交通省 国土数値情報","municipality_code":"23222","municipality_pref":"愛知県","municipality_name":"東海市","municipality_code_method":"nearest_centroid"},"geometry":{"type":"Point","coordinates":[136.884656,35.015143]}},{"type":"Feature","properties":{"layer_id":"cultural_facilities","name":"明倫小学校","category":"public","address":"荒尾町土取1-1","source":"国土交通省 国土数値情報","municipality_code":"23222","municipality_pref":"愛知県","municipality_name":"東海市","municipality_code_method":"nearest_centroid"},"geometry":{"type":"Point","coordinates":[136.916294,35.028949]}},{"type":"Feature","properties":{"layer_id":"cultural_facilities","name":"加木屋運動公園","category":"public","address":"加木屋町西御嶽","source":"国土交通省 国土数値情報","municipality_code":"23222","municipality_pref":"愛知県","municipality_name":"東海市","municipality_code_method":"nearest_centroid"},"geometry":{"type":"Point","coordinates":[136.899312,34.987246]}},{"type":"Feature","properties":{"layer_id":"cultural_facilities","name":"青少年センター","category":"public","address":"大田町細田9-1","source":"国土交通省 国土数値情報","municipality_code":"23222","municipality_pref":"愛知県","municipality_name":"東海市","municipality_code_method":"nearest_centroid"},"geometry":{"type":"Point","coordinates":[136.901718,35.018839]}},{"type":"Feature","properties":{"layer_id":"cultural_facilities","name":"平地公園テニスコート","category":"public","address":"名和町法秀1-1","source":"国土交通省 国土数値情報","municipality_code":"23222","municipality_pref":"愛知県","municipality_name":"東海市","municipality_code_method":"nearest_centroid"},"geometry":{"type":"Point","coordinates":[136.923932,35.047386]}},{"type":"Feature","properties":{"layer_id":"cultural_facilities","name":"加木屋小学校","category":"public","address":"加木屋町編笠9","source":"国土交通省 国土数値情報","municipality_code":"23222","municipality_pref":"愛知県","municipality_name":"東海市","municipality_code_method":"nearest_centroid"},"geometry":{"type":"Point","coordinates":[136.902875,34.996614]}},{"type":"Feature","properties":{"layer_id":"cultural_facilities","name":"富木島小学校","category":"public","address":"富木島町手代44","source":"国土交通省 国土数値情報","municipality_code":"23222","municipality_pref":"愛知県","municipality_name":"東海市","municipality_code_method":"nearest_centroid"},"geometry":{"type":"Point","coordinates":[136.921873,35.015785]}},{"type":"Feature","properties":{"layer_id":"cultural_facilities","name":"大池公園野球場","category":"public","address":"中央町3-1","source":"国土交通省 国土数値情報","municipality_code":"23222","municipality_pref":"愛知県","municipality_name":"東海市","municipality_code_method":"nearest_centroid"},"geometry":{"type":"Point","coordinates":[136.904677,35.02671]}},{"type":"Feature","properties":{"layer_id":"cultural_facilities","name":"しあわせ村","category":"public","address":"荒尾町西廻間2-1","source":"国土交通省 国土数値情報","municipality_code":"23222","municipality_pref":"愛知県","municipality_name":"東海市","municipality_code_method":"nearest_centroid"},"geometry":{"type":"Point","coordinates":[136.906155,35.042768]}},{"type":"Feature","properties":{"layer_id":"cultural_facilities","name":"大田小学校","category":"public","address":"大田町細田23","source":"国土交通省 国土数値情報","municipality_code":"23222","municipality_pref":"愛知県","municipality_name":"東海市","municipality_code_method":"nearest_centroid"},"geometry":{"type":"Point","coordinates":[136.900868,35.017402]}},{"type":"Feature","properties":{"layer_id":"cultural_facilities","name":"横須賀小学校","category":"public","address":"高横須賀町大塚36","source":"国土交通省 国土数値情報","municipality_code":"23222","municipality_pref":"愛知県","municipality_name":"東海市","municipality_code_method":"nearest_centroid"},"geometry":{"type":"Point","coordinates":[136.889717,35.012861]}},{"type":"Feature","properties":{"layer_id":"cultural_facilities","name":"上野台公園テニスコート","category":"public","address":"富木島町山田7-1","source":"国土交通省 国土数値情報","municipality_code":"23222","municipality_pref":"愛知県","municipality_name":"東海市","municipality_code_method":"nearest_centroid"},"geometry":{"type":"Point","coordinates":[136.926391,35.017695]}},{"type":"Feature","properties":{"layer_id":"cultural_facilities","name":"上野中学校","category":"public","address":"名和町奥平戸28","source":"国土交通省 国土数値情報","municipality_code":"23222","municipality_pref":"愛知県","municipality_name":"東海市","municipality_code_method":"nearest_centroid"},"geometry":{"type":"Point","coordinates":[136.910083,35.044172]}},{"type":"Feature","properties":{"layer_id":"parks_playgrounds","name":"熱田公園","category":"nature","address":"東海市","source":"国土交通省 国土数値情報","municipality_code":"23222","municipality_pref":"愛知県","municipality_name":"東海市","municipality_code_method":"nearest_centroid"},"geometry":{"type":"Point","coordinates":[136.88566034,35.00759769]}},{"type":"Feature","properties":{"layer_id":"parks_playgrounds","name":"島田公園","category":"nature","address":"東海市","source":"国土交通省 国土数値情報","municipality_code":"23222","municipality_pref":"愛知県","municipality_name":"東海市","municipality_code_method":"nearest_centroid"},"geometry":{"type":"Point","coordinates":[136.90977093,34.98716806]}},{"type":"Feature","properties":{"layer_id":"parks_playgrounds","name":"元浜公園","category":"nature","address":"東海市","source":"国土交通省 国土数値情報","municipality_code":"23222","municipality_pref":"愛知県","municipality_name":"東海市","municipality_code_method":"nearest_centroid"},"geometry":{"type":"Point","coordinates":[136.88047692,35.01454162]}},{"type":"Feature","properties":{"layer_id":"parks_playgrounds","name":"姫島公園","category":"nature","address":"東海市","source":"国土交通省 国土数値情報","municipality_code":"23222","municipality_pref":"愛知県","municipality_name":"東海市","municipality_code_method":"nearest_centroid"},"geometry":{"type":"Point","coordinates":[136.91256519,35.01774834]}},{"type":"Feature","properties":{"layer_id":"parks_playgrounds","name":"中ノ池公園","category":"nature","address":"東海市","source":"国土交通省 国土数値情報","municipality_code":"23222","municipality_pref":"愛知県","municipality_name":"東海市","municipality_code_method":"nearest_centroid"},"geometry":{"type":"Point","coordinates":[136.89483604,35.00191549]}},{"type":"Feature","properties":{"layer_id":"parks_playgrounds","name":"南新田公園","category":"nature","address":"東海市","source":"国土交通省 国土数値情報","municipality_code":"23222","municipality_pref":"愛知県","municipality_name":"東海市","municipality_code_method":"nearest_centroid"},"geometry":{"type":"Point","coordinates":[136.89633364,35.03462277]}},{"type":"Feature","properties":{"layer_id":"parks_playgrounds","name":"汐見が丘公園","category":"nature","address":"東海市","source":"国土交通省 国土数値情報","municipality_code":"23222","municipality_pref":"愛知県","municipality_name":"東海市","municipality_code_method":"nearest_centroid"},"geometry":{"type":"Point","coordinates":[136.8987047,35.00283666]}},{"type":"Feature","properties":{"layer_id":"parks_playgrounds","name":"流レ公園","category":"nature","address":"東海市","source":"国土交通省 国土数値情報","municipality_code":"23222","municipality_pref":"愛知県","municipality_name":"東海市","municipality_code_method":"nearest_centroid"},"geometry":{"type":"Point","coordinates":[136.90431694,35.01883073]}},{"type":"Feature","properties":{"layer_id":"parks_playgrounds","name":"上野台公園","category":"nature","address":"東海市","source":"国土交通省 国土数値情報","municipality_code":"23222","municipality_pref":"愛知県","municipality_name":"東海市","municipality_code_method":"nearest_centroid"},"geometry":{"type":"Point","coordinates":[136.92555077,35.01854432]}},{"type":"Feature","properties":{"layer_id":"parks_playgrounds","name":"稲葉公園","category":"nature","address":"東海市","source":"国土交通省 国土数値情報","municipality_code":"23222","municipality_pref":"愛知県","municipality_name":"東海市","municipality_code_method":"nearest_centroid"},"geometry":{"type":"Point","coordinates":[136.90851623,35.02873403]}},{"type":"Feature","properties":{"layer_id":"parks_playgrounds","name":"如来山公園","category":"nature","address":"東海市","source":"国土交通省 国土数値情報","municipality_code":"23222","municipality_pref":"愛知県","municipality_name":"東海市","municipality_code_method":"nearest_centroid"},"geometry":{"type":"Point","coordinates":[136.90271748,35.03329606]}},{"type":"Feature","properties":{"layer_id":"parks_playgrounds","name":"仲田公園","category":"nature","address":"東海市","source":"国土交通省 国土数値情報","municipality_code":"23222","municipality_pref":"愛知県","municipality_name":"東海市","municipality_code_method":"nearest_centroid"},"geometry":{"type":"Point","coordinates":[136.90905033,35.03425523]}},{"type":"Feature","properties":{"layer_id":"parks_playgrounds","name":"池下公園","category":"nature","address":"東海市","source":"国土交通省 国土数値情報","municipality_code":"23222","municipality_pref":"愛知県","municipality_name":"東海市","municipality_code_method":"nearest_centroid"},"geometry":{"type":"Point","coordinates":[136.90202796,35.0221202]}},{"type":"Feature","properties":{"layer_id":"parks_playgrounds","name":"番水公園","category":"nature","address":"東海市","source":"国土交通省 国土数値情報","municipality_code":"23222","municipality_pref":"愛知県","municipality_name":"東海市","municipality_code_method":"nearest_centroid"},"geometry":{"type":"Point","coordinates":[136.90797649,35.01869124]}},{"type":"Feature","properties":{"layer_id":"parks_playgrounds","name":"芦池公園","category":"nature","address":"東海市","source":"国土交通省 国土数値情報","municipality_code":"23222","municipality_pref":"愛知県","municipality_name":"東海市","municipality_code_method":"nearest_centroid"},"geometry":{"type":"Point","coordinates":[136.89747261,34.99721084]}},{"type":"Feature","properties":{"layer_id":"parks_playgrounds","name":"富木島公園","category":"nature","address":"東海市","source":"国土交通省 国土数値情報","municipality_code":"23222","municipality_pref":"愛知県","municipality_name":"東海市","municipality_code_method":"nearest_centroid"},"geometry":{"type":"Point","coordinates":[136.91094651,35.02050452]}},{"type":"Feature","properties":{"layer_id":"parks_playgrounds","name":"富田公園","category":"nature","address":"東海市","source":"国土交通省 国土数値情報","municipality_code":"23222","municipality_pref":"愛知県","municipality_name":"東海市","municipality_code_method":"nearest_centroid"},"geometry":{"type":"Point","coordinates":[136.91549056,35.02296873]}},{"type":"Feature","properties":{"layer_id":"parks_playgrounds","name":"川島公園","category":"nature","address":"東海市","source":"国土交通省 国土数値情報","municipality_code":"23222","municipality_pref":"愛知県","municipality_name":"東海市","municipality_code_method":"nearest_centroid"},"geometry":{"type":"Point","coordinates":[136.89116991,35.01620142]}},{"type":"Feature","properties":{"layer_id":"parks_playgrounds","name":"大窪公園","category":"nature","address":"東海市","source":"国土交通省 国土数値情報","municipality_code":"23222","municipality_pref":"愛知県","municipality_name":"東海市","municipality_code_method":"nearest_centroid"},"geometry":{"type":"Point","coordinates":[136.90085239,35.02799942]}},{"type":"Feature","properties":{"layer_id":"parks_playgrounds","name":"東海公園","category":"nature","address":"東海市","source":"国土交通省 国土数値情報","municipality_code":"23222","municipality_pref":"愛知県","municipality_name":"東海市","municipality_code_method":"nearest_centroid"},"geometry":{"type":"Point","coordinates":[136.89846733,35.03757354]}},{"type":"Feature","properties":{"layer_id":"parks_playgrounds","name":"南平井公園","category":"nature","address":"東海市","source":"国土交通省 国土数値情報","municipality_code":"23222","municipality_pref":"愛知県","municipality_name":"東海市","municipality_code_method":"nearest_centroid"},"geometry":{"type":"Point","coordinates":[136.90784932,34.9867961]}},{"type":"Feature","properties":{"layer_id":"parks_playgrounds","name":"高木田公園","category":"nature","address":"東海市","source":"国土交通省 国土数値情報","municipality_code":"23222","municipality_pref":"愛知県","municipality_name":"東海市","municipality_code_method":"nearest_centroid"},"geometry":{"type":"Point","coordinates":[136.90896069,35.01597337]}},{"type":"Feature","properties":{"layer_id":"parks_playgrounds","name":"昇録公園","category":"nature","address":"東海市","source":"国土交通省 国土数値情報","municipality_code":"23222","municipality_pref":"愛知県","municipality_name":"東海市","municipality_code_method":"nearest_centroid"},"geometry":{"type":"Point","coordinates":[136.89609003,35.031192419999996]}},{"type":"Feature","properties":{"layer_id":"parks_playgrounds","name":"大清水公園","category":"nature","address":"東海市","source":"国土交通省 国土数値情報","municipality_code":"23222","municipality_pref":"愛知県","municipality_name":"東海市","municipality_code_method":"nearest_centroid"},"geometry":{"type":"Point","coordinates":[136.90824495,34.97903154]}},{"type":"Feature","properties":{"layer_id":"parks_playgrounds","name":"一ツ根公園","category":"nature","address":"東海市","source":"国土交通省 国土数値情報","municipality_code":"23222","municipality_pref":"愛知県","municipality_name":"東海市","municipality_code_method":"nearest_centroid"},"geometry":{"type":"Point","coordinates":[136.90192623,35.02989639]}},{"type":"Feature","properties":{"layer_id":"parks_playgrounds","name":"大池公園","category":"nature","address":"東海市","source":"国土交通省 国土数値情報","municipality_code":"23222","municipality_pref":"愛知県","municipality_name":"東海市","municipality_code_method":"nearest_centroid"},"geometry":{"type":"Point","coordinates":[136.90255429,35.02737116]}},{"type":"Feature","properties":{"layer_id":"parks_playgrounds","name":"大堀緑道","category":"nature","address":"東海市","source":"国土交通省 国土数値情報","municipality_code":"23222","municipality_pref":"愛知県","municipality_name":"東海市","municipality_code_method":"nearest_centroid"},"geometry":{"type":"Point","coordinates":[136.91250641,34.98494563]}},{"type":"Feature","properties":{"layer_id":"parks_playgrounds","name":"三ツ池公園","category":"nature","address":"東海市","source":"国土交通省 国土数値情報","municipality_code":"23222","municipality_pref":"愛知県","municipality_name":"東海市","municipality_code_method":"nearest_centroid"},"geometry":{"type":"Point","coordinates":[136.90989527,34.99144554]}},{"type":"Feature","properties":{"layer_id":"parks_playgrounds","name":"公家公園","category":"nature","address":"東海市","source":"国土交通省 国土数値情報","municipality_code":"23222","municipality_pref":"愛知県","municipality_name":"東海市","municipality_code_method":"nearest_centroid"},"geometry":{"type":"Point","coordinates":[136.88894969,35.00825791]}},{"type":"Feature","properties":{"layer_id":"parks_playgrounds","name":"中新田公園","category":"nature","address":"東海市","source":"国土交通省 国土数値情報","municipality_code":"23222","municipality_pref":"愛知県","municipality_name":"東海市","municipality_code_method":"nearest_centroid"},"geometry":{"type":"Point","coordinates":[136.89792687,35.03977935]}},{"type":"Feature","properties":{"layer_id":"parks_playgrounds","name":"公家緑道","category":"nature","address":"東海市","source":"国土交通省 国土数値情報","municipality_code":"23222","municipality_pref":"愛知県","municipality_name":"東海市","municipality_code_method":"nearest_centroid"},"geometry":{"type":"Point","coordinates":[136.88754804,35.01218203]}},{"type":"Feature","properties":{"layer_id":"parks_playgrounds","name":"浅山新田公園","category":"nature","address":"東海市","source":"国土交通省 国土数値情報","municipality_code":"23222","municipality_pref":"愛知県","municipality_name":"東海市","municipality_code_method":"nearest_centroid"},"geometry":{"type":"Point","coordinates":[136.90738587,35.05339464]}},{"type":"Feature","properties":{"layer_id":"parks_playgrounds","name":"平山公園","category":"nature","address":"東海市","source":"国土交通省 国土数値情報","municipality_code":"23222","municipality_pref":"愛知県","municipality_name":"東海市","municipality_code_method":"nearest_centroid"},"geometry":{"type":"Point","coordinates":[136.90418243,35.0289665]}},{"type":"Feature","properties":{"layer_id":"parks_playgrounds","name":"加家公園","category":"nature","address":"東海市","source":"国土交通省 国土数値情報","municipality_code":"23222","municipality_pref":"愛知県","municipality_name":"東海市","municipality_code_method":"nearest_centroid"},"geometry":{"type":"Point","coordinates":[136.90191493,35.03601505]}},{"type":"Feature","properties":{"layer_id":"parks_playgrounds","name":"松崎史跡公園","category":"nature","address":"東海市","source":"国土交通省 国土数値情報","municipality_code":"23222","municipality_pref":"愛知県","municipality_name":"東海市","municipality_code_method":"nearest_centroid"},"geometry":{"type":"Point","coordinates":[136.89598011,35.02731151]}},{"type":"Feature","properties":{"layer_id":"parks_playgrounds","name":"養父公園","category":"nature","address":"東海市","source":"国土交通省 国土数値情報","municipality_code":"23222","municipality_pref":"愛知県","municipality_name":"東海市","municipality_code_method":"nearest_centroid"},"geometry":{"type":"Point","coordinates":[136.87716901,35.00679426]}},{"type":"Feature","properties":{"layer_id":"parks_playgrounds","name":"根越公園","category":"nature","address":"東海市","source":"国土交通省 国土数値情報","municipality_code":"23222","municipality_pref":"愛知県","municipality_name":"東海市","municipality_code_method":"nearest_centroid"},"geometry":{"type":"Point","coordinates":[136.91115563,35.01316132]}},{"type":"Feature","properties":{"layer_id":"parks_playgrounds","name":"平地公園","category":"nature","address":"東海市","source":"国土交通省 国土数値情報","municipality_code":"23222","municipality_pref":"愛知県","municipality_name":"東海市","municipality_code_method":"nearest_centroid"},"geometry":{"type":"Point","coordinates":[136.9242486,35.04725925]}},{"type":"Feature","properties":{"layer_id":"parks_playgrounds","name":"脇ノ田公園","category":"nature","address":"東海市","source":"国土交通省 国土数値情報","municipality_code":"23222","municipality_pref":"愛知県","municipality_name":"東海市","municipality_code_method":"nearest_centroid"},"geometry":{"type":"Point","coordinates":[136.91498826,35.03042235]}},{"type":"Feature","properties":{"layer_id":"parks_playgrounds","name":"藤池公園","category":"nature","address":"東海市","source":"国土交通省 国土数値情報","municipality_code":"23222","municipality_pref":"愛知県","municipality_name":"東海市","municipality_code_method":"nearest_centroid"},"geometry":{"type":"Point","coordinates":[136.90735648,35.03246288]}},{"type":"Feature","properties":{"layer_id":"parks_playgrounds","name":"聚楽園公園","category":"nature","address":"東海市","source":"国土交通省 国土数値情報","municipality_code":"23222","municipality_pref":"愛知県","municipality_name":"東海市","municipality_code_method":"nearest_centroid"},"geometry":{"type":"Point","coordinates":[136.9049556,35.04310079]}}],"display_comment_original":"東海市周辺には、近世村の記憶として名和村、渡内村、寺中村などの旧村名が見える。 この地域には寺社や信仰の場、古墳や貝塚、城跡や陣屋跡に関わる場所が見え、木田城跡、横須賀御殿跡、西方寺のような地点が探索の入口になる。 現地では史跡説明板、名和村、渡内村ゆかりの旧境石標や村の歴史案内板が手がかりになりそうだ。さらに田・新田・用水の地名が多く、土地改良碑や用水記念碑が見つかる可能性がある。水辺の由緒を示す歴史案内板も見つかるかもしれない。","story_enrichment":{"samurai_priority_people":[],"notable_people":["良忍","細井平洲","蟹江一太郎","蟹江一忠","蟹江英吉"],"honorary_citizens":[],"tourism_landmarks":["木田城址","観福寺","弥勒寺","玉林寺","長源寺","玄猷寺","普済寺","愛宕神社"],"specialties":["海老煎餅","フキ","洋ラン"],"food_culture":[],"historical_domains":[],"heian_place_names":[],"japan_search_support":[],"enrichment_sources":["https://ja.wikipedia.org/wiki/%E6%9D%B1%E6%B5%B7%E5%B8%82","https://www.wikidata.org/wiki/Q11614413","https://www.wikidata.org/wiki/Q6564648","https://www.wikidata.org/wiki/Q24845386","https://www.wikidata.org/wiki/Q11625869","https://www.wikidata.org/wiki/Q123989353","https://www.wikidata.org/wiki/Q11590874","https://www.wikidata.org/wiki/Q262462"],"enrichment_errors":[],"wikipedia_title":"東海市","wikipedia_revision_id":"110853662","wikidata_qid":"Q622620","wikipedia_url":"https://ja.wikipedia.org/wiki/%E6%9D%B1%E6%B5%B7%E5%B8%82","japan_search_query_url":"","status":"wikipedia_ok"}}