{"type":"FeatureCollection","municipality_code":"27208","pref":"大阪府","city":"貝塚市","display_comment":"貝塚市には、地域の歴史や暮らしを伝える案内板や石碑があり、それらを手がかりに街歩きを楽しめます。 まずは古代史・遺跡、社寺・地域信仰、近代化・産業遺産に目を向けると、地域の由緒をたどる手がかりが見つけやすいでしょう。 現地では石碑、地蔵、地域資料館、公民館の由緒板を既存ピンと照らし合わせながら歩くと、見落としがちな地域の物語に出会いやすくなります。 「水間寺」や「孝恩寺」などの名所も、地域の物語を深掘りする絶好の入口です。","layer_counts":{"cafe_restaurant":11,"public_facilities":14,"cultural_facilities":27,"parks_playgrounds":17},"total_features":69,"features":[{"type":"Feature","properties":{"layer_id":"cafe_restaurant","name":"めん六や 大阪貝塚店","category":"food","address":"大阪府貝塚市澤931番地2","source":"厚生労働省 食品衛生申請等システム（オープンデータ）","municipality_code":"27208","municipality_pref":"大阪府","municipality_name":"貝塚市","municipality_code_method":"food_exact_coord"},"geometry":{"type":"Point","coordinates":[135.338553,34.438323]}},{"type":"Feature","properties":{"layer_id":"cafe_restaurant","name":"ごはんどき貝塚店","category":"food","address":"大阪府貝塚市畠中2丁目28-1","source":"厚生労働省 食品衛生申請等システム（オープンデータ）","municipality_code":"27208","municipality_pref":"大阪府","municipality_name":"貝塚市","municipality_code_method":"food_exact_coord"},"geometry":{"type":"Point","coordinates":[135.358464,34.433896]}},{"type":"Feature","properties":{"layer_id":"cafe_restaurant","name":"カフェ・バンカレラ貝塚店","category":"food","address":"大阪府貝塚市畠中2丁目28-1","source":"厚生労働省 食品衛生申請等システム（オープンデータ）","municipality_code":"27208","municipality_pref":"大阪府","municipality_name":"貝塚市","municipality_code_method":"food_exact_coord"},"geometry":{"type":"Point","coordinates":[135.358464,34.433896]}},{"type":"Feature","properties":{"layer_id":"cafe_restaurant","name":"ディオ貝塚店（惣菜）","category":"food","address":"大阪府貝塚市久保一丁目27番1号","source":"厚生労働省 食品衛生申請等システム（オープンデータ）","municipality_code":"27208","municipality_pref":"大阪府","municipality_name":"貝塚市","municipality_code_method":"food_exact_coord"},"geometry":{"type":"Point","coordinates":[135.372701,34.447897]}},{"type":"Feature","properties":{"layer_id":"cafe_restaurant","name":"ディオ貝塚店（パクパク）","category":"food","address":"大阪府貝塚市久保一丁目27番1号","source":"厚生労働省 食品衛生申請等システム（オープンデータ）","municipality_code":"27208","municipality_pref":"大阪府","municipality_name":"貝塚市","municipality_code_method":"food_exact_coord"},"geometry":{"type":"Point","coordinates":[135.372701,34.447897]}},{"type":"Feature","properties":{"layer_id":"cafe_restaurant","name":"ディオ貝塚店（鮮魚）","category":"food","address":"大阪府貝塚市久保一丁目27番1号","source":"厚生労働省 食品衛生申請等システム（オープンデータ）","municipality_code":"27208","municipality_pref":"大阪府","municipality_name":"貝塚市","municipality_code_method":"food_exact_coord"},"geometry":{"type":"Point","coordinates":[135.372701,34.447897]}},{"type":"Feature","properties":{"layer_id":"cafe_restaurant","name":"スーパーセンタートライアル二色浜店","category":"food","address":"大阪府貝塚市澤８９０番１","source":"厚生労働省 食品衛生申請等システム（オープンデータ）","municipality_code":"27208","municipality_pref":"大阪府","municipality_name":"貝塚市","municipality_code_method":"food_exact_coord"},"geometry":{"type":"Point","coordinates":[135.33834,34.43924]}},{"type":"Feature","properties":{"layer_id":"cafe_restaurant","name":"ライフホープ二色の浜１番館","category":"food","address":"大阪府貝塚市澤1330-1","source":"厚生労働省 食品衛生申請等システム（オープンデータ）","municipality_code":"27208","municipality_pref":"大阪府","municipality_name":"貝塚市","municipality_code_method":"food_exact_coord"},"geometry":{"type":"Point","coordinates":[135.34579,34.435059]}},{"type":"Feature","properties":{"layer_id":"cafe_restaurant","name":"松のや　貝塚店","category":"food","address":"大阪府貝塚市小瀬1丁目28-13","source":"厚生労働省 食品衛生申請等システム（オープンデータ）","municipality_code":"27208","municipality_pref":"大阪府","municipality_name":"貝塚市","municipality_code_method":"food_exact_coord"},"geometry":{"type":"Point","coordinates":[135.368238,34.445208]}},{"type":"Feature","properties":{"layer_id":"cafe_restaurant","name":"すき家　貝塚北町店","category":"food","address":"大阪府貝塚市北町17-15","source":"厚生労働省 食品衛生申請等システム（オープンデータ）","municipality_code":"27208","municipality_pref":"大阪府","municipality_name":"貝塚市","municipality_code_method":"food_exact_coord"},"geometry":{"type":"Point","coordinates":[135.357784,34.450583]}},{"type":"Feature","properties":{"layer_id":"cafe_restaurant","name":"丸亀製麺貝塚店","category":"food","address":"大阪府貝塚市小瀬３４２－２","source":"厚生労働省 食品衛生申請等システム（オープンデータ）","municipality_code":"27208","municipality_pref":"大阪府","municipality_name":"貝塚市","municipality_code_method":"food_exact_coord"},"geometry":{"type":"Point","coordinates":[135.371194,34.448012]}},{"type":"Feature","properties":{"layer_id":"public_facilities","name":"市役所別館","category":"public","address":"貝塚市畠中1-17-1","source":"国土交通省 国土数値情報","municipality_code":"27208","municipality_pref":"大阪府","municipality_name":"貝塚市","municipality_code_method":"source_exact_coord"},"geometry":{"type":"Point","coordinates":[135.358227,34.437938]}},{"type":"Feature","properties":{"layer_id":"public_facilities","name":"ひと・ふれあいセンター","category":"public","address":"貝塚市海塚22-1","source":"国土交通省 国土数値情報","municipality_code":"27208","municipality_pref":"大阪府","municipality_name":"貝塚市","municipality_code_method":"source_exact_coord"},"geometry":{"type":"Point","coordinates":[135.362456,34.443633]}},{"type":"Feature","properties":{"layer_id":"public_facilities","name":"貝塚市役所","category":"public","address":"貝塚市畠中1-17-1","source":"国土交通省 国土数値情報","municipality_code":"27208","municipality_pref":"大阪府","municipality_name":"貝塚市","municipality_code_method":"source_exact_coord"},"geometry":{"type":"Point","coordinates":[135.358431,34.437687]}},{"type":"Feature","properties":{"layer_id":"public_facilities","name":"斎場","category":"public","address":"貝塚市橋本967-1","source":"国土交通省 国土数値情報","municipality_code":"27208","municipality_pref":"大阪府","municipality_name":"貝塚市","municipality_code_method":"source_exact_coord"},"geometry":{"type":"Point","coordinates":[135.361714,34.430982]}},{"type":"Feature","properties":{"layer_id":"public_facilities","name":"山手地区公民館","category":"public","address":"貝塚市東山7-10-1","source":"国土交通省 国土数値情報","municipality_code":"27208","municipality_pref":"大阪府","municipality_name":"貝塚市","municipality_code_method":"source_exact_coord"},"geometry":{"type":"Point","coordinates":[135.387656,34.4075182]}},{"type":"Feature","properties":{"layer_id":"public_facilities","name":"やすらぎ老人福祉センター","category":"public","address":"貝塚市東79-1","source":"国土交通省 国土数値情報","municipality_code":"27208","municipality_pref":"大阪府","municipality_name":"貝塚市","municipality_code_method":"source_exact_coord"},"geometry":{"type":"Point","coordinates":[135.363205,34.444486]}},{"type":"Feature","properties":{"layer_id":"public_facilities","name":"総合体育館","category":"public","address":"貝塚市畠中1-13-1","source":"国土交通省 国土数値情報","municipality_code":"27208","municipality_pref":"大阪府","municipality_name":"貝塚市","municipality_code_method":"source_exact_coord"},"geometry":{"type":"Point","coordinates":[135.3599941,34.4378085]}},{"type":"Feature","properties":{"layer_id":"public_facilities","name":"市役所第２別館","category":"public","address":"貝塚市畠中1-17-1","source":"国土交通省 国土数値情報","municipality_code":"27208","municipality_pref":"大阪府","municipality_name":"貝塚市","municipality_code_method":"source_exact_coord"},"geometry":{"type":"Point","coordinates":[135.357807,34.43716]}},{"type":"Feature","properties":{"layer_id":"public_facilities","name":"貝塚市民文化会館コスモスシアター","category":"public","address":"貝塚市畠中1-18-1","source":"国土交通省 国土数値情報","municipality_code":"27208","municipality_pref":"大阪府","municipality_name":"貝塚市","municipality_code_method":"source_exact_coord"},"geometry":{"type":"Point","coordinates":[135.358467,34.436534]}},{"type":"Feature","properties":{"layer_id":"public_facilities","name":"貝塚市民図書館","category":"public","address":"貝塚市畠中1-12-1","source":"国土交通省 国土数値情報","municipality_code":"27208","municipality_pref":"大阪府","municipality_name":"貝塚市","municipality_code_method":"source_exact_coord"},"geometry":{"type":"Point","coordinates":[135.35987,34.439025]}},{"type":"Feature","properties":{"layer_id":"public_facilities","name":"保健福祉合同庁舎","category":"public","address":"貝塚市畠中1-18-8","source":"国土交通省 国土数値情報","municipality_code":"27208","municipality_pref":"大阪府","municipality_name":"貝塚市","municipality_code_method":"source_exact_coord"},"geometry":{"type":"Point","coordinates":[135.359428,34.436903]}},{"type":"Feature","properties":{"layer_id":"public_facilities","name":"市民福祉センター","category":"public","address":"貝塚市畠中1-10-1","source":"国土交通省 国土数値情報","municipality_code":"27208","municipality_pref":"大阪府","municipality_name":"貝塚市","municipality_code_method":"source_exact_coord"},"geometry":{"type":"Point","coordinates":[135.359183,34.4385976]}},{"type":"Feature","properties":{"layer_id":"public_facilities","name":"ハート交流館","category":"public","address":"貝塚市福田91","source":"国土交通省 国土数値情報","municipality_code":"27208","municipality_pref":"大阪府","municipality_name":"貝塚市","municipality_code_method":"source_exact_coord"},"geometry":{"type":"Point","coordinates":[135.364366,34.444]}},{"type":"Feature","properties":{"layer_id":"public_facilities","name":"浜手地区公民館","category":"public","address":"貝塚市二色2-7-2","source":"国土交通省 国土数値情報","municipality_code":"27208","municipality_pref":"大阪府","municipality_name":"貝塚市","municipality_code_method":"source_exact_coord"},"geometry":{"type":"Point","coordinates":[135.343579,34.4468211]}},{"type":"Feature","properties":{"layer_id":"cultural_facilities","name":"二色の浜公園軟式野球場","category":"public","address":"脇浜","source":"国土交通省 国土数値情報","municipality_code":"27208","municipality_pref":"大阪府","municipality_name":"貝塚市","municipality_code_method":"nearest_centroid"},"geometry":{"type":"Point","coordinates":[135.338906,34.443431]}},{"type":"Feature","properties":{"layer_id":"cultural_facilities","name":"貝塚市営第５プール","category":"public","address":"二色3-25-1","source":"国土交通省 国土数値情報","municipality_code":"27208","municipality_pref":"大阪府","municipality_name":"貝塚市","municipality_code_method":"nearest_centroid"},"geometry":{"type":"Point","coordinates":[135.343285,34.444139]}},{"type":"Feature","properties":{"layer_id":"cultural_facilities","name":"貝塚市営第４プール","category":"public","address":"地蔵堂369-3","source":"国土交通省 国土数値情報","municipality_code":"27208","municipality_pref":"大阪府","municipality_name":"貝塚市","municipality_code_method":"nearest_centroid"},"geometry":{"type":"Point","coordinates":[135.360798,34.425216]}},{"type":"Feature","properties":{"layer_id":"cultural_facilities","name":"二色グラウンド","category":"public","address":"二色南町6-3","source":"国土交通省 国土数値情報","municipality_code":"27208","municipality_pref":"大阪府","municipality_name":"貝塚市","municipality_code_method":"nearest_centroid"},"geometry":{"type":"Point","coordinates":[135.336288,34.453096]}},{"type":"Feature","properties":{"layer_id":"cultural_facilities","name":"貝塚市民ふれあい運動広場","category":"public","address":"二色南町4-1","source":"国土交通省 国土数値情報","municipality_code":"27208","municipality_pref":"大阪府","municipality_name":"貝塚市","municipality_code_method":"nearest_centroid"},"geometry":{"type":"Point","coordinates":[135.340221,34.45265]}},{"type":"Feature","properties":{"layer_id":"cultural_facilities","name":"貝塚市立総合体育館","category":"public","address":"畠中1-1-13-1","source":"国土交通省 国土数値情報","municipality_code":"27208","municipality_pref":"大阪府","municipality_name":"貝塚市","municipality_code_method":"nearest_centroid"},"geometry":{"type":"Point","coordinates":[135.360002,34.437984]}},{"type":"Feature","properties":{"layer_id":"cultural_facilities","name":"貝塚市立総合体育館","category":"public","address":"畠中1-1-13-1","source":"国土交通省 国土数値情報","municipality_code":"27208","municipality_pref":"大阪府","municipality_name":"貝塚市","municipality_code_method":"nearest_centroid"},"geometry":{"type":"Point","coordinates":[135.360002,34.437837]}},{"type":"Feature","properties":{"layer_id":"cultural_facilities","name":"貝塚市民ふれあい運動広場","category":"public","address":"二色南町4-1","source":"国土交通省 国土数値情報","municipality_code":"27208","municipality_pref":"大阪府","municipality_name":"貝塚市","municipality_code_method":"nearest_centroid"},"geometry":{"type":"Point","coordinates":[135.340221,34.452473]}},{"type":"Feature","properties":{"layer_id":"cultural_facilities","name":"貝塚市立総合体育館","category":"public","address":"畠中1-1-13-1","source":"国土交通省 国土数値情報","municipality_code":"27208","municipality_pref":"大阪府","municipality_name":"貝塚市","municipality_code_method":"nearest_centroid"},"geometry":{"type":"Point","coordinates":[135.359996,34.437761]}},{"type":"Feature","properties":{"layer_id":"cultural_facilities","name":"貝塚市立青少年運動広場","category":"public","address":"東山1-4-1","source":"国土交通省 国土数値情報","municipality_code":"27208","municipality_pref":"大阪府","municipality_name":"貝塚市","municipality_code_method":"nearest_centroid"},"geometry":{"type":"Point","coordinates":[135.386058,34.416919]}},{"type":"Feature","properties":{"layer_id":"cultural_facilities","name":"貝塚市民ふれあい運動広場テニスコート","category":"public","address":"二色南町4-1","source":"国土交通省 国土数値情報","municipality_code":"27208","municipality_pref":"大阪府","municipality_name":"貝塚市","municipality_code_method":"nearest_centroid"},"geometry":{"type":"Point","coordinates":[135.339499,34.453118]}},{"type":"Feature","properties":{"layer_id":"cultural_facilities","name":"二色の浜公園スポーツ広場","category":"public","address":"沢","source":"国土交通省 国土数値情報","municipality_code":"27208","municipality_pref":"大阪府","municipality_name":"貝塚市","municipality_code_method":"nearest_centroid"},"geometry":{"type":"Point","coordinates":[135.337663,34.437526]}},{"type":"Feature","properties":{"layer_id":"cultural_facilities","name":"二色の浜公園球技広場","category":"public","address":"脇浜","source":"国土交通省 国土数値情報","municipality_code":"27208","municipality_pref":"大阪府","municipality_name":"貝塚市","municipality_code_method":"nearest_centroid"},"geometry":{"type":"Point","coordinates":[135.341408,34.442681]}},{"type":"Feature","properties":{"layer_id":"cultural_facilities","name":"二色の浜公園球技広場","category":"public","address":"脇浜","source":"国土交通省 国土数値情報","municipality_code":"27208","municipality_pref":"大阪府","municipality_name":"貝塚市","municipality_code_method":"nearest_centroid"},"geometry":{"type":"Point","coordinates":[135.341402,34.442769]}},{"type":"Feature","properties":{"layer_id":"cultural_facilities","name":"二色の浜公園スポーツ広場","category":"public","address":"沢","source":"国土交通省 国土数値情報","municipality_code":"27208","municipality_pref":"大阪府","municipality_name":"貝塚市","municipality_code_method":"nearest_centroid"},"geometry":{"type":"Point","coordinates":[135.337669,34.437619]}},{"type":"Feature","properties":{"layer_id":"cultural_facilities","name":"貝塚市営第２プール","category":"public","address":"小瀬町1-23-1","source":"国土交通省 国土数値情報","municipality_code":"27208","municipality_pref":"大阪府","municipality_name":"貝塚市","municipality_code_method":"nearest_centroid"},"geometry":{"type":"Point","coordinates":[135.367651,34.447128]}},{"type":"Feature","properties":{"layer_id":"cultural_facilities","name":"貝塚市立青少年運動広場","category":"public","address":"東山1-4-1","source":"国土交通省 国土数値情報","municipality_code":"27208","municipality_pref":"大阪府","municipality_name":"貝塚市","municipality_code_method":"nearest_centroid"},"geometry":{"type":"Point","coordinates":[135.386061,34.417012]}},{"type":"Feature","properties":{"layer_id":"cultural_facilities","name":"貝塚市立子ども野外広場","category":"public","address":"橋本1394-1","source":"国土交通省 国土数値情報","municipality_code":"27208","municipality_pref":"大阪府","municipality_name":"貝塚市","municipality_code_method":"nearest_centroid"},"geometry":{"type":"Point","coordinates":[135.36249,34.418173]}},{"type":"Feature","properties":{"layer_id":"cultural_facilities","name":"貝塚市民図書館","category":"public","address":"畠中1-12-1","source":"国土交通省 国土数値情報","municipality_code":"27208","municipality_pref":"大阪府","municipality_name":"貝塚市","municipality_code_method":"nearest_centroid"},"geometry":{"type":"Point","coordinates":[135.35993,34.439058]}},{"type":"Feature","properties":{"layer_id":"cultural_facilities","name":"貝塚市民ふれあい運動広場","category":"public","address":"二色南町4-1","source":"国土交通省 国土数値情報","municipality_code":"27208","municipality_pref":"大阪府","municipality_name":"貝塚市","municipality_code_method":"nearest_centroid"},"geometry":{"type":"Point","coordinates":[135.340227,34.452816]}},{"type":"Feature","properties":{"layer_id":"cultural_facilities","name":"貝塚市立総合体育館","category":"public","address":"畠中1-1-13-1","source":"国土交通省 国土数値情報","municipality_code":"27208","municipality_pref":"大阪府","municipality_name":"貝塚市","municipality_code_method":"nearest_centroid"},"geometry":{"type":"Point","coordinates":[135.360008,34.43791]}},{"type":"Feature","properties":{"layer_id":"cultural_facilities","name":"貝塚市立総合体育館","category":"public","address":"畠中1-1-13-1","source":"国土交通省 国土数値情報","municipality_code":"27208","municipality_pref":"大阪府","municipality_name":"貝塚市","municipality_code_method":"nearest_centroid"},"geometry":{"type":"Point","coordinates":[135.359996,34.437616]}},{"type":"Feature","properties":{"layer_id":"cultural_facilities","name":"貝塚市営第１プール","category":"public","address":"畠中1-22-1","source":"国土交通省 国土数値情報","municipality_code":"27208","municipality_pref":"大阪府","municipality_name":"貝塚市","municipality_code_method":"nearest_centroid"},"geometry":{"type":"Point","coordinates":[135.35882,34.435515]}},{"type":"Feature","properties":{"layer_id":"cultural_facilities","name":"貝塚市立青少年運動広場","category":"public","address":"東山1-4-1","source":"国土交通省 国土数値情報","municipality_code":"27208","municipality_pref":"大阪府","municipality_name":"貝塚市","municipality_code_method":"nearest_centroid"},"geometry":{"type":"Point","coordinates":[135.386058,34.417108]}},{"type":"Feature","properties":{"layer_id":"cultural_facilities","name":"二色グラウンド","category":"public","address":"二色南町6-3","source":"国土交通省 国土数値情報","municipality_code":"27208","municipality_pref":"大阪府","municipality_name":"貝塚市","municipality_code_method":"nearest_centroid"},"geometry":{"type":"Point","coordinates":[135.335412,34.453711]}},{"type":"Feature","properties":{"layer_id":"cultural_facilities","name":"二色の浜公園テニスコート","category":"public","address":"脇浜4-830","source":"国土交通省 国土数値情報","municipality_code":"27208","municipality_pref":"大阪府","municipality_name":"貝塚市","municipality_code_method":"nearest_centroid"},"geometry":{"type":"Point","coordinates":[135.340582,34.44381]}},{"type":"Feature","properties":{"layer_id":"cultural_facilities","name":"貝塚市立総合体育館","category":"public","address":"畠中1-1-13-1","source":"国土交通省 国土数値情報","municipality_code":"27208","municipality_pref":"大阪府","municipality_name":"貝塚市","municipality_code_method":"nearest_centroid"},"geometry":{"type":"Point","coordinates":[135.359999,34.43769]}},{"type":"Feature","properties":{"layer_id":"parks_playgrounds","name":"清児公園","category":"nature","address":"貝塚市","source":"国土交通省 国土数値情報","municipality_code":"27208","municipality_pref":"大阪府","municipality_name":"貝塚市","municipality_code_method":"nearest_centroid"},"geometry":{"type":"Point","coordinates":[135.36999469,34.42480328]}},{"type":"Feature","properties":{"layer_id":"parks_playgrounds","name":"堀公園","category":"nature","address":"貝塚市","source":"国土交通省 国土数値情報","municipality_code":"27208","municipality_pref":"大阪府","municipality_name":"貝塚市","municipality_code_method":"nearest_centroid"},"geometry":{"type":"Point","coordinates":[135.35948575,34.45089202]}},{"type":"Feature","properties":{"layer_id":"parks_playgrounds","name":"二色1号緑地","category":"nature","address":"貝塚市","source":"国土交通省 国土数値情報","municipality_code":"27208","municipality_pref":"大阪府","municipality_name":"貝塚市","municipality_code_method":"nearest_centroid"},"geometry":{"type":"Point","coordinates":[135.34717198,34.44559989]}},{"type":"Feature","properties":{"layer_id":"parks_playgrounds","name":"二色南緑地","category":"nature","address":"貝塚市","source":"国土交通省 国土数値情報","municipality_code":"27208","municipality_pref":"大阪府","municipality_name":"貝塚市","municipality_code_method":"nearest_centroid"},"geometry":{"type":"Point","coordinates":[135.33300508,34.44729153]}},{"type":"Feature","properties":{"layer_id":"parks_playgrounds","name":"東山ふれあい公園","category":"nature","address":"貝塚市","source":"国土交通省 国土数値情報","municipality_code":"27208","municipality_pref":"大阪府","municipality_name":"貝塚市","municipality_code_method":"nearest_centroid"},"geometry":{"type":"Point","coordinates":[135.38560715,34.41823712]}},{"type":"Feature","properties":{"layer_id":"parks_playgrounds","name":"市民の森","category":"nature","address":"貝塚市","source":"国土交通省 国土数値情報","municipality_code":"27208","municipality_pref":"大阪府","municipality_name":"貝塚市","municipality_code_method":"nearest_centroid"},"geometry":{"type":"Point","coordinates":[135.33918177,34.44341999]}},{"type":"Feature","properties":{"layer_id":"parks_playgrounds","name":"清名台公園","category":"nature","address":"貝塚市","source":"国土交通省 国土数値情報","municipality_code":"27208","municipality_pref":"大阪府","municipality_name":"貝塚市","municipality_code_method":"nearest_centroid"},"geometry":{"type":"Point","coordinates":[135.3713637,34.42361005]}},{"type":"Feature","properties":{"layer_id":"parks_playgrounds","name":"のぞみ公園","category":"nature","address":"貝塚市","source":"国土交通省 国土数値情報","municipality_code":"27208","municipality_pref":"大阪府","municipality_name":"貝塚市","municipality_code_method":"nearest_centroid"},"geometry":{"type":"Point","coordinates":[135.36138975,34.45522204]}},{"type":"Feature","properties":{"layer_id":"parks_playgrounds","name":"地蔵堂公園","category":"nature","address":"貝塚市","source":"国土交通省 国土数値情報","municipality_code":"27208","municipality_pref":"大阪府","municipality_name":"貝塚市","municipality_code_method":"nearest_centroid"},"geometry":{"type":"Point","coordinates":[135.35592654,34.42536083]}},{"type":"Feature","properties":{"layer_id":"parks_playgrounds","name":"二色の浜公園","category":"nature","address":"貝塚市","source":"国土交通省 国土数値情報","municipality_code":"27208","municipality_pref":"大阪府","municipality_name":"貝塚市","municipality_code_method":"nearest_centroid"},"geometry":{"type":"Point","coordinates":[135.33664675,34.4382453]}},{"type":"Feature","properties":{"layer_id":"parks_playgrounds","name":"市民庭園","category":"nature","address":"貝塚市","source":"国土交通省 国土数値情報","municipality_code":"27208","municipality_pref":"大阪府","municipality_name":"貝塚市","municipality_code_method":"nearest_centroid"},"geometry":{"type":"Point","coordinates":[135.37005778,34.44138887]}},{"type":"Feature","properties":{"layer_id":"parks_playgrounds","name":"沢二色公園","category":"nature","address":"貝塚市","source":"国土交通省 国土数値情報","municipality_code":"27208","municipality_pref":"大阪府","municipality_name":"貝塚市","municipality_code_method":"nearest_centroid"},"geometry":{"type":"Point","coordinates":[135.34363699,34.42881852]}},{"type":"Feature","properties":{"layer_id":"parks_playgrounds","name":"二色中緑地","category":"nature","address":"貝塚市","source":"国土交通省 国土数値情報","municipality_code":"27208","municipality_pref":"大阪府","municipality_name":"貝塚市","municipality_code_method":"nearest_centroid"},"geometry":{"type":"Point","coordinates":[135.33694678,34.46007441]}},{"type":"Feature","properties":{"layer_id":"parks_playgrounds","name":"中央団地公園","category":"nature","address":"貝塚市","source":"国土交通省 国土数値情報","municipality_code":"27208","municipality_pref":"大阪府","municipality_name":"貝塚市","municipality_code_method":"nearest_centroid"},"geometry":{"type":"Point","coordinates":[135.36594204,34.42902849]}},{"type":"Feature","properties":{"layer_id":"parks_playgrounds","name":"福田公園","category":"nature","address":"貝塚市","source":"国土交通省 国土数値情報","municipality_code":"27208","municipality_pref":"大阪府","municipality_name":"貝塚市","municipality_code_method":"nearest_centroid"},"geometry":{"type":"Point","coordinates":[135.36701004,34.43872218]}},{"type":"Feature","properties":{"layer_id":"parks_playgrounds","name":"東山きた公園","category":"nature","address":"貝塚市","source":"国土交通省 国土数値情報","municipality_code":"27208","municipality_pref":"大阪府","municipality_name":"貝塚市","municipality_code_method":"nearest_centroid"},"geometry":{"type":"Point","coordinates":[135.39160564,34.41902577]}},{"type":"Feature","properties":{"layer_id":"parks_playgrounds","name":"石才公園","category":"nature","address":"貝塚市","source":"国土交通省 国土数値情報","municipality_code":"27208","municipality_pref":"大阪府","municipality_name":"貝塚市","municipality_code_method":"nearest_centroid"},"geometry":{"type":"Point","coordinates":[135.36639632,34.43091308]}}],"display_comment_original":"貝塚市には、地域の由緒を示す案内板や石碑を探す余地がある。 まずは古代史・遺跡、社寺・地域信仰、近代化・産業遺産を軸に、地区の由緒を拾える場所を探したい。 現地では石碑、地蔵、地域資料館、公民館の由緒板を、既存ピンと照らして歩くと発見しやすい。","story_enrichment":{"samurai_priority_people":[],"notable_people":[],"honorary_citizens":[],"tourism_landmarks":["水間寺","孝恩寺","願泉寺","紀州街道 水間街道 小栗街道 粉河街道","熊野街道（熊野古道）","千石堀城","積善寺城","奥水間温泉"],"specialties":[],"food_culture":[],"historical_domains":[],"heian_place_names":[],"japan_search_support":[],"enrichment_sources":["https://ja.wikipedia.org/wiki/%E8%B2%9D%E5%A1%9A%E5%B8%82"],"enrichment_errors":[],"wikipedia_title":"貝塚市","wikipedia_revision_id":"110743520","wikidata_qid":"Q908972","wikipedia_url":"https://ja.wikipedia.org/wiki/%E8%B2%9D%E5%A1%9A%E5%B8%82","japan_search_query_url":"","status":"wikipedia_ok"}}