{"type":"FeatureCollection","municipality_code":"28101","pref":"兵庫県","city":"神戸市東灘区","display_comment":"神戸市東灘区には、江戸期の岸和田藩と岸和田城跡に連なる領主・城下の記憶が残っています。 周辺には城跡や陣屋跡、寺社や信仰の場にまつわる場所が点在し、「岸和田城跡」、「天性寺」などを起点に歩くと、地域の歴史がぐっと見えやすくなります。 現地では城跡・陣屋跡が、地域の歴史を読み解く手がかりになるでしょう。 さらに岸和田藩にゆかりのある領主碑や旧領境のしるべも、現地で探してみたい歴史の手がかりです。 ゆかりの人物では高島忠夫や葦原邦子に注目すると、地域に残る文化や時代背景をさらに深く知るきっかけになります。 「処女塚古墳（御影塚町）」や「東明八幡神社（御影塚町）」などの名所も、地域の物語を深掘りする絶好の入口です。 さらに平安期の地名として伝わる北野神社領山路荘を知っておくと、古い土地の呼び名にも気づきやすくなります。","layer_counts":{"cafe_restaurant":49,"public_facilities":24,"scenic_nature_areas":1,"cultural_facilities":14,"parks_playgrounds":109},"total_features":197,"features":[{"type":"Feature","properties":{"layer_id":"cafe_restaurant","name":"スターバックスコーヒー　阪神御影クラッセ店","category":"food","address":"兵庫県神戸市東灘区御影中町3丁目2-1 御影クラッセ　1Fー104","source":"厚生労働省 食品衛生申請等システム（オープンデータ）","municipality_code":"28101","municipality_pref":"兵庫県","municipality_name":"神戸市東灘区","municipality_code_method":"address_pref_city"},"geometry":{"type":"Point","coordinates":[135.255116,34.715659]}},{"type":"Feature","properties":{"layer_id":"cafe_restaurant","name":"リブ住吉　グリーン・グルメ","category":"food","address":"兵庫県神戸市東灘区住吉本町1-2-1　リブ住吉　西館1F　W-107","source":"厚生労働省 食品衛生申請等システム（オープンデータ）","municipality_code":"28101","municipality_pref":"兵庫県","municipality_name":"神戸市東灘区","municipality_code_method":"address_pref_city"},"geometry":{"type":"Point","coordinates":[135.262014,34.719883]}},{"type":"Feature","properties":{"layer_id":"cafe_restaurant","name":"グリーングルメ　岡本店","category":"food","address":"兵庫県神戸市東灘区岡本1丁目12-11　岡本東館ビル　１F","source":"厚生労働省 食品衛生申請等システム（オープンデータ）","municipality_code":"28101","municipality_pref":"兵庫県","municipality_name":"神戸市東灘区","municipality_code_method":"address_pref_city"},"geometry":{"type":"Point","coordinates":[135.276201,34.728262]}},{"type":"Feature","properties":{"layer_id":"cafe_restaurant","name":"株式会社いづよね","category":"food","address":"兵庫県神戸市東灘区御影塚町2丁目24","source":"厚生労働省 食品衛生申請等システム（オープンデータ）","municipality_code":"28101","municipality_pref":"兵庫県","municipality_name":"神戸市東灘区","municipality_code_method":"address_pref_city"},"geometry":{"type":"Point","coordinates":[135.247913,34.712878]}},{"type":"Feature","properties":{"layer_id":"cafe_restaurant","name":"株式会社ティ・アイ商事　魚崎北工場","category":"food","address":"兵庫県神戸市東灘区魚崎北町5-8-24 RHYTHM魚崎103","source":"厚生労働省 食品衛生申請等システム（オープンデータ）","municipality_code":"28101","municipality_pref":"兵庫県","municipality_name":"神戸市東灘区","municipality_code_method":"address_pref_city"},"geometry":{"type":"Point","coordinates":[135.27538,34.71946]}},{"type":"Feature","properties":{"layer_id":"cafe_restaurant","name":"なか卯　摂津本山店","category":"food","address":"兵庫県神戸市東灘区本山南町八丁目5番２３号 オルゴラード1F","source":"厚生労働省 食品衛生申請等システム（オープンデータ）","municipality_code":"28101","municipality_pref":"兵庫県","municipality_name":"神戸市東灘区","municipality_code_method":"address_pref_city"},"geometry":{"type":"Point","coordinates":[135.280498,34.724114]}},{"type":"Feature","properties":{"layer_id":"cafe_restaurant","name":"鳥忠　甲南本通店","category":"food","address":"兵庫県神戸市東灘区甲南町３－３－３０","source":"厚生労働省 食品衛生申請等システム（オープンデータ）","municipality_code":"28101","municipality_pref":"兵庫県","municipality_name":"神戸市東灘区","municipality_code_method":"address_pref_city"},"geometry":{"type":"Point","coordinates":[135.273755,34.720433]}},{"type":"Feature","properties":{"layer_id":"cafe_restaurant","name":"モスバーガーカインズ深江浜店","category":"food","address":"兵庫県神戸市東灘区深江浜町59－5","source":"厚生労働省 食品衛生申請等システム（オープンデータ）","municipality_code":"28101","municipality_pref":"兵庫県","municipality_name":"神戸市東灘区","municipality_code_method":"address_pref_city"},"geometry":{"type":"Point","coordinates":[135.299443,34.712453]}},{"type":"Feature","properties":{"layer_id":"cafe_restaurant","name":"牛角　御影店","category":"food","address":"兵庫県神戸市東灘区御影中町3-1-6 サンリーブ御影１Ｆ","source":"厚生労働省 食品衛生申請等システム（オープンデータ）","municipality_code":"28101","municipality_pref":"兵庫県","municipality_name":"神戸市東灘区","municipality_code_method":"address_pref_city"},"geometry":{"type":"Point","coordinates":[135.255561,34.716909]}},{"type":"Feature","properties":{"layer_id":"cafe_restaurant","name":"松屋　御影店","category":"food","address":"兵庫県神戸市東灘区御影中町1丁目6-7 シティーホームズ御影1F","source":"厚生労働省 食品衛生申請等システム（オープンデータ）","municipality_code":"28101","municipality_pref":"兵庫県","municipality_name":"神戸市東灘区","municipality_code_method":"address_pref_city"},"geometry":{"type":"Point","coordinates":[135.256526,34.715256]}},{"type":"Feature","properties":{"layer_id":"cafe_restaurant","name":"すき家　甲南店","category":"food","address":"兵庫県神戸市東灘区甲南町3丁目8-16","source":"厚生労働省 食品衛生申請等システム（オープンデータ）","municipality_code":"28101","municipality_pref":"兵庫県","municipality_name":"神戸市東灘区","municipality_code_method":"address_pref_city"},"geometry":{"type":"Point","coordinates":[135.27316,34.722071]}},{"type":"Feature","properties":{"layer_id":"cafe_restaurant","name":"すき家　摂津本山駅前店","category":"food","address":"兵庫県神戸市東灘区岡本1丁目3-33","source":"厚生労働省 食品衛生申請等システム（オープンデータ）","municipality_code":"28101","municipality_pref":"兵庫県","municipality_name":"神戸市東灘区","municipality_code_method":"address_pref_city"},"geometry":{"type":"Point","coordinates":[135.276057,34.726792]}},{"type":"Feature","properties":{"layer_id":"cafe_restaurant","name":"Asian Kitchen PAR 岡本店","category":"food","address":"兵庫県神戸市東灘区岡本1丁目11-21 グレイス岡本ビル　1階","source":"厚生労働省 食品衛生申請等システム（オープンデータ）","municipality_code":"28101","municipality_pref":"兵庫県","municipality_name":"神戸市東灘区","municipality_code_method":"address_pref_city"},"geometry":{"type":"Point","coordinates":[135.275102,34.728618]}},{"type":"Feature","properties":{"layer_id":"cafe_restaurant","name":"おた福商店神戸住吉店","category":"food","address":"兵庫県神戸市東灘区住吉宮町6-8-19 メゾン住吉103","source":"厚生労働省 食品衛生申請等システム（オープンデータ）","municipality_code":"28101","municipality_pref":"兵庫県","municipality_name":"神戸市東灘区","municipality_code_method":"address_pref_city"},"geometry":{"type":"Point","coordinates":[135.260678,34.716435]}},{"type":"Feature","properties":{"layer_id":"cafe_restaurant","name":"0H3868兵庫","category":"food","address":"兵庫県神戸市東灘区田中町2丁目9-10 コープは～とらんどハイム本山　1階","source":"厚生労働省 食品衛生申請等システム（オープンデータ）","municipality_code":"28101","municipality_pref":"兵庫県","municipality_name":"神戸市東灘区","municipality_code_method":"address_pref_city"},"geometry":{"type":"Point","coordinates":[135.274034,34.723978]}},{"type":"Feature","properties":{"layer_id":"cafe_restaurant","name":"0H3634兵庫","category":"food","address":"兵庫県神戸市東灘区森北町6丁目1-1 高齢者ケアセンター甲南　1階","source":"厚生労働省 食品衛生申請等システム（オープンデータ）","municipality_code":"28101","municipality_pref":"兵庫県","municipality_name":"神戸市東灘区","municipality_code_method":"address_pref_city"},"geometry":{"type":"Point","coordinates":[135.288608,34.735833]}},{"type":"Feature","properties":{"layer_id":"cafe_restaurant","name":"0H4549兵庫","category":"food","address":"兵庫県神戸市東灘区西岡本4丁目17-1 もとやま園　1階","source":"厚生労働省 食品衛生申請等システム（オープンデータ）","municipality_code":"28101","municipality_pref":"兵庫県","municipality_name":"神戸市東灘区","municipality_code_method":"address_pref_city"},"geometry":{"type":"Point","coordinates":[135.262474,34.725878]}},{"type":"Feature","properties":{"layer_id":"cafe_restaurant","name":"0H4236兵庫","category":"food","address":"兵庫県神戸市東灘区鴨子ケ原3丁目19-30 特別養護老人ホーム　かもこの風　1階","source":"厚生労働省 食品衛生申請等システム（オープンデータ）","municipality_code":"28101","municipality_pref":"兵庫県","municipality_name":"神戸市東灘区","municipality_code_method":"address_pref_city"},"geometry":{"type":"Point","coordinates":[135.249074,34.73324]}},{"type":"Feature","properties":{"layer_id":"cafe_restaurant","name":"0H3529兵庫","category":"food","address":"兵庫県神戸市東灘区鴨子ケ原2丁目14-17 神戸老人ホーム友愛苑　1階","source":"厚生労働省 食品衛生申請等システム（オープンデータ）","municipality_code":"28101","municipality_pref":"兵庫県","municipality_name":"神戸市東灘区","municipality_code_method":"address_pref_city"},"geometry":{"type":"Point","coordinates":[135.250385,34.734212]}},{"type":"Feature","properties":{"layer_id":"cafe_restaurant","name":"0H3531兵庫","category":"food","address":"兵庫県神戸市東灘区住吉本町3丁目7-41 神戸老人ホーム住吉苑　1階","source":"厚生労働省 食品衛生申請等システム（オープンデータ）","municipality_code":"28101","municipality_pref":"兵庫県","municipality_name":"神戸市東灘区","municipality_code_method":"address_pref_city"},"geometry":{"type":"Point","coordinates":[135.259292,34.724039]}},{"type":"Feature","properties":{"layer_id":"cafe_restaurant","name":"神戸薬科大学生協寮食堂","category":"food","address":"兵庫県神戸市東灘区本山北町4丁目１９－１","source":"厚生労働省 食品衛生申請等システム（オープンデータ）","municipality_code":"28101","municipality_pref":"兵庫県","municipality_name":"神戸市東灘区","municipality_code_method":"address_pref_city"},"geometry":{"type":"Point","coordinates":[135.283789,34.732619]}},{"type":"Feature","properties":{"layer_id":"cafe_restaurant","name":"cafe du SINQ","category":"food","address":"兵庫県神戸市東灘区田中町３丁目19-16 ハイツタケシ103","source":"厚生労働省 食品衛生申請等システム（オープンデータ）","municipality_code":"28101","municipality_pref":"兵庫県","municipality_name":"神戸市東灘区","municipality_code_method":"address_pref_city"},"geometry":{"type":"Point","coordinates":[135.272922,34.725035]}},{"type":"Feature","properties":{"layer_id":"cafe_restaurant","name":"まごころ弁当東神戸店","category":"food","address":"兵庫県神戸市東灘区魚崎北町2丁目9-17 ベステップ魚崎１階","source":"厚生労働省 食品衛生申請等システム（オープンデータ）","municipality_code":"28101","municipality_pref":"兵庫県","municipality_name":"神戸市東灘区","municipality_code_method":"address_pref_city"},"geometry":{"type":"Point","coordinates":[135.275031,34.717833]}},{"type":"Feature","properties":{"layer_id":"cafe_restaurant","name":"やきとり大吉　青木店","category":"food","address":"兵庫県神戸市東灘区北青木２−９−２６","source":"厚生労働省 食品衛生申請等システム（オープンデータ）","municipality_code":"28101","municipality_pref":"兵庫県","municipality_name":"神戸市東灘区","municipality_code_method":"address_pref_city"},"geometry":{"type":"Point","coordinates":[135.282587,34.720727]}},{"type":"Feature","properties":{"layer_id":"cafe_restaurant","name":"神近珈琲","category":"food","address":"兵庫県神戸市東灘区御影1-13-16 サニーハイツ御影102","source":"厚生労働省 食品衛生申請等システム（オープンデータ）","municipality_code":"28101","municipality_pref":"兵庫県","municipality_name":"神戸市東灘区","municipality_code_method":"address_pref_city"},"geometry":{"type":"Point","coordinates":[135.251041,34.720989]}},{"type":"Feature","properties":{"layer_id":"cafe_restaurant","name":"リアンレーヴ東灘住吉","category":"food","address":"兵庫県神戸市東灘区住吉宮町1－7－8","source":"厚生労働省 食品衛生申請等システム（オープンデータ）","municipality_code":"28101","municipality_pref":"兵庫県","municipality_name":"神戸市東灘区","municipality_code_method":"address_pref_city"},"geometry":{"type":"Point","coordinates":[135.262809,34.712784]}},{"type":"Feature","properties":{"layer_id":"cafe_restaurant","name":"セブンイレブン神戸阪神深江駅北","category":"food","address":"兵庫県神戸市東灘区深江北町4丁目8-19 ドルフ深江スタツィオ1階","source":"厚生労働省 食品衛生申請等システム（オープンデータ）","municipality_code":"28101","municipality_pref":"兵庫県","municipality_name":"神戸市東灘区","municipality_code_method":"address_pref_city"},"geometry":{"type":"Point","coordinates":[135.291726,34.723207]}},{"type":"Feature","properties":{"layer_id":"cafe_restaurant","name":"クリエイションラボ","category":"food","address":"兵庫県神戸市東灘区魚崎浜町15番地2 神戸ヘッドオフィス　4F","source":"厚生労働省 食品衛生申請等システム（オープンデータ）","municipality_code":"28101","municipality_pref":"兵庫県","municipality_name":"神戸市東灘区","municipality_code_method":"address_pref_city"},"geometry":{"type":"Point","coordinates":[135.283418,34.704786]}},{"type":"Feature","properties":{"layer_id":"cafe_restaurant","name":"セブン-イレブン神戸赤鳥居前店","category":"food","address":"兵庫県神戸市東灘区本庄町2-12-15 Townee東灘","source":"厚生労働省 食品衛生申請等システム（オープンデータ）","municipality_code":"28101","municipality_pref":"兵庫県","municipality_name":"神戸市東灘区","municipality_code_method":"address_pref_city"},"geometry":{"type":"Point","coordinates":[135.290147,34.727365]}},{"type":"Feature","properties":{"layer_id":"cafe_restaurant","name":"誠味屋本店","category":"food","address":"兵庫県神戸市東灘区御影塚町4丁目9-21","source":"厚生労働省 食品衛生申請等システム（オープンデータ）","municipality_code":"28101","municipality_pref":"兵庫県","municipality_name":"神戸市東灘区","municipality_code_method":"address_pref_city"},"geometry":{"type":"Point","coordinates":[135.246436,34.712081]}},{"type":"Feature","properties":{"layer_id":"cafe_restaurant","name":"CAFFÈ＆BAR　HIKARI","category":"food","address":"兵庫県神戸市東灘区御影本町4－8－13 御影谷口ビル1F","source":"厚生労働省 食品衛生申請等システム（オープンデータ）","municipality_code":"28101","municipality_pref":"兵庫県","municipality_name":"神戸市東灘区","municipality_code_method":"address_pref_city"},"geometry":{"type":"Point","coordinates":[135.255464,34.714036]}},{"type":"Feature","properties":{"layer_id":"cafe_restaurant","name":"ジョリーパスタ　東灘店","category":"food","address":"兵庫県神戸市東灘区田中町4-5-5","source":"厚生労働省 食品衛生申請等システム（オープンデータ）","municipality_code":"28101","municipality_pref":"兵庫県","municipality_name":"神戸市東灘区","municipality_code_method":"address_pref_city"},"geometry":{"type":"Point","coordinates":[135.27025,34.721676]}},{"type":"Feature","properties":{"layer_id":"cafe_restaurant","name":"BB SHEEP COFFEE","category":"food","address":"兵庫県神戸市東灘区御影二丁目2番13号 サイトウビル2階","source":"厚生労働省 食品衛生申請等システム（オープンデータ）","municipality_code":"28101","municipality_pref":"兵庫県","municipality_name":"神戸市東灘区","municipality_code_method":"address_pref_city"},"geometry":{"type":"Point","coordinates":[135.253001,34.724523]}},{"type":"Feature","properties":{"layer_id":"cafe_restaurant","name":"豆腐スムージー PAPMA 神戸魚崎店","category":"food","address":"兵庫県神戸市東灘区魚崎南町３丁目22-8 ドムールコスモス魚崎南１F","source":"厚生労働省 食品衛生申請等システム（オープンデータ）","municipality_code":"28101","municipality_pref":"兵庫県","municipality_name":"神戸市東灘区","municipality_code_method":"address_pref_city"},"geometry":{"type":"Point","coordinates":[135.273489,34.71178]}},{"type":"Feature","properties":{"layer_id":"cafe_restaurant","name":"株式会社八百鮮　魚崎南店","category":"food","address":"兵庫県神戸市東灘区魚崎南町4丁目2-18","source":"厚生労働省 食品衛生申請等システム（オープンデータ）","municipality_code":"28101","municipality_pref":"兵庫県","municipality_name":"神戸市東灘区","municipality_code_method":"address_pref_city"},"geometry":{"type":"Point","coordinates":[135.272051,34.708371]}},{"type":"Feature","properties":{"layer_id":"cafe_restaurant","name":"Thé　coloré","category":"food","address":"兵庫県神戸市東灘区森北町2丁目2-21 サニーハイツ森北1階","source":"厚生労働省 食品衛生申請等システム（オープンデータ）","municipality_code":"28101","municipality_pref":"兵庫県","municipality_name":"神戸市東灘区","municipality_code_method":"address_pref_city"},"geometry":{"type":"Point","coordinates":[135.29055,34.730462]}},{"type":"Feature","properties":{"layer_id":"cafe_restaurant","name":"Ebir Brew Studio","category":"food","address":"兵庫県神戸市東灘区住吉東町3-7-12 1階","source":"厚生労働省 食品衛生申請等システム（オープンデータ）","municipality_code":"28101","municipality_pref":"兵庫県","municipality_name":"神戸市東灘区","municipality_code_method":"address_pref_city"},"geometry":{"type":"Point","coordinates":[135.265813,34.714662]}},{"type":"Feature","properties":{"layer_id":"cafe_restaurant","name":"Patisserie & Dessert Frais Senteur","category":"food","address":"兵庫県神戸市東灘区田中町２丁目２－１４  1F","source":"厚生労働省 食品衛生申請等システム（オープンデータ）","municipality_code":"28101","municipality_pref":"兵庫県","municipality_name":"神戸市東灘区","municipality_code_method":"address_pref_city"},"geometry":{"type":"Point","coordinates":[135.27512,34.723066]}},{"type":"Feature","properties":{"layer_id":"cafe_restaurant","name":"Lou's forest","category":"food","address":"兵庫県神戸市東灘区住吉本町1-24-39 カーサブランカ1F","source":"厚生労働省 食品衛生申請等システム（オープンデータ）","municipality_code":"28101","municipality_pref":"兵庫県","municipality_name":"神戸市東灘区","municipality_code_method":"address_pref_city"},"geometry":{"type":"Point","coordinates":[135.261105,34.722092]}},{"type":"Feature","properties":{"layer_id":"cafe_restaurant","name":"Cafe&Bar　YOASOBI","category":"food","address":"兵庫県神戸市東灘区御影本町2-17-12","source":"厚生労働省 食品衛生申請等システム（オープンデータ）","municipality_code":"28101","municipality_pref":"兵庫県","municipality_name":"神戸市東灘区","municipality_code_method":"address_pref_city"},"geometry":{"type":"Point","coordinates":[135.256802,34.7147]}},{"type":"Feature","properties":{"layer_id":"cafe_restaurant","name":"FOOD9","category":"food","address":"兵庫県神戸市東灘区甲南町３丁目9-3 ブラウンコート101号室","source":"厚生労働省 食品衛生申請等システム（オープンデータ）","municipality_code":"28101","municipality_pref":"兵庫県","municipality_name":"神戸市東灘区","municipality_code_method":"address_pref_city"},"geometry":{"type":"Point","coordinates":[135.27294,34.721692]}},{"type":"Feature","properties":{"layer_id":"cafe_restaurant","name":"（株）浪花昆布（佃真）","category":"food","address":"兵庫県神戸市東灘区御影塚町3-10-11","source":"厚生労働省 食品衛生申請等システム（オープンデータ）","municipality_code":"28101","municipality_pref":"兵庫県","municipality_name":"神戸市東灘区","municipality_code_method":"address_pref_city"},"geometry":{"type":"Point","coordinates":[135.244587,34.709607]}},{"type":"Feature","properties":{"layer_id":"cafe_restaurant","name":"つき次","category":"food","address":"兵庫県神戸市東灘区北青木3丁目13-7 ルミエール青木103","source":"厚生労働省 食品衛生申請等システム（オープンデータ）","municipality_code":"28101","municipality_pref":"兵庫県","municipality_name":"神戸市東灘区","municipality_code_method":"address_pref_city"},"geometry":{"type":"Point","coordinates":[135.280276,34.718088]}},{"type":"Feature","properties":{"layer_id":"cafe_restaurant","name":"mogiyomogi神戸本庄店","category":"food","address":"兵庫県神戸市東灘区本庄町2丁目5-8 プレミール神戸本庄町102号","source":"厚生労働省 食品衛生申請等システム（オープンデータ）","municipality_code":"28101","municipality_pref":"兵庫県","municipality_name":"神戸市東灘区","municipality_code_method":"address_pref_city"},"geometry":{"type":"Point","coordinates":[135.290825,34.72593]}},{"type":"Feature","properties":{"layer_id":"cafe_restaurant","name":"ベーカリーテーブル岡本","category":"food","address":"兵庫県神戸市東灘区岡本1-8-21 ドンクグルメ館2階","source":"厚生労働省 食品衛生申請等システム（オープンデータ）","municipality_code":"28101","municipality_pref":"兵庫県","municipality_name":"神戸市東灘区","municipality_code_method":"address_pref_city"},"geometry":{"type":"Point","coordinates":[135.275939,34.728151]}},{"type":"Feature","properties":{"layer_id":"cafe_restaurant","name":"丸亀製麺御影塚町","category":"food","address":"兵庫県神戸市東灘区御影塚町1-5-12","source":"厚生労働省 食品衛生申請等システム（オープンデータ）","municipality_code":"28101","municipality_pref":"兵庫県","municipality_name":"神戸市東灘区","municipality_code_method":"address_pref_city"},"geometry":{"type":"Point","coordinates":[135.247924,34.709453]}},{"type":"Feature","properties":{"layer_id":"cafe_restaurant","name":"そんぽの家S 甲南山手","category":"food","address":"兵庫県神戸市東灘区本庄町3丁目9番21号","source":"厚生労働省 食品衛生申請等システム（オープンデータ）","municipality_code":"28101","municipality_pref":"兵庫県","municipality_name":"神戸市東灘区","municipality_code_method":"address_pref_city"},"geometry":{"type":"Point","coordinates":[135.288566,34.726773]}},{"type":"Feature","properties":{"layer_id":"cafe_restaurant","name":"味噌蔵屋","category":"food","address":"兵庫県神戸市東灘区岡本1丁目9-6 ダイエー本山店　1F東テナント","source":"厚生労働省 食品衛生申請等システム（オープンデータ）","municipality_code":"28101","municipality_pref":"兵庫県","municipality_name":"神戸市東灘区","municipality_code_method":"address_pref_city"},"geometry":{"type":"Point","coordinates":[135.275119,34.727552]}},{"type":"Feature","properties":{"layer_id":"cafe_restaurant","name":"Stir","category":"food","address":"兵庫県神戸市東灘区御影本町4-7-14 駅前ウエダビル1FA","source":"厚生労働省 食品衛生申請等システム（オープンデータ）","municipality_code":"28101","municipality_pref":"兵庫県","municipality_name":"神戸市東灘区","municipality_code_method":"address_pref_city"},"geometry":{"type":"Point","coordinates":[135.256123,34.714205]}},{"type":"Feature","properties":{"layer_id":"public_facilities","name":"本山南地域福祉センター","category":"public","address":"神戸市東灘区本山南町7-1-20","source":"国土交通省 国土数値情報","municipality_code":"28101","municipality_pref":"兵庫県","municipality_name":"神戸市東灘区","municipality_code_method":"source_exact_coord"},"geometry":{"type":"Point","coordinates":[135.2861051,34.72435508]}},{"type":"Feature","properties":{"layer_id":"public_facilities","name":"本山東地域福祉センター","category":"public","address":"神戸市東灘区森南町2-8-28","source":"国土交通省 国土数値情報","municipality_code":"28101","municipality_pref":"兵庫県","municipality_name":"神戸市東灘区","municipality_code_method":"source_exact_coord"},"geometry":{"type":"Point","coordinates":[135.2899908,34.72924349]}},{"type":"Feature","properties":{"layer_id":"public_facilities","name":"東灘区民センター本館","category":"public","address":"東灘区住吉東町5-1-16","source":"国土交通省 国土数値情報","municipality_code":"28101","municipality_pref":"兵庫県","municipality_name":"神戸市東灘区","municipality_code_method":"source_exact_coord"},"geometry":{"type":"Point","coordinates":[135.263319,34.719272]}},{"type":"Feature","properties":{"layer_id":"public_facilities","name":"渦が森地域福祉センター","category":"public","address":"神戸市東灘区渦森台1-2-1","source":"国土交通省 国土数値情報","municipality_code":"28101","municipality_pref":"兵庫県","municipality_name":"神戸市東灘区","municipality_code_method":"source_exact_coord"},"geometry":{"type":"Point","coordinates":[135.2522662,34.7383197]}},{"type":"Feature","properties":{"layer_id":"public_facilities","name":"魚崎地域福祉センター","category":"public","address":"神戸市東灘区魚崎中町4-3-16","source":"国土交通省 国土数値情報","municipality_code":"28101","municipality_pref":"兵庫県","municipality_name":"神戸市東灘区","municipality_code_method":"source_exact_coord"},"geometry":{"type":"Point","coordinates":[135.271379,34.71392824]}},{"type":"Feature","properties":{"layer_id":"public_facilities","name":"渦森会館","category":"public","address":"東灘区渦森台2-21-1","source":"国土交通省 国土数値情報","municipality_code":"28101","municipality_pref":"兵庫県","municipality_name":"神戸市東灘区","municipality_code_method":"source_exact_coord"},"geometry":{"type":"Point","coordinates":[135.24850271,34.73581322]}},{"type":"Feature","properties":{"layer_id":"public_facilities","name":"東灘区文化センター","category":"public","address":"神戸市東灘区住吉東町5-1-16","source":"国土交通省 国土数値情報","municipality_code":"28101","municipality_pref":"兵庫県","municipality_name":"神戸市東灘区","municipality_code_method":"source_exact_coord"},"geometry":{"type":"Point","coordinates":[135.2633018,34.71926645]}},{"type":"Feature","properties":{"layer_id":"public_facilities","name":"東灘体育館","category":"public","address":"東灘区魚崎南町6-5-11","source":"国土交通省 国土数値情報","municipality_code":"28101","municipality_pref":"兵庫県","municipality_name":"神戸市東灘区","municipality_code_method":"source_exact_coord"},"geometry":{"type":"Point","coordinates":[135.278137,34.714723]}},{"type":"Feature","properties":{"layer_id":"public_facilities","name":"青木南地域福祉センター","category":"public","address":"神戸市東灘区青木4-2-20","source":"国土交通省 国土数値情報","municipality_code":"28101","municipality_pref":"兵庫県","municipality_name":"神戸市東灘区","municipality_code_method":"source_exact_coord"},"geometry":{"type":"Point","coordinates":[135.2865413,34.71891122]}},{"type":"Feature","properties":{"layer_id":"public_facilities","name":"浜御影地域福祉センター","category":"public","address":"神戸市東灘区御影本町6-2-14","source":"国土交通省 国土数値情報","municipality_code":"28101","municipality_pref":"兵庫県","municipality_name":"神戸市東灘区","municipality_code_method":"source_exact_coord"},"geometry":{"type":"Point","coordinates":[135.2555027,34.71216988]}},{"type":"Feature","properties":{"layer_id":"public_facilities","name":"魚崎南地域福祉センター","category":"public","address":"神戸市東灘区魚崎南町2-9-4","source":"国土交通省 国土数値情報","municipality_code":"28101","municipality_pref":"兵庫県","municipality_name":"神戸市東灘区","municipality_code_method":"source_exact_coord"},"geometry":{"type":"Point","coordinates":[135.2770369,34.71151188]}},{"type":"Feature","properties":{"layer_id":"public_facilities","name":"本庄地域福祉センター","category":"public","address":"神戸市東灘区本庄町2-5-1","source":"国土交通省 国土数値情報","municipality_code":"28101","municipality_pref":"兵庫県","municipality_name":"神戸市東灘区","municipality_code_method":"source_exact_coord"},"geometry":{"type":"Point","coordinates":[135.2914129,34.7261494]}},{"type":"Feature","properties":{"layer_id":"public_facilities","name":"神戸市東灘区役所","category":"public","address":"東灘区住吉東町5-2-1","source":"国土交通省 国土数値情報","municipality_code":"28101","municipality_pref":"兵庫県","municipality_name":"神戸市東灘区","municipality_code_method":"source_exact_coord"},"geometry":{"type":"Point","coordinates":[135.265429,34.720159]}},{"type":"Feature","properties":{"layer_id":"public_facilities","name":"住之江公民館","category":"public","address":"神戸市東灘区住吉宮町2-2-3本館","source":"国土交通省 国土数値情報","municipality_code":"28101","municipality_pref":"兵庫県","municipality_name":"神戸市東灘区","municipality_code_method":"source_exact_coord"},"geometry":{"type":"Point","coordinates":[135.2636492,34.71399201]}},{"type":"Feature","properties":{"layer_id":"public_facilities","name":"東灘区民センター小ホール","category":"public","address":"東灘区魚崎中町4-3-16","source":"国土交通省 国土数値情報","municipality_code":"28101","municipality_pref":"兵庫県","municipality_name":"神戸市東灘区","municipality_code_method":"source_exact_coord"},"geometry":{"type":"Point","coordinates":[135.27138,34.713962]}},{"type":"Feature","properties":{"layer_id":"public_facilities","name":"深江南地域福祉センター","category":"public","address":"神戸市東灘区深江南町3-4-24","source":"国土交通省 国土数値情報","municipality_code":"28101","municipality_pref":"兵庫県","municipality_name":"神戸市東灘区","municipality_code_method":"source_exact_coord"},"geometry":{"type":"Point","coordinates":[135.2960987,34.72192492]}},{"type":"Feature","properties":{"layer_id":"public_facilities","name":"本山西地域福祉センター","category":"public","address":"神戸市東灘区西岡本4-8-7","source":"国土交通省 国土数値情報","municipality_code":"28101","municipality_pref":"兵庫県","municipality_name":"神戸市東灘区","municipality_code_method":"source_exact_coord"},"geometry":{"type":"Point","coordinates":[135.2641627,34.72626293]}},{"type":"Feature","properties":{"layer_id":"public_facilities","name":"御影北地域福祉センター","category":"public","address":"神戸市東灘区御影2-28-13","source":"国土交通省 国土数値情報","municipality_code":"28101","municipality_pref":"兵庫県","municipality_name":"神戸市東灘区","municipality_code_method":"source_exact_coord"},"geometry":{"type":"Point","coordinates":[135.2502195,34.72246591]}},{"type":"Feature","properties":{"layer_id":"public_facilities","name":"六甲アイランド地域福祉センター","category":"public","address":"神戸市東灘区向洋町中3-1-6","source":"国土交通省 国土数値情報","municipality_code":"28101","municipality_pref":"兵庫県","municipality_name":"神戸市東灘区","municipality_code_method":"source_exact_coord"},"geometry":{"type":"Point","coordinates":[135.2744377,34.68780044]}},{"type":"Feature","properties":{"layer_id":"public_facilities","name":"住吉地域福祉センター","category":"public","address":"神戸市東灘区住吉宮町3-2-18","source":"国土交通省 国土数値情報","municipality_code":"28101","municipality_pref":"兵庫県","municipality_name":"神戸市東灘区","municipality_code_method":"source_exact_coord"},"geometry":{"type":"Point","coordinates":[135.2632686,34.71682505]}},{"type":"Feature","properties":{"layer_id":"public_facilities","name":"福池地域福祉センター","category":"public","address":"神戸市東灘区本山南町5-4-11","source":"国土交通省 国土数値情報","municipality_code":"28101","municipality_pref":"兵庫県","municipality_name":"神戸市東灘区","municipality_code_method":"source_exact_coord"},"geometry":{"type":"Point","coordinates":[135.2774533,34.72074704]}},{"type":"Feature","properties":{"layer_id":"public_facilities","name":"御影公会堂","category":"public","address":"東灘区御影石町4-4-1","source":"国土交通省 国土数値情報","municipality_code":"28101","municipality_pref":"兵庫県","municipality_name":"神戸市東灘区","municipality_code_method":"source_exact_coord"},"geometry":{"type":"Point","coordinates":[135.249279,34.716075]}},{"type":"Feature","properties":{"layer_id":"public_facilities","name":"向洋地域福祉センター","category":"public","address":"神戸市東灘区向洋町中6-3-2","source":"国土交通省 国土数値情報","municipality_code":"28101","municipality_pref":"兵庫県","municipality_name":"神戸市東灘区","municipality_code_method":"source_exact_coord"},"geometry":{"type":"Point","coordinates":[135.2638498,34.68818372]}},{"type":"Feature","properties":{"layer_id":"public_facilities","name":"本山地域福祉センター","category":"public","address":"神戸市東灘区岡本1-7-3","source":"国土交通省 国土数値情報","municipality_code":"28101","municipality_pref":"兵庫県","municipality_name":"神戸市東灘区","municipality_code_method":"source_exact_coord"},"geometry":{"type":"Point","coordinates":[135.2768642,34.72815734]}},{"type":"Feature","properties":{"layer_id":"scenic_nature_areas","name":"自然公園特別保護地区","category":"nature","source":"国土交通省 国土数値情報","municipality_code":"28101","municipality_pref":"兵庫県","municipality_name":"神戸市東灘区","municipality_code_method":"nearest_centroid","resource_class":"自然公園特別保護地区","source_dataset_code":"A10"},"geometry":{"type":"Polygon","coordinates":[[[135.26380699999999,34.77767199999998],[135.26395500000007,34.777513000000056],[135.26397300000005,34.77704700000005],[135.26389005692582,34.77692848581068],[135.263705,34.777964],[135.26374533819953,34.77796856389765],[135.26380699999999,34.77767199999998]]]}},{"type":"Feature","properties":{"layer_id":"cultural_facilities","name":"白鶴酒造資料館","category":"public","address":"住吉南町4-5-5","source":"国土交通省 国土数値情報","municipality_code":"28101","municipality_pref":"兵庫県","municipality_name":"神戸市東灘区","municipality_code_method":"nearest_centroid"},"geometry":{"type":"Point","coordinates":[135.26104299999997,34.71028200000001]}},{"type":"Feature","properties":{"layer_id":"cultural_facilities","name":"東灘体育館","category":"public","address":"魚崎南町6-5-11","source":"国土交通省 国土数値情報","municipality_code":"28101","municipality_pref":"兵庫県","municipality_name":"神戸市東灘区","municipality_code_method":"nearest_centroid"},"geometry":{"type":"Point","coordinates":[135.278149,34.71459599999999]}},{"type":"Feature","properties":{"layer_id":"cultural_facilities","name":"菊正宗酒造記念館","category":"public","address":"魚崎西町1-9-1","source":"国土交通省 国土数値情報","municipality_code":"28101","municipality_pref":"兵庫県","municipality_name":"神戸市東灘区","municipality_code_method":"nearest_centroid"},"geometry":{"type":"Point","coordinates":[135.26785800000002,34.70868700000002]}},{"type":"Feature","properties":{"layer_id":"cultural_facilities","name":"東灘体育館","category":"public","address":"魚崎南町6-5-11","source":"国土交通省 国土数値情報","municipality_code":"28101","municipality_pref":"兵庫県","municipality_name":"神戸市東灘区","municipality_code_method":"nearest_centroid"},"geometry":{"type":"Point","coordinates":[135.27806599999997,34.71482999999999]}},{"type":"Feature","properties":{"layer_id":"cultural_facilities","name":"神戸国際大学情報センター図書館","category":"public","address":"向洋町中9-1-6","source":"国土交通省 国土数値情報","municipality_code":"28101","municipality_pref":"兵庫県","municipality_name":"神戸市東灘区","municipality_code_method":"nearest_centroid"},"geometry":{"type":"Point","coordinates":[135.27023500000004,34.68152100000001]}},{"type":"Feature","properties":{"layer_id":"cultural_facilities","name":"神戸市立小磯記念美術館","category":"public","address":"向洋町中5-7（六甲アイランド公園内）","source":"国土交通省 国土数値情報","municipality_code":"28101","municipality_pref":"兵庫県","municipality_name":"神戸市東灘区","municipality_code_method":"nearest_centroid"},"geometry":{"type":"Point","coordinates":[135.26748799999996,34.69269399999996]}},{"type":"Feature","properties":{"layer_id":"cultural_facilities","name":"香雪美術館","category":"public","address":"御影郡家2-12-1","source":"国土交通省 国土数値情報","municipality_code":"28101","municipality_pref":"兵庫県","municipality_name":"神戸市東灘区","municipality_code_method":"nearest_centroid"},"geometry":{"type":"Point","coordinates":[135.25609999999998,34.723524]}},{"type":"Feature","properties":{"layer_id":"cultural_facilities","name":"神戸薬科大学図書館","category":"public","address":"本山北町4-19-1","source":"国土交通省 国土数値情報","municipality_code":"28101","municipality_pref":"兵庫県","municipality_name":"神戸市東灘区","municipality_code_method":"nearest_centroid"},"geometry":{"type":"Point","coordinates":[135.28324099999998,34.73195799999999]}},{"type":"Feature","properties":{"layer_id":"cultural_facilities","name":"神戸市立東灘図書館","category":"public","address":"岡本1-7-3","source":"国土交通省 国土数値情報","municipality_code":"28101","municipality_pref":"兵庫県","municipality_name":"神戸市東灘区","municipality_code_method":"nearest_centroid"},"geometry":{"type":"Point","coordinates":[135.27682,34.72816299999996]}},{"type":"Feature","properties":{"layer_id":"cultural_facilities","name":"神戸大学附属図書館海事科学分館","category":"public","address":"深江南町5-1-1","source":"国土交通省 国土数値情報","municipality_code":"28101","municipality_pref":"兵庫県","municipality_name":"神戸市東灘区","municipality_code_method":"nearest_centroid"},"geometry":{"type":"Point","coordinates":[135.28946899999994,34.71844700000003]}},{"type":"Feature","properties":{"layer_id":"cultural_facilities","name":"甲南大学図書館","category":"public","address":"岡本8-9-1","source":"国土交通省 国土数値情報","municipality_code":"28101","municipality_pref":"兵庫県","municipality_name":"神戸市東灘区","municipality_code_method":"nearest_centroid"},"geometry":{"type":"Point","coordinates":[135.26784899999998,34.72898300000004]}},{"type":"Feature","properties":{"layer_id":"cultural_facilities","name":"神戸ファッション美術館","category":"public","address":"向洋町中2-9-1","source":"国土交通省 国土数値情報","municipality_code":"28101","municipality_pref":"兵庫県","municipality_name":"神戸市東灘区","municipality_code_method":"nearest_centroid"},"geometry":{"type":"Point","coordinates":[135.27054400000003,34.68824999999997]}},{"type":"Feature","properties":{"layer_id":"cultural_facilities","name":"東灘体育館","category":"public","address":"魚崎南町6-5-11","source":"国土交通省 国土数値情報","municipality_code":"28101","municipality_pref":"兵庫県","municipality_name":"神戸市東灘区","municipality_code_method":"nearest_centroid"},"geometry":{"type":"Point","coordinates":[135.278137,34.71472300000002]}},{"type":"Feature","properties":{"layer_id":"cultural_facilities","name":"白鶴美術館","category":"public","address":"住吉山手6-1-1","source":"国土交通省 国土数値情報","municipality_code":"28101","municipality_pref":"兵庫県","municipality_name":"神戸市東灘区","municipality_code_method":"nearest_centroid"},"geometry":{"type":"Point","coordinates":[135.25804399999998,34.73074599999998]}},{"type":"Feature","properties":{"layer_id":"parks_playgrounds","name":"本山北町公園","category":"nature","address":"神戸市","source":"国土交通省 国土数値情報","municipality_code":"28101","municipality_pref":"兵庫県","municipality_name":"神戸市東灘区","municipality_code_method":"nearest_centroid"},"geometry":{"type":"Point","coordinates":[135.28098619,34.7293948]}},{"type":"Feature","properties":{"layer_id":"parks_playgrounds","name":"住吉台公園","category":"nature","address":"神戸市","source":"国土交通省 国土数値情報","municipality_code":"28101","municipality_pref":"兵庫県","municipality_name":"神戸市東灘区","municipality_code_method":"nearest_centroid"},"geometry":{"type":"Point","coordinates":[135.25778337,34.73366024]}},{"type":"Feature","properties":{"layer_id":"parks_playgrounds","name":"大山田公園","category":"nature","address":"神戸市","source":"国土交通省 国土数値情報","municipality_code":"28101","municipality_pref":"兵庫県","municipality_name":"神戸市東灘区","municipality_code_method":"nearest_centroid"},"geometry":{"type":"Point","coordinates":[135.26177227,34.73016841]}},{"type":"Feature","properties":{"layer_id":"parks_playgrounds","name":"西の坪公園","category":"nature","address":"神戸市","source":"国土交通省 国土数値情報","municipality_code":"28101","municipality_pref":"兵庫県","municipality_name":"神戸市東灘区","municipality_code_method":"nearest_centroid"},"geometry":{"type":"Point","coordinates":[135.27775103,34.71682955]}},{"type":"Feature","properties":{"layer_id":"parks_playgrounds","name":"向洋西公園","category":"nature","address":"神戸市","source":"国土交通省 国土数値情報","municipality_code":"28101","municipality_pref":"兵庫県","municipality_name":"神戸市東灘区","municipality_code_method":"nearest_centroid"},"geometry":{"type":"Point","coordinates":[135.26641556,34.6877729]}},{"type":"Feature","properties":{"layer_id":"parks_playgrounds","name":"小林公園","category":"nature","address":"神戸市","source":"国土交通省 国土数値情報","municipality_code":"28101","municipality_pref":"兵庫県","municipality_name":"神戸市東灘区","municipality_code_method":"nearest_centroid"},"geometry":{"type":"Point","coordinates":[135.25808006,34.72595625]}},{"type":"Feature","properties":{"layer_id":"parks_playgrounds","name":"魚崎西町南公園","category":"nature","address":"神戸市","source":"国土交通省 国土数値情報","municipality_code":"28101","municipality_pref":"兵庫県","municipality_name":"神戸市東灘区","municipality_code_method":"nearest_centroid"},"geometry":{"type":"Point","coordinates":[135.2679599,34.70974508]}},{"type":"Feature","properties":{"layer_id":"parks_playgrounds","name":"小坂山公園","category":"nature","address":"神戸市","source":"国土交通省 国土数値情報","municipality_code":"28101","municipality_pref":"兵庫県","municipality_name":"神戸市東灘区","municipality_code_method":"nearest_centroid"},"geometry":{"type":"Point","coordinates":[135.25962263,34.72678354]}},{"type":"Feature","properties":{"layer_id":"parks_playgrounds","name":"川井公園","category":"nature","address":"神戸市","source":"国土交通省 国土数値情報","municipality_code":"28101","municipality_pref":"兵庫県","municipality_name":"神戸市東灘区","municipality_code_method":"nearest_centroid"},"geometry":{"type":"Point","coordinates":[135.27395578,34.71756421]}},{"type":"Feature","properties":{"layer_id":"parks_playgrounds","name":"中野北公園","category":"nature","address":"神戸市","source":"国土交通省 国土数値情報","municipality_code":"28101","municipality_pref":"兵庫県","municipality_name":"神戸市東灘区","municipality_code_method":"nearest_centroid"},"geometry":{"type":"Point","coordinates":[135.28394932,34.72792724]}},{"type":"Feature","properties":{"layer_id":"parks_playgrounds","name":"十文字山中公園","category":"nature","address":"神戸市","source":"国土交通省 国土数値情報","municipality_code":"28101","municipality_pref":"兵庫県","municipality_name":"神戸市東灘区","municipality_code_method":"nearest_centroid"},"geometry":{"type":"Point","coordinates":[135.26156811,34.73183473]}},{"type":"Feature","properties":{"layer_id":"parks_playgrounds","name":"向洋町中１丁目東公園","category":"nature","address":"神戸市","source":"国土交通省 国土数値情報","municipality_code":"28101","municipality_pref":"兵庫県","municipality_name":"神戸市東灘区","municipality_code_method":"nearest_centroid"},"geometry":{"type":"Point","coordinates":[135.27320092,34.6919761]}},{"type":"Feature","properties":{"layer_id":"parks_playgrounds","name":"雨の神公園","category":"nature","address":"神戸市","source":"国土交通省 国土数値情報","municipality_code":"28101","municipality_pref":"兵庫県","municipality_name":"神戸市東灘区","municipality_code_method":"nearest_centroid"},"geometry":{"type":"Point","coordinates":[135.25799699,34.72214848]}},{"type":"Feature","properties":{"layer_id":"parks_playgrounds","name":"六甲マリンパーク","category":"nature","address":"神戸市","source":"国土交通省 国土数値情報","municipality_code":"28101","municipality_pref":"兵庫県","municipality_name":"神戸市東灘区","municipality_code_method":"nearest_centroid"},"geometry":{"type":"Point","coordinates":[135.27073978,34.67999942]}},{"type":"Feature","properties":{"layer_id":"parks_playgrounds","name":"魚崎中町公園","category":"nature","address":"神戸市","source":"国土交通省 国土数値情報","municipality_code":"28101","municipality_pref":"兵庫県","municipality_name":"神戸市東灘区","municipality_code_method":"nearest_centroid"},"geometry":{"type":"Point","coordinates":[135.27066711,34.71337045]}},{"type":"Feature","properties":{"layer_id":"parks_playgrounds","name":"北青木公園","category":"nature","address":"神戸市","source":"国土交通省 国土数値情報","municipality_code":"28101","municipality_pref":"兵庫県","municipality_name":"神戸市東灘区","municipality_code_method":"nearest_centroid"},"geometry":{"type":"Point","coordinates":[135.28150854,34.71986178]}},{"type":"Feature","properties":{"layer_id":"parks_playgrounds","name":"石屋川公園","category":"nature","address":"神戸市","source":"国土交通省 国土数値情報","municipality_code":"28101","municipality_pref":"兵庫県","municipality_name":"神戸市東灘区","municipality_code_method":"nearest_centroid"},"geometry":{"type":"Point","coordinates":[135.2504742,34.71207059]}},{"type":"Feature","properties":{"layer_id":"parks_playgrounds","name":"住吉台展望公園","category":"nature","address":"神戸市","source":"国土交通省 国土数値情報","municipality_code":"28101","municipality_pref":"兵庫県","municipality_name":"神戸市東灘区","municipality_code_method":"nearest_centroid"},"geometry":{"type":"Point","coordinates":[135.25571273,34.74058814]}},{"type":"Feature","properties":{"layer_id":"parks_playgrounds","name":"浜公園","category":"nature","address":"神戸市","source":"国土交通省 国土数値情報","municipality_code":"28101","municipality_pref":"兵庫県","municipality_name":"神戸市東灘区","municipality_code_method":"nearest_centroid"},"geometry":{"type":"Point","coordinates":[135.27639643,34.71164264]}},{"type":"Feature","properties":{"layer_id":"parks_playgrounds","name":"野寄南公園","category":"nature","address":"神戸市","source":"国土交通省 国土数値情報","municipality_code":"28101","municipality_pref":"兵庫県","municipality_name":"神戸市東灘区","municipality_code_method":"nearest_centroid"},"geometry":{"type":"Point","coordinates":[135.26694187,34.72315094]}},{"type":"Feature","properties":{"layer_id":"parks_playgrounds","name":"郡家公園","category":"nature","address":"神戸市","source":"国土交通省 国土数値情報","municipality_code":"28101","municipality_pref":"兵庫県","municipality_name":"神戸市東灘区","municipality_code_method":"nearest_centroid"},"geometry":{"type":"Point","coordinates":[135.253444,34.723164]}},{"type":"Feature","properties":{"layer_id":"parks_playgrounds","name":"住吉本町2丁目公園","category":"nature","address":"神戸市","source":"国土交通省 国土数値情報","municipality_code":"28101","municipality_pref":"兵庫県","municipality_name":"神戸市東灘区","municipality_code_method":"nearest_centroid"},"geometry":{"type":"Point","coordinates":[135.25991279,34.72050742]}},{"type":"Feature","properties":{"layer_id":"parks_playgrounds","name":"本山南町小公園","category":"nature","address":"神戸市","source":"国土交通省 国土数値情報","municipality_code":"28101","municipality_pref":"兵庫県","municipality_name":"神戸市東灘区","municipality_code_method":"nearest_centroid"},"geometry":{"type":"Point","coordinates":[135.28348054,34.72226193]}},{"type":"Feature","properties":{"layer_id":"parks_playgrounds","name":"魚崎南町公園","category":"nature","address":"神戸市","source":"国土交通省 国土数値情報","municipality_code":"28101","municipality_pref":"兵庫県","municipality_name":"神戸市東灘区","municipality_code_method":"nearest_centroid"},"geometry":{"type":"Point","coordinates":[135.27856016,34.71472428]}},{"type":"Feature","properties":{"layer_id":"parks_playgrounds","name":"住吉浜公園","category":"nature","address":"神戸市","source":"国土交通省 国土数値情報","municipality_code":"28101","municipality_pref":"兵庫県","municipality_name":"神戸市東灘区","municipality_code_method":"nearest_centroid"},"geometry":{"type":"Point","coordinates":[135.26193707,34.70589818]}},{"type":"Feature","properties":{"layer_id":"parks_playgrounds","name":"向洋町中５丁目公園","category":"nature","address":"神戸市","source":"国土交通省 国土数値情報","municipality_code":"28101","municipality_pref":"兵庫県","municipality_name":"神戸市東灘区","municipality_code_method":"nearest_centroid"},"geometry":{"type":"Point","coordinates":[135.26838018,34.69139032]}},{"type":"Feature","properties":{"layer_id":"parks_playgrounds","name":"住吉宮町公園","category":"nature","address":"神戸市","source":"国土交通省 国土数値情報","municipality_code":"28101","municipality_pref":"兵庫県","municipality_name":"神戸市東灘区","municipality_code_method":"nearest_centroid"},"geometry":{"type":"Point","coordinates":[135.26356243,34.71682366]}},{"type":"Feature","properties":{"layer_id":"parks_playgrounds","name":"シティヒル東緑地","category":"nature","address":"神戸市","source":"国土交通省 国土数値情報","municipality_code":"28101","municipality_pref":"兵庫県","municipality_name":"神戸市東灘区","municipality_code_method":"nearest_centroid"},"geometry":{"type":"Point","coordinates":[135.27524145,34.69026251]}},{"type":"Feature","properties":{"layer_id":"parks_playgrounds","name":"瀬戸公園","category":"nature","address":"神戸市","source":"国土交通省 国土数値情報","municipality_code":"28101","municipality_pref":"兵庫県","municipality_name":"神戸市東灘区","municipality_code_method":"nearest_centroid"},"geometry":{"type":"Point","coordinates":[135.27847934,34.71100579]}},{"type":"Feature","properties":{"layer_id":"parks_playgrounds","name":"荒神山北公園","category":"nature","address":"神戸市","source":"国土交通省 国土数値情報","municipality_code":"28101","municipality_pref":"兵庫県","municipality_name":"神戸市東灘区","municipality_code_method":"nearest_centroid"},"geometry":{"type":"Point","coordinates":[135.25763416,34.74131343]}},{"type":"Feature","properties":{"layer_id":"parks_playgrounds","name":"赤塚山公園","category":"nature","address":"神戸市","source":"国土交通省 国土数値情報","municipality_code":"28101","municipality_pref":"兵庫県","municipality_name":"神戸市東灘区","municipality_code_method":"nearest_centroid"},"geometry":{"type":"Point","coordinates":[135.25697697,34.7307395]}},{"type":"Feature","properties":{"layer_id":"parks_playgrounds","name":"中野南公園","category":"nature","address":"神戸市","source":"国土交通省 国土数値情報","municipality_code":"28101","municipality_pref":"兵庫県","municipality_name":"神戸市東灘区","municipality_code_method":"nearest_centroid"},"geometry":{"type":"Point","coordinates":[135.28572335,34.7239718]}},{"type":"Feature","properties":{"layer_id":"parks_playgrounds","name":"深田公園","category":"nature","address":"神戸市","source":"国土交通省 国土数値情報","municipality_code":"28101","municipality_pref":"兵庫県","municipality_name":"神戸市東灘区","municipality_code_method":"nearest_centroid"},"geometry":{"type":"Point","coordinates":[135.25349232,34.72525084]}},{"type":"Feature","properties":{"layer_id":"parks_playgrounds","name":"向洋町中３丁目公園","category":"nature","address":"神戸市","source":"国土交通省 国土数値情報","municipality_code":"28101","municipality_pref":"兵庫県","municipality_name":"神戸市東灘区","municipality_code_method":"nearest_centroid"},"geometry":{"type":"Point","coordinates":[135.27430933,34.68689934]}},{"type":"Feature","properties":{"layer_id":"parks_playgrounds","name":"岡本中公園","category":"nature","address":"神戸市","source":"国土交通省 国土数値情報","municipality_code":"28101","municipality_pref":"兵庫県","municipality_name":"神戸市東灘区","municipality_code_method":"nearest_centroid"},"geometry":{"type":"Point","coordinates":[135.26893351,34.73125335]}},{"type":"Feature","properties":{"layer_id":"parks_playgrounds","name":"御影公園","category":"nature","address":"神戸市","source":"国土交通省 国土数値情報","municipality_code":"28101","municipality_pref":"兵庫県","municipality_name":"神戸市東灘区","municipality_code_method":"nearest_centroid"},"geometry":{"type":"Point","coordinates":[135.25414451,34.71502744]}},{"type":"Feature","properties":{"layer_id":"parks_playgrounds","name":"御影本町公園","category":"nature","address":"神戸市","source":"国土交通省 国土数値情報","municipality_code":"28101","municipality_pref":"兵庫県","municipality_name":"神戸市東灘区","municipality_code_method":"nearest_centroid"},"geometry":{"type":"Point","coordinates":[135.25892345,34.71208915]}},{"type":"Feature","properties":{"layer_id":"parks_playgrounds","name":"魚崎浜公園","category":"nature","address":"神戸市","source":"国土交通省 国土数値情報","municipality_code":"28101","municipality_pref":"兵庫県","municipality_name":"神戸市東灘区","municipality_code_method":"nearest_centroid"},"geometry":{"type":"Point","coordinates":[135.28158733,34.70619913]}},{"type":"Feature","properties":{"layer_id":"parks_playgrounds","name":"赤塚山西公園","category":"nature","address":"神戸市","source":"国土交通省 国土数値情報","municipality_code":"28101","municipality_pref":"兵庫県","municipality_name":"神戸市東灘区","municipality_code_method":"nearest_centroid"},"geometry":{"type":"Point","coordinates":[135.25632178,34.72979556]}},{"type":"Feature","properties":{"layer_id":"parks_playgrounds","name":"求女塚東公園","category":"nature","address":"神戸市","source":"国土交通省 国土数値情報","municipality_code":"28101","municipality_pref":"兵庫県","municipality_name":"神戸市東灘区","municipality_code_method":"nearest_centroid"},"geometry":{"type":"Point","coordinates":[135.26407336,34.71292601]}},{"type":"Feature","properties":{"layer_id":"parks_playgrounds","name":"西の坪小公園","category":"nature","address":"神戸市","source":"国土交通省 国土数値情報","municipality_code":"28101","municipality_pref":"兵庫県","municipality_name":"神戸市東灘区","municipality_code_method":"nearest_centroid"},"geometry":{"type":"Point","coordinates":[135.27817395,34.71609545]}},{"type":"Feature","properties":{"layer_id":"parks_playgrounds","name":"十文字山西公園","category":"nature","address":"神戸市","source":"国土交通省 国土数値情報","municipality_code":"28101","municipality_pref":"兵庫県","municipality_name":"神戸市東灘区","municipality_code_method":"nearest_centroid"},"geometry":{"type":"Point","coordinates":[135.26102957,34.73070232]}},{"type":"Feature","properties":{"layer_id":"parks_playgrounds","name":"福井池公園","category":"nature","address":"神戸市","source":"国土交通省 国土数値情報","municipality_code":"28101","municipality_pref":"兵庫県","municipality_name":"神戸市東灘区","municipality_code_method":"nearest_centroid"},"geometry":{"type":"Point","coordinates":[135.27725208,34.7208264]}},{"type":"Feature","properties":{"layer_id":"parks_playgrounds","name":"中野南小公園","category":"nature","address":"神戸市","source":"国土交通省 国土数値情報","municipality_code":"28101","municipality_pref":"兵庫県","municipality_name":"神戸市東灘区","municipality_code_method":"nearest_centroid"},"geometry":{"type":"Point","coordinates":[135.28646218,34.72417633]}},{"type":"Feature","properties":{"layer_id":"parks_playgrounds","name":"中之町公園","category":"nature","address":"神戸市","source":"国土交通省 国土数値情報","municipality_code":"28101","municipality_pref":"兵庫県","municipality_name":"神戸市東灘区","municipality_code_method":"nearest_centroid"},"geometry":{"type":"Point","coordinates":[135.27555188,34.724332]}},{"type":"Feature","properties":{"layer_id":"parks_playgrounds","name":"西岡本公園","category":"nature","address":"神戸市","source":"国土交通省 国土数値情報","municipality_code":"28101","municipality_pref":"兵庫県","municipality_name":"神戸市東灘区","municipality_code_method":"nearest_centroid"},"geometry":{"type":"Point","coordinates":[135.26031056,34.72986224]}},{"type":"Feature","properties":{"layer_id":"parks_playgrounds","name":"六甲アイランド運動公園","category":"nature","address":"神戸市","source":"国土交通省 国土数値情報","municipality_code":"28101","municipality_pref":"兵庫県","municipality_name":"神戸市東灘区","municipality_code_method":"nearest_centroid"},"geometry":{"type":"Point","coordinates":[135.27419525,34.69369124]}},{"type":"Feature","properties":{"layer_id":"parks_playgrounds","name":"南青木公園","category":"nature","address":"神戸市","source":"国土交通省 国土数値情報","municipality_code":"28101","municipality_pref":"兵庫県","municipality_name":"神戸市東灘区","municipality_code_method":"nearest_centroid"},"geometry":{"type":"Point","coordinates":[135.28546859,34.71597195]}},{"type":"Feature","properties":{"layer_id":"parks_playgrounds","name":"向洋町中６丁目公園","category":"nature","address":"神戸市","source":"国土交通省 国土数値情報","municipality_code":"28101","municipality_pref":"兵庫県","municipality_name":"神戸市東灘区","municipality_code_method":"nearest_centroid"},"geometry":{"type":"Point","coordinates":[135.26456722,34.68822441]}},{"type":"Feature","properties":{"layer_id":"parks_playgrounds","name":"本庄中央公園","category":"nature","address":"神戸市","source":"国土交通省 国土数値情報","municipality_code":"28101","municipality_pref":"兵庫県","municipality_name":"神戸市東灘区","municipality_code_method":"nearest_centroid"},"geometry":{"type":"Point","coordinates":[135.28508287,34.71934853]}},{"type":"Feature","properties":{"layer_id":"parks_playgrounds","name":"六甲アイランド北公園","category":"nature","address":"神戸市","source":"国土交通省 国土数値情報","municipality_code":"28101","municipality_pref":"兵庫県","municipality_name":"神戸市東灘区","municipality_code_method":"nearest_centroid"},"geometry":{"type":"Point","coordinates":[135.2686966,34.69504169]}},{"type":"Feature","properties":{"layer_id":"parks_playgrounds","name":"五反田公園","category":"nature","address":"神戸市","source":"国土交通省 国土数値情報","municipality_code":"28101","municipality_pref":"兵庫県","municipality_name":"神戸市東灘区","municipality_code_method":"nearest_centroid"},"geometry":{"type":"Point","coordinates":[135.28022365,34.72717047]}},{"type":"Feature","properties":{"layer_id":"parks_playgrounds","name":"住吉台北公園","category":"nature","address":"神戸市","source":"国土交通省 国土数値情報","municipality_code":"28101","municipality_pref":"兵庫県","municipality_name":"神戸市東灘区","municipality_code_method":"nearest_centroid"},"geometry":{"type":"Point","coordinates":[135.25604033,34.73919792]}},{"type":"Feature","properties":{"layer_id":"parks_playgrounds","name":"青木公園","category":"nature","address":"神戸市","source":"国土交通省 国土数値情報","municipality_code":"28101","municipality_pref":"兵庫県","municipality_name":"神戸市東灘区","municipality_code_method":"nearest_centroid"},"geometry":{"type":"Point","coordinates":[135.28324799,34.71575506]}},{"type":"Feature","properties":{"layer_id":"parks_playgrounds","name":"住吉東町小公園","category":"nature","address":"神戸市","source":"国土交通省 国土数値情報","municipality_code":"28101","municipality_pref":"兵庫県","municipality_name":"神戸市東灘区","municipality_code_method":"nearest_centroid"},"geometry":{"type":"Point","coordinates":[135.26579474,34.71887507]}},{"type":"Feature","properties":{"layer_id":"parks_playgrounds","name":"本山南町北小公園","category":"nature","address":"神戸市","source":"国土交通省 国土数値情報","municipality_code":"28101","municipality_pref":"兵庫県","municipality_name":"神戸市東灘区","municipality_code_method":"nearest_centroid"},"geometry":{"type":"Point","coordinates":[135.27885276,34.72268666]}},{"type":"Feature","properties":{"layer_id":"parks_playgrounds","name":"住吉台中公園","category":"nature","address":"神戸市","source":"国土交通省 国土数値情報","municipality_code":"28101","municipality_pref":"兵庫県","municipality_name":"神戸市東灘区","municipality_code_method":"nearest_centroid"},"geometry":{"type":"Point","coordinates":[135.25563844,34.73808679]}},{"type":"Feature","properties":{"layer_id":"parks_playgrounds","name":"上中公園","category":"nature","address":"神戸市","source":"国土交通省 国土数値情報","municipality_code":"28101","municipality_pref":"兵庫県","municipality_name":"神戸市東灘区","municipality_code_method":"nearest_centroid"},"geometry":{"type":"Point","coordinates":[135.25453024,34.71324994]}},{"type":"Feature","properties":{"layer_id":"parks_playgrounds","name":"御旅公園（東灘）","category":"nature","address":"神戸市","source":"国土交通省 国土数値情報","municipality_code":"28101","municipality_pref":"兵庫県","municipality_name":"神戸市東灘区","municipality_code_method":"nearest_centroid"},"geometry":{"type":"Point","coordinates":[135.26301586,34.70848106]}},{"type":"Feature","properties":{"layer_id":"parks_playgrounds","name":"十文字山東公園","category":"nature","address":"神戸市","source":"国土交通省 国土数値情報","municipality_code":"28101","municipality_pref":"兵庫県","municipality_name":"神戸市東灘区","municipality_code_method":"nearest_centroid"},"geometry":{"type":"Point","coordinates":[135.26282351,34.73209011]}},{"type":"Feature","properties":{"layer_id":"parks_playgrounds","name":"住吉山手小公園","category":"nature","address":"神戸市","source":"国土交通省 国土数値情報","municipality_code":"28101","municipality_pref":"兵庫県","municipality_name":"神戸市東灘区","municipality_code_method":"nearest_centroid"},"geometry":{"type":"Point","coordinates":[135.25397079,34.72682655]}},{"type":"Feature","properties":{"layer_id":"parks_playgrounds","name":"本山南町北公園","category":"nature","address":"神戸市","source":"国土交通省 国土数値情報","municipality_code":"28101","municipality_pref":"兵庫県","municipality_name":"神戸市東灘区","municipality_code_method":"nearest_centroid"},"geometry":{"type":"Point","coordinates":[135.27985759,34.72376887]}},{"type":"Feature","properties":{"layer_id":"parks_playgrounds","name":"寺門公園","category":"nature","address":"神戸市","source":"国土交通省 国土数値情報","municipality_code":"28101","municipality_pref":"兵庫県","municipality_name":"神戸市東灘区","municipality_code_method":"nearest_centroid"},"geometry":{"type":"Point","coordinates":[135.28419641,34.72071854]}},{"type":"Feature","properties":{"layer_id":"parks_playgrounds","name":"魚崎中町小公園","category":"nature","address":"神戸市","source":"国土交通省 国土数値情報","municipality_code":"28101","municipality_pref":"兵庫県","municipality_name":"神戸市東灘区","municipality_code_method":"nearest_centroid"},"geometry":{"type":"Point","coordinates":[135.27644999,34.71532239]}},{"type":"Feature","properties":{"layer_id":"parks_playgrounds","name":"牛神前小公園","category":"nature","address":"神戸市","source":"国土交通省 国土数値情報","municipality_code":"28101","municipality_pref":"兵庫県","municipality_name":"神戸市東灘区","municipality_code_method":"nearest_centroid"},"geometry":{"type":"Point","coordinates":[135.25844886,34.72311522]}},{"type":"Feature","properties":{"layer_id":"parks_playgrounds","name":"内浜公園","category":"nature","address":"神戸市","source":"国土交通省 国土数値情報","municipality_code":"28101","municipality_pref":"兵庫県","municipality_name":"神戸市東灘区","municipality_code_method":"nearest_centroid"},"geometry":{"type":"Point","coordinates":[135.28225747,34.71483943]}},{"type":"Feature","properties":{"layer_id":"parks_playgrounds","name":"荒神山東公園","category":"nature","address":"神戸市","source":"国土交通省 国土数値情報","municipality_code":"28101","municipality_pref":"兵庫県","municipality_name":"神戸市東灘区","municipality_code_method":"nearest_centroid"},"geometry":{"type":"Point","coordinates":[135.25660489,34.73616836]}},{"type":"Feature","properties":{"layer_id":"parks_playgrounds","name":"屋敷本公園","category":"nature","address":"神戸市","source":"国土交通省 国土数値情報","municipality_code":"28101","municipality_pref":"兵庫県","municipality_name":"神戸市東灘区","municipality_code_method":"nearest_centroid"},"geometry":{"type":"Point","coordinates":[135.26693146,34.72715143]}},{"type":"Feature","properties":{"layer_id":"parks_playgrounds","name":"住吉公園","category":"nature","address":"神戸市","source":"国土交通省 国土数値情報","municipality_code":"28101","municipality_pref":"兵庫県","municipality_name":"神戸市東灘区","municipality_code_method":"nearest_centroid"},"geometry":{"type":"Point","coordinates":[135.26241598,34.71617908]}},{"type":"Feature","properties":{"layer_id":"parks_playgrounds","name":"魚崎西町公園","category":"nature","address":"神戸市","source":"国土交通省 国土数値情報","municipality_code":"28101","municipality_pref":"兵庫県","municipality_name":"神戸市東灘区","municipality_code_method":"nearest_centroid"},"geometry":{"type":"Point","coordinates":[135.26684121,34.71294448]}},{"type":"Feature","properties":{"layer_id":"parks_playgrounds","name":"六甲アイランド公園","category":"nature","address":"神戸市","source":"国土交通省 国土数値情報","municipality_code":"28101","municipality_pref":"兵庫県","municipality_name":"神戸市東灘区","municipality_code_method":"nearest_centroid"},"geometry":{"type":"Point","coordinates":[135.26661852,34.6927211]}},{"type":"Feature","properties":{"layer_id":"parks_playgrounds","name":"古寺公園","category":"nature","address":"神戸市","source":"国土交通省 国土数値情報","municipality_code":"28101","municipality_pref":"兵庫県","municipality_name":"神戸市東灘区","municipality_code_method":"nearest_centroid"},"geometry":{"type":"Point","coordinates":[135.26260091,34.72239914]}},{"type":"Feature","properties":{"layer_id":"parks_playgrounds","name":"小寄公園","category":"nature","address":"神戸市","source":"国土交通省 国土数値情報","municipality_code":"28101","municipality_pref":"兵庫県","municipality_name":"神戸市東灘区","municipality_code_method":"nearest_centroid"},"geometry":{"type":"Point","coordinates":[135.28038081,34.72170937]}},{"type":"Feature","properties":{"layer_id":"parks_playgrounds","name":"西青木公園","category":"nature","address":"神戸市","source":"国土交通省 国土数値情報","municipality_code":"28101","municipality_pref":"兵庫県","municipality_name":"神戸市東灘区","municipality_code_method":"nearest_centroid"},"geometry":{"type":"Point","coordinates":[135.27930249,34.71909456]}},{"type":"Feature","properties":{"layer_id":"parks_playgrounds","name":"上御影小公園","category":"nature","address":"神戸市","source":"国土交通省 国土数値情報","municipality_code":"28101","municipality_pref":"兵庫県","municipality_name":"神戸市東灘区","municipality_code_method":"nearest_centroid"},"geometry":{"type":"Point","coordinates":[135.25005822,34.72759182]}},{"type":"Feature","properties":{"layer_id":"parks_playgrounds","name":"赤塚山小公園","category":"nature","address":"神戸市","source":"国土交通省 国土数値情報","municipality_code":"28101","municipality_pref":"兵庫県","municipality_name":"神戸市東灘区","municipality_code_method":"nearest_centroid"},"geometry":{"type":"Point","coordinates":[135.25637618,34.73167307]}},{"type":"Feature","properties":{"layer_id":"parks_playgrounds","name":"甲南町北小公園","category":"nature","address":"神戸市","source":"国土交通省 国土数値情報","municipality_code":"28101","municipality_pref":"兵庫県","municipality_name":"神戸市東灘区","municipality_code_method":"nearest_centroid"},"geometry":{"type":"Point","coordinates":[135.27568529,34.72160995]}},{"type":"Feature","properties":{"layer_id":"parks_playgrounds","name":"焼ケ原南公園","category":"nature","address":"神戸市","source":"国土交通省 国土数値情報","municipality_code":"28101","municipality_pref":"兵庫県","municipality_name":"神戸市東灘区","municipality_code_method":"nearest_centroid"},"geometry":{"type":"Point","coordinates":[135.25330351,34.74130667]}},{"type":"Feature","properties":{"layer_id":"parks_playgrounds","name":"シティヒル西緑地","category":"nature","address":"神戸市","source":"国土交通省 国土数値情報","municipality_code":"28101","municipality_pref":"兵庫県","municipality_name":"神戸市東灘区","municipality_code_method":"nearest_centroid"},"geometry":{"type":"Point","coordinates":[135.26326274,34.68855664]}},{"type":"Feature","properties":{"layer_id":"parks_playgrounds","name":"向洋町中１丁目西公園","category":"nature","address":"神戸市","source":"国土交通省 国土数値情報","municipality_code":"28101","municipality_pref":"兵庫県","municipality_name":"神戸市東灘区","municipality_code_method":"nearest_centroid"},"geometry":{"type":"Point","coordinates":[135.27052617,34.69166443]}},{"type":"Feature","properties":{"layer_id":"parks_playgrounds","name":"本山北畑公園","category":"nature","address":"神戸市","source":"国土交通省 国土数値情報","municipality_code":"28101","municipality_pref":"兵庫県","municipality_name":"神戸市東灘区","municipality_code_method":"nearest_centroid"},"geometry":{"type":"Point","coordinates":[135.28135416,34.72379633]}},{"type":"Feature","properties":{"layer_id":"parks_playgrounds","name":"深田池公園","category":"nature","address":"神戸市","source":"国土交通省 国土数値情報","municipality_code":"28101","municipality_pref":"兵庫県","municipality_name":"神戸市東灘区","municipality_code_method":"nearest_centroid"},"geometry":{"type":"Point","coordinates":[135.25329292,34.72602036]}},{"type":"Feature","properties":{"layer_id":"parks_playgrounds","name":"住吉山田公園","category":"nature","address":"神戸市","source":"国土交通省 国土数値情報","municipality_code":"28101","municipality_pref":"兵庫県","municipality_name":"神戸市東灘区","municipality_code_method":"nearest_centroid"},"geometry":{"type":"Point","coordinates":[135.2584799,34.72872832]}},{"type":"Feature","properties":{"layer_id":"parks_playgrounds","name":"長子公園","category":"nature","address":"神戸市","source":"国土交通省 国土数値情報","municipality_code":"28101","municipality_pref":"兵庫県","municipality_name":"神戸市東灘区","municipality_code_method":"nearest_centroid"},"geometry":{"type":"Point","coordinates":[135.27007685,34.72977001]}},{"type":"Feature","properties":{"layer_id":"parks_playgrounds","name":"赤塚山北公園","category":"nature","address":"神戸市","source":"国土交通省 国土数値情報","municipality_code":"28101","municipality_pref":"兵庫県","municipality_name":"神戸市東灘区","municipality_code_method":"nearest_centroid"},"geometry":{"type":"Point","coordinates":[135.25336636,34.73848879]}},{"type":"Feature","properties":{"layer_id":"parks_playgrounds","name":"浜小公園","category":"nature","address":"神戸市","source":"国土交通省 国土数値情報","municipality_code":"28101","municipality_pref":"兵庫県","municipality_name":"神戸市東灘区","municipality_code_method":"nearest_centroid"},"geometry":{"type":"Point","coordinates":[135.27420628,34.70944721]}},{"type":"Feature","properties":{"layer_id":"parks_playgrounds","name":"宇柳公園","category":"nature","address":"神戸市","source":"国土交通省 国土数値情報","municipality_code":"28101","municipality_pref":"兵庫県","municipality_name":"神戸市東灘区","municipality_code_method":"nearest_centroid"},"geometry":{"type":"Point","coordinates":[135.2532093,34.71890037]}},{"type":"Feature","properties":{"layer_id":"parks_playgrounds","name":"西浜公園","category":"nature","address":"神戸市","source":"国土交通省 国土数値情報","municipality_code":"28101","municipality_pref":"兵庫県","municipality_name":"神戸市東灘区","municipality_code_method":"nearest_centroid"},"geometry":{"type":"Point","coordinates":[135.27258823,34.71015695]}},{"type":"Feature","properties":{"layer_id":"parks_playgrounds","name":"岡本公園","category":"nature","address":"神戸市","source":"国土交通省 国土数値情報","municipality_code":"28101","municipality_pref":"兵庫県","municipality_name":"神戸市東灘区","municipality_code_method":"nearest_centroid"},"geometry":{"type":"Point","coordinates":[135.27314694,34.7323222]}},{"type":"Feature","properties":{"layer_id":"parks_playgrounds","name":"御影柳公園","category":"nature","address":"神戸市","source":"国土交通省 国土数値情報","municipality_code":"28101","municipality_pref":"兵庫県","municipality_name":"神戸市東灘区","municipality_code_method":"nearest_centroid"},"geometry":{"type":"Point","coordinates":[135.25786853,34.71507804]}},{"type":"Feature","properties":{"layer_id":"parks_playgrounds","name":"甲南町公園","category":"nature","address":"神戸市","source":"国土交通省 国土数値情報","municipality_code":"28101","municipality_pref":"兵庫県","municipality_name":"神戸市東灘区","municipality_code_method":"nearest_centroid"},"geometry":{"type":"Point","coordinates":[135.27727513,34.72206815]}},{"type":"Feature","properties":{"layer_id":"parks_playgrounds","name":"住吉本町公園","category":"nature","address":"神戸市","source":"国土交通省 国土数値情報","municipality_code":"28101","municipality_pref":"兵庫県","municipality_name":"神戸市東灘区","municipality_code_method":"nearest_centroid"},"geometry":{"type":"Point","coordinates":[135.26278159,34.72406641]}},{"type":"Feature","properties":{"layer_id":"parks_playgrounds","name":"住吉川東緑地","category":"nature","address":"神戸市","source":"国土交通省 国土数値情報","municipality_code":"28101","municipality_pref":"兵庫県","municipality_name":"神戸市東灘区","municipality_code_method":"nearest_centroid"},"geometry":{"type":"Point","coordinates":[135.26429004,34.72387153]}},{"type":"Feature","properties":{"layer_id":"parks_playgrounds","name":"渦森公園","category":"nature","address":"神戸市","source":"国土交通省 国土数値情報","municipality_code":"28101","municipality_pref":"兵庫県","municipality_name":"神戸市東灘区","municipality_code_method":"nearest_centroid"},"geometry":{"type":"Point","coordinates":[135.25119722,34.73726711]}},{"type":"Feature","properties":{"layer_id":"parks_playgrounds","name":"岡本南公園","category":"nature","address":"神戸市","source":"国土交通省 国土数値情報","municipality_code":"28101","municipality_pref":"兵庫県","municipality_name":"神戸市東灘区","municipality_code_method":"nearest_centroid"},"geometry":{"type":"Point","coordinates":[135.27414239,34.72942468]}},{"type":"Feature","properties":{"layer_id":"parks_playgrounds","name":"五百池公園","category":"nature","address":"神戸市","source":"国土交通省 国土数値情報","municipality_code":"28101","municipality_pref":"兵庫県","municipality_name":"神戸市東灘区","municipality_code_method":"nearest_centroid"},"geometry":{"type":"Point","coordinates":[135.27379906,34.71160703]}},{"type":"Feature","properties":{"layer_id":"parks_playgrounds","name":"新堀公園","category":"nature","address":"神戸市","source":"国土交通省 国土数値情報","municipality_code":"28101","municipality_pref":"兵庫県","municipality_name":"神戸市東灘区","municipality_code_method":"nearest_centroid"},"geometry":{"type":"Point","coordinates":[135.27505934,34.71332599]}},{"type":"Feature","properties":{"layer_id":"parks_playgrounds","name":"向洋東公園","category":"nature","address":"神戸市","source":"国土交通省 国土数値情報","municipality_code":"28101","municipality_pref":"兵庫県","municipality_name":"神戸市東灘区","municipality_code_method":"nearest_centroid"},"geometry":{"type":"Point","coordinates":[135.27268005,34.68845467]}},{"type":"Feature","properties":{"layer_id":"parks_playgrounds","name":"西谷公園","category":"nature","address":"神戸市","source":"国土交通省 国土数値情報","municipality_code":"28101","municipality_pref":"兵庫県","municipality_name":"神戸市東灘区","municipality_code_method":"nearest_centroid"},"geometry":{"type":"Point","coordinates":[135.25388235,34.73932281]}},{"type":"Feature","properties":{"layer_id":"parks_playgrounds","name":"手水公園","category":"nature","address":"神戸市","source":"国土交通省 国土数値情報","municipality_code":"28101","municipality_pref":"兵庫県","municipality_name":"神戸市東灘区","municipality_code_method":"nearest_centroid"},"geometry":{"type":"Point","coordinates":[135.27129285,34.72400819]}},{"type":"Feature","properties":{"layer_id":"parks_playgrounds","name":"高井公園","category":"nature","address":"神戸市","source":"国土交通省 国土数値情報","municipality_code":"28101","municipality_pref":"兵庫県","municipality_name":"神戸市東灘区","municipality_code_method":"nearest_centroid"},"geometry":{"type":"Point","coordinates":[135.26433624,34.72892264]}},{"type":"Feature","properties":{"layer_id":"parks_playgrounds","name":"校北公園","category":"nature","address":"神戸市","source":"国土交通省 国土数値情報","municipality_code":"28101","municipality_pref":"兵庫県","municipality_name":"神戸市東灘区","municipality_code_method":"nearest_centroid"},"geometry":{"type":"Point","coordinates":[135.27036101,34.71589315]}},{"type":"Feature","properties":{"layer_id":"parks_playgrounds","name":"野寄公園","category":"nature","address":"神戸市","source":"国土交通省 国土数値情報","municipality_code":"28101","municipality_pref":"兵庫県","municipality_name":"神戸市東灘区","municipality_code_method":"nearest_centroid"},"geometry":{"type":"Point","coordinates":[135.26479746,34.72525294]}},{"type":"Feature","properties":{"layer_id":"parks_playgrounds","name":"甲南町小公園","category":"nature","address":"神戸市","source":"国土交通省 国土数値情報","municipality_code":"28101","municipality_pref":"兵庫県","municipality_name":"神戸市東灘区","municipality_code_method":"nearest_centroid"},"geometry":{"type":"Point","coordinates":[135.27548516,34.72095262]}},{"type":"Feature","properties":{"layer_id":"parks_playgrounds","name":"田中町西公園","category":"nature","address":"神戸市","source":"国土交通省 国土数値情報","municipality_code":"28101","municipality_pref":"兵庫県","municipality_name":"神戸市東灘区","municipality_code_method":"nearest_centroid"},"geometry":{"type":"Point","coordinates":[135.26827874,34.72160025]}},{"type":"Feature","properties":{"layer_id":"parks_playgrounds","name":"住吉川公園","category":"nature","address":"神戸市","source":"国土交通省 国土数値情報","municipality_code":"28101","municipality_pref":"兵庫県","municipality_name":"神戸市東灘区","municipality_code_method":"nearest_centroid"},"geometry":{"type":"Point","coordinates":[135.26955163,34.71065788]}},{"type":"Feature","properties":{"layer_id":"parks_playgrounds","name":"住吉台東公園","category":"nature","address":"神戸市","source":"国土交通省 国土数値情報","municipality_code":"28101","municipality_pref":"兵庫県","municipality_name":"神戸市東灘区","municipality_code_method":"nearest_centroid"},"geometry":{"type":"Point","coordinates":[135.25879857,34.73974676]}},{"type":"Feature","properties":{"layer_id":"parks_playgrounds","name":"山田公園","category":"nature","address":"神戸市","source":"国土交通省 国土数値情報","municipality_code":"28101","municipality_pref":"兵庫県","municipality_name":"神戸市東灘区","municipality_code_method":"nearest_centroid"},"geometry":{"type":"Point","coordinates":[135.25847984,34.72872832]}},{"type":"Feature","properties":{"layer_id":"parks_playgrounds","name":"焼ケ原北公園","category":"nature","address":"神戸市","source":"国土交通省 国土数値情報","municipality_code":"28101","municipality_pref":"兵庫県","municipality_name":"神戸市東灘区","municipality_code_method":"nearest_centroid"},"geometry":{"type":"Point","coordinates":[135.25222325,34.74196271]}}],"display_comment_original":"神戸市東灘区には、江戸期の岸和田藩と岸和田城跡に連なる領主・城下の記憶が残る。 この地域には城跡や陣屋跡、寺社や信仰の場に関わる場所が見え、岸和田城跡、天性寺のような地点が探索の入口になる。 現地では城跡・陣屋跡が手がかりになりそうだ。さらに岸和田藩ゆかりの領主碑や旧領境を示すしるべにも期待できる。","story_enrichment":{"samurai_priority_people":[],"notable_people":["高島忠夫","葦原邦子","月田承一郎","もんたよしのり"],"honorary_citizens":[],"tourism_landmarks":["処女塚古墳（御影塚町）","東明八幡神社（御影塚町）","本住吉神社（住吉宮町）","綱敷天満神社（御影）","保久良神社（本山町北畑）","弓弦羽神社（御影郡家）","二楽荘跡（本山町岡本）","神戸市立小磯記念美術館"],"specialties":[],"food_culture":[],"historical_domains":[],"heian_place_names":["北野神社領山路荘"],"japan_search_support":[],"enrichment_sources":["https://ja.wikipedia.org/wiki/%E6%9D%B1%E7%81%98%E5%8C%BA","https://www.wikidata.org/wiki/Q279321","https://www.wikidata.org/wiki/Q11621121","https://www.wikidata.org/wiki/Q20041444","https://www.wikidata.org/wiki/Q11280215"],"enrichment_errors":[],"wikipedia_title":"東灘区","wikipedia_revision_id":"110799513","wikidata_qid":"Q277434","wikipedia_url":"https://ja.wikipedia.org/wiki/%E6%9D%B1%E7%81%98%E5%8C%BA","japan_search_query_url":"","status":"wikipedia_ok"}}