{"type":"FeatureCollection","municipality_code":"28382","pref":"兵庫県","city":"播磨町","display_comment":"播磨町には、地域の歴史や暮らしを伝える案内板や石碑があり、それらを手がかりに街歩きを楽しめます。 まずは社寺・石碑・案内板に目を向けると、地域の由緒をたどる手がかりが見つけやすいでしょう。 現地では石碑、地蔵、地域資料館、公民館の由緒板を既存ピンと照らし合わせながら歩くと、見落としがちな地域の物語に出会いやすくなります。 ゆかりの人物では浜田彦蔵や松浦竹松に注目すると、地域に残る文化や時代背景をさらに深く知るきっかけになります。 「大中遺跡（播磨大中古代の村）」や「兵庫県立考古博物館」などの名所も、地域の物語を深掘りする絶好の入口です。 さらに、「海苔」や「ワカメ」といった名物や食文化に触れると、その土地らしい暮らしまで感じられるでしょう。","layer_counts":{"cafe_restaurant":3,"public_facilities":10,"cultural_facilities":4,"parks_playgrounds":31},"total_features":48,"features":[{"type":"Feature","properties":{"layer_id":"cafe_restaurant","name":"スシロー播磨店","category":"food","address":"兵庫県加古郡播磨町東野添1-15-1","source":"厚生労働省 食品衛生申請等システム（オープンデータ）","municipality_code":"28382","municipality_pref":"兵庫県","municipality_name":"播磨町","municipality_code_method":"food_exact_coord"},"geometry":{"type":"Point","coordinates":[134.880512,34.712623]}},{"type":"Feature","properties":{"layer_id":"cafe_restaurant","name":"松屋　播磨町店","category":"food","address":"兵庫県加古郡播磨町南大中3-3-28","source":"厚生労働省 食品衛生申請等システム（オープンデータ）","municipality_code":"28382","municipality_pref":"兵庫県","municipality_name":"播磨町","municipality_code_method":"food_exact_coord"},"geometry":{"type":"Point","coordinates":[134.868141,34.72378]}},{"type":"Feature","properties":{"layer_id":"cafe_restaurant","name":"ジョリーパスタ　播磨店","category":"food","address":"兵庫県加古郡播磨町大中3-8-16","source":"厚生労働省 食品衛生申請等システム（オープンデータ）","municipality_code":"28382","municipality_pref":"兵庫県","municipality_name":"播磨町","municipality_code_method":"food_exact_coord"},"geometry":{"type":"Point","coordinates":[134.870093,34.722815]}},{"type":"Feature","properties":{"layer_id":"public_facilities","name":"福祉会館","category":"public","address":"播磨町宮北1-3-5","source":"国土交通省 国土数値情報","municipality_code":"28382","municipality_pref":"兵庫県","municipality_name":"播磨町","municipality_code_method":"source_exact_coord"},"geometry":{"type":"Point","coordinates":[134.8668196,34.71753463]}},{"type":"Feature","properties":{"layer_id":"public_facilities","name":"総合体育館","category":"public","address":"播磨町本荘70-1","source":"国土交通省 国土数値情報","municipality_code":"28382","municipality_pref":"兵庫県","municipality_name":"播磨町","municipality_code_method":"source_exact_coord"},"geometry":{"type":"Point","coordinates":[134.860548,34.711547]}},{"type":"Feature","properties":{"layer_id":"public_facilities","name":"南部コミュニティセンター","category":"public","address":"播磨町北本荘2-6-30","source":"国土交通省 国土数値情報","municipality_code":"28382","municipality_pref":"兵庫県","municipality_name":"播磨町","municipality_code_method":"source_exact_coord"},"geometry":{"type":"Point","coordinates":[134.860676,34.719046]}},{"type":"Feature","properties":{"layer_id":"public_facilities","name":"播磨町役場","category":"public","address":"播磨町東本荘1-5-30","source":"国土交通省 国土数値情報","municipality_code":"28382","municipality_pref":"兵庫県","municipality_name":"播磨町","municipality_code_method":"source_exact_coord"},"geometry":{"type":"Point","coordinates":[134.867911,34.715302]}},{"type":"Feature","properties":{"layer_id":"public_facilities","name":"中央公民館","category":"public","address":"播磨町東本荘1-5-40","source":"国土交通省 国土数値情報","municipality_code":"28382","municipality_pref":"兵庫県","municipality_name":"播磨町","municipality_code_method":"source_exact_coord"},"geometry":{"type":"Point","coordinates":[134.8672308,34.71499323]}},{"type":"Feature","properties":{"layer_id":"public_facilities","name":"西部コミュニティセンター","category":"public","address":"播磨町古田1-1-11","source":"国土交通省 国土数値情報","municipality_code":"28382","municipality_pref":"兵庫県","municipality_name":"播磨町","municipality_code_method":"source_exact_coord"},"geometry":{"type":"Point","coordinates":[134.867262,34.723759]}},{"type":"Feature","properties":{"layer_id":"public_facilities","name":"福祉しあわせセンター","category":"public","address":"播磨町南大中1-8-41","source":"国土交通省 国土数値情報","municipality_code":"28382","municipality_pref":"兵庫県","municipality_name":"播磨町","municipality_code_method":"source_exact_coord"},"geometry":{"type":"Point","coordinates":[134.868133,34.719863]}},{"type":"Feature","properties":{"layer_id":"public_facilities","name":"東部コミュニティセンター","category":"public","address":"播磨町二子418-3","source":"国土交通省 国土数値情報","municipality_code":"28382","municipality_pref":"兵庫県","municipality_name":"播磨町","municipality_code_method":"source_exact_coord"},"geometry":{"type":"Point","coordinates":[134.875565,34.710592]}},{"type":"Feature","properties":{"layer_id":"public_facilities","name":"健康いきいきセンター","category":"public","address":"播磨町南大中1-8-60","source":"国土交通省 国土数値情報","municipality_code":"28382","municipality_pref":"兵庫県","municipality_name":"播磨町","municipality_code_method":"source_exact_coord"},"geometry":{"type":"Point","coordinates":[134.868622,34.720352]}},{"type":"Feature","properties":{"layer_id":"public_facilities","name":"野添コミュニティセンター","category":"public","address":"播磨町西野添1-14-17","source":"国土交通省 国土数値情報","municipality_code":"28382","municipality_pref":"兵庫県","municipality_name":"播磨町","municipality_code_method":"source_exact_coord"},"geometry":{"type":"Point","coordinates":[134.87946,34.720179]}},{"type":"Feature","properties":{"layer_id":"cultural_facilities","name":"播磨町立図書館","category":"public","address":"東本荘1-5-55","source":"国土交通省 国土数値情報","municipality_code":"28382","municipality_pref":"兵庫県","municipality_name":"播磨町","municipality_code_method":"nearest_centroid"},"geometry":{"type":"Point","coordinates":[134.867356,34.71532699999999]}},{"type":"Feature","properties":{"layer_id":"cultural_facilities","name":"秋ヶ池運動公園","category":"public","address":"二子351-13","source":"国土交通省 国土数値情報","municipality_code":"28382","municipality_pref":"兵庫県","municipality_name":"播磨町","municipality_code_method":"nearest_centroid"},"geometry":{"type":"Point","coordinates":[134.873437,34.71359900000001]}},{"type":"Feature","properties":{"layer_id":"cultural_facilities","name":"兵庫県立考古博物館","category":"public","address":"大中1-1-1","source":"国土交通省 国土数値情報","municipality_code":"28382","municipality_pref":"兵庫県","municipality_name":"播磨町","municipality_code_method":"nearest_centroid"},"geometry":{"type":"Point","coordinates":[134.87782,34.725550000000034]}},{"type":"Feature","properties":{"layer_id":"cultural_facilities","name":"播磨町郷土資料館","category":"public","address":"大中396-1","source":"国土交通省 国土数値情報","municipality_code":"28382","municipality_pref":"兵庫県","municipality_name":"播磨町","municipality_code_method":"nearest_centroid"},"geometry":{"type":"Point","coordinates":[134.876286,34.726982000000035]}},{"type":"Feature","properties":{"layer_id":"parks_playgrounds","name":"大中公園","category":"nature","address":"加古郡播磨町","source":"国土交通省 国土数値情報","municipality_code":"28382","municipality_pref":"兵庫県","municipality_name":"播磨町","municipality_code_method":"nearest_centroid"},"geometry":{"type":"Point","coordinates":[134.87264434,34.72283138]}},{"type":"Feature","properties":{"layer_id":"parks_playgrounds","name":"浜田公園","category":"nature","address":"加古郡播磨町","source":"国土交通省 国土数値情報","municipality_code":"28382","municipality_pref":"兵庫県","municipality_name":"播磨町","municipality_code_method":"nearest_centroid"},"geometry":{"type":"Point","coordinates":[134.86199344,34.7107155]}},{"type":"Feature","properties":{"layer_id":"parks_playgrounds","name":"大西公園","category":"nature","address":"加古郡播磨町","source":"国土交通省 国土数値情報","municipality_code":"28382","municipality_pref":"兵庫県","municipality_name":"播磨町","municipality_code_method":"nearest_centroid"},"geometry":{"type":"Point","coordinates":[134.87436335,34.72162649]}},{"type":"Feature","properties":{"layer_id":"parks_playgrounds","name":"宮北公園","category":"nature","address":"加古郡播磨町","source":"国土交通省 国土数値情報","municipality_code":"28382","municipality_pref":"兵庫県","municipality_name":"播磨町","municipality_code_method":"nearest_centroid"},"geometry":{"type":"Point","coordinates":[134.86255096,34.71543945]}},{"type":"Feature","properties":{"layer_id":"parks_playgrounds","name":"鹿ノ川東公園","category":"nature","address":"加古郡播磨町","source":"国土交通省 国土数値情報","municipality_code":"28382","municipality_pref":"兵庫県","municipality_name":"播磨町","municipality_code_method":"nearest_centroid"},"geometry":{"type":"Point","coordinates":[134.88208729,34.71738067]}},{"type":"Feature","properties":{"layer_id":"parks_playgrounds","name":"二子北公園","category":"nature","address":"加古郡播磨町","source":"国土交通省 国土数値情報","municipality_code":"28382","municipality_pref":"兵庫県","municipality_name":"播磨町","municipality_code_method":"nearest_centroid"},"geometry":{"type":"Point","coordinates":[134.87817305,34.71118407]}},{"type":"Feature","properties":{"layer_id":"parks_playgrounds","name":"駅西公園","category":"nature","address":"加古郡播磨町","source":"国土交通省 国土数値情報","municipality_code":"28382","municipality_pref":"兵庫県","municipality_name":"播磨町","municipality_code_method":"nearest_centroid"},"geometry":{"type":"Point","coordinates":[134.88585053,34.7214448]}},{"type":"Feature","properties":{"layer_id":"parks_playgrounds","name":"古田西公園","category":"nature","address":"加古郡播磨町","source":"国土交通省 国土数値情報","municipality_code":"28382","municipality_pref":"兵庫県","municipality_name":"播磨町","municipality_code_method":"nearest_centroid"},"geometry":{"type":"Point","coordinates":[134.85929877,34.72623569]}},{"type":"Feature","properties":{"layer_id":"parks_playgrounds","name":"田中公園","category":"nature","address":"加古郡播磨町","source":"国土交通省 国土数値情報","municipality_code":"28382","municipality_pref":"兵庫県","municipality_name":"播磨町","municipality_code_method":"nearest_centroid"},"geometry":{"type":"Point","coordinates":[134.87365484,34.71844213]}},{"type":"Feature","properties":{"layer_id":"parks_playgrounds","name":"新島中央公園","category":"nature","address":"加古郡播磨町","source":"国土交通省 国土数値情報","municipality_code":"28382","municipality_pref":"兵庫県","municipality_name":"播磨町","municipality_code_method":"nearest_centroid"},"geometry":{"type":"Point","coordinates":[134.85158645,34.70133454]}},{"type":"Feature","properties":{"layer_id":"parks_playgrounds","name":"望海公園","category":"nature","address":"加古郡播磨町","source":"国土交通省 国土数値情報","municipality_code":"28382","municipality_pref":"兵庫県","municipality_name":"播磨町","municipality_code_method":"nearest_centroid"},"geometry":{"type":"Point","coordinates":[134.86970576,34.70433721]}},{"type":"Feature","properties":{"layer_id":"parks_playgrounds","name":"城東公園","category":"nature","address":"加古郡播磨町","source":"国土交通省 国土数値情報","municipality_code":"28382","municipality_pref":"兵庫県","municipality_name":"播磨町","municipality_code_method":"nearest_centroid"},"geometry":{"type":"Point","coordinates":[134.8823312,34.72609225]}},{"type":"Feature","properties":{"layer_id":"parks_playgrounds","name":"古田公園","category":"nature","address":"加古郡播磨町","source":"国土交通省 国土数値情報","municipality_code":"28382","municipality_pref":"兵庫県","municipality_name":"播磨町","municipality_code_method":"nearest_centroid"},"geometry":{"type":"Point","coordinates":[134.86239996,34.72479173]}},{"type":"Feature","properties":{"layer_id":"parks_playgrounds","name":"秋ヶ池運動広場","category":"nature","address":"加古郡播磨町","source":"国土交通省 国土数値情報","municipality_code":"28382","municipality_pref":"兵庫県","municipality_name":"播磨町","municipality_code_method":"nearest_centroid"},"geometry":{"type":"Point","coordinates":[134.87351546,34.7136608]}},{"type":"Feature","properties":{"layer_id":"parks_playgrounds","name":"瓜生公園","category":"nature","address":"加古郡播磨町","source":"国土交通省 国土数値情報","municipality_code":"28382","municipality_pref":"兵庫県","municipality_name":"播磨町","municipality_code_method":"nearest_centroid"},"geometry":{"type":"Point","coordinates":[134.87759231,34.71771536]}},{"type":"Feature","properties":{"layer_id":"parks_playgrounds","name":"鹿ノ川公園","category":"nature","address":"加古郡播磨町","source":"国土交通省 国土数値情報","municipality_code":"28382","municipality_pref":"兵庫県","municipality_name":"播磨町","municipality_code_method":"nearest_centroid"},"geometry":{"type":"Point","coordinates":[134.87960169,34.71937927]}},{"type":"Feature","properties":{"layer_id":"parks_playgrounds","name":"川端公園","category":"nature","address":"加古郡播磨町","source":"国土交通省 国土数値情報","municipality_code":"28382","municipality_pref":"兵庫県","municipality_name":"播磨町","municipality_code_method":"nearest_centroid"},"geometry":{"type":"Point","coordinates":[134.86771961,34.71831781]}},{"type":"Feature","properties":{"layer_id":"parks_playgrounds","name":"大西東公園","category":"nature","address":"加古郡播磨町","source":"国土交通省 国土数値情報","municipality_code":"28382","municipality_pref":"兵庫県","municipality_name":"播磨町","municipality_code_method":"nearest_centroid"},"geometry":{"type":"Point","coordinates":[134.8766515,34.72014428]}},{"type":"Feature","properties":{"layer_id":"parks_playgrounds","name":"宮西公園","category":"nature","address":"加古郡播磨町","source":"国土交通省 国土数値情報","municipality_code":"28382","municipality_pref":"兵庫県","municipality_name":"播磨町","municipality_code_method":"nearest_centroid"},"geometry":{"type":"Point","coordinates":[134.85413012,34.72135874]}},{"type":"Feature","properties":{"layer_id":"parks_playgrounds","name":"大中遺跡公園","category":"nature","address":"加古郡播磨町","source":"国土交通省 国土数値情報","municipality_code":"28382","municipality_pref":"兵庫県","municipality_name":"播磨町","municipality_code_method":"nearest_centroid"},"geometry":{"type":"Point","coordinates":[134.8774297,34.72664688]}},{"type":"Feature","properties":{"layer_id":"parks_playgrounds","name":"水田川西公園","category":"nature","address":"加古郡播磨町","source":"国土交通省 国土数値情報","municipality_code":"28382","municipality_pref":"兵庫県","municipality_name":"播磨町","municipality_code_method":"nearest_centroid"},"geometry":{"type":"Point","coordinates":[134.85461795,34.72463873]}},{"type":"Feature","properties":{"layer_id":"parks_playgrounds","name":"城西公園","category":"nature","address":"加古郡播磨町","source":"国土交通省 国土数値情報","municipality_code":"28382","municipality_pref":"兵庫県","municipality_name":"播磨町","municipality_code_method":"nearest_centroid"},"geometry":{"type":"Point","coordinates":[134.88118132,34.72859766]}},{"type":"Feature","properties":{"layer_id":"parks_playgrounds","name":"宮の裏公園","category":"nature","address":"加古郡播磨町","source":"国土交通省 国土数値情報","municipality_code":"28382","municipality_pref":"兵庫県","municipality_name":"播磨町","municipality_code_method":"nearest_centroid"},"geometry":{"type":"Point","coordinates":[134.88265642,34.72350077]}},{"type":"Feature","properties":{"layer_id":"parks_playgrounds","name":"石ヶ池公園","category":"nature","address":"加古郡播磨町","source":"国土交通省 国土数値情報","municipality_code":"28382","municipality_pref":"兵庫県","municipality_name":"播磨町","municipality_code_method":"nearest_centroid"},"geometry":{"type":"Point","coordinates":[134.86104101,34.72345296]}},{"type":"Feature","properties":{"layer_id":"parks_playgrounds","name":"新島中央幹線緑地","category":"nature","address":"加古郡播磨町","source":"国土交通省 国土数値情報","municipality_code":"28382","municipality_pref":"兵庫県","municipality_name":"播磨町","municipality_code_method":"nearest_centroid"},"geometry":{"type":"Point","coordinates":[134.85608143,34.70972099]}},{"type":"Feature","properties":{"layer_id":"parks_playgrounds","name":"向ヶ池公園","category":"nature","address":"加古郡播磨町","source":"国土交通省 国土数値情報","municipality_code":"28382","municipality_pref":"兵庫県","municipality_name":"播磨町","municipality_code_method":"nearest_centroid"},"geometry":{"type":"Point","coordinates":[134.86860234,34.71525776]}},{"type":"Feature","properties":{"layer_id":"parks_playgrounds","name":"蓮池公園","category":"nature","address":"加古郡播磨町","source":"国土交通省 国土数値情報","municipality_code":"28382","municipality_pref":"兵庫県","municipality_name":"播磨町","municipality_code_method":"nearest_centroid"},"geometry":{"type":"Point","coordinates":[134.87773169,34.722009]}},{"type":"Feature","properties":{"layer_id":"parks_playgrounds","name":"野添北公園","category":"nature","address":"加古郡播磨町","source":"国土交通省 国土数値情報","municipality_code":"28382","municipality_pref":"兵庫県","municipality_name":"播磨町","municipality_code_method":"nearest_centroid"},"geometry":{"type":"Point","coordinates":[134.8830281,34.72445703]}},{"type":"Feature","properties":{"layer_id":"parks_playgrounds","name":"長池公園","category":"nature","address":"加古郡播磨町","source":"国土交通省 国土数値情報","municipality_code":"28382","municipality_pref":"兵庫県","municipality_name":"播磨町","municipality_code_method":"nearest_centroid"},"geometry":{"type":"Point","coordinates":[134.87550162,34.7099218]}},{"type":"Feature","properties":{"layer_id":"parks_playgrounds","name":"平松公園","category":"nature","address":"加古郡播磨町","source":"国土交通省 国土数値情報","municipality_code":"28382","municipality_pref":"兵庫県","municipality_name":"播磨町","municipality_code_method":"nearest_centroid"},"geometry":{"type":"Point","coordinates":[134.85910132,34.72097623]}},{"type":"Feature","properties":{"layer_id":"parks_playgrounds","name":"野添であい公園","category":"nature","address":"加古郡播磨町","source":"国土交通省 国土数値情報","municipality_code":"28382","municipality_pref":"兵庫県","municipality_name":"播磨町","municipality_code_method":"nearest_centroid"},"geometry":{"type":"Point","coordinates":[134.88076319,34.72490648]}}],"display_comment_original":"播磨町には、地域の由緒を示す案内板や石碑を探す余地がある。 まずは社寺・石碑・案内板を軸に、地区の由緒を拾える場所を探したい。 現地では石碑、地蔵、地域資料館、公民館の由緒板を、既存ピンと照らして歩くと発見しやすい。","story_enrichment":{"samurai_priority_people":[],"notable_people":["浜田彦蔵","松浦竹松","鄭信義"],"honorary_citizens":[],"tourism_landmarks":["大中遺跡（播磨大中古代の村）","兵庫県立考古博物館","播磨町郷土資料館","野添北公園","円満寺","愛宕塚古墳（町内に現存する唯一の古墳）","阿閇神社","住吉神社"],"specialties":["海苔","ワカメ","穴子"],"food_culture":[],"historical_domains":[],"heian_place_names":[],"japan_search_support":[],"enrichment_sources":["https://ja.wikipedia.org/wiki/%E6%92%AD%E7%A3%A8%E7%94%BA","https://www.wikidata.org/wiki/Q753228","https://www.wikidata.org/wiki/Q132435327","https://www.wikidata.org/wiki/Q108110450"],"enrichment_errors":[],"wikipedia_title":"播磨町","wikipedia_revision_id":"110617632","wikidata_qid":"Q1155297","wikipedia_url":"https://ja.wikipedia.org/wiki/%E6%92%AD%E7%A3%A8%E7%94%BA","japan_search_query_url":"","status":"wikipedia_ok"}}