{"type":"FeatureCollection","municipality_code":"28501","pref":"兵庫県","city":"佐用町","display_comment":"佐用町には、地域の歴史や暮らしを伝える案内板や石碑があり、それらを手がかりに街歩きを楽しめます。 まずは社寺・地域信仰、歴史的町並みに目を向けると、地域の由緒をたどる手がかりが見つけやすいでしょう。 現地では石碑、地蔵、地域資料館、公民館の由緒板を既存ピンと照らし合わせながら歩くと、見落としがちな地域の物語に出会いやすくなります。 ゆかりの人物では堀新に注目すると、地域に残る文化や時代背景をさらに深く知るきっかけになります。 「平福」や「平福陣屋門」などの名所も、地域の物語を深掘りする絶好の入口です。","layer_counts":{"public_facilities":53,"cultural_facilities":13,"tourism_resources":3},"total_features":69,"features":[{"type":"Feature","properties":{"layer_id":"public_facilities","name":"早瀬１集会所","address":"佐用町早瀬423","source":"国土交通省 国土数値情報"},"geometry":{"type":"Point","coordinates":[134.335706,34.986039]}},{"type":"Feature","properties":{"layer_id":"public_facilities","name":"本郷集会所","address":"佐用町本郷784","source":"国土交通省 国土数値情報"},"geometry":{"type":"Point","coordinates":[134.305589,35.012469]}},{"type":"Feature","properties":{"layer_id":"public_facilities","name":"南光文化センター","address":"佐用郡佐用町下徳久1005-1","source":"国土交通省 国土数値情報"},"geometry":{"type":"Point","coordinates":[134.388111,34.991137]}},{"type":"Feature","properties":{"layer_id":"public_facilities","name":"佐用町役場","address":"佐用町佐用2611-1","source":"国土交通省 国土数値情報"},"geometry":{"type":"Point","coordinates":[134.355771,35.004296]}},{"type":"Feature","properties":{"layer_id":"public_facilities","name":"久木原集会所","address":"佐用町西大畠1120","source":"国土交通省 国土数値情報"},"geometry":{"type":"Point","coordinates":[134.294576,34.965189]}},{"type":"Feature","properties":{"layer_id":"public_facilities","name":"さよう文化情報センター","address":"佐用郡佐用町佐用2585","source":"国土交通省 国土数値情報"},"geometry":{"type":"Point","coordinates":[134.355776,35.004934]}},{"type":"Feature","properties":{"layer_id":"public_facilities","name":"下上月集会所","address":"佐用町上月188-1","source":"国土交通省 国土数値情報"},"geometry":{"type":"Point","coordinates":[134.328554,34.975552]}},{"type":"Feature","properties":{"layer_id":"public_facilities","name":"三日月支所","address":"佐用町三日月1110-1","source":"国土交通省 国土数値情報"},"geometry":{"type":"Point","coordinates":[134.43667,34.985838]}},{"type":"Feature","properties":{"layer_id":"public_facilities","name":"安川生活改善センター","address":"佐用町安川1114-2","source":"国土交通省 国土数値情報"},"geometry":{"type":"Point","coordinates":[134.386471,34.980123]}},{"type":"Feature","properties":{"layer_id":"public_facilities","name":"櫛田原下集会所","address":"佐用町櫛田1768-3","source":"国土交通省 国土数値情報"},"geometry":{"type":"Point","coordinates":[134.351243,34.963723]}},{"type":"Feature","properties":{"layer_id":"public_facilities","name":"平松生活改善センター","address":"佐用町平松271","source":"国土交通省 国土数値情報"},"geometry":{"type":"Point","coordinates":[134.418844,35.016095]}},{"type":"Feature","properties":{"layer_id":"public_facilities","name":"来見集会所","address":"佐用町福中261","source":"国土交通省 国土数値情報"},"geometry":{"type":"Point","coordinates":[134.32837,35.018841]}},{"type":"Feature","properties":{"layer_id":"public_facilities","name":"上上月集会所","address":"佐用町上月759","source":"国土交通省 国土数値情報"},"geometry":{"type":"Point","coordinates":[134.323616,34.985898]}},{"type":"Feature","properties":{"layer_id":"public_facilities","name":"幕山地区センター","address":"佐用町福吉681-1","source":"国土交通省 国土数値情報"},"geometry":{"type":"Point","coordinates":[134.310686,35.011033]}},{"type":"Feature","properties":{"layer_id":"public_facilities","name":"円光寺集会所","address":"佐用町円光寺599-1","source":"国土交通省 国土数値情報"},"geometry":{"type":"Point","coordinates":[134.333257,34.969566]}},{"type":"Feature","properties":{"layer_id":"public_facilities","name":"小赤松集会所","address":"佐用町小赤松343","source":"国土交通省 国土数値情報"},"geometry":{"type":"Point","coordinates":[134.34035,34.948813]}},{"type":"Feature","properties":{"layer_id":"public_facilities","name":"宇根集会所","address":"佐用町宇根928","source":"国土交通省 国土数値情報"},"geometry":{"type":"Point","coordinates":[134.289381,34.998457]}},{"type":"Feature","properties":{"layer_id":"public_facilities","name":"上月支所","address":"佐用町上月787-2","source":"国土交通省 国土数値情報"},"geometry":{"type":"Point","coordinates":[134.323457,34.984592]}},{"type":"Feature","properties":{"layer_id":"public_facilities","name":"上月体育館ホタルドーム","address":"佐用町上月1080","source":"国土交通省 国土数値情報"},"geometry":{"type":"Point","coordinates":[134.318716,34.984969]}},{"type":"Feature","properties":{"layer_id":"public_facilities","name":"上秋里集会所","address":"佐用町上秋里417","source":"国土交通省 国土数値情報"},"geometry":{"type":"Point","coordinates":[134.307291,34.956435]}},{"type":"Feature","properties":{"layer_id":"public_facilities","name":"三日月福祉拠点施設","address":"佐用郡佐用町下本郷647-1","source":"国土交通省 国土数値情報"},"geometry":{"type":"Point","coordinates":[134.449868,34.996167]}},{"type":"Feature","properties":{"layer_id":"public_facilities","name":"中上月集会所","address":"佐用町上月478","source":"国土交通省 国土数値情報"},"geometry":{"type":"Point","coordinates":[134.324512,34.981509]}},{"type":"Feature","properties":{"layer_id":"public_facilities","name":"金子集会所","address":"佐用町才金70-1","source":"国土交通省 国土数値情報"},"geometry":{"type":"Point","coordinates":[134.311144,35.018296]}},{"type":"Feature","properties":{"layer_id":"public_facilities","name":"西新宿集会所","address":"佐用町西新宿399","source":"国土交通省 国土数値情報"},"geometry":{"type":"Point","coordinates":[134.299475,34.927958]}},{"type":"Feature","properties":{"layer_id":"public_facilities","name":"西大畠集会所","address":"佐用町西大畠557","source":"国土交通省 国土数値情報"},"geometry":{"type":"Point","coordinates":[134.296949,34.981425]}},{"type":"Feature","properties":{"layer_id":"public_facilities","name":"丸尾構造改善センター","address":"佐用町多賀1441","source":"国土交通省 国土数値情報"},"geometry":{"type":"Point","coordinates":[134.37268,34.968009]}},{"type":"Feature","properties":{"layer_id":"public_facilities","name":"平福体育館","address":"佐用町平福156-1","source":"国土交通省 国土数値情報"},"geometry":{"type":"Point","coordinates":[134.371868,35.049569]}},{"type":"Feature","properties":{"layer_id":"public_facilities","name":"櫛田集会所","address":"佐用町櫛田1101-1","source":"国土交通省 国土数値情報"},"geometry":{"type":"Point","coordinates":[134.353383,34.965303]}},{"type":"Feature","properties":{"layer_id":"public_facilities","name":"三日月地域交流センター","address":"佐用郡佐用町三日月1110-1","source":"国土交通省 国土数値情報"},"geometry":{"type":"Point","coordinates":[134.436959,34.985529]}},{"type":"Feature","properties":{"layer_id":"public_facilities","name":"家内集会所","address":"佐用町家内255-2","source":"国土交通省 国土数値情報"},"geometry":{"type":"Point","coordinates":[134.345921,34.95276]}},{"type":"Feature","properties":{"layer_id":"public_facilities","name":"下秋里集会所","address":"佐用町下秋里325","source":"国土交通省 国土数値情報"},"geometry":{"type":"Point","coordinates":[134.319446,34.960429]}},{"type":"Feature","properties":{"layer_id":"public_facilities","name":"金屋下土居集会所","address":"佐用町金屋101","source":"国土交通省 国土数値情報"},"geometry":{"type":"Point","coordinates":[134.319346,34.989321]}},{"type":"Feature","properties":{"layer_id":"public_facilities","name":"佐用町地域福祉センター","address":"佐用郡佐用町平福138-8","source":"国土交通省 国土数値情報"},"geometry":{"type":"Point","coordinates":[134.371373,35.049841]}},{"type":"Feature","properties":{"layer_id":"public_facilities","name":"小日山集会所","address":"佐用町小日山217-4","source":"国土交通省 国土数値情報"},"geometry":{"type":"Point","coordinates":[134.285497,34.970236]}},{"type":"Feature","properties":{"layer_id":"public_facilities","name":"仁位集会所","address":"佐用町仁位217-5","source":"国土交通省 国土数値情報"},"geometry":{"type":"Point","coordinates":[134.335656,34.976262]}},{"type":"Feature","properties":{"layer_id":"public_facilities","name":"田和集会所","address":"佐用町福中800-1","source":"国土交通省 国土数値情報"},"geometry":{"type":"Point","coordinates":[134.325625,35.024746]}},{"type":"Feature","properties":{"layer_id":"public_facilities","name":"才金集会所","address":"佐用町才金1273","source":"国土交通省 国土数値情報"},"geometry":{"type":"Point","coordinates":[134.298495,35.028547]}},{"type":"Feature","properties":{"layer_id":"public_facilities","name":"大垣内集会所","address":"佐用町大垣内550-2","source":"国土交通省 国土数値情報"},"geometry":{"type":"Point","coordinates":[134.29293,35.012425]}},{"type":"Feature","properties":{"layer_id":"public_facilities","name":"南光地域福祉センター","address":"佐用郡佐用町東徳久1946","source":"国土交通省 国土数値情報"},"geometry":{"type":"Point","coordinates":[134.406578,34.998719]}},{"type":"Feature","properties":{"layer_id":"public_facilities","name":"大酒集会所","address":"佐用町大酒967","source":"国土交通省 国土数値情報"},"geometry":{"type":"Point","coordinates":[134.340167,34.938931]}},{"type":"Feature","properties":{"layer_id":"public_facilities","name":"地域福祉センター","address":"佐用町平福138-8","source":"国土交通省 国土数値情報"},"geometry":{"type":"Point","coordinates":[134.371371,35.04983]}},{"type":"Feature","properties":{"layer_id":"public_facilities","name":"須山集会所","address":"佐用町櫛田772-1","source":"国土交通省 国土数値情報"},"geometry":{"type":"Point","coordinates":[134.365207,34.963869]}},{"type":"Feature","properties":{"layer_id":"public_facilities","name":"南光支所","address":"佐用町下徳久1004-1","source":"国土交通省 国土数値情報"},"geometry":{"type":"Point","coordinates":[134.387697,34.991459]}},{"type":"Feature","properties":{"layer_id":"public_facilities","name":"上月文化会館","address":"佐用郡佐用町上月787-2","source":"国土交通省 国土数値情報"},"geometry":{"type":"Point","coordinates":[134.32373,34.984417]}},{"type":"Feature","properties":{"layer_id":"public_facilities","name":"稗田集会所","address":"佐用町西大畠2091-1","source":"国土交通省 国土数値情報"},"geometry":{"type":"Point","coordinates":[134.28478,34.984813]}},{"type":"Feature","properties":{"layer_id":"public_facilities","name":"地域包括支援センター","address":"佐用郡佐用町佐用2611-1西館1F","source":"国土交通省 国土数値情報"},"geometry":{"type":"Point","coordinates":[134.355368,35.004084]}},{"type":"Feature","properties":{"layer_id":"public_facilities","name":"福吉集会所","address":"佐用町福吉415-1","source":"国土交通省 国土数値情報"},"geometry":{"type":"Point","coordinates":[134.31388,35.010183]}},{"type":"Feature","properties":{"layer_id":"public_facilities","name":"金屋上土居集会所","address":"佐用町金屋969","source":"国土交通省 国土数値情報"},"geometry":{"type":"Point","coordinates":[134.315862,35.000262]}},{"type":"Feature","properties":{"layer_id":"public_facilities","name":"石井体育館","address":"佐用町上石井755-2","source":"国土交通省 国土数値情報"},"geometry":{"type":"Point","coordinates":[134.362675,35.106271]}},{"type":"Feature","properties":{"layer_id":"public_facilities","name":"早瀬２集会所","address":"佐用町上月545-1","source":"国土交通省 国土数値情報"},"geometry":{"type":"Point","coordinates":[134.332462,34.984184]}},{"type":"Feature","properties":{"layer_id":"public_facilities","name":"須安集会所","address":"佐用町須安336-1","source":"国土交通省 国土数値情報"},"geometry":{"type":"Point","coordinates":[134.307841,34.993271]}},{"type":"Feature","properties":{"layer_id":"public_facilities","name":"スピカホール","address":"佐用町長尾字唐戸岩12-208","source":"国土交通省 国土数値情報"},"geometry":{"type":"Point","coordinates":[134.341457,35.019974]}},{"type":"Feature","properties":{"layer_id":"public_facilities","name":"久崎地区センター","address":"佐用町久崎331-1","source":"国土交通省 国土数値情報"},"geometry":{"type":"Point","coordinates":[134.340646,34.956967]}},{"type":"Feature","properties":{"layer_id":"cultural_facilities","name":"佐用勤労者体育センター","address":"佐用2598","source":"国土交通省 国土数値情報"},"geometry":{"type":"Point","coordinates":[134.355196,35.00465]}},{"type":"Feature","properties":{"layer_id":"cultural_facilities","name":"町民プール","address":"佐用287","source":"国土交通省 国土数値情報"},"geometry":{"type":"Point","coordinates":[134.359136,35.009715]}},{"type":"Feature","properties":{"layer_id":"cultural_facilities","name":"佐用勤労者体育センター","address":"佐用2598","source":"国土交通省 国土数値情報"},"geometry":{"type":"Point","coordinates":[134.354934,35.004494]}},{"type":"Feature","properties":{"layer_id":"cultural_facilities","name":"佐用町立平福郷土館","address":"平福594","source":"国土交通省 国土数値情報"},"geometry":{"type":"Point","coordinates":[134.370278,35.04797]}},{"type":"Feature","properties":{"layer_id":"cultural_facilities","name":"上月体育館（ホタルドーム）","address":"上月1080","source":"国土交通省 国土数値情報"},"geometry":{"type":"Point","coordinates":[134.318657,34.98493]}},{"type":"Feature","properties":{"layer_id":"cultural_facilities","name":"上月体育館（ホタルドーム）","address":"上月1080","source":"国土交通省 国土数値情報"},"geometry":{"type":"Point","coordinates":[134.318752,34.985183]}},{"type":"Feature","properties":{"layer_id":"cultural_facilities","name":"兵庫県立西はりま天文台公園","address":"西河内407-2","source":"国土交通省 国土数値情報"},"geometry":{"type":"Point","coordinates":[134.335496,35.025422]}},{"type":"Feature","properties":{"layer_id":"cultural_facilities","name":"上月体育館（ホタルドーム）","address":"上月1080","source":"国土交通省 国土数値情報"},"geometry":{"type":"Point","coordinates":[134.317373,34.985612]}},{"type":"Feature","properties":{"layer_id":"cultural_facilities","name":"佐用町立図書館","address":"佐用2585","source":"国土交通省 国土数値情報"},"geometry":{"type":"Point","coordinates":[134.35569,35.004756]}},{"type":"Feature","properties":{"layer_id":"cultural_facilities","name":"上月体育館（ホタルドーム）","address":"上月1080","source":"国土交通省 国土数値情報"},"geometry":{"type":"Point","coordinates":[134.318609,34.984813]}},{"type":"Feature","properties":{"layer_id":"cultural_facilities","name":"南光スポーツ公園","address":"林崎839","source":"国土交通省 国土数値情報"},"geometry":{"type":"Point","coordinates":[134.405171,34.997366]}},{"type":"Feature","properties":{"layer_id":"cultural_facilities","name":"上月体育館（ホタルドーム）","address":"上月1080","source":"国土交通省 国土数値情報"},"geometry":{"type":"Point","coordinates":[134.318728,34.985057]}},{"type":"Feature","properties":{"layer_id":"cultural_facilities","name":"上月体育館（ホタルドーム）","address":"上月1080","source":"国土交通省 国土数値情報"},"geometry":{"type":"Point","coordinates":[134.317421,34.985388]}},{"type":"Feature","properties":{"layer_id":"tourism_resources","name":"大鳴渓谷","address":"河川景観 / 峡谷・渓谷","source":"国土交通省 国土数値情報"},"geometry":{"type":"Point","coordinates":[134.410736,34.945896]}},{"type":"Feature","properties":{"layer_id":"tourism_resources","name":"天門山飛龍の滝","address":"河川景観 / 滝","source":"国土交通省 国土数値情報"},"geometry":{"type":"Point","coordinates":[134.362381,34.947865]}},{"type":"Feature","properties":{"layer_id":"tourism_resources","name":"大撫山","address":"山地（非火山性）景観 / 非火山性弧峰","source":"国土交通省 国土数値情報"},"geometry":{"type":"Point","coordinates":[134.335449,35.025642]}}]}