{"type":"FeatureCollection","municipality_code":"29449","pref":"奈良県","city":"十津川村","display_comment":"十津川村には、地域の歴史や暮らしを伝える案内板や石碑があり、それらを手がかりに街歩きを楽しめます。 まずは社寺・石碑・案内板に目を向けると、地域の由緒をたどる手がかりが見つけやすいでしょう。 現地では石碑、地蔵、地域資料館、公民館の由緒板を既存ピンと照らし合わせながら歩くと、見落としがちな地域の物語に出会いやすくなります。 ゆかりの人物では荒木貞夫や西村京太郎に注目すると、地域に残る文化や時代背景をさらに深く知るきっかけになります。 「世界遺産紀伊山地の霊場と参詣道」や「熊野参詣道小辺路」などの名所も、地域の物語を深掘りする絶好の入口です。","layer_counts":{"public_facilities":4,"scenic_nature_areas":2,"cultural_facilities":3,"parks_playgrounds":1,"tourism_resources":10},"total_features":20,"features":[{"type":"Feature","properties":{"layer_id":"public_facilities","name":"住民ホール","address":"十津川村小原225-1","source":"国土交通省 国土数値情報"},"geometry":{"type":"Point","coordinates":[135.793253,33.988265]}},{"type":"Feature","properties":{"layer_id":"public_facilities","name":"十津川村役場","address":"十津川村大字小原225-1","source":"国土交通省 国土数値情報"},"geometry":{"type":"Point","coordinates":[135.792611,33.988504]}},{"type":"Feature","properties":{"layer_id":"public_facilities","name":"体育文化センター","address":"十津川村湯之原714-2","source":"国土交通省 国土数値情報"},"geometry":{"type":"Point","coordinates":[135.793012,33.999367]}},{"type":"Feature","properties":{"layer_id":"public_facilities","name":"平谷地区地域交流センター","address":"十津川村大字平谷428-1","source":"国土交通省 国土数値情報"},"geometry":{"type":"Point","coordinates":[135.769303,33.940315]}},{"type":"Feature","properties":{"layer_id":"scenic_nature_areas","name":"自然保全地域","source":"国土交通省 国土数値情報"},"geometry":{"type":"Polygon","coordinates":[[[135.837337,33.924204],[135.837182,33.923414],[135.836655,33.923103],[135.836153,33.922895],[135.835469,33.922781],[135.834644,33.922876],[135.834115,33.923368],[135.83374,33.92317],[135.833211,33.922776],[135.832962,33.922709],[135.832673,33.922776],[135.832063,33.92355],[135.831666,33.923873],[135.831095,33.923817],[135.830033,33.923151],[135.82922,33.921868],[135.829183,33.92078],[135.829407,33.919999],[135.829053,33.919202],[135.828559,33.91774],[135.828815,33.916649],[135.82836,33.916475],[135.82778,33.917167],[135.827356,33.917437],[135.825429,33.916694],[135.825112,33.91703],[135.825447,33.91856],[135.824025,33.92048],[135.824244,33.921034],[135.824144,33.92179],[135.8242,33.922034],[135.82516,33.922027],[135.825694,33.922112],[135.825929,33.92227],[135.825833,33.922622],[135.823632,33.923926],[135.82369,33.92412],[135.82526,33.926508],[135.825878,33.927059],[135.827537,33.927559],[135.827968,33.928022],[135.829096,33.928792],[135.830384,33.929672],[135.831086,33.930489],[135.83263,33.930257],[135.833536,33.930184],[135.833797,33.929582],[135.833714,33.928877],[135.833714,33.928252],[135.833893,33.927627],[135.834395,33.927002],[135.834943,33.926731],[135.835984,33.926309],[135.836942,33.926103],[135.837199,33.925079],[135.837337,33.924204]]]}},{"type":"Feature","properties":{"layer_id":"scenic_nature_areas","name":"自然保全地域","source":"国土交通省 国土数値情報"},"geometry":{"type":"Polygon","coordinates":[[[135.837337,33.924204],[135.837182,33.923414],[135.836655,33.923103],[135.836153,33.922895],[135.835469,33.922781],[135.834644,33.922876],[135.834115,33.923368],[135.83374,33.92317],[135.833211,33.922776],[135.832962,33.922709],[135.832673,33.922776],[135.832063,33.92355],[135.831666,33.923873],[135.831095,33.923817],[135.830033,33.923151],[135.82922,33.921868],[135.829183,33.92078],[135.829407,33.919999],[135.829053,33.919202],[135.828559,33.91774],[135.828815,33.916649],[135.82836,33.916475],[135.82778,33.917167],[135.827356,33.917437],[135.825429,33.916694],[135.825112,33.91703],[135.825447,33.91856],[135.824025,33.92048],[135.824244,33.921034],[135.824144,33.92179],[135.8242,33.922034],[135.82516,33.922027],[135.825694,33.922112],[135.825929,33.92227],[135.825833,33.922622],[135.823632,33.923926],[135.82369,33.92412],[135.82526,33.926508],[135.825878,33.927059],[135.827537,33.927559],[135.827968,33.928022],[135.829096,33.928792],[135.830384,33.929672],[135.831086,33.930489],[135.83263,33.930257],[135.833536,33.930184],[135.833797,33.929582],[135.833714,33.928877],[135.833714,33.928252],[135.833893,33.927627],[135.834395,33.927002],[135.834943,33.926731],[135.835984,33.926309],[135.836942,33.926103],[135.837199,33.925079],[135.837337,33.924204]]]}},{"type":"Feature","properties":{"layer_id":"cultural_facilities","name":"昴の郷温泉プール","address":"平谷909-4","source":"国土交通省 国土数値情報"},"geometry":{"type":"Point","coordinates":[135.753029,33.938643]}},{"type":"Feature","properties":{"layer_id":"cultural_facilities","name":"十津川村体育文化センター","address":"湯之原","source":"国土交通省 国土数値情報"},"geometry":{"type":"Point","coordinates":[135.792943,33.999285]}},{"type":"Feature","properties":{"layer_id":"cultural_facilities","name":"十津川村体育文化センター","address":"湯之原","source":"国土交通省 国土数値情報"},"geometry":{"type":"Point","coordinates":[135.792946,33.999233]}},{"type":"Feature","properties":{"layer_id":"parks_playgrounds","name":"十津川村カントリーパーク","address":"吉野郡十津川村","source":"国土交通省 国土数値情報"},"geometry":{"type":"Point","coordinates":[135.856081,33.968048]}},{"type":"Feature","properties":{"layer_id":"tourism_resources","name":"大泰の滝","address":"河川景観 / 滝","source":"国土交通省 国土数値情報"},"geometry":{"type":"Point","coordinates":[135.838303,33.965591]}},{"type":"Feature","properties":{"layer_id":"tourism_resources","name":"滝川渓谷","address":"河川景観 / 峡谷・渓谷","source":"国土交通省 国土数値情報"},"geometry":{"type":"Point","coordinates":[135.850937,34.061512]}},{"type":"Feature","properties":{"layer_id":"tourism_resources","name":"モミジ滝","address":"河川景観 / 滝","source":"国土交通省 国土数値情報"},"geometry":{"type":"Point","coordinates":[135.781769,33.949078]}},{"type":"Feature","properties":{"layer_id":"tourism_resources","name":"芦廼瀬川渓谷","address":"河川景観 / 峡谷・渓谷","source":"国土交通省 国土数値情報"},"geometry":{"type":"Point","coordinates":[135.847763,33.969418]}},{"type":"Feature","properties":{"layer_id":"tourism_resources","name":"二ノ岩滝","address":"河川景観 / 滝","source":"国土交通省 国土数値情報"},"geometry":{"type":"Point","coordinates":[135.845154,34.062061]}},{"type":"Feature","properties":{"layer_id":"tourism_resources","name":"永井ドロ","address":"湖沼景観 / 湖沼","source":"国土交通省 国土数値情報"},"geometry":{"type":"Point","coordinates":[135.74585,33.965984]}},{"type":"Feature","properties":{"layer_id":"tourism_resources","name":"七泰の滝","address":"河川景観 / 滝","source":"国土交通省 国土数値情報"},"geometry":{"type":"Point","coordinates":[135.857864,33.976215]}},{"type":"Feature","properties":{"layer_id":"tourism_resources","name":"百間グラ","address":"河川景観 / 河川 断崖・岩壁","source":"国土交通省 国土数値情報"},"geometry":{"type":"Point","coordinates":[135.862015,33.997578]}},{"type":"Feature","properties":{"layer_id":"tourism_resources","name":"滝川","address":"河川景観 / 穿入蛇行河川","source":"国土交通省 国土数値情報"},"geometry":{"type":"Point","coordinates":[135.796875,34.060772]}},{"type":"Feature","properties":{"layer_id":"tourism_resources","name":"新宮川（十津川）","address":"河川景観 / 穿入蛇行河川","source":"国土交通省 国土数値情報"},"geometry":{"type":"Point","coordinates":[135.797272,34.014118]}}]}