{"type":"FeatureCollection","municipality_code":"31389","pref":"鳥取県","city":"南部町","display_comment":"南部町には、西岩代村、東岩代村、山内村など、近世の村々の記憶を伝える地名が残っています。 まずは社寺・地域信仰に目を向けると、地域の由緒をたどる手がかりが見つけやすいでしょう。 現地では西岩代村、東岩代村ゆかりの旧境石標や村の歴史案内板が、地域の歴史を読み解く手がかりになるでしょう。 田・新田・用水にちなむ地名が多い場所では、土地改良碑や用水記念碑も注目したい探索対象です。 ゆかりの人物では西尾邑次や松下芳三郎に注目すると、地域に残る文化や時代背景をさらに深く知るきっかけになります。 「法勝寺城址」や「手間要害」などの名所も、地域の物語を深掘りする絶好の入口です。","layer_counts":{"cafe_restaurant":2,"public_facilities":28,"scenic_nature_areas":4,"cultural_facilities":19,"parks_playgrounds":1,"tourism_resources":1},"total_features":55,"features":[{"type":"Feature","properties":{"layer_id":"cafe_restaurant","name":"丸合　西伯店","category":"food","address":"鳥取県西伯郡南部町阿賀２２６－１","source":"厚生労働省 食品衛生申請等システム（オープンデータ）","municipality_code":"31389","municipality_pref":"鳥取県","municipality_name":"南部町","municipality_code_method":"food_exact_coord"},"geometry":{"type":"Point","coordinates":[133.330581,35.356675]}},{"type":"Feature","properties":{"layer_id":"cafe_restaurant","name":"NOK株式会社鳥取事業場","category":"food","address":"鳥取県西伯郡南部町原1000番地","source":"厚生労働省 食品衛生申請等システム（オープンデータ）","municipality_code":"31389","municipality_pref":"鳥取県","municipality_name":"南部町","municipality_code_method":"food_exact_coord"},"geometry":{"type":"Point","coordinates":[133.317402,35.350665]}},{"type":"Feature","properties":{"layer_id":"public_facilities","name":"総合福祉センターいこい荘","category":"public","address":"南部町浅井938","source":"国土交通省 国土数値情報","municipality_code":"31389","municipality_pref":"鳥取県","municipality_name":"南部町","municipality_code_method":"source_exact_coord"},"geometry":{"type":"Point","coordinates":[133.370149,35.361927]}},{"type":"Feature","properties":{"layer_id":"public_facilities","name":"青年の家","category":"public","address":"南部町中223","source":"国土交通省 国土数値情報","municipality_code":"31389","municipality_pref":"鳥取県","municipality_name":"南部町","municipality_code_method":"source_exact_coord"},"geometry":{"type":"Point","coordinates":[133.349317,35.31096414]}},{"type":"Feature","properties":{"layer_id":"public_facilities","name":"ふるさと交流センター","category":"public","address":"南部町福成1452-1","source":"国土交通省 国土数値情報","municipality_code":"31389","municipality_pref":"鳥取県","municipality_name":"南部町","municipality_code_method":"source_exact_coord"},"geometry":{"type":"Point","coordinates":[133.33292,35.370515]}},{"type":"Feature","properties":{"layer_id":"public_facilities","name":"天萬庁舎","category":"public","address":"南部町天萬558","source":"国土交通省 国土数値情報","municipality_code":"31389","municipality_pref":"鳥取県","municipality_name":"南部町","municipality_code_method":"source_exact_coord"},"geometry":{"type":"Point","coordinates":[133.361955,35.370815]}},{"type":"Feature","properties":{"layer_id":"public_facilities","name":"荻名地区集会所","category":"public","address":"南部町荻名298-2","source":"国土交通省 国土数値情報","municipality_code":"31389","municipality_pref":"鳥取県","municipality_name":"南部町","municipality_code_method":"source_exact_coord"},"geometry":{"type":"Point","coordinates":[133.389487,35.363278]}},{"type":"Feature","properties":{"layer_id":"public_facilities","name":"林構集会所","category":"public","address":"南部町能竹335-3","source":"国土交通省 国土数値情報","municipality_code":"31389","municipality_pref":"鳥取県","municipality_name":"南部町","municipality_code_method":"source_exact_coord"},"geometry":{"type":"Point","coordinates":[133.334947,35.316484]}},{"type":"Feature","properties":{"layer_id":"public_facilities","name":"上長田会館","category":"public","address":"南部町上中谷2397-5","source":"国土交通省 国土数値情報","municipality_code":"31389","municipality_pref":"鳥取県","municipality_name":"南部町","municipality_code_method":"source_exact_coord"},"geometry":{"type":"Point","coordinates":[133.331014,35.283338]}},{"type":"Feature","properties":{"layer_id":"public_facilities","name":"円山地区集会所","category":"public","address":"南部町円山50","source":"国土交通省 国土数値情報","municipality_code":"31389","municipality_pref":"鳥取県","municipality_name":"南部町","municipality_code_method":"source_exact_coord"},"geometry":{"type":"Point","coordinates":[133.368707,35.377006]}},{"type":"Feature","properties":{"layer_id":"public_facilities","name":"会見農村環境改善センター","category":"public","address":"南部町市山1083-1","source":"国土交通省 国土数値情報","municipality_code":"31389","municipality_pref":"鳥取県","municipality_name":"南部町","municipality_code_method":"source_exact_coord"},"geometry":{"type":"Point","coordinates":[133.374482,35.359924]}},{"type":"Feature","properties":{"layer_id":"public_facilities","name":"南部町公民館","category":"public","address":"南部町天萬558","source":"国土交通省 国土数値情報","municipality_code":"31389","municipality_pref":"鳥取県","municipality_name":"南部町","municipality_code_method":"source_exact_coord"},"geometry":{"type":"Point","coordinates":[133.361955,35.370795]}},{"type":"Feature","properties":{"layer_id":"public_facilities","name":"南部町民体育館","category":"public","address":"南部町法勝寺270","source":"国土交通省 国土数値情報","municipality_code":"31389","municipality_pref":"鳥取県","municipality_name":"南部町","municipality_code_method":"source_exact_coord"},"geometry":{"type":"Point","coordinates":[133.3267513,35.34381258]}},{"type":"Feature","properties":{"layer_id":"public_facilities","name":"総合福祉センターしあわせ","category":"public","address":"南部町法勝寺331-1","source":"国土交通省 国土数値情報","municipality_code":"31389","municipality_pref":"鳥取県","municipality_name":"南部町","municipality_code_method":"source_exact_coord"},"geometry":{"type":"Point","coordinates":[133.326441,35.342255]}},{"type":"Feature","properties":{"layer_id":"public_facilities","name":"町民体育館","category":"public","address":"南部町法勝寺270","source":"国土交通省 国土数値情報","municipality_code":"31389","municipality_pref":"鳥取県","municipality_name":"南部町","municipality_code_method":"source_exact_coord"},"geometry":{"type":"Point","coordinates":[133.324774,35.342734]}},{"type":"Feature","properties":{"layer_id":"public_facilities","name":"南部町役場","category":"public","address":"南部町法勝寺377-1","source":"国土交通省 国土数値情報","municipality_code":"31389","municipality_pref":"鳥取県","municipality_name":"南部町","municipality_code_method":"source_exact_coord"},"geometry":{"type":"Point","coordinates":[133.326829,35.34033]}},{"type":"Feature","properties":{"layer_id":"public_facilities","name":"池野地区集会所","category":"public","address":"南部町池野165","source":"国土交通省 国土数値情報","municipality_code":"31389","municipality_pref":"鳥取県","municipality_name":"南部町","municipality_code_method":"source_exact_coord"},"geometry":{"type":"Point","coordinates":[133.41185,35.337869]}},{"type":"Feature","properties":{"layer_id":"public_facilities","name":"戸構集会所","category":"public","address":"南部町鴨部1265","source":"国土交通省 国土数値情報","municipality_code":"31389","municipality_pref":"鳥取県","municipality_name":"南部町","municipality_code_method":"source_exact_coord"},"geometry":{"type":"Point","coordinates":[133.328416,35.332198]}},{"type":"Feature","properties":{"layer_id":"public_facilities","name":"笹畑集会所","category":"public","address":"南部町上中谷147-1","source":"国土交通省 国土数値情報","municipality_code":"31389","municipality_pref":"鳥取県","municipality_name":"南部町","municipality_code_method":"source_exact_coord"},"geometry":{"type":"Point","coordinates":[133.3312448,35.29192427]}},{"type":"Feature","properties":{"layer_id":"public_facilities","name":"農業者トレーニングセンター","category":"public","address":"南部町天萬526","source":"国土交通省 国土数値情報","municipality_code":"31389","municipality_pref":"鳥取県","municipality_name":"南部町","municipality_code_method":"source_exact_coord"},"geometry":{"type":"Point","coordinates":[133.362494,35.370315]}},{"type":"Feature","properties":{"layer_id":"public_facilities","name":"宮前隣保館","category":"public","address":"南部町宮前157-1","source":"国土交通省 国土数値情報","municipality_code":"31389","municipality_pref":"鳥取県","municipality_name":"南部町","municipality_code_method":"source_exact_coord"},"geometry":{"type":"Point","coordinates":[133.36543,35.369681]}},{"type":"Feature","properties":{"layer_id":"public_facilities","name":"鶴田地区集会所","category":"public","address":"南部町鶴田485-3","source":"国土交通省 国土数値情報","municipality_code":"31389","municipality_pref":"鳥取県","municipality_name":"南部町","municipality_code_method":"source_exact_coord"},"geometry":{"type":"Point","coordinates":[133.419545,35.347412]}},{"type":"Feature","properties":{"layer_id":"public_facilities","name":"賀野地域交流拠点施設","category":"public","address":"南部町市山1087-1","source":"国土交通省 国土数値情報","municipality_code":"31389","municipality_pref":"鳥取県","municipality_name":"南部町","municipality_code_method":"source_exact_coord"},"geometry":{"type":"Point","coordinates":[133.3751683,35.35911821]}},{"type":"Feature","properties":{"layer_id":"public_facilities","name":"両長田ふれあい会館","category":"public","address":"南部町能竹394-2","source":"国土交通省 国土数値情報","municipality_code":"31389","municipality_pref":"鳥取県","municipality_name":"南部町","municipality_code_method":"source_exact_coord"},"geometry":{"type":"Point","coordinates":[133.336824,35.315236]}},{"type":"Feature","properties":{"layer_id":"public_facilities","name":"東西町コミュニティセンター","category":"public","address":"南部町境1569","source":"国土交通省 国土数値情報","municipality_code":"31389","municipality_pref":"鳥取県","municipality_name":"南部町","municipality_code_method":"source_exact_coord"},"geometry":{"type":"Point","coordinates":[133.341261,35.380233]}},{"type":"Feature","properties":{"layer_id":"public_facilities","name":"長田集会所","category":"public","address":"南部町北方2693","source":"国土交通省 国土数値情報","municipality_code":"31389","municipality_pref":"鳥取県","municipality_name":"南部町","municipality_code_method":"source_exact_coord"},"geometry":{"type":"Point","coordinates":[133.324956,35.363634]}},{"type":"Feature","properties":{"layer_id":"public_facilities","name":"西伯農村環境改善センター","category":"public","address":"南部町法勝寺167-2","source":"国土交通省 国土数値情報","municipality_code":"31389","municipality_pref":"鳥取県","municipality_name":"南部町","municipality_code_method":"source_exact_coord"},"geometry":{"type":"Point","coordinates":[133.328902,35.341608]}},{"type":"Feature","properties":{"layer_id":"public_facilities","name":"西伯文化会館","category":"public","address":"南部町法勝寺802","source":"国土交通省 国土数値情報","municipality_code":"31389","municipality_pref":"鳥取県","municipality_name":"南部町","municipality_code_method":"source_exact_coord"},"geometry":{"type":"Point","coordinates":[133.323283,35.343613]}},{"type":"Feature","properties":{"layer_id":"public_facilities","name":"公民館さいはく分館","category":"public","address":"南部町法勝寺341","source":"国土交通省 国土数値情報","municipality_code":"31389","municipality_pref":"鳥取県","municipality_name":"南部町","municipality_code_method":"source_exact_coord"},"geometry":{"type":"Point","coordinates":[133.327679,35.341719]}},{"type":"Feature","properties":{"layer_id":"public_facilities","name":"東西町集会所","category":"public","address":"南部町境1150-1","source":"国土交通省 国土数値情報","municipality_code":"31389","municipality_pref":"鳥取県","municipality_name":"南部町","municipality_code_method":"source_exact_coord"},"geometry":{"type":"Point","coordinates":[133.341248,35.380533]}},{"type":"Feature","properties":{"layer_id":"scenic_nature_areas","name":"西伯町","category":"nature","source":"国土交通省 国土数値情報","municipality_code":"31389","municipality_pref":"鳥取県","municipality_name":"南部町","municipality_code_method":"nearest_centroid"},"geometry":{"type":"Polygon","coordinates":[[[133.32121700000002,35.33969599999999],[133.320698,35.339566999999974],[133.32032800000002,35.339605000000006],[133.320009,35.33970600000002],[133.319762,35.339783],[133.319732,35.34006499999997],[133.31976599999996,35.34055999999998],[133.32008399999998,35.341149000000044],[133.320405,35.34160800000001],[133.32077499999997,35.342030000000015],[133.320944,35.34210799999998],[133.321174,35.342149000000006],[133.32148000000004,35.34204500000001],[133.32183400000002,35.341844999999985],[133.32205699999997,35.34174800000004],[133.32230999999996,35.34140899999997],[133.32244199999997,35.34094800000002],[133.32235600000004,35.34034299999996],[133.321969,35.34005500000003],[133.32121700000002,35.33969599999999]]]}},{"type":"Feature","properties":{"layer_id":"scenic_nature_areas","name":"自然保全特別地区","category":"nature","source":"国土交通省 国土数値情報","municipality_code":"31389","municipality_pref":"鳥取県","municipality_name":"南部町","municipality_code_method":"nearest_centroid","resource_class":"自然保全特別地区","source_dataset_code":"A11"},"geometry":{"type":"Polygon","coordinates":[[[133.37224499999996,35.31861900000001],[133.371949,35.31853399999999],[133.37176299999996,35.31855399999996],[133.37153500000002,35.31863300000001],[133.37149000000002,35.318737],[133.37151499999996,35.31888799999997],[133.37222799999998,35.31948000000001],[133.37262699999997,35.32013700000002],[133.37286600000002,35.320965999999956],[133.37299800000002,35.32148000000003],[133.37338499999998,35.32200900000001],[133.37390200000002,35.322422999999986],[133.374171,35.32247300000003],[133.37455600000004,35.32243200000002],[133.374827,35.32235399999996],[133.37493499999997,35.32193600000001],[133.37503599999997,35.32112299999998],[133.374899,35.32016700000001],[133.37473500000002,35.319850999999986],[133.37452499999998,35.319685000000014],[133.37408499999998,35.319678999999965],[133.37368899999998,35.31956900000001],[133.37328299999996,35.31929599999998],[133.372724,35.318846999999955],[133.37224499999996,35.31861900000001]]]}},{"type":"Feature","properties":{"layer_id":"scenic_nature_areas","name":"西伯町","category":"nature","source":"国土交通省 国土数値情報","municipality_code":"31389","municipality_pref":"鳥取県","municipality_name":"南部町","municipality_code_method":"nearest_centroid"},"geometry":{"type":"Polygon","coordinates":[[[133.32121700000002,35.33969599999999],[133.320698,35.339566999999974],[133.32032800000002,35.339605000000006],[133.320009,35.33970600000002],[133.319762,35.339783],[133.319732,35.34006499999997],[133.31976599999996,35.34055999999998],[133.32008399999998,35.341149000000044],[133.320405,35.34160800000001],[133.32077499999997,35.342030000000015],[133.320944,35.34210799999998],[133.321174,35.342149000000006],[133.32148000000004,35.34204500000001],[133.32183400000002,35.341844999999985],[133.32205699999997,35.34174800000004],[133.32230999999996,35.34140899999997],[133.32244199999997,35.34094800000002],[133.32235600000004,35.34034299999996],[133.321969,35.34005500000003],[133.32121700000002,35.33969599999999]]]}},{"type":"Feature","properties":{"layer_id":"scenic_nature_areas","name":"自然保全特別地区","category":"nature","source":"国土交通省 国土数値情報","municipality_code":"31389","municipality_pref":"鳥取県","municipality_name":"南部町","municipality_code_method":"nearest_centroid","resource_class":"自然保全特別地区","source_dataset_code":"A11"},"geometry":{"type":"Polygon","coordinates":[[[133.37224499999996,35.31861900000001],[133.371949,35.31853399999999],[133.37176299999996,35.31855399999996],[133.37153500000002,35.31863300000001],[133.37149000000002,35.318737],[133.37151499999996,35.31888799999997],[133.37222799999998,35.31948000000001],[133.37262699999997,35.32013700000002],[133.37286600000002,35.320965999999956],[133.37299800000002,35.32148000000003],[133.37338499999998,35.32200900000001],[133.37390200000002,35.322422999999986],[133.374171,35.32247300000003],[133.37455600000004,35.32243200000002],[133.374827,35.32235399999996],[133.37493499999997,35.32193600000001],[133.37503599999997,35.32112299999998],[133.374899,35.32016700000001],[133.37473500000002,35.319850999999986],[133.37452499999998,35.319685000000014],[133.37408499999998,35.319678999999965],[133.37368899999998,35.31956900000001],[133.37328299999996,35.31929599999998],[133.372724,35.318846999999955],[133.37224499999996,35.31861900000001]]]}},{"type":"Feature","properties":{"layer_id":"cultural_facilities","name":"ふるさと交流センター","category":"public","address":"福成1452-1","source":"国土交通省 国土数値情報","municipality_code":"31389","municipality_pref":"鳥取県","municipality_name":"南部町","municipality_code_method":"nearest_centroid"},"geometry":{"type":"Point","coordinates":[133.333079,35.37049]}},{"type":"Feature","properties":{"layer_id":"cultural_facilities","name":"南部町民運動場","category":"public","address":"浅井927","source":"国土交通省 国土数値情報","municipality_code":"31389","municipality_pref":"鳥取県","municipality_name":"南部町","municipality_code_method":"nearest_centroid"},"geometry":{"type":"Point","coordinates":[133.370402,35.36094]}},{"type":"Feature","properties":{"layer_id":"cultural_facilities","name":"南部町民野球場","category":"public","address":"浅井927","source":"国土交通省 国土数値情報","municipality_code":"31389","municipality_pref":"鳥取県","municipality_name":"南部町","municipality_code_method":"nearest_centroid"},"geometry":{"type":"Point","coordinates":[133.370402,35.361076]}},{"type":"Feature","properties":{"layer_id":"cultural_facilities","name":"祐生出会いの館","category":"public","address":"下中谷1008","source":"国土交通省 国土数値情報","municipality_code":"31389","municipality_pref":"鳥取県","municipality_name":"南部町","municipality_code_method":"nearest_centroid"},"geometry":{"type":"Point","coordinates":[133.325041,35.304115]}},{"type":"Feature","properties":{"layer_id":"cultural_facilities","name":"農業者トレーニングセンター","category":"public","address":"天萬526","source":"国土交通省 国土数値情報","municipality_code":"31389","municipality_pref":"鳥取県","municipality_name":"南部町","municipality_code_method":"nearest_centroid"},"geometry":{"type":"Point","coordinates":[133.362491,35.370327]}},{"type":"Feature","properties":{"layer_id":"cultural_facilities","name":"西伯カントリーパーク","category":"public","address":"能竹397-1","source":"国土交通省 国土数値情報","municipality_code":"31389","municipality_pref":"鳥取県","municipality_name":"南部町","municipality_code_method":"nearest_centroid"},"geometry":{"type":"Point","coordinates":[133.336811,35.312972]}},{"type":"Feature","properties":{"layer_id":"cultural_facilities","name":"西伯カントリーパーク","category":"public","address":"能竹397-1","source":"国土交通省 国土数値情報","municipality_code":"31389","municipality_pref":"鳥取県","municipality_name":"南部町","municipality_code_method":"nearest_centroid"},"geometry":{"type":"Point","coordinates":[133.335207,35.314538]}},{"type":"Feature","properties":{"layer_id":"cultural_facilities","name":"ふるさと交流センター","category":"public","address":"福成1452-1","source":"国土交通省 国土数値情報","municipality_code":"31389","municipality_pref":"鳥取県","municipality_name":"南部町","municipality_code_method":"nearest_centroid"},"geometry":{"type":"Point","coordinates":[133.333054,35.370167]}},{"type":"Feature","properties":{"layer_id":"cultural_facilities","name":"おおくにコミュニティ運動施設","category":"public","address":"原868-7","source":"国土交通省 国土数値情報","municipality_code":"31389","municipality_pref":"鳥取県","municipality_name":"南部町","municipality_code_method":"nearest_centroid"},"geometry":{"type":"Point","coordinates":[133.322056,35.349847]}},{"type":"Feature","properties":{"layer_id":"cultural_facilities","name":"南部町立天萬図書館","category":"public","address":"天萬558（南部町役場天萬庁舎1階）","source":"国土交通省 国土数値情報","municipality_code":"31389","municipality_pref":"鳥取県","municipality_name":"南部町","municipality_code_method":"nearest_centroid"},"geometry":{"type":"Point","coordinates":[133.361921,35.370756]}},{"type":"Feature","properties":{"layer_id":"cultural_facilities","name":"西伯カントリーパーク","category":"public","address":"能竹397-1","source":"国土交通省 国土数値情報","municipality_code":"31389","municipality_pref":"鳥取県","municipality_name":"南部町","municipality_code_method":"nearest_centroid"},"geometry":{"type":"Point","coordinates":[133.335736,35.315576]}},{"type":"Feature","properties":{"layer_id":"cultural_facilities","name":"南部町立法勝寺図書館","category":"public","address":"法勝寺342","source":"国土交通省 国土数値情報","municipality_code":"31389","municipality_pref":"鳥取県","municipality_name":"南部町","municipality_code_method":"nearest_centroid"},"geometry":{"type":"Point","coordinates":[133.327807,35.337299]}},{"type":"Feature","properties":{"layer_id":"cultural_facilities","name":"おおくにコミュニティ運動施設","category":"public","address":"原868-7","source":"国土交通省 国土数値情報","municipality_code":"31389","municipality_pref":"鳥取県","municipality_name":"南部町","municipality_code_method":"nearest_centroid"},"geometry":{"type":"Point","coordinates":[133.32205,35.349798]}},{"type":"Feature","properties":{"layer_id":"cultural_facilities","name":"おおくに農山村広場","category":"public","address":"原868-7","source":"国土交通省 国土数値情報","municipality_code":"31389","municipality_pref":"鳥取県","municipality_name":"南部町","municipality_code_method":"nearest_centroid"},"geometry":{"type":"Point","coordinates":[133.321911,35.350479]}},{"type":"Feature","properties":{"layer_id":"cultural_facilities","name":"おおくにコミュニティ運動施設","category":"public","address":"原868-7","source":"国土交通省 国土数値情報","municipality_code":"31389","municipality_pref":"鳥取県","municipality_name":"南部町","municipality_code_method":"nearest_centroid"},"geometry":{"type":"Point","coordinates":[133.322053,35.349747]}},{"type":"Feature","properties":{"layer_id":"cultural_facilities","name":"おおくに農山村広場","category":"public","address":"原868-7","source":"国土交通省 国土数値情報","municipality_code":"31389","municipality_pref":"鳥取県","municipality_name":"南部町","municipality_code_method":"nearest_centroid"},"geometry":{"type":"Point","coordinates":[133.321914,35.350545]}},{"type":"Feature","properties":{"layer_id":"cultural_facilities","name":"西伯カントリーパーク","category":"public","address":"能竹397-1","source":"国土交通省 国土数値情報","municipality_code":"31389","municipality_pref":"鳥取県","municipality_name":"南部町","municipality_code_method":"nearest_centroid"},"geometry":{"type":"Point","coordinates":[133.335308,35.31367]}},{"type":"Feature","properties":{"layer_id":"cultural_facilities","name":"天津運動公園","category":"public","address":"福成743","source":"国土交通省 国土数値情報","municipality_code":"31389","municipality_pref":"鳥取県","municipality_name":"南部町","municipality_code_method":"nearest_centroid"},"geometry":{"type":"Point","coordinates":[133.343935,35.379535]}},{"type":"Feature","properties":{"layer_id":"cultural_facilities","name":"南部町民体育館","category":"public","address":"法勝寺270","source":"国土交通省 国土数値情報","municipality_code":"31389","municipality_pref":"鳥取県","municipality_name":"南部町","municipality_code_method":"nearest_centroid"},"geometry":{"type":"Point","coordinates":[133.326752,35.343803]}},{"type":"Feature","properties":{"layer_id":"parks_playgrounds","name":"西伯カントリーパーク","category":"nature","address":"西伯郡南部町","source":"国土交通省 国土数値情報","municipality_code":"31389","municipality_pref":"鳥取県","municipality_name":"南部町","municipality_code_method":"nearest_centroid"},"geometry":{"type":"Point","coordinates":[133.33560487,35.3156361]}},{"type":"Feature","properties":{"layer_id":"tourism_resources","name":"金花山","category":"nature","address":"山地（非火山性）景観 / 非火山性弧峰","source":"国土交通省 国土数値情報","municipality_code":"31389","municipality_pref":"鳥取県","municipality_name":"南部町","municipality_code_method":"nearest_centroid","resource_code":"205"},"geometry":{"type":"Point","coordinates":[133.3744354248047,35.320804595947266]}}],"display_comment_original":"南部町周辺には、近世村の記憶として西岩代村、東岩代村、山内村などの旧村名が見える。 まずは社寺・地域信仰を軸に、地区の由緒を拾える場所を探したい。 現地では西岩代村、東岩代村ゆかりの旧境石標や村の歴史案内板が手がかりになりそうだ。さらに田・新田・用水の地名が多く、土地改良碑や用水記念碑が見つかる可能性がある。","story_enrichment":{"samurai_priority_people":[],"notable_people":["西尾邑次","松下芳三郎","古曳保正","2代坂口平兵衛"],"honorary_citizens":[],"tourism_landmarks":["法勝寺城址","手間要害","さくらまつり、法勝寺川沿い桜並木","緑水湖（）","とっとり花回廊","赤猪岩神社"],"specialties":[],"food_culture":[],"historical_domains":[],"heian_place_names":[],"japan_search_support":[],"enrichment_sources":["https://ja.wikipedia.org/wiki/%E5%8D%97%E9%83%A8%E7%94%BA_%28%E9%B3%A5%E5%8F%96%E7%9C%8C%29","https://www.wikidata.org/wiki/Q11627787","https://www.wikidata.org/wiki/Q11528985","https://www.wikidata.org/wiki/Q11411270","https://www.wikidata.org/wiki/Q11425051"],"enrichment_errors":[],"wikipedia_title":"南部町 (鳥取県)","wikipedia_revision_id":"109991318","wikidata_qid":"Q1156169","wikipedia_url":"https://ja.wikipedia.org/wiki/%E5%8D%97%E9%83%A8%E7%94%BA_%28%E9%B3%A5%E5%8F%96%E7%9C%8C%29","japan_search_query_url":"","status":"wikipedia_ok"}}