{"type":"FeatureCollection","municipality_code":"36341","pref":"徳島県","city":"石井町","display_comment":"石井町には、地域の歴史や暮らしを伝える案内板や石碑があり、それらを手がかりに街歩きを楽しめます。 まずは城跡・武家文化に目を向けると、地域の由緒をたどる手がかりが見つけやすいでしょう。 現地では石碑、地蔵、地域資料館、公民館の由緒板を既存ピンと照らし合わせながら歩くと、見落としがちな地域の物語に出会いやすくなります。 「前山公園」や「いしいドーム（飯尾川公園）」などの名所も、地域の物語を深掘りする絶好の入口です。","layer_counts":{"cafe_restaurant":1,"public_facilities":32,"cultural_facilities":15,"parks_playgrounds":5},"total_features":53,"features":[{"type":"Feature","properties":{"layer_id":"cafe_restaurant","name":"ケンタッキーフライドチキンフジグラン石井店","address":"徳島県名西郡石井町高川原字天神５４４－１ フジグラン石井","source":"厚生労働省 食品衛生申請等システム（オープンデータ）"},"geometry":{"type":"Point","coordinates":[134.441153,34.083044]}},{"type":"Feature","properties":{"layer_id":"public_facilities","name":"高川原分館","address":"石井町高川原字高川原1276","source":"国土交通省 国土数値情報"},"geometry":{"type":"Point","coordinates":[134.449511,34.076591]}},{"type":"Feature","properties":{"layer_id":"public_facilities","name":"高川原町民体育館","address":"石井町高川原字高川原1161","source":"国土交通省 国土数値情報"},"geometry":{"type":"Point","coordinates":[134.448047,34.076551]}},{"type":"Feature","properties":{"layer_id":"public_facilities","name":"大万農業改善センター","address":"石井町浦庄字大万137-1","source":"国土交通省 国土数値情報"},"geometry":{"type":"Point","coordinates":[134.42865,34.075847]}},{"type":"Feature","properties":{"layer_id":"public_facilities","name":"高川原福祉会館","address":"石井町高川原字高川原666-1","source":"国土交通省 国土数値情報"},"geometry":{"type":"Point","coordinates":[134.445469,34.07365]}},{"type":"Feature","properties":{"layer_id":"public_facilities","name":"高畑東農業改善センター","address":"石井町藍畑字高畑436-5","source":"国土交通省 国土数値情報"},"geometry":{"type":"Point","coordinates":[134.447187,34.092681]}},{"type":"Feature","properties":{"layer_id":"public_facilities","name":"浦庄町民体育館","address":"石井町浦庄字国実111-4","source":"国土交通省 国土数値情報"},"geometry":{"type":"Point","coordinates":[134.421031,34.075788]}},{"type":"Feature","properties":{"layer_id":"public_facilities","name":"森の下公会堂","address":"石井町高川原字桜間305-1","source":"国土交通省 国土数値情報"},"geometry":{"type":"Point","coordinates":[134.464188,34.087348]}},{"type":"Feature","properties":{"layer_id":"public_facilities","name":"青少年育成センター","address":"石井町高川原字高川原121-1","source":"国土交通省 国土数値情報"},"geometry":{"type":"Point","coordinates":[134.440661,34.074916]}},{"type":"Feature","properties":{"layer_id":"public_facilities","name":"公民館高川原分館","address":"石井町高川原字高川原1258","source":"国土交通省 国土数値情報"},"geometry":{"type":"Point","coordinates":[134.449398,34.076729]}},{"type":"Feature","properties":{"layer_id":"public_facilities","name":"上南集会所","address":"石井町浦庄字上浦662-7","source":"国土交通省 国土数値情報"},"geometry":{"type":"Point","coordinates":[134.40441,34.065817]}},{"type":"Feature","properties":{"layer_id":"public_facilities","name":"徳島県立農林水産総合技術支援センター","address":"石井町石井字石井1660","source":"国土交通省 国土数値情報"},"geometry":{"type":"Point","coordinates":[134.440263,34.062457]}},{"type":"Feature","properties":{"layer_id":"public_facilities","name":"高川原公会堂","address":"石井町高川原字高川原653-1","source":"国土交通省 国土数値情報"},"geometry":{"type":"Point","coordinates":[134.445634,34.073756]}},{"type":"Feature","properties":{"layer_id":"public_facilities","name":"公民館石井分館","address":"石井町石井字石井431-1","source":"国土交通省 国土数値情報"},"geometry":{"type":"Point","coordinates":[134.443209,34.068849]}},{"type":"Feature","properties":{"layer_id":"public_facilities","name":"公民館浦庄分館","address":"石井町浦庄字下浦481-1","source":"国土交通省 国土数値情報"},"geometry":{"type":"Point","coordinates":[134.419983,34.067054]}},{"type":"Feature","properties":{"layer_id":"public_facilities","name":"公民館高原分館","address":"石井町高原字東高原252-1","source":"国土交通省 国土数値情報"},"geometry":{"type":"Point","coordinates":[134.421716,34.084011]}},{"type":"Feature","properties":{"layer_id":"public_facilities","name":"農業研修センター","address":"石井町高川原字高川原66-5","source":"国土交通省 国土数値情報"},"geometry":{"type":"Point","coordinates":[134.442425,34.076432]}},{"type":"Feature","properties":{"layer_id":"public_facilities","name":"浦庄分館","address":"石井町浦庄字下浦602-1","source":"国土交通省 国土数値情報"},"geometry":{"type":"Point","coordinates":[134.420068,34.066977]}},{"type":"Feature","properties":{"layer_id":"public_facilities","name":"石井分館","address":"石井町石井字石井431-1","source":"国土交通省 国土数値情報"},"geometry":{"type":"Point","coordinates":[134.443271,34.068971]}},{"type":"Feature","properties":{"layer_id":"public_facilities","name":"石井町役場","address":"石井町高川原字高川原121-1","source":"国土交通省 国土数値情報"},"geometry":{"type":"Point","coordinates":[134.440629,34.074263]}},{"type":"Feature","properties":{"layer_id":"public_facilities","name":"加茂野農業改善センター","address":"石井町高川原字加茂野145","source":"国土交通省 国土数値情報"},"geometry":{"type":"Point","coordinates":[134.456908,34.085673]}},{"type":"Feature","properties":{"layer_id":"public_facilities","name":"高畑西集会所","address":"石井町藍畑字高畑1155-1","source":"国土交通省 国土数値情報"},"geometry":{"type":"Point","coordinates":[134.437971,34.093535]}},{"type":"Feature","properties":{"layer_id":"public_facilities","name":"関農業改善センター","address":"石井町高原字関357-1","source":"国土交通省 国土数値情報"},"geometry":{"type":"Point","coordinates":[134.403613,34.080652]}},{"type":"Feature","properties":{"layer_id":"public_facilities","name":"下浦東農業改善センター","address":"石井町浦圧字下浦915","source":"国土交通省 国土数値情報"},"geometry":{"type":"Point","coordinates":[134.44069,34.074172]}},{"type":"Feature","properties":{"layer_id":"public_facilities","name":"藍畑分館","address":"石井町藍畑字東覚円671-1","source":"国土交通省 国土数値情報"},"geometry":{"type":"Point","coordinates":[134.439079,34.094365]}},{"type":"Feature","properties":{"layer_id":"public_facilities","name":"南島農業改善センター","address":"石井町高川原字南島627","source":"国土交通省 国土数値情報"},"geometry":{"type":"Point","coordinates":[134.429616,34.080428]}},{"type":"Feature","properties":{"layer_id":"public_facilities","name":"重松農業改善センター","address":"石井町石井字重松235-4","source":"国土交通省 国土数値情報"},"geometry":{"type":"Point","coordinates":[134.433749,34.071953]}},{"type":"Feature","properties":{"layer_id":"public_facilities","name":"公民館藍畑分館","address":"石井町藍畑字東覚円671-1","source":"国土交通省 国土数値情報"},"geometry":{"type":"Point","coordinates":[134.43953,34.098302]}},{"type":"Feature","properties":{"layer_id":"public_facilities","name":"高原分館","address":"石井町高原字東高原223-1","source":"国土交通省 国土数値情報"},"geometry":{"type":"Point","coordinates":[134.421738,34.084008]}},{"type":"Feature","properties":{"layer_id":"public_facilities","name":"前山公園体育館","address":"石井町石井字城ノ内923","source":"国土交通省 国土数値情報"},"geometry":{"type":"Point","coordinates":[134.435199,34.057848]}},{"type":"Feature","properties":{"layer_id":"public_facilities","name":"中央公民館","address":"石井町石井字石井480-1","source":"国土交通省 国土数値情報"},"geometry":{"type":"Point","coordinates":[134.446567,34.06786]}},{"type":"Feature","properties":{"layer_id":"public_facilities","name":"上東集会所","address":"石井町浦庄字上浦483","source":"国土交通省 国土数値情報"},"geometry":{"type":"Point","coordinates":[134.402683,34.072229]}},{"type":"Feature","properties":{"layer_id":"public_facilities","name":"竜王集会所","address":"石井町藍畑字竜王52-9","source":"国土交通省 国土数値情報"},"geometry":{"type":"Point","coordinates":[134.451872,34.093145]}},{"type":"Feature","properties":{"layer_id":"cultural_facilities","name":"前山公園グラウンド","address":"石井字城ノ内923","source":"国土交通省 国土数値情報"},"geometry":{"type":"Point","coordinates":[134.434242,34.057879]}},{"type":"Feature","properties":{"layer_id":"cultural_facilities","name":"前山公園グラウンド","address":"石井字城ノ内923","source":"国土交通省 国土数値情報"},"geometry":{"type":"Point","coordinates":[134.434242,34.057774]}},{"type":"Feature","properties":{"layer_id":"cultural_facilities","name":"前山公園テニスコート","address":"石井字城ノ内923","source":"国土交通省 国土数値情報"},"geometry":{"type":"Point","coordinates":[134.434875,34.05867]}},{"type":"Feature","properties":{"layer_id":"cultural_facilities","name":"前山公園室内運動場","address":"石井字城ノ内923","source":"国土交通省 国土数値情報"},"geometry":{"type":"Point","coordinates":[134.435211,34.057771]}},{"type":"Feature","properties":{"layer_id":"cultural_facilities","name":"石井町高川原町民体育館","address":"高川原字高川原1161","source":"国土交通省 国土数値情報"},"geometry":{"type":"Point","coordinates":[134.448075,34.076514]}},{"type":"Feature","properties":{"layer_id":"cultural_facilities","name":"飯尾川公園","address":"高川原高川原2115-3","source":"国土交通省 国土数値情報"},"geometry":{"type":"Point","coordinates":[134.445375,34.085166]}},{"type":"Feature","properties":{"layer_id":"cultural_facilities","name":"飯尾川公園いしいドーム","address":"高川原高川原2115-3","source":"国土交通省 国土数値情報"},"geometry":{"type":"Point","coordinates":[134.446172,34.083936]}},{"type":"Feature","properties":{"layer_id":"cultural_facilities","name":"飯尾川公園いしいドーム","address":"高川原高川原2115-3","source":"国土交通省 国土数値情報"},"geometry":{"type":"Point","coordinates":[134.446451,34.084231]}},{"type":"Feature","properties":{"layer_id":"cultural_facilities","name":"石井町高川原町民体育館","address":"高川原字高川原1161","source":"国土交通省 国土数値情報"},"geometry":{"type":"Point","coordinates":[134.448072,34.076599]}},{"type":"Feature","properties":{"layer_id":"cultural_facilities","name":"飯尾川公園いしいドーム","address":"高川原高川原2115-3","source":"国土交通省 国土数値情報"},"geometry":{"type":"Point","coordinates":[134.446451,34.084295]}},{"type":"Feature","properties":{"layer_id":"cultural_facilities","name":"前山公園グラウンド","address":"石井字城ノ内923","source":"国土交通省 国土数値情報"},"geometry":{"type":"Point","coordinates":[134.434242,34.057678]}},{"type":"Feature","properties":{"layer_id":"cultural_facilities","name":"飯尾川公園いしいドーム","address":"高川原高川原2115-3","source":"国土交通省 国土数値情報"},"geometry":{"type":"Point","coordinates":[134.446451,34.084374]}},{"type":"Feature","properties":{"layer_id":"cultural_facilities","name":"前山公園室内運動場","address":"石井字城ノ内923","source":"国土交通省 国土数値情報"},"geometry":{"type":"Point","coordinates":[134.435208,34.057857]}},{"type":"Feature","properties":{"layer_id":"cultural_facilities","name":"飯尾川公園","address":"高川原高川原2115-3","source":"国土交通省 国土数値情報"},"geometry":{"type":"Point","coordinates":[134.445375,34.085082]}},{"type":"Feature","properties":{"layer_id":"cultural_facilities","name":"石井町相撲場","address":"高川原字高川原653-1","source":"国土交通省 国土数値情報"},"geometry":{"type":"Point","coordinates":[134.445596,34.073761]}},{"type":"Feature","properties":{"layer_id":"parks_playgrounds","name":"前山公園","address":"名西郡石井町","source":"国土交通省 国土数値情報"},"geometry":{"type":"Point","coordinates":[134.436361,34.0576]}},{"type":"Feature","properties":{"layer_id":"parks_playgrounds","name":"飯尾川公園","address":"名西郡石井町","source":"国土交通省 国土数値情報"},"geometry":{"type":"Point","coordinates":[134.445555,34.084825]}},{"type":"Feature","properties":{"layer_id":"parks_playgrounds","name":"高川原児童公園","address":"名西郡石井町","source":"国土交通省 国土数値情報"},"geometry":{"type":"Point","coordinates":[134.445509,34.072901]}},{"type":"Feature","properties":{"layer_id":"parks_playgrounds","name":"原児童公園","address":"名西郡石井町","source":"国土交通省 国土数値情報"},"geometry":{"type":"Point","coordinates":[134.446785,34.067607]}},{"type":"Feature","properties":{"layer_id":"parks_playgrounds","name":"池田児童公園","address":"名西郡石井町","source":"国土交通省 国土数値情報"},"geometry":{"type":"Point","coordinates":[134.444318,34.069354]}}]}