{"type":"FeatureCollection","municipality_code":"37386","pref":"香川県","city":"宇多津町","display_comment":"宇多津町には、地域の歴史や暮らしを伝える案内板や石碑があり、それらを手がかりに街歩きを楽しめます。 まずは社寺・地域信仰に目を向けると、地域の由緒をたどる手がかりが見つけやすいでしょう。 現地では石碑、地蔵、地域資料館、公民館の由緒板を既存ピンと照らし合わせながら歩くと、見落としがちな地域の物語に出会いやすくなります。 ゆかりの人物では大松博文に注目すると、地域に残る文化や時代背景をさらに深く知るきっかけになります。 「うたづ臨海公園」や「うたづ海ホタル（宇多津町産業資料館）」などの名所も、地域の物語を深掘りする絶好の入口です。","layer_counts":{"cafe_restaurant":152,"public_facilities":23,"cultural_facilities":10,"parks_playgrounds":9,"tourism_resources":3},"total_features":197,"features":[{"type":"Feature","properties":{"layer_id":"cafe_restaurant","name":"セブン-イレブン宇多津浜五番丁店","category":"food","address":"香川県綾歌郡宇多津町浜五番丁67番1","source":"厚生労働省 食品衛生申請等システム（オープンデータ）","municipality_code":"37386","municipality_pref":"香川県","municipality_name":"宇多津町","municipality_code_method":"food_exact_coord"},"geometry":{"type":"Point","coordinates":[133.811599,34.303415]}},{"type":"Feature","properties":{"layer_id":"cafe_restaurant","name":"エブリイ宇多津店","category":"food","address":"香川県綾歌郡宇多津町浜四番丁45-6","source":"厚生労働省 食品衛生申請等システム（オープンデータ）","municipality_code":"37386","municipality_pref":"香川県","municipality_name":"宇多津町","municipality_code_method":"food_exact_coord"},"geometry":{"type":"Point","coordinates":[133.815023,34.311953]}},{"type":"Feature","properties":{"layer_id":"cafe_restaurant","name":"エブリイ　宇多津店","category":"food","address":"香川県綾歌郡宇多津町浜四番丁45-6","source":"厚生労働省 食品衛生申請等システム（オープンデータ）","municipality_code":"37386","municipality_pref":"香川県","municipality_name":"宇多津町","municipality_code_method":"food_exact_coord"},"geometry":{"type":"Point","coordinates":[133.815023,34.311953]}},{"type":"Feature","properties":{"layer_id":"cafe_restaurant","name":"焼肉きんぐイオンタウン宇多津店","category":"food","address":"香川県綾歌郡宇多津町浜二番丁16番","source":"厚生労働省 食品衛生申請等システム（オープンデータ）","municipality_code":"37386","municipality_pref":"香川県","municipality_name":"宇多津町","municipality_code_method":"food_exact_coord"},"geometry":{"type":"Point","coordinates":[133.811115,34.308256]}},{"type":"Feature","properties":{"layer_id":"cafe_restaurant","name":"ローソン宇多津新開店","category":"food","address":"香川県綾歌郡宇多津町字新開2410－1","source":"厚生労働省 食品衛生申請等システム（オープンデータ）","municipality_code":"37386","municipality_pref":"香川県","municipality_name":"宇多津町","municipality_code_method":"food_exact_coord"},"geometry":{"type":"Point","coordinates":[133.825692,34.311352]}},{"type":"Feature","properties":{"layer_id":"cafe_restaurant","name":"ファミリーマート宇多津駅東店","category":"food","address":"香川県綾歌郡宇多津町浜八番丁120-1","source":"厚生労働省 食品衛生申請等システム（オープンデータ）","municipality_code":"37386","municipality_pref":"香川県","municipality_name":"宇多津町","municipality_code_method":"food_exact_coord"},"geometry":{"type":"Point","coordinates":[133.817317,34.308548]}},{"type":"Feature","properties":{"layer_id":"cafe_restaurant","name":"ローソン宇多津東分店","category":"food","address":"香川県綾歌郡宇多津町東分字板橋西386-1","source":"厚生労働省 食品衛生申請等システム（オープンデータ）","municipality_code":"37386","municipality_pref":"香川県","municipality_name":"宇多津町","municipality_code_method":"food_exact_coord"},"geometry":{"type":"Point","coordinates":[133.832032,34.290687]}},{"type":"Feature","properties":{"layer_id":"cafe_restaurant","name":"瀬戸大橋　四国健康村　cafe26","category":"food","address":"香川県綾歌郡宇多津町浜一番丁６番地10","source":"厚生労働省 食品衛生申請等システム（オープンデータ）","municipality_code":"37386","municipality_pref":"香川県","municipality_name":"宇多津町","municipality_code_method":"food_exact_coord"},"geometry":{"type":"Point","coordinates":[133.811235,34.313665]}},{"type":"Feature","properties":{"layer_id":"cafe_restaurant","name":"長楽製麺所","category":"food","address":"香川県綾歌郡宇多津町2900-1","source":"厚生労働省 食品衛生申請等システム（オープンデータ）","municipality_code":"37386","municipality_pref":"香川県","municipality_name":"宇多津町","municipality_code_method":"food_exact_coord"},"geometry":{"type":"Point","coordinates":[133.825692,34.311352]}},{"type":"Feature","properties":{"layer_id":"cafe_restaurant","name":"生活協同組合コープかがわ　コープうたづ","category":"food","address":"香川県綾歌郡宇多津町浜五番丁49番1","source":"厚生労働省 食品衛生申請等システム（オープンデータ）","municipality_code":"37386","municipality_pref":"香川県","municipality_name":"宇多津町","municipality_code_method":"food_exact_coord"},"geometry":{"type":"Point","coordinates":[133.814831,34.30851]}},{"type":"Feature","properties":{"layer_id":"cafe_restaurant","name":"ＣＡＦＥ　ＮＥＴＡＩＭＯ　イオンタウン宇多津店","category":"food","address":"香川県綾歌郡宇多津町浜二番丁16","source":"厚生労働省 食品衛生申請等システム（オープンデータ）","municipality_code":"37386","municipality_pref":"香川県","municipality_name":"宇多津町","municipality_code_method":"food_exact_coord"},"geometry":{"type":"Point","coordinates":[133.810016,34.307733]}},{"type":"Feature","properties":{"layer_id":"cafe_restaurant","name":"彩りの家","category":"food","address":"香川県綾歌郡宇多津町浜九番丁142-4","source":"厚生労働省 食品衛生申請等システム（オープンデータ）","municipality_code":"37386","municipality_pref":"香川県","municipality_name":"宇多津町","municipality_code_method":"food_exact_coord"},"geometry":{"type":"Point","coordinates":[133.823574,34.312894]}},{"type":"Feature","properties":{"layer_id":"cafe_restaurant","name":"株式会社ファーストステップ　マクドナルド宇多津店","category":"food","address":"香川県綾歌郡宇多津町浜三番丁21-6","source":"厚生労働省 食品衛生申請等システム（オープンデータ）","municipality_code":"37386","municipality_pref":"香川県","municipality_name":"宇多津町","municipality_code_method":"food_exact_coord"},"geometry":{"type":"Point","coordinates":[133.813475,34.311606]}},{"type":"Feature","properties":{"layer_id":"cafe_restaurant","name":"Ｙ’ｓ　ｇａｒｄｅｎ","category":"food","address":"香川県綾歌郡宇多津町浜三番丁25-21","source":"厚生労働省 食品衛生申請等システム（オープンデータ）","municipality_code":"37386","municipality_pref":"香川県","municipality_name":"宇多津町","municipality_code_method":"food_exact_coord"},"geometry":{"type":"Point","coordinates":[133.812889,34.31329]}},{"type":"Feature","properties":{"layer_id":"cafe_restaurant","name":"カラオケ喫茶　純","category":"food","address":"香川県綾歌郡宇多津町1682-36","source":"厚生労働省 食品衛生申請等システム（オープンデータ）","municipality_code":"37386","municipality_pref":"香川県","municipality_name":"宇多津町","municipality_code_method":"food_exact_coord"},"geometry":{"type":"Point","coordinates":[133.825692,34.311352]}},{"type":"Feature","properties":{"layer_id":"cafe_restaurant","name":"日乃屋カレー","category":"food","address":"香川県綾歌郡宇多津町浜二番丁16 イオンタウン宇多津内","source":"厚生労働省 食品衛生申請等システム（オープンデータ）","municipality_code":"37386","municipality_pref":"香川県","municipality_name":"宇多津町","municipality_code_method":"food_exact_coord"},"geometry":{"type":"Point","coordinates":[133.810016,34.307733]}},{"type":"Feature","properties":{"layer_id":"cafe_restaurant","name":"こがね製麺所　宇多津店","category":"food","address":"香川県綾歌郡宇多津町浜一番丁3-1","source":"厚生労働省 食品衛生申請等システム（オープンデータ）","municipality_code":"37386","municipality_pref":"香川県","municipality_name":"宇多津町","municipality_code_method":"food_exact_coord"},"geometry":{"type":"Point","coordinates":[133.812161,34.314182]}},{"type":"Feature","properties":{"layer_id":"cafe_restaurant","name":"海鮮食堂おくどさん　イオンタウン宇多津店","category":"food","address":"香川県綾歌郡宇多津町浜二番丁16","source":"厚生労働省 食品衛生申請等システム（オープンデータ）","municipality_code":"37386","municipality_pref":"香川県","municipality_name":"宇多津町","municipality_code_method":"food_exact_coord"},"geometry":{"type":"Point","coordinates":[133.810016,34.307733]}},{"type":"Feature","properties":{"layer_id":"cafe_restaurant","name":"ほっかほっか亭　新宇多津店","category":"food","address":"香川県綾歌郡宇多津町浜五番丁51-1","source":"厚生労働省 食品衛生申請等システム（オープンデータ）","municipality_code":"37386","municipality_pref":"香川県","municipality_name":"宇多津町","municipality_code_method":"food_exact_coord"},"geometry":{"type":"Point","coordinates":[133.812572,34.30887]}},{"type":"Feature","properties":{"layer_id":"cafe_restaurant","name":"シェル　エ　メール","category":"food","address":"香川県綾歌郡宇多津町浜一番丁6番地4","source":"厚生労働省 食品衛生申請等システム（オープンデータ）","municipality_code":"37386","municipality_pref":"香川県","municipality_name":"宇多津町","municipality_code_method":"food_exact_coord"},"geometry":{"type":"Point","coordinates":[133.810573,34.313574]}},{"type":"Feature","properties":{"layer_id":"cafe_restaurant","name":"スシロー　イオンタウン宇多津店","category":"food","address":"香川県綾歌郡宇多津町浜二番丁16","source":"厚生労働省 食品衛生申請等システム（オープンデータ）","municipality_code":"37386","municipality_pref":"香川県","municipality_name":"宇多津町","municipality_code_method":"food_exact_coord"},"geometry":{"type":"Point","coordinates":[133.810016,34.307733]}},{"type":"Feature","properties":{"layer_id":"cafe_restaurant","name":"有限会社久保食品","category":"food","address":"香川県綾歌郡宇多津町浜三番丁25-19","source":"厚生労働省 食品衛生申請等システム（オープンデータ）","municipality_code":"37386","municipality_pref":"香川県","municipality_name":"宇多津町","municipality_code_method":"food_exact_coord"},"geometry":{"type":"Point","coordinates":[133.812323,34.313221]}},{"type":"Feature","properties":{"layer_id":"cafe_restaurant","name":"ジェイカレント宇多津店","category":"food","address":"香川県綾歌郡宇多津町2419-1","source":"厚生労働省 食品衛生申請等システム（オープンデータ）","municipality_code":"37386","municipality_pref":"香川県","municipality_name":"宇多津町","municipality_code_method":"food_exact_coord"},"geometry":{"type":"Point","coordinates":[133.83037,34.313544]}},{"type":"Feature","properties":{"layer_id":"cafe_restaurant","name":"SELECT　Leather&Cafe","category":"food","address":"香川県綾歌郡宇多津町783","source":"厚生労働省 食品衛生申請等システム（オープンデータ）","municipality_code":"37386","municipality_pref":"香川県","municipality_name":"宇多津町","municipality_code_method":"food_exact_coord"},"geometry":{"type":"Point","coordinates":[133.825692,34.311352]}},{"type":"Feature","properties":{"layer_id":"cafe_restaurant","name":"こだわり麺や　宇多津店","category":"food","address":"香川県綾歌郡宇多津町浜八番丁122-16","source":"厚生労働省 食品衛生申請等システム（オープンデータ）","municipality_code":"37386","municipality_pref":"香川県","municipality_name":"宇多津町","municipality_code_method":"food_exact_coord"},"geometry":{"type":"Point","coordinates":[133.819985,34.308723]}},{"type":"Feature","properties":{"layer_id":"cafe_restaurant","name":"セルフうどん　麺太郎","category":"food","address":"香川県綾歌郡宇多津町東分1680番地1","source":"厚生労働省 食品衛生申請等システム（オープンデータ）","municipality_code":"37386","municipality_pref":"香川県","municipality_name":"宇多津町","municipality_code_method":"food_exact_coord"},"geometry":{"type":"Point","coordinates":[133.838554,34.29421]}},{"type":"Feature","properties":{"layer_id":"cafe_restaurant","name":"とりけん","category":"food","address":"香川県綾歌郡宇多津町浜三番丁","source":"厚生労働省 食品衛生申請等システム（オープンデータ）","municipality_code":"37386","municipality_pref":"香川県","municipality_name":"宇多津町","municipality_code_method":"food_exact_coord"},"geometry":{"type":"Point","coordinates":[133.81655,34.315401]}},{"type":"Feature","properties":{"layer_id":"cafe_restaurant","name":"株式会社ケンフーズ","category":"food","address":"香川県綾歌郡宇多津町浜三番丁","source":"厚生労働省 食品衛生申請等システム（オープンデータ）","municipality_code":"37386","municipality_pref":"香川県","municipality_name":"宇多津町","municipality_code_method":"food_exact_coord"},"geometry":{"type":"Point","coordinates":[133.81655,34.315401]}},{"type":"Feature","properties":{"layer_id":"cafe_restaurant","name":"香川短期大学　食堂","category":"food","address":"香川県綾歌郡宇多津町浜一番丁10番地","source":"厚生労働省 食品衛生申請等システム（オープンデータ）","municipality_code":"37386","municipality_pref":"香川県","municipality_name":"宇多津町","municipality_code_method":"food_exact_coord"},"geometry":{"type":"Point","coordinates":[133.810573,34.313574]}},{"type":"Feature","properties":{"layer_id":"cafe_restaurant","name":"カフェ・ド・ミュゼ","category":"food","address":"香川県綾歌郡宇多津町浜六番丁86番地４","source":"厚生労働省 食品衛生申請等システム（オープンデータ）","municipality_code":"37386","municipality_pref":"香川県","municipality_name":"宇多津町","municipality_code_method":"food_exact_coord"},"geometry":{"type":"Point","coordinates":[133.816343,34.307606]}},{"type":"Feature","properties":{"layer_id":"cafe_restaurant","name":"バーガーキング　イオンタウン宇多津","category":"food","address":"香川県綾歌郡宇多津町浜二番丁16","source":"厚生労働省 食品衛生申請等システム（オープンデータ）","municipality_code":"37386","municipality_pref":"香川県","municipality_name":"宇多津町","municipality_code_method":"food_exact_coord"},"geometry":{"type":"Point","coordinates":[133.811134,34.308262]}},{"type":"Feature","properties":{"layer_id":"cafe_restaurant","name":"寿楽荘","category":"food","address":"香川県綾歌郡宇多津町170-1","source":"厚生労働省 食品衛生申請等システム（オープンデータ）","municipality_code":"37386","municipality_pref":"香川県","municipality_name":"宇多津町","municipality_code_method":"food_exact_coord"},"geometry":{"type":"Point","coordinates":[133.825692,34.311352]}},{"type":"Feature","properties":{"layer_id":"cafe_restaurant","name":"マイルドハート２１","category":"food","address":"香川県綾歌郡宇多津町浜五番丁53-9","source":"厚生労働省 食品衛生申請等システム（オープンデータ）","municipality_code":"37386","municipality_pref":"香川県","municipality_name":"宇多津町","municipality_code_method":"food_exact_coord"},"geometry":{"type":"Point","coordinates":[133.812777,34.307496]}},{"type":"Feature","properties":{"layer_id":"cafe_restaurant","name":"いきいき荘","category":"food","address":"香川県綾歌郡宇多津町浜五番丁53-1","source":"厚生労働省 食品衛生申請等システム（オープンデータ）","municipality_code":"37386","municipality_pref":"香川県","municipality_name":"宇多津町","municipality_code_method":"food_exact_coord"},"geometry":{"type":"Point","coordinates":[133.812628,34.307]}},{"type":"Feature","properties":{"layer_id":"cafe_restaurant","name":"花旦","category":"food","address":"香川県綾歌郡宇多津町浜五番丁65 ニューオーヨシ　S11","source":"厚生労働省 食品衛生申請等システム（オープンデータ）","municipality_code":"37386","municipality_pref":"香川県","municipality_name":"宇多津町","municipality_code_method":"food_exact_coord"},"geometry":{"type":"Point","coordinates":[133.811768,34.305171]}},{"type":"Feature","properties":{"layer_id":"cafe_restaurant","name":"健康麻雀ウルトラ","category":"food","address":"香川県綾歌郡宇多津町浜一番丁3-1","source":"厚生労働省 食品衛生申請等システム（オープンデータ）","municipality_code":"37386","municipality_pref":"香川県","municipality_name":"宇多津町","municipality_code_method":"food_exact_coord"},"geometry":{"type":"Point","coordinates":[133.812161,34.314182]}},{"type":"Feature","properties":{"layer_id":"cafe_restaurant","name":"セブンーイレブンKiosk宇多津駅店","category":"food","address":"香川県綾歌郡宇多津町浜五番丁49","source":"厚生労働省 食品衛生申請等システム（オープンデータ）","municipality_code":"37386","municipality_pref":"香川県","municipality_name":"宇多津町","municipality_code_method":"food_exact_coord"},"geometry":{"type":"Point","coordinates":[133.811768,34.305171]}},{"type":"Feature","properties":{"layer_id":"cafe_restaurant","name":"角ウ八番","category":"food","address":"香川県綾歌郡宇多津町浜七番丁101番地10","source":"厚生労働省 食品衛生申請等システム（オープンデータ）","municipality_code":"37386","municipality_pref":"香川県","municipality_name":"宇多津町","municipality_code_method":"food_exact_coord"},"geometry":{"type":"Point","coordinates":[133.820752,34.312838]}},{"type":"Feature","properties":{"layer_id":"cafe_restaurant","name":"前田精肉店","category":"food","address":"香川県綾歌郡宇多津町2072-5","source":"厚生労働省 食品衛生申請等システム（オープンデータ）","municipality_code":"37386","municipality_pref":"香川県","municipality_name":"宇多津町","municipality_code_method":"food_exact_coord"},"geometry":{"type":"Point","coordinates":[133.825692,34.311352]}},{"type":"Feature","properties":{"layer_id":"cafe_restaurant","name":"パティスリーもりん宇多津店","category":"food","address":"香川県綾歌郡宇多津町浜六番丁90-2","source":"厚生労働省 食品衛生申請等システム（オープンデータ）","municipality_code":"37386","municipality_pref":"香川県","municipality_name":"宇多津町","municipality_code_method":"food_exact_coord"},"geometry":{"type":"Point","coordinates":[133.817551,34.30608]}},{"type":"Feature","properties":{"layer_id":"cafe_restaurant","name":"ノルブーチャンゴ","category":"food","address":"香川県綾歌郡宇多津町浜三番丁23番3","source":"厚生労働省 食品衛生申請等システム（オープンデータ）","municipality_code":"37386","municipality_pref":"香川県","municipality_name":"宇多津町","municipality_code_method":"food_exact_coord"},"geometry":{"type":"Point","coordinates":[133.813692,34.313498]}},{"type":"Feature","properties":{"layer_id":"cafe_restaurant","name":"宇多津ホルモン","category":"food","address":"香川県綾歌郡宇多津町浜三番丁26番地2","source":"厚生労働省 食品衛生申請等システム（オープンデータ）","municipality_code":"37386","municipality_pref":"香川県","municipality_name":"宇多津町","municipality_code_method":"food_exact_coord"},"geometry":{"type":"Point","coordinates":[133.813375,34.314395]}},{"type":"Feature","properties":{"layer_id":"cafe_restaurant","name":"Ｍｕｕｓ","category":"food","address":"香川県綾歌郡宇多津町網の浦1889","source":"厚生労働省 食品衛生申請等システム（オープンデータ）","municipality_code":"37386","municipality_pref":"香川県","municipality_name":"宇多津町","municipality_code_method":"food_exact_coord"},"geometry":{"type":"Point","coordinates":[133.826346,34.308368]}},{"type":"Feature","properties":{"layer_id":"cafe_restaurant","name":"郷照寺","category":"food","address":"香川県綾歌郡宇多津町1435","source":"厚生労働省 食品衛生申請等システム（オープンデータ）","municipality_code":"37386","municipality_pref":"香川県","municipality_name":"宇多津町","municipality_code_method":"food_exact_coord"},"geometry":{"type":"Point","coordinates":[133.825692,34.311352]}},{"type":"Feature","properties":{"layer_id":"cafe_restaurant","name":"プレイパークゴールドタワーカラオケアリオン","category":"food","address":"香川県綾歌郡宇多津町浜一番丁8-1","source":"厚生労働省 食品衛生申請等システム（オープンデータ）","municipality_code":"37386","municipality_pref":"香川県","municipality_name":"宇多津町","municipality_code_method":"food_exact_coord"},"geometry":{"type":"Point","coordinates":[133.808623,34.312303]}},{"type":"Feature","properties":{"layer_id":"cafe_restaurant","name":"カルビ屋大福　宇多津ゴールドタワー店","category":"food","address":"香川県綾歌郡宇多津町浜一番丁8番地1","source":"厚生労働省 食品衛生申請等システム（オープンデータ）","municipality_code":"37386","municipality_pref":"香川県","municipality_name":"宇多津町","municipality_code_method":"food_exact_coord"},"geometry":{"type":"Point","coordinates":[133.808623,34.312303]}},{"type":"Feature","properties":{"layer_id":"cafe_restaurant","name":"お好み焼　トマトの木","category":"food","address":"香川県綾歌郡宇多津町浜八番丁133-1","source":"厚生労働省 食品衛生申請等システム（オープンデータ）","municipality_code":"37386","municipality_pref":"香川県","municipality_name":"宇多津町","municipality_code_method":"food_exact_coord"},"geometry":{"type":"Point","coordinates":[133.822377,34.310726]}},{"type":"Feature","properties":{"layer_id":"cafe_restaurant","name":"ほっともっと宇多津店","category":"food","address":"香川県綾歌郡宇多津町浜四番丁40番5","source":"厚生労働省 食品衛生申請等システム（オープンデータ）","municipality_code":"37386","municipality_pref":"香川県","municipality_name":"宇多津町","municipality_code_method":"food_exact_coord"},"geometry":{"type":"Point","coordinates":[133.817652,34.313907]}},{"type":"Feature","properties":{"layer_id":"cafe_restaurant","name":"本格手打うどん　おか泉","category":"food","address":"香川県綾歌郡宇多津町浜八番丁129-10","source":"厚生労働省 食品衛生申請等システム（オープンデータ）","municipality_code":"37386","municipality_pref":"香川県","municipality_name":"宇多津町","municipality_code_method":"food_exact_coord"},"geometry":{"type":"Point","coordinates":[133.820966,34.309309]}},{"type":"Feature","properties":{"layer_id":"cafe_restaurant","name":"いたずら　たまご","category":"food","address":"香川県綾歌郡宇多津町浜二番丁20-1","source":"厚生労働省 食品衛生申請等システム（オープンデータ）","municipality_code":"37386","municipality_pref":"香川県","municipality_name":"宇多津町","municipality_code_method":"food_exact_coord"},"geometry":{"type":"Point","coordinates":[133.811227,34.309224]}},{"type":"Feature","properties":{"layer_id":"cafe_restaurant","name":"ＫUMAcafé　ユープラザうたづ店","category":"food","address":"香川県綾歌郡宇多津町浜６番丁88","source":"厚生労働省 食品衛生申請等システム（オープンデータ）","municipality_code":"37386","municipality_pref":"香川県","municipality_name":"宇多津町","municipality_code_method":"food_exact_coord"},"geometry":{"type":"Point","coordinates":[133.815354,34.305817]}},{"type":"Feature","properties":{"layer_id":"cafe_restaurant","name":"宇多津グランドホテル　珈琲美談","category":"food","address":"香川県綾歌郡宇多津町浜三番丁22-1","source":"厚生労働省 食品衛生申請等システム（オープンデータ）","municipality_code":"37386","municipality_pref":"香川県","municipality_name":"宇多津町","municipality_code_method":"food_exact_coord"},"geometry":{"type":"Point","coordinates":[133.814626,34.31294]}},{"type":"Feature","properties":{"layer_id":"cafe_restaurant","name":"公楽","category":"food","address":"香川県綾歌郡宇多津町3643-1","source":"厚生労働省 食品衛生申請等システム（オープンデータ）","municipality_code":"37386","municipality_pref":"香川県","municipality_name":"宇多津町","municipality_code_method":"food_exact_coord"},"geometry":{"type":"Point","coordinates":[133.825692,34.311352]}},{"type":"Feature","properties":{"layer_id":"cafe_restaurant","name":"とおりゃんせ","category":"food","address":"香川県綾歌郡宇多津町東分296-1","source":"厚生労働省 食品衛生申請等システム（オープンデータ）","municipality_code":"37386","municipality_pref":"香川県","municipality_name":"宇多津町","municipality_code_method":"food_exact_coord"},"geometry":{"type":"Point","coordinates":[133.83441,34.292464]}},{"type":"Feature","properties":{"layer_id":"cafe_restaurant","name":"トートコーヒー","category":"food","address":"香川県綾歌郡宇多津町浜一番丁3-8","source":"厚生労働省 食品衛生申請等システム（オープンデータ）","municipality_code":"37386","municipality_pref":"香川県","municipality_name":"宇多津町","municipality_code_method":"food_exact_coord"},"geometry":{"type":"Point","coordinates":[133.81201,34.315255]}},{"type":"Feature","properties":{"layer_id":"cafe_restaurant","name":"やぶれかぶれ","category":"food","address":"香川県綾歌郡宇多津町浜五番丁61-5","source":"厚生労働省 食品衛生申請等システム（オープンデータ）","municipality_code":"37386","municipality_pref":"香川県","municipality_name":"宇多津町","municipality_code_method":"food_exact_coord"},"geometry":{"type":"Point","coordinates":[133.809889,34.304868]}},{"type":"Feature","properties":{"layer_id":"cafe_restaurant","name":"セブンイレブン宇多津町浜二番丁店","category":"food","address":"香川県綾歌郡宇多津町浜二番丁19-9","source":"厚生労働省 食品衛生申請等システム（オープンデータ）","municipality_code":"37386","municipality_pref":"香川県","municipality_name":"宇多津町","municipality_code_method":"food_exact_coord"},"geometry":{"type":"Point","coordinates":[133.811787,34.310766]}},{"type":"Feature","properties":{"layer_id":"cafe_restaurant","name":"PAHUNA　CURRY　CORNER","category":"food","address":"香川県綾歌郡宇多津町浜二番丁16 1F","source":"厚生労働省 食品衛生申請等システム（オープンデータ）","municipality_code":"37386","municipality_pref":"香川県","municipality_name":"宇多津町","municipality_code_method":"food_exact_coord"},"geometry":{"type":"Point","coordinates":[133.809378,34.307363]}},{"type":"Feature","properties":{"layer_id":"cafe_restaurant","name":"塩がま屋","category":"food","address":"香川県綾歌郡宇多津町浜六番丁86-2","source":"厚生労働省 食品衛生申請等システム（オープンデータ）","municipality_code":"37386","municipality_pref":"香川県","municipality_name":"宇多津町","municipality_code_method":"food_exact_coord"},"geometry":{"type":"Point","coordinates":[133.815543,34.306505]}},{"type":"Feature","properties":{"layer_id":"cafe_restaurant","name":"ラーメン壱角家　宇多津店","category":"food","address":"香川県綾歌郡宇多津町浜二番丁14番２","source":"厚生労働省 食品衛生申請等システム（オープンデータ）","municipality_code":"37386","municipality_pref":"香川県","municipality_name":"宇多津町","municipality_code_method":"food_exact_coord"},"geometry":{"type":"Point","coordinates":[133.808761,34.305512]}},{"type":"Feature","properties":{"layer_id":"cafe_restaurant","name":"カレーハウスココ壱番屋香川宇多津店","category":"food","address":"香川県綾歌郡宇多津町浜三番丁31","source":"厚生労働省 食品衛生申請等システム（オープンデータ）","municipality_code":"37386","municipality_pref":"香川県","municipality_name":"宇多津町","municipality_code_method":"food_exact_coord"},"geometry":{"type":"Point","coordinates":[133.81655,34.315401]}},{"type":"Feature","properties":{"layer_id":"cafe_restaurant","name":"菓楓","category":"food","address":"香川県綾歌郡宇多津町 1571","source":"厚生労働省 食品衛生申請等システム（オープンデータ）","municipality_code":"37386","municipality_pref":"香川県","municipality_name":"宇多津町","municipality_code_method":"food_exact_coord"},"geometry":{"type":"Point","coordinates":[133.825692,34.311352]}},{"type":"Feature","properties":{"layer_id":"cafe_restaurant","name":"中華そば「幸楽」","category":"food","address":"香川県綾歌郡宇多津町浜三番丁25-21","source":"厚生労働省 食品衛生申請等システム（オープンデータ）","municipality_code":"37386","municipality_pref":"香川県","municipality_name":"宇多津町","municipality_code_method":"food_exact_coord"},"geometry":{"type":"Point","coordinates":[133.81287,34.313268]}},{"type":"Feature","properties":{"layer_id":"cafe_restaurant","name":"もち吉宇多津店","category":"food","address":"香川県綾歌郡宇多津町浜三番丁21-1","source":"厚生労働省 食品衛生申請等システム（オープンデータ）","municipality_code":"37386","municipality_pref":"香川県","municipality_name":"宇多津町","municipality_code_method":"food_exact_coord"},"geometry":{"type":"Point","coordinates":[133.813058,34.3107695]}},{"type":"Feature","properties":{"layer_id":"cafe_restaurant","name":"焼肉　ひらい","category":"food","address":"香川県綾歌郡宇多津町浜五番丁51-2","source":"厚生労働省 食品衛生申請等システム（オープンデータ）","municipality_code":"37386","municipality_pref":"香川県","municipality_name":"宇多津町","municipality_code_method":"food_exact_coord"},"geometry":{"type":"Point","coordinates":[133.812684,34.30889]}},{"type":"Feature","properties":{"layer_id":"cafe_restaurant","name":"プレハブラーメン吾割食堂　宇多津店","category":"food","address":"香川県綾歌郡宇多津町浜五番丁51-4","source":"厚生労働省 食品衛生申請等システム（オープンデータ）","municipality_code":"37386","municipality_pref":"香川県","municipality_name":"宇多津町","municipality_code_method":"food_exact_coord"},"geometry":{"type":"Point","coordinates":[133.812833,34.308753]}},{"type":"Feature","properties":{"layer_id":"cafe_restaurant","name":"ビジネスホテル　うたづ","category":"food","address":"香川県綾歌郡宇多津町2396-1","source":"厚生労働省 食品衛生申請等システム（オープンデータ）","municipality_code":"37386","municipality_pref":"香川県","municipality_name":"宇多津町","municipality_code_method":"food_exact_coord"},"geometry":{"type":"Point","coordinates":[133.825692,34.311352]}},{"type":"Feature","properties":{"layer_id":"cafe_restaurant","name":"サイゼリヤ　イオンタウン宇多津店","category":"food","address":"香川県綾歌郡宇多津町浜二番丁16 イオンタウン宇多津1F","source":"厚生労働省 食品衛生申請等システム（オープンデータ）","municipality_code":"37386","municipality_pref":"香川県","municipality_name":"宇多津町","municipality_code_method":"food_exact_coord"},"geometry":{"type":"Point","coordinates":[133.811134,34.308262]}},{"type":"Feature","properties":{"layer_id":"cafe_restaurant","name":"めりけんや　かけはし店","category":"food","address":"香川県綾歌郡宇多津町浜三番丁36-1","source":"厚生労働省 食品衛生申請等システム（オープンデータ）","municipality_code":"37386","municipality_pref":"香川県","municipality_name":"宇多津町","municipality_code_method":"food_exact_coord"},"geometry":{"type":"Point","coordinates":[133.820313,34.317079]}},{"type":"Feature","properties":{"layer_id":"cafe_restaurant","name":"まぐろ食堂てん","category":"food","address":"香川県綾歌郡宇多津町浜八番丁120-6 マイシティ大坂105号","source":"厚生労働省 食品衛生申請等システム（オープンデータ）","municipality_code":"37386","municipality_pref":"香川県","municipality_name":"宇多津町","municipality_code_method":"food_exact_coord"},"geometry":{"type":"Point","coordinates":[133.818847,34.307682]}},{"type":"Feature","properties":{"layer_id":"cafe_restaurant","name":"うどん亭　やま","category":"food","address":"香川県綾歌郡宇多津町浜三番丁31","source":"厚生労働省 食品衛生申請等システム（オープンデータ）","municipality_code":"37386","municipality_pref":"香川県","municipality_name":"宇多津町","municipality_code_method":"food_exact_coord"},"geometry":{"type":"Point","coordinates":[133.81655,34.315401]}},{"type":"Feature","properties":{"layer_id":"cafe_restaurant","name":"ホテルシートップ","category":"food","address":"香川県綾歌郡宇多津町浜一番丁5番地8","source":"厚生労働省 食品衛生申請等システム（オープンデータ）","municipality_code":"37386","municipality_pref":"香川県","municipality_name":"宇多津町","municipality_code_method":"food_exact_coord"},"geometry":{"type":"Point","coordinates":[133.810461,34.314362]}},{"type":"Feature","properties":{"layer_id":"cafe_restaurant","name":"Chou Chou","category":"food","address":"香川県綾歌郡宇多津町東分","source":"厚生労働省 食品衛生申請等システム（オープンデータ）","municipality_code":"37386","municipality_pref":"香川県","municipality_name":"宇多津町","municipality_code_method":"food_exact_coord"},"geometry":{"type":"Point","coordinates":[133.832683,34.291892]}},{"type":"Feature","properties":{"layer_id":"cafe_restaurant","name":"エーム５３６０ーＳ２","category":"food","address":"香川県綾歌郡宇多津町吉田4000 第２サテライト食堂","source":"厚生労働省 食品衛生申請等システム（オープンデータ）","municipality_code":"37386","municipality_pref":"香川県","municipality_name":"宇多津町","municipality_code_method":"food_exact_coord"},"geometry":{"type":"Point","coordinates":[133.825692,34.311352]}},{"type":"Feature","properties":{"layer_id":"cafe_restaurant","name":"エーム５３６０ーK","category":"food","address":"香川県綾歌郡宇多津町吉田4000 厚生棟１F・２F食堂","source":"厚生労働省 食品衛生申請等システム（オープンデータ）","municipality_code":"37386","municipality_pref":"香川県","municipality_name":"宇多津町","municipality_code_method":"food_exact_coord"},"geometry":{"type":"Point","coordinates":[133.825692,34.311352]}},{"type":"Feature","properties":{"layer_id":"cafe_restaurant","name":"エーム５３６０ーＳ１","category":"food","address":"香川県綾歌郡宇多津町吉田4000 第１サテライト食堂","source":"厚生労働省 食品衛生申請等システム（オープンデータ）","municipality_code":"37386","municipality_pref":"香川県","municipality_name":"宇多津町","municipality_code_method":"food_exact_coord"},"geometry":{"type":"Point","coordinates":[133.825692,34.311352]}},{"type":"Feature","properties":{"layer_id":"cafe_restaurant","name":"あみのうらカフェ","category":"food","address":"香川県綾歌郡宇多津町1900番地","source":"厚生労働省 食品衛生申請等システム（オープンデータ）","municipality_code":"37386","municipality_pref":"香川県","municipality_name":"宇多津町","municipality_code_method":"food_exact_coord"},"geometry":{"type":"Point","coordinates":[133.825692,34.311352]}},{"type":"Feature","properties":{"layer_id":"cafe_restaurant","name":"セブンイレブン宇多津町平山店","category":"food","address":"香川県綾歌郡宇多津町平山2628-708","source":"厚生労働省 食品衛生申請等システム（オープンデータ）","municipality_code":"37386","municipality_pref":"香川県","municipality_name":"宇多津町","municipality_code_method":"food_exact_coord"},"geometry":{"type":"Point","coordinates":[133.829258,34.316094]}},{"type":"Feature","properties":{"layer_id":"cafe_restaurant","name":"カラオケまねきねこ　宇多津浜街道店","category":"food","address":"香川県綾歌郡宇多津町浜四番丁45-7","source":"厚生労働省 食品衛生申請等システム（オープンデータ）","municipality_code":"37386","municipality_pref":"香川県","municipality_name":"宇多津町","municipality_code_method":"food_exact_coord"},"geometry":{"type":"Point","coordinates":[133.815093,34.312082]}},{"type":"Feature","properties":{"layer_id":"cafe_restaurant","name":"ホテルアネシス瀬戸大橋","category":"food","address":"香川県綾歌郡宇多津町浜六番丁81","source":"厚生労働省 食品衛生申請等システム（オープンデータ）","municipality_code":"37386","municipality_pref":"香川県","municipality_name":"宇多津町","municipality_code_method":"food_exact_coord"},"geometry":{"type":"Point","coordinates":[133.815354,34.305817]}},{"type":"Feature","properties":{"layer_id":"cafe_restaurant","name":"ホテルアネシス瀬戸大橋　別館２F","category":"food","address":"香川県綾歌郡宇多津町浜六番丁81","source":"厚生労働省 食品衛生申請等システム（オープンデータ）","municipality_code":"37386","municipality_pref":"香川県","municipality_name":"宇多津町","municipality_code_method":"food_exact_coord"},"geometry":{"type":"Point","coordinates":[133.815354,34.305817]}},{"type":"Feature","properties":{"layer_id":"cafe_restaurant","name":"カフェレスト　ベルン","category":"food","address":"香川県綾歌郡宇多津町浜六番丁84-1","source":"厚生労働省 食品衛生申請等システム（オープンデータ）","municipality_code":"37386","municipality_pref":"香川県","municipality_name":"宇多津町","municipality_code_method":"food_exact_coord"},"geometry":{"type":"Point","coordinates":[133.814925,34.305746]}},{"type":"Feature","properties":{"layer_id":"cafe_restaurant","name":"六角スコーン","category":"food","address":"香川県綾歌郡宇多津町2876","source":"厚生労働省 食品衛生申請等システム（オープンデータ）","municipality_code":"37386","municipality_pref":"香川県","municipality_name":"宇多津町","municipality_code_method":"food_exact_coord"},"geometry":{"type":"Point","coordinates":[133.825692,34.311352]}},{"type":"Feature","properties":{"layer_id":"cafe_restaurant","name":"Lunch&Dining　Spain","category":"food","address":"香川県綾歌郡宇多津町新開2566-1","source":"厚生労働省 食品衛生申請等システム（オープンデータ）","municipality_code":"37386","municipality_pref":"香川県","municipality_name":"宇多津町","municipality_code_method":"food_exact_coord"},"geometry":{"type":"Point","coordinates":[133.829012,34.311105]}},{"type":"Feature","properties":{"layer_id":"cafe_restaurant","name":"陽だまり食堂","category":"food","address":"香川県綾歌郡宇多津町1900番地","source":"厚生労働省 食品衛生申請等システム（オープンデータ）","municipality_code":"37386","municipality_pref":"香川県","municipality_name":"宇多津町","municipality_code_method":"food_exact_coord"},"geometry":{"type":"Point","coordinates":[133.825692,34.311352]}},{"type":"Feature","properties":{"layer_id":"cafe_restaurant","name":"ファミリーマート宇多津浜店","category":"food","address":"香川県綾歌郡宇多津町浜二番丁15番地12","source":"厚生労働省 食品衛生申請等システム（オープンデータ）","municipality_code":"37386","municipality_pref":"香川県","municipality_name":"宇多津町","municipality_code_method":"food_exact_coord"},"geometry":{"type":"Point","coordinates":[133.809213,34.30612]}},{"type":"Feature","properties":{"layer_id":"cafe_restaurant","name":"ホテル　ア・ラモード","category":"food","address":"香川県綾歌郡宇多津町字平山2628-759","source":"厚生労働省 食品衛生申請等システム（オープンデータ）","municipality_code":"37386","municipality_pref":"香川県","municipality_name":"宇多津町","municipality_code_method":"food_exact_coord"},"geometry":{"type":"Point","coordinates":[133.829258,34.316094]}},{"type":"Feature","properties":{"layer_id":"cafe_restaurant","name":"じん　UTAZU","category":"food","address":"香川県綾歌郡宇多津町浜二番丁12-5","source":"厚生労働省 食品衛生申請等システム（オープンデータ）","municipality_code":"37386","municipality_pref":"香川県","municipality_name":"宇多津町","municipality_code_method":"food_exact_coord"},"geometry":{"type":"Point","coordinates":[133.808462,34.306243]}},{"type":"Feature","properties":{"layer_id":"cafe_restaurant","name":"ＣＲＥＷ ’ Ｓ　ＣＡＦＥ","category":"food","address":"香川県綾歌郡宇多津町浜二番丁12-5","source":"厚生労働省 食品衛生申請等システム（オープンデータ）","municipality_code":"37386","municipality_pref":"香川県","municipality_name":"宇多津町","municipality_code_method":"food_exact_coord"},"geometry":{"type":"Point","coordinates":[133.808462,34.306243]}},{"type":"Feature","properties":{"layer_id":"cafe_restaurant","name":"ピコピコ精肉店　宇多津","category":"food","address":"香川県綾歌郡宇多津町浜二番丁12-5","source":"厚生労働省 食品衛生申請等システム（オープンデータ）","municipality_code":"37386","municipality_pref":"香川県","municipality_name":"宇多津町","municipality_code_method":"food_exact_coord"},"geometry":{"type":"Point","coordinates":[133.808462,34.306243]}},{"type":"Feature","properties":{"layer_id":"cafe_restaurant","name":"街角珈琲","category":"food","address":"香川県綾歌郡宇多津町大字東分328番地","source":"厚生労働省 食品衛生申請等システム（オープンデータ）","municipality_code":"37386","municipality_pref":"香川県","municipality_name":"宇多津町","municipality_code_method":"food_exact_coord"},"geometry":{"type":"Point","coordinates":[133.832957,34.291846]}},{"type":"Feature","properties":{"layer_id":"cafe_restaurant","name":"焼鳥　骨付鳥　やすい","category":"food","address":"香川県綾歌郡宇多津町浜六番丁91-7","source":"厚生労働省 食品衛生申請等システム（オープンデータ）","municipality_code":"37386","municipality_pref":"香川県","municipality_name":"宇多津町","municipality_code_method":"food_exact_coord"},"geometry":{"type":"Point","coordinates":[133.818604,34.307]}},{"type":"Feature","properties":{"layer_id":"cafe_restaurant","name":"味の時計台　宇多津店","category":"food","address":"香川県綾歌郡宇多津町浜二番丁20-13","source":"厚生労働省 食品衛生申請等システム（オープンデータ）","municipality_code":"37386","municipality_pref":"香川県","municipality_name":"宇多津町","municipality_code_method":"food_exact_coord"},"geometry":{"type":"Point","coordinates":[133.812598,34.310237]}},{"type":"Feature","properties":{"layer_id":"cafe_restaurant","name":"珈匠　宇多津店","category":"food","address":"香川県綾歌郡宇多津町浜五番丁47-10","source":"厚生労働省 食品衛生申請等システム（オープンデータ）","municipality_code":"37386","municipality_pref":"香川県","municipality_name":"宇多津町","municipality_code_method":"food_exact_coord"},"geometry":{"type":"Point","coordinates":[133.812871,34.30936]}},{"type":"Feature","properties":{"layer_id":"cafe_restaurant","name":"ＬＯＴＵＳ１","category":"food","address":"香川県綾歌郡宇多津町 3519-4","source":"厚生労働省 食品衛生申請等システム（オープンデータ）","municipality_code":"37386","municipality_pref":"香川県","municipality_name":"宇多津町","municipality_code_method":"food_exact_coord"},"geometry":{"type":"Point","coordinates":[133.825692,34.311352]}},{"type":"Feature","properties":{"layer_id":"cafe_restaurant","name":"Ncafe","category":"food","address":"香川県綾歌郡宇多津町浜二番丁16番地 イオンタウン宇多津１F","source":"厚生労働省 食品衛生申請等システム（オープンデータ）","municipality_code":"37386","municipality_pref":"香川県","municipality_name":"宇多津町","municipality_code_method":"food_exact_coord"},"geometry":{"type":"Point","coordinates":[133.811134,34.308262]}},{"type":"Feature","properties":{"layer_id":"cafe_restaurant","name":"インドレストラン　カーナピーナ","category":"food","address":"香川県綾歌郡宇多津町東分1642-1","source":"厚生労働省 食品衛生申請等システム（オープンデータ）","municipality_code":"37386","municipality_pref":"香川県","municipality_name":"宇多津町","municipality_code_method":"food_exact_coord"},"geometry":{"type":"Point","coordinates":[133.836608,34.295163]}},{"type":"Feature","properties":{"layer_id":"cafe_restaurant","name":"さぬきうどん　むぎ","category":"food","address":"香川県綾歌郡宇多津町198-7","source":"厚生労働省 食品衛生申請等システム（オープンデータ）","municipality_code":"37386","municipality_pref":"香川県","municipality_name":"宇多津町","municipality_code_method":"food_exact_coord"},"geometry":{"type":"Point","coordinates":[133.825692,34.311352]}},{"type":"Feature","properties":{"layer_id":"cafe_restaurant","name":"居酒屋　遊歩","category":"food","address":"香川県綾歌郡宇多津町浜六番丁79-27","source":"厚生労働省 食品衛生申請等システム（オープンデータ）","municipality_code":"37386","municipality_pref":"香川県","municipality_name":"宇多津町","municipality_code_method":"food_exact_coord"},"geometry":{"type":"Point","coordinates":[133.813169,34.303579]}},{"type":"Feature","properties":{"layer_id":"cafe_restaurant","name":"スペースｍ","category":"food","address":"香川県綾歌郡宇多津町長縄手692-1","source":"厚生労働省 食品衛生申請等システム（オープンデータ）","municipality_code":"37386","municipality_pref":"香川県","municipality_name":"宇多津町","municipality_code_method":"food_exact_coord"},"geometry":{"type":"Point","coordinates":[133.834518,34.300503]}},{"type":"Feature","properties":{"layer_id":"cafe_restaurant","name":"回遊","category":"food","address":"香川県綾歌郡宇多津町浜一番丁6-21","source":"厚生労働省 食品衛生申請等システム（オープンデータ）","municipality_code":"37386","municipality_pref":"香川県","municipality_name":"宇多津町","municipality_code_method":"food_exact_coord"},"geometry":{"type":"Point","coordinates":[133.810909,34.312405]}},{"type":"Feature","properties":{"layer_id":"cafe_restaurant","name":"マルナカスーパーセンター宇多津店","category":"food","address":"香川県綾歌郡宇多津町2419-1","source":"厚生労働省 食品衛生申請等システム（オープンデータ）","municipality_code":"37386","municipality_pref":"香川県","municipality_name":"宇多津町","municipality_code_method":"food_exact_coord"},"geometry":{"type":"Point","coordinates":[133.825692,34.311352]}},{"type":"Feature","properties":{"layer_id":"cafe_restaurant","name":"マルナカ宇多津店","category":"food","address":"香川県綾歌郡宇多津町東分287-1","source":"厚生労働省 食品衛生申請等システム（オープンデータ）","municipality_code":"37386","municipality_pref":"香川県","municipality_name":"宇多津町","municipality_code_method":"food_exact_coord"},"geometry":{"type":"Point","coordinates":[133.833056,34.292779]}},{"type":"Feature","properties":{"layer_id":"cafe_restaurant","name":"マルナカイオンタウン宇多津店","category":"food","address":"香川県綾歌郡宇多津町浜二番丁16","source":"厚生労働省 食品衛生申請等システム（オープンデータ）","municipality_code":"37386","municipality_pref":"香川県","municipality_name":"宇多津町","municipality_code_method":"food_exact_coord"},"geometry":{"type":"Point","coordinates":[133.811134,34.308262]}},{"type":"Feature","properties":{"layer_id":"cafe_restaurant","name":"マルナカイオンタウン宇多津店","category":"food","address":"香川県綾歌郡宇多津町浜二番丁16","source":"厚生労働省 食品衛生申請等システム（オープンデータ）","municipality_code":"37386","municipality_pref":"香川県","municipality_name":"宇多津町","municipality_code_method":"food_exact_coord"},"geometry":{"type":"Point","coordinates":[133.811134,34.308262]}},{"type":"Feature","properties":{"layer_id":"cafe_restaurant","name":"マルナカスーパーセンター宇多津店","category":"food","address":"香川県綾歌郡宇多津町　2419-1","source":"厚生労働省 食品衛生申請等システム（オープンデータ）","municipality_code":"37386","municipality_pref":"香川県","municipality_name":"宇多津町","municipality_code_method":"food_exact_coord"},"geometry":{"type":"Point","coordinates":[133.825692,34.311352]}},{"type":"Feature","properties":{"layer_id":"cafe_restaurant","name":"マルナカスーパーセンター宇多津店","category":"food","address":"香川県綾歌郡宇多津町　2419-1","source":"厚生労働省 食品衛生申請等システム（オープンデータ）","municipality_code":"37386","municipality_pref":"香川県","municipality_name":"宇多津町","municipality_code_method":"food_exact_coord"},"geometry":{"type":"Point","coordinates":[133.825692,34.311352]}},{"type":"Feature","properties":{"layer_id":"cafe_restaurant","name":"マルナカスーパーセンター宇多津店","category":"food","address":"香川県綾歌郡宇多津町2419-1","source":"厚生労働省 食品衛生申請等システム（オープンデータ）","municipality_code":"37386","municipality_pref":"香川県","municipality_name":"宇多津町","municipality_code_method":"food_exact_coord"},"geometry":{"type":"Point","coordinates":[133.825692,34.311352]}},{"type":"Feature","properties":{"layer_id":"cafe_restaurant","name":"マルナカスーパーセンター宇多津店","category":"food","address":"香川県綾歌郡宇多津町2419-1","source":"厚生労働省 食品衛生申請等システム（オープンデータ）","municipality_code":"37386","municipality_pref":"香川県","municipality_name":"宇多津町","municipality_code_method":"food_exact_coord"},"geometry":{"type":"Point","coordinates":[133.825692,34.311352]}},{"type":"Feature","properties":{"layer_id":"cafe_restaurant","name":"元気パン工房　ごぱん","category":"food","address":"香川県綾歌郡宇多津町752番地3","source":"厚生労働省 食品衛生申請等システム（オープンデータ）","municipality_code":"37386","municipality_pref":"香川県","municipality_name":"宇多津町","municipality_code_method":"food_exact_coord"},"geometry":{"type":"Point","coordinates":[133.825692,34.311352]}},{"type":"Feature","properties":{"layer_id":"cafe_restaurant","name":"魚野鳥　ハッシュタグ","category":"food","address":"香川県綾歌郡宇多津町浜五番丁61-5 ロフティN１　１F","source":"厚生労働省 食品衛生申請等システム（オープンデータ）","municipality_code":"37386","municipality_pref":"香川県","municipality_name":"宇多津町","municipality_code_method":"food_exact_coord"},"geometry":{"type":"Point","coordinates":[133.809889,34.304868]}},{"type":"Feature","properties":{"layer_id":"cafe_restaurant","name":"酒処　あんちゃん","category":"food","address":"香川県綾歌郡宇多津町浜五番丁65番地 ニューオーヨシステートリーマンションS11","source":"厚生労働省 食品衛生申請等システム（オープンデータ）","municipality_code":"37386","municipality_pref":"香川県","municipality_name":"宇多津町","municipality_code_method":"food_exact_coord"},"geometry":{"type":"Point","coordinates":[133.811768,34.305171]}},{"type":"Feature","properties":{"layer_id":"cafe_restaurant","name":"オープンカフェ　どりーむ","category":"food","address":"香川県綾歌郡宇多津町2628番地974","source":"厚生労働省 食品衛生申請等システム（オープンデータ）","municipality_code":"37386","municipality_pref":"香川県","municipality_name":"宇多津町","municipality_code_method":"food_exact_coord"},"geometry":{"type":"Point","coordinates":[133.825692,34.311352]}},{"type":"Feature","properties":{"layer_id":"cafe_restaurant","name":"コロ家　宇多津店","category":"food","address":"香川県綾歌郡宇多津町浜八番丁122-15","source":"厚生労働省 食品衛生申請等システム（オープンデータ）","municipality_code":"37386","municipality_pref":"香川県","municipality_name":"宇多津町","municipality_code_method":"food_exact_coord"},"geometry":{"type":"Point","coordinates":[133.819817,34.308708]}},{"type":"Feature","properties":{"layer_id":"cafe_restaurant","name":"かたに商店宇多津店","category":"food","address":"香川県綾歌郡宇多津町浜八番丁122-19","source":"厚生労働省 食品衛生申請等システム（オープンデータ）","municipality_code":"37386","municipality_pref":"香川県","municipality_name":"宇多津町","municipality_code_method":"food_exact_coord"},"geometry":{"type":"Point","coordinates":[133.819734,34.308665]}},{"type":"Feature","properties":{"layer_id":"cafe_restaurant","name":"サン・アンジェリーナ","category":"food","address":"香川県綾歌郡宇多津町2719-1","source":"厚生労働省 食品衛生申請等システム（オープンデータ）","municipality_code":"37386","municipality_pref":"香川県","municipality_name":"宇多津町","municipality_code_method":"food_exact_coord"},"geometry":{"type":"Point","coordinates":[133.825692,34.311352]}},{"type":"Feature","properties":{"layer_id":"cafe_restaurant","name":"Café  restaurant  Croce  カフェ　レストラン　クローチェ","category":"food","address":"香川県綾歌郡宇多津町 2719-1","source":"厚生労働省 食品衛生申請等システム（オープンデータ）","municipality_code":"37386","municipality_pref":"香川県","municipality_name":"宇多津町","municipality_code_method":"food_exact_coord"},"geometry":{"type":"Point","coordinates":[133.825692,34.311352]}},{"type":"Feature","properties":{"layer_id":"cafe_restaurant","name":"シティホール宇多津","category":"food","address":"香川県綾歌郡宇多津町浜二番丁18-4-5","source":"厚生労働省 食品衛生申請等システム（オープンデータ）","municipality_code":"37386","municipality_pref":"香川県","municipality_name":"宇多津町","municipality_code_method":"food_exact_coord"},"geometry":{"type":"Point","coordinates":[133.81015,34.310327]}},{"type":"Feature","properties":{"layer_id":"cafe_restaurant","name":"焼肉　楽園","category":"food","address":"香川県綾歌郡宇多津町浜六番丁91-9","source":"厚生労働省 食品衛生申請等システム（オープンデータ）","municipality_code":"37386","municipality_pref":"香川県","municipality_name":"宇多津町","municipality_code_method":"food_exact_coord"},"geometry":{"type":"Point","coordinates":[133.818361,34.306951]}},{"type":"Feature","properties":{"layer_id":"cafe_restaurant","name":"Ｃａｆｅ＆Ｂａｒ　ＭＡＣＨＩＫＡＤＯ","category":"food","address":"香川県綾歌郡宇多津町大字東分328-4","source":"厚生労働省 食品衛生申請等システム（オープンデータ）","municipality_code":"37386","municipality_pref":"香川県","municipality_name":"宇多津町","municipality_code_method":"food_exact_coord"},"geometry":{"type":"Point","coordinates":[133.832957,34.291846]}},{"type":"Feature","properties":{"layer_id":"cafe_restaurant","name":"お菓子の工房　リンドン","category":"food","address":"香川県綾歌郡宇多津町浜一番丁７-16","source":"厚生労働省 食品衛生申請等システム（オープンデータ）","municipality_code":"37386","municipality_pref":"香川県","municipality_name":"宇多津町","municipality_code_method":"food_exact_coord"},"geometry":{"type":"Point","coordinates":[133.810087,34.311648]}},{"type":"Feature","properties":{"layer_id":"cafe_restaurant","name":"カラオケBanBan宇多津浜街道店","category":"food","address":"香川県綾歌郡宇多津町浜四番丁45-２","source":"厚生労働省 食品衛生申請等システム（オープンデータ）","municipality_code":"37386","municipality_pref":"香川県","municipality_name":"宇多津町","municipality_code_method":"food_exact_coord"},"geometry":{"type":"Point","coordinates":[133.814066,34.310872]}},{"type":"Feature","properties":{"layer_id":"cafe_restaurant","name":"コロ家","category":"food","address":"香川県綾歌郡宇多津町浜八番丁","source":"厚生労働省 食品衛生申請等システム（オープンデータ）","municipality_code":"37386","municipality_pref":"香川県","municipality_name":"宇多津町","municipality_code_method":"food_exact_coord"},"geometry":{"type":"Point","coordinates":[133.81894,34.308712]}},{"type":"Feature","properties":{"layer_id":"cafe_restaurant","name":"コロ家　本店","category":"food","address":"香川県綾歌郡宇多津町浜八番丁","source":"厚生労働省 食品衛生申請等システム（オープンデータ）","municipality_code":"37386","municipality_pref":"香川県","municipality_name":"宇多津町","municipality_code_method":"food_exact_coord"},"geometry":{"type":"Point","coordinates":[133.81894,34.308712]}},{"type":"Feature","properties":{"layer_id":"cafe_restaurant","name":"イオンシネマ宇多津","category":"food","address":"香川県綾歌郡宇多津町浜二番丁16","source":"厚生労働省 食品衛生申請等システム（オープンデータ）","municipality_code":"37386","municipality_pref":"香川県","municipality_name":"宇多津町","municipality_code_method":"food_exact_coord"},"geometry":{"type":"Point","coordinates":[133.811134,34.308262]}},{"type":"Feature","properties":{"layer_id":"cafe_restaurant","name":"cafe ten.ten.","category":"food","address":"香川県綾歌郡宇多津町3439-9","source":"厚生労働省 食品衛生申請等システム（オープンデータ）","municipality_code":"37386","municipality_pref":"香川県","municipality_name":"宇多津町","municipality_code_method":"food_exact_coord"},"geometry":{"type":"Point","coordinates":[133.825692,34.311352]}},{"type":"Feature","properties":{"layer_id":"cafe_restaurant","name":"たでや","category":"food","address":"香川県綾歌郡宇多津町浜二番丁16 イオンタウン宇多津内","source":"厚生労働省 食品衛生申請等システム（オープンデータ）","municipality_code":"37386","municipality_pref":"香川県","municipality_name":"宇多津町","municipality_code_method":"food_exact_coord"},"geometry":{"type":"Point","coordinates":[133.811134,34.308262]}},{"type":"Feature","properties":{"layer_id":"cafe_restaurant","name":"mo-1cco","category":"food","address":"香川県綾歌郡宇多津町浜二番丁16 イオンタウン宇多津1F","source":"厚生労働省 食品衛生申請等システム（オープンデータ）","municipality_code":"37386","municipality_pref":"香川県","municipality_name":"宇多津町","municipality_code_method":"food_exact_coord"},"geometry":{"type":"Point","coordinates":[133.811134,34.308262]}},{"type":"Feature","properties":{"layer_id":"cafe_restaurant","name":"ラーメン　とん太　宇多津店","category":"food","address":"香川県綾歌郡宇多津町浜五番丁61-5","source":"厚生労働省 食品衛生申請等システム（オープンデータ）","municipality_code":"37386","municipality_pref":"香川県","municipality_name":"宇多津町","municipality_code_method":"food_exact_coord"},"geometry":{"type":"Point","coordinates":[133.809901,34.304853]}},{"type":"Feature","properties":{"layer_id":"cafe_restaurant","name":"びんび三昧　坂出インター店","category":"food","address":"香川県綾歌郡宇多津町大字東分字本村東1660番地4","source":"厚生労働省 食品衛生申請等システム（オープンデータ）","municipality_code":"37386","municipality_pref":"香川県","municipality_name":"宇多津町","municipality_code_method":"food_exact_coord"},"geometry":{"type":"Point","coordinates":[133.838232,34.294371]}},{"type":"Feature","properties":{"layer_id":"cafe_restaurant","name":"寿司処 ここも 宇多津浜街道店","category":"food","address":"香川県綾歌郡宇多津町浜五番丁59-1","source":"厚生労働省 食品衛生申請等システム（オープンデータ）","municipality_code":"37386","municipality_pref":"香川県","municipality_name":"宇多津町","municipality_code_method":"food_exact_coord"},"geometry":{"type":"Point","coordinates":[133.811133,34.307035]}},{"type":"Feature","properties":{"layer_id":"cafe_restaurant","name":"株式会社山上食品","category":"food","address":"香川県綾歌郡宇多津町浜六番丁七八の二","source":"厚生労働省 食品衛生申請等システム（オープンデータ）","municipality_code":"37386","municipality_pref":"香川県","municipality_name":"宇多津町","municipality_code_method":"food_exact_coord"},"geometry":{"type":"Point","coordinates":[133.815354,34.305817]}},{"type":"Feature","properties":{"layer_id":"cafe_restaurant","name":"すくすくカフェ","category":"food","address":"香川県綾歌郡宇多津町150番地","source":"厚生労働省 食品衛生申請等システム（オープンデータ）","municipality_code":"37386","municipality_pref":"香川県","municipality_name":"宇多津町","municipality_code_method":"food_exact_coord"},"geometry":{"type":"Point","coordinates":[133.825692,34.311352]}},{"type":"Feature","properties":{"layer_id":"cafe_restaurant","name":"呑み処　志露人","category":"food","address":"香川県綾歌郡宇多津町1897番地１","source":"厚生労働省 食品衛生申請等システム（オープンデータ）","municipality_code":"37386","municipality_pref":"香川県","municipality_name":"宇多津町","municipality_code_method":"food_exact_coord"},"geometry":{"type":"Point","coordinates":[133.825692,34.311352]}},{"type":"Feature","properties":{"layer_id":"cafe_restaurant","name":"活魚炎舞　瀬戸パーク","category":"food","address":"香川県綾歌郡宇多津町浜三番丁24-14","source":"厚生労働省 食品衛生申請等システム（オープンデータ）","municipality_code":"37386","municipality_pref":"香川県","municipality_name":"宇多津町","municipality_code_method":"food_exact_coord"},"geometry":{"type":"Point","coordinates":[133.812408,34.311507]}},{"type":"Feature","properties":{"layer_id":"cafe_restaurant","name":"ＣОＶО utazu","category":"food","address":"香川県綾歌郡宇多津町浜三番丁24-9","source":"厚生労働省 食品衛生申請等システム（オープンデータ）","municipality_code":"37386","municipality_pref":"香川県","municipality_name":"宇多津町","municipality_code_method":"food_exact_coord"},"geometry":{"type":"Point","coordinates":[133.812529,34.312039]}},{"type":"Feature","properties":{"layer_id":"cafe_restaurant","name":"炭焼　肉の近どう　宇多津店","category":"food","address":"香川県綾歌郡宇多津町浜二番丁11-8","source":"厚生労働省 食品衛生申請等システム（オープンデータ）","municipality_code":"37386","municipality_pref":"香川県","municipality_name":"宇多津町","municipality_code_method":"food_exact_coord"},"geometry":{"type":"Point","coordinates":[133.808363,34.307438]}},{"type":"Feature","properties":{"layer_id":"cafe_restaurant","name":"天吉うどん　宇多津店","category":"food","address":"香川県綾歌郡宇多津町浜三番丁21番地9","source":"厚生労働省 食品衛生申請等システム（オープンデータ）","municipality_code":"37386","municipality_pref":"香川県","municipality_name":"宇多津町","municipality_code_method":"food_exact_coord"},"geometry":{"type":"Point","coordinates":[133.81404,34.312354]}},{"type":"Feature","properties":{"layer_id":"cafe_restaurant","name":"ヴィサージュ宇多津店","category":"food","address":"香川県綾歌郡宇多津町浜三番丁21番地9","source":"厚生労働省 食品衛生申請等システム（オープンデータ）","municipality_code":"37386","municipality_pref":"香川県","municipality_name":"宇多津町","municipality_code_method":"food_exact_coord"},"geometry":{"type":"Point","coordinates":[133.81404,34.312354]}},{"type":"Feature","properties":{"layer_id":"cafe_restaurant","name":"アサイー工房香川宇多津店　アサイー専門店","category":"food","address":"香川県綾歌郡宇多津町浜八番丁120番地9 メゾニティうえはら103号室","source":"厚生労働省 食品衛生申請等システム（オープンデータ）","municipality_code":"37386","municipality_pref":"香川県","municipality_name":"宇多津町","municipality_code_method":"food_exact_coord"},"geometry":{"type":"Point","coordinates":[133.818675,34.307923]}},{"type":"Feature","properties":{"layer_id":"cafe_restaurant","name":"旬処　栄","category":"food","address":"香川県綾歌郡宇多津町平山2628-147","source":"厚生労働省 食品衛生申請等システム（オープンデータ）","municipality_code":"37386","municipality_pref":"香川県","municipality_name":"宇多津町","municipality_code_method":"food_exact_coord"},"geometry":{"type":"Point","coordinates":[133.829258,34.316094]}},{"type":"Feature","properties":{"layer_id":"cafe_restaurant","name":"青春のおそばやさん","category":"food","address":"香川県綾歌郡宇多津町浜六番丁89-2","source":"厚生労働省 食品衛生申請等システム（オープンデータ）","municipality_code":"37386","municipality_pref":"香川県","municipality_name":"宇多津町","municipality_code_method":"food_exact_coord"},"geometry":{"type":"Point","coordinates":[133.817411,34.306938]}},{"type":"Feature","properties":{"layer_id":"cafe_restaurant","name":"青春のおそばやさん","category":"food","address":"香川県綾歌郡宇多津町浜六番丁","source":"厚生労働省 食品衛生申請等システム（オープンデータ）","municipality_code":"37386","municipality_pref":"香川県","municipality_name":"宇多津町","municipality_code_method":"food_exact_coord"},"geometry":{"type":"Point","coordinates":[133.815354,34.305817]}},{"type":"Feature","properties":{"layer_id":"cafe_restaurant","name":"ホテル オリーブ","category":"food","address":"香川県綾歌郡宇多津町大字東分232番地3","source":"厚生労働省 食品衛生申請等システム（オープンデータ）","municipality_code":"37386","municipality_pref":"香川県","municipality_name":"宇多津町","municipality_code_method":"food_exact_coord"},"geometry":{"type":"Point","coordinates":[133.832683,34.291892]}},{"type":"Feature","properties":{"layer_id":"cafe_restaurant","name":"寿美久満","category":"food","address":"香川県綾歌郡宇多津町3650番地","source":"厚生労働省 食品衛生申請等システム（オープンデータ）","municipality_code":"37386","municipality_pref":"香川県","municipality_name":"宇多津町","municipality_code_method":"food_exact_coord"},"geometry":{"type":"Point","coordinates":[133.825692,34.311352]}},{"type":"Feature","properties":{"layer_id":"cafe_restaurant","name":"はまきた珈琲 by sweets cafe pon pon","category":"food","address":"香川県綾歌郡宇多津町浜九番丁155-4","source":"厚生労働省 食品衛生申請等システム（オープンデータ）","municipality_code":"37386","municipality_pref":"香川県","municipality_name":"宇多津町","municipality_code_method":"food_exact_coord"},"geometry":{"type":"Point","coordinates":[133.820984,34.314791]}},{"type":"Feature","properties":{"layer_id":"cafe_restaurant","name":"新鮮市場きむら　宇多津店","category":"food","address":"香川県綾歌郡宇多津町浜五番丁48-2","source":"厚生労働省 食品衛生申請等システム（オープンデータ）","municipality_code":"37386","municipality_pref":"香川県","municipality_name":"宇多津町","municipality_code_method":"food_exact_coord"},"geometry":{"type":"Point","coordinates":[133.81412,34.308894]}},{"type":"Feature","properties":{"layer_id":"cafe_restaurant","name":"吉野家　浜街道宇多津店","category":"food","address":"香川県綾歌郡宇多津町浜二番丁20-17","source":"厚生労働省 食品衛生申請等システム（オープンデータ）","municipality_code":"37386","municipality_pref":"香川県","municipality_name":"宇多津町","municipality_code_method":"food_exact_coord"},"geometry":{"type":"Point","coordinates":[133.812036,34.309425]}},{"type":"Feature","properties":{"layer_id":"cafe_restaurant","name":"Dessert　Magic","category":"food","address":"香川県綾歌郡宇多津町新開2419-1","source":"厚生労働省 食品衛生申請等システム（オープンデータ）","municipality_code":"37386","municipality_pref":"香川県","municipality_name":"宇多津町","municipality_code_method":"food_exact_coord"},"geometry":{"type":"Point","coordinates":[133.829012,34.311105]}},{"type":"Feature","properties":{"layer_id":"cafe_restaurant","name":"キッチンせとうち","category":"food","address":"香川県綾歌郡宇多津町浜一番丁4 四国水族館内2F","source":"厚生労働省 食品衛生申請等システム（オープンデータ）","municipality_code":"37386","municipality_pref":"香川県","municipality_name":"宇多津町","municipality_code_method":"food_exact_coord"},"geometry":{"type":"Point","coordinates":[133.810573,34.313574]}},{"type":"Feature","properties":{"layer_id":"cafe_restaurant","name":"パールカフェ","category":"food","address":"香川県綾歌郡宇多津町浜一番丁4 四国水族館内2F","source":"厚生労働省 食品衛生申請等システム（オープンデータ）","municipality_code":"37386","municipality_pref":"香川県","municipality_name":"宇多津町","municipality_code_method":"food_exact_coord"},"geometry":{"type":"Point","coordinates":[133.810573,34.313574]}},{"type":"Feature","properties":{"layer_id":"cafe_restaurant","name":"SETOUCHI　たいにんぐ","category":"food","address":"香川県綾歌郡宇多津町浜一番丁7-6","source":"厚生労働省 食品衛生申請等システム（オープンデータ）","municipality_code":"37386","municipality_pref":"香川県","municipality_name":"宇多津町","municipality_code_method":"food_exact_coord"},"geometry":{"type":"Point","coordinates":[133.809424,34.311564]}},{"type":"Feature","properties":{"layer_id":"public_facilities","name":"大橋コミュニティー分館","category":"public","address":"宇多津町平山2628-591","source":"国土交通省 国土数値情報","municipality_code":"37386","municipality_pref":"香川県","municipality_name":"宇多津町","municipality_code_method":"source_exact_coord"},"geometry":{"type":"Point","coordinates":[133.823576,34.317986]}},{"type":"Feature","properties":{"layer_id":"public_facilities","name":"平山コミュニティー分館","category":"public","address":"宇多津町2495-1","source":"国土交通省 国土数値情報","municipality_code":"37386","municipality_pref":"香川県","municipality_name":"宇多津町","municipality_code_method":"source_exact_coord"},"geometry":{"type":"Point","coordinates":[133.829199579344,34.3161225457559]}},{"type":"Feature","properties":{"layer_id":"public_facilities","name":"ユープラザうたづ","category":"public","address":"宇多津町浜六番丁88","source":"国土交通省 国土数値情報","municipality_code":"37386","municipality_pref":"香川県","municipality_name":"宇多津町","municipality_code_method":"source_exact_coord"},"geometry":{"type":"Point","coordinates":[133.816902,34.305572]}},{"type":"Feature","properties":{"layer_id":"public_facilities","name":"山下・本町コミュニティー分館","category":"public","address":"宇多津町浜八番丁","source":"国土交通省 国土数値情報","municipality_code":"37386","municipality_pref":"香川県","municipality_name":"宇多津町","municipality_code_method":"source_exact_coord"},"geometry":{"type":"Point","coordinates":[133.8267874,34.30658428]}},{"type":"Feature","properties":{"layer_id":"public_facilities","name":"鍋谷コミュニティー分館","category":"public","address":"宇多津町大字東分43","source":"国土交通省 国土数値情報","municipality_code":"37386","municipality_pref":"香川県","municipality_name":"宇多津町","municipality_code_method":"source_exact_coord"},"geometry":{"type":"Point","coordinates":[133.830699,34.295904]}},{"type":"Feature","properties":{"layer_id":"public_facilities","name":"十楽寺コミュニティー分館","category":"public","address":"宇多津町大字東分","source":"国土交通省 国土数値情報","municipality_code":"37386","municipality_pref":"香川県","municipality_name":"宇多津町","municipality_code_method":"source_exact_coord"},"geometry":{"type":"Point","coordinates":[133.8298985,34.29995453]}},{"type":"Feature","properties":{"layer_id":"public_facilities","name":"坂出・宇多津広域行政センター","category":"public","address":"宇多津町2915","source":"国土交通省 国土数値情報","municipality_code":"37386","municipality_pref":"香川県","municipality_name":"宇多津町","municipality_code_method":"source_exact_coord"},"geometry":{"type":"Point","coordinates":[133.836119781179,34.3124448238162]}},{"type":"Feature","properties":{"layer_id":"public_facilities","name":"中央コミュニティー分館","category":"public","address":"宇多津町浜九番丁","source":"国土交通省 国土数値情報","municipality_code":"37386","municipality_pref":"香川県","municipality_name":"宇多津町","municipality_code_method":"source_exact_coord"},"geometry":{"type":"Point","coordinates":[133.8270316,34.30883672]}},{"type":"Feature","properties":{"layer_id":"public_facilities","name":"宇多津町役場","category":"public","address":"宇多津町1881","source":"国土交通省 国土数値情報","municipality_code":"37386","municipality_pref":"香川県","municipality_name":"宇多津町","municipality_code_method":"source_exact_coord"},"geometry":{"type":"Point","coordinates":[133.825566,34.310301]}},{"type":"Feature","properties":{"layer_id":"public_facilities","name":"サポートセンター","category":"public","address":"宇多津町浜五番丁49-7","source":"国土交通省 国土数値情報","municipality_code":"37386","municipality_pref":"香川県","municipality_name":"宇多津町","municipality_code_method":"source_exact_coord"},"geometry":{"type":"Point","coordinates":[133.813692,34.305692]}},{"type":"Feature","properties":{"layer_id":"public_facilities","name":"少年育成センター","category":"public","address":"宇多津町浜八番丁113-1","source":"国土交通省 国土数値情報","municipality_code":"37386","municipality_pref":"香川県","municipality_name":"宇多津町","municipality_code_method":"source_exact_coord"},"geometry":{"type":"Point","coordinates":[133.8217653,34.31164753]}},{"type":"Feature","properties":{"layer_id":"public_facilities","name":"津の郷コミュニティー分館","category":"public","address":"宇多津町大字東分1612-1","source":"国土交通省 国土数値情報","municipality_code":"37386","municipality_pref":"香川県","municipality_name":"宇多津町","municipality_code_method":"source_exact_coord"},"geometry":{"type":"Point","coordinates":[133.837825,34.293243]}},{"type":"Feature","properties":{"layer_id":"public_facilities","name":"北浦コミュニティー分館","category":"public","address":"宇多津町2628-67","source":"国土交通省 国土数値情報","municipality_code":"37386","municipality_pref":"香川県","municipality_name":"宇多津町","municipality_code_method":"source_exact_coord"},"geometry":{"type":"Point","coordinates":[133.825821625699,34.3202494675556]}},{"type":"Feature","properties":{"layer_id":"public_facilities","name":"坂下西コミュニティー分館","category":"public","address":"宇多津町坂下2803","source":"国土交通省 国土数値情報","municipality_code":"37386","municipality_pref":"香川県","municipality_name":"宇多津町","municipality_code_method":"source_exact_coord"},"geometry":{"type":"Point","coordinates":[133.835415,34.313364]}},{"type":"Feature","properties":{"layer_id":"public_facilities","name":"浜八番丁コミュニティー分館","category":"public","address":"宇多津町浜八番丁","source":"国土交通省 国土数値情報","municipality_code":"37386","municipality_pref":"香川県","municipality_name":"宇多津町","municipality_code_method":"source_exact_coord"},"geometry":{"type":"Point","coordinates":[133.8200435,34.30915902]}},{"type":"Feature","properties":{"layer_id":"public_facilities","name":"やすらぎプラザ","category":"public","address":"宇多津町大門","source":"国土交通省 国土数値情報","municipality_code":"37386","municipality_pref":"香川県","municipality_name":"宇多津町","municipality_code_method":"source_exact_coord"},"geometry":{"type":"Point","coordinates":[133.829231,34.305734]}},{"type":"Feature","properties":{"layer_id":"public_facilities","name":"坂下東コミュニティー分館","category":"public","address":"宇多津町2914","source":"国土交通省 国土数値情報","municipality_code":"37386","municipality_pref":"香川県","municipality_name":"宇多津町","municipality_code_method":"source_exact_coord"},"geometry":{"type":"Point","coordinates":[133.835394099192,34.313385552079]}},{"type":"Feature","properties":{"layer_id":"public_facilities","name":"津の郷北コミュニティー分館","category":"public","address":"宇多津町大字東分","source":"国土交通省 国土数値情報","municipality_code":"37386","municipality_pref":"香川県","municipality_name":"宇多津町","municipality_code_method":"source_exact_coord"},"geometry":{"type":"Point","coordinates":[133.8358954,34.29762136]}},{"type":"Feature","properties":{"layer_id":"public_facilities","name":"宇多津町保健センター","category":"public","address":"宇多津町1881","source":"国土交通省 国土数値情報","municipality_code":"37386","municipality_pref":"香川県","municipality_name":"宇多津町","municipality_code_method":"source_exact_coord"},"geometry":{"type":"Point","coordinates":[133.825733,34.310643]}},{"type":"Feature","properties":{"layer_id":"public_facilities","name":"田町コミュニティー分館","category":"public","address":"宇多津町659-6","source":"国土交通省 国土数値情報","municipality_code":"37386","municipality_pref":"香川県","municipality_name":"宇多津町","municipality_code_method":"source_exact_coord"},"geometry":{"type":"Point","coordinates":[133.831791970158,34.3042686097192]}},{"type":"Feature","properties":{"layer_id":"public_facilities","name":"新町コミュニティー分館","category":"public","address":"宇多津町浜九番丁","source":"国土交通省 国土数値情報","municipality_code":"37386","municipality_pref":"香川県","municipality_name":"宇多津町","municipality_code_method":"source_exact_coord"},"geometry":{"type":"Point","coordinates":[133.8283398,34.30959768]}},{"type":"Feature","properties":{"layer_id":"public_facilities","name":"大門コミュニティー分館","category":"public","address":"宇多津町浜八番丁","source":"国土交通省 国土数値情報","municipality_code":"37386","municipality_pref":"香川県","municipality_name":"宇多津町","municipality_code_method":"source_exact_coord"},"geometry":{"type":"Point","coordinates":[133.828315,34.30640926]}},{"type":"Feature","properties":{"layer_id":"public_facilities","name":"新開コミュニティー分館","category":"public","address":"宇多津町浜九番丁","source":"国土交通省 国土数値情報","municipality_code":"37386","municipality_pref":"香川県","municipality_name":"宇多津町","municipality_code_method":"source_exact_coord"},"geometry":{"type":"Point","coordinates":[133.8278507,34.31346377]}},{"type":"Feature","properties":{"layer_id":"cultural_facilities","name":"デュアル・スポーツセンター","category":"public","address":"3390-1","source":"国土交通省 国土数値情報","municipality_code":"37386","municipality_pref":"香川県","municipality_name":"宇多津町","municipality_code_method":"nearest_centroid"},"geometry":{"type":"Point","coordinates":[133.836544,34.308802]}},{"type":"Feature","properties":{"layer_id":"cultural_facilities","name":"宇多津町民体育館","category":"public","address":"815","source":"国土交通省 国土数値情報","municipality_code":"37386","municipality_pref":"香川県","municipality_name":"宇多津町","municipality_code_method":"nearest_centroid"},"geometry":{"type":"Point","coordinates":[133.835202,34.30371]}},{"type":"Feature","properties":{"layer_id":"cultural_facilities","name":"デュアル・スポーツセンター","category":"public","address":"3390-1","source":"国土交通省 国土数値情報","municipality_code":"37386","municipality_pref":"香川県","municipality_name":"宇多津町","municipality_code_method":"nearest_centroid"},"geometry":{"type":"Point","coordinates":[133.836544,34.308885]}},{"type":"Feature","properties":{"layer_id":"cultural_facilities","name":"総合型スポーツ施設（地域ふれあいスポーツセンター）","category":"public","address":"3300","source":"国土交通省 国土数値情報","municipality_code":"37386","municipality_pref":"香川県","municipality_name":"宇多津町","municipality_code_method":"nearest_centroid"},"geometry":{"type":"Point","coordinates":[133.825525,34.310299]}},{"type":"Feature","properties":{"layer_id":"cultural_facilities","name":"ライブラリーうたづ","category":"public","address":"浜6番丁88","source":"国土交通省 国土数値情報","municipality_code":"37386","municipality_pref":"香川県","municipality_name":"宇多津町","municipality_code_method":"nearest_centroid"},"geometry":{"type":"Point","coordinates":[133.816858,34.305695]}},{"type":"Feature","properties":{"layer_id":"cultural_facilities","name":"宇多津町民体育館","category":"public","address":"815","source":"国土交通省 国土数値情報","municipality_code":"37386","municipality_pref":"香川県","municipality_name":"宇多津町","municipality_code_method":"nearest_centroid"},"geometry":{"type":"Point","coordinates":[133.835202,34.303612]}},{"type":"Feature","properties":{"layer_id":"cultural_facilities","name":"聖通寺山歴史散策めぐり＜宇多津町＞","category":"public","address":"詳細住所不明","source":"国土交通省 国土数値情報","municipality_code":"37386","municipality_pref":"香川県","municipality_name":"宇多津町","municipality_code_method":"nearest_centroid"},"geometry":{"type":"Point","coordinates":[133.82501,34.310299]}},{"type":"Feature","properties":{"layer_id":"cultural_facilities","name":"総合型スポーツ施設（地域ふれあいスポーツセンター）","category":"public","address":"3300","source":"国土交通省 国土数値情報","municipality_code":"37386","municipality_pref":"香川県","municipality_name":"宇多津町","municipality_code_method":"nearest_centroid"},"geometry":{"type":"Point","coordinates":[133.837038,34.308058]}},{"type":"Feature","properties":{"layer_id":"cultural_facilities","name":"デュアル・スポーツセンター","category":"public","address":"3390-1","source":"国土交通省 国土数値情報","municipality_code":"37386","municipality_pref":"香川県","municipality_name":"宇多津町","municipality_code_method":"nearest_centroid"},"geometry":{"type":"Point","coordinates":[133.836544,34.308719]}},{"type":"Feature","properties":{"layer_id":"cultural_facilities","name":"香川短期大学附属図書館","category":"public","address":"浜1番丁10","source":"国土交通省 国土数値情報","municipality_code":"37386","municipality_pref":"香川県","municipality_name":"宇多津町","municipality_code_method":"nearest_centroid"},"geometry":{"type":"Point","coordinates":[133.808525,34.309818]}},{"type":"Feature","properties":{"layer_id":"parks_playgrounds","name":"宇多津中央公園","category":"nature","address":"綾歌郡宇多津町","source":"国土交通省 国土数値情報","municipality_code":"37386","municipality_pref":"香川県","municipality_name":"宇多津町","municipality_code_method":"nearest_centroid"},"geometry":{"type":"Point","coordinates":[133.82102977,34.31100287]}},{"type":"Feature","properties":{"layer_id":"parks_playgrounds","name":"宇多津３号公園","category":"nature","address":"綾歌郡宇多津町","source":"国土交通省 国土数値情報","municipality_code":"37386","municipality_pref":"香川県","municipality_name":"宇多津町","municipality_code_method":"nearest_centroid"},"geometry":{"type":"Point","coordinates":[133.81381102,34.31457627]}},{"type":"Feature","properties":{"layer_id":"parks_playgrounds","name":"平山公園","category":"nature","address":"綾歌郡宇多津町","source":"国土交通省 国土数値情報","municipality_code":"37386","municipality_pref":"香川県","municipality_name":"宇多津町","municipality_code_method":"nearest_centroid"},"geometry":{"type":"Point","coordinates":[133.82737918,34.31607768]}},{"type":"Feature","properties":{"layer_id":"parks_playgrounds","name":"宇多津６号公園","category":"nature","address":"綾歌郡宇多津町","source":"国土交通省 国土数値情報","municipality_code":"37386","municipality_pref":"香川県","municipality_name":"宇多津町","municipality_code_method":"nearest_centroid"},"geometry":{"type":"Point","coordinates":[133.82349403,34.31046493]}},{"type":"Feature","properties":{"layer_id":"parks_playgrounds","name":"聖通寺山公園","category":"nature","address":"坂出市","source":"国土交通省 国土数値情報","municipality_code":"37386","municipality_pref":"香川県","municipality_name":"宇多津町","municipality_code_method":"nearest_centroid"},"geometry":{"type":"Point","coordinates":[133.83358556,34.31797748]}},{"type":"Feature","properties":{"layer_id":"parks_playgrounds","name":"宇多津臨海公園","category":"nature","address":"綾歌郡宇多津町","source":"国土交通省 国土数値情報","municipality_code":"37386","municipality_pref":"香川県","municipality_name":"宇多津町","municipality_code_method":"nearest_centroid"},"geometry":{"type":"Point","coordinates":[133.80831458,34.31324331]}},{"type":"Feature","properties":{"layer_id":"parks_playgrounds","name":"宇多津４号公園","category":"nature","address":"綾歌郡宇多津町","source":"国土交通省 国土数値情報","municipality_code":"37386","municipality_pref":"香川県","municipality_name":"宇多津町","municipality_code_method":"nearest_centroid"},"geometry":{"type":"Point","coordinates":[133.82039792,34.31305884]}},{"type":"Feature","properties":{"layer_id":"parks_playgrounds","name":"宇多津２号公園","category":"nature","address":"綾歌郡宇多津町","source":"国土交通省 国土数値情報","municipality_code":"37386","municipality_pref":"香川県","municipality_name":"宇多津町","municipality_code_method":"nearest_centroid"},"geometry":{"type":"Point","coordinates":[133.81191265,34.30267245]}},{"type":"Feature","properties":{"layer_id":"parks_playgrounds","name":"宇多津１号公園","category":"nature","address":"綾歌郡宇多津町","source":"国土交通省 国土数値情報","municipality_code":"37386","municipality_pref":"香川県","municipality_name":"宇多津町","municipality_code_method":"nearest_centroid"},"geometry":{"type":"Point","coordinates":[133.80969922,34.30388449]}},{"type":"Feature","properties":{"layer_id":"tourism_resources","name":"角山","category":"nature","address":"山地（非火山性）景観 / 非火山性弧峰","source":"国土交通省 国土数値情報","municipality_code":"37386","municipality_pref":"香川県","municipality_name":"宇多津町","municipality_code_method":"nearest_centroid","resource_code":"205"},"geometry":{"type":"Point","coordinates":[133.8436279296875,34.30648422241211]}},{"type":"Feature","properties":{"layer_id":"tourism_resources","name":"聖通寺山","category":"nature","address":"山地（非火山性）景観 / 非火山性弧峰","source":"国土交通省 国土数値情報","municipality_code":"37386","municipality_pref":"香川県","municipality_name":"宇多津町","municipality_code_method":"nearest_centroid","resource_code":"205"},"geometry":{"type":"Point","coordinates":[133.83384704589844,34.31694412231445]}},{"type":"Feature","properties":{"layer_id":"tourism_resources","name":"青ノ山","category":"nature","address":"山地（非火山性）景観 / 非火山性弧峰","source":"国土交通省 国土数値情報","municipality_code":"37386","municipality_pref":"香川県","municipality_name":"宇多津町","municipality_code_method":"nearest_centroid","resource_code":"205"},"geometry":{"type":"Point","coordinates":[133.8224334716797,34.30062484741211]}}],"display_comment_original":"宇多津町には、地域の由緒を示す案内板や石碑を探す余地がある。 まずは社寺・地域信仰を軸に、地区の由緒を拾える場所を探したい。 現地では石碑、地蔵、地域資料館、公民館の由緒板を、既存ピンと照らして歩くと発見しやすい。","story_enrichment":{"samurai_priority_people":[],"notable_people":["大松博文"],"honorary_citizens":[],"tourism_landmarks":["うたづ臨海公園","うたづ海ホタル（宇多津町産業資料館）","復元塩田","恋人の聖地","ゴールドタワー（高さ158m）","世界のガラス館","青ノ山頂上展望台","四国水族館"],"specialties":[],"food_culture":[],"historical_domains":[],"heian_place_names":[],"japan_search_support":[],"enrichment_sources":["https://ja.wikipedia.org/wiki/%E5%AE%87%E5%A4%9A%E6%B4%A5%E7%94%BA","https://www.wikidata.org/wiki/Q10935760","https://jpsearch.go.jp/csearch/jps-cross?csid=jps-cross&keyword=%E5%A4%A7%E6%9D%BE%E5%8D%9A%E6%96%87&keyword=%E5%AE%87%E5%A4%9A%E6%B4%A5%E7%94%BA"],"enrichment_errors":[],"wikipedia_title":"宇多津町","wikipedia_revision_id":"110879524","wikidata_qid":"Q1156290","wikipedia_url":"https://ja.wikipedia.org/wiki/%E5%AE%87%E5%A4%9A%E6%B4%A5%E7%94%BA","japan_search_query_url":"https://jpsearch.go.jp/csearch/jps-cross?csid=jps-cross&keyword=%E5%A4%A7%E6%9D%BE%E5%8D%9A%E6%96%87&keyword=%E5%AE%87%E5%A4%9A%E6%B4%A5%E7%94%BA","status":"wikipedia_ok"}}