{"type":"FeatureCollection","municipality_code":"39387","pref":"高知県","city":"仁淀川町","display_comment":"仁淀川町には、地域の歴史や暮らしを伝える案内板や石碑があり、それらを手がかりに街歩きを楽しめます。 周辺には寺社や信仰の場、城跡や陣屋跡、史跡や遺跡にまつわる場所が点在し、「中森城跡」、「赤滝城跡」、「立烏帽子城跡」などを起点に歩くと、地域の歴史がぐっと見えやすくなります。 現地では史跡説明板が、地域の歴史を読み解く手がかりになるでしょう。 川沿いや水辺では、その土地の暮らしや水との関わりを伝える歴史案内板が見つかるかもしれません。 ゆかりの人物では児島稔や金子直吉に注目すると、地域に残る文化や時代背景をさらに深く知るきっかけになります。 「善法寺」や「岩屋寺」などの名所も、地域の物語を深掘りする絶好の入口です。","layer_counts":{"cafe_restaurant":45,"public_facilities":29,"scenic_nature_areas":3,"cultural_facilities":4,"tourism_resources":10},"total_features":91,"features":[{"type":"Feature","properties":{"layer_id":"cafe_restaurant","name":"サニーマートFCコスモス吾川店","category":"food","address":"高知県吾川郡仁淀川町大崎264-5 吾川店　２階","source":"厚生労働省 食品衛生申請等システム（オープンデータ）","municipality_code":"39387","municipality_pref":"高知県","municipality_name":"仁淀川町","municipality_code_method":"food_exact_coord"},"geometry":{"type":"Point","coordinates":[133.172741,33.575557]}},{"type":"Feature","properties":{"layer_id":"cafe_restaurant","name":"サニーマートFCコスモス池川店","category":"food","address":"高知県吾川郡仁淀川町土居甲807","source":"厚生労働省 食品衛生申請等システム（オープンデータ）","municipality_code":"39387","municipality_pref":"高知県","municipality_name":"仁淀川町","municipality_code_method":"food_exact_coord"},"geometry":{"type":"Point","coordinates":[133.169891,33.607817]}},{"type":"Feature","properties":{"layer_id":"cafe_restaurant","name":"茶農家の店　あすなろ","category":"food","address":"高知県吾川郡仁淀川町鷲ノ巣228-2","source":"厚生労働省 食品衛生申請等システム（オープンデータ）","municipality_code":"39387","municipality_pref":"高知県","municipality_name":"仁淀川町","municipality_code_method":"food_exact_coord"},"geometry":{"type":"Point","coordinates":[133.086327,33.541796]}},{"type":"Feature","properties":{"layer_id":"cafe_restaurant","name":"仁淀川町移住交流拠点施設　一般社団法人　山茶小屋","category":"food","address":"高知県吾川郡仁淀川町竹ノ谷612","source":"厚生労働省 食品衛生申請等システム（オープンデータ）","municipality_code":"39387","municipality_pref":"高知県","municipality_name":"仁淀川町","municipality_code_method":"food_exact_coord"},"geometry":{"type":"Point","coordinates":[133.153843,33.608559]}},{"type":"Feature","properties":{"layer_id":"cafe_restaurant","name":"おさき","category":"food","address":"高知県吾川郡仁淀川町大崎325","source":"厚生労働省 食品衛生申請等システム（オープンデータ）","municipality_code":"39387","municipality_pref":"高知県","municipality_name":"仁淀川町","municipality_code_method":"food_exact_coord"},"geometry":{"type":"Point","coordinates":[133.17148,33.574508]}},{"type":"Feature","properties":{"layer_id":"cafe_restaurant","name":"宝来家","category":"food","address":"高知県吾川郡仁淀川町大屋161-5-1","source":"厚生労働省 食品衛生申請等システム（オープンデータ）","municipality_code":"39387","municipality_pref":"高知県","municipality_name":"仁淀川町","municipality_code_method":"food_exact_coord"},"geometry":{"type":"Point","coordinates":[133.169872,33.688538]}},{"type":"Feature","properties":{"layer_id":"cafe_restaurant","name":"アウト　ドア　テラス　安居","category":"food","address":"高知県吾川郡仁淀川町大屋1630-3","source":"厚生労働省 食品衛生申請等システム（オープンデータ）","municipality_code":"39387","municipality_pref":"高知県","municipality_name":"仁淀川町","municipality_code_method":"food_exact_coord"},"geometry":{"type":"Point","coordinates":[133.169872,33.688538]}},{"type":"Feature","properties":{"layer_id":"cafe_restaurant","name":"飲み喰い処ゆみ","category":"food","address":"高知県吾川郡仁淀川町森東地8003","source":"厚生労働省 食品衛生申請等システム（オープンデータ）","municipality_code":"39387","municipality_pref":"高知県","municipality_name":"仁淀川町","municipality_code_method":"food_exact_coord"},"geometry":{"type":"Point","coordinates":[133.1822,33.677183]}},{"type":"Feature","properties":{"layer_id":"cafe_restaurant","name":"中津渓谷ゆの森　２Fレストラン","category":"food","address":"高知県吾川郡仁淀川町名野川258-1","source":"厚生労働省 食品衛生申請等システム（オープンデータ）","municipality_code":"39387","municipality_pref":"高知県","municipality_name":"仁淀川町","municipality_code_method":"food_exact_coord"},"geometry":{"type":"Point","coordinates":[133.130313,33.561248]}},{"type":"Feature","properties":{"layer_id":"cafe_restaurant","name":"多目的ホール中津の森","category":"food","address":"高知県吾川郡仁淀川町名野川257-1","source":"厚生労働省 食品衛生申請等システム（オープンデータ）","municipality_code":"39387","municipality_pref":"高知県","municipality_name":"仁淀川町","municipality_code_method":"food_exact_coord"},"geometry":{"type":"Point","coordinates":[133.128683,33.567322]}},{"type":"Feature","properties":{"layer_id":"cafe_restaurant","name":"五番館","category":"food","address":"高知県吾川郡仁淀川町葛原725-イ","source":"厚生労働省 食品衛生申請等システム（オープンデータ）","municipality_code":"39387","municipality_pref":"高知県","municipality_name":"仁淀川町","municipality_code_method":"food_exact_coord"},"geometry":{"type":"Point","coordinates":[133.174971,33.57705]}},{"type":"Feature","properties":{"layer_id":"cafe_restaurant","name":"ローソン仁淀川町大崎店","category":"food","address":"高知県吾川郡仁淀川町大崎134-1","source":"厚生労働省 食品衛生申請等システム（オープンデータ）","municipality_code":"39387","municipality_pref":"高知県","municipality_name":"仁淀川町","municipality_code_method":"food_exact_coord"},"geometry":{"type":"Point","coordinates":[133.1695435,33.57525]}},{"type":"Feature","properties":{"layer_id":"cafe_restaurant","name":"田舎のコンビニおしおか","category":"food","address":"高知県吾川郡仁淀川町田村184-1","source":"厚生労働省 食品衛生申請等システム（オープンデータ）","municipality_code":"39387","municipality_pref":"高知県","municipality_name":"仁淀川町","municipality_code_method":"food_exact_coord"},"geometry":{"type":"Point","coordinates":[133.1607,33.591878]}},{"type":"Feature","properties":{"layer_id":"cafe_restaurant","name":"花の里","category":"food","address":"高知県吾川郡仁淀川町寺村1032","source":"厚生労働省 食品衛生申請等システム（オープンデータ）","municipality_code":"39387","municipality_pref":"高知県","municipality_name":"仁淀川町","municipality_code_method":"food_exact_coord"},"geometry":{"type":"Point","coordinates":[133.191665,33.576589]}},{"type":"Feature","properties":{"layer_id":"cafe_restaurant","name":"てっぺんテラス","category":"food","address":"高知県吾川郡仁淀川町寄合725-2","source":"厚生労働省 食品衛生申請等システム（オープンデータ）","municipality_code":"39387","municipality_pref":"高知県","municipality_name":"仁淀川町","municipality_code_method":"food_exact_coord"},"geometry":{"type":"Point","coordinates":[133.131106,33.605042]}},{"type":"Feature","properties":{"layer_id":"cafe_restaurant","name":"仁淀川町観光センター　秋葉の宿","category":"food","address":"高知県吾川郡仁淀川町高瀬3869","source":"厚生労働省 食品衛生申請等システム（オープンデータ）","municipality_code":"39387","municipality_pref":"高知県","municipality_name":"仁淀川町","municipality_code_method":"food_exact_coord"},"geometry":{"type":"Point","coordinates":[133.111239,33.540574]}},{"type":"Feature","properties":{"layer_id":"cafe_restaurant","name":"秋葉生活改善グループ","category":"food","address":"高知県吾川郡仁淀川町別枝1775-1","source":"厚生労働省 食品衛生申請等システム（オープンデータ）","municipality_code":"39387","municipality_pref":"高知県","municipality_name":"仁淀川町","municipality_code_method":"food_exact_coord"},"geometry":{"type":"Point","coordinates":[133.053246,33.513685]}},{"type":"Feature","properties":{"layer_id":"cafe_restaurant","name":"仁淀川町学校給食共同調理場","category":"food","address":"高知県吾川郡仁淀川町森6322","source":"厚生労働省 食品衛生申請等システム（オープンデータ）","municipality_code":"39387","municipality_pref":"高知県","municipality_name":"仁淀川町","municipality_code_method":"food_exact_coord"},"geometry":{"type":"Point","coordinates":[133.13612,33.557783]}},{"type":"Feature","properties":{"layer_id":"cafe_restaurant","name":"KARU 大崎作業所","category":"food","address":"高知県吾川郡仁淀川町大崎35","source":"厚生労働省 食品衛生申請等システム（オープンデータ）","municipality_code":"39387","municipality_pref":"高知県","municipality_name":"仁淀川町","municipality_code_method":"food_exact_coord"},"geometry":{"type":"Point","coordinates":[133.171215,33.575693]}},{"type":"Feature","properties":{"layer_id":"cafe_restaurant","name":"CAFE　and　BEEF　かる。","category":"food","address":"高知県吾川郡仁淀川町土居甲769番地5","source":"厚生労働省 食品衛生申請等システム（オープンデータ）","municipality_code":"39387","municipality_pref":"高知県","municipality_name":"仁淀川町","municipality_code_method":"food_exact_coord"},"geometry":{"type":"Point","coordinates":[133.157761,33.604924]}},{"type":"Feature","properties":{"layer_id":"cafe_restaurant","name":"そば処　宝来荘","category":"food","address":"高知県吾川郡仁淀川町大屋1627-4","source":"厚生労働省 食品衛生申請等システム（オープンデータ）","municipality_code":"39387","municipality_pref":"高知県","municipality_name":"仁淀川町","municipality_code_method":"food_exact_coord"},"geometry":{"type":"Point","coordinates":[133.190838,33.669898]}},{"type":"Feature","properties":{"layer_id":"cafe_restaurant","name":"高木旅館","category":"food","address":"高知県吾川郡仁淀川町長者乙2494-19","source":"厚生労働省 食品衛生申請等システム（オープンデータ）","municipality_code":"39387","municipality_pref":"高知県","municipality_name":"仁淀川町","municipality_code_method":"food_exact_coord"},"geometry":{"type":"Point","coordinates":[133.135263,33.500239]}},{"type":"Feature","properties":{"layer_id":"cafe_restaurant","name":"喫茶　おっくん家","category":"food","address":"高知県吾川郡仁淀川町土居甲1076-5","source":"厚生労働省 食品衛生申請等システム（オープンデータ）","municipality_code":"39387","municipality_pref":"高知県","municipality_name":"仁淀川町","municipality_code_method":"food_exact_coord"},"geometry":{"type":"Point","coordinates":[133.174846,33.611356]}},{"type":"Feature","properties":{"layer_id":"cafe_restaurant","name":"ドライブイン引地橋茶屋","category":"food","address":"高知県吾川郡仁淀川町引地280","source":"厚生労働省 食品衛生申請等システム（オープンデータ）","municipality_code":"39387","municipality_pref":"高知県","municipality_name":"仁淀川町","municipality_code_method":"food_exact_coord"},"geometry":{"type":"Point","coordinates":[133.149282,33.570972]}},{"type":"Feature","properties":{"layer_id":"cafe_restaurant","name":"みやお食堂","category":"food","address":"高知県吾川郡仁淀川町大崎180","source":"厚生労働省 食品衛生申請等システム（オープンデータ）","municipality_code":"39387","municipality_pref":"高知県","municipality_name":"仁淀川町","municipality_code_method":"food_exact_coord"},"geometry":{"type":"Point","coordinates":[133.170633,33.574693]}},{"type":"Feature","properties":{"layer_id":"cafe_restaurant","name":"仁淀川アウトドアセンター","category":"food","address":"高知県吾川郡仁淀川町長屋6番地","source":"厚生労働省 食品衛生申請等システム（オープンデータ）","municipality_code":"39387","municipality_pref":"高知県","municipality_name":"仁淀川町","municipality_code_method":"food_exact_coord"},"geometry":{"type":"Point","coordinates":[133.166239,33.597841]}},{"type":"Feature","properties":{"layer_id":"cafe_restaurant","name":"いけがわ　４３９","category":"food","address":"高知県吾川郡仁淀川町北浦450-2","source":"厚生労働省 食品衛生申請等システム（オープンデータ）","municipality_code":"39387","municipality_pref":"高知県","municipality_name":"仁淀川町","municipality_code_method":"food_exact_coord"},"geometry":{"type":"Point","coordinates":[133.172478,33.608063]}},{"type":"Feature","properties":{"layer_id":"cafe_restaurant","name":"山村自然楽校しもなの郷","category":"food","address":"高知県吾川郡仁淀川町下名野川619","source":"厚生労働省 食品衛生申請等システム（オープンデータ）","municipality_code":"39387","municipality_pref":"高知県","municipality_name":"仁淀川町","municipality_code_method":"food_exact_coord"},"geometry":{"type":"Point","coordinates":[133.099416,33.569002]}},{"type":"Feature","properties":{"layer_id":"cafe_restaurant","name":"池川茶園","category":"food","address":"高知県吾川郡仁淀川町土居甲695-4","source":"厚生労働省 食品衛生申請等システム（オープンデータ）","municipality_code":"39387","municipality_pref":"高知県","municipality_name":"仁淀川町","municipality_code_method":"food_exact_coord"},"geometry":{"type":"Point","coordinates":[133.165786,33.605907]}},{"type":"Feature","properties":{"layer_id":"cafe_restaurant","name":"割烹幸楽","category":"food","address":"高知県吾川郡仁淀川町森7561","source":"厚生労働省 食品衛生申請等システム（オープンデータ）","municipality_code":"39387","municipality_pref":"高知県","municipality_name":"仁淀川町","municipality_code_method":"food_exact_coord"},"geometry":{"type":"Point","coordinates":[133.133188,33.531693]}},{"type":"Feature","properties":{"layer_id":"cafe_restaurant","name":"陽鳴館","category":"food","address":"高知県吾川郡仁淀川町長者乙4995-2","source":"厚生労働省 食品衛生申請等システム（オープンデータ）","municipality_code":"39387","municipality_pref":"高知県","municipality_name":"仁淀川町","municipality_code_method":"food_exact_coord"},"geometry":{"type":"Point","coordinates":[133.118305,33.486132]}},{"type":"Feature","properties":{"layer_id":"cafe_restaurant","name":"旅館　合田","category":"food","address":"高知県吾川郡仁淀川町森2577-19","source":"厚生労働省 食品衛生申請等システム（オープンデータ）","municipality_code":"39387","municipality_pref":"高知県","municipality_name":"仁淀川町","municipality_code_method":"food_exact_coord"},"geometry":{"type":"Point","coordinates":[133.12961,33.535895]}},{"type":"Feature","properties":{"layer_id":"cafe_restaurant","name":"SAUNA CORE","category":"food","address":"高知県吾川郡仁淀川町田村281-1","source":"厚生労働省 食品衛生申請等システム（オープンデータ）","municipality_code":"39387","municipality_pref":"高知県","municipality_name":"仁淀川町","municipality_code_method":"food_exact_coord"},"geometry":{"type":"Point","coordinates":[133.158972,33.594144]}},{"type":"Feature","properties":{"layer_id":"cafe_restaurant","name":"よもぎまんじゅう　山菜料理店　掛水","category":"food","address":"高知県吾川郡仁淀川町上名野川146","source":"厚生労働省 食品衛生申請等システム（オープンデータ）","municipality_code":"39387","municipality_pref":"高知県","municipality_name":"仁淀川町","municipality_code_method":"food_exact_coord"},"geometry":{"type":"Point","coordinates":[133.073926,33.580163]}},{"type":"Feature","properties":{"layer_id":"cafe_restaurant","name":"㊇喫茶　まるはち","category":"food","address":"高知県吾川郡仁淀川町森2615-5","source":"厚生労働省 食品衛生申請等システム（オープンデータ）","municipality_code":"39387","municipality_pref":"高知県","municipality_name":"仁淀川町","municipality_code_method":"food_exact_coord"},"geometry":{"type":"Point","coordinates":[133.128738,33.535615]}},{"type":"Feature","properties":{"layer_id":"cafe_restaurant","name":"浪漫亭","category":"food","address":"高知県吾川郡仁淀川町森2618","source":"厚生労働省 食品衛生申請等システム（オープンデータ）","municipality_code":"39387","municipality_pref":"高知県","municipality_name":"仁淀川町","municipality_code_method":"food_exact_coord"},"geometry":{"type":"Point","coordinates":[133.128853,33.535295]}},{"type":"Feature","properties":{"layer_id":"cafe_restaurant","name":"樹林","category":"food","address":"高知県吾川郡仁淀川町北浦490-1","source":"厚生労働省 食品衛生申請等システム（オープンデータ）","municipality_code":"39387","municipality_pref":"高知県","municipality_name":"仁淀川町","municipality_code_method":"food_exact_coord"},"geometry":{"type":"Point","coordinates":[133.172096,33.607904]}},{"type":"Feature","properties":{"layer_id":"cafe_restaurant","name":"さるはし","category":"food","address":"高知県吾川郡仁淀川町名野川232","source":"厚生労働省 食品衛生申請等システム（オープンデータ）","municipality_code":"39387","municipality_pref":"高知県","municipality_name":"仁淀川町","municipality_code_method":"food_exact_coord"},"geometry":{"type":"Point","coordinates":[133.132234,33.559803]}},{"type":"Feature","properties":{"layer_id":"cafe_restaurant","name":"お料理いち川","category":"food","address":"高知県吾川郡仁淀川町土居甲1037","source":"厚生労働省 食品衛生申請等システム（オープンデータ）","municipality_code":"39387","municipality_pref":"高知県","municipality_name":"仁淀川町","municipality_code_method":"food_exact_coord"},"geometry":{"type":"Point","coordinates":[133.175064,33.610163]}},{"type":"Feature","properties":{"layer_id":"cafe_restaurant","name":"きたはら","category":"food","address":"高知県吾川郡仁淀川町大崎238-3","source":"厚生労働省 食品衛生申請等システム（オープンデータ）","municipality_code":"39387","municipality_pref":"高知県","municipality_name":"仁淀川町","municipality_code_method":"food_exact_coord"},"geometry":{"type":"Point","coordinates":[133.173222,33.576189]}},{"type":"Feature","properties":{"layer_id":"cafe_restaurant","name":"越後屋カフェ","category":"food","address":"高知県吾川郡仁淀川町名野川90","source":"厚生労働省 食品衛生申請等システム（オープンデータ）","municipality_code":"39387","municipality_pref":"高知県","municipality_name":"仁淀川町","municipality_code_method":"food_exact_coord"},"geometry":{"type":"Point","coordinates":[133.132995,33.559871]}},{"type":"Feature","properties":{"layer_id":"cafe_restaurant","name":"soup curry　専門店　トランス","category":"food","address":"高知県吾川郡仁淀川町大崎474-12","source":"厚生労働省 食品衛生申請等システム（オープンデータ）","municipality_code":"39387","municipality_pref":"高知県","municipality_name":"仁淀川町","municipality_code_method":"food_exact_coord"},"geometry":{"type":"Point","coordinates":[133.167998,33.574724]}},{"type":"Feature","properties":{"layer_id":"cafe_restaurant","name":"四季彩菜　夢や","category":"food","address":"高知県吾川郡仁淀川町大崎171","source":"厚生労働省 食品衛生申請等システム（オープンデータ）","municipality_code":"39387","municipality_pref":"高知県","municipality_name":"仁淀川町","municipality_code_method":"food_exact_coord"},"geometry":{"type":"Point","coordinates":[133.170222,33.575007]}},{"type":"Feature","properties":{"layer_id":"cafe_restaurant","name":"中津笑美寿茶屋","category":"food","address":"高知県吾川郡仁淀川町名野川456","source":"厚生労働省 食品衛生申請等システム（オープンデータ）","municipality_code":"39387","municipality_pref":"高知県","municipality_name":"仁淀川町","municipality_code_method":"food_exact_coord"},"geometry":{"type":"Point","coordinates":[133.128683,33.567322]}},{"type":"Feature","properties":{"layer_id":"cafe_restaurant","name":"Blue Brew","category":"food","address":"高知県吾川郡仁淀川町下名野川1131-4","source":"厚生労働省 食品衛生申請等システム（オープンデータ）","municipality_code":"39387","municipality_pref":"高知県","municipality_name":"仁淀川町","municipality_code_method":"food_exact_coord"},"geometry":{"type":"Point","coordinates":[133.099805,33.568453]}},{"type":"Feature","properties":{"layer_id":"public_facilities","name":"仁淀総合支所","category":"public","address":"仁淀川町森2552-1","source":"国土交通省 国土数値情報","municipality_code":"39387","municipality_pref":"高知県","municipality_name":"仁淀川町","municipality_code_method":"source_exact_coord"},"geometry":{"type":"Point","coordinates":[133.12962105,33.53636834]}},{"type":"Feature","properties":{"layer_id":"public_facilities","name":"名野川自然環境活用センター","category":"public","address":"仁淀川町名野川424","source":"国土交通省 国土数値情報","municipality_code":"39387","municipality_pref":"高知県","municipality_name":"仁淀川町","municipality_code_method":"source_exact_coord"},"geometry":{"type":"Point","coordinates":[133.132418,33.558277]}},{"type":"Feature","properties":{"layer_id":"public_facilities","name":"上土居地区多目的集会施設","category":"public","address":"仁淀川町土居甲1033-4","source":"国土交通省 国土数値情報","municipality_code":"39387","municipality_pref":"高知県","municipality_name":"仁淀川町","municipality_code_method":"source_exact_coord"},"geometry":{"type":"Point","coordinates":[133.1748279,33.60973828]}},{"type":"Feature","properties":{"layer_id":"public_facilities","name":"狩山地区多目的集会所","category":"public","address":"仁淀川町日浦187-2","source":"国土交通省 国土数値情報","municipality_code":"39387","municipality_pref":"高知県","municipality_name":"仁淀川町","municipality_code_method":"source_exact_coord"},"geometry":{"type":"Point","coordinates":[133.19596032,33.61352333]}},{"type":"Feature","properties":{"layer_id":"public_facilities","name":"樫山集会所","category":"public","address":"仁淀川町大屋758-1","source":"国土交通省 国土数値情報","municipality_code":"39387","municipality_pref":"高知県","municipality_name":"仁淀川町","municipality_code_method":"source_exact_coord"},"geometry":{"type":"Point","coordinates":[133.1861298,33.67238651]}},{"type":"Feature","properties":{"layer_id":"public_facilities","name":"池川コミュニティセンター","category":"public","address":"仁淀川町土居甲916-3","source":"国土交通省 国土数値情報","municipality_code":"39387","municipality_pref":"高知県","municipality_name":"仁淀川町","municipality_code_method":"source_exact_coord"},"geometry":{"type":"Point","coordinates":[133.169749,33.608058]}},{"type":"Feature","properties":{"layer_id":"public_facilities","name":"池川総合支所","category":"public","address":"仁淀川町土居甲916-3","source":"国土交通省 国土数値情報","municipality_code":"39387","municipality_pref":"高知県","municipality_name":"仁淀川町","municipality_code_method":"source_exact_coord"},"geometry":{"type":"Point","coordinates":[133.16975,33.608058]}},{"type":"Feature","properties":{"layer_id":"public_facilities","name":"別枝上地区多目的集会施設","category":"public","address":"仁淀川町別枝1771","source":"国土交通省 国土数値情報","municipality_code":"39387","municipality_pref":"高知県","municipality_name":"仁淀川町","municipality_code_method":"source_exact_coord"},"geometry":{"type":"Point","coordinates":[133.0531401,33.51398566]}},{"type":"Feature","properties":{"layer_id":"public_facilities","name":"池川スポーツセンター","category":"public","address":"仁淀川町土居甲839","source":"国土交通省 国土数値情報","municipality_code":"39387","municipality_pref":"高知県","municipality_name":"仁淀川町","municipality_code_method":"source_exact_coord"},"geometry":{"type":"Point","coordinates":[133.169095,33.608774]}},{"type":"Feature","properties":{"layer_id":"public_facilities","name":"瓜生野集会所","category":"public","address":"仁淀川町用居丁440-8","source":"国土交通省 国土数値情報","municipality_code":"39387","municipality_pref":"高知県","municipality_name":"仁淀川町","municipality_code_method":"source_exact_coord"},"geometry":{"type":"Point","coordinates":[133.1268175,33.6407649]}},{"type":"Feature","properties":{"layer_id":"public_facilities","name":"交流センター","category":"public","address":"仁淀川町大崎460-1","source":"国土交通省 国土数値情報","municipality_code":"39387","municipality_pref":"高知県","municipality_name":"仁淀川町","municipality_code_method":"source_exact_coord"},"geometry":{"type":"Point","coordinates":[133.16775,33.57431]}},{"type":"Feature","properties":{"layer_id":"public_facilities","name":"川渡コミュニティセンター","category":"public","address":"仁淀川町川渡95","source":"国土交通省 国土数値情報","municipality_code":"39387","municipality_pref":"高知県","municipality_name":"仁淀川町","municipality_code_method":"source_exact_coord"},"geometry":{"type":"Point","coordinates":[133.130199,33.52899]}},{"type":"Feature","properties":{"layer_id":"public_facilities","name":"安居地区多目的集会所","category":"public","address":"仁淀川町土居88-4","source":"国土交通省 国土数値情報","municipality_code":"39387","municipality_pref":"高知県","municipality_name":"仁淀川町","municipality_code_method":"source_exact_coord"},"geometry":{"type":"Point","coordinates":[133.19734326,33.64101217]}},{"type":"Feature","properties":{"layer_id":"public_facilities","name":"池川保健福祉センター","category":"public","address":"仁淀川町土居甲921-1","source":"国土交通省 国土数値情報","municipality_code":"39387","municipality_pref":"高知県","municipality_name":"仁淀川町","municipality_code_method":"source_exact_coord"},"geometry":{"type":"Point","coordinates":[133.170238,33.608264]}},{"type":"Feature","properties":{"layer_id":"public_facilities","name":"大野地区コミュニティセンター","category":"public","address":"仁淀川町大野685-1","source":"国土交通省 国土数値情報","municipality_code":"39387","municipality_pref":"高知県","municipality_name":"仁淀川町","municipality_code_method":"source_exact_coord"},"geometry":{"type":"Point","coordinates":[133.144207,33.647429]}},{"type":"Feature","properties":{"layer_id":"public_facilities","name":"高齢者総合福祉施設用居集いの館","category":"public","address":"仁淀川町用居甲361-1","source":"国土交通省 国土数値情報","municipality_code":"39387","municipality_pref":"高知県","municipality_name":"仁淀川町","municipality_code_method":"source_exact_coord"},"geometry":{"type":"Point","coordinates":[133.125339,33.641153]}},{"type":"Feature","properties":{"layer_id":"public_facilities","name":"中央公民館","category":"public","address":"仁淀川町大崎460-1","source":"国土交通省 国土数値情報","municipality_code":"39387","municipality_pref":"高知県","municipality_name":"仁淀川町","municipality_code_method":"source_exact_coord"},"geometry":{"type":"Point","coordinates":[133.16775,33.57429]}},{"type":"Feature","properties":{"layer_id":"public_facilities","name":"沢渡多目的集会施設","category":"public","address":"仁淀川町別枝2504-14","source":"国土交通省 国土数値情報","municipality_code":"39387","municipality_pref":"高知県","municipality_name":"仁淀川町","municipality_code_method":"source_exact_coord"},"geometry":{"type":"Point","coordinates":[133.0764293,33.5381529]}},{"type":"Feature","properties":{"layer_id":"public_facilities","name":"仁淀公民館","category":"public","address":"仁淀川町森4231","source":"国土交通省 国土数値情報","municipality_code":"39387","municipality_pref":"高知県","municipality_name":"仁淀川町","municipality_code_method":"source_exact_coord"},"geometry":{"type":"Point","coordinates":[133.13116,33.536747]}},{"type":"Feature","properties":{"layer_id":"public_facilities","name":"仁淀川町役場","category":"public","address":"仁淀川町大崎200","source":"国土交通省 国土数値情報","municipality_code":"39387","municipality_pref":"高知県","municipality_name":"仁淀川町","municipality_code_method":"source_exact_coord"},"geometry":{"type":"Point","coordinates":[133.1711569,33.57524777]}},{"type":"Feature","properties":{"layer_id":"public_facilities","name":"下名野川生活改善センター","category":"public","address":"仁淀川町下名野川350","source":"国土交通省 国土数値情報","municipality_code":"39387","municipality_pref":"高知県","municipality_name":"仁淀川町","municipality_code_method":"source_exact_coord"},"geometry":{"type":"Point","coordinates":[133.10861,33.566545]}},{"type":"Feature","properties":{"layer_id":"public_facilities","name":"長者出張所","category":"public","address":"仁淀川町長者乙2502-4","source":"国土交通省 国土数値情報","municipality_code":"39387","municipality_pref":"高知県","municipality_name":"仁淀川町","municipality_code_method":"source_exact_coord"},"geometry":{"type":"Point","coordinates":[133.13445,33.501188]}},{"type":"Feature","properties":{"layer_id":"public_facilities","name":"別枝本村多目的集会施設","category":"public","address":"仁淀川町別枝1224","source":"国土交通省 国土数値情報","municipality_code":"39387","municipality_pref":"高知県","municipality_name":"仁淀川町","municipality_code_method":"source_exact_coord"},"geometry":{"type":"Point","coordinates":[133.05702016,33.53212766]}},{"type":"Feature","properties":{"layer_id":"public_facilities","name":"坂本地区多目的集会所","category":"public","address":"仁淀川町坂本536-1","source":"国土交通省 国土数値情報","municipality_code":"39387","municipality_pref":"高知県","municipality_name":"仁淀川町","municipality_code_method":"source_exact_coord"},"geometry":{"type":"Point","coordinates":[133.14305897,33.60517559]}},{"type":"Feature","properties":{"layer_id":"public_facilities","name":"仁淀多目的研修集会施設","category":"public","address":"仁淀川町森2572-1","source":"国土交通省 国土数値情報","municipality_code":"39387","municipality_pref":"高知県","municipality_name":"仁淀川町","municipality_code_method":"source_exact_coord"},"geometry":{"type":"Point","coordinates":[133.1291286,33.53584046]}},{"type":"Feature","properties":{"layer_id":"public_facilities","name":"名野川出張所","category":"public","address":"仁淀川町土居甲916-3","source":"国土交通省 国土数値情報","municipality_code":"39387","municipality_pref":"高知県","municipality_name":"仁淀川町","municipality_code_method":"source_exact_coord"},"geometry":{"type":"Point","coordinates":[133.16977577,33.60803281]}},{"type":"Feature","properties":{"layer_id":"public_facilities","name":"大西地区多目的集会所","category":"public","address":"仁淀川町大西784-1","source":"国土交通省 国土数値情報","municipality_code":"39387","municipality_pref":"高知県","municipality_name":"仁淀川町","municipality_code_method":"source_exact_coord"},"geometry":{"type":"Point","coordinates":[133.16234301,33.6351806]}},{"type":"Feature","properties":{"layer_id":"public_facilities","name":"椿山交流センター","category":"public","address":"仁淀川町大野685-1","source":"国土交通省 国土数値情報","municipality_code":"39387","municipality_pref":"高知県","municipality_name":"仁淀川町","municipality_code_method":"source_exact_coord"},"geometry":{"type":"Point","coordinates":[133.1444972,33.6474978]}},{"type":"Feature","properties":{"layer_id":"public_facilities","name":"コミュニティセンター","category":"public","address":"仁淀川町土居甲916-3","source":"国土交通省 国土数値情報","municipality_code":"39387","municipality_pref":"高知県","municipality_name":"仁淀川町","municipality_code_method":"source_exact_coord"},"geometry":{"type":"Point","coordinates":[133.1697758,33.60803281]}},{"type":"Feature","properties":{"layer_id":"scenic_nature_areas","name":"池川町吾川村","category":"nature","source":"国土交通省 国土数値情報","municipality_code":"39387","municipality_pref":"高知県","municipality_name":"仁淀川町","municipality_code_method":"nearest_centroid"},"geometry":{"type":"Polygon","coordinates":[[[133.084882999612,33.60773701018666],[133.08546001003268,33.60778498991714],[133.08606601999207,33.607950020009206],[133.0866579699506,33.60811698004638],[133.087175990241,33.608187039931735],[133.08791597040695,33.60821002030798],[133.0886840399977,33.608234970199504],[133.0889509803647,33.60823504034662],[133.08909897010264,33.608209999623575],[133.08921795040933,33.60811698004638],[133.0893509502474,33.607891969670455],[133.08942395990908,33.607655039680125],[133.0895270204169,33.60751198991819],[133.08995697999188,33.60687397038921],[133.09023898040587,33.60637704010011],[133.09047603000602,33.60593901990163],[133.0907270397823,33.60562997957169],[133.09105901012646,33.60523201967376],[133.09126602956485,33.60505604033578],[133.09145898000918,33.6049120300979],[133.09169598014662,33.60479403994478],[133.09200603041523,33.60467601022148],[133.09236099012884,33.604594010037324],[133.09270195998872,33.60441297021419],[133.0929070296969,33.604242000100015],[133.0930020196887,33.60395598960902],[133.09391099955423,33.59966799961028],[133.0943450303601,33.59805297010028],[133.0945339698281,33.59743402968851],[133.0948739504337,33.59636102966957],[133.09508201038773,33.59599903006298],[133.09527897990225,33.5957740097945],[133.0966380398749,33.59376597025511],[133.0967699803116,33.593478990294955],[133.0968640404044,33.593087000096766],[133.09682700002728,33.5924530401075],[133.09682703959746,33.592196039947076],[133.0969019899961,33.5919089898398],[133.09712895999476,33.59162202966473],[133.0973550198795,33.59141096957238],[133.09812901959984,33.59095801972862],[133.09839303986814,33.59071598968297],[133.09867596028857,33.590353960398744],[133.09879000961251,33.59003703031649],[133.09884604996648,33.58962903038723],[133.09883698030364,33.588765999583],[133.09869198980473,33.588336969907026],[133.09848699024366,33.58801603964031],[133.09812598978385,33.58755203982656],[133.09578401038502,33.58479801984453],[133.09540604961074,33.5842540298314],[133.0950850204186,33.58362002037943],[133.09491494962649,33.58316696981159],[133.0947640002197,33.582441980444834],[133.09465102018967,33.58161197994071],[133.0946369601888,33.58103599025054],[133.09487995970363,33.579822990070724],[133.09489901993507,33.579294040319496],[133.09488001006565,33.578070959638865],[133.09480202985105,33.57762401996434],[133.0945759699663,33.5771109504418],[133.09388701013864,33.575891989555465],[133.0935730496178,33.57518295955773],[133.09349795982425,33.574865020436135],[133.09347896973992,33.57453297005232],[133.09353796976274,33.574132959700115],[133.09368900010853,33.57355996025575],[133.0937649802309,33.57313703967443],[133.09385898996166,33.57191397967821],[133.09391598989228,33.5715360296958],[133.09410402014566,33.57108299981238],[133.09439000005972,33.57074599956002],[133.09465198965884,33.57053496015208],[133.0949779804107,33.57032798028385],[133.0956150295712,33.570137959830774],[133.09635595042803,33.570035009939545],[133.09779900977773,33.56992698967063],[133.09829902024484,33.569874980078055],[133.0989920396122,33.56975001028653],[133.10044099042062,33.569378010218784],[133.10075302009705,33.569252040381144],[133.1010299897035,33.56907396022687],[133.1014750102248,33.56859600023701],[133.10163102011674,33.56851596956813],[133.10187497021496,33.56849798042924],[133.10212801965363,33.568531980198514],[133.10269395042673,33.56883401031311],[133.10298298983437,33.568896960158376],[133.10332704976477,33.56889700962109],[133.10378205006282,33.56883400042057],[133.10452701966747,33.568604020391014],[133.10516002008012,33.568345979714984],[133.1053709596633,33.56830095965336],[133.1057889798388,33.56829798019942],[133.1062229701752,33.56835800994599],[133.10660002982877,33.56852403019163],[133.10705304981965,33.568674969705874],[133.1075249600701,33.56871996998242],[133.10809095019843,33.56864503037564],[133.10855999970548,33.56847600009912],[133.1089100401275,33.56824599039193],[133.10926498994857,33.56788503040162],[133.10956694991606,33.56731097964978],[133.110289029976,33.565555000294815],[133.11049705035984,33.56522299038049],[133.1108180399818,33.56496601989769],[133.1112519898487,33.564770019852325],[133.11179901957036,33.5646789895755],[133.11240298986735,33.564664040145125],[133.11279894967305,33.56470904042167],[133.11338500007895,33.56481500034378],[133.11376001017757,33.56478799010545],[133.11415802043754,33.56466402036004],[133.1148000203659,33.564302000069034],[133.11515898026397,33.56418104035452],[133.11559297959357,33.56412100970862],[133.11708998027962,33.5640979897622],[133.11758095975475,33.56402304026289],[133.12173401007774,33.563623000233065],[133.12400905023873,33.56343504012679],[133.12413698959165,33.56349596020219],[133.12413695002147,33.56366196965596],[133.12400504016173,33.56397902024737],[133.12403403970043,33.564102009731755],[133.12417497965285,33.56415996024576],[133.12694899965786,33.56415996024576],[133.1270090401963,33.56333503011933],[133.1271090196268,33.56293499008951],[133.1272839602478,33.56268495967494],[133.12755799986306,33.56243499041427],[133.12791501992348,33.56227797957688],[133.1298410502855,33.5615839799485],[133.1303500197988,33.56146297976449],[133.13063299957452,33.56145698038712],[133.13094401031907,33.5615049601176],[133.13152897973987,33.561686029618365],[133.1318120503471,33.56168598015565],[133.13211396984508,33.56164103024114],[133.13256704019798,33.56148997021774],[133.13303897023354,33.561232960164766],[133.13358597027755,33.56081098027431],[133.1325289602046,33.560251979676906],[133.13222694987508,33.560041010416086],[133.1316139602773,33.55948601000315],[133.1312930102255,33.559349959664694],[133.13098296984944,33.559352039796586],[133.13080801034266,33.5594139599181],[133.12913296997183,33.560519019868664],[133.12865799033523,33.56074701959107],[133.1281410096611,33.56095002985178],[133.12751797013945,33.56114602989715],[133.12629095042826,33.56144803033412],[133.12510198013354,33.5615990202104],[133.12447896039694,33.56161401011027],[133.12417901041425,33.56153795984076],[133.1235749897552,33.56143204038814],[133.1231960397267,33.5613879700106],[133.12278199995058,33.561446979925975],[133.1221090399615,33.56154002018757],[133.12148003973329,33.56155301988775],[133.12079996970408,33.56143204038814],[133.11905900003407,33.561164010042816],[133.11868395036527,33.56116399025773],[133.11834697979054,33.561175999804334],[133.11806400001484,33.561295960372064],[133.11784697022276,33.56150404011115],[133.1172999899638,33.562213970330255],[133.11703603984262,33.5624250304226],[133.1167149998586,33.562560999822075],[133.1163370300911,33.56259103987638],[133.11535601003308,33.56245500032979],[133.11492202958925,33.562470029799826],[133.11448800957524,33.56256098992953],[133.11294003981223,33.562892960273686],[133.11163799955528,33.56313496963493],[133.11031003993764,33.56331001997323],[133.10836004983767,33.563415040103806],[133.1082029697525,33.5635200404493],[133.10811104015363,33.56370503009485],[133.1079379503374,33.56542304007303],[133.10782903973964,33.56573401034809],[133.10762103014767,33.56600595993889],[133.10693801034216,33.56667598004423],[133.10678695031876,33.56675204020628],[133.10646597958254,33.56670600031345],[133.10569199964732,33.56646501977663],[133.1052770101871,33.566359020284345],[133.10452601962135,33.566353020007654],[133.10351098000896,33.566373000245555],[133.1026190297057,33.56644399992245],[133.1019589596995,33.566579960328696],[133.10156198006257,33.56670002971439],[133.1009210197505,33.56695702987482],[133.09903600027243,33.56780900980974],[133.09864803993634,33.56790504031714],[133.09808203991545,33.567950990277765],[133.09766702977086,33.567889959585756],[133.0973309603168,33.56773700019419],[133.09665101979,33.56738901022643],[133.09640600039785,33.56729903035775],[133.09616200983015,33.56730899034942],[133.09557503042456,33.56755497021749],[133.09516004006505,33.56763099980259],[133.09466200001253,33.567642989564106],[133.0944450295757,33.567683030079564],[133.09423695972916,33.56778902957185],[133.09348196987827,33.568512960436564],[133.0932620496651,33.56864303028341],[133.09306201975767,33.568725980151655],[133.0925120402597,33.56887097964378],[133.09238796979022,33.568997030420405],[133.09233097975218,33.5692079700036],[133.0923119995604,33.56943401999582],[133.09223696012884,33.569622949571254],[133.0920670197384,33.56981196008568],[133.0916710500402,33.5701340001158],[133.09125594996337,33.57036097011447],[133.08803794995268,33.57222598956955],[133.08772698957017,33.572278000061445],[133.08715997961062,33.57232396980715],[133.08657497961286,33.57224802026172],[133.08612199019893,33.57209699980848],[133.0843760301909,33.57133397001849],[133.08367703033193,33.5709869702043],[133.08229796044378,33.570245999884776],[133.08166302019347,33.56980898962496],[133.08103399028766,33.56943095960289],[133.08044896960553,33.56909897037297],[133.07865202972863,33.568108990369396],[133.07738901015594,33.56735102016524],[133.07553903006342,33.566177029877814],[133.0750619604024,33.565895019571286],[133.0740239700914,33.56538200041078],[133.07336298997126,33.56500497043483],[133.0729289600647,33.56468701962205],[133.07243896984383,33.56426502983904],[133.0718719598843,33.56363001044841],[133.0706460202589,33.562246999731045],[133.07019303983816,33.56179402020965],[133.0695890497561,33.561355990118635],[133.0680839497757,33.56038602003059],[133.06691400014225,33.55954002958049],[133.06629103976093,33.55916202024283],[133.06552303042477,33.558826020036584],[133.0644279601435,33.55903802981302],[133.06403203990797,33.559158000273285],[133.0633709698556,33.55946001959602],[133.06287995980355,33.5597620002479],[133.06222940012796,33.560084739950575],[133.06170870492693,33.5603887813966],[133.06178670618831,33.560544484736454],[133.0618053688839,33.560576899336226],[133.0618590026521,33.5606699998524],[133.06230900271956,33.5614499998494],[133.0623270026503,33.56162299973344],[133.06232697926794,33.56162303120971],[133.0621500025818,33.56181599964046],[133.06184000267524,33.56204300021608],[133.06166872319426,33.562232174407114],[133.06157200290687,33.562339000376355],[133.06122300300044,33.56282999963656],[133.0612070031619,33.56285199975178],[133.06085938731212,33.56323909044346],[133.06061700293358,33.56350900037186],[133.06015678566837,33.56391941318216],[133.0598870034437,33.56415999981593],[133.0592064396867,33.564656689986045],[133.05920600711278,33.56465700564808],[133.05910200321614,33.56473300015962],[133.0586214828564,33.565101523448334],[133.05820100303512,33.56542399964965],[133.05747019955132,33.56604059732749],[133.0569660027401,33.56646600003766],[133.0564370026268,33.56692000028957],[133.05599800306663,33.56713799955083],[133.05584100302113,33.56721599955053],[133.05547600327617,33.56744800035672],[133.05547598948795,33.56744802115203],[133.05491343099195,33.56857998469775],[133.05489206897505,33.568679540060515],[133.05475700339423,33.56930899984226],[133.0547136839506,33.56942673818521],[133.05467900339454,33.569520999726144],[133.05453900323366,33.56971499967928],[133.0544870754794,33.569786877094494],[133.05436200316515,33.56996000018565],[133.05399700342022,33.57042399999939],[133.05373651389024,33.57064317377524],[133.053480002961,33.57085900027443],[133.0532073429058,33.57102995420082],[133.05310204488472,33.571095973432215],[133.05310199991862,33.57109599051934],[133.05257300340264,33.57129299960404],[133.05222068140057,33.571550725517355],[133.05220800275836,33.57156000022562],[133.0520957259982,33.57160972823816],[133.05163000308343,33.57181600033993],[133.05130767976686,33.571894600187434],[133.05122729924926,33.57191420162585],[133.048923,33.573154],[133.04891567540813,33.57316097628488],[133.04860000274917,33.57350900017201],[133.04844800293424,33.57388500042422],[133.04810700339675,33.57432900021497],[133.04794300302842,33.57454600032944],[133.04766900298335,33.574708999752325],[133.047407110511,33.57483268531197],[133.04714600314676,33.57495600035092],[133.04706134816394,33.57501279973271],[133.0467570031944,33.575216999796496],[133.04675699879232,33.57521700818138],[133.046593,33.576328],[133.04659490080653,33.57633781805251],[133.04670002934412,33.57669398517107],[133.0467080027334,33.57672099990601],[133.046718336843,33.576756247034965],[133.04678100340183,33.57696999969752],[133.0469276927201,33.57749231964662],[133.04706100282428,33.577966999808986],[133.04723100256996,33.57848899959944],[133.04724811127258,33.57854317745746],[133.0472610030541,33.5785840003831],[133.04736198882597,33.578910462379724],[133.04737700300754,33.578958999689874],[133.04749900323765,33.57966499987164],[133.04751700316842,33.58060299996027],[133.0475195239681,33.5807637249977],[133.04752549754846,33.58114453961187],[133.04784599360428,33.5827999669648],[133.04784600305186,33.58279999965205],[133.04784601083196,33.582800014724164],[133.04855019303946,33.58375722703356],[133.04870900327913,33.58392100008587],[133.0488611866236,33.584179968312334],[133.05033396321753,33.58618195000068],[133.05033400267334,33.586182000031066],[133.05033401412447,33.58618201047917],[133.05150949008416,33.58705411437345],[133.0516560033831,33.587141000188794],[133.05196933023672,33.587395276933606],[133.05518898390952,33.589783988062216],[133.0551890026316,33.58978399976357],[133.05519785106122,33.58980262742111],[133.05520800260848,33.58982399980953],[133.05519800304666,33.58995100027023],[133.05502532929765,33.590479178653304],[133.05453966694657,33.59254199193839],[133.05457000286458,33.59260200021393],[133.05456672933235,33.59264564880944],[133.05456100334888,33.59272200035182],[133.05446203835365,33.592961386390655],[133.05441300281908,33.59307999977396],[133.0544130043723,33.59308000532115],[133.05661098059736,33.59575497638667],[133.05661100255696,33.5957549999251],[133.0566110047783,33.59575500194155],[133.0591012579173,33.59676686166831],[133.05929900330761,33.59681400019774],[133.05962534479508,33.59694015529572],[133.0597310034443,33.59698099980508],[133.05993100277482,33.597078999827765],[133.0600602830169,33.597142955115075],[133.0602140032349,33.59721899998865],[133.0602140060653,33.59721900044698],[133.06068074247833,33.59725339613413],[133.06081100288674,33.597244000242206],[133.06134975255029,33.5972850417031],[133.06174300269868,33.5973149999191],[133.06257700338725,33.597299000080575],[133.06296900257865,33.5973070004495],[133.063185002647,33.59735499996506],[133.06339759968074,33.59744264159642],[133.06342982778557,33.59745592818033],[133.06343000315337,33.597456000126094],[133.06353700269176,33.59753900035637],[133.06358830271924,33.59761724587099],[133.06363600276057,33.5976900001252],[133.06373400278326,33.59793599977836],[133.06373678888295,33.597943959677785],[133.06374100310606,33.597955999801336],[133.06378925263314,33.59811397830924],[133.06380300326722,33.59815900016951],[133.0638407963769,33.59839534470119],[133.06387400294412,33.59860299996027],[133.06390833546257,33.598835740908505],[133.06392089773283,33.59892090117096],[133.06418599848237,33.59971199547116],[133.06418600294293,33.59971199984071],[133.06437500266549,33.59975800016336],[133.06451288132567,33.59975644163826],[133.0647290028025,33.5997539999789],[133.06508800317005,33.59972699963311],[133.06528500326155,33.59975099984056],[133.0653878722138,33.59980848630439],[133.0654890027765,33.599864999701765],[133.06572600291395,33.60006199979325],[133.0657677042909,33.60010433948585],[133.06883893771854,33.6008661545425],[133.06885445562986,33.60086720958584],[133.06907200343147,33.60088199983621],[133.06939200289986,33.60094600008962],[133.06966700299105,33.60100600015857],[133.06978489781602,33.60106245689865],[133.06995100259795,33.601142000134985],[133.0702110028967,33.60131199988068],[133.07066200301028,33.601605999948724],[133.07089672606432,33.60176435707121],[133.0709540029861,33.601803000040206],[133.07098080098442,33.601823938955405],[133.07120100268537,33.60199599994723],[133.07192400275179,33.602462999899316],[133.0719459794846,33.60248319507518],[133.0719610026594,33.60249699966859],[133.07261400309503,33.60308699989692],[133.07308204446204,33.60350295522899],[133.0732520028389,33.60365399996392],[133.07325222137416,33.60365424098222],[133.07329959226362,33.60370656533751],[133.07333164390135,33.60374196820675],[133.07412712285176,33.6043537510625],[133.074146756329,33.60436176011892],[133.07434100269637,33.60444100028373],[133.07458400311052,33.60456499970676],[133.0747827694705,33.60471445983624],[133.07484200331706,33.60475899965989],[133.07526400299258,33.605116999981355],[133.07543600283051,33.60529199995762],[133.0755811150085,33.60547197986467],[133.07605263057224,33.60583461062688],[133.07631100271186,33.605983000346974],[133.0763893885207,33.60604537462613],[133.07654600275708,33.606169999977304],[133.07671158053626,33.606320717359004],[133.07685800275587,33.606453999584204],[133.0769810030321,33.60660400020623],[133.07705550736702,33.60678978934909],[133.07706000307792,33.606801000297715],[133.07704501317806,33.60690300140418],[133.07704499968824,33.606903090437065],[133.07702001742112,33.60707589966483],[133.07702000303198,33.60707600038889],[133.0768730034476,33.6074660003874],[133.07682245571792,33.607633543582814],[133.07680400008624,33.60824599713811],[133.07680400296363,33.6082460003844],[133.0768040032193,33.60824600051902],[133.07961998987147,33.60869999836706],[133.07962000332174,33.608699999736984],[133.0796211427628,33.60870472117773],[133.0796200500865,33.60869972004783],[133.07964795964688,33.608689959705664],[133.07979397986952,33.60863703999919],[133.08054702988278,33.608541960075186],[133.08091703975083,33.608447970129504],[133.08131697006337,33.608317019846375],[133.08174497990814,33.608197960399345],[133.0821599801602,33.608092040047396],[133.08263301995916,33.607998009632226],[133.0831510501421,33.607843009678945],[133.08356602970974,33.607761969970724],[133.0840400200921,33.607737029971744],[133.084882999612,33.60773701018666]]]}},{"type":"Feature","properties":{"layer_id":"scenic_nature_areas","name":"本川村","category":"nature","source":"国土交通省 国土数値情報","municipality_code":"39387","municipality_pref":"高知県","municipality_name":"仁淀川町","municipality_code_method":"nearest_centroid"},"geometry":{"type":"Polygon","coordinates":[[[133.19485201978455,33.69954201017316],[133.19521799979043,33.69918999034337],[133.19569494984182,33.698799010083974],[133.19602300004112,33.698439030354564],[133.19631694974714,33.69821401008619],[133.19659796000747,33.698008989840616],[133.1967569898228,33.69790003967279],[133.19696504977696,33.69778403971935],[133.19723295961296,33.697704990210696],[133.19744005009795,33.69759898981914],[133.19764797965013,33.69744196009606],[133.19785494962582,33.69719700005925],[133.19792151993153,33.69712276349587],[133.1979498275348,33.69707647049004],[133.19800101031797,33.69693401041394],[133.1980380003331,33.69666104009252],[133.19807499034823,33.69620195957049],[133.19812296018608,33.69599696000938],[133.1981959698477,33.69586899007959],[133.1983200097402,33.695762040003785],[133.1984279904391,33.694769960083136],[133.19840100987835,33.694512030023816],[133.19833403017105,33.69424304999444],[133.19818597028598,33.69389902963417],[133.1975820296667,33.692856969890954],[133.19735303979053,33.69254495999962],[133.19709801993736,33.69226601997849],[133.1966679803228,33.691922030195144],[133.1959519697873,33.69146402975883],[133.19543299981274,33.69112703040577],[133.1943310497178,33.69034298975487],[133.19379302041114,33.6900309600785],[133.1934039700967,33.68984798041771],[133.19297397005232,33.68972995968744],[133.19223105000253,33.68958004000456],[133.19202995979435,33.689483040027994],[133.19187695993344,33.689340039728734],[133.19168101025014,33.68907503020614],[133.19158696994248,33.68880600970732],[133.19113699955244,33.68785995978692],[133.1908949596143,33.68734404031284],[133.19022297988624,33.686193999870795],[133.18999502962652,33.68584998040984],[133.18969904025823,33.68549502968949],[133.18902700027547,33.684569979838386],[133.1889409999069,33.684386029809104],[133.18894101969192,33.684128029602505],[133.18900195955234,33.68392295989429],[133.18915204021425,33.68377699992624],[133.1893979904046,33.68361197972678],[133.19026104998716,33.68318402024397],[133.1906369504145,33.68295794956731],[133.1910530100679,33.68267899965383],[133.19137994960477,33.68239602977059],[133.1916770496357,33.682048969701896],[133.1919309597256,33.68162200037267],[133.19210502980286,33.68138602995896],[133.19237399993972,33.681182019652226],[133.19257600026185,33.681095969820774],[133.1927640197233,33.68108500978309],[133.1929519996147,33.68111697978253],[133.19305905041438,33.68119203989835],[133.19309998035953,33.68137497998896],[133.1931019903442,33.68244396003837],[133.19315199984464,33.68265201009979],[133.19328798003596,33.68278304042258],[133.19354305025126,33.682934020406435],[133.19670299003053,33.68403399019422],[133.19741495991207,33.68424900010899],[133.19785895970278,33.68435700958594],[133.1997929697493,33.68472202012276],[133.2016429597345,33.682316990154675],[133.20232804977923,33.68141401955893],[133.2026909900768,33.68100601962982],[133.20393095013287,33.67961802037297],[133.2042669701242,33.67926399955161],[133.20472400019207,33.678812000291146],[133.20504595029013,33.67854298968484],[133.20543604022077,33.678295980093026],[133.2063089599701,33.67782296997183],[133.2067259702069,33.67762999974235],[133.20711500972948,33.677490010373276],[133.20762600991202,33.67739299960499],[133.20821699040152,33.67736099992794],[133.20880805003117,33.67739301039671],[133.20927901959067,33.677457999904505],[133.2097750298733,33.67761597031853],[133.20989603005728,33.677648020357594],[133.2100840396264,33.677616029673686],[133.21024502007117,33.677540990242164],[133.2112530395757,33.67676698962248],[133.21170995992634,33.676379979869864],[133.21192504988073,33.67615503964112],[133.21210199958728,33.675907000325424],[133.21234397027774,33.67548801967399],[133.21249195012297,33.67514396963611],[133.2125860102159,33.67480995962961],[133.21270701039975,33.67377901011082],[133.2127199903149,33.6733809701733],[133.21264902031578,33.672328030431856],[133.21263495042228,33.67172599008006],[133.2126619696537,33.671468019551185],[133.21275605043104,33.67124195966642],[133.2129039601292,33.67097402015264],[133.21369895991882,33.67000798999436],[133.21430495009304,33.669664969680355],[133.2146620403006,33.66942502965907],[133.21505596044392,33.66910897012053],[133.2163330400175,33.66792200981058],[133.21668998003815,33.66765203962768],[133.21706598029039,33.66747197017304],[133.21740402015905,33.66738099025804],[133.21789195003316,33.667290989705066],[133.21821095035477,33.667170969782035],[133.2184509704157,33.666984970197916],[133.2186760302542,33.66671398018366],[133.21882703002314,33.66627897990861],[133.2189019597373,33.665887969971436],[133.21886402993061,33.66545195975772],[133.218694960084,33.665031999744656],[133.2183759597625,33.66467101996915],[133.21801900984917,33.66445602983964],[133.21578399041846,33.663420019835655],[133.21537095968176,33.66316399993633],[133.2149020099995,33.662863969913985],[133.21420704000252,33.66256300999265],[133.21353099983537,33.66233798972411],[133.212406959693,33.662056969571154],[133.21165596013418,33.66193699011757],[133.21039795967783,33.6617569998034],[133.20990897040224,33.661560999758024],[133.20917502019074,33.661050969943915],[133.20874498956925,33.66081000019898],[133.208332029879,33.66062997031463],[133.20727695964354,33.66021302033238],[133.20682599010695,33.65995804004905],[133.2065070095706,33.65967197020302],[133.20605004964966,33.659176039960016],[133.20502599972986,33.65784295960265],[133.20434101040905,33.656993010336805],[133.20401997042495,33.65653700999269],[133.2032310302675,33.65547002014296],[133.2027239897999,33.65486901041419],[133.2021600096565,33.654237959731745],[133.20113000982167,33.65335700004306],[133.20047201994737,33.65287597966045],[133.19915801960667,33.65210999020155],[133.19891298042944,33.65188504008029],[133.19868795026832,33.65156902011188],[133.19828701001722,33.65100696991328],[133.1980619798561,33.65085697019077],[133.1977050497278,33.650826959814026],[133.19731098029706,33.65087198976818],[133.19560201030413,33.65117303962171],[133.1951520498069,33.6513019997052],[133.19481302967722,33.65147298960443],[133.19184398988784,33.65372701980385],[133.19118701984473,33.65413204027897],[133.19062299023847,33.654553030015904],[133.1902289999481,33.65495900017544],[133.18981603036514,33.655529010273256],[133.1896649703417,33.65591995995584],[133.18962801989676,33.656160009694304],[133.18972205031207,33.65637096006935],[133.18994697974904,33.65652096968455],[133.19103594992885,33.65683703012246],[133.19139298977439,33.657017020436854],[133.19165595963443,33.65728696993534],[133.19176900981154,33.65755798962721],[133.19175001972735,33.65787296997922],[133.19162704013536,33.6580299700247],[133.19027000004007,33.65916995964352],[133.18862699981582,33.66044596003064],[133.18760301015038,33.66112295977439],[133.18666404958594,33.66170903985784],[133.18626996036994,33.66200896016301],[133.18497799971453,33.66315596988983],[133.18437797024683,33.66359199988858],[133.1842510399331,33.66377697964151],[133.18421298961744,33.66401700959494],[133.18426999044732,33.664979039568664],[133.18421303997934,33.66640596957751],[133.18400699001018,33.66754799975797],[133.18378103984264,33.66855402006968],[133.18335301021295,33.66971696038701],[133.1832020500143,33.67000798999436],[133.18247903016288,33.67104296038201],[133.18196001971887,33.67155699038045],[133.1814010398058,33.67197096990208],[133.1809779699371,33.672194960446745],[133.1804280497944,33.67236297988529],[133.17972804988926,33.67250803963208],[133.17903700003728,33.672473959823094],[133.17862201957018,33.673551040066],[133.17847696971614,33.674016020140925],[133.1780210296265,33.67588902017968],[133.17766899001163,33.67710004005255],[133.17736198035072,33.677965980163606],[133.17725799983657,33.67843101959352],[133.1771750301832,33.67912703010603],[133.17707196967535,33.67929297031196],[133.17329605005227,33.68265396972265],[133.17109498992158,33.68248396997683],[133.17045205020156,33.68238499958562],[133.16981001969623,33.68233499997797],[133.16893899032175,33.68235104028594],[133.1675640204428,33.682524979961556],[133.16689999971481,33.68265697975346],[133.16565696038003,33.68297199967577],[133.16517995007428,33.68310495005113],[133.16466201971616,33.68308796995149],[133.164203039918,33.68515798986698],[133.1642029499858,33.68570499980348],[133.16430596013163,33.6863850095782],[133.16447201005496,33.68698201012927],[133.1649079699065,33.687761019972754],[133.16536398014318,33.688357999839525],[133.1659649601943,33.68908796965178],[133.16637902964806,33.68943597041135],[133.16698605044553,33.68992300006403],[133.16648901043914,33.690453979585186],[133.16613004964165,33.69079699989919],[133.16557699985822,33.69121703005953],[133.16495498016775,33.691597980180404],[133.1631520499069,33.69250999975441],[133.16261298008465,33.69287503996884],[133.16191305032658,33.69349395969601],[133.1614150300593,33.69394202981857],[133.16068995975343,33.69448896960802],[133.16028895025454,33.69482403991515],[133.15875497034529,33.696382959823495],[133.15840202960953,33.69671395979901],[133.1573869702122,33.69759300033434],[133.15647497042323,33.69855499973107],[133.15601897007912,33.69900304017585],[133.15543198977412,33.699591960318344],[133.15472695996095,33.70017197987056],[133.15389797029468,33.70073599958437],[133.15268205001632,33.70158900024984],[133.15193802020303,33.702210000109176],[133.15082602018424,33.703115030152276],[133.15066997971553,33.703217030359326],[133.14910598043627,33.70423404038627],[133.14844301011635,33.704639989861334],[133.1476340303658,33.70502202006776],[133.14695198002948,33.705290970419696],[133.1461850498797,33.70552301978927],[133.14517712840131,33.705842387034295],[133.14520756145953,33.70593540840997],[133.14523000224244,33.70600399970243],[133.14516874402204,33.706348576743096],[133.14515000215056,33.70645399977002],[133.1451175977786,33.70656945653275],[133.14503100205866,33.70687800043697],[133.14489400203627,33.70713199955986],[133.14477797150585,33.707266846605364],[133.14467200169122,33.70738999976629],[133.14456400210668,33.70747400004274],[133.14453080363342,33.70749938700476],[133.1444960016687,33.70752599974276],[133.1442104804089,33.70776300707473],[133.14413700220052,33.7078239999953],[133.14367100229447,33.70836999999324],[133.14351908431797,33.708460608488],[133.14339100197287,33.7085369996006],[133.14316307329693,33.708814090615476],[133.14313600190462,33.70884700040642],[133.1430973985058,33.70889639746832],[133.14292500206682,33.70911700026693],[133.1428409847034,33.70923751391774],[133.14270400176804,33.709433999597024],[133.14241700202263,33.70969099975758],[133.14227003751182,33.70978103178686],[133.14219500167758,33.70982699973399],[133.14187400216315,33.70992899994104],[133.14171350195625,33.7099908400229],[133.14153400177247,33.71005999968685],[133.14150944811814,33.71007238712143],[133.14133900612208,33.710226994446685],[133.14133900177308,33.71022700019358],[133.14133898600895,33.71022705022806],[133.1412947841371,33.71038573552874],[133.14138100191133,33.71100199995999],[133.1413909466146,33.71115845591555],[133.14141100239556,33.71147400014274],[133.1413730024418,33.711736999680454],[133.14132942848994,33.71184593276132],[133.14130100181944,33.711916999887364],[133.14125090328616,33.712017196953695],[133.1411320021199,33.712255000185735],[133.14103990344847,33.71245454805654],[133.1409760021205,33.71259299958501],[133.14058200193745,33.71346200008895],[133.1405243616897,33.71361336857984],[133.14035200212288,33.71406600006344],[133.14024901266146,33.71433865742074],[133.1401960021235,33.71447900022338],[133.14006418849112,33.71487151112893],[133.1400160019167,33.71501499976],[133.14000640525103,33.71504738884363],[133.13997600187054,33.71514999969037],[133.13991300166344,33.71535900033524],[133.13988627111428,33.71545169076052],[133.1398360017098,33.71562600005751],[133.13981700173292,33.715691000357026],[133.13981700454613,33.71569100289759],[133.139905769084,33.7157475793962],[133.13994300214745,33.71576600021848],[133.1402134507697,33.715892308201205],[133.14030700184628,33.71593599996413],[133.14058200193745,33.716063000424754],[133.14068001724866,33.71611477439495],[133.14083000168296,33.71619400017073],[133.14116133530695,33.71644503872511],[133.1411890020504,33.71646600012343],[133.14118912975425,33.716466146713],[133.141384462974,33.71669006526717],[133.14582599205457,33.71952099493576],[133.14582600184804,33.719520999811834],[133.1458260003209,33.719521070542186],[133.145836999947,33.72193898834851],[133.1458370023554,33.72193899980266],[133.14583701743524,33.721939016259824],[133.14654897441386,33.72260297613877],[133.14654900191454,33.72260299984623],[133.14654900540128,33.722603002189175],[133.15125106375513,33.7245087744848],[133.1513920022188,33.72454100018456],[133.15171300173324,33.7246960001379],[133.151972001986,33.724881999722186],[133.15197512411277,33.72488451297148],[133.15470829618317,33.72685014056346],[133.15482100206714,33.726917000037076],[133.15488762834093,33.726955793192985],[133.1552830017887,33.72718599985171],[133.15617700164694,33.72786200044851],[133.15624544095397,33.72791905883514],[133.15656458454734,33.72818513577533],[133.16098635911177,33.73136516318135],[133.16101300162848,33.73136600015846],[133.16104800234314,33.731368000250654],[133.16108776856527,33.73137051655374],[133.16112700238887,33.731372999581936],[133.16117700199675,33.731415999766284],[133.16119580682073,33.73147868161357],[133.1612100014012,33.731525999280045],[133.167216,33.72844],[133.167984,33.724914],[133.166124,33.719761],[133.168512,33.717977],[133.171766,33.713619],[133.172852,33.709492],[133.174438,33.707493],[133.181059,33.704621],[133.184091,33.702023],[133.193716,33.700386],[133.19484617116507,33.69954709854711],[133.19485201978455,33.69954201017316]]]}},{"type":"Feature","properties":{"layer_id":"scenic_nature_areas","name":"池川町本川村","category":"nature","source":"国土交通省 国土数値情報","municipality_code":"39387","municipality_pref":"高知県","municipality_name":"仁淀川町","municipality_code_method":"nearest_centroid"},"geometry":{"type":"MultiPolygon","coordinates":[[[[133.18678799960483,33.70144202025789],[133.18653302022105,33.70141302971241],[133.1863129696062,33.701452000034635],[133.18603104023865,33.70153000992688],[133.18573797996214,33.701588009903595],[133.18524895021721,33.70174503962674],[133.18468899993573,33.70191995956335],[133.1846806279186,33.701922717308804],[133.18717266193403,33.70149887734171],[133.18678799960483,33.70144202025789]]],[[[133.18355297992443,33.70230102030071],[133.18335797992518,33.70238003023907],[133.1831999501559,33.70247599959257],[133.1830050301963,33.702633020322494],[133.18283297010382,33.7027599803137],[133.18271099955132,33.702915990205646],[133.18263795031947,33.70311095962795],[133.18253998986697,33.7033260297973],[133.1824992241212,33.703386929331515],[133.18391179825144,33.70217655083863],[133.18355297992443,33.70230102030071]]],[[[133.18197799003056,33.70377602986475],[133.18185603026993,33.70386504026426],[133.1815209698552,33.70410304044782],[133.18128796990223,33.704279959577335],[133.18099596003387,33.70452302024605],[133.18070161050105,33.704776025319596],[133.181059,33.704621],[133.18213524947666,33.70369880470306],[133.18197799003056,33.70377602986475]]],[[[133.17967701971702,33.7052159703656],[133.1795069498242,33.70529399015039],[133.17950607579567,33.70529461400315],[133.179730357229,33.705197327146706],[133.17967701971702,33.7052159703656]]],[[[133.174949960011,33.70696098968279],[133.17467604989812,33.706801029968425],[133.17424101994544,33.706601980322],[133.17355700998635,33.706386000038734],[133.17241697989803,33.706137020032315],[133.17127902994162,33.70596300031708],[133.17009595020627,33.70580596969461],[133.16892899981184,33.70571302026454],[133.16719296022526,33.70564299005681],[133.16663297037363,33.7055930102341],[133.16594901976978,33.70547698959626],[133.1652029601868,33.705277980419325],[133.16159098967077,33.70387100007146],[133.1612050501113,33.703796000210104],[133.16085504026623,33.70377600018712],[133.15919304006508,33.70378297982552],[133.1583229702672,33.703734029726554],[133.15772203967873,33.70366698976463],[133.1571619697874,33.70355097002611],[133.15647801019034,33.70333597000388],[133.15368004033994,33.702323970100004],[133.15316099032577,33.702207999824196],[133.15270499987417,33.702175029778665],[133.15193802026175,33.70220999991643],[133.150826020243,33.70311502995953],[133.15066997977408,33.70321703016667],[133.14910597959562,33.70423404019366],[133.14844301017513,33.70463998966865],[133.1476340304245,33.70502201987518],[133.14695198008815,33.705290970226955],[133.14618504993845,33.70552301959654],[133.14517712846003,33.705842387740866],[133.14520756151808,33.70593540821738],[133.1452300023011,33.70600400040915],[133.14516874408062,33.70634857655043],[133.14515000220916,33.706453999577285],[133.1451175978372,33.706569456340205],[133.14503100211738,33.70687800024438],[133.14489400209484,33.70713200026646],[133.14477797156448,33.70726684641269],[133.14467200174983,33.707389999573685],[133.1445640021653,33.70747399985007],[133.14453080369196,33.70749938681212],[133.14449600172745,33.70752600044943],[133.14421048046765,33.707763006882125],[133.14413700225919,33.70782399980261],[133.14367100235322,33.70836999980052],[133.14351908437658,33.7084606082953],[133.14339100203145,33.70853700030718],[133.14316307335548,33.7088140904228],[133.14313600196326,33.70884700021375],[133.14309739856444,33.70889639727578],[133.14292500212548,33.70911700007436],[133.14284098476196,33.70923751372514],[133.14270400182656,33.70943400030374],[133.14241700208132,33.70969099956484],[133.1422700375705,33.70978103249352],[133.14219500173627,33.70982700044058],[133.14187400222175,33.709928999748406],[133.14171350201485,33.709990839830255],[133.14153400183105,33.71006000039357],[133.1415094462893,33.71007238878037],[133.14133900584443,33.71022699469852],[133.1413390018318,33.71022700000091],[133.14133898602333,33.71022705017637],[133.14129478411198,33.71038573561901],[133.14138100197,33.71100199976734],[133.1413909466732,33.711158455723016],[133.14141100155481,33.71147399995],[133.14137300160107,33.711737000387124],[133.14132942854863,33.71184593346792],[133.14130100187808,33.711916999694644],[133.14125090334485,33.71201719766041],[133.1411320021785,33.71225499999312],[133.14103990260776,33.712454547863956],[133.1409760021791,33.71259300029159],[133.14058200199614,33.71346199989624],[133.14052436174822,33.71361336928643],[133.1403520021815,33.71406599987086],[133.1402490127201,33.71433865722811],[133.14019600218208,33.71447900003069],[133.1400641885498,33.71487151093634],[133.14001600197525,33.71501499956744],[133.1400064053097,33.71504738865093],[133.13997600192928,33.71515000039707],[133.139913001722,33.715359000142605],[133.13988627117283,33.71545169056793],[133.1398360017684,33.71562599986486],[133.13981700179153,33.71569100016439],[133.13981700546898,33.71569100348581],[133.13990577091306,33.715747580562],[133.1399430022061,33.715766000025745],[133.14021345082844,33.71589230890779],[133.14030700190494,33.71593599977144],[133.14058200199614,33.71606300023214],[133.1406800173073,33.71611477420233],[133.14083000174153,33.71619399997798],[133.14116133536567,33.71644503853256],[133.1411890021091,33.71646599993082],[133.14118912981283,33.71646614652031],[133.14138446348477,33.716690065592715],[133.14582599046446,33.71952099392226],[133.1458260019068,33.7195209996193],[133.14582600033043,33.719521072631665],[133.1458369999448,33.72193898786644],[133.14583700241405,33.72193899961001],[133.14583701904903,33.72193901776481],[133.1465489709646,33.722602972922054],[133.1465490019732,33.722602999653574],[133.1465490062716,33.72260300254192],[133.15125106258915,33.724508774012214],[133.15139200227742,33.72454099999202],[133.15171300179193,33.724695999945304],[133.1519720020446,33.72488200042884],[133.15197511651428,33.72488450750684],[133.15470829437763,33.72685013926494],[133.15482100212589,33.72691699984453],[133.15488762839968,33.72695579300031],[133.1552830018474,33.72718599965902],[133.1561770017056,33.72786200025597],[133.15624544101263,33.727919058642506],[133.15656458665597,33.7281851372918],[133.16098635882895,33.73136516297796],[133.16101300168702,33.73136599996579],[133.1610480024017,33.73136800005802],[133.16108776862396,33.73137051726043],[133.16112700244753,33.7313730002886],[133.16117700205533,33.731415999573585],[133.16119580687933,33.731478681420874],[133.16121000150207,33.73152599922821],[133.167216,33.72844],[133.167984,33.724914],[133.166124,33.719761],[133.168512,33.717977],[133.171766,33.713619],[133.172852,33.709492],[133.174438,33.707493],[133.17520701068187,33.707159425210946],[133.174949960011,33.70696098968279]]]]}},{"type":"Feature","properties":{"layer_id":"cultural_facilities","name":"仁淀川町池川スポーツセンター","category":"public","address":"土居甲839","source":"国土交通省 国土数値情報","municipality_code":"39387","municipality_pref":"高知県","municipality_name":"仁淀川町","municipality_code_method":"nearest_centroid"},"geometry":{"type":"Point","coordinates":[133.169023,33.608819]}},{"type":"Feature","properties":{"layer_id":"cultural_facilities","name":"仁淀川町町民運動場","category":"public","address":"大崎642","source":"国土交通省 国土数値情報","municipality_code":"39387","municipality_pref":"高知県","municipality_name":"仁淀川町","municipality_code_method":"nearest_centroid"},"geometry":{"type":"Point","coordinates":[133.167486,33.575031]}},{"type":"Feature","properties":{"layer_id":"cultural_facilities","name":"仁淀川町池川スポーツセンター","category":"public","address":"土居甲839","source":"国土交通省 国土数値情報","municipality_code":"39387","municipality_pref":"高知県","municipality_name":"仁淀川町","municipality_code_method":"nearest_centroid"},"geometry":{"type":"Point","coordinates":[133.16953,33.60889]}},{"type":"Feature","properties":{"layer_id":"cultural_facilities","name":"仁淀川町仁淀農業者トレーニングセンター","category":"public","address":"森4231","source":"国土交通省 国土数値情報","municipality_code":"39387","municipality_pref":"高知県","municipality_name":"仁淀川町","municipality_code_method":"nearest_centroid"},"geometry":{"type":"Point","coordinates":[133.131142,33.536765]}},{"type":"Feature","properties":{"layer_id":"tourism_resources","name":"五色の滝","category":"nature","address":"河川景観 / 滝","source":"国土交通省 国土数値情報","municipality_code":"39387","municipality_pref":"高知県","municipality_name":"仁淀川町","municipality_code_method":"nearest_centroid","resource_code":"610"},"geometry":{"type":"Point","coordinates":[133.155517578125,33.67325210571289]}},{"type":"Feature","properties":{"layer_id":"tourism_resources","name":"みかえりの滝","category":"nature","address":"河川景観 / 滝","source":"国土交通省 国土数値情報","municipality_code":"39387","municipality_pref":"高知県","municipality_name":"仁淀川町","municipality_code_method":"nearest_centroid","resource_code":"610"},"geometry":{"type":"Point","coordinates":[133.19627380371094,33.66096878051758]}},{"type":"Feature","properties":{"layer_id":"tourism_resources","name":"鳴洞門","category":"nature","address":"山地（非火山性）景観 / 山地 断崖・岩壁","source":"国土交通省 国土数値情報","municipality_code":"39387","municipality_pref":"高知県","municipality_name":"仁淀川町","municipality_code_method":"nearest_centroid","resource_code":"212"},"geometry":{"type":"Point","coordinates":[133.19174194335938,33.63298034667969]}},{"type":"Feature","properties":{"layer_id":"tourism_resources","name":"龍宮淵","category":"nature","address":"河川景観 / 滝","source":"国土交通省 国土数値情報","municipality_code":"39387","municipality_pref":"高知県","municipality_name":"仁淀川町","municipality_code_method":"nearest_centroid","resource_code":"610"},"geometry":{"type":"Point","coordinates":[133.12445068359375,33.56606674194336]}},{"type":"Feature","properties":{"layer_id":"tourism_resources","name":"中津渓谷","category":"nature","address":"河川景観 / 峡谷・渓谷","source":"国土交通省 国土数値情報","municipality_code":"39387","municipality_pref":"高知県","municipality_name":"仁淀川町","municipality_code_method":"nearest_centroid","resource_code":"601"},"geometry":{"type":"Point","coordinates":[133.12416076660156,33.56254959106445]}},{"type":"Feature","properties":{"layer_id":"tourism_resources","name":"飛龍の滝","category":"nature","address":"河川景観 / 滝","source":"国土交通省 国土数値情報","municipality_code":"39387","municipality_pref":"高知県","municipality_name":"仁淀川町","municipality_code_method":"nearest_centroid","resource_code":"610"},"geometry":{"type":"Point","coordinates":[133.19203186035156,33.67500686645508]}},{"type":"Feature","properties":{"layer_id":"tourism_resources","name":"雨龍の滝","category":"nature","address":"河川景観 / 滝","source":"国土交通省 国土数値情報","municipality_code":"39387","municipality_pref":"高知県","municipality_name":"仁淀川町","municipality_code_method":"nearest_centroid","resource_code":"610"},"geometry":{"type":"Point","coordinates":[133.12582397460938,33.56406784057617]}},{"type":"Feature","properties":{"layer_id":"tourism_resources","name":"大滝","category":"nature","address":"河川景観 / 滝","source":"国土交通省 国土数値情報","municipality_code":"39387","municipality_pref":"高知県","municipality_name":"仁淀川町","municipality_code_method":"nearest_centroid","resource_code":"610"},"geometry":{"type":"Point","coordinates":[133.16128540039062,33.704708099365234]}},{"type":"Feature","properties":{"layer_id":"tourism_resources","name":"岩屋川渓谷","category":"nature","address":"河川景観 / 峡谷・渓谷","source":"国土交通省 国土数値情報","municipality_code":"39387","municipality_pref":"高知県","municipality_name":"仁淀川町","municipality_code_method":"nearest_centroid","resource_code":"601"},"geometry":{"type":"Point","coordinates":[133.0585479736328,33.531803131103516]}},{"type":"Feature","properties":{"layer_id":"tourism_resources","name":"安居渓谷","category":"nature","address":"河川景観 / 峡谷・渓谷","source":"国土交通省 国土数値情報","municipality_code":"39387","municipality_pref":"高知県","municipality_name":"仁淀川町","municipality_code_method":"nearest_centroid","resource_code":"601"},"geometry":{"type":"Point","coordinates":[133.19027709960938,33.67155456542969]}}],"display_comment_original":"仁淀川町には、地域の由緒を示す案内板や石碑を探す余地がある。 この地域には寺社や信仰の場、城跡や陣屋跡、史跡や遺跡に関わる場所が見え、中森城跡、赤滝城跡、立烏帽子城跡のような地点が探索の入口になる。 現地では史跡説明板が手がかりになりそうだ。さらに水辺の由緒を示す歴史案内板も見つかるかもしれない。","story_enrichment":{"samurai_priority_people":[],"notable_people":["児島稔","金子直吉","鏡川正光"],"honorary_citizens":[],"tourism_landmarks":["善法寺","岩屋寺","正泉寺","上川渡太子堂","秋葉神社","河嶋山神社","池川神社","八所河内神社"],"specialties":[],"food_culture":[],"historical_domains":[],"heian_place_names":[],"japan_search_support":[],"enrichment_sources":["https://ja.wikipedia.org/wiki/%E4%BB%81%E6%B7%80%E5%B7%9D%E7%94%BA","https://www.wikidata.org/wiki/Q45829720","https://www.wikidata.org/wiki/Q11646838","https://www.wikidata.org/wiki/Q17990002","https://jpsearch.go.jp/csearch/jps-cross?csid=jps-cross&keyword=%E5%85%90%E5%B3%B6%E7%A8%94&keyword=%E4%BB%81%E6%B7%80%E5%B7%9D%E7%94%BA"],"enrichment_errors":[],"wikipedia_title":"仁淀川町","wikipedia_revision_id":"110735540","wikidata_qid":"Q1206371","wikipedia_url":"https://ja.wikipedia.org/wiki/%E4%BB%81%E6%B7%80%E5%B7%9D%E7%94%BA","japan_search_query_url":"https://jpsearch.go.jp/csearch/jps-cross?csid=jps-cross&keyword=%E5%85%90%E5%B3%B6%E7%A8%94&keyword=%E4%BB%81%E6%B7%80%E5%B7%9D%E7%94%BA","status":"wikipedia_ok"}}