{"type":"FeatureCollection","municipality_code":"39427","pref":"高知県","city":"三原村","display_comment":"三原村には、地域の歴史や暮らしを伝える案内板や石碑があり、それらを手がかりに街歩きを楽しめます。 まずは社寺・石碑・案内板に目を向けると、地域の由緒をたどる手がかりが見つけやすいでしょう。 現地では石碑、地蔵、地域資料館、公民館の由緒板を既存ピンと照らし合わせながら歩くと、見落としがちな地域の物語に出会いやすくなります。 「法泉寺」や「真念石」などの名所も、地域の物語を深掘りする絶好の入口です。 さらに、「どぶろく」や「土佐硯」といった名物や食文化に触れると、その土地らしい暮らしまで感じられるでしょう。","layer_counts":{"cafe_restaurant":11,"public_facilities":3,"scenic_nature_areas":1},"total_features":15,"features":[{"type":"Feature","properties":{"layer_id":"cafe_restaurant","name":"やまびこカフェ","address":"高知県幡多郡三原村宮ノ川1113-2","source":"厚生労働省 食品衛生申請等システム（オープンデータ）"},"geometry":{"type":"Point","coordinates":[132.845212,32.912975]}},{"type":"Feature","properties":{"layer_id":"cafe_restaurant","name":"くろうさぎ","address":"高知県幡多郡三原村下長谷1110-1","source":"厚生労働省 食品衛生申請等システム（オープンデータ）"},"geometry":{"type":"Point","coordinates":[132.874508,32.894722]}},{"type":"Feature","properties":{"layer_id":"cafe_restaurant","name":"village　café　NAGINOKI","address":"高知県幡多郡三原村成山153-2","source":"厚生労働省 食品衛生申請等システム（オープンデータ）"},"geometry":{"type":"Point","coordinates":[132.913075,32.925005]}},{"type":"Feature","properties":{"layer_id":"cafe_restaurant","name":"YES.NO","address":"高知県幡多郡三原村下長谷563","source":"厚生労働省 食品衛生申請等システム（オープンデータ）"},"geometry":{"type":"Point","coordinates":[132.865031,32.902365]}},{"type":"Feature","properties":{"layer_id":"cafe_restaurant","name":"今ちゃん","address":"高知県幡多郡三原村上長谷884-1","source":"厚生労働省 食品衛生申請等システム（オープンデータ）"},"geometry":{"type":"Point","coordinates":[132.846386,32.910135]}},{"type":"Feature","properties":{"layer_id":"cafe_restaurant","name":"NOKO","address":"高知県幡多郡三原村下切576-1","source":"厚生労働省 食品衛生申請等システム（オープンデータ）"},"geometry":{"type":"Point","coordinates":[132.793732,32.888223]}},{"type":"Feature","properties":{"layer_id":"cafe_restaurant","name":"農家食堂つの","address":"高知県幡多郡三原村狼内157","source":"厚生労働省 食品衛生申請等システム（オープンデータ）"},"geometry":{"type":"Point","coordinates":[132.890221,32.92833]}},{"type":"Feature","properties":{"layer_id":"cafe_restaurant","name":"農家食堂　森本まる","address":"高知県幡多郡三原村宮ノ川514-2","source":"厚生労働省 食品衛生申請等システム（オープンデータ）"},"geometry":{"type":"Point","coordinates":[132.850109,32.917983]}},{"type":"Feature","properties":{"layer_id":"cafe_restaurant","name":"青空屋","address":"高知県幡多郡三原村上長谷1201","source":"厚生労働省 食品衛生申請等システム（オープンデータ）"},"geometry":{"type":"Point","coordinates":[132.846386,32.910135]}},{"type":"Feature","properties":{"layer_id":"cafe_restaurant","name":"居酒屋　村に幸あれ","address":"高知県幡多郡三原村来栖野433-4","source":"厚生労働省 食品衛生申請等システム（オープンデータ）"},"geometry":{"type":"Point","coordinates":[132.847358,32.907997]}},{"type":"Feature","properties":{"layer_id":"cafe_restaurant","name":"GO","address":"高知県幡多郡三原村来栖野364-2","source":"厚生労働省 食品衛生申請等システム（オープンデータ）"},"geometry":{"type":"Point","coordinates":[132.847903,32.907192]}},{"type":"Feature","properties":{"layer_id":"public_facilities","name":"中央公民館","address":"三原村宮ノ川1120","source":"国土交通省 国土数値情報"},"geometry":{"type":"Point","coordinates":[132.845386,32.912299]}},{"type":"Feature","properties":{"layer_id":"public_facilities","name":"農業構造改造センター","address":"三原村宮ノ川1120","source":"国土交通省 国土数値情報"},"geometry":{"type":"Point","coordinates":[132.842122,32.917764]}},{"type":"Feature","properties":{"layer_id":"public_facilities","name":"三原村役場","address":"三原村来栖野346","source":"国土交通省 国土数値情報"},"geometry":{"type":"Point","coordinates":[132.847726,32.905972]}},{"type":"Feature","properties":{"layer_id":"scenic_nature_areas","name":"土佐清水市三原村","source":"国土交通省 国土数値情報"},"geometry":{"type":"MultiPolygon","coordinates":[[[[132.840979,32.860267],[132.84125,32.86056],[132.841664,32.860878],[132.842269,32.861235],[132.84273,32.861388],[132.843192,32.861439],[132.845023,32.861579],[132.845246,32.861655],[132.84539,32.861795],[132.845676,32.862267],[132.84582,32.862343],[132.846106,32.862407],[132.846648,32.86233],[132.847094,32.862292],[132.84751,32.862378],[132.847473,32.862193],[132.846137,32.861821],[132.844945,32.859113],[132.841026,32.859485],[132.840744,32.860003],[132.840979,32.860267]]],[[[132.848399,32.864178],[132.848574,32.864305],[132.849132,32.864587],[132.849136,32.864407],[132.848203,32.863953],[132.848399,32.864178]]]]}}]}