{"type":"FeatureCollection","municipality_code":"40349","pref":"福岡県","city":"粕屋町","display_comment":"粕屋町には、地域の歴史や暮らしを伝える案内板や石碑があり、それらを手がかりに街歩きを楽しめます。 まずは社寺・石碑・案内板に目を向けると、地域の由緒をたどる手がかりが見つけやすいでしょう。 現地では石碑、地蔵、地域資料館、公民館の由緒板を既存ピンと照らし合わせながら歩くと、見落としがちな地域の物語に出会いやすくなります。 ゆかりの人物では長勇や香川伸行に注目すると、地域に残る文化や時代背景をさらに深く知るきっかけになります。 「阿恵官衙遺跡（国指定史跡）」や「江辻遺跡」などの名所も、地域の物語を深掘りする絶好の入口です。","layer_counts":{"cafe_restaurant":18,"public_facilities":37,"cultural_facilities":32,"parks_playgrounds":11},"total_features":98,"features":[{"type":"Feature","properties":{"layer_id":"cafe_restaurant","name":"スターバックスコーヒーイオンモール福岡2階店","address":"福岡県糟屋郡粕屋町大字酒殿字老ノ木192-1 イオンモール福岡2階","source":"厚生労働省 食品衛生申請等システム（オープンデータ）"},"geometry":{"type":"Point","coordinates":[130.480909,33.597072]}},{"type":"Feature","properties":{"layer_id":"cafe_restaurant","name":"（株）ウエスト","address":"福岡県糟屋郡粕屋町戸原東1-7-26","source":"厚生労働省 食品衛生申請等システム（オープンデータ）"},"geometry":{"type":"Point","coordinates":[130.474918,33.620006]}},{"type":"Feature","properties":{"layer_id":"cafe_restaurant","name":"とめ手羽　仲原店","address":"福岡県糟屋郡粕屋町仲原2525 BANビル104号","source":"厚生労働省 食品衛生申請等システム（オープンデータ）"},"geometry":{"type":"Point","coordinates":[130.454942,33.61062]}},{"type":"Feature","properties":{"layer_id":"cafe_restaurant","name":"ファミリーマート粕屋門松店","address":"福岡県糟屋郡粕屋町大隈125‐1","source":"厚生労働省 食品衛生申請等システム（オープンデータ）"},"geometry":{"type":"Point","coordinates":[130.497869,33.619969]}},{"type":"Feature","properties":{"layer_id":"cafe_restaurant","name":"ディッパーダンイオンモール福岡店","address":"福岡県糟屋郡粕屋町酒殿字老ノ木192-1 イオンモール福岡店内2F","source":"厚生労働省 食品衛生申請等システム（オープンデータ）"},"geometry":{"type":"Point","coordinates":[130.480909,33.597072]}},{"type":"Feature","properties":{"layer_id":"cafe_restaurant","name":"ビビン亭イオンモール福岡店","address":"福岡県糟屋郡粕屋町大字酒殿字老ノ木192-1　2階","source":"厚生労働省 食品衛生申請等システム（オープンデータ）"},"geometry":{"type":"Point","coordinates":[130.480909,33.597072]}},{"type":"Feature","properties":{"layer_id":"cafe_restaurant","name":"サーティワンアイスクリームイオンモール福岡店","address":"福岡県糟屋郡粕屋町酒殿字老ノ木192-1 イオンモール福岡2F　2041区画","source":"厚生労働省 食品衛生申請等システム（オープンデータ）"},"geometry":{"type":"Point","coordinates":[130.480909,33.597072]}},{"type":"Feature","properties":{"layer_id":"cafe_restaurant","name":"ラーメン魁力屋　イオンモール福岡店","address":"福岡県糟屋郡粕屋町酒殿字老ノ木１９２−１ イオンモール福岡","source":"厚生労働省 食品衛生申請等システム（オープンデータ）"},"geometry":{"type":"Point","coordinates":[130.480909,33.597072]}},{"type":"Feature","properties":{"layer_id":"cafe_restaurant","name":"ペッパーランチ　イオンモール福岡店","address":"福岡県糟屋郡粕屋町酒殿字老ノ木192-1 イオンモール福岡","source":"厚生労働省 食品衛生申請等システム（オープンデータ）"},"geometry":{"type":"Point","coordinates":[130.480909,33.597072]}},{"type":"Feature","properties":{"layer_id":"cafe_restaurant","name":"サニー原町","address":"福岡県糟屋郡粕屋町若宮1丁目8-5","source":"厚生労働省 食品衛生申請等システム（オープンデータ）"},"geometry":{"type":"Point","coordinates":[130.473524,33.61263]}},{"type":"Feature","properties":{"layer_id":"cafe_restaurant","name":"ゴディバ　イオンモール福岡店","address":"福岡県糟屋郡粕屋町酒殿字老ノ木192-1 イオンモール福岡店１階","source":"厚生労働省 食品衛生申請等システム（オープンデータ）"},"geometry":{"type":"Point","coordinates":[130.480909,33.597072]}},{"type":"Feature","properties":{"layer_id":"cafe_restaurant","name":"カラオケ館　福岡粕屋店","address":"福岡県糟屋郡粕屋町仲原2651-1","source":"厚生労働省 食品衛生申請等システム（オープンデータ）"},"geometry":{"type":"Point","coordinates":[130.445226,33.608284]}},{"type":"Feature","properties":{"layer_id":"cafe_restaurant","name":"町田商店　イオンモール福岡店","address":"福岡県糟屋郡粕屋町酒殿字老ノ木192-1 イオンモール福岡1Ｆ　1091区画","source":"厚生労働省 食品衛生申請等システム（オープンデータ）"},"geometry":{"type":"Point","coordinates":[130.480909,33.597072]}},{"type":"Feature","properties":{"layer_id":"cafe_restaurant","name":"すき家　粕屋仲原店","address":"福岡県糟屋郡粕屋町大字仲原字天神免1826番2","source":"厚生労働省 食品衛生申請等システム（オープンデータ）"},"geometry":{"type":"Point","coordinates":[130.460544,33.609763]}},{"type":"Feature","properties":{"layer_id":"cafe_restaurant","name":"唐十イオンモール福岡店","address":"福岡県糟屋郡粕屋町酒殿字老ノ木192-1 イオンモール福岡店内1F","source":"厚生労働省 食品衛生申請等システム（オープンデータ）"},"geometry":{"type":"Point","coordinates":[130.480909,33.597072]}},{"type":"Feature","properties":{"layer_id":"cafe_restaurant","name":"プリンは主食","address":"福岡県糟屋郡粕屋町戸原東１－７－２６","source":"厚生労働省 食品衛生申請等システム（オープンデータ）"},"geometry":{"type":"Point","coordinates":[130.474932,33.619964]}},{"type":"Feature","properties":{"layer_id":"cafe_restaurant","name":"濵かつイオンモール福岡店","address":"福岡県糟屋郡粕屋町大字酒殿字老ノ木192-1 イオンモール福岡ＳＣ１階レストラン街　1090区画","source":"厚生労働省 食品衛生申請等システム（オープンデータ）"},"geometry":{"type":"Point","coordinates":[130.480909,33.597072]}},{"type":"Feature","properties":{"layer_id":"cafe_restaurant","name":"丸亀製麺イオンモール福岡","address":"福岡県糟屋郡粕屋町酒殿字老ノ木192-1","source":"厚生労働省 食品衛生申請等システム（オープンデータ）"},"geometry":{"type":"Point","coordinates":[130.480909,33.597072]}},{"type":"Feature","properties":{"layer_id":"public_facilities","name":"大隈区公民館","address":"粕屋町大字大隈1143","source":"国土交通省 国土数値情報"},"geometry":{"type":"Point","coordinates":[130.491816,33.624747]}},{"type":"Feature","properties":{"layer_id":"public_facilities","name":"ハーモニーホール伊賀","address":"粕屋町長者原西1-20-8","source":"国土交通省 国土数値情報"},"geometry":{"type":"Point","coordinates":[130.473589,33.62076]}},{"type":"Feature","properties":{"layer_id":"public_facilities","name":"乙仲原西区公民館","address":"粕屋町大字仲原2767-1","source":"国土交通省 国土数値情報"},"geometry":{"type":"Point","coordinates":[130.448466,33.610245]}},{"type":"Feature","properties":{"layer_id":"public_facilities","name":"健康センター","address":"粕屋町駕与丁1-1-1","source":"国土交通省 国土数値情報"},"geometry":{"type":"Point","coordinates":[130.482179,33.61377]}},{"type":"Feature","properties":{"layer_id":"public_facilities","name":"生涯学習センター","address":"粕屋町駕与丁1-6-1","source":"国土交通省 国土数値情報"},"geometry":{"type":"Point","coordinates":[130.481149,33.609841]}},{"type":"Feature","properties":{"layer_id":"public_facilities","name":"阿恵区公民館","address":"粕屋町大字阿恵220-2","source":"国土交通省 国土数値情報"},"geometry":{"type":"Point","coordinates":[130.458478,33.615298]}},{"type":"Feature","properties":{"layer_id":"public_facilities","name":"朝日区公民館","address":"粕屋町大字大隈377-1","source":"国土交通省 国土数値情報"},"geometry":{"type":"Point","coordinates":[130.48968,33.617745]}},{"type":"Feature","properties":{"layer_id":"public_facilities","name":"多の津区公民館","address":"粕屋町大字内橋790-1","source":"国土交通省 国土数値情報"},"geometry":{"type":"Point","coordinates":[130.453229,33.622499]}},{"type":"Feature","properties":{"layer_id":"public_facilities","name":"柚須文化センター","address":"粕屋町大字柚須57-1","source":"国土交通省 国土数値情報"},"geometry":{"type":"Point","coordinates":[130.449222,33.615902]}},{"type":"Feature","properties":{"layer_id":"public_facilities","name":"地域包括支援センター","address":"粕屋町駕与丁1-1-1","source":"国土交通省 国土数値情報"},"geometry":{"type":"Point","coordinates":[130.481308,33.610298]}},{"type":"Feature","properties":{"layer_id":"public_facilities","name":"上大隈公民会館","address":"粕屋町大字上大隈342","source":"国土交通省 国土数値情報"},"geometry":{"type":"Point","coordinates":[130.494056,33.628579]}},{"type":"Feature","properties":{"layer_id":"public_facilities","name":"長者原上区公民館","address":"粕屋町長者原東6-18-1","source":"国土交通省 国土数値情報"},"geometry":{"type":"Point","coordinates":[130.481572,33.615346]}},{"type":"Feature","properties":{"layer_id":"public_facilities","name":"ハーモニーホール原町","address":"粕屋町原町1-1-1","source":"国土交通省 国土数値情報"},"geometry":{"type":"Point","coordinates":[130.470914,33.611933]}},{"type":"Feature","properties":{"layer_id":"public_facilities","name":"内橋一区公民館","address":"粕屋町大字内橋762-1","source":"国土交通省 国土数値情報"},"geometry":{"type":"Point","coordinates":[130.454127,33.619832]}},{"type":"Feature","properties":{"layer_id":"public_facilities","name":"酒殿区公民館","address":"粕屋町酒殿3-4-21","source":"国土交通省 国土数値情報"},"geometry":{"type":"Point","coordinates":[130.483242,33.599907]}},{"type":"Feature","properties":{"layer_id":"public_facilities","name":"乙仲原東区公民館","address":"粕屋町仲原3-3-6","source":"国土交通省 国土数値情報"},"geometry":{"type":"Point","coordinates":[130.466438,33.609954]}},{"type":"Feature","properties":{"layer_id":"public_facilities","name":"長者原中区公民館","address":"粕屋町長者原東2-3-5","source":"国土交通省 国土数値情報"},"geometry":{"type":"Point","coordinates":[130.477054,33.616573]}},{"type":"Feature","properties":{"layer_id":"public_facilities","name":"花ヶ浦区公民館","address":"粕屋町花ヶ浦2-19-15","source":"国土交通省 国土数値情報"},"geometry":{"type":"Point","coordinates":[130.475454,33.60922]}},{"type":"Feature","properties":{"layer_id":"public_facilities","name":"地域活動支援センターステップアップ","address":"粕屋町若宮1-1-17","source":"国土交通省 国土数値情報"},"geometry":{"type":"Point","coordinates":[130.476769,33.613102]}},{"type":"Feature","properties":{"layer_id":"public_facilities","name":"江辻区公民館","address":"粕屋町大字江辻186-5","source":"国土交通省 国土数値情報"},"geometry":{"type":"Point","coordinates":[130.479795,33.62496]}},{"type":"Feature","properties":{"layer_id":"public_facilities","name":"まちづくり活動支援室","address":"粕屋町駕与丁1-6-1サンレイクかすや内","source":"国土交通省 国土数値情報"},"geometry":{"type":"Point","coordinates":[130.48095,33.609649]}},{"type":"Feature","properties":{"layer_id":"public_facilities","name":"広田組合集会所","address":"粕屋町大字戸原675","source":"国土交通省 国土数値情報"},"geometry":{"type":"Point","coordinates":[130.462641,33.627154]}},{"type":"Feature","properties":{"layer_id":"public_facilities","name":"サンライフ区公民館","address":"粕屋町大字内橋197-1","source":"国土交通省 国土数値情報"},"geometry":{"type":"Point","coordinates":[130.461289,33.623227]}},{"type":"Feature","properties":{"layer_id":"public_facilities","name":"若宮区公民館","address":"粕屋町若宮2-10-48","source":"国土交通省 国土数値情報"},"geometry":{"type":"Point","coordinates":[130.472323,33.614006]}},{"type":"Feature","properties":{"layer_id":"public_facilities","name":"駕輿丁区公民館","address":"粕屋町駕与丁1-9-1","source":"国土交通省 国土数値情報"},"geometry":{"type":"Point","coordinates":[130.480477,33.607595]}},{"type":"Feature","properties":{"layer_id":"public_facilities","name":"内橋二区公民館","address":"粕屋町大字内橋381-6","source":"国土交通省 国土数値情報"},"geometry":{"type":"Point","coordinates":[130.458713,33.618218]}},{"type":"Feature","properties":{"layer_id":"public_facilities","name":"総合体育館かすやドーム","address":"粕屋町駕与丁3-2-1","source":"国土交通省 国土数値情報"},"geometry":{"type":"Point","coordinates":[130.483825,33.609993]}},{"type":"Feature","properties":{"layer_id":"public_facilities","name":"長者原下区公民館","address":"粕屋町長者原西2-18-10","source":"国土交通省 国土数値情報"},"geometry":{"type":"Point","coordinates":[130.469352,33.619042]}},{"type":"Feature","properties":{"layer_id":"public_facilities","name":"長戸区公民館","address":"粕屋町戸原東1-5-17","source":"国土交通省 国土数値情報"},"geometry":{"type":"Point","coordinates":[130.47544,33.619842]}},{"type":"Feature","properties":{"layer_id":"public_facilities","name":"福祉センター","address":"粕屋町長者原東6-5-10","source":"国土交通省 国土数値情報"},"geometry":{"type":"Point","coordinates":[130.482179,33.61375]}},{"type":"Feature","properties":{"layer_id":"public_facilities","name":"江辻第二集会所","address":"粕屋町大字江辻288-4","source":"国土交通省 国土数値情報"},"geometry":{"type":"Point","coordinates":[130.480912,33.627507]}},{"type":"Feature","properties":{"layer_id":"public_facilities","name":"戸原区公民館","address":"粕屋町戸原東3-1-1","source":"国土交通省 国土数値情報"},"geometry":{"type":"Point","coordinates":[130.473315,33.623796]}},{"type":"Feature","properties":{"layer_id":"public_facilities","name":"内橋三区公民館","address":"粕屋町大字内橋132-9","source":"国土交通省 国土数値情報"},"geometry":{"type":"Point","coordinates":[130.462786,33.621752]}},{"type":"Feature","properties":{"layer_id":"public_facilities","name":"甲仲原区公民館","address":"粕屋町甲仲原1-6-2","source":"国土交通省 国土数値情報"},"geometry":{"type":"Point","coordinates":[130.476788,33.60662]}},{"type":"Feature","properties":{"layer_id":"public_facilities","name":"原町区公民館","address":"粕屋町原町5-2-35","source":"国土交通省 国土数値情報"},"geometry":{"type":"Point","coordinates":[130.467776,33.615279]}},{"type":"Feature","properties":{"layer_id":"public_facilities","name":"粕屋町役場","address":"粕屋町駕与丁1-1-1","source":"国土交通省 国土数値情報"},"geometry":{"type":"Point","coordinates":[130.480348,33.610824]}},{"type":"Feature","properties":{"layer_id":"public_facilities","name":"江辻山会館","address":"粕屋町大字江辻928","source":"国土交通省 国土数値情報"},"geometry":{"type":"Point","coordinates":[130.471559,33.632786]}},{"type":"Feature","properties":{"layer_id":"cultural_facilities","name":"サンレイクかすや（粕屋町立生涯学習センター）","address":"駕与丁1-6-1","source":"国土交通省 国土数値情報"},"geometry":{"type":"Point","coordinates":[130.48011,33.609025]}},{"type":"Feature","properties":{"layer_id":"cultural_facilities","name":"粕屋中央小学校","address":"若宮2-2-1","source":"国土交通省 国土数値情報"},"geometry":{"type":"Point","coordinates":[130.476088,33.615265]}},{"type":"Feature","properties":{"layer_id":"cultural_facilities","name":"粕屋町総合体育館（かすやドーム）","address":"駕与丁3-2-1","source":"国土交通省 国土数値情報"},"geometry":{"type":"Point","coordinates":[130.483799,33.60989]}},{"type":"Feature","properties":{"layer_id":"cultural_facilities","name":"中央スポーツ公園グラウンド","address":"大字長者原字グウズ石他","source":"国土交通省 国土数値情報"},"geometry":{"type":"Point","coordinates":[130.476546,33.61854]}},{"type":"Feature","properties":{"layer_id":"cultural_facilities","name":"粕屋町総合体育館（かすやドーム）","address":"駕与丁3-2-1","source":"国土交通省 国土数値情報"},"geometry":{"type":"Point","coordinates":[130.484668,33.610593]}},{"type":"Feature","properties":{"layer_id":"cultural_facilities","name":"広田グラウンド","address":"大字江辻","source":"国土交通省 国土数値情報"},"geometry":{"type":"Point","coordinates":[130.464063,33.627056]}},{"type":"Feature","properties":{"layer_id":"cultural_facilities","name":"粕屋東中学校","address":"大字江辻430","source":"国土交通省 国土数値情報"},"geometry":{"type":"Point","coordinates":[130.478099,33.622278]}},{"type":"Feature","properties":{"layer_id":"cultural_facilities","name":"仲原小学校","address":"仲原1-16-1","source":"国土交通省 国土数値情報"},"geometry":{"type":"Point","coordinates":[130.471988,33.606335]}},{"type":"Feature","properties":{"layer_id":"cultural_facilities","name":"粕屋中学校","address":"大字仲原1707","source":"国土交通省 国土数値情報"},"geometry":{"type":"Point","coordinates":[130.467834,33.602497]}},{"type":"Feature","properties":{"layer_id":"cultural_facilities","name":"広田グラウンド","address":"大字江辻","source":"国土交通省 国土数値情報"},"geometry":{"type":"Point","coordinates":[130.464057,33.627125]}},{"type":"Feature","properties":{"layer_id":"cultural_facilities","name":"大川小学校","address":"大字戸原10","source":"国土交通省 国土数値情報"},"geometry":{"type":"Point","coordinates":[130.475438,33.624248]}},{"type":"Feature","properties":{"layer_id":"cultural_facilities","name":"駕与丁公園","address":"駕与丁3-2-1","source":"国土交通省 国土数値情報"},"geometry":{"type":"Point","coordinates":[130.4836,33.609381]}},{"type":"Feature","properties":{"layer_id":"cultural_facilities","name":"仲原小学校","address":"仲原1-16-1","source":"国土交通省 国土数値情報"},"geometry":{"type":"Point","coordinates":[130.472505,33.60632]}},{"type":"Feature","properties":{"layer_id":"cultural_facilities","name":"駕与丁公園グラウンド","address":"駕与丁3-1010","source":"国土交通省 国土数値情報"},"geometry":{"type":"Point","coordinates":[130.483998,33.605442]}},{"type":"Feature","properties":{"layer_id":"cultural_facilities","name":"中央スポーツ公園グラウンド","address":"大字長者原字グウズ石他","source":"国土交通省 国土数値情報"},"geometry":{"type":"Point","coordinates":[130.476558,33.618391]}},{"type":"Feature","properties":{"layer_id":"cultural_facilities","name":"粕屋町総合体育館（かすやドーム）","address":"駕与丁3-2-1","source":"国土交通省 国土数値情報"},"geometry":{"type":"Point","coordinates":[130.484325,33.610384]}},{"type":"Feature","properties":{"layer_id":"cultural_facilities","name":"江辻グラウンド","address":"大字江辻","source":"国土交通省 国土数値情報"},"geometry":{"type":"Point","coordinates":[130.473035,33.629505]}},{"type":"Feature","properties":{"layer_id":"cultural_facilities","name":"サンレイクかすや（粕屋町立生涯学習センター）","address":"駕与丁1-6-1","source":"国土交通省 国土数値情報"},"geometry":{"type":"Point","coordinates":[130.481001,33.609648]}},{"type":"Feature","properties":{"layer_id":"cultural_facilities","name":"粕屋町総合体育館（かすやドーム）","address":"駕与丁3-2-1","source":"国土交通省 国土数値情報"},"geometry":{"type":"Point","coordinates":[130.483799,33.609997]}},{"type":"Feature","properties":{"layer_id":"cultural_facilities","name":"粕屋中学校","address":"大字仲原1707","source":"国土交通省 国土数値情報"},"geometry":{"type":"Point","coordinates":[130.466747,33.603551]}},{"type":"Feature","properties":{"layer_id":"cultural_facilities","name":"粕屋町立生涯学習センター","address":"駕与丁1-6-1","source":"国土交通省 国土数値情報"},"geometry":{"type":"Point","coordinates":[130.48011,33.609102]}},{"type":"Feature","properties":{"layer_id":"cultural_facilities","name":"粕屋西小学校","address":"大字仲原2445","source":"国土交通省 国土数値情報"},"geometry":{"type":"Point","coordinates":[130.456808,33.613064]}},{"type":"Feature","properties":{"layer_id":"cultural_facilities","name":"粕屋町総合体育館（かすやドーム）","address":"駕与丁3-2-1","source":"国土交通省 国土数値情報"},"geometry":{"type":"Point","coordinates":[130.483799,33.610053]}},{"type":"Feature","properties":{"layer_id":"cultural_facilities","name":"大川小学校","address":"大字戸原10","source":"国土交通省 国土数値情報"},"geometry":{"type":"Point","coordinates":[130.47479,33.624515]}},{"type":"Feature","properties":{"layer_id":"cultural_facilities","name":"粕屋西小学校","address":"大字仲原2445","source":"国土交通省 国土数値情報"},"geometry":{"type":"Point","coordinates":[130.457319,33.61338]}},{"type":"Feature","properties":{"layer_id":"cultural_facilities","name":"江辻グラウンド","address":"大字江辻","source":"国土交通省 国土数値情報"},"geometry":{"type":"Point","coordinates":[130.473035,33.629357]}},{"type":"Feature","properties":{"layer_id":"cultural_facilities","name":"粕屋町立図書館","address":"若宮1-1-1","source":"国土交通省 国土数値情報"},"geometry":{"type":"Point","coordinates":[130.476068,33.613777]}},{"type":"Feature","properties":{"layer_id":"cultural_facilities","name":"粕屋中央小学校","address":"若宮2-2-1","source":"国土交通省 国土数値情報"},"geometry":{"type":"Point","coordinates":[130.475244,33.614988]}},{"type":"Feature","properties":{"layer_id":"cultural_facilities","name":"中央スポーツ公園グラウンド","address":"大字長者原字グウズ石他","source":"国土交通省 国土数値情報"},"geometry":{"type":"Point","coordinates":[130.476552,33.618461]}},{"type":"Feature","properties":{"layer_id":"cultural_facilities","name":"粕屋町総合体育館（かすやドーム）","address":"駕与丁3-2-1","source":"国土交通省 国土数値情報"},"geometry":{"type":"Point","coordinates":[130.483799,33.610114]}},{"type":"Feature","properties":{"layer_id":"cultural_facilities","name":"粕屋東中学校","address":"大字江辻430","source":"国土交通省 国土数値情報"},"geometry":{"type":"Point","coordinates":[130.477915,33.623293]}},{"type":"Feature","properties":{"layer_id":"cultural_facilities","name":"粕屋町総合体育館（かすやドーム）","address":"駕与丁3-2-1","source":"国土交通省 国土数値情報"},"geometry":{"type":"Point","coordinates":[130.483799,33.609935]}},{"type":"Feature","properties":{"layer_id":"parks_playgrounds","name":"内橋公園","address":"糟屋郡粕屋町","source":"国土交通省 国土数値情報"},"geometry":{"type":"Point","coordinates":[130.453926,33.620167]}},{"type":"Feature","properties":{"layer_id":"parks_playgrounds","name":"粕屋中央スポーツ公園","address":"糟屋郡粕屋町","source":"国土交通省 国土数値情報"},"geometry":{"type":"Point","coordinates":[130.476298,33.618572]}},{"type":"Feature","properties":{"layer_id":"parks_playgrounds","name":"伊賀公園","address":"糟屋郡粕屋町","source":"国土交通省 国土数値情報"},"geometry":{"type":"Point","coordinates":[130.477003,33.622581]}},{"type":"Feature","properties":{"layer_id":"parks_playgrounds","name":"花ヶ浦公園","address":"糟屋郡粕屋町","source":"国土交通省 国土数値情報"},"geometry":{"type":"Point","coordinates":[130.475063,33.60867]}},{"type":"Feature","properties":{"layer_id":"parks_playgrounds","name":"江辻公園","address":"糟屋郡粕屋町","source":"国土交通省 国土数値情報"},"geometry":{"type":"Point","coordinates":[130.482261,33.625547]}},{"type":"Feature","properties":{"layer_id":"parks_playgrounds","name":"阿恵公園","address":"糟屋郡粕屋町","source":"国土交通省 国土数値情報"},"geometry":{"type":"Point","coordinates":[130.458083,33.616109]}},{"type":"Feature","properties":{"layer_id":"parks_playgrounds","name":"上大隈公園","address":"糟屋郡粕屋町","source":"国土交通省 国土数値情報"},"geometry":{"type":"Point","coordinates":[130.495124,33.627133]}},{"type":"Feature","properties":{"layer_id":"parks_playgrounds","name":"駕与丁公園","address":"糟屋郡粕屋町","source":"国土交通省 国土数値情報"},"geometry":{"type":"Point","coordinates":[130.484336,33.610349]}},{"type":"Feature","properties":{"layer_id":"parks_playgrounds","name":"原町駅前公園","address":"糟屋郡粕屋町","source":"国土交通省 国土数値情報"},"geometry":{"type":"Point","coordinates":[130.472362,33.612188]}},{"type":"Feature","properties":{"layer_id":"parks_playgrounds","name":"柚須公園","address":"糟屋郡粕屋町","source":"国土交通省 国土数値情報"},"geometry":{"type":"Point","coordinates":[130.44739,33.615071]}},{"type":"Feature","properties":{"layer_id":"parks_playgrounds","name":"大池公園","address":"糟屋郡粕屋町","source":"国土交通省 国土数値情報"},"geometry":{"type":"Point","coordinates":[130.467952,33.615919]}}]}