{"type":"FeatureCollection","municipality_code":"40348","pref":"福岡県","city":"久山町","display_comment":"久山町には、地域の歴史や暮らしを伝える案内板や石碑があり、それらを手がかりに街歩きを楽しめます。 まずは社寺・石碑・案内板に目を向けると、地域の由緒をたどる手がかりが見つけやすいでしょう。 現地では石碑、地蔵、地域資料館、公民館の由緒板を既存ピンと照らし合わせながら歩くと、見落としがちな地域の物語に出会いやすくなります。 「伊野天照皇大神宮」や「トリアス」などの名所も、地域の物語を深掘りする絶好の入口です。","layer_counts":{"cafe_restaurant":2,"public_facilities":24,"scenic_nature_areas":2,"cultural_facilities":10,"parks_playgrounds":3},"total_features":41,"features":[{"type":"Feature","properties":{"layer_id":"cafe_restaurant","name":"ウエスト久山店","category":"food","address":"福岡県糟屋郡久山町久原寺ノ下3278-1","source":"厚生労働省 食品衛生申請等システム（オープンデータ）","municipality_code":"40348","municipality_pref":"福岡県","municipality_name":"久山町","municipality_code_method":"food_exact_coord"},"geometry":{"type":"Point","coordinates":[130.527974,33.654575]}},{"type":"Feature","properties":{"layer_id":"cafe_restaurant","name":"ジョリーパスタ　トリアス久山店","category":"food","address":"福岡県糟屋郡久山町山田１１１１番地３６７","source":"厚生労働省 食品衛生申請等システム（オープンデータ）","municipality_code":"40348","municipality_pref":"福岡県","municipality_name":"久山町","municipality_code_method":"food_exact_coord"},"geometry":{"type":"Point","coordinates":[130.492746,33.653321]}},{"type":"Feature","properties":{"layer_id":"public_facilities","name":"文化交流センター","category":"public","address":"久山町大字久原2603-1","source":"国土交通省 国土数値情報","municipality_code":"40348","municipality_pref":"福岡県","municipality_name":"久山町","municipality_code_method":"source_exact_coord"},"geometry":{"type":"Point","coordinates":[130.506822,33.646378]}},{"type":"Feature","properties":{"layer_id":"public_facilities","name":"ヘルスＣ＆Ｃセンター","category":"public","address":"久山町大字久原1822-1","source":"国土交通省 国土数値情報","municipality_code":"40348","municipality_pref":"福岡県","municipality_name":"久山町","municipality_code_method":"source_exact_coord"},"geometry":{"type":"Point","coordinates":[130.51785,33.64115]}},{"type":"Feature","properties":{"layer_id":"public_facilities","name":"勤労青少年ホーム","category":"public","address":"久山町大字久原3505","source":"国土交通省 国土数値情報","municipality_code":"40348","municipality_pref":"福岡県","municipality_name":"久山町","municipality_code_method":"source_exact_coord"},"geometry":{"type":"Point","coordinates":[130.5029,33.64705]}},{"type":"Feature","properties":{"layer_id":"public_facilities","name":"上山田いつき会館","category":"public","address":"久山町大字山田685-4","source":"国土交通省 国土数値情報","municipality_code":"40348","municipality_pref":"福岡県","municipality_name":"久山町","municipality_code_method":"source_exact_coord"},"geometry":{"type":"Point","coordinates":[130.49579,33.6586]}},{"type":"Feature","properties":{"layer_id":"public_facilities","name":"下山田公民館","category":"public","address":"久山町大字山田1726-1","source":"国土交通省 国土数値情報","municipality_code":"40348","municipality_pref":"福岡県","municipality_name":"久山町","municipality_code_method":"source_exact_coord"},"geometry":{"type":"Point","coordinates":[130.49072,33.65749]}},{"type":"Feature","properties":{"layer_id":"public_facilities","name":"新建会館","category":"public","address":"久山町久原2418-2","source":"国土交通省 国土数値情報","municipality_code":"40348","municipality_pref":"福岡県","municipality_name":"久山町","municipality_code_method":"source_exact_coord"},"geometry":{"type":"Point","coordinates":[130.506398,33.642828]}},{"type":"Feature","properties":{"layer_id":"public_facilities","name":"ふれあい館","category":"public","address":"久山町大字久原1080-3","source":"国土交通省 国土数値情報","municipality_code":"40348","municipality_pref":"福岡県","municipality_name":"久山町","municipality_code_method":"source_exact_coord"},"geometry":{"type":"Point","coordinates":[130.50742,33.64555]}},{"type":"Feature","properties":{"layer_id":"public_facilities","name":"藤河黒河集会所","category":"public","address":"久山町大字山田2525","source":"国土交通省 国土数値情報","municipality_code":"40348","municipality_pref":"福岡県","municipality_name":"久山町","municipality_code_method":"source_exact_coord"},"geometry":{"type":"Point","coordinates":[130.48961,33.67225]}},{"type":"Feature","properties":{"layer_id":"public_facilities","name":"草場集会所","category":"public","address":"久山町大字山田393-156","source":"国土交通省 国土数値情報","municipality_code":"40348","municipality_pref":"福岡県","municipality_name":"久山町","municipality_code_method":"source_exact_coord"},"geometry":{"type":"Point","coordinates":[130.50424,33.67185]}},{"type":"Feature","properties":{"layer_id":"public_facilities","name":"中久原新建会館","category":"public","address":"久山町大字久原2418-2","source":"国土交通省 国土数値情報","municipality_code":"40348","municipality_pref":"福岡県","municipality_name":"久山町","municipality_code_method":"source_exact_coord"},"geometry":{"type":"Point","coordinates":[130.50623,33.64274]}},{"type":"Feature","properties":{"layer_id":"public_facilities","name":"東久原集会所","category":"public","address":"久山町大字久原1843-71","source":"国土交通省 国土数値情報","municipality_code":"40348","municipality_pref":"福岡県","municipality_name":"久山町","municipality_code_method":"source_exact_coord"},"geometry":{"type":"Point","coordinates":[130.51502,33.6436]}},{"type":"Feature","properties":{"layer_id":"public_facilities","name":"町民体育センター","category":"public","address":"久山町大字久原3554-1","source":"国土交通省 国土数値情報","municipality_code":"40348","municipality_pref":"福岡県","municipality_name":"久山町","municipality_code_method":"source_exact_coord"},"geometry":{"type":"Point","coordinates":[130.5004,33.65116]}},{"type":"Feature","properties":{"layer_id":"public_facilities","name":"高齢者交流センター","category":"public","address":"久山町大字久原1080-3","source":"国土交通省 国土数値情報","municipality_code":"40348","municipality_pref":"福岡県","municipality_name":"久山町","municipality_code_method":"source_exact_coord"},"geometry":{"type":"Point","coordinates":[130.50741,33.64555]}},{"type":"Feature","properties":{"layer_id":"public_facilities","name":"文化交流センターレスポアール久山","category":"public","address":"久山町久原2603-1","source":"国土交通省 国土数値情報","municipality_code":"40348","municipality_pref":"福岡県","municipality_name":"久山町","municipality_code_method":"source_exact_coord"},"geometry":{"type":"Point","coordinates":[130.506702,33.646367]}},{"type":"Feature","properties":{"layer_id":"public_facilities","name":"小浦台集会所","category":"public","address":"久山町大字山田1930-27","source":"国土交通省 国土数値情報","municipality_code":"40348","municipality_pref":"福岡県","municipality_name":"久山町","municipality_code_method":"source_exact_coord"},"geometry":{"type":"Point","coordinates":[130.48658,33.66281]}},{"type":"Feature","properties":{"layer_id":"public_facilities","name":"農村センター","category":"public","address":"久山町大字久原2597-2","source":"国土交通省 国土数値情報","municipality_code":"40348","municipality_pref":"福岡県","municipality_name":"久山町","municipality_code_method":"source_exact_coord"},"geometry":{"type":"Point","coordinates":[130.5071739,33.64605882]}},{"type":"Feature","properties":{"layer_id":"public_facilities","name":"いつき会館","category":"public","address":"久山町山田685-4","source":"国土交通省 国土数値情報","municipality_code":"40348","municipality_pref":"福岡県","municipality_name":"久山町","municipality_code_method":"source_exact_coord"},"geometry":{"type":"Point","coordinates":[130.495528,33.658602]}},{"type":"Feature","properties":{"layer_id":"public_facilities","name":"久山町役場","category":"public","address":"久山町大字久原3632","source":"国土交通省 国土数値情報","municipality_code":"40348","municipality_pref":"福岡県","municipality_name":"久山町","municipality_code_method":"source_exact_coord"},"geometry":{"type":"Point","coordinates":[130.499906,33.646726]}},{"type":"Feature","properties":{"layer_id":"public_facilities","name":"生涯学習館","category":"public","address":"久山町大字久原2597-2","source":"国土交通省 国土数値情報","municipality_code":"40348","municipality_pref":"福岡県","municipality_name":"久山町","municipality_code_method":"source_exact_coord"},"geometry":{"type":"Point","coordinates":[130.5071739,33.64607882]}},{"type":"Feature","properties":{"layer_id":"public_facilities","name":"猪野かみじ会館","category":"public","address":"久山町大字猪野1258-1","source":"国土交通省 国土数値情報","municipality_code":"40348","municipality_pref":"福岡県","municipality_name":"久山町","municipality_code_method":"source_exact_coord"},"geometry":{"type":"Point","coordinates":[130.50803,33.66612]}},{"type":"Feature","properties":{"layer_id":"public_facilities","name":"大谷集会所","category":"public","address":"久山町大字山田2793-32","source":"国土交通省 国土数値情報","municipality_code":"40348","municipality_pref":"福岡県","municipality_name":"久山町","municipality_code_method":"source_exact_coord"},"geometry":{"type":"Point","coordinates":[130.48299,33.6697]}},{"type":"Feature","properties":{"layer_id":"public_facilities","name":"上久原集会所","category":"public","address":"久山町大字久原887","source":"国土交通省 国土数値情報","municipality_code":"40348","municipality_pref":"福岡県","municipality_name":"久山町","municipality_code_method":"source_exact_coord"},"geometry":{"type":"Point","coordinates":[130.50995,33.6494]}},{"type":"Feature","properties":{"layer_id":"public_facilities","name":"久山会館","category":"public","address":"久山町大字久原3553-7","source":"国土交通省 国土数値情報","municipality_code":"40348","municipality_pref":"福岡県","municipality_name":"久山町","municipality_code_method":"source_exact_coord"},"geometry":{"type":"Point","coordinates":[130.50011,33.6531]}},{"type":"Feature","properties":{"layer_id":"public_facilities","name":"下久原公民館","category":"public","address":"久山町久原3360-1","source":"国土交通省 国土数値情報","municipality_code":"40348","municipality_pref":"福岡県","municipality_name":"久山町","municipality_code_method":"source_exact_coord"},"geometry":{"type":"Point","coordinates":[130.499192,33.642143]}},{"type":"Feature","properties":{"layer_id":"scenic_nature_areas","name":"久山町","category":"nature","source":"国土交通省 国土数値情報","municipality_code":"40348","municipality_pref":"福岡県","municipality_name":"久山町","municipality_code_method":"nearest_centroid"},"geometry":{"type":"Polygon","coordinates":[[[130.51364598000004,33.669750029999996],[130.51376095000003,33.669601990000004],[130.51373795,33.66942200000003],[130.51358002999999,33.669310030000005],[130.51338199000003,33.669198019999975],[130.51323896000002,33.668945],[130.513125,33.669334990000024],[130.51275901,33.66951199000002],[130.51243499,33.669597030000034],[130.51216395999998,33.66962803000003],[130.51168498999996,33.66954299000001],[130.511269,33.66934003],[130.51103801999997,33.669169979999964],[130.51092902000002,33.66911702000002],[130.51081895,33.66904604000001],[130.51072203999996,33.669092039999995],[130.51076898000002,33.669308990000005],[130.51078898999998,33.66965802000002],[130.51075302000004,33.670042989999985],[130.51072696,33.67010103],[130.51063997,33.67029498999997],[130.51048196,33.67043102000003],[130.51044498000002,33.67043796999998],[130.51050696000001,33.670633000000045],[130.51047305000003,33.67092704000004],[130.51041799,33.67118897000004],[130.510289,33.67161503000003],[130.510156,33.67188602999998],[130.51011899999997,33.67195997999997],[130.51010294999998,33.672140000000034],[130.51014603,33.67235202999999],[130.51015601,33.672379959999994],[130.51022798000002,33.672579010000035],[130.51033205000002,33.67278200000004],[130.51077295,33.67339697000003],[130.511254,33.67404401000001],[130.51168998,33.67441400999998],[130.51184800000004,33.67449396000002],[130.51202395,33.674508040000035],[130.51215994999998,33.67445803999998],[130.51231904000002,33.674370959999976],[130.51262295000004,33.67384499999997],[130.51285400000003,33.673629970000036],[130.51300899,33.67356197000001],[130.51332195000003,33.67355904000003],[130.51367396000003,33.673537959999976],[130.51384899000004,33.673487020000024],[130.51394499999998,33.67342000999999],[130.51413399999998,33.67305896000004],[130.51424703,33.67276303999998],[130.51426201,33.67253496000003],[130.51396902000002,33.67141200000002],[130.51355998000003,33.67038804000003],[130.51345799,33.67014399],[130.51345700000002,33.6701],[130.51345496000002,33.67001398999999],[130.51364598000004,33.669750029999996]]]}},{"type":"Feature","properties":{"layer_id":"scenic_nature_areas","name":"久山町","category":"nature","source":"国土交通省 国土数値情報","municipality_code":"40348","municipality_pref":"福岡県","municipality_name":"久山町","municipality_code_method":"nearest_centroid"},"geometry":{"type":"Polygon","coordinates":[[[130.51364598000004,33.669750029999996],[130.51376095000003,33.669601990000004],[130.51373795,33.66942200000003],[130.51358002999999,33.669310030000005],[130.51338199000003,33.669198019999975],[130.51323896000002,33.668945],[130.513125,33.669334990000024],[130.51275901,33.66951199000002],[130.51243499,33.669597030000034],[130.51216395999998,33.66962803000003],[130.51168498999996,33.66954299000001],[130.511269,33.66934003],[130.51103801999997,33.669169979999964],[130.51092902000002,33.66911702000002],[130.51081895,33.66904604000001],[130.51072203999996,33.669092039999995],[130.51076898000002,33.669308990000005],[130.51078898999998,33.66965802000002],[130.51075302000004,33.670042989999985],[130.51072696,33.67010103],[130.51063997,33.67029498999997],[130.51048196,33.67043102000003],[130.51044498000002,33.67043796999998],[130.51050696000001,33.670633000000045],[130.51047305000003,33.67092704000004],[130.51041799,33.67118897000004],[130.510289,33.67161503000003],[130.510156,33.67188602999998],[130.51011899999997,33.67195997999997],[130.51010294999998,33.672140000000034],[130.51014603,33.67235202999999],[130.51015601,33.672379959999994],[130.51022798000002,33.672579010000035],[130.51033205000002,33.67278200000004],[130.51077295,33.67339697000003],[130.511254,33.67404401000001],[130.51168998,33.67441400999998],[130.51184800000004,33.67449396000002],[130.51202395,33.674508040000035],[130.51215994999998,33.67445803999998],[130.51231904000002,33.674370959999976],[130.51262295000004,33.67384499999997],[130.51285400000003,33.673629970000036],[130.51300899,33.67356197000001],[130.51332195000003,33.67355904000003],[130.51367396000003,33.673537959999976],[130.51384899000004,33.673487020000024],[130.51394499999998,33.67342000999999],[130.51413399999998,33.67305896000004],[130.51424703,33.67276303999998],[130.51426201,33.67253496000003],[130.51396902000002,33.67141200000002],[130.51355998000003,33.67038804000003],[130.51345799,33.67014399],[130.51345700000002,33.6701],[130.51345496000002,33.67001398999999],[130.51364598000004,33.669750029999996]]]}},{"type":"Feature","properties":{"layer_id":"cultural_facilities","name":"福岡久山相撲場","category":"public","address":"久原3637","source":"国土交通省 国土数値情報","municipality_code":"40348","municipality_pref":"福岡県","municipality_name":"久山町","municipality_code_method":"nearest_centroid"},"geometry":{"type":"Point","coordinates":[130.5011478,33.64750645]}},{"type":"Feature","properties":{"layer_id":"cultural_facilities","name":"久山カントリー倶楽部","category":"public","address":"久原3549","source":"国土交通省 国土数値情報","municipality_code":"40348","municipality_pref":"福岡県","municipality_name":"久山町","municipality_code_method":"nearest_centroid"},"geometry":{"type":"Point","coordinates":[130.5029974,33.64967382]}},{"type":"Feature","properties":{"layer_id":"cultural_facilities","name":"猪野柔剣道場","category":"public","address":"大字猪野1258-1","source":"国土交通省 国土数値情報","municipality_code":"40348","municipality_pref":"福岡県","municipality_name":"久山町","municipality_code_method":"nearest_centroid"},"geometry":{"type":"Point","coordinates":[130.507993,33.66608445]}},{"type":"Feature","properties":{"layer_id":"cultural_facilities","name":"久山カントリー倶楽部","category":"public","address":"久原3549","source":"国土交通省 国土数値情報","municipality_code":"40348","municipality_pref":"福岡県","municipality_name":"久山町","municipality_code_method":"nearest_centroid"},"geometry":{"type":"Point","coordinates":[130.5015,33.649842]}},{"type":"Feature","properties":{"layer_id":"cultural_facilities","name":"久山町総合グラウンド公園","category":"public","address":"大字久原3603","source":"国土交通省 国土数値情報","municipality_code":"40348","municipality_pref":"福岡県","municipality_name":"久山町","municipality_code_method":"nearest_centroid"},"geometry":{"type":"Point","coordinates":[130.4983739,33.64704103]}},{"type":"Feature","properties":{"layer_id":"cultural_facilities","name":"久山町総合グラウンド公園","category":"public","address":"大字久原3603","source":"国土交通省 国土数値情報","municipality_code":"40348","municipality_pref":"福岡県","municipality_name":"久山町","municipality_code_method":"nearest_centroid"},"geometry":{"type":"Point","coordinates":[130.499592,33.64810452]}},{"type":"Feature","properties":{"layer_id":"cultural_facilities","name":"久山町民図書館","category":"public","address":"大字久原2603-1","source":"国土交通省 国土数値情報","municipality_code":"40348","municipality_pref":"福岡県","municipality_name":"久山町","municipality_code_method":"nearest_centroid"},"geometry":{"type":"Point","coordinates":[130.506621,33.646069]}},{"type":"Feature","properties":{"layer_id":"cultural_facilities","name":"久山町勤労者体育センター","category":"public","address":"久原3554-1","source":"国土交通省 国土数値情報","municipality_code":"40348","municipality_pref":"福岡県","municipality_name":"久山町","municipality_code_method":"nearest_centroid"},"geometry":{"type":"Point","coordinates":[130.5003776,33.65117773]}},{"type":"Feature","properties":{"layer_id":"cultural_facilities","name":"久山町勤労者体育センター","category":"public","address":"久原3554-1","source":"国土交通省 国土数値情報","municipality_code":"40348","municipality_pref":"福岡県","municipality_name":"久山町","municipality_code_method":"nearest_centroid"},"geometry":{"type":"Point","coordinates":[130.5003776,33.65110354]}},{"type":"Feature","properties":{"layer_id":"cultural_facilities","name":"久山会館","category":"public","address":"大字久原3553-1","source":"国土交通省 国土数値情報","municipality_code":"40348","municipality_pref":"福岡県","municipality_name":"久山町","municipality_code_method":"nearest_centroid"},"geometry":{"type":"Point","coordinates":[130.5000792,33.65310689]}},{"type":"Feature","properties":{"layer_id":"parks_playgrounds","name":"新建川緑道","category":"nature","address":"糟屋郡久山町","source":"国土交通省 国土数値情報","municipality_code":"40348","municipality_pref":"福岡県","municipality_name":"久山町","municipality_code_method":"nearest_centroid"},"geometry":{"type":"Point","coordinates":[130.51754624,33.64759656]}},{"type":"Feature","properties":{"layer_id":"parks_playgrounds","name":"久山総合グラウンド公園","category":"nature","address":"糟屋郡久山町","source":"国土交通省 国土数値情報","municipality_code":"40348","municipality_pref":"福岡県","municipality_name":"久山町","municipality_code_method":"nearest_centroid"},"geometry":{"type":"Point","coordinates":[130.49894533,33.64749365]}},{"type":"Feature","properties":{"layer_id":"parks_playgrounds","name":"赤坂緑道","category":"nature","address":"糟屋郡久山町","source":"国土交通省 国土数値情報","municipality_code":"40348","municipality_pref":"福岡県","municipality_name":"久山町","municipality_code_method":"nearest_centroid"},"geometry":{"type":"Point","coordinates":[130.50027794,33.6598074]}}],"display_comment_original":"久山町には、地域の由緒を示す案内板や石碑を探す余地がある。 まずは社寺・石碑・案内板を軸に、地区の由緒を拾える場所を探したい。 現地では石碑、地蔵、地域資料館、公民館の由緒板を、既存ピンと照らして歩くと発見しやすい。","story_enrichment":{"samurai_priority_people":[],"notable_people":[],"honorary_citizens":[],"tourism_landmarks":["伊野天照皇大神宮（いのてんしょうこうだいじんぐう)","トリアス","斎宮","若宮八幡宮","首羅山遺跡","審神者（さにわ）神社"],"specialties":[],"food_culture":[],"historical_domains":[],"heian_place_names":[],"japan_search_support":[],"enrichment_sources":["https://ja.wikipedia.org/wiki/%E4%B9%85%E5%B1%B1%E7%94%BA"],"enrichment_errors":[],"wikipedia_title":"久山町","wikipedia_revision_id":"107617784","wikidata_qid":"Q1206089","wikipedia_url":"https://ja.wikipedia.org/wiki/%E4%B9%85%E5%B1%B1%E7%94%BA","japan_search_query_url":"","status":"wikipedia_ok"}}