{"type":"FeatureCollection","municipality_code":"43447","pref":"熊本県","city":"山都町","display_comment":"山都町には、地域の歴史や暮らしを伝える案内板や石碑があり、それらを手がかりに街歩きを楽しめます。 まずは自然と信仰、城跡・武家文化に目を向けると、地域の由緒をたどる手がかりが見つけやすいでしょう。 現地では石碑、地蔵、地域資料館、公民館の由緒板を既存ピンと照らし合わせながら歩くと、見落としがちな地域の物語に出会いやすくなります。 ゆかりの人物では荒木昭次郎や高橋守雄に注目すると、地域に残る文化や時代背景をさらに深く知るきっかけになります。 「石橋」や「円形分水（矢部地区）」などの名所も、地域の物語を深掘りする絶好の入口です。","layer_counts":{"cafe_restaurant":232,"public_facilities":78,"scenic_nature_areas":1,"cultural_facilities":26,"tourism_resources":10},"total_features":347,"features":[{"type":"Feature","properties":{"layer_id":"cafe_restaurant","address":"上益城郡山都町滝上２２３－１","source":"熊本県 食品営業許可施設、届出施設データ"},"geometry":{"type":"Point","coordinates":[131.140194,32.688255]}},{"type":"Feature","properties":{"layer_id":"cafe_restaurant","address":"上益城郡山都町浜町２５２－２","source":"熊本県 食品営業許可施設、届出施設データ"},"geometry":{"type":"Point","coordinates":[130.985602,32.684099]}},{"type":"Feature","properties":{"layer_id":"cafe_restaurant","address":"上益城郡山都町大平７０－１","source":"熊本県 食品営業許可施設、届出施設データ"},"geometry":{"type":"Point","coordinates":[131.093041,32.693434]}},{"type":"Feature","properties":{"layer_id":"cafe_restaurant","address":"熊本県上益城郡山都町菅488-1","source":"熊本県 食品営業許可施設、届出施設データ"},"geometry":{"type":"Point","coordinates":[131.018402,32.644791]}},{"type":"Feature","properties":{"layer_id":"cafe_restaurant","address":"熊本県上益城郡山都町今３６５ー４","source":"熊本県 食品営業許可施設、届出施設データ"},"geometry":{"type":"Point","coordinates":[131.167439,32.727559]}},{"type":"Feature","properties":{"layer_id":"cafe_restaurant","address":"熊本県上益城郡山都町浜町１８０番地","source":"熊本県 食品営業許可施設、届出施設データ"},"geometry":{"type":"Point","coordinates":[130.985602,32.684099]}},{"type":"Feature","properties":{"layer_id":"cafe_restaurant","address":"熊本県上益城郡山都町大字菅２２８７","source":"熊本県 食品営業許可施設、届出施設データ"},"geometry":{"type":"Point","coordinates":[131.018402,32.644791]}},{"type":"Feature","properties":{"layer_id":"cafe_restaurant","address":"熊本県上益城郡山都町菅２４５","source":"熊本県 食品営業許可施設、届出施設データ"},"geometry":{"type":"Point","coordinates":[131.018402,32.644791]}},{"type":"Feature","properties":{"layer_id":"cafe_restaurant","address":"熊本県上益城郡山都町馬見原８５","source":"熊本県 食品営業許可施設、届出施設データ"},"geometry":{"type":"Point","coordinates":[131.162816,32.68142]}},{"type":"Feature","properties":{"layer_id":"cafe_restaurant","address":"熊本県上益城郡山都町城平３４０","source":"熊本県 食品営業許可施設、届出施設データ"},"geometry":{"type":"Point","coordinates":[130.990355,32.698929]}},{"type":"Feature","properties":{"layer_id":"cafe_restaurant","address":"熊本県上益城郡山都町菅尾１３４４－１","source":"熊本県 食品営業許可施設、届出施設データ"},"geometry":{"type":"Point","coordinates":[131.15036,32.715422]}},{"type":"Feature","properties":{"layer_id":"cafe_restaurant","address":"熊本県上益城郡山都町城原１６９－１－２","source":"熊本県 食品営業許可施設、届出施設データ"},"geometry":{"type":"Point","coordinates":[131.000203,32.681127]}},{"type":"Feature","properties":{"layer_id":"cafe_restaurant","address":"上益城郡山都町北中島天神原２８７２－１","source":"熊本県 食品営業許可施設、届出施設データ"},"geometry":{"type":"Point","coordinates":[130.930458,32.750068]}},{"type":"Feature","properties":{"layer_id":"cafe_restaurant","address":"熊本県上益城郡山都町目丸３８５６","source":"熊本県 食品営業許可施設、届出施設データ"},"geometry":{"type":"Point","coordinates":[130.980655,32.629804]}},{"type":"Feature","properties":{"layer_id":"cafe_restaurant","address":"熊本県上益城郡山都町今２９７番地","source":"熊本県 食品営業許可施設、届出施設データ"},"geometry":{"type":"Point","coordinates":[131.163371,32.726834]}},{"type":"Feature","properties":{"layer_id":"cafe_restaurant","address":"熊本県上益城郡山都町今２９７番地","source":"熊本県 食品営業許可施設、届出施設データ"},"geometry":{"type":"Point","coordinates":[131.163371,32.726834]}},{"type":"Feature","properties":{"layer_id":"cafe_restaurant","address":"熊本県上益城郡山都町下市１５３－２","source":"熊本県 食品営業許可施設、届出施設データ"},"geometry":{"type":"Point","coordinates":[130.988346,32.681022]}},{"type":"Feature","properties":{"layer_id":"cafe_restaurant","address":"熊本県上益城郡山都町井無田１２３８－１４","source":"熊本県 食品営業許可施設、届出施設データ"},"geometry":{"type":"Point","coordinates":[131.107376,32.724362]}},{"type":"Feature","properties":{"layer_id":"cafe_restaurant","address":"熊本県上益城郡山都町津留1023","source":"熊本県 食品営業許可施設、届出施設データ"},"geometry":{"type":"Point","coordinates":[130.982411,32.640859]}},{"type":"Feature","properties":{"layer_id":"cafe_restaurant","address":"熊本県上益城郡山都町浜町８７","source":"熊本県 食品営業許可施設、届出施設データ"},"geometry":{"type":"Point","coordinates":[130.985602,32.684099]}},{"type":"Feature","properties":{"layer_id":"cafe_restaurant","address":"熊本県上益城郡山都町滝上２６６－１","source":"熊本県 食品営業許可施設、届出施設データ"},"geometry":{"type":"Point","coordinates":[131.147908,32.691247]}},{"type":"Feature","properties":{"layer_id":"cafe_restaurant","address":"熊本県上益城郡山都町長崎１２８８－４","source":"熊本県 食品営業許可施設、届出施設データ"},"geometry":{"type":"Point","coordinates":[131.170144,32.703213]}},{"type":"Feature","properties":{"layer_id":"cafe_restaurant","address":"熊本県上益城郡山都町滝上字花立谷367ｰ2","source":"熊本県 食品営業許可施設、届出施設データ"},"geometry":{"type":"Point","coordinates":[131.147908,32.691247]}},{"type":"Feature","properties":{"layer_id":"cafe_restaurant","address":"熊本県上益城郡山都町北中島２８７０－２","source":"熊本県 食品営業許可施設、届出施設データ"},"geometry":{"type":"Point","coordinates":[130.930458,32.750068]}},{"type":"Feature","properties":{"layer_id":"cafe_restaurant","address":"熊本県上益城郡山都町大平２８６－１","source":"熊本県 食品営業許可施設、届出施設データ"},"geometry":{"type":"Point","coordinates":[131.087592,32.689655]}},{"type":"Feature","properties":{"layer_id":"cafe_restaurant","address":"熊本県上益城郡山都町下馬尾堂の迫402－7","source":"熊本県 食品営業許可施設、届出施設データ"},"geometry":{"type":"Point","coordinates":[130.984333,32.686664]}},{"type":"Feature","properties":{"layer_id":"cafe_restaurant","address":"熊本県上益城郡山都町鶴ヶ田３０２２番地","source":"熊本県 食品営業許可施設、届出施設データ"},"geometry":{"type":"Point","coordinates":[131.077895,32.721052]}},{"type":"Feature","properties":{"layer_id":"cafe_restaurant","address":"熊本県上益城郡山都町今２９７番地","source":"熊本県 食品営業許可施設、届出施設データ"},"geometry":{"type":"Point","coordinates":[131.163371,32.726834]}},{"type":"Feature","properties":{"layer_id":"cafe_restaurant","address":"熊本県上益城郡山都町下市４２番地１","source":"熊本県 食品営業許可施設、届出施設データ"},"geometry":{"type":"Point","coordinates":[130.988346,32.681022]}},{"type":"Feature","properties":{"layer_id":"cafe_restaurant","address":"熊本県上益城郡山都町下市１５２番地４","source":"熊本県 食品営業許可施設、届出施設データ"},"geometry":{"type":"Point","coordinates":[130.988346,32.681022]}},{"type":"Feature","properties":{"layer_id":"cafe_restaurant","address":"熊本県上益城郡山都町浜町２４２","source":"熊本県 食品営業許可施設、届出施設データ"},"geometry":{"type":"Point","coordinates":[130.985602,32.684099]}},{"type":"Feature","properties":{"layer_id":"cafe_restaurant","address":"熊本県上益城郡山都町馬見原７０","source":"熊本県 食品営業許可施設、届出施設データ"},"geometry":{"type":"Point","coordinates":[131.162816,32.68142]}},{"type":"Feature","properties":{"layer_id":"cafe_restaurant","address":"熊本県上益城郡山都町滝上字松葉ヶ谷71番1","source":"熊本県 食品営業許可施設、届出施設データ"},"geometry":{"type":"Point","coordinates":[131.147908,32.691247]}},{"type":"Feature","properties":{"layer_id":"cafe_restaurant","address":"熊本県上益城郡山都町浜町１７２－１２","source":"熊本県 食品営業許可施設、届出施設データ"},"geometry":{"type":"Point","coordinates":[130.985602,32.684099]}},{"type":"Feature","properties":{"layer_id":"cafe_restaurant","address":"熊本県上益城郡山都町大平２７０","source":"熊本県 食品営業許可施設、届出施設データ"},"geometry":{"type":"Point","coordinates":[131.088594,32.689476]}},{"type":"Feature","properties":{"layer_id":"cafe_restaurant","address":"熊本県上益城郡山都町下市１６６－４","source":"熊本県 食品営業許可施設、届出施設データ"},"geometry":{"type":"Point","coordinates":[130.988346,32.681022]}},{"type":"Feature","properties":{"layer_id":"cafe_restaurant","address":"熊本県上益城郡山都町成君１２２１番地","source":"熊本県 食品営業許可施設、届出施設データ"},"geometry":{"type":"Point","coordinates":[131.040607,32.670739]}},{"type":"Feature","properties":{"layer_id":"cafe_restaurant","address":"熊本県上益城郡山都町城平１０１３－１","source":"熊本県 食品営業許可施設、届出施設データ"},"geometry":{"type":"Point","coordinates":[130.990355,32.698929]}},{"type":"Feature","properties":{"layer_id":"cafe_restaurant","address":"熊本県上益城郡山都町畑４７０","source":"熊本県 食品営業許可施設、届出施設データ"},"geometry":{"type":"Point","coordinates":[131.005382,32.689825]}},{"type":"Feature","properties":{"layer_id":"cafe_restaurant","address":"熊本県上益城郡山都町浜町８６－１","source":"熊本県 食品営業許可施設、届出施設データ"},"geometry":{"type":"Point","coordinates":[130.985602,32.684099]}},{"type":"Feature","properties":{"layer_id":"cafe_restaurant","address":"熊本県上益城郡山都町仏原３２３－２","source":"熊本県 食品営業許可施設、届出施設データ"},"geometry":{"type":"Point","coordinates":[131.109827,32.694448]}},{"type":"Feature","properties":{"layer_id":"cafe_restaurant","address":"熊本県上益城郡山都町浜町５４","source":"熊本県 食品営業許可施設、届出施設データ"},"geometry":{"type":"Point","coordinates":[130.985602,32.684099]}},{"type":"Feature","properties":{"layer_id":"cafe_restaurant","address":"上益城郡山都町大野５８３－１","source":"熊本県 食品営業許可施設、届出施設データ"},"geometry":{"type":"Point","coordinates":[131.129167,32.688963]}},{"type":"Feature","properties":{"layer_id":"cafe_restaurant","address":"上益城郡山都町米生２０１－３","source":"熊本県 食品営業許可施設、届出施設データ"},"geometry":{"type":"Point","coordinates":[131.086528,32.687703]}},{"type":"Feature","properties":{"layer_id":"cafe_restaurant","address":"上益城郡山都町牧野５８２","source":"熊本県 食品営業許可施設、届出施設データ"},"geometry":{"type":"Point","coordinates":[130.978842,32.664394]}},{"type":"Feature","properties":{"layer_id":"cafe_restaurant","address":"上益城郡山都町浜町７０","source":"熊本県 食品営業許可施設、届出施設データ"},"geometry":{"type":"Point","coordinates":[130.985602,32.684099]}},{"type":"Feature","properties":{"layer_id":"cafe_restaurant","address":"上益城郡山都町菅尾５３５－２","source":"熊本県 食品営業許可施設、届出施設データ"},"geometry":{"type":"Point","coordinates":[131.146475,32.710499]}},{"type":"Feature","properties":{"layer_id":"cafe_restaurant","address":"上益城郡山都町浜町１８５","source":"熊本県 食品営業許可施設、届出施設データ"},"geometry":{"type":"Point","coordinates":[130.985602,32.684099]}},{"type":"Feature","properties":{"layer_id":"cafe_restaurant","address":"上益城郡山都町菅尾２４２番地","source":"熊本県 食品営業許可施設、届出施設データ"},"geometry":{"type":"Point","coordinates":[131.146475,32.710499]}},{"type":"Feature","properties":{"layer_id":"cafe_restaurant","address":"上益城郡山都町北中島２１６６","source":"熊本県 食品営業許可施設、届出施設データ"},"geometry":{"type":"Point","coordinates":[130.930458,32.750068]}},{"type":"Feature","properties":{"layer_id":"cafe_restaurant","address":"上益城郡山都町浜町１１１番地の１","source":"熊本県 食品営業許可施設、届出施設データ"},"geometry":{"type":"Point","coordinates":[130.985602,32.684099]}},{"type":"Feature","properties":{"layer_id":"cafe_restaurant","address":"上益城郡山都町下市１５８","source":"熊本県 食品営業許可施設、届出施設データ"},"geometry":{"type":"Point","coordinates":[130.988346,32.681022]}},{"type":"Feature","properties":{"layer_id":"cafe_restaurant","address":"上益城郡山都町川口９６３－３","source":"熊本県 食品営業許可施設、届出施設データ"},"geometry":{"type":"Point","coordinates":[131.094238,32.730617]}},{"type":"Feature","properties":{"layer_id":"cafe_restaurant","address":"上益城郡山都町下市５","source":"熊本県 食品営業許可施設、届出施設データ"},"geometry":{"type":"Point","coordinates":[130.988346,32.681022]}},{"type":"Feature","properties":{"layer_id":"cafe_restaurant","address":"上益城郡山都町長崎３６１","source":"熊本県 食品営業許可施設、届出施設データ"},"geometry":{"type":"Point","coordinates":[131.162879,32.700116]}},{"type":"Feature","properties":{"layer_id":"cafe_restaurant","address":"上益城郡山都町城平６１４番地","source":"熊本県 食品営業許可施設、届出施設データ"},"geometry":{"type":"Point","coordinates":[130.990355,32.698929]}},{"type":"Feature","properties":{"layer_id":"cafe_restaurant","address":"上益城郡山都町北中島４０９番","source":"熊本県 食品営業許可施設、届出施設データ"},"geometry":{"type":"Point","coordinates":[130.930458,32.750068]}},{"type":"Feature","properties":{"layer_id":"cafe_restaurant","address":"上益城郡山都町野尻１０２８‐１","source":"熊本県 食品営業許可施設、届出施設データ"},"geometry":{"type":"Point","coordinates":[131.012281,32.685003]}},{"type":"Feature","properties":{"layer_id":"cafe_restaurant","address":"上益城郡山都町御所一の瀬６６５－２","source":"熊本県 食品営業許可施設、届出施設データ"},"geometry":{"type":"Point","coordinates":[131.049793,32.74121]}},{"type":"Feature","properties":{"layer_id":"cafe_restaurant","address":"上益城郡山都町下市１６１－４","source":"熊本県 食品営業許可施設、届出施設データ"},"geometry":{"type":"Point","coordinates":[130.988346,32.681022]}},{"type":"Feature","properties":{"layer_id":"cafe_restaurant","address":"上益城郡山都町大平２６５－１","source":"熊本県 食品営業許可施設、届出施設データ"},"geometry":{"type":"Point","coordinates":[131.088539,32.690008]}},{"type":"Feature","properties":{"layer_id":"cafe_restaurant","address":"上益城郡山都町浜町１８５－１","source":"熊本県 食品営業許可施設、届出施設データ"},"geometry":{"type":"Point","coordinates":[130.985602,32.684099]}},{"type":"Feature","properties":{"layer_id":"cafe_restaurant","address":"上益城郡山都町浜町１４４","source":"熊本県 食品営業許可施設、届出施設データ"},"geometry":{"type":"Point","coordinates":[130.985602,32.684099]}},{"type":"Feature","properties":{"layer_id":"cafe_restaurant","address":"上益城郡山都町浜町１８７","source":"熊本県 食品営業許可施設、届出施設データ"},"geometry":{"type":"Point","coordinates":[130.985602,32.684099]}},{"type":"Feature","properties":{"layer_id":"cafe_restaurant","address":"上益城郡山都町川野２２０６－１","source":"熊本県 食品営業許可施設、届出施設データ"},"geometry":{"type":"Point","coordinates":[131.034347,32.679439]}},{"type":"Feature","properties":{"layer_id":"cafe_restaurant","address":"上益城郡山都町下市５５－９","source":"熊本県 食品営業許可施設、届出施設データ"},"geometry":{"type":"Point","coordinates":[130.988346,32.681022]}},{"type":"Feature","properties":{"layer_id":"cafe_restaurant","address":"上益城郡山都町下馬尾１５１－１","source":"熊本県 食品営業許可施設、届出施設データ"},"geometry":{"type":"Point","coordinates":[130.984333,32.686664]}},{"type":"Feature","properties":{"layer_id":"cafe_restaurant","address":"上益城郡山都町浜町１４４","source":"熊本県 食品営業許可施設、届出施設データ"},"geometry":{"type":"Point","coordinates":[130.985602,32.684099]}},{"type":"Feature","properties":{"layer_id":"cafe_restaurant","address":"上益城郡山都町馬見原１１６－１","source":"熊本県 食品営業許可施設、届出施設データ"},"geometry":{"type":"Point","coordinates":[131.162816,32.68142]}},{"type":"Feature","properties":{"layer_id":"cafe_restaurant","address":"上益城郡山都町浜町１３２番地","source":"熊本県 食品営業許可施設、届出施設データ"},"geometry":{"type":"Point","coordinates":[130.985602,32.684099]}},{"type":"Feature","properties":{"layer_id":"cafe_restaurant","address":"上益城郡山都町下市３８ー３","source":"熊本県 食品営業許可施設、届出施設データ"},"geometry":{"type":"Point","coordinates":[130.988346,32.681022]}},{"type":"Feature","properties":{"layer_id":"cafe_restaurant","address":"上益城郡山都町下名連石新４－１","source":"熊本県 食品営業許可施設、届出施設データ"},"geometry":{"type":"Point","coordinates":[131.007995,32.739198]}},{"type":"Feature","properties":{"layer_id":"cafe_restaurant","address":"上益城郡山都町馬見原字古園２１７－１","source":"熊本県 食品営業許可施設、届出施設データ"},"geometry":{"type":"Point","coordinates":[131.162816,32.68142]}},{"type":"Feature","properties":{"layer_id":"cafe_restaurant","address":"上益城郡山都町浜町８７","source":"熊本県 食品営業許可施設、届出施設データ"},"geometry":{"type":"Point","coordinates":[130.985602,32.684099]}},{"type":"Feature","properties":{"layer_id":"cafe_restaurant","address":"上益城郡山都町浜町１１８","source":"熊本県 食品営業許可施設、届出施設データ"},"geometry":{"type":"Point","coordinates":[130.985602,32.684099]}},{"type":"Feature","properties":{"layer_id":"cafe_restaurant","address":"上益城郡山都町浜町字新町８３","source":"熊本県 食品営業許可施設、届出施設データ"},"geometry":{"type":"Point","coordinates":[130.985602,32.684099]}},{"type":"Feature","properties":{"layer_id":"cafe_restaurant","address":"上益城郡山都町緑川３７１５－１","source":"熊本県 食品営業許可施設、届出施設データ"},"geometry":{"type":"Point","coordinates":[131.090701,32.633213]}},{"type":"Feature","properties":{"layer_id":"cafe_restaurant","address":"上益城郡山都町下市１８４－１","source":"熊本県 食品営業許可施設、届出施設データ"},"geometry":{"type":"Point","coordinates":[130.988346,32.681022]}},{"type":"Feature","properties":{"layer_id":"cafe_restaurant","address":"上益城郡山都町下市１８４－１","source":"熊本県 食品営業許可施設、届出施設データ"},"geometry":{"type":"Point","coordinates":[130.988346,32.681022]}},{"type":"Feature","properties":{"layer_id":"cafe_restaurant","address":"上益城郡山都町大平152番地","source":"熊本県 食品営業許可施設、届出施設データ"},"geometry":{"type":"Point","coordinates":[131.09208,32.690673]}},{"type":"Feature","properties":{"layer_id":"cafe_restaurant","address":"上益城郡山都町柏道長７６５－４","source":"熊本県 食品営業許可施設、届出施設データ"},"geometry":{"type":"Point","coordinates":[131.171702,32.741084]}},{"type":"Feature","properties":{"layer_id":"cafe_restaurant","address":"上益城郡山都町下市４３－３","source":"熊本県 食品営業許可施設、届出施設データ"},"geometry":{"type":"Point","coordinates":[130.988346,32.681022]}},{"type":"Feature","properties":{"layer_id":"cafe_restaurant","address":"上益城郡山都町長原１９２－１","source":"熊本県 食品営業許可施設、届出施設データ"},"geometry":{"type":"Point","coordinates":[130.99217,32.679954]}},{"type":"Feature","properties":{"layer_id":"cafe_restaurant","address":"上益城郡山都町長原１９２番地１","source":"熊本県 食品営業許可施設、届出施設データ"},"geometry":{"type":"Point","coordinates":[130.99217,32.679954]}},{"type":"Feature","properties":{"layer_id":"cafe_restaurant","address":"上益城郡山都町北中島２２２８","source":"熊本県 食品営業許可施設、届出施設データ"},"geometry":{"type":"Point","coordinates":[130.930458,32.750068]}},{"type":"Feature","properties":{"layer_id":"cafe_restaurant","address":"上益城郡山都町馬見原６１－３","source":"熊本県 食品営業許可施設、届出施設データ"},"geometry":{"type":"Point","coordinates":[131.162816,32.68142]}},{"type":"Feature","properties":{"layer_id":"cafe_restaurant","address":"上益城郡山都町畑４５８－１","source":"熊本県 食品営業許可施設、届出施設データ"},"geometry":{"type":"Point","coordinates":[130.997189,32.688523]}},{"type":"Feature","properties":{"layer_id":"cafe_restaurant","address":"上益城郡山都町城平６１４","source":"熊本県 食品営業許可施設、届出施設データ"},"geometry":{"type":"Point","coordinates":[130.990355,32.698929]}},{"type":"Feature","properties":{"layer_id":"cafe_restaurant","address":"上益城郡山都町大平３５３番地１","source":"熊本県 食品営業許可施設、届出施設データ"},"geometry":{"type":"Point","coordinates":[131.086122,32.69011]}},{"type":"Feature","properties":{"layer_id":"cafe_restaurant","address":"上益城郡山都町下馬尾２８３","source":"熊本県 食品営業許可施設、届出施設データ"},"geometry":{"type":"Point","coordinates":[130.984333,32.686664]}},{"type":"Feature","properties":{"layer_id":"cafe_restaurant","address":"上益城郡山都町大野３３２の１","source":"熊本県 食品営業許可施設、届出施設データ"},"geometry":{"type":"Point","coordinates":[131.134273,32.686636]}},{"type":"Feature","properties":{"layer_id":"cafe_restaurant","address":"上益城郡山都町大平２９２","source":"熊本県 食品営業許可施設、届出施設データ"},"geometry":{"type":"Point","coordinates":[131.076206,32.69431]}},{"type":"Feature","properties":{"layer_id":"cafe_restaurant","address":"上益城郡山都町大平１５２番地","source":"熊本県 食品営業許可施設、届出施設データ"},"geometry":{"type":"Point","coordinates":[131.09208,32.690673]}},{"type":"Feature","properties":{"layer_id":"cafe_restaurant","address":"上益城郡山都町菅尾１３４４－１","source":"熊本県 食品営業許可施設、届出施設データ"},"geometry":{"type":"Point","coordinates":[131.15036,32.715422]}},{"type":"Feature","properties":{"layer_id":"cafe_restaurant","address":"上益城郡山都町入佐脇８１－１","source":"熊本県 食品営業許可施設、届出施設データ"},"geometry":{"type":"Point","coordinates":[131.002297,32.699163]}},{"type":"Feature","properties":{"layer_id":"cafe_restaurant","address":"上益城郡山都町城平１０１０","source":"熊本県 食品営業許可施設、届出施設データ"},"geometry":{"type":"Point","coordinates":[130.990355,32.698929]}},{"type":"Feature","properties":{"layer_id":"cafe_restaurant","address":"上益城郡山都町下市１６５－４","source":"熊本県 食品営業許可施設、届出施設データ"},"geometry":{"type":"Point","coordinates":[130.988346,32.681022]}},{"type":"Feature","properties":{"layer_id":"cafe_restaurant","address":"上益城郡山都町浜町２３３番地","source":"熊本県 食品営業許可施設、届出施設データ"},"geometry":{"type":"Point","coordinates":[130.985602,32.684099]}},{"type":"Feature","properties":{"layer_id":"cafe_restaurant","address":"上益城郡山都町北中島2692-5","source":"熊本県 食品営業許可施設、届出施設データ"},"geometry":{"type":"Point","coordinates":[130.930458,32.750068]}},{"type":"Feature","properties":{"layer_id":"cafe_restaurant","address":"上益城郡山都町大平字下鶴322-1","source":"熊本県 食品営業許可施設、届出施設データ"},"geometry":{"type":"Point","coordinates":[131.076206,32.69431]}},{"type":"Feature","properties":{"layer_id":"cafe_restaurant","address":"上益城郡山都町北中島牟田口２８５０－１９","source":"熊本県 食品営業許可施設、届出施設データ"},"geometry":{"type":"Point","coordinates":[130.930458,32.750068]}},{"type":"Feature","properties":{"layer_id":"cafe_restaurant","address":"上益城郡山都町北中島２８６２番地３","source":"熊本県 食品営業許可施設、届出施設データ"},"geometry":{"type":"Point","coordinates":[130.930458,32.750068]}},{"type":"Feature","properties":{"layer_id":"cafe_restaurant","address":"上益城郡山都町馬見原８３８","source":"熊本県 食品営業許可施設、届出施設データ"},"geometry":{"type":"Point","coordinates":[131.162816,32.68142]}},{"type":"Feature","properties":{"layer_id":"cafe_restaurant","address":"上益城郡山都町北中島２７０１","source":"熊本県 食品営業許可施設、届出施設データ"},"geometry":{"type":"Point","coordinates":[130.930458,32.750068]}},{"type":"Feature","properties":{"layer_id":"cafe_restaurant","address":"上益城郡山都町今３６５番４","source":"熊本県 食品営業許可施設、届出施設データ"},"geometry":{"type":"Point","coordinates":[131.167439,32.727559]}},{"type":"Feature","properties":{"layer_id":"cafe_restaurant","address":"上益城郡山都町浜町１３５","source":"熊本県 食品営業許可施設、届出施設データ"},"geometry":{"type":"Point","coordinates":[130.985602,32.684099]}},{"type":"Feature","properties":{"layer_id":"cafe_restaurant","address":"上益城郡山都町下市５５番地３","source":"熊本県 食品営業許可施設、届出施設データ"},"geometry":{"type":"Point","coordinates":[130.988346,32.681022]}},{"type":"Feature","properties":{"layer_id":"cafe_restaurant","address":"上益城郡山都町城平６１４　えびすぱーな内","source":"熊本県 食品営業許可施設、届出施設データ"},"geometry":{"type":"Point","coordinates":[130.990355,32.698929]}},{"type":"Feature","properties":{"layer_id":"cafe_restaurant","address":"上益城郡山都町上寺１７７３－３","source":"熊本県 食品営業許可施設、届出施設データ"},"geometry":{"type":"Point","coordinates":[130.97943,32.697432]}},{"type":"Feature","properties":{"layer_id":"cafe_restaurant","address":"上益城郡山都町男成２２ー１","source":"熊本県 食品営業許可施設、届出施設データ"},"geometry":{"type":"Point","coordinates":[131.025092,32.684673]}},{"type":"Feature","properties":{"layer_id":"cafe_restaurant","address":"上益城郡山都町男成４５８","source":"熊本県 食品営業許可施設、届出施設データ"},"geometry":{"type":"Point","coordinates":[131.025092,32.684673]}},{"type":"Feature","properties":{"layer_id":"cafe_restaurant","address":"上益城郡山都町浜町７６","source":"熊本県 食品営業許可施設、届出施設データ"},"geometry":{"type":"Point","coordinates":[130.985602,32.684099]}},{"type":"Feature","properties":{"layer_id":"cafe_restaurant","address":"上益城郡山都町下馬尾字前田２８９－３","source":"熊本県 食品営業許可施設、届出施設データ"},"geometry":{"type":"Point","coordinates":[130.984333,32.686664]}},{"type":"Feature","properties":{"layer_id":"cafe_restaurant","address":"上益城郡山都町柏字八久保７００－５","source":"熊本県 食品営業許可施設、届出施設データ"},"geometry":{"type":"Point","coordinates":[131.171702,32.741084]}},{"type":"Feature","properties":{"layer_id":"cafe_restaurant","address":"上益城郡山都町城平６１４","source":"熊本県 食品営業許可施設、届出施設データ"},"geometry":{"type":"Point","coordinates":[130.990355,32.698929]}},{"type":"Feature","properties":{"layer_id":"cafe_restaurant","address":"上益城郡山都町白小野１６８","source":"熊本県 食品営業許可施設、届出施設データ"},"geometry":{"type":"Point","coordinates":[130.964164,32.661559]}},{"type":"Feature","properties":{"layer_id":"cafe_restaurant","address":"上益城郡山都町下馬尾４０２－７","source":"熊本県 食品営業許可施設、届出施設データ"},"geometry":{"type":"Point","coordinates":[130.984333,32.686664]}},{"type":"Feature","properties":{"layer_id":"cafe_restaurant","address":"上益城郡山都町東竹原９６７－４","source":"熊本県 食品営業許可施設、届出施設データ"},"geometry":{"type":"Point","coordinates":[131.189548,32.792401]}},{"type":"Feature","properties":{"layer_id":"cafe_restaurant","address":"上益城郡山都町金内３０３","source":"熊本県 食品営業許可施設、届出施設データ"},"geometry":{"type":"Point","coordinates":[130.96149,32.751618]}},{"type":"Feature","properties":{"layer_id":"cafe_restaurant","address":"上益城郡山都町下馬尾２６９の２","source":"熊本県 食品営業許可施設、届出施設データ"},"geometry":{"type":"Point","coordinates":[130.984333,32.686664]}},{"type":"Feature","properties":{"layer_id":"cafe_restaurant","address":"上益城郡山都町浜町９８","source":"熊本県 食品営業許可施設、届出施設データ"},"geometry":{"type":"Point","coordinates":[130.985602,32.684099]}},{"type":"Feature","properties":{"layer_id":"cafe_restaurant","address":"上益城郡山都町滝上３６７","source":"熊本県 食品営業許可施設、届出施設データ"},"geometry":{"type":"Point","coordinates":[131.147908,32.691247]}},{"type":"Feature","properties":{"layer_id":"cafe_restaurant","address":"上益城郡山都町下市５６－６","source":"熊本県 食品営業許可施設、届出施設データ"},"geometry":{"type":"Point","coordinates":[130.988346,32.681022]}},{"type":"Feature","properties":{"layer_id":"cafe_restaurant","address":"上益城郡山都町入佐脇６０－１","source":"熊本県 食品営業許可施設、届出施設データ"},"geometry":{"type":"Point","coordinates":[131.002297,32.699163]}},{"type":"Feature","properties":{"layer_id":"cafe_restaurant","address":"上益城郡山都町今２９７","source":"熊本県 食品営業許可施設、届出施設データ"},"geometry":{"type":"Point","coordinates":[131.163371,32.726834]}},{"type":"Feature","properties":{"layer_id":"cafe_restaurant","address":"上益城郡山都町柳井原９２９－１","source":"熊本県 食品営業許可施設、届出施設データ"},"geometry":{"type":"Point","coordinates":[131.137019,32.690404]}},{"type":"Feature","properties":{"layer_id":"cafe_restaurant","address":"上益城郡山都町菅尾１２６３番地","source":"熊本県 食品営業許可施設、届出施設データ"},"geometry":{"type":"Point","coordinates":[131.146475,32.710499]}},{"type":"Feature","properties":{"layer_id":"cafe_restaurant","address":"上益城郡山都町尾野尻８１９－２","source":"熊本県 食品営業許可施設、届出施設データ"},"geometry":{"type":"Point","coordinates":[131.077936,32.660316]}},{"type":"Feature","properties":{"layer_id":"cafe_restaurant","address":"上益城郡山都町浜町１６７番地","source":"熊本県 食品営業許可施設、届出施設データ"},"geometry":{"type":"Point","coordinates":[130.985602,32.684099]}},{"type":"Feature","properties":{"layer_id":"cafe_restaurant","address":"上益城郡山都町下馬尾２０４","source":"熊本県 食品営業許可施設、届出施設データ"},"geometry":{"type":"Point","coordinates":[130.984333,32.686664]}},{"type":"Feature","properties":{"layer_id":"cafe_restaurant","address":"上益城郡山都町北中島２８０６","source":"熊本県 食品営業許可施設、届出施設データ"},"geometry":{"type":"Point","coordinates":[130.930458,32.750068]}},{"type":"Feature","properties":{"layer_id":"cafe_restaurant","address":"上益城郡山都町北中島２６８４－２","source":"熊本県 食品営業許可施設、届出施設データ"},"geometry":{"type":"Point","coordinates":[130.930458,32.750068]}},{"type":"Feature","properties":{"layer_id":"cafe_restaurant","address":"上益城郡山都町今２９７","source":"熊本県 食品営業許可施設、届出施設データ"},"geometry":{"type":"Point","coordinates":[131.163371,32.726834]}},{"type":"Feature","properties":{"layer_id":"cafe_restaurant","address":"上益城郡山都町上寺２１７８－５","source":"熊本県 食品営業許可施設、届出施設データ"},"geometry":{"type":"Point","coordinates":[130.976393,32.689194]}},{"type":"Feature","properties":{"layer_id":"cafe_restaurant","address":"上益城郡山都町南田字西間原308－1、309－3","source":"熊本県 食品営業許可施設、届出施設データ"},"geometry":{"type":"Point","coordinates":[130.973602,32.677802]}},{"type":"Feature","properties":{"layer_id":"cafe_restaurant","address":"上益城郡山都町滝上２２３－１","source":"熊本県 食品営業許可施設、届出施設データ"},"geometry":{"type":"Point","coordinates":[131.140194,32.688255]}},{"type":"Feature","properties":{"layer_id":"cafe_restaurant","name":"味処　政","address":"熊本県上益城郡山都町仏原１６０－１","source":"厚生労働省 食品衛生申請等システム（オープンデータ）"},"geometry":{"type":"Point","coordinates":[131.105866,32.693717]}},{"type":"Feature","properties":{"layer_id":"cafe_restaurant","name":"ケアハウス光露館","address":"熊本県上益城郡山都町北中島2710－3","source":"厚生労働省 食品衛生申請等システム（オープンデータ）"},"geometry":{"type":"Point","coordinates":[130.937312,32.731695]}},{"type":"Feature","properties":{"layer_id":"cafe_restaurant","name":"介護老人保健施設　彩雲苑","address":"熊本県上益城郡山都町北中島２７０１","source":"厚生労働省 食品衛生申請等システム（オープンデータ）"},"geometry":{"type":"Point","coordinates":[130.938501,32.732808]}},{"type":"Feature","properties":{"layer_id":"cafe_restaurant","name":"歌瀬キャンプ場","address":"熊本県上益城郡山都町菅尾１３４４－１","source":"厚生労働省 食品衛生申請等システム（オープンデータ）"},"geometry":{"type":"Point","coordinates":[131.150797,32.714859]}},{"type":"Feature","properties":{"layer_id":"cafe_restaurant","name":"肉のみやべ","address":"熊本県上益城郡山都町馬見原６１－３","source":"厚生労働省 食品衛生申請等システム（オープンデータ）"},"geometry":{"type":"Point","coordinates":[131.155579,32.680574]}},{"type":"Feature","properties":{"layer_id":"cafe_restaurant","name":"通潤酒造","address":"熊本県上益城郡山都町浜町54","source":"厚生労働省 食品衛生申請等システム（オープンデータ）"},"geometry":{"type":"Point","coordinates":[130.987363,32.684896]}},{"type":"Feature","properties":{"layer_id":"cafe_restaurant","name":"BLANCO ICE CREAM","address":"熊本県上益城郡山都町城平13-1","source":"厚生労働省 食品衛生申請等システム（オープンデータ）"},"geometry":{"type":"Point","coordinates":[130.989354,32.686596]}},{"type":"Feature","properties":{"layer_id":"cafe_restaurant","name":"ニューヤマザキデイリーストア　JAかみましき矢部店","address":"熊本県上益城郡山都町北中島2692-5","source":"厚生労働省 食品衛生申請等システム（オープンデータ）"},"geometry":{"type":"Point","coordinates":[130.937603,32.734328]}},{"type":"Feature","properties":{"layer_id":"cafe_restaurant","name":"服掛松キャンプ場","address":"熊本県上益城郡山都町長崎３６１","source":"厚生労働省 食品衛生申請等システム（オープンデータ）"},"geometry":{"type":"Point","coordinates":[131.163767,32.698787]}},{"type":"Feature","properties":{"layer_id":"cafe_restaurant","name":"狐狸庵","address":"熊本県上益城郡山都町牧野30-5","source":"厚生労働省 食品衛生申請等システム（オープンデータ）"},"geometry":{"type":"Point","coordinates":[130.981055,32.670317]}},{"type":"Feature","properties":{"layer_id":"cafe_restaurant","name":"レストラン　みづひき","address":"熊本県上益城郡山都町塩原942-2","source":"厚生労働省 食品衛生申請等システム（オープンデータ）"},"geometry":{"type":"Point","coordinates":[131.137596,32.702603]}},{"type":"Feature","properties":{"layer_id":"cafe_restaurant","name":"一の瀬水源やまめ養魚所","address":"熊本県上益城郡山都町御所一の瀬665-2","source":"厚生労働省 食品衛生申請等システム（オープンデータ）"},"geometry":{"type":"Point","coordinates":[131.049484,32.750341]}},{"type":"Feature","properties":{"layer_id":"cafe_restaurant","name":"Appartement","address":"熊本県上益城郡山都町下市57","source":"厚生労働省 食品衛生申請等システム（オープンデータ）"},"geometry":{"type":"Point","coordinates":[130.987984,32.683667]}},{"type":"Feature","properties":{"layer_id":"cafe_restaurant","name":"ファミリーマート山都町役場前店","address":"熊本県上益城郡山都町城平718","source":"厚生労働省 食品衛生申請等システム（オープンデータ）"},"geometry":{"type":"Point","coordinates":[130.989215,32.688678]}},{"type":"Feature","properties":{"layer_id":"cafe_restaurant","name":"STOCK","address":"熊本県上益城郡山都町大野332-1","source":"厚生労働省 食品衛生申請等システム（オープンデータ）"},"geometry":{"type":"Point","coordinates":[131.134187,32.686408]}},{"type":"Feature","properties":{"layer_id":"cafe_restaurant","name":"瑠華","address":"熊本県上益城郡山都町浜町185の1","source":"厚生労働省 食品衛生申請等システム（オープンデータ）"},"geometry":{"type":"Point","coordinates":[130.985722,32.68502]}},{"type":"Feature","properties":{"layer_id":"cafe_restaurant","name":"MOMINOKI","address":"熊本県上益城郡山都町今297","source":"厚生労働省 食品衛生申請等システム（オープンデータ）"},"geometry":{"type":"Point","coordinates":[131.163488,32.726574]}},{"type":"Feature","properties":{"layer_id":"cafe_restaurant","name":"通潤山荘","address":"熊本県上益城郡山都町長原１９２－１","source":"厚生労働省 食品衛生申請等システム（オープンデータ）"},"geometry":{"type":"Point","coordinates":[130.992008,32.67999]}},{"type":"Feature","properties":{"layer_id":"cafe_restaurant","name":"喫茶フライデー13","address":"熊本県上益城郡山都町浜町98番地","source":"厚生労働省 食品衛生申請等システム（オープンデータ）"},"geometry":{"type":"Point","coordinates":[130.990841,32.684758]}},{"type":"Feature","properties":{"layer_id":"cafe_restaurant","name":"JUGAAD BROS DOUGHNUTS","address":"熊本県上益城郡山都町馬見原中鶴102-1","source":"厚生労働省 食品衛生申請等システム（オープンデータ）"},"geometry":{"type":"Point","coordinates":[131.1536,32.68348]}},{"type":"Feature","properties":{"layer_id":"cafe_restaurant","name":"穀物屋総本店シリアルヤ","address":"熊本県上益城郡山都町大平70-1","source":"厚生労働省 食品衛生申請等システム（オープンデータ）"},"geometry":{"type":"Point","coordinates":[131.093022,32.693417]}},{"type":"Feature","properties":{"layer_id":"cafe_restaurant","name":"Bagus","address":"熊本県上益城郡山都町下市42-1","source":"厚生労働省 食品衛生申請等システム（オープンデータ）"},"geometry":{"type":"Point","coordinates":[130.989634,32.683174]}},{"type":"Feature","properties":{"layer_id":"cafe_restaurant","name":"穀物屋総本店　シリアルヤ","address":"熊本県上益城郡山都町浜町９７ グリーンビル　１F","source":"厚生労働省 食品衛生申請等システム（オープンデータ）"},"geometry":{"type":"Point","coordinates":[130.990624,32.684585]}},{"type":"Feature","properties":{"layer_id":"cafe_restaurant","name":"古民家ガーデンカフェ　ナンシーズ","address":"熊本県上益城郡山都町小峰１５４０","source":"厚生労働省 食品衛生申請等システム（オープンデータ）"},"geometry":{"type":"Point","coordinates":[131.071018,32.673648]}},{"type":"Feature","properties":{"layer_id":"cafe_restaurant","name":"そば文楽天神庵","address":"熊本県上益城郡山都町大平字下鶴２６７－１","source":"厚生労働省 食品衛生申請等システム（オープンデータ）"},"geometry":{"type":"Point","coordinates":[131.15028,32.684464]}},{"type":"Feature","properties":{"layer_id":"cafe_restaurant","name":"ニューヤマザキデイリーストアー山都清和店","address":"熊本県上益城郡山都町大平字下鶴３２９－１","source":"厚生労働省 食品衛生申請等システム（オープンデータ）"},"geometry":{"type":"Point","coordinates":[131.15028,32.684464]}},{"type":"Feature","properties":{"layer_id":"cafe_restaurant","name":"ｂａｒ　ｔｅｔｏ","address":"熊本県上益城郡山都町大平２８６番地","source":"厚生労働省 食品衛生申請等システム（オープンデータ）"},"geometry":{"type":"Point","coordinates":[131.087932,32.689746]}},{"type":"Feature","properties":{"layer_id":"cafe_restaurant","name":"味の山一","address":"熊本県上益城郡山都町菅尾１２６３","source":"厚生労働省 食品衛生申請等システム（オープンデータ）"},"geometry":{"type":"Point","coordinates":[131.148527,32.713589]}},{"type":"Feature","properties":{"layer_id":"cafe_restaurant","name":"居酒屋かぼちゃ","address":"熊本県上益城郡山都町下馬尾１５１番地１","source":"厚生労働省 食品衛生申請等システム（オープンデータ）"},"geometry":{"type":"Point","coordinates":[130.981335,32.684868]}},{"type":"Feature","properties":{"layer_id":"cafe_restaurant","name":"ＧＩＶＥ　ＭＥ　Ａ　ＬＩＴＴＬＥ　ＤＲＡＧＯＮ","address":"熊本県上益城郡山都町北中島長谷１１１５－３","source":"厚生労働省 食品衛生申請等システム（オープンデータ）"},"geometry":{"type":"Point","coordinates":[130.923339,32.739165]}},{"type":"Feature","properties":{"layer_id":"cafe_restaurant","name":"旬彩","address":"熊本県上益城郡山都町杉木1788","source":"厚生労働省 食品衛生申請等システム（オープンデータ）"},"geometry":{"type":"Point","coordinates":[130.977399,32.707866]}},{"type":"Feature","properties":{"layer_id":"cafe_restaurant","name":"手打ちうどんしん","address":"熊本県上益城郡山都町大平265-1","source":"厚生労働省 食品衛生申請等システム（オープンデータ）"},"geometry":{"type":"Point","coordinates":[131.088571,32.690015]}},{"type":"Feature","properties":{"layer_id":"cafe_restaurant","name":"居酒屋　きやす","address":"熊本県上益城郡山都町大平353-1","source":"厚生労働省 食品衛生申請等システム（オープンデータ）"},"geometry":{"type":"Point","coordinates":[131.08619,32.690171]}},{"type":"Feature","properties":{"layer_id":"cafe_restaurant","name":"味千食堂　清和店","address":"熊本県上益城郡山都町大平286","source":"厚生労働省 食品衛生申請等システム（オープンデータ）"},"geometry":{"type":"Point","coordinates":[131.087951,32.689739]}},{"type":"Feature","properties":{"layer_id":"cafe_restaurant","name":"割烹　くま川","address":"熊本県上益城郡山都町城原170-23","source":"厚生労働省 食品衛生申請等システム（オープンデータ）"},"geometry":{"type":"Point","coordinates":[130.991787,32.685192]}},{"type":"Feature","properties":{"layer_id":"cafe_restaurant","name":"よこまち梅太郎","address":"熊本県上益城郡山都町浜町172‐3","source":"厚生労働省 食品衛生申請等システム（オープンデータ）"},"geometry":{"type":"Point","coordinates":[130.986663,32.684206]}},{"type":"Feature","properties":{"layer_id":"cafe_restaurant","name":"清和郷土料理館","address":"熊本県上益城郡山都町大平152","source":"厚生労働省 食品衛生申請等システム（オープンデータ）"},"geometry":{"type":"Point","coordinates":[131.092112,32.690885]}},{"type":"Feature","properties":{"layer_id":"cafe_restaurant","name":"ふらっとカフェ","address":"熊本県上益城郡山都町浜町180","source":"厚生労働省 食品衛生申請等システム（オープンデータ）"},"geometry":{"type":"Point","coordinates":[130.986281,32.684784]}},{"type":"Feature","properties":{"layer_id":"cafe_restaurant","name":"レストラン星座の森","address":"熊本県上益城郡山都町井無田1238-14","source":"厚生労働省 食品衛生申請等システム（オープンデータ）"},"geometry":{"type":"Point","coordinates":[131.098484,32.741054]}},{"type":"Feature","properties":{"layer_id":"cafe_restaurant","name":"山の未来舎","address":"熊本県上益城郡山都町菅尾242","source":"厚生労働省 食品衛生申請等システム（オープンデータ）"},"geometry":{"type":"Point","coordinates":[131.14265,32.711033]}},{"type":"Feature","properties":{"layer_id":"cafe_restaurant","name":"hostel ＆ cafe たね","address":"熊本県上益城郡山都町大野285番地1","source":"厚生労働省 食品衛生申請等システム（オープンデータ）"},"geometry":{"type":"Point","coordinates":[131.132723,32.68557]}},{"type":"Feature","properties":{"layer_id":"cafe_restaurant","name":"吹上売店","address":"熊本県上益城郡山都町長原221","source":"厚生労働省 食品衛生申請等システム（オープンデータ）"},"geometry":{"type":"Point","coordinates":[130.99023,32.674008]}},{"type":"Feature","properties":{"layer_id":"cafe_restaurant","name":"鮎の瀬交流館","address":"熊本県上益城郡山都町菅488番の１","source":"厚生労働省 食品衛生申請等システム（オープンデータ）"},"geometry":{"type":"Point","coordinates":[131.004126,32.646017]}},{"type":"Feature","properties":{"layer_id":"cafe_restaurant","name":"山都でしか「浮舟」","address":"熊本県上益城郡山都町下市石原ノ下１５９－１","source":"厚生労働省 食品衛生申請等システム（オープンデータ）"},"geometry":{"type":"Point","coordinates":[130.987708,32.679702]}},{"type":"Feature","properties":{"layer_id":"cafe_restaurant","name":"中原鮮魚","address":"熊本県上益城郡山都町馬見原85","source":"厚生労働省 食品衛生申請等システム（オープンデータ）"},"geometry":{"type":"Point","coordinates":[131.152854,32.68072]}},{"type":"Feature","properties":{"layer_id":"cafe_restaurant","name":"みさどん","address":"熊本県上益城郡山都町城平340","source":"厚生労働省 食品衛生申請等システム（オープンデータ）"},"geometry":{"type":"Point","coordinates":[130.988567,32.689453]}},{"type":"Feature","properties":{"layer_id":"cafe_restaurant","name":"合資会社本薩摩屋","address":"熊本県上益城郡山都町浜町１３２番地","source":"厚生労働省 食品衛生申請等システム（オープンデータ）"},"geometry":{"type":"Point","coordinates":[130.988631,32.684484]}},{"type":"Feature","properties":{"layer_id":"cafe_restaurant","name":"ひろ家","address":"熊本県上益城郡山都町下市55-7","source":"厚生労働省 食品衛生申請等システム（オープンデータ）"},"geometry":{"type":"Point","coordinates":[130.988328,32.683867]}},{"type":"Feature","properties":{"layer_id":"cafe_restaurant","name":"平家の湯","address":"熊本県上益城郡山都町目丸3856","source":"厚生労働省 食品衛生申請等システム（オープンデータ）"},"geometry":{"type":"Point","coordinates":[130.988358,32.640663]}},{"type":"Feature","properties":{"layer_id":"cafe_restaurant","name":"道の駅　通潤橋","address":"熊本県上益城郡山都町城平660","source":"厚生労働省 食品衛生申請等システム（オープンデータ）"},"geometry":{"type":"Point","coordinates":[130.99023,32.699844]}},{"type":"Feature","properties":{"layer_id":"cafe_restaurant","name":"藤木屋旅館","address":"熊本県上益城郡山都町浜町８７","source":"厚生労働省 食品衛生申請等システム（オープンデータ）"},"geometry":{"type":"Point","coordinates":[130.989953,32.684693]}},{"type":"Feature","properties":{"layer_id":"cafe_restaurant","name":"舟の口食堂","address":"熊本県上益城郡山都町長崎１２８８－４","source":"厚生労働省 食品衛生申請等システム（オープンデータ）"},"geometry":{"type":"Point","coordinates":[131.178299,32.708307]}},{"type":"Feature","properties":{"layer_id":"cafe_restaurant","name":"たこやき大阪蜂来饅頭蘇陽店","address":"熊本県上益城郡山都町滝上２６６－１","source":"厚生労働省 食品衛生申請等システム（オープンデータ）"},"geometry":{"type":"Point","coordinates":[131.143771,32.681074]}},{"type":"Feature","properties":{"layer_id":"cafe_restaurant","name":"日本料理　紗陶","address":"熊本県上益城郡山都町浜町１７２番地１２","source":"厚生労働省 食品衛生申請等システム（オープンデータ）"},"geometry":{"type":"Point","coordinates":[130.986663,32.684206]}},{"type":"Feature","properties":{"layer_id":"cafe_restaurant","name":"やじろべえ","address":"熊本県上益城郡山都町馬見原２１７－１","source":"厚生労働省 食品衛生申請等システム（オープンデータ）"},"geometry":{"type":"Point","coordinates":[131.15403,32.68341]}},{"type":"Feature","properties":{"layer_id":"cafe_restaurant","name":"CAFE　KOTONOHA","address":"熊本県上益城郡山都町下市１５２番地４","source":"厚生労働省 食品衛生申請等システム（オープンデータ）"},"geometry":{"type":"Point","coordinates":[130.990598,32.682002]}},{"type":"Feature","properties":{"layer_id":"cafe_restaurant","name":"MILKY WAY（ミルキィ ウェイ）","address":"熊本県上益城郡山都町大平２６５－１","source":"厚生労働省 食品衛生申請等システム（オープンデータ）"},"geometry":{"type":"Point","coordinates":[131.088571,32.690015]}},{"type":"Feature","properties":{"layer_id":"cafe_restaurant","name":"キャベツ","address":"熊本県上益城郡山都町北中島２８７０－２","source":"厚生労働省 食品衛生申請等システム（オープンデータ）"},"geometry":{"type":"Point","coordinates":[130.934073,32.73997]}},{"type":"Feature","properties":{"layer_id":"cafe_restaurant","name":"８０８","address":"熊本県上益城郡山都町北中島１７１７","source":"厚生労働省 食品衛生申請等システム（オープンデータ）"},"geometry":{"type":"Point","coordinates":[130.899918,32.738531]}},{"type":"Feature","properties":{"layer_id":"cafe_restaurant","name":"しゃえん","address":"熊本県上益城郡山都町北中島２３２５","source":"厚生労働省 食品衛生申請等システム（オープンデータ）"},"geometry":{"type":"Point","coordinates":[130.930867,32.733908]}},{"type":"Feature","properties":{"layer_id":"cafe_restaurant","name":"cafe 218","address":"熊本県上益城郡山都町大平270","source":"厚生労働省 食品衛生申請等システム（オープンデータ）"},"geometry":{"type":"Point","coordinates":[131.08864,32.689649]}},{"type":"Feature","properties":{"layer_id":"cafe_restaurant","name":"割烹　藤乃家","address":"熊本県上益城郡山都町下市１６６－４","source":"厚生労働省 食品衛生申請等システム（オープンデータ）"},"geometry":{"type":"Point","coordinates":[130.990938,32.682194]}},{"type":"Feature","properties":{"layer_id":"cafe_restaurant","name":"三好屋","address":"熊本県上益城郡山都町浜町２４２","source":"厚生労働省 食品衛生申請等システム（オープンデータ）"},"geometry":{"type":"Point","coordinates":[130.985832,32.683961]}},{"type":"Feature","properties":{"layer_id":"cafe_restaurant","name":"通潤橋ミエルテラス物産館","address":"熊本県上益城郡山都町下市１８４－１","source":"厚生労働省 食品衛生申請等システム（オープンデータ）"},"geometry":{"type":"Point","coordinates":[130.99161,32.681444]}},{"type":"Feature","properties":{"layer_id":"cafe_restaurant","name":"通潤橋ミエルテラス　カフェ","address":"熊本県上益城郡山都町下市１７５","source":"厚生労働省 食品衛生申請等システム（オープンデータ）"},"geometry":{"type":"Point","coordinates":[130.987708,32.679702]}},{"type":"Feature","properties":{"layer_id":"cafe_restaurant","name":"ファミリーマート　山都町店","address":"熊本県上益城郡山都町畑4５８－１","source":"厚生労働省 食品衛生申請等システム（オープンデータ）"},"geometry":{"type":"Point","coordinates":[130.997205,32.688586]}},{"type":"Feature","properties":{"layer_id":"cafe_restaurant","name":"ふれあいショップせいわ","address":"熊本県上益城郡山都町大字大平字下鶴３２２－１","source":"厚生労働省 食品衛生申請等システム（オープンデータ）"},"geometry":{"type":"Point","coordinates":[131.077198,32.694779]}},{"type":"Feature","properties":{"layer_id":"cafe_restaurant","name":"牛力","address":"熊本県上益城郡山都町浜町８６－１","source":"厚生労働省 食品衛生申請等システム（オープンデータ）"},"geometry":{"type":"Point","coordinates":[130.989767,32.684553]}},{"type":"Feature","properties":{"layer_id":"cafe_restaurant","name":"Aコープ矢部","address":"熊本県上益城郡山都町浜町２３３","source":"厚生労働省 食品衛生申請等システム（オープンデータ）"},"geometry":{"type":"Point","coordinates":[130.98494,32.683379]}},{"type":"Feature","properties":{"layer_id":"cafe_restaurant","name":"ほたる館","address":"熊本県上益城郡山都町畑４７０","source":"厚生労働省 食品衛生申請等システム（オープンデータ）"},"geometry":{"type":"Point","coordinates":[130.998653,32.689383]}},{"type":"Feature","properties":{"layer_id":"cafe_restaurant","name":"ほたる館","address":"熊本県上益城郡山都町畑４７０","source":"厚生労働省 食品衛生申請等システム（オープンデータ）"},"geometry":{"type":"Point","coordinates":[130.998653,32.689383]}},{"type":"Feature","properties":{"layer_id":"cafe_restaurant","name":"安和家","address":"熊本県上益城郡山都町川野１６１４","source":"厚生労働省 食品衛生申請等システム（オープンデータ）"},"geometry":{"type":"Point","coordinates":[131.033632,32.679183]}},{"type":"Feature","properties":{"layer_id":"cafe_restaurant","name":"カラオケ.牧","address":"熊本県上益城郡山都町牧野５８２","source":"厚生労働省 食品衛生申請等システム（オープンデータ）"},"geometry":{"type":"Point","coordinates":[130.978731,32.664305]}},{"type":"Feature","properties":{"layer_id":"cafe_restaurant","name":"ぶるーべりーの家","address":"熊本県上益城郡山都町大野５８３－１","source":"厚生労働省 食品衛生申請等システム（オープンデータ）"},"geometry":{"type":"Point","coordinates":[131.128554,32.688876]}},{"type":"Feature","properties":{"layer_id":"cafe_restaurant","name":"熊乃屋旅館","address":"熊本県上益城郡山都町馬見原８３８","source":"厚生労働省 食品衛生申請等システム（オープンデータ）"},"geometry":{"type":"Point","coordinates":[131.155933,32.680283]}},{"type":"Feature","properties":{"layer_id":"cafe_restaurant","name":"ゆずの木 ねむの木 みずたまの木","address":"熊本県上益城郡山都町尾野尻８１９－２","source":"厚生労働省 食品衛生申請等システム（オープンデータ）"},"geometry":{"type":"Point","coordinates":[131.078098,32.660197]}},{"type":"Feature","properties":{"layer_id":"cafe_restaurant","name":"通潤酒造","address":"熊本県上益城郡山都町浜町５４","source":"厚生労働省 食品衛生申請等システム（オープンデータ）"},"geometry":{"type":"Point","coordinates":[130.987363,32.684896]}},{"type":"Feature","properties":{"layer_id":"cafe_restaurant","name":"音彩Cafe","address":"熊本県上益城郡山都町北中島２７３２－４","source":"厚生労働省 食品衛生申請等システム（オープンデータ）"},"geometry":{"type":"Point","coordinates":[130.939687,32.734303]}},{"type":"Feature","properties":{"layer_id":"cafe_restaurant","name":"紋次郎","address":"熊本県上益城郡山都町浜町１８５番地","source":"厚生労働省 食品衛生申請等システム（オープンデータ）"},"geometry":{"type":"Point","coordinates":[130.985722,32.68502]}},{"type":"Feature","properties":{"layer_id":"cafe_restaurant","name":"矢部野ファーム","address":"熊本県上益城郡山都町北中島４０９","source":"厚生労働省 食品衛生申請等システム（オープンデータ）"},"geometry":{"type":"Point","coordinates":[130.92107,32.739968]}},{"type":"Feature","properties":{"layer_id":"cafe_restaurant","name":"えびすぱーな矢部店惣菜部","address":"熊本県上益城郡山都町城平６１４番地","source":"厚生労働省 食品衛生申請等システム（オープンデータ）"},"geometry":{"type":"Point","coordinates":[130.991945,32.689423]}},{"type":"Feature","properties":{"layer_id":"cafe_restaurant","name":"有）丸重ミート","address":"熊本県上益城郡山都町浜町１１１番地の１","source":"厚生労働省 食品衛生申請等システム（オープンデータ）"},"geometry":{"type":"Point","coordinates":[130.990052,32.684213]}},{"type":"Feature","properties":{"layer_id":"cafe_restaurant","name":"ふじラーメン","address":"熊本県上益城郡山都町野尻１０２８－１","source":"厚生労働省 食品衛生申請等システム（オープンデータ）"},"geometry":{"type":"Point","coordinates":[131.012296,32.685045]}},{"type":"Feature","properties":{"layer_id":"cafe_restaurant","name":"おりお食堂","address":"熊本県上益城郡山都町川口９６３番地３","source":"厚生労働省 食品衛生申請等システム（オープンデータ）"},"geometry":{"type":"Point","coordinates":[131.094309,32.730616]}},{"type":"Feature","properties":{"layer_id":"cafe_restaurant","name":"おちかラーメン","address":"熊本県上益城郡山都町下市５","source":"厚生労働省 食品衛生申請等システム（オープンデータ）"},"geometry":{"type":"Point","coordinates":[130.988252,32.684197]}},{"type":"Feature","properties":{"layer_id":"cafe_restaurant","name":"セブンイレブン山都通潤橋インター店","address":"熊本県上益城郡山都町城平１０１３－１","source":"厚生労働省 食品衛生申請等システム（オープンデータ）"},"geometry":{"type":"Point","coordinates":[130.991718,32.689974]}},{"type":"Feature","properties":{"layer_id":"cafe_restaurant","name":"ジョイフル熊本矢部店","address":"熊本県上益城郡山都町南田字西間原３０８－１、３０９－３","source":"厚生労働省 食品衛生申請等システム（オープンデータ）"},"geometry":{"type":"Point","coordinates":[130.976354,32.678312]}},{"type":"Feature","properties":{"layer_id":"cafe_restaurant","name":"五平太","address":"熊本県上益城郡山都町川野２２０６－１","source":"厚生労働省 食品衛生申請等システム（オープンデータ）"},"geometry":{"type":"Point","coordinates":[131.03184,32.670482]}},{"type":"Feature","properties":{"layer_id":"cafe_restaurant","name":"よしみ食堂","address":"熊本県上益城郡山都町浜町１８７","source":"厚生労働省 食品衛生申請等システム（オープンデータ）"},"geometry":{"type":"Point","coordinates":[130.985878,32.684161]}},{"type":"Feature","properties":{"layer_id":"cafe_restaurant","name":"MITCHELL AV","address":"熊本県上益城郡山都町浜町１４４","source":"厚生労働省 食品衛生申請等システム（オープンデータ）"},"geometry":{"type":"Point","coordinates":[130.987703,32.68465]}},{"type":"Feature","properties":{"layer_id":"cafe_restaurant","name":"川萬屋","address":"熊本県上益城郡山都町浜町１４４","source":"厚生労働省 食品衛生申請等システム（オープンデータ）"},"geometry":{"type":"Point","coordinates":[130.987703,32.68465]}},{"type":"Feature","properties":{"layer_id":"cafe_restaurant","name":"一の樹","address":"熊本県上益城郡山都町下市５５－９","source":"厚生労働省 食品衛生申請等システム（オープンデータ）"},"geometry":{"type":"Point","coordinates":[130.988304,32.683831]}},{"type":"Feature","properties":{"layer_id":"cafe_restaurant","name":"特別養護老人ホーム蘇望苑　65807蘇望苑","address":"熊本県上益城郡山都町滝上２２３－１","source":"厚生労働省 食品衛生申請等システム（オープンデータ）"},"geometry":{"type":"Point","coordinates":[131.140307,32.688667]}},{"type":"Feature","properties":{"layer_id":"cafe_restaurant","name":"夢屋","address":"熊本県上益城郡山都町馬見原１１６の１","source":"厚生労働省 食品衛生申請等システム（オープンデータ）"},"geometry":{"type":"Point","coordinates":[131.154117,32.680873]}},{"type":"Feature","properties":{"layer_id":"cafe_restaurant","name":"矢部八百萬屋","address":"熊本県上益城郡山都町川野戸の下２１２６－１","source":"厚生労働省 食品衛生申請等システム（オープンデータ）"},"geometry":{"type":"Point","coordinates":[131.03184,32.670482]}},{"type":"Feature","properties":{"layer_id":"cafe_restaurant","name":"笑美数","address":"熊本県上益城郡山都町畑１９６－２","source":"厚生労働省 食品衛生申請等システム（オープンデータ）"},"geometry":{"type":"Point","coordinates":[130.999535,32.686731]}},{"type":"Feature","properties":{"layer_id":"public_facilities","name":"蘇陽総合支所","address":"山都町今500","source":"国土交通省 国土数値情報"},"geometry":{"type":"Point","coordinates":[131.165089,32.724374]}},{"type":"Feature","properties":{"layer_id":"public_facilities","name":"馬見原公民館","address":"山都町馬見原218","source":"国土交通省 国土数値情報"},"geometry":{"type":"Point","coordinates":[131.153633,32.683736]}},{"type":"Feature","properties":{"layer_id":"public_facilities","name":"牧野公民館","address":"山都町牧野1793-1","source":"国土交通省 国土数値情報"},"geometry":{"type":"Point","coordinates":[130.980392,32.665757]}},{"type":"Feature","properties":{"layer_id":"public_facilities","name":"橘地区交流館","address":"山都町橘135-2","source":"国土交通省 国土数値情報"},"geometry":{"type":"Point","coordinates":[131.223592,32.751666]}},{"type":"Feature","properties":{"layer_id":"public_facilities","name":"清和集落センター","address":"山都町大平306-1","source":"国土交通省 国土数値情報"},"geometry":{"type":"Point","coordinates":[131.08746,32.68906]}},{"type":"Feature","properties":{"layer_id":"public_facilities","name":"二瀬本文化センター","address":"山都町二瀬本1466","source":"国土交通省 国土数値情報"},"geometry":{"type":"Point","coordinates":[131.184479,32.744135]}},{"type":"Feature","properties":{"layer_id":"public_facilities","name":"長谷地区交流館","address":"山都町長谷678-1","source":"国土交通省 国土数値情報"},"geometry":{"type":"Point","coordinates":[131.170613,32.764833]}},{"type":"Feature","properties":{"layer_id":"public_facilities","name":"長崎地区交流館","address":"山都町長崎706-5","source":"国土交通省 国土数値情報"},"geometry":{"type":"Point","coordinates":[131.160487,32.698298]}},{"type":"Feature","properties":{"layer_id":"public_facilities","name":"二瀬本コミュニティセンター","address":"山都町二瀬本27","source":"国土交通省 国土数値情報"},"geometry":{"type":"Point","coordinates":[131.183316,32.74318]}},{"type":"Feature","properties":{"layer_id":"public_facilities","name":"下矢部東部体育館","address":"山都町白小野168","source":"国土交通省 国土数値情報"},"geometry":{"type":"Point","coordinates":[130.967824,32.663349]}},{"type":"Feature","properties":{"layer_id":"public_facilities","name":"下矢部西部改善センター","address":"山都町猿渡4799-1","source":"国土交通省 国土数値情報"},"geometry":{"type":"Point","coordinates":[130.925627,32.669311]}},{"type":"Feature","properties":{"layer_id":"public_facilities","name":"藤木公民館","address":"山都町藤木810-2","source":"国土交通省 国土数値情報"},"geometry":{"type":"Point","coordinates":[130.952606,32.664609]}},{"type":"Feature","properties":{"layer_id":"public_facilities","name":"山都町役場","address":"山都町浜町6","source":"国土交通省 国土数値情報"},"geometry":{"type":"Point","coordinates":[130.990218,32.685337]}},{"type":"Feature","properties":{"layer_id":"public_facilities","name":"白糸第二体育館","address":"山都町菅2287","source":"国土交通省 国土数値情報"},"geometry":{"type":"Point","coordinates":[131.025119,32.650473]}},{"type":"Feature","properties":{"layer_id":"public_facilities","name":"緑川清流館","address":"山都町緑川1047","source":"国土交通省 国土数値情報"},"geometry":{"type":"Point","coordinates":[131.090504,32.633379]}},{"type":"Feature","properties":{"layer_id":"public_facilities","name":"猿丸公民館","address":"山都町柳272-7","source":"国土交通省 国土数値情報"},"geometry":{"type":"Point","coordinates":[131.162271,32.807934]}},{"type":"Feature","properties":{"layer_id":"public_facilities","name":"蘇陽林業者等健康増進施設","address":"山都町柏719","source":"国土交通省 国土数値情報"},"geometry":{"type":"Point","coordinates":[131.172926,32.735525]}},{"type":"Feature","properties":{"layer_id":"public_facilities","name":"白糸第一体育館","address":"山都町新小886","source":"国土交通省 国土数値情報"},"geometry":{"type":"Point","coordinates":[130.993094,32.667446]}},{"type":"Feature","properties":{"layer_id":"public_facilities","name":"人権センター","address":"山都町浜町30-1","source":"国土交通省 国土数値情報"},"geometry":{"type":"Point","coordinates":[130.990224,32.686897]}},{"type":"Feature","properties":{"layer_id":"public_facilities","name":"白糸第三体育館","address":"山都町目丸2427","source":"国土交通省 国土数値情報"},"geometry":{"type":"Point","coordinates":[130.976203,32.635865]}},{"type":"Feature","properties":{"layer_id":"public_facilities","name":"馬見原体育館","address":"山都町滝上460","source":"国土交通省 国土数値情報"},"geometry":{"type":"Point","coordinates":[131.148542,32.682622]}},{"type":"Feature","properties":{"layer_id":"public_facilities","name":"二瀬本体育館","address":"山都町二瀬本1466","source":"国土交通省 国土数値情報"},"geometry":{"type":"Point","coordinates":[131.184469,32.744135]}},{"type":"Feature","properties":{"layer_id":"public_facilities","name":"田小野コミュニティ供用施設","address":"山都町田小野327-1","source":"国土交通省 国土数値情報"},"geometry":{"type":"Point","coordinates":[130.972854,32.728572]}},{"type":"Feature","properties":{"layer_id":"public_facilities","name":"菅尾老人福祉センター","address":"山都町菅尾147-1","source":"国土交通省 国土数値情報"},"geometry":{"type":"Point","coordinates":[131.147437,32.713094]}},{"type":"Feature","properties":{"layer_id":"public_facilities","name":"清和研修センター","address":"山都町大平385","source":"国土交通省 国土数値情報"},"geometry":{"type":"Point","coordinates":[131.087016,32.69132]}},{"type":"Feature","properties":{"layer_id":"public_facilities","name":"中央体育館","address":"山都町下市168","source":"国土交通省 国土数値情報"},"geometry":{"type":"Point","coordinates":[130.991277,32.682445]}},{"type":"Feature","properties":{"layer_id":"public_facilities","name":"矢部保健福祉センター","address":"山都町千滝232","source":"国土交通省 国土数値情報"},"geometry":{"type":"Point","coordinates":[130.985565,32.679652]}},{"type":"Feature","properties":{"layer_id":"public_facilities","name":"川内公民館","address":"山都町川野1751-1","source":"国土交通省 国土数値情報"},"geometry":{"type":"Point","coordinates":[131.036084,32.679202]}},{"type":"Feature","properties":{"layer_id":"public_facilities","name":"下名連石老人憩いの家","address":"山都町下名連石463-1","source":"国土交通省 国土数値情報"},"geometry":{"type":"Point","coordinates":[131.002073,32.729409]}},{"type":"Feature","properties":{"layer_id":"public_facilities","name":"蘇陽地域福祉センター","address":"山都町今500","source":"国土交通省 国土数値情報"},"geometry":{"type":"Point","coordinates":[131.165099,32.724364]}},{"type":"Feature","properties":{"layer_id":"public_facilities","name":"中島西部地区ふれあいセンター","address":"山都町北中島688","source":"国土交通省 国土数値情報"},"geometry":{"type":"Point","coordinates":[130.893364,32.735676]}},{"type":"Feature","properties":{"layer_id":"public_facilities","name":"清和山村基幹集落センター","address":"山都町大平306-1","source":"国土交通省 国土数値情報"},"geometry":{"type":"Point","coordinates":[131.087513,32.688873]}},{"type":"Feature","properties":{"layer_id":"public_facilities","name":"新藤公民館","address":"山都町新小589-1","source":"国土交通省 国土数値情報"},"geometry":{"type":"Point","coordinates":[131.003913,32.66053]}},{"type":"Feature","properties":{"layer_id":"public_facilities","name":"木原谷体育館","address":"山都町木原谷355","source":"国土交通省 国土数値情報"},"geometry":{"type":"Point","coordinates":[131.055865,32.657486]}},{"type":"Feature","properties":{"layer_id":"public_facilities","name":"青葉の瀬交流促進施設","address":"山都町緑川3715-1","source":"国土交通省 国土数値情報"},"geometry":{"type":"Point","coordinates":[131.07095,32.661477]}},{"type":"Feature","properties":{"layer_id":"public_facilities","name":"朝日体育館","address":"山都町井無田1144","source":"国土交通省 国土数値情報"},"geometry":{"type":"Point","coordinates":[131.104167,32.731566]}},{"type":"Feature","properties":{"layer_id":"public_facilities","name":"東竹原老人憩いの家","address":"山都町東竹原285-1","source":"国土交通省 国土数値情報"},"geometry":{"type":"Point","coordinates":[131.17684,32.791025]}},{"type":"Feature","properties":{"layer_id":"public_facilities","name":"中島南部体育館","address":"山都町島木5512","source":"国土交通省 国土数値情報"},"geometry":{"type":"Point","coordinates":[130.914359,32.711133]}},{"type":"Feature","properties":{"layer_id":"public_facilities","name":"下矢部体育館","address":"山都町猿渡371","source":"国土交通省 国土数値情報"},"geometry":{"type":"Point","coordinates":[130.937286,32.675607]}},{"type":"Feature","properties":{"layer_id":"public_facilities","name":"花上多目的集会所","address":"山都町花上842","source":"国土交通省 国土数値情報"},"geometry":{"type":"Point","coordinates":[131.192146,32.729606]}},{"type":"Feature","properties":{"layer_id":"public_facilities","name":"上差尾地区交流館","address":"山都町上差尾1028-1","source":"国土交通省 国土数値情報"},"geometry":{"type":"Point","coordinates":[131.126575,32.748572]}},{"type":"Feature","properties":{"layer_id":"public_facilities","name":"菅尾コミュニティセンター","address":"山都町菅尾980","source":"国土交通省 国土数値情報"},"geometry":{"type":"Point","coordinates":[131.147585,32.712863]}},{"type":"Feature","properties":{"layer_id":"public_facilities","name":"馬見原西部地区交流館","address":"山都町大野347","source":"国土交通省 国土数値情報"},"geometry":{"type":"Point","coordinates":[131.132496,32.687543]}},{"type":"Feature","properties":{"layer_id":"public_facilities","name":"西緑川多目的集会所","address":"山都町緑川3214","source":"国土交通省 国土数値情報"},"geometry":{"type":"Point","coordinates":[131.072341,32.640128]}},{"type":"Feature","properties":{"layer_id":"public_facilities","name":"稲生野公民館","address":"山都町御所1486","source":"国土交通省 国土数値情報"},"geometry":{"type":"Point","coordinates":[131.049189,32.740725]}},{"type":"Feature","properties":{"layer_id":"public_facilities","name":"東竹原体育館","address":"山都町東竹原285-1","source":"国土交通省 国土数値情報"},"geometry":{"type":"Point","coordinates":[131.176846,32.791009]}},{"type":"Feature","properties":{"layer_id":"public_facilities","name":"清和支所","address":"山都町大平385","source":"国土交通省 国土数値情報"},"geometry":{"type":"Point","coordinates":[131.086987,32.691489]}},{"type":"Feature","properties":{"layer_id":"public_facilities","name":"二瀬本研修センター","address":"山都町二瀬本60","source":"国土交通省 国土数値情報"},"geometry":{"type":"Point","coordinates":[131.184966,32.742558]}},{"type":"Feature","properties":{"layer_id":"public_facilities","name":"中島東部体育館","address":"山都町金内188","source":"国土交通省 国土数値情報"},"geometry":{"type":"Point","coordinates":[130.947255,32.731221]}},{"type":"Feature","properties":{"layer_id":"public_facilities","name":"蘇陽地区公民館","address":"山都町今500","source":"国土交通省 国土数値情報"},"geometry":{"type":"Point","coordinates":[131.165089,32.724364]}},{"type":"Feature","properties":{"layer_id":"public_facilities","name":"長谷体育館","address":"山都町長谷678","source":"国土交通省 国土数値情報"},"geometry":{"type":"Point","coordinates":[131.170825,32.764647]}},{"type":"Feature","properties":{"layer_id":"public_facilities","name":"中央公民館","address":"山都町下市33-1","source":"国土交通省 国土数値情報"},"geometry":{"type":"Point","coordinates":[130.990219,32.683425]}},{"type":"Feature","properties":{"layer_id":"public_facilities","name":"橘体育館","address":"山都町橘134-1","source":"国土交通省 国土数値情報"},"geometry":{"type":"Point","coordinates":[131.204619,32.745672]}},{"type":"Feature","properties":{"layer_id":"public_facilities","name":"上差尾体育館","address":"山都町上差尾1027","source":"国土交通省 国土数値情報"},"geometry":{"type":"Point","coordinates":[131.125735,32.744542]}},{"type":"Feature","properties":{"layer_id":"public_facilities","name":"下山公民館","address":"山都町下山447-4","source":"国土交通省 国土数値情報"},"geometry":{"type":"Point","coordinates":[131.208021,32.759226]}},{"type":"Feature","properties":{"layer_id":"public_facilities","name":"原コミュニティ施設","address":"山都町原304","source":"国土交通省 国土数値情報"},"geometry":{"type":"Point","coordinates":[130.958881,32.711907]}},{"type":"Feature","properties":{"layer_id":"public_facilities","name":"そよ風パーク","address":"山都町今297","source":"国土交通省 国土数値情報"},"geometry":{"type":"Point","coordinates":[131.163177,32.727315]}},{"type":"Feature","properties":{"layer_id":"public_facilities","name":"安方婦人若者等活動促進施設","address":"山都町安方171","source":"国土交通省 国土数値情報"},"geometry":{"type":"Point","coordinates":[131.128184,32.705172]}},{"type":"Feature","properties":{"layer_id":"public_facilities","name":"清和地区公民館","address":"山都町大平306-1","source":"国土交通省 国土数値情報"},"geometry":{"type":"Point","coordinates":[131.08771,32.689009]}},{"type":"Feature","properties":{"layer_id":"public_facilities","name":"津留公民館","address":"山都町津留1024-2","source":"国土交通省 国土数値情報"},"geometry":{"type":"Point","coordinates":[130.98684,32.64049]}},{"type":"Feature","properties":{"layer_id":"public_facilities","name":"御所体育館","address":"山都町御所3832","source":"国土交通省 国土数値情報"},"geometry":{"type":"Point","coordinates":[131.042427,32.724106]}},{"type":"Feature","properties":{"layer_id":"public_facilities","name":"高辻地区集会所","address":"山都町高辻564-2","source":"国土交通省 国土数値情報"},"geometry":{"type":"Point","coordinates":[131.182289,32.775669]}},{"type":"Feature","properties":{"layer_id":"public_facilities","name":"蘇陽支所","address":"山都町今500","source":"国土交通省 国土数値情報"},"geometry":{"type":"Point","coordinates":[131.165491,32.724683]}},{"type":"Feature","properties":{"layer_id":"public_facilities","name":"清和総合支所","address":"山都町大平385","source":"国土交通省 国土数値情報"},"geometry":{"type":"Point","coordinates":[131.087016,32.69134]}},{"type":"Feature","properties":{"layer_id":"public_facilities","name":"中島体育館","address":"山都町北中島2536","source":"国土交通省 国土数値情報"},"geometry":{"type":"Point","coordinates":[130.928434,32.732105]}},{"type":"Feature","properties":{"layer_id":"public_facilities","name":"長崎体育館","address":"山都町長崎819","source":"国土交通省 国土数値情報"},"geometry":{"type":"Point","coordinates":[131.169489,32.702465]}},{"type":"Feature","properties":{"layer_id":"public_facilities","name":"下矢部西部体育館","address":"山都町猿渡1850","source":"国土交通省 国土数値情報"},"geometry":{"type":"Point","coordinates":[130.926039,32.670983]}},{"type":"Feature","properties":{"layer_id":"public_facilities","name":"百枝集落センター","address":"山都町上差尾273-2","source":"国土交通省 国土数値情報"},"geometry":{"type":"Point","coordinates":[131.142583,32.751019]}},{"type":"Feature","properties":{"layer_id":"public_facilities","name":"中島西部体育館","address":"山都町北中島1717","source":"国土交通省 国土数値情報"},"geometry":{"type":"Point","coordinates":[130.900419,32.738678]}},{"type":"Feature","properties":{"layer_id":"public_facilities","name":"観光文化交流館","address":"山都町下市16","source":"国土交通省 国土数値情報"},"geometry":{"type":"Point","coordinates":[130.988932,32.683809]}},{"type":"Feature","properties":{"layer_id":"public_facilities","name":"清和体育館","address":"山都町大平305-1","source":"国土交通省 国土数値情報"},"geometry":{"type":"Point","coordinates":[131.087152,32.688785]}},{"type":"Feature","properties":{"layer_id":"public_facilities","name":"浜町体育館","address":"山都町千滝238","source":"国土交通省 国土数値情報"},"geometry":{"type":"Point","coordinates":[130.986319,32.679414]}},{"type":"Feature","properties":{"layer_id":"public_facilities","name":"矢部保健福祉センター千寿苑","address":"山都町千滝232","source":"国土交通省 国土数値情報"},"geometry":{"type":"Point","coordinates":[130.985308,32.679814]}},{"type":"Feature","properties":{"layer_id":"public_facilities","name":"下川井野公民館","address":"山都町下川井野1286","source":"国土交通省 国土数値情報"},"geometry":{"type":"Point","coordinates":[131.006293,32.668607]}},{"type":"Feature","properties":{"layer_id":"public_facilities","name":"中尾集会所","address":"山都町城平750","source":"国土交通省 国土数値情報"},"geometry":{"type":"Point","coordinates":[130.989433,32.687758]}},{"type":"Feature","properties":{"layer_id":"public_facilities","name":"小峰体育館","address":"山都町小峰1385","source":"国土交通省 国土数値情報"},"geometry":{"type":"Point","coordinates":[131.071454,32.670405]}},{"type":"Feature","properties":{"layer_id":"public_facilities","name":"下名連石体育館","address":"山都町下名連石582","source":"国土交通省 国土数値情報"},"geometry":{"type":"Point","coordinates":[131.001299,32.730309]}},{"type":"Feature","properties":{"layer_id":"public_facilities","name":"井無田公民館","address":"山都町井無田1385-3","source":"国土交通省 国土数値情報"},"geometry":{"type":"Point","coordinates":[131.102324,32.732872]}},{"type":"Feature","properties":{"layer_id":"scenic_nature_areas","name":"矢部町","source":"国土交通省 国土数値情報"},"geometry":{"type":"Polygon","coordinates":[[[131.008676,32.687014],[131.00918,32.687006],[131.009568,32.687125],[131.010221,32.687165],[131.010702,32.687135],[131.010754,32.687131],[131.011551,32.686993],[131.011726,32.68684],[131.011631,32.686591],[131.011476,32.686449],[131.011147,32.686148],[131.010968,32.686101],[131.010494,32.686108],[131.01014,32.686189],[131.009636,32.686197],[131.009502,32.686143],[131.009158,32.686005],[131.008976,32.685857],[131.008884,32.685708],[131.008848,32.685433],[131.009043,32.684879],[131.009537,32.68442],[131.00998,32.684338],[131.010422,32.684231],[131.01091,32.684004],[131.011596,32.683686],[131.01233,32.683399],[131.012502,32.68312],[131.012808,32.682772],[131.012993,32.682561],[131.0134,32.682204],[131.013186,32.681882],[131.012398,32.681143],[131.012243,32.681124],[131.012042,32.681099],[131.011595,32.681006],[131.011206,32.680795],[131.011055,32.680714],[131.010752,32.680443],[131.010598,32.68017],[131.010595,32.680045],[131.010914,32.679739],[131.010981,32.679674],[131.011175,32.679484],[131.011254,32.679007],[131.010936,32.67806],[131.010741,32.677627],[131.010499,32.677091],[131.010467,32.677062],[131.009864,32.676525],[131.009536,32.67643],[131.009209,32.67641],[131.008851,32.676509],[131.008443,32.676623],[131.007504,32.677013],[131.006884,32.677148],[131.006294,32.677258],[131.005937,32.677214],[131.005758,32.677141],[131.005513,32.676855],[131.005268,32.676483],[131.005008,32.675461],[131.005029,32.675113],[131.00503,32.67511],[131.005083,32.674858],[131.005198,32.674706],[131.005462,32.674552],[131.005578,32.674424],[131.005321,32.674216],[131.005084,32.674022],[131.005034,32.673982],[131.004552,32.673614],[131.003994,32.673453],[131.003895,32.673424],[131.003513,32.673455],[131.003511,32.673455],[131.003128,32.673562],[131.002955,32.67379],[131.002115,32.674655],[131.001826,32.674985],[131.001748,32.675083],[131.001422,32.675493],[131.001248,32.675671],[131.000481,32.675808],[131.000332,32.675811],[131.000151,32.675663],[131.000117,32.675438],[131.000109,32.675088],[131.000392,32.674482],[131.000456,32.674353],[131.000505,32.674255],[131.000381,32.674006],[131.000171,32.673885],[130.999965,32.673938],[130.999643,32.674143],[130.998598,32.675112],[130.997902,32.675824],[130.997738,32.676428],[130.997623,32.676605],[130.997446,32.676633],[130.996912,32.676642],[130.99653,32.676773],[130.996386,32.676951],[130.995988,32.677709],[130.995871,32.678068],[130.995722,32.67853],[130.99571,32.678565],[130.995645,32.678973],[130.995411,32.679127],[130.994737,32.679463],[130.994595,32.679741],[130.994323,32.680149],[130.994308,32.680172],[130.994044,32.680276],[130.993806,32.68028],[130.993395,32.680261],[130.993391,32.680261],[130.993122,32.680165],[130.992885,32.680144],[130.992679,32.680222],[130.992415,32.680377],[130.99207,32.680833],[130.99199,32.681235],[130.991954,32.681549],[130.992063,32.681638],[130.992104,32.681849],[130.992038,32.682123],[130.991801,32.682732],[130.99156,32.68319],[130.991492,32.683373],[130.991531,32.683494],[130.99175,32.683672],[130.992076,32.683848],[130.992439,32.684055],[130.992624,32.684294],[130.992706,32.684747],[130.992711,32.684989],[130.992716,32.685231],[130.992865,32.685471],[130.993048,32.68562],[130.993299,32.685646],[130.99373,32.68567],[130.993908,32.685637],[130.994158,32.685572],[130.994299,32.685479],[130.994404,32.685356],[130.994543,32.685172],[130.994716,32.684867],[130.994714,32.684806],[130.994459,32.684302],[130.994544,32.684126],[130.994866,32.683945],[130.995572,32.683683],[130.996252,32.683597],[130.996964,32.683636],[130.997233,32.683732],[130.99747,32.683728],[130.998305,32.68355],[130.998355,32.683539],[130.999005,32.683428],[130.999029,32.683424],[130.999448,32.683346],[130.999562,32.683144],[130.999585,32.682843],[130.999757,32.68259],[131.000011,32.682499],[131.000051,32.682485],[131.00023,32.682532],[131.000559,32.682677],[131.000638,32.682685],[131.000975,32.682721],[131.001564,32.682536],[131.001642,32.68248],[131.001885,32.682305],[131.001909,32.682079],[131.002097,32.6812],[131.002377,32.680444],[131.002752,32.679899],[131.002865,32.679734],[131.003333,32.679477],[131.003774,32.679294],[131.004006,32.679065],[131.004778,32.677775],[131.00487,32.67783],[131.005228,32.678043],[131.00571,32.678361],[131.005725,32.678393],[131.005865,32.678685],[131.005943,32.679191],[131.005969,32.679359],[131.00614,32.680384],[131.006301,32.680957],[131.006302,32.680958],[131.006837,32.681677],[131.007183,32.682242],[131.007438,32.682552],[131.007486,32.682835],[131.007485,32.682844],[131.007408,32.683041],[131.007289,32.683287],[131.00713,32.683569],[131.007055,32.683885],[131.007104,32.684233],[131.00707,32.684583],[131.006953,32.684864],[131.006587,32.685114],[131.006265,32.685293],[131.006239,32.685344],[131.006184,32.68561],[131.006099,32.685822],[131.006261,32.686384],[131.006174,32.686485],[131.005939,32.686589],[131.005733,32.686668],[131.005649,32.686837],[131.006189,32.687129],[131.006408,32.687183],[131.006666,32.687247],[131.007405,32.68716],[131.008202,32.687022],[131.008676,32.687014]]]}},{"type":"Feature","properties":{"layer_id":"cultural_facilities","name":"山都町立図書館清和分館","address":"大平306-1","source":"国土交通省 国土数値情報"},"geometry":{"type":"Point","coordinates":[131.087509,32.688816]}},{"type":"Feature","properties":{"layer_id":"cultural_facilities","name":"清和小学校体育館","address":"仮屋384","source":"国土交通省 国土数値情報"},"geometry":{"type":"Point","coordinates":[131.098991,32.692428]}},{"type":"Feature","properties":{"layer_id":"cultural_facilities","name":"山都町立図書館","address":"城原169-1","source":"国土交通省 国土数値情報"},"geometry":{"type":"Point","coordinates":[130.991374,32.685658]}},{"type":"Feature","properties":{"layer_id":"cultural_facilities","name":"下矢部東部体育館","address":"白小野168","source":"国土交通省 国土数値情報"},"geometry":{"type":"Point","coordinates":[130.968145,32.662692]}},{"type":"Feature","properties":{"layer_id":"cultural_facilities","name":"矢部中学校グラウンド","address":"城平527","source":"国土交通省 国土数値情報"},"geometry":{"type":"Point","coordinates":[130.989192,32.693047]}},{"type":"Feature","properties":{"layer_id":"cultural_facilities","name":"朝日グラウンド","address":"井無田1144","source":"国土交通省 国土数値情報"},"geometry":{"type":"Point","coordinates":[131.103151,32.73138]}},{"type":"Feature","properties":{"layer_id":"cultural_facilities","name":"朝日体育館","address":"井無田1144","source":"国土交通省 国土数値情報"},"geometry":{"type":"Point","coordinates":[131.103097,32.73192]}},{"type":"Feature","properties":{"layer_id":"cultural_facilities","name":"小峰グラウンド","address":"小峰1395","source":"国土交通省 国土数値情報"},"geometry":{"type":"Point","coordinates":[131.071763,32.670515]}},{"type":"Feature","properties":{"layer_id":"cultural_facilities","name":"木原谷体育館","address":"木原谷355","source":"国土交通省 国土数値情報"},"geometry":{"type":"Point","coordinates":[131.055867,32.658106]}},{"type":"Feature","properties":{"layer_id":"cultural_facilities","name":"中央グラウンド","address":"長原739","source":"国土交通省 国土数値情報"},"geometry":{"type":"Point","coordinates":[130.989,32.675734]}},{"type":"Feature","properties":{"layer_id":"cultural_facilities","name":"清和グラウンド","address":"仮屋376","source":"国土交通省 国土数値情報"},"geometry":{"type":"Point","coordinates":[131.097093,32.691617]}},{"type":"Feature","properties":{"layer_id":"cultural_facilities","name":"白糸第一体育館","address":"新小886","source":"国土交通省 国土数値情報"},"geometry":{"type":"Point","coordinates":[130.993623,32.667494]}},{"type":"Feature","properties":{"layer_id":"cultural_facilities","name":"矢部小学校グラウンド","address":"下馬尾70","source":"国土交通省 国土数値情報"},"geometry":{"type":"Point","coordinates":[130.982468,32.683071]}},{"type":"Feature","properties":{"layer_id":"cultural_facilities","name":"朝日西部体育館","address":"鶴ケ田3478-1","source":"国土交通省 国土数値情報"},"geometry":{"type":"Point","coordinates":[131.068796,32.70723]}},{"type":"Feature","properties":{"layer_id":"cultural_facilities","name":"御岳グラウンド","address":"野尻1000","source":"国土交通省 国土数値情報"},"geometry":{"type":"Point","coordinates":[131.009655,32.684765]}},{"type":"Feature","properties":{"layer_id":"cultural_facilities","name":"清和体育館","address":"大平305-1","source":"国土交通省 国土数値情報"},"geometry":{"type":"Point","coordinates":[131.087229,32.688857]}},{"type":"Feature","properties":{"layer_id":"cultural_facilities","name":"白糸第三体育館","address":"目丸2472","source":"国土交通省 国土数値情報"},"geometry":{"type":"Point","coordinates":[130.976183,32.635737]}},{"type":"Feature","properties":{"layer_id":"cultural_facilities","name":"朝日西部グラウンド","address":"鶴ケ田3478-1","source":"国土交通省 国土数値情報"},"geometry":{"type":"Point","coordinates":[131.069307,32.70661]}},{"type":"Feature","properties":{"layer_id":"cultural_facilities","name":"清和中学校体育館","address":"大平410","source":"国土交通省 国土数値情報"},"geometry":{"type":"Point","coordinates":[131.086344,32.69224]}},{"type":"Feature","properties":{"layer_id":"cultural_facilities","name":"木原谷グラウンド","address":"木原谷235","source":"国土交通省 国土数値情報"},"geometry":{"type":"Point","coordinates":[131.057122,32.657004]}},{"type":"Feature","properties":{"layer_id":"cultural_facilities","name":"矢部中学校体育館","address":"城平527","source":"国土交通省 国土数値情報"},"geometry":{"type":"Point","coordinates":[130.989091,32.694543]}},{"type":"Feature","properties":{"layer_id":"cultural_facilities","name":"下名連石体育館","address":"下名連石582","source":"国土交通省 国土数値情報"},"geometry":{"type":"Point","coordinates":[131.000561,32.730421]}},{"type":"Feature","properties":{"layer_id":"cultural_facilities","name":"矢部小学校体育館","address":"下馬尾70","source":"国土交通省 国土数値情報"},"geometry":{"type":"Point","coordinates":[130.98197,32.682416]}},{"type":"Feature","properties":{"layer_id":"cultural_facilities","name":"上差尾体育館","address":"上差尾1027","source":"国土交通省 国土数値情報"},"geometry":{"type":"Point","coordinates":[131.126657,32.748911]}},{"type":"Feature","properties":{"layer_id":"cultural_facilities","name":"浜町体育館","address":"千滝238","source":"国土交通省 国土数値情報"},"geometry":{"type":"Point","coordinates":[130.986343,32.679361]}},{"type":"Feature","properties":{"layer_id":"cultural_facilities","name":"小峰体育館","address":"小峰1385","source":"国土交通省 国土数値情報"},"geometry":{"type":"Point","coordinates":[131.07138,32.670351]}},{"type":"Feature","properties":{"layer_id":"tourism_resources","name":"緑仙峡","address":"河川景観 / 峡谷・渓谷","source":"国土交通省 国土数値情報"},"geometry":{"type":"Point","coordinates":[131.090164,32.627998]}},{"type":"Feature","properties":{"layer_id":"tourism_resources","name":"越早滝","address":"河川景観 / 滝","source":"国土交通省 国土数値情報"},"geometry":{"type":"Point","coordinates":[131.030487,32.663914]}},{"type":"Feature","properties":{"layer_id":"tourism_resources","name":"聖ヶ滝","address":"河川景観 / 滝","source":"国土交通省 国土数値情報"},"geometry":{"type":"Point","coordinates":[131.009171,32.683231]}},{"type":"Feature","properties":{"layer_id":"tourism_resources","name":"白糸の滝","address":"河川景観 / 滝","source":"国土交通省 国土数値情報"},"geometry":{"type":"Point","coordinates":[131.003311,32.650799]}},{"type":"Feature","properties":{"layer_id":"tourism_resources","name":"鵜ノ子滝","address":"河川景観 / 滝","source":"国土交通省 国土数値情報"},"geometry":{"type":"Point","coordinates":[131.007996,32.656269]}},{"type":"Feature","properties":{"layer_id":"tourism_resources","name":"内大臣峡","address":"河川景観 / 峡谷・渓谷","source":"国土交通省 国土数値情報"},"geometry":{"type":"Point","coordinates":[131.000656,32.618618]}},{"type":"Feature","properties":{"layer_id":"tourism_resources","name":"千滝","address":"河川景観 / 滝","source":"国土交通省 国土数値情報"},"geometry":{"type":"Point","coordinates":[130.983841,32.679447]}},{"type":"Feature","properties":{"layer_id":"tourism_resources","name":"竜宮滝","address":"河川景観 / 滝","source":"国土交通省 国土数値情報"},"geometry":{"type":"Point","coordinates":[131.045486,32.685482]}},{"type":"Feature","properties":{"layer_id":"tourism_resources","name":"綾織り滝","address":"河川景観 / 滝","source":"国土交通省 国土数値情報"},"geometry":{"type":"Point","coordinates":[130.958878,32.687405]}},{"type":"Feature","properties":{"layer_id":"tourism_resources","name":"五老ヶ滝","address":"河川景観 / 滝","source":"国土交通省 国土数値情報"},"geometry":{"type":"Point","coordinates":[130.995132,32.680931]}}]}