{"type":"FeatureCollection","municipality_code":"43514","pref":"熊本県","city":"あさぎり町","display_comment":"あさぎり町には、地域の歴史や暮らしを伝える案内板や石碑があり、それらを手がかりに街歩きを楽しめます。 まずは社寺・地域信仰、城跡・武家文化に目を向けると、地域の由緒をたどる手がかりが見つけやすいでしょう。 現地では石碑、地蔵、地域資料館、公民館の由緒板を既存ピンと照らし合わせながら歩くと、見落としがちな地域の物語に出会いやすくなります。 「上村白髪神社」や「森園カントリーパーク」などの名所も、地域の物語を深掘りする絶好の入口です。","layer_counts":{"cafe_restaurant":138,"public_facilities":72,"scenic_nature_areas":4,"cultural_facilities":15,"parks_playgrounds":2},"total_features":231,"features":[{"type":"Feature","properties":{"layer_id":"cafe_restaurant","address":"熊本県球磨郡あさぎり町免田東１７１０－１","source":"熊本県 食品営業許可施設、届出施設データ"},"geometry":{"type":"Point","coordinates":[130.895099,32.234046]}},{"type":"Feature","properties":{"layer_id":"cafe_restaurant","address":"球磨郡あさぎり町免田東１８４０","source":"熊本県 食品営業許可施設、届出施設データ"},"geometry":{"type":"Point","coordinates":[130.903417,32.243008]}},{"type":"Feature","properties":{"layer_id":"cafe_restaurant","address":"熊本県球磨郡あさぎり町免田東1710－1","source":"熊本県 食品営業許可施設、届出施設データ"},"geometry":{"type":"Point","coordinates":[130.895099,32.234046]}},{"type":"Feature","properties":{"layer_id":"cafe_restaurant","address":"熊本県球磨郡あさぎり町深田西８７９","source":"熊本県 食品営業許可施設、届出施設データ"},"geometry":{"type":"Point","coordinates":[130.858755,32.263468]}},{"type":"Feature","properties":{"layer_id":"cafe_restaurant","address":"熊本県球磨郡あさぎり町免田東１４８２－３Aコープなかくま内","source":"熊本県 食品営業許可施設、届出施設データ"},"geometry":{"type":"Point","coordinates":[130.893635,32.235889]}},{"type":"Feature","properties":{"layer_id":"cafe_restaurant","address":"熊本県球磨郡あさぎり町免田東１６８３－９","source":"熊本県 食品営業許可施設、届出施設データ"},"geometry":{"type":"Point","coordinates":[130.892454,32.234418]}},{"type":"Feature","properties":{"layer_id":"cafe_restaurant","address":"熊本県球磨郡あさぎり町免田東字八幡1841番地２１","source":"熊本県 食品営業許可施設、届出施設データ"},"geometry":{"type":"Point","coordinates":[130.903417,32.243008]}},{"type":"Feature","properties":{"layer_id":"cafe_restaurant","address":"球磨郡あさぎり町免田東１４９４－３","source":"熊本県 食品営業許可施設、届出施設データ"},"geometry":{"type":"Point","coordinates":[130.893844,32.235403]}},{"type":"Feature","properties":{"layer_id":"cafe_restaurant","address":"球磨郡あさぎり町免田東２８２５－１８","source":"熊本県 食品営業許可施設、届出施設データ"},"geometry":{"type":"Point","coordinates":[130.907217,32.238321]}},{"type":"Feature","properties":{"layer_id":"cafe_restaurant","address":"熊本県球磨郡あさぎり町免田東１２５３－１","source":"熊本県 食品営業許可施設、届出施設データ"},"geometry":{"type":"Point","coordinates":[130.896529,32.237518]}},{"type":"Feature","properties":{"layer_id":"cafe_restaurant","address":"熊本県球磨郡あさぎり町免田東１９２２－２９","source":"熊本県 食品営業許可施設、届出施設データ"},"geometry":{"type":"Point","coordinates":[130.902393,32.235181]}},{"type":"Feature","properties":{"layer_id":"cafe_restaurant","address":"熊本県球磨郡あさぎり町免田東１８４１","source":"熊本県 食品営業許可施設、届出施設データ"},"geometry":{"type":"Point","coordinates":[130.903417,32.243008]}},{"type":"Feature","properties":{"layer_id":"cafe_restaurant","address":"熊本県球磨郡あさぎり町免田東1841番地２１","source":"熊本県 食品営業許可施設、届出施設データ"},"geometry":{"type":"Point","coordinates":[130.898499,32.237554]}},{"type":"Feature","properties":{"layer_id":"cafe_restaurant","address":"熊本県球磨郡あさぎり町免田東３１５６－１","source":"熊本県 食品営業許可施設、届出施設データ"},"geometry":{"type":"Point","coordinates":[130.909242,32.242858]}},{"type":"Feature","properties":{"layer_id":"cafe_restaurant","address":"熊本県球磨郡あさぎり町上西２５０－２","source":"熊本県 食品営業許可施設、届出施設データ"},"geometry":{"type":"Point","coordinates":[130.891902,32.199578]}},{"type":"Feature","properties":{"layer_id":"cafe_restaurant","address":"熊本県球磨郡あさぎり町免田東１８４０－４０","source":"熊本県 食品営業許可施設、届出施設データ"},"geometry":{"type":"Point","coordinates":[130.897233,32.236981]}},{"type":"Feature","properties":{"layer_id":"cafe_restaurant","address":"熊本県球磨郡あさぎり町免田東１２５３－１","source":"熊本県 食品営業許可施設、届出施設データ"},"geometry":{"type":"Point","coordinates":[130.896529,32.237518]}},{"type":"Feature","properties":{"layer_id":"cafe_restaurant","address":"熊本県球磨郡あさぎり町免田西４４５－８","source":"熊本県 食品営業許可施設、届出施設データ"},"geometry":{"type":"Point","coordinates":[130.882793,32.228229]}},{"type":"Feature","properties":{"layer_id":"cafe_restaurant","address":"熊本県球磨郡あさぎり町免田西３００３－３７","source":"熊本県 食品営業許可施設、届出施設データ"},"geometry":{"type":"Point","coordinates":[130.866788,32.221558]}},{"type":"Feature","properties":{"layer_id":"cafe_restaurant","address":"熊本県球磨郡あさぎり町免田西１４３８－１","source":"熊本県 食品営業許可施設、届出施設データ"},"geometry":{"type":"Point","coordinates":[130.875798,32.231458]}},{"type":"Feature","properties":{"layer_id":"cafe_restaurant","address":"熊本県球磨郡あさぎり町免田東１７１０－１","source":"熊本県 食品営業許可施設、届出施設データ"},"geometry":{"type":"Point","coordinates":[130.895099,32.234046]}},{"type":"Feature","properties":{"layer_id":"cafe_restaurant","address":"熊本県球磨郡あさぎり町免田西２００８－４","source":"熊本県 食品営業許可施設、届出施設データ"},"geometry":{"type":"Point","coordinates":[130.87787,32.226703]}},{"type":"Feature","properties":{"layer_id":"cafe_restaurant","address":"熊本県球磨郡あさぎり町免田東１６９３－２","source":"熊本県 食品営業許可施設、届出施設データ"},"geometry":{"type":"Point","coordinates":[130.903417,32.243008]}},{"type":"Feature","properties":{"layer_id":"cafe_restaurant","address":"熊本県球磨郡あさぎり町深田東４３８－１","source":"熊本県 食品営業許可施設、届出施設データ"},"geometry":{"type":"Point","coordinates":[130.873316,32.246999]}},{"type":"Feature","properties":{"layer_id":"cafe_restaurant","address":"熊本県球磨郡あさぎり町免田東１６９４－４","source":"熊本県 食品営業許可施設、届出施設データ"},"geometry":{"type":"Point","coordinates":[130.893171,32.234186]}},{"type":"Feature","properties":{"layer_id":"cafe_restaurant","address":"熊本県球磨郡あさぎり町岡原北１１０‐３","source":"熊本県 食品営業許可施設、届出施設データ"},"geometry":{"type":"Point","coordinates":[130.950245,32.230404]}},{"type":"Feature","properties":{"layer_id":"cafe_restaurant","address":"熊本県球磨郡あさぎり町免田東1982－19","source":"熊本県 食品営業許可施設、届出施設データ"},"geometry":{"type":"Point","coordinates":[130.903417,32.243008]}},{"type":"Feature","properties":{"layer_id":"cafe_restaurant","address":"熊本県球磨郡あさぎり町免田東１７４２－２","source":"熊本県 食品営業許可施設、届出施設データ"},"geometry":{"type":"Point","coordinates":[130.895683,32.234106]}},{"type":"Feature","properties":{"layer_id":"cafe_restaurant","address":"熊本県球磨郡あさぎり町免田東1482-3番地","source":"熊本県 食品営業許可施設、届出施設データ"},"geometry":{"type":"Point","coordinates":[130.893635,32.235889]}},{"type":"Feature","properties":{"layer_id":"cafe_restaurant","address":"熊本県球磨郡あさぎり町免田東１７４２－１１","source":"熊本県 食品営業許可施設、届出施設データ"},"geometry":{"type":"Point","coordinates":[130.896167,32.234146]}},{"type":"Feature","properties":{"layer_id":"cafe_restaurant","address":"熊本県球磨郡あさぎり町免田東1719－16","source":"熊本県 食品営業許可施設、届出施設データ"},"geometry":{"type":"Point","coordinates":[130.896348,32.236246]}},{"type":"Feature","properties":{"layer_id":"cafe_restaurant","address":"熊本県球磨郡あさぎり町免田東２６９９－１","source":"熊本県 食品営業許可施設、届出施設データ"},"geometry":{"type":"Point","coordinates":[130.905607,32.237121]}},{"type":"Feature","properties":{"layer_id":"cafe_restaurant","address":"熊本県球磨郡あさぎり町上北１９５－２","source":"熊本県 食品営業許可施設、届出施設データ"},"geometry":{"type":"Point","coordinates":[130.893758,32.233251]}},{"type":"Feature","properties":{"layer_id":"cafe_restaurant","address":"熊本県球磨郡あさぎり町上東１７３０","source":"熊本県 食品営業許可施設、届出施設データ"},"geometry":{"type":"Point","coordinates":[130.92273,32.215304]}},{"type":"Feature","properties":{"layer_id":"cafe_restaurant","address":"熊本県球磨郡あさぎり町免田東１４９７","source":"熊本県 食品営業許可施設、届出施設データ"},"geometry":{"type":"Point","coordinates":[130.903417,32.243008]}},{"type":"Feature","properties":{"layer_id":"cafe_restaurant","address":"熊本県球磨郡あさぎり町深田東１３０４－１","source":"熊本県 食品営業許可施設、届出施設データ"},"geometry":{"type":"Point","coordinates":[130.870371,32.260743]}},{"type":"Feature","properties":{"layer_id":"cafe_restaurant","address":"熊本県球磨郡あさぎり町免田東１６８９番２０","source":"熊本県 食品営業許可施設、届出施設データ"},"geometry":{"type":"Point","coordinates":[130.891801,32.233771]}},{"type":"Feature","properties":{"layer_id":"cafe_restaurant","address":"熊本県球磨郡あさぎり町免田東１７１８","source":"熊本県 食品営業許可施設、届出施設データ"},"geometry":{"type":"Point","coordinates":[130.903417,32.243008]}},{"type":"Feature","properties":{"layer_id":"cafe_restaurant","address":"熊本県球磨郡あさぎり町上北１２５７","source":"熊本県 食品営業許可施設、届出施設データ"},"geometry":{"type":"Point","coordinates":[130.901456,32.223893]}},{"type":"Feature","properties":{"layer_id":"cafe_restaurant","address":"熊本県球磨郡あさぎり町免田東1742－11","source":"熊本県 食品営業許可施設、届出施設データ"},"geometry":{"type":"Point","coordinates":[130.896167,32.234146]}},{"type":"Feature","properties":{"layer_id":"cafe_restaurant","address":"熊本県球磨郡あさぎり町上西６８８","source":"熊本県 食品営業許可施設、届出施設データ"},"geometry":{"type":"Point","coordinates":[130.891902,32.199578]}},{"type":"Feature","properties":{"layer_id":"cafe_restaurant","address":"熊本県球磨郡あさぎり町免田東１８４０","source":"熊本県 食品営業許可施設、届出施設データ"},"geometry":{"type":"Point","coordinates":[130.903417,32.243008]}},{"type":"Feature","properties":{"layer_id":"cafe_restaurant","address":"熊本県球磨郡あさぎり町上西１８５","source":"熊本県 食品営業許可施設、届出施設データ"},"geometry":{"type":"Point","coordinates":[130.891902,32.199578]}},{"type":"Feature","properties":{"layer_id":"cafe_restaurant","address":"熊本県球磨郡あさぎり町免田東字八幡１８４１－３１","source":"熊本県 食品営業許可施設、届出施設データ"},"geometry":{"type":"Point","coordinates":[130.903417,32.243008]}},{"type":"Feature","properties":{"layer_id":"cafe_restaurant","address":"熊本県球磨郡あさぎり町免田東1841－21","source":"熊本県 食品営業許可施設、届出施設データ"},"geometry":{"type":"Point","coordinates":[130.898499,32.237554]}},{"type":"Feature","properties":{"layer_id":"cafe_restaurant","address":"熊本県球磨郡あさぎり町免田東1493番地の4","source":"熊本県 食品営業許可施設、届出施設データ"},"geometry":{"type":"Point","coordinates":[130.894595,32.235848]}},{"type":"Feature","properties":{"layer_id":"cafe_restaurant","address":"熊本県球磨郡あさぎり町上北１００４－３","source":"熊本県 食品営業許可施設、届出施設データ"},"geometry":{"type":"Point","coordinates":[130.899343,32.226915]}},{"type":"Feature","properties":{"layer_id":"cafe_restaurant","address":"熊本県球磨郡あさぎり町免田東１８４０","source":"熊本県 食品営業許可施設、届出施設データ"},"geometry":{"type":"Point","coordinates":[130.903417,32.243008]}},{"type":"Feature","properties":{"layer_id":"cafe_restaurant","address":"熊本県球磨郡あさぎり町免田東４６２１","source":"熊本県 食品営業許可施設、届出施設データ"},"geometry":{"type":"Point","coordinates":[130.903417,32.243008]}},{"type":"Feature","properties":{"layer_id":"cafe_restaurant","address":"熊本県球磨郡あさぎり町免田東２５８８－３","source":"熊本県 食品営業許可施設、届出施設データ"},"geometry":{"type":"Point","coordinates":[130.905964,32.241032]}},{"type":"Feature","properties":{"layer_id":"cafe_restaurant","address":"熊本県球磨郡あさぎり町免田東1840-12","source":"熊本県 食品営業許可施設、届出施設データ"},"geometry":{"type":"Point","coordinates":[130.897128,32.236693]}},{"type":"Feature","properties":{"layer_id":"cafe_restaurant","address":"熊本県球磨郡あさぎり町免田東１６９１－１","source":"熊本県 食品営業許可施設、届出施設データ"},"geometry":{"type":"Point","coordinates":[130.892527,32.233889]}},{"type":"Feature","properties":{"layer_id":"cafe_restaurant","address":"熊本県球磨郡あさぎり町免田東2768－136","source":"熊本県 食品営業許可施設、届出施設データ"},"geometry":{"type":"Point","coordinates":[130.905236,32.238159]}},{"type":"Feature","properties":{"layer_id":"cafe_restaurant","address":"熊本県球磨郡あさぎり町免田東字吉井２７６８－４２","source":"熊本県 食品営業許可施設、届出施設データ"},"geometry":{"type":"Point","coordinates":[130.903417,32.243008]}},{"type":"Feature","properties":{"layer_id":"cafe_restaurant","address":"熊本県球磨郡あさぎり町免田西２６６４番地１６","source":"熊本県 食品営業許可施設、届出施設データ"},"geometry":{"type":"Point","coordinates":[130.870553,32.223471]}},{"type":"Feature","properties":{"layer_id":"cafe_restaurant","address":"熊本県球磨郡あさぎり町免田東１２３１－１","source":"熊本県 食品営業許可施設、届出施設データ"},"geometry":{"type":"Point","coordinates":[130.897913,32.238528]}},{"type":"Feature","properties":{"layer_id":"cafe_restaurant","address":"熊本県球磨郡あさぎり町免田東1717-3-2","source":"熊本県 食品営業許可施設、届出施設データ"},"geometry":{"type":"Point","coordinates":[130.903417,32.243008]}},{"type":"Feature","properties":{"layer_id":"cafe_restaurant","address":"熊本県球磨郡あさぎり町免田東1983－13","source":"熊本県 食品営業許可施設、届出施設データ"},"geometry":{"type":"Point","coordinates":[130.90123,32.23941]}},{"type":"Feature","properties":{"layer_id":"cafe_restaurant","address":"熊本県球磨郡あさぎり町免田東１４８２－３（Ａコープなかくま内）","source":"熊本県 食品営業許可施設、届出施設データ"},"geometry":{"type":"Point","coordinates":[130.893635,32.235889]}},{"type":"Feature","properties":{"layer_id":"cafe_restaurant","address":"熊本県球磨郡あさぎり町免田東１９０８－５","source":"熊本県 食品営業許可施設、届出施設データ"},"geometry":{"type":"Point","coordinates":[130.900926,32.23507]}},{"type":"Feature","properties":{"layer_id":"cafe_restaurant","address":"熊本県球磨郡あさぎり町免田東２７６８－１１４","source":"熊本県 食品営業許可施設、届出施設データ"},"geometry":{"type":"Point","coordinates":[130.904272,32.237494]}},{"type":"Feature","properties":{"layer_id":"cafe_restaurant","address":"熊本県球磨郡あさぎり町深田西９３２","source":"熊本県 食品営業許可施設、届出施設データ"},"geometry":{"type":"Point","coordinates":[130.858755,32.263468]}},{"type":"Feature","properties":{"layer_id":"cafe_restaurant","address":"熊本県球磨郡あさぎり町上北１０２７－１","source":"熊本県 食品営業許可施設、届出施設データ"},"geometry":{"type":"Point","coordinates":[130.897249,32.228085]}},{"type":"Feature","properties":{"layer_id":"cafe_restaurant","address":"熊本県球磨郡あさぎり町深田東７７４－１","source":"熊本県 食品営業許可施設、届出施設データ"},"geometry":{"type":"Point","coordinates":[130.874012,32.244345]}},{"type":"Feature","properties":{"layer_id":"cafe_restaurant","address":"熊本県球磨郡あさぎり町免田東３１５６－１","source":"熊本県 食品営業許可施設、届出施設データ"},"geometry":{"type":"Point","coordinates":[130.909242,32.242858]}},{"type":"Feature","properties":{"layer_id":"cafe_restaurant","address":"熊本県球磨郡あさぎり町上北１０２１－１","source":"熊本県 食品営業許可施設、届出施設データ"},"geometry":{"type":"Point","coordinates":[130.89736,32.22788]}},{"type":"Feature","properties":{"layer_id":"cafe_restaurant","address":"熊本県球磨郡あさぎり町上西６８８","source":"熊本県 食品営業許可施設、届出施設データ"},"geometry":{"type":"Point","coordinates":[130.891902,32.199578]}},{"type":"Feature","properties":{"layer_id":"cafe_restaurant","address":"熊本県球磨郡あさぎり町免田東3156-1","source":"熊本県 食品営業許可施設、届出施設データ"},"geometry":{"type":"Point","coordinates":[130.909242,32.242858]}},{"type":"Feature","properties":{"layer_id":"cafe_restaurant","address":"熊本県球磨郡あさぎり町免田東１８４０","source":"熊本県 食品営業許可施設、届出施設データ"},"geometry":{"type":"Point","coordinates":[130.903417,32.243008]}},{"type":"Feature","properties":{"layer_id":"cafe_restaurant","address":"熊本県球磨郡あさぎり町上西８３５－２","source":"熊本県 食品営業許可施設、届出施設データ"},"geometry":{"type":"Point","coordinates":[130.891902,32.199578]}},{"type":"Feature","properties":{"layer_id":"cafe_restaurant","address":"熊本県球磨郡あさぎり町免田東３３３２番地１","source":"熊本県 食品営業許可施設、届出施設データ"},"geometry":{"type":"Point","coordinates":[130.913384,32.250303]}},{"type":"Feature","properties":{"layer_id":"cafe_restaurant","address":"熊本県球磨郡あさぎり町免田東１７１９","source":"熊本県 食品営業許可施設、届出施設データ"},"geometry":{"type":"Point","coordinates":[130.903417,32.243008]}},{"type":"Feature","properties":{"layer_id":"cafe_restaurant","address":"熊本県球磨郡あさぎり町免田東1841番地21","source":"熊本県 食品営業許可施設、届出施設データ"},"geometry":{"type":"Point","coordinates":[130.898499,32.237554]}},{"type":"Feature","properties":{"layer_id":"cafe_restaurant","address":"球磨郡あさぎり町免田東２７９１","source":"熊本県 食品営業許可施設、届出施設データ"},"geometry":{"type":"Point","coordinates":[130.906632,32.240857]}},{"type":"Feature","properties":{"layer_id":"cafe_restaurant","address":"熊本県球磨郡あさぎり町免田東１２４１－５６","source":"熊本県 食品営業許可施設、届出施設データ"},"geometry":{"type":"Point","coordinates":[130.903417,32.243008]}},{"type":"Feature","properties":{"layer_id":"cafe_restaurant","name":"瞳","address":"熊本県球磨郡あさぎり町免田東１８４１－２２","source":"厚生労働省 食品衛生申請等システム（オープンデータ）"},"geometry":{"type":"Point","coordinates":[130.898697,32.237375]}},{"type":"Feature","properties":{"layer_id":"cafe_restaurant","name":"ファミリーマート球磨あさぎり上北店","address":"熊本県球磨郡あさぎり町上北１９－１","source":"厚生労働省 食品衛生申請等システム（オープンデータ）"},"geometry":{"type":"Point","coordinates":[130.888841,32.231126]}},{"type":"Feature","properties":{"layer_id":"cafe_restaurant","name":"尾方商店","address":"熊本県球磨郡あさぎり町免田東２６９９－１","source":"厚生労働省 食品衛生申請等システム（オープンデータ）"},"geometry":{"type":"Point","coordinates":[130.905612,32.237153]}},{"type":"Feature","properties":{"layer_id":"cafe_restaurant","name":"居酒屋昔ばなし","address":"熊本県球磨郡あさぎり町免田東１８４１－２６","source":"厚生労働省 食品衛生申請等システム（オープンデータ）"},"geometry":{"type":"Point","coordinates":[130.899027,32.237942]}},{"type":"Feature","properties":{"layer_id":"cafe_restaurant","name":"杉下商店","address":"熊本県球磨郡あさぎり町岡原北１１０の３","source":"厚生労働省 食品衛生申請等システム（オープンデータ）"},"geometry":{"type":"Point","coordinates":[130.928098,32.24024]}},{"type":"Feature","properties":{"layer_id":"cafe_restaurant","name":"pecora(ペコラ)","address":"熊本県球磨郡あさぎり町免田東２７６８－４２ （Ａ号）","source":"厚生労働省 食品衛生申請等システム（オープンデータ）"},"geometry":{"type":"Point","coordinates":[130.904073,32.237856]}},{"type":"Feature","properties":{"layer_id":"cafe_restaurant","name":"ファミリーマートくま免田東","address":"熊本県球磨郡あさぎり町免田東字北築地３３２１","source":"厚生労働省 食品衛生申請等システム（オープンデータ）"},"geometry":{"type":"Point","coordinates":[130.91208,32.245655]}},{"type":"Feature","properties":{"layer_id":"cafe_restaurant","name":"カネフク青果","address":"熊本県球磨郡あさぎり町免田西字黒田２４０３－１","source":"厚生労働省 食品衛生申請等システム（オープンデータ）"},"geometry":{"type":"Point","coordinates":[130.870939,32.225556]}},{"type":"Feature","properties":{"layer_id":"cafe_restaurant","name":"魚さわイスミ免田店","address":"熊本県球磨郡あさぎり町免田東３１５６－１","source":"厚生労働省 食品衛生申請等システム（オープンデータ）"},"geometry":{"type":"Point","coordinates":[130.909949,32.242821]}},{"type":"Feature","properties":{"layer_id":"cafe_restaurant","name":"もみの木","address":"熊本県球磨郡あさぎり町免田東１６９３－１","source":"厚生労働省 食品衛生申請等システム（オープンデータ）"},"geometry":{"type":"Point","coordinates":[130.892845,32.234027]}},{"type":"Feature","properties":{"layer_id":"cafe_restaurant","name":"あさぎり交流館　笑来笑来","address":"熊本県球磨郡あさぎり町上北１１２３","source":"厚生労働省 食品衛生申請等システム（オープンデータ）"},"geometry":{"type":"Point","coordinates":[130.901156,32.22877]}},{"type":"Feature","properties":{"layer_id":"cafe_restaurant","name":"おまかせ居酒屋わさもん","address":"熊本県球磨郡あさぎり町免田東１８４０－２１","source":"厚生労働省 食品衛生申請等システム（オープンデータ）"},"geometry":{"type":"Point","coordinates":[130.897044,32.236614]}},{"type":"Feature","properties":{"layer_id":"cafe_restaurant","name":"株式会社スーパーよしだデリカよしだ免田店","address":"熊本県球磨郡あさぎり町免田東３１５６－１","source":"厚生労働省 食品衛生申請等システム（オープンデータ）"},"geometry":{"type":"Point","coordinates":[130.909916,32.242791]}},{"type":"Feature","properties":{"layer_id":"cafe_restaurant","name":"有限会社さん市水産","address":"熊本県球磨郡あさぎり町免田東１４８２の３ Ａコープなかくま内","source":"厚生労働省 食品衛生申請等システム（オープンデータ）"},"geometry":{"type":"Point","coordinates":[130.894223,32.236377]}},{"type":"Feature","properties":{"layer_id":"cafe_restaurant","name":"あさぎり山荘　ひばり","address":"熊本県球磨郡あさぎり町深田西２５００番地","source":"厚生労働省 食品衛生申請等システム（オープンデータ）"},"geometry":{"type":"Point","coordinates":[130.865022,32.266593]}},{"type":"Feature","properties":{"layer_id":"cafe_restaurant","name":"松の泉酒造合資会社","address":"熊本県球磨郡あさぎり町上北１６９番地１","source":"厚生労働省 食品衛生申請等システム（オープンデータ）"},"geometry":{"type":"Point","coordinates":[130.891502,32.233261]}},{"type":"Feature","properties":{"layer_id":"cafe_restaurant","name":"サンロード免田店","address":"熊本県球磨郡あさぎり町免田東１２５３－１","source":"厚生労働省 食品衛生申請等システム（オープンデータ）"},"geometry":{"type":"Point","coordinates":[130.896419,32.237611]}},{"type":"Feature","properties":{"layer_id":"cafe_restaurant","name":"ファミリーマートサンロード免田店","address":"熊本県球磨郡あさぎり町免田東１２５６－１８","source":"厚生労働省 食品衛生申請等システム（オープンデータ）"},"geometry":{"type":"Point","coordinates":[130.896923,32.237166]}},{"type":"Feature","properties":{"layer_id":"cafe_restaurant","name":"レストランヘルシー","address":"熊本県球磨郡あさぎり町上北１８７４","source":"厚生労働省 食品衛生申請等システム（オープンデータ）"},"geometry":{"type":"Point","coordinates":[130.900544,32.217267]}},{"type":"Feature","properties":{"layer_id":"cafe_restaurant","name":"ＢAR SKY","address":"熊本県球磨郡あさぎり町免田東２７６８－４２","source":"厚生労働省 食品衛生申請等システム（オープンデータ）"},"geometry":{"type":"Point","coordinates":[130.904073,32.237856]}},{"type":"Feature","properties":{"layer_id":"cafe_restaurant","name":"ｇｒａｃｅ　ｌｅａｖｅｓ＋","address":"熊本県球磨郡あさぎり町上西９６－２","source":"厚生労働省 食品衛生申請等システム（オープンデータ）"},"geometry":{"type":"Point","coordinates":[130.882035,32.224933]}},{"type":"Feature","properties":{"layer_id":"cafe_restaurant","name":"月のしずく","address":"熊本県球磨郡あさぎり町免田東１２５６番地９","source":"厚生労働省 食品衛生申請等システム（オープンデータ）"},"geometry":{"type":"Point","coordinates":[130.897724,32.237516]}},{"type":"Feature","properties":{"layer_id":"cafe_restaurant","name":"５２５cafe","address":"熊本県球磨郡あさぎり町免田東１６９４－１７","source":"厚生労働省 食品衛生申請等システム（オープンデータ）"},"geometry":{"type":"Point","coordinates":[130.893236,32.234214]}},{"type":"Feature","properties":{"layer_id":"cafe_restaurant","name":"セブンーイレブン球磨あさぎり町店","address":"熊本県球磨郡あさぎり町免田西字黒田２５２２番１","source":"厚生労働省 食品衛生申請等システム（オープンデータ）"},"geometry":{"type":"Point","coordinates":[130.870939,32.225556]}},{"type":"Feature","properties":{"layer_id":"cafe_restaurant","name":"華の城（免田店）","address":"熊本県球磨郡あさぎり町免田東１２５３ー１","source":"厚生労働省 食品衛生申請等システム（オープンデータ）"},"geometry":{"type":"Point","coordinates":[130.896419,32.237611]}},{"type":"Feature","properties":{"layer_id":"cafe_restaurant","name":"チーコッコ","address":"熊本県球磨郡あさぎり町免田東１９７４－６","source":"厚生労働省 食品衛生申請等システム（オープンデータ）"},"geometry":{"type":"Point","coordinates":[130.902079,32.239419]}},{"type":"Feature","properties":{"layer_id":"cafe_restaurant","name":"和風レストラン大正茶屋","address":"熊本県球磨郡あさぎり町免田東１７１９番地２","source":"厚生労働省 食品衛生申請等システム（オープンデータ）"},"geometry":{"type":"Point","coordinates":[130.895661,32.235675]}},{"type":"Feature","properties":{"layer_id":"cafe_restaurant","name":"Ｌａ・Ｐｏｒｔａ","address":"熊本県球磨郡あさぎり町免田東１４８３","source":"厚生労働省 食品衛生申請等システム（オープンデータ）"},"geometry":{"type":"Point","coordinates":[130.894313,32.236044]}},{"type":"Feature","properties":{"layer_id":"cafe_restaurant","name":"華ごよみ","address":"熊本県球磨郡あさぎり町深田西７２７","source":"厚生労働省 食品衛生申請等システム（オープンデータ）"},"geometry":{"type":"Point","coordinates":[130.870215,32.24246]}},{"type":"Feature","properties":{"layer_id":"cafe_restaurant","name":"やきとり居酒屋てんろく","address":"熊本県球磨郡あさぎり町免田東１４９７番地４８","source":"厚生労働省 食品衛生申請等システム（オープンデータ）"},"geometry":{"type":"Point","coordinates":[130.893437,32.235123]}},{"type":"Feature","properties":{"layer_id":"cafe_restaurant","name":"カラオケBanBanあさぎり","address":"熊本県球磨郡あさぎり町免田東八幡町１２３１－１","source":"厚生労働省 食品衛生申請等システム（オープンデータ）"},"geometry":{"type":"Point","coordinates":[130.89687,32.23677]}},{"type":"Feature","properties":{"layer_id":"cafe_restaurant","name":"しいばストアー","address":"熊本県球磨郡あさぎり町免田東１８４０","source":"厚生労働省 食品衛生申請等システム（オープンデータ）"},"geometry":{"type":"Point","coordinates":[130.897044,32.236614]}},{"type":"Feature","properties":{"layer_id":"cafe_restaurant","name":"黒豚キッチンKUMAKURO幸福駅店","address":"熊本県球磨郡あさぎり町免田西１４３８－１","source":"厚生労働省 食品衛生申請等システム（オープンデータ）"},"geometry":{"type":"Point","coordinates":[130.875674,32.231513]}},{"type":"Feature","properties":{"layer_id":"cafe_restaurant","name":"リュウキンカの郷","address":"熊本県球磨郡あさぎり町深田西８７９","source":"厚生労働省 食品衛生申請等システム（オープンデータ）"},"geometry":{"type":"Point","coordinates":[130.872722,32.243877]}},{"type":"Feature","properties":{"layer_id":"cafe_restaurant","name":"まるとく食堂","address":"熊本県球磨郡あさぎり町免田東１４９４－３","source":"厚生労働省 食品衛生申請等システム（オープンデータ）"},"geometry":{"type":"Point","coordinates":[130.893852,32.235348]}},{"type":"Feature","properties":{"layer_id":"cafe_restaurant","name":"辛麺屋たけ","address":"熊本県球磨郡あさぎり町免田東１２４１－５６","source":"厚生労働省 食品衛生申請等システム（オープンデータ）"},"geometry":{"type":"Point","coordinates":[130.897672,32.2378]}},{"type":"Feature","properties":{"layer_id":"cafe_restaurant","address":"熊本県球磨郡あさぎり町免田東２８２５－１８","source":"厚生労働省 食品衛生申請等システム（オープンデータ）"},"geometry":{"type":"Point","coordinates":[130.907225,32.238352]}},{"type":"Feature","properties":{"layer_id":"cafe_restaurant","name":"特別養護老人ホーム　鐘ケ丘ホーム","address":"熊本県球磨郡あさぎり町上西８３５","source":"厚生労働省 食品衛生申請等システム（オープンデータ）"},"geometry":{"type":"Point","coordinates":[130.889034,32.21894]}},{"type":"Feature","properties":{"layer_id":"cafe_restaurant","name":"マイティボンボン","address":"熊本県球磨郡あさぎり町免田東4170-5","source":"厚生労働省 食品衛生申請等システム（オープンデータ）"},"geometry":{"type":"Point","coordinates":[130.913841,32.247567]}},{"type":"Feature","properties":{"layer_id":"cafe_restaurant","name":"華鶏　あさぎり店","address":"熊本県球磨郡あさぎり町免田東１６８３－９","source":"厚生労働省 食品衛生申請等システム（オープンデータ）"},"geometry":{"type":"Point","coordinates":[130.892486,32.234472]}},{"type":"Feature","properties":{"layer_id":"cafe_restaurant","name":"K’ｓ　Ｃｏｐａｉｎ（ケイズコパン）","address":"熊本県球磨郡あさぎり町免田西４４５－８","source":"厚生労働省 食品衛生申請等システム（オープンデータ）"},"geometry":{"type":"Point","coordinates":[130.88275,32.228331]}},{"type":"Feature","properties":{"layer_id":"cafe_restaurant","name":"K’ｓ  Ｃｏｐａｉｎ","address":"熊本県球磨郡あさぎり町免田東字二子１６０１番地の１","source":"厚生労働省 食品衛生申請等システム（オープンデータ）"},"geometry":{"type":"Point","coordinates":[130.885427,32.235979]}},{"type":"Feature","properties":{"layer_id":"cafe_restaurant","name":"パン工房　麦の音","address":"熊本県球磨郡あさぎり町免田西３００３－３７","source":"厚生労働省 食品衛生申請等システム（オープンデータ）"},"geometry":{"type":"Point","coordinates":[130.86653,32.221566]}},{"type":"Feature","properties":{"layer_id":"cafe_restaurant","name":"小料理　まんまる","address":"熊本県球磨郡あさぎり町免田東１６９３－２","source":"厚生労働省 食品衛生申請等システム（オープンデータ）"},"geometry":{"type":"Point","coordinates":[130.892852,32.234043]}},{"type":"Feature","properties":{"layer_id":"cafe_restaurant","name":"焼とり　あしび","address":"熊本県球磨郡あさぎり町免田東１７４２－２","source":"厚生労働省 食品衛生申請等システム（オープンデータ）"},"geometry":{"type":"Point","coordinates":[130.895487,32.23407]}},{"type":"Feature","properties":{"layer_id":"cafe_restaurant","name":"有限会社すなお","address":"熊本県球磨郡あさぎり町免田東１６９４番地の４","source":"厚生労働省 食品衛生申請等システム（オープンデータ）"},"geometry":{"type":"Point","coordinates":[130.893236,32.234214]}},{"type":"Feature","properties":{"layer_id":"cafe_restaurant","name":"ろばた焼　魚魚","address":"熊本県球磨郡あさぎり町免田東１９８２－２９","source":"厚生労働省 食品衛生申請等システム（オープンデータ）"},"geometry":{"type":"Point","coordinates":[130.901812,32.239219]}},{"type":"Feature","properties":{"layer_id":"cafe_restaurant","name":"お食事処　謙五","address":"熊本県球磨郡あさぎり町上北１９５－２","source":"厚生労働省 食品衛生申請等システム（オープンデータ）"},"geometry":{"type":"Point","coordinates":[130.8937,32.233213]}},{"type":"Feature","properties":{"layer_id":"cafe_restaurant","name":"西峯食堂","address":"熊本県球磨郡あさぎり町上東１７３０","source":"厚生労働省 食品衛生申請等システム（オープンデータ）"},"geometry":{"type":"Point","coordinates":[130.927467,32.216054]}},{"type":"Feature","properties":{"layer_id":"cafe_restaurant","name":"レストラン高山","address":"熊本県球磨郡あさぎり町深田東１３０４－１","source":"厚生労働省 食品衛生申請等システム（オープンデータ）"},"geometry":{"type":"Point","coordinates":[130.871252,32.26089]}},{"type":"Feature","properties":{"layer_id":"cafe_restaurant","name":"料理三昧　彦六","address":"熊本県球磨郡あさぎり町免田東１４９７－１３","source":"厚生労働省 食品衛生申請等システム（オープンデータ）"},"geometry":{"type":"Point","coordinates":[130.893276,32.234583]}},{"type":"Feature","properties":{"layer_id":"cafe_restaurant","name":"小さなお菓子屋さんボンボンズＭａｋｉ","address":"熊本県球磨郡あさぎり町免田東１７１９－１６","source":"厚生労働省 食品衛生申請等システム（オープンデータ）"},"geometry":{"type":"Point","coordinates":[130.896359,32.236231]}},{"type":"Feature","properties":{"layer_id":"cafe_restaurant","name":"SALUD","address":"熊本県球磨郡あさぎり町免田東１７０４－１","source":"厚生労働省 食品衛生申請等システム（オープンデータ）"},"geometry":{"type":"Point","coordinates":[130.895041,32.234124]}},{"type":"Feature","properties":{"layer_id":"cafe_restaurant","name":"春日会館","address":"熊本県球磨郡あさぎり町上北1257-24","source":"厚生労働省 食品衛生申請等システム（オープンデータ）"},"geometry":{"type":"Point","coordinates":[130.905736,32.231252]}},{"type":"Feature","properties":{"layer_id":"cafe_restaurant","name":"COCO","address":"熊本県球磨郡あさぎり町免田東1689-20","source":"厚生労働省 食品衛生申請等システム（オープンデータ）"},"geometry":{"type":"Point","coordinates":[130.89181,32.233753]}},{"type":"Feature","properties":{"layer_id":"cafe_restaurant","name":"きんいろぽらりす","address":"熊本県球磨郡あさぎり町上西２２２番地２","source":"厚生労働省 食品衛生申請等システム（オープンデータ）"},"geometry":{"type":"Point","coordinates":[130.886599,32.229023]}},{"type":"Feature","properties":{"layer_id":"cafe_restaurant","name":"G’ｚ　ＢＡＲ","address":"熊本県球磨郡あさぎり町免田東１７０４－１　フラワーコーポ","source":"厚生労働省 食品衛生申請等システム（オープンデータ）"},"geometry":{"type":"Point","coordinates":[130.895041,32.234124]}},{"type":"Feature","properties":{"layer_id":"cafe_restaurant","name":"飲み食処　やま斗","address":"熊本県球磨郡あさぎり町免田東字八幡１８４１－３１","source":"厚生労働省 食品衛生申請等システム（オープンデータ）"},"geometry":{"type":"Point","coordinates":[130.899409,32.236348]}},{"type":"Feature","properties":{"layer_id":"cafe_restaurant","name":"喜希屋","address":"熊本県球磨郡あさぎり町免田東2074-25","source":"厚生労働省 食品衛生申請等システム（オープンデータ）"},"geometry":{"type":"Point","coordinates":[130.900504,32.239072]}},{"type":"Feature","properties":{"layer_id":"cafe_restaurant","name":"旅館志らき","address":"熊本県球磨郡あさぎり町免田東1840","source":"厚生労働省 食品衛生申請等システム（オープンデータ）"},"geometry":{"type":"Point","coordinates":[130.897841,32.237208]}},{"type":"Feature","properties":{"layer_id":"cafe_restaurant","name":"赤れんが","address":"熊本県球磨郡あさぎり町免田東1840の12","source":"厚生労働省 食品衛生申請等システム（オープンデータ）"},"geometry":{"type":"Point","coordinates":[130.897841,32.237208]}},{"type":"Feature","properties":{"layer_id":"cafe_restaurant","name":"球磨乃路","address":"熊本県球磨郡あさぎり町免田東2588-3","source":"厚生労働省 食品衛生申請等システム（オープンデータ）"},"geometry":{"type":"Point","coordinates":[130.906055,32.24113]}},{"type":"Feature","properties":{"layer_id":"cafe_restaurant","name":"居酒屋　萬両","address":"熊本県球磨郡あさぎり町免田東1691-1","source":"厚生労働省 食品衛生申請等システム（オープンデータ）"},"geometry":{"type":"Point","coordinates":[130.892512,32.233888]}},{"type":"Feature","properties":{"layer_id":"public_facilities","name":"屯所分館","address":"あさぎり町須恵屯所","source":"国土交通省 国土数値情報"},"geometry":{"type":"Point","coordinates":[130.905633,32.265602]}},{"type":"Feature","properties":{"layer_id":"public_facilities","name":"福留分館","address":"あさぎり町岡原南1167","source":"国土交通省 国土数値情報"},"geometry":{"type":"Point","coordinates":[130.93246,32.231092]}},{"type":"Feature","properties":{"layer_id":"public_facilities","name":"下乙分館","address":"あさぎり町免田西3467","source":"国土交通省 国土数値情報"},"geometry":{"type":"Point","coordinates":[130.862173,32.209953]}},{"type":"Feature","properties":{"layer_id":"public_facilities","name":"吉井分館","address":"あさぎり町免田東2825-1","source":"国土交通省 国土数値情報"},"geometry":{"type":"Point","coordinates":[130.907376,32.237999]}},{"type":"Feature","properties":{"layer_id":"public_facilities","name":"西別府分館","address":"あさぎり町上西690","source":"国土交通省 国土数値情報"},"geometry":{"type":"Point","coordinates":[130.884081,32.221372]}},{"type":"Feature","properties":{"layer_id":"public_facilities","name":"永山分館","address":"あさぎり町上東1555","source":"国土交通省 国土数値情報"},"geometry":{"type":"Point","coordinates":[130.926805,32.220051]}},{"type":"Feature","properties":{"layer_id":"public_facilities","name":"ふれあい福祉センター","address":"あさぎり町岡原北929","source":"国土交通省 国土数値情報"},"geometry":{"type":"Point","coordinates":[130.929435,32.240035]}},{"type":"Feature","properties":{"layer_id":"public_facilities","name":"須恵校区公民館","address":"あさぎり町須恵1227","source":"国土交通省 国土数値情報"},"geometry":{"type":"Point","coordinates":[130.90037,32.266606]}},{"type":"Feature","properties":{"layer_id":"public_facilities","name":"上総合運動公園体育館","address":"あさぎり町上東128-2","source":"国土交通省 国土数値情報"},"geometry":{"type":"Point","coordinates":[130.910371,32.221087]}},{"type":"Feature","properties":{"layer_id":"public_facilities","name":"須恵支所","address":"あさぎり町須恵1227","source":"国土交通省 国土数値情報"},"geometry":{"type":"Point","coordinates":[130.90037,32.266586]}},{"type":"Feature","properties":{"layer_id":"public_facilities","name":"築地分館","address":"あさぎり町免田東4240","source":"国土交通省 国土数値情報"},"geometry":{"type":"Point","coordinates":[130.913694,32.24511]}},{"type":"Feature","properties":{"layer_id":"public_facilities","name":"上支所","address":"あさぎり町上北1874","source":"国土交通省 国土数値情報"},"geometry":{"type":"Point","coordinates":[130.900379,32.21723]}},{"type":"Feature","properties":{"layer_id":"public_facilities","name":"大正町分館","address":"あさぎり町免田東1747-4","source":"国土交通省 国土数値情報"},"geometry":{"type":"Point","coordinates":[130.896391,32.234448]}},{"type":"Feature","properties":{"layer_id":"public_facilities","name":"生涯学習センター","address":"あさぎり町免田東1774","source":"国土交通省 国土数値情報"},"geometry":{"type":"Point","coordinates":[130.899565,32.234713]}},{"type":"Feature","properties":{"layer_id":"public_facilities","name":"仁王分館","address":"あさぎり町深田北仁王","source":"国土交通省 国土数値情報"},"geometry":{"type":"Point","coordinates":[130.892584,32.261593]}},{"type":"Feature","properties":{"layer_id":"public_facilities","name":"柳別府分館","address":"あさぎり町上北1381","source":"国土交通省 国土数値情報"},"geometry":{"type":"Point","coordinates":[130.901854,32.223942]}},{"type":"Feature","properties":{"layer_id":"public_facilities","name":"寺池分館","address":"あさぎり町須恵寺池","source":"国土交通省 国土数値情報"},"geometry":{"type":"Point","coordinates":[130.896732,32.27302]}},{"type":"Feature","properties":{"layer_id":"public_facilities","name":"斉堂分館","address":"あさぎり町岡原南295","source":"国土交通省 国土数値情報"},"geometry":{"type":"Point","coordinates":[130.92326,32.235832]}},{"type":"Feature","properties":{"layer_id":"public_facilities","name":"今井分館","address":"あさぎり町上北1023","source":"国土交通省 国土数値情報"},"geometry":{"type":"Point","coordinates":[130.896956,32.22782]}},{"type":"Feature","properties":{"layer_id":"public_facilities","name":"内山分館","address":"あさぎり町深田東内山","source":"国土交通省 国土数値情報"},"geometry":{"type":"Point","coordinates":[130.867654,32.254235]}},{"type":"Feature","properties":{"layer_id":"public_facilities","name":"狩所分館","address":"あさぎり町上東1920-1","source":"国土交通省 国土数値情報"},"geometry":{"type":"Point","coordinates":[130.924232,32.213711]}},{"type":"Feature","properties":{"layer_id":"public_facilities","name":"開墾分館","address":"あさぎり町岡原南658-20","source":"国土交通省 国土数値情報"},"geometry":{"type":"Point","coordinates":[130.923247,32.228191]}},{"type":"Feature","properties":{"layer_id":"public_facilities","name":"岡麓分館","address":"あさぎり町岡原南2699-3","source":"国土交通省 国土数値情報"},"geometry":{"type":"Point","coordinates":[130.94099,32.225996]}},{"type":"Feature","properties":{"layer_id":"public_facilities","name":"植の里分館","address":"あさぎり町深田東植の里","source":"国土交通省 国土数値情報"},"geometry":{"type":"Point","coordinates":[130.876982,32.246553]}},{"type":"Feature","properties":{"layer_id":"public_facilities","name":"井上分館","address":"あさぎり町上南2220-2","source":"国土交通省 国土数値情報"},"geometry":{"type":"Point","coordinates":[130.905633,32.20947]}},{"type":"Feature","properties":{"layer_id":"public_facilities","name":"古草城分館","address":"あさぎり町深田西古草城","source":"国土交通省 国土数値情報"},"geometry":{"type":"Point","coordinates":[130.863737,32.244045]}},{"type":"Feature","properties":{"layer_id":"public_facilities","name":"熊野分館","address":"あさぎり町岡原北637","source":"国土交通省 国土数値情報"},"geometry":{"type":"Point","coordinates":[130.94037,32.243053]}},{"type":"Feature","properties":{"layer_id":"public_facilities","name":"石坂分館","address":"あさぎり町上東563-2","source":"国土交通省 国土数値情報"},"geometry":{"type":"Point","coordinates":[130.913992,32.218543]}},{"type":"Feature","properties":{"layer_id":"public_facilities","name":"別府分館","address":"あさぎり町岡原北83","source":"国土交通省 国土数値情報"},"geometry":{"type":"Point","coordinates":[130.925394,32.240993]}},{"type":"Feature","properties":{"layer_id":"public_facilities","name":"永岡分館","address":"あさぎり町岡原南2012-2","source":"国土交通省 国土数値情報"},"geometry":{"type":"Point","coordinates":[130.932291,32.225832]}},{"type":"Feature","properties":{"layer_id":"public_facilities","name":"明廿分館","address":"あさぎり町深田南明廿","source":"国土交通省 国土数値情報"},"geometry":{"type":"Point","coordinates":[130.873563,32.240917]}},{"type":"Feature","properties":{"layer_id":"public_facilities","name":"塚脇分館","address":"あさぎり町上西1308","source":"国土交通省 国土数値情報"},"geometry":{"type":"Point","coordinates":[130.891513,32.216122]}},{"type":"Feature","properties":{"layer_id":"public_facilities","name":"須恵文化ホール","address":"あさぎり町須恵1227","source":"国土交通省 国土数値情報"},"geometry":{"type":"Point","coordinates":[130.900231,32.266674]}},{"type":"Feature","properties":{"layer_id":"public_facilities","name":"秋時分館","address":"あさぎり町上南2705-2","source":"国土交通省 国土数値情報"},"geometry":{"type":"Point","coordinates":[130.910039,32.207098]}},{"type":"Feature","properties":{"layer_id":"public_facilities","name":"榎田分館","address":"あさぎり町上西2917-3","source":"国土交通省 国土数値情報"},"geometry":{"type":"Point","coordinates":[130.887155,32.197445]}},{"type":"Feature","properties":{"layer_id":"public_facilities","name":"二子分館","address":"あさぎり町免田東464-1","source":"国土交通省 国土数値情報"},"geometry":{"type":"Point","coordinates":[130.886974,32.235037]}},{"type":"Feature","properties":{"layer_id":"public_facilities","name":"麓分館","address":"あさぎり町上南3017-2","source":"国土交通省 国土数値情報"},"geometry":{"type":"Point","coordinates":[130.915513,32.208669]}},{"type":"Feature","properties":{"layer_id":"public_facilities","name":"上永里分館","address":"あさぎり町上西3342-100","source":"国土交通省 国土数値情報"},"geometry":{"type":"Point","coordinates":[130.899312,32.196522]}},{"type":"Feature","properties":{"layer_id":"public_facilities","name":"深田校区公民館せきれい館","address":"あさぎり町深田西955-1","source":"国土交通省 国土数値情報"},"geometry":{"type":"Point","coordinates":[130.873136,32.243895]}},{"type":"Feature","properties":{"layer_id":"public_facilities","name":"免田総合体育センター","address":"あさぎり町免田東1989-3","source":"国土交通省 国土数値情報"},"geometry":{"type":"Point","coordinates":[130.900234,32.241543]}},{"type":"Feature","properties":{"layer_id":"public_facilities","name":"堀角分館","address":"あさぎり町上北277-3","source":"国土交通省 国土数値情報"},"geometry":{"type":"Point","coordinates":[130.893101,32.233443]}},{"type":"Feature","properties":{"layer_id":"public_facilities","name":"神殿原分館","address":"あさぎり町上北2309-1","source":"国土交通省 国土数値情報"},"geometry":{"type":"Point","coordinates":[130.908598,32.2289]}},{"type":"Feature","properties":{"layer_id":"public_facilities","name":"竹野分館","address":"あさぎり町岡原北410","source":"国土交通省 国土数値情報"},"geometry":{"type":"Point","coordinates":[130.934238,32.243919]}},{"type":"Feature","properties":{"layer_id":"public_facilities","name":"総合福祉センター","address":"あさぎり町免田東1190-2","source":"国土交通省 国土数値情報"},"geometry":{"type":"Point","coordinates":[130.897962,32.240943]}},{"type":"Feature","properties":{"layer_id":"public_facilities","name":"深田支所","address":"あさぎり町深田西955-1","source":"国土交通省 国土数値情報"},"geometry":{"type":"Point","coordinates":[130.873076,32.24394]}},{"type":"Feature","properties":{"layer_id":"public_facilities","name":"上校区公民館","address":"あさぎり町上北1855","source":"国土交通省 国土数値情報"},"geometry":{"type":"Point","coordinates":[130.902018,32.217529]}},{"type":"Feature","properties":{"layer_id":"public_facilities","name":"高齢者コミュニティセンター","address":"あさぎり町上北1880-2","source":"国土交通省 国土数値情報"},"geometry":{"type":"Point","coordinates":[130.901265,32.217623]}},{"type":"Feature","properties":{"layer_id":"public_facilities","name":"永里分館","address":"あさぎり町上南1412-1","source":"国土交通省 国土数値情報"},"geometry":{"type":"Point","coordinates":[130.901515,32.204827]}},{"type":"Feature","properties":{"layer_id":"public_facilities","name":"もみじ館","address":"あさぎり町岡原北904","source":"国土交通省 国土数値情報"},"geometry":{"type":"Point","coordinates":[130.943747,32.235377]}},{"type":"Feature","properties":{"layer_id":"public_facilities","name":"岡原支所","address":"あさぎり町岡原北929","source":"国土交通省 国土数値情報"},"geometry":{"type":"Point","coordinates":[130.929206,32.240494]}},{"type":"Feature","properties":{"layer_id":"public_facilities","name":"免田校区公民館","address":"あさぎり町免田東1989-3","source":"国土交通省 国土数値情報"},"geometry":{"type":"Point","coordinates":[130.900387,32.24138]}},{"type":"Feature","properties":{"layer_id":"public_facilities","name":"桧山分館","address":"あさぎり町岡原北1126","source":"国土交通省 国土数値情報"},"geometry":{"type":"Point","coordinates":[130.930222,32.237279]}},{"type":"Feature","properties":{"layer_id":"public_facilities","name":"庄屋分館","address":"あさぎり町深田東庄屋","source":"国土交通省 国土数値情報"},"geometry":{"type":"Point","coordinates":[130.88998,32.248346]}},{"type":"Feature","properties":{"layer_id":"public_facilities","name":"吉井住宅分館","address":"あさぎり町免田東1922-71","source":"国土交通省 国土数値情報"},"geometry":{"type":"Point","coordinates":[130.905062,32.235483]}},{"type":"Feature","properties":{"layer_id":"public_facilities","name":"平和分館","address":"あさぎり町上北2215-23","source":"国土交通省 国土数値情報"},"geometry":{"type":"Point","coordinates":[130.909602,32.223658]}},{"type":"Feature","properties":{"layer_id":"public_facilities","name":"阿蘇分館","address":"あさぎり町須恵阿蘇","source":"国土交通省 国土数値情報"},"geometry":{"type":"Point","coordinates":[130.902491,32.277213]}},{"type":"Feature","properties":{"layer_id":"public_facilities","name":"覚井分館","address":"あさぎり町須恵覚井","source":"国土交通省 国土数値情報"},"geometry":{"type":"Point","coordinates":[130.900912,32.260276]}},{"type":"Feature","properties":{"layer_id":"public_facilities","name":"下里分館","address":"あさぎり町深田東下里","source":"国土交通省 国土数値情報"},"geometry":{"type":"Point","coordinates":[130.871923,32.24713]}},{"type":"Feature","properties":{"layer_id":"public_facilities","name":"八幡町分館","address":"あさぎり町免田東1822","source":"国土交通省 国土数値情報"},"geometry":{"type":"Point","coordinates":[130.898003,32.236697]}},{"type":"Feature","properties":{"layer_id":"public_facilities","name":"高山総合体育館","address":"あさぎり町深田東1408","source":"国土交通省 国土数値情報"},"geometry":{"type":"Point","coordinates":[130.877503,32.250634]}},{"type":"Feature","properties":{"layer_id":"public_facilities","name":"新分館","address":"あさぎり町深田西新","source":"国土交通省 国土数値情報"},"geometry":{"type":"Point","coordinates":[130.851701,32.257206]}},{"type":"Feature","properties":{"layer_id":"public_facilities","name":"永才分館","address":"あさぎり町免田西1322","source":"国土交通省 国土数値情報"},"geometry":{"type":"Point","coordinates":[130.870042,32.22896]}},{"type":"Feature","properties":{"layer_id":"public_facilities","name":"黒田分館","address":"あさぎり町免田西1576-1","source":"国土交通省 国土数値情報"},"geometry":{"type":"Point","coordinates":[130.876696,32.229862]}},{"type":"Feature","properties":{"layer_id":"public_facilities","name":"商工コミュニティセンターポッポー館","address":"あさぎり町免田東1482-2","source":"国土交通省 国土数値情報"},"geometry":{"type":"Point","coordinates":[130.894441,32.236552]}},{"type":"Feature","properties":{"layer_id":"public_facilities","name":"あさぎり町役場","address":"あさぎり町免田東1199","source":"国土交通省 国土数値情報"},"geometry":{"type":"Point","coordinates":[130.897827,32.240321]}},{"type":"Feature","properties":{"layer_id":"public_facilities","name":"清水分館","address":"あさぎり町上西221-3","source":"国土交通省 国土数値情報"},"geometry":{"type":"Point","coordinates":[130.886211,32.216282]}},{"type":"Feature","properties":{"layer_id":"public_facilities","name":"岡原校区公民館","address":"あさぎり町岡原北906","source":"国土交通省 国土数値情報"},"geometry":{"type":"Point","coordinates":[130.943562,32.235661]}},{"type":"Feature","properties":{"layer_id":"public_facilities","name":"久鹿分館","address":"あさぎり町免田東1338","source":"国土交通省 国土数値情報"},"geometry":{"type":"Point","coordinates":[130.894241,32.24]}},{"type":"Feature","properties":{"layer_id":"public_facilities","name":"皆越分館","address":"あさぎり町皆越324","source":"国土交通省 国土数値情報"},"geometry":{"type":"Point","coordinates":[130.951689,32.190381]}},{"type":"Feature","properties":{"layer_id":"public_facilities","name":"宮麓分館","address":"あさぎり町岡原北807","source":"国土交通省 国土数値情報"},"geometry":{"type":"Point","coordinates":[130.929302,32.245019]}},{"type":"Feature","properties":{"layer_id":"public_facilities","name":"本町分館","address":"あさぎり町免田東1497-50","source":"国土交通省 国土数値情報"},"geometry":{"type":"Point","coordinates":[130.892336,32.23515]}},{"type":"Feature","properties":{"layer_id":"public_facilities","name":"下永里分館","address":"あさぎり町上南522","source":"国土交通省 国土数値情報"},"geometry":{"type":"Point","coordinates":[130.901519,32.210141]}},{"type":"Feature","properties":{"layer_id":"scenic_nature_areas","name":"自然保全特別地区","source":"国土交通省 国土数値情報"},"geometry":{"type":"Polygon","coordinates":[[[130.932311,32.163536],[130.933308,32.162897],[130.935902,32.161061],[130.936862,32.1605],[130.937182,32.16033],[130.937633,32.160231],[130.938062,32.160096],[130.93834,32.159982],[130.938703,32.159793],[130.938958,32.159606],[130.939448,32.159286],[130.939573,32.159183],[130.939809,32.158987],[130.940662,32.158498],[130.941068,32.158326],[130.941541,32.158209],[130.941928,32.158166],[130.942144,32.158163],[130.942383,32.158214],[130.942687,32.15832],[130.943103,32.158588],[130.943628,32.158929],[130.944129,32.159141],[130.945187,32.159363],[130.945814,32.159409],[130.946311,32.159419],[130.946871,32.159374],[130.947021,32.159317],[130.947074,32.158766],[130.947004,32.15851],[130.946957,32.158327],[130.946867,32.158182],[130.946755,32.157982],[130.946577,32.15771],[130.946507,32.157473],[130.946437,32.157254],[130.94643,32.156887],[130.946489,32.156648],[130.946571,32.156426],[130.946631,32.156205],[130.946647,32.15593],[130.946552,32.15555],[130.946461,32.155332],[130.946372,32.155186],[130.946283,32.155078],[130.946171,32.154896],[130.946125,32.154768],[130.946101,32.15464],[130.946095,32.154347],[130.946114,32.154218],[130.946197,32.154089],[130.946325,32.154013],[130.947465,32.153831],[130.947701,32.153736],[130.947824,32.15344],[130.947821,32.153312],[130.947837,32.153055],[130.947833,32.152872],[130.947847,32.152486],[130.947927,32.15221],[130.948135,32.15184],[130.948791,32.151225],[130.949279,32.150832],[130.949535,32.150682],[130.949835,32.150585],[130.950046,32.150366],[130.950319,32.150013],[130.950442,32.149681],[130.950503,32.149515],[130.950496,32.149204],[130.950447,32.148893],[130.950311,32.148583],[130.950305,32.148326],[130.95041,32.148178],[130.950683,32.147807],[130.951021,32.147509],[130.951419,32.146934],[130.951666,32.14638],[130.95181,32.146011],[130.951883,32.145405],[130.951852,32.144965],[130.951598,32.144184],[130.951549,32.14391],[130.951523,32.143691],[130.951518,32.143471],[130.951553,32.143085],[130.951494,32.142334],[130.950963,32.142727],[130.95064,32.142769],[130.950381,32.142773],[130.948844,32.14254],[130.948391,32.142565],[130.948111,32.142606],[130.947662,32.142778],[130.947343,32.143022],[130.947052,32.143521],[130.946696,32.14404],[130.944687,32.145996],[130.943864,32.14705],[130.942508,32.147236],[130.94206,32.1475],[130.941589,32.147691],[130.941419,32.147785],[130.941247,32.147842],[130.940881,32.147866],[130.940645,32.147962],[130.940367,32.148039],[130.940026,32.148246],[130.93958,32.148602],[130.939244,32.149047],[130.938827,32.14975],[130.938748,32.1501],[130.938669,32.150413],[130.93876,32.150668],[130.938892,32.150776],[130.939677,32.151167],[130.940418,32.1515],[130.940529,32.151627],[130.940641,32.151809],[130.940645,32.151992],[130.940691,32.152138],[130.94063,32.152304],[130.940332,32.152529],[130.940183,32.152604],[130.940098,32.152697],[130.940102,32.152881],[130.940106,32.153082],[130.940196,32.153246],[130.940264,32.153373],[130.94029,32.153575],[130.940293,32.153758],[130.940253,32.153868],[130.940233,32.15396],[130.940237,32.154125],[130.940304,32.154253],[130.940458,32.154415],[130.940613,32.15456],[130.940682,32.154797],[130.940642,32.154908],[130.940471,32.154984],[130.940212,32.154988],[130.939888,32.155011],[130.939652,32.15507],[130.939308,32.155148],[130.939052,32.155262],[130.938951,32.155612],[130.938893,32.155906],[130.939005,32.156106],[130.939095,32.156288],[130.939207,32.156488],[130.93933,32.156758],[130.939312,32.156941],[130.939208,32.157126],[130.938997,32.157331],[130.938826,32.157426],[130.938699,32.157538],[130.938488,32.157761],[130.938282,32.158259],[130.938067,32.158281],[130.937722,32.158304],[130.937418,32.158199],[130.937179,32.158148],[130.936963,32.158114],[130.936267,32.157905],[130.936159,32.15787],[130.935922,32.15791],[130.935751,32.158005],[130.934532,32.158518],[130.934145,32.158616],[130.933844,32.158639],[130.933099,32.159127],[130.931631,32.159131],[130.931463,32.159354],[130.931422,32.159483],[130.931468,32.15961],[130.931622,32.159718],[130.93215,32.160223],[130.932612,32.16062],[130.932702,32.160802],[130.932665,32.161077],[130.932604,32.161262],[130.93252,32.161373],[130.932349,32.161449],[130.932114,32.161562],[130.931943,32.161638],[130.931774,32.161843],[130.931628,32.162065],[130.931463,32.162412],[130.931423,32.162578],[130.931426,32.162706],[130.931537,32.162851],[130.931689,32.162922],[130.931821,32.16303],[130.93191,32.163157],[130.93189,32.163249],[130.931784,32.163306],[130.931655,32.163326],[130.930856,32.16332],[130.930425,32.163382],[130.930061,32.163497],[130.929401,32.163746],[130.929253,32.163895],[130.929127,32.164043],[130.928891,32.16412],[130.928677,32.164197],[130.928463,32.164273],[130.928273,32.164496],[130.928169,32.1647],[130.927892,32.164851],[130.927677,32.16489],[130.927505,32.16493],[130.927333,32.164969],[130.927117,32.164972],[130.92686,32.16505],[130.92656,32.165146],[130.926389,32.16524],[130.926293,32.165325],[130.926262,32.165352],[130.925985,32.165521],[130.925858,32.165633],[130.925968,32.165742],[130.926078,32.16585],[130.926425,32.1659],[130.926684,32.165932],[130.9269,32.165911],[130.92733,32.165849],[130.927694,32.165697],[130.92814,32.165378],[130.928654,32.165151],[130.92904,32.165016],[130.929395,32.164879],[130.929682,32.164768],[130.930217,32.164558],[130.930561,32.16448],[130.930989,32.164308],[130.931288,32.164175],[130.931714,32.163894],[130.932311,32.163536]]]}},{"type":"Feature","properties":{"layer_id":"scenic_nature_areas","name":"上村","source":"国土交通省 国土数値情報"},"geometry":{"type":"Polygon","coordinates":[[[130.925572,32.17763],[130.925635,32.176215],[130.925515,32.174881],[130.925351,32.174412],[130.925098,32.174154],[130.924814,32.173844],[130.924439,32.173588],[130.924005,32.173463],[130.923383,32.173237],[130.922794,32.173063],[130.922357,32.172808],[130.92161,32.172505],[130.921078,32.17212],[130.920263,32.171478],[130.91989,32.171326],[130.91958,32.171252],[130.91924,32.171231],[130.918472,32.171348],[130.918167,32.171509],[130.917678,32.171753],[130.916793,32.172159],[130.914835,32.172922],[130.914839,32.173105],[130.914905,32.173314],[130.915096,32.173599],[130.91544,32.173803],[130.916032,32.174135],[130.916345,32.174339],[130.916627,32.174571],[130.917072,32.175166],[130.917486,32.175789],[130.917898,32.176332],[130.918152,32.176669],[130.918527,32.176925],[130.918745,32.177053],[130.918933,32.177155],[130.919273,32.177202],[130.919764,32.177116],[130.920161,32.176927],[130.920494,32.176633],[130.9208,32.176498],[130.921017,32.176547],[130.921238,32.176806],[130.921273,32.177014],[130.921373,32.17738],[130.921469,32.177535],[130.92172,32.177715],[130.922032,32.177893],[130.922622,32.178094],[130.923334,32.178214],[130.923981,32.178204],[130.924689,32.178141],[130.925088,32.17803],[130.925331,32.177896],[130.925392,32.177842],[130.925572,32.17763]]]}},{"type":"Feature","properties":{"layer_id":"scenic_nature_areas","name":"上村","source":"国土交通省 国土数値情報"},"geometry":{"type":"Polygon","coordinates":[[[130.925572,32.17763],[130.925635,32.176215],[130.925515,32.174881],[130.925351,32.174412],[130.925098,32.174154],[130.924814,32.173844],[130.924439,32.173588],[130.924005,32.173463],[130.923383,32.173237],[130.922794,32.173063],[130.922357,32.172808],[130.92161,32.172505],[130.921078,32.17212],[130.920263,32.171478],[130.91989,32.171326],[130.91958,32.171252],[130.91924,32.171231],[130.918472,32.171348],[130.918167,32.171509],[130.917678,32.171753],[130.916793,32.172159],[130.914835,32.172922],[130.914839,32.173105],[130.914905,32.173314],[130.915096,32.173599],[130.91544,32.173803],[130.916032,32.174135],[130.916345,32.174339],[130.916627,32.174571],[130.917072,32.175166],[130.917486,32.175789],[130.917898,32.176332],[130.918152,32.176669],[130.918527,32.176925],[130.918745,32.177053],[130.918933,32.177155],[130.919273,32.177202],[130.919764,32.177116],[130.920161,32.176927],[130.920494,32.176633],[130.9208,32.176498],[130.921017,32.176547],[130.921238,32.176806],[130.921273,32.177014],[130.921373,32.17738],[130.921469,32.177535],[130.92172,32.177715],[130.922032,32.177893],[130.922622,32.178094],[130.923334,32.178214],[130.923981,32.178204],[130.924689,32.178141],[130.925088,32.17803],[130.925331,32.177896],[130.925392,32.177842],[130.925572,32.17763]]]}},{"type":"Feature","properties":{"layer_id":"scenic_nature_areas","name":"自然保全特別地区","source":"国土交通省 国土数値情報"},"geometry":{"type":"Polygon","coordinates":[[[130.932311,32.163536],[130.933308,32.162897],[130.935902,32.161061],[130.936862,32.1605],[130.937182,32.16033],[130.937633,32.160231],[130.938062,32.160096],[130.93834,32.159982],[130.938703,32.159793],[130.938958,32.159606],[130.939448,32.159286],[130.939573,32.159183],[130.939809,32.158987],[130.940662,32.158498],[130.941068,32.158326],[130.941541,32.158209],[130.941928,32.158166],[130.942144,32.158163],[130.942383,32.158214],[130.942687,32.15832],[130.943103,32.158588],[130.943628,32.158929],[130.944129,32.159141],[130.945187,32.159363],[130.945814,32.159409],[130.946311,32.159419],[130.946871,32.159374],[130.947021,32.159317],[130.947074,32.158766],[130.947004,32.15851],[130.946957,32.158327],[130.946867,32.158182],[130.946755,32.157982],[130.946577,32.15771],[130.946507,32.157473],[130.946437,32.157254],[130.94643,32.156887],[130.946489,32.156648],[130.946571,32.156426],[130.946631,32.156205],[130.946647,32.15593],[130.946552,32.15555],[130.946461,32.155332],[130.946372,32.155186],[130.946283,32.155078],[130.946171,32.154896],[130.946125,32.154768],[130.946101,32.15464],[130.946095,32.154347],[130.946114,32.154218],[130.946197,32.154089],[130.946325,32.154013],[130.947465,32.153831],[130.947701,32.153736],[130.947824,32.15344],[130.947821,32.153312],[130.947837,32.153055],[130.947833,32.152872],[130.947847,32.152486],[130.947927,32.15221],[130.948135,32.15184],[130.948791,32.151225],[130.949279,32.150832],[130.949535,32.150682],[130.949835,32.150585],[130.950046,32.150366],[130.950319,32.150013],[130.950442,32.149681],[130.950503,32.149515],[130.950496,32.149204],[130.950447,32.148893],[130.950311,32.148583],[130.950305,32.148326],[130.95041,32.148178],[130.950683,32.147807],[130.951021,32.147509],[130.951419,32.146934],[130.951666,32.14638],[130.95181,32.146011],[130.951883,32.145405],[130.951852,32.144965],[130.951598,32.144184],[130.951549,32.14391],[130.951523,32.143691],[130.951518,32.143471],[130.951553,32.143085],[130.951494,32.142334],[130.950963,32.142727],[130.95064,32.142769],[130.950381,32.142773],[130.948844,32.14254],[130.948391,32.142565],[130.948111,32.142606],[130.947662,32.142778],[130.947343,32.143022],[130.947052,32.143521],[130.946696,32.14404],[130.944687,32.145996],[130.943864,32.14705],[130.942508,32.147236],[130.94206,32.1475],[130.941589,32.147691],[130.941419,32.147785],[130.941247,32.147842],[130.940881,32.147866],[130.940645,32.147962],[130.940367,32.148039],[130.940026,32.148246],[130.93958,32.148602],[130.939244,32.149047],[130.938827,32.14975],[130.938748,32.1501],[130.938669,32.150413],[130.93876,32.150668],[130.938892,32.150776],[130.939677,32.151167],[130.940418,32.1515],[130.940529,32.151627],[130.940641,32.151809],[130.940645,32.151992],[130.940691,32.152138],[130.94063,32.152304],[130.940332,32.152529],[130.940183,32.152604],[130.940098,32.152697],[130.940102,32.152881],[130.940106,32.153082],[130.940196,32.153246],[130.940264,32.153373],[130.94029,32.153575],[130.940293,32.153758],[130.940253,32.153868],[130.940233,32.15396],[130.940237,32.154125],[130.940304,32.154253],[130.940458,32.154415],[130.940613,32.15456],[130.940682,32.154797],[130.940642,32.154908],[130.940471,32.154984],[130.940212,32.154988],[130.939888,32.155011],[130.939652,32.15507],[130.939308,32.155148],[130.939052,32.155262],[130.938951,32.155612],[130.938893,32.155906],[130.939005,32.156106],[130.939095,32.156288],[130.939207,32.156488],[130.93933,32.156758],[130.939312,32.156941],[130.939208,32.157126],[130.938997,32.157331],[130.938826,32.157426],[130.938699,32.157538],[130.938488,32.157761],[130.938282,32.158259],[130.938067,32.158281],[130.937722,32.158304],[130.937418,32.158199],[130.937179,32.158148],[130.936963,32.158114],[130.936267,32.157905],[130.936159,32.15787],[130.935922,32.15791],[130.935751,32.158005],[130.934532,32.158518],[130.934145,32.158616],[130.933844,32.158639],[130.933099,32.159127],[130.931631,32.159131],[130.931463,32.159354],[130.931422,32.159483],[130.931468,32.15961],[130.931622,32.159718],[130.93215,32.160223],[130.932612,32.16062],[130.932702,32.160802],[130.932665,32.161077],[130.932604,32.161262],[130.93252,32.161373],[130.932349,32.161449],[130.932114,32.161562],[130.931943,32.161638],[130.931774,32.161843],[130.931628,32.162065],[130.931463,32.162412],[130.931423,32.162578],[130.931426,32.162706],[130.931537,32.162851],[130.931689,32.162922],[130.931821,32.16303],[130.93191,32.163157],[130.93189,32.163249],[130.931784,32.163306],[130.931655,32.163326],[130.930856,32.16332],[130.930425,32.163382],[130.930061,32.163497],[130.929401,32.163746],[130.929253,32.163895],[130.929127,32.164043],[130.928891,32.16412],[130.928677,32.164197],[130.928463,32.164273],[130.928273,32.164496],[130.928169,32.1647],[130.927892,32.164851],[130.927677,32.16489],[130.927505,32.16493],[130.927333,32.164969],[130.927117,32.164972],[130.92686,32.16505],[130.92656,32.165146],[130.926389,32.16524],[130.926293,32.165325],[130.926262,32.165352],[130.925985,32.165521],[130.925858,32.165633],[130.925968,32.165742],[130.926078,32.16585],[130.926425,32.1659],[130.926684,32.165932],[130.9269,32.165911],[130.92733,32.165849],[130.927694,32.165697],[130.92814,32.165378],[130.928654,32.165151],[130.92904,32.165016],[130.929395,32.164879],[130.929682,32.164768],[130.930217,32.164558],[130.930561,32.16448],[130.930989,32.164308],[130.931288,32.164175],[130.931714,32.163894],[130.932311,32.163536]]]}},{"type":"Feature","properties":{"layer_id":"cultural_facilities","name":"あさぎり町上総合運動公園","address":"上東128-2","source":"国土交通省 国土数値情報"},"geometry":{"type":"Point","coordinates":[130.905858,32.222465]}},{"type":"Feature","properties":{"layer_id":"cultural_facilities","name":"あさぎり町上総合運動公園","address":"上東128-2","source":"国土交通省 国土数値情報"},"geometry":{"type":"Point","coordinates":[130.911123,32.220605]}},{"type":"Feature","properties":{"layer_id":"cultural_facilities","name":"あさぎり町深田校区公民館図書館","address":"深田西955-1","source":"国土交通省 国土数値情報"},"geometry":{"type":"Point","coordinates":[130.873002,32.244314]}},{"type":"Feature","properties":{"layer_id":"cultural_facilities","name":"あさぎり町免田総合体育センター","address":"免田東1989-3","source":"国土交通省 国土数値情報"},"geometry":{"type":"Point","coordinates":[130.899229,32.241116]}},{"type":"Feature","properties":{"layer_id":"cultural_facilities","name":"あさぎり町上総合運動公園","address":"上東128-2","source":"国土交通省 国土数値情報"},"geometry":{"type":"Point","coordinates":[130.910481,32.221103]}},{"type":"Feature","properties":{"layer_id":"cultural_facilities","name":"あさぎり町高山運動公園","address":"深田東1308","source":"国土交通省 国土数値情報"},"geometry":{"type":"Point","coordinates":[130.87695,32.252491]}},{"type":"Feature","properties":{"layer_id":"cultural_facilities","name":"あさぎり町免田総合体育センター","address":"免田東1989-3","source":"国土交通省 国土数値情報"},"geometry":{"type":"Point","coordinates":[130.899229,32.240875]}},{"type":"Feature","properties":{"layer_id":"cultural_facilities","name":"あさぎり町高山運動公園","address":"深田東1308","source":"国土交通省 国土数値情報"},"geometry":{"type":"Point","coordinates":[130.877889,32.251627]}},{"type":"Feature","properties":{"layer_id":"cultural_facilities","name":"あさぎり町高山運動公園","address":"深田東1308","source":"国土交通省 国土数値情報"},"geometry":{"type":"Point","coordinates":[130.878186,32.25218]}},{"type":"Feature","properties":{"layer_id":"cultural_facilities","name":"あさぎり町上総合運動公園","address":"上東128-2","source":"国土交通省 国土数値情報"},"geometry":{"type":"Point","coordinates":[130.909792,32.221437]}},{"type":"Feature","properties":{"layer_id":"cultural_facilities","name":"あさぎり町森園カントリーパーク","address":"岡原南2236-13","source":"国土交通省 国土数値情報"},"geometry":{"type":"Point","coordinates":[130.934408,32.219603]}},{"type":"Feature","properties":{"layer_id":"cultural_facilities","name":"あさぎり町上総合運動公園","address":"上東128-2","source":"国土交通省 国土数値情報"},"geometry":{"type":"Point","coordinates":[130.90956,32.220741]}},{"type":"Feature","properties":{"layer_id":"cultural_facilities","name":"あさぎり町森園カントリーパーク","address":"岡原南2236-13","source":"国土交通省 国土数値情報"},"geometry":{"type":"Point","coordinates":[130.936013,32.219874]}},{"type":"Feature","properties":{"layer_id":"cultural_facilities","name":"あさぎり町高山運動公園","address":"深田東1308","source":"国土交通省 国土数値情報"},"geometry":{"type":"Point","coordinates":[130.87695,32.25236]}},{"type":"Feature","properties":{"layer_id":"cultural_facilities","name":"あさぎり町高山運動公園","address":"深田東1308","source":"国土交通省 国土数値情報"},"geometry":{"type":"Point","coordinates":[130.877603,32.250551]}},{"type":"Feature","properties":{"layer_id":"parks_playgrounds","name":"高山運動公園","address":"球磨郡あさぎり町","source":"国土交通省 国土数値情報"},"geometry":{"type":"Point","coordinates":[130.877728,32.250796]}},{"type":"Feature","properties":{"layer_id":"parks_playgrounds","name":"森園カントリーパーク","address":"球磨郡あさぎり町","source":"国土交通省 国土数値情報"},"geometry":{"type":"Point","coordinates":[130.934523,32.219969]}}]}