{"type":"FeatureCollection","municipality_code":"44206","pref":"大分県","city":"臼杵市","display_comment":"臼杵市には、地域の歴史や暮らしを伝える案内板や石碑があり、それらを手がかりに街歩きを楽しめます。 まずは城跡・武家文化、近代化・産業遺産、社寺・地域信仰に目を向けると、地域の由緒をたどる手がかりが見つけやすいでしょう。 現地では石碑、地蔵、地域資料館、公民館の由緒板を既存ピンと照らし合わせながら歩くと、見落としがちな地域の物語に出会いやすくなります。 ゆかりの人物では山本達雄や野上弥生子に注目すると、地域に残る文化や時代背景をさらに深く知るきっかけになります。 「臼杵八坂神社」や「福良天満宮」などの名所も、地域の物語を深掘りする絶好の入口です。","layer_counts":{"cafe_restaurant":2,"public_facilities":48,"scenic_nature_areas":4,"cultural_facilities":26,"parks_playgrounds":5,"tourism_resources":3},"total_features":88,"features":[{"type":"Feature","properties":{"layer_id":"cafe_restaurant","name":"すき家　217号臼杵店","address":"大分県臼杵市市浜1128-1","source":"厚生労働省 食品衛生申請等システム（オープンデータ）"},"geometry":{"type":"Point","coordinates":[131.787375,33.112591]}},{"type":"Feature","properties":{"layer_id":"cafe_restaurant","name":"百年の春","address":"大分県臼杵市野津町前河内1665","source":"厚生労働省 食品衛生申請等システム（オープンデータ）"},"geometry":{"type":"Point","coordinates":[131.687145,33.023124]}},{"type":"Feature","properties":{"layer_id":"public_facilities","name":"海辺地区公民館","address":"臼杵市大字諏訪642-2","source":"国土交通省 国土数値情報"},"geometry":{"type":"Point","coordinates":[131.800278,33.130025]}},{"type":"Feature","properties":{"layer_id":"public_facilities","name":"上浦・深江地区コミュニティセンター","address":"臼杵市大字深江1509","source":"国土交通省 国土数値情報"},"geometry":{"type":"Point","coordinates":[131.880189,33.12165]}},{"type":"Feature","properties":{"layer_id":"public_facilities","name":"掻懐老人憩の家","address":"臼杵市大字掻懐字ホキ平920-2","source":"国土交通省 国土数値情報"},"geometry":{"type":"Point","coordinates":[131.750624,33.093708]}},{"type":"Feature","properties":{"layer_id":"public_facilities","name":"下ノ江地区コミュニティセンター","address":"臼杵市大字田井989","source":"国土交通省 国土数値情報"},"geometry":{"type":"Point","coordinates":[131.813167,33.158006]}},{"type":"Feature","properties":{"layer_id":"public_facilities","name":"西神野ふれ愛センター","address":"臼杵市野津町大字西神野1070","source":"国土交通省 国土数値情報"},"geometry":{"type":"Point","coordinates":[131.76163,33.031848]}},{"type":"Feature","properties":{"layer_id":"public_facilities","name":"野口老人憩の家","address":"野津町大字野津市2495","source":"国土交通省 国土数値情報"},"geometry":{"type":"Point","coordinates":[131.693574,33.031695]}},{"type":"Feature","properties":{"layer_id":"public_facilities","name":"破磯老人憩の家","address":"臼杵市大字深江字破磯2133-2","source":"国土交通省 国土数値情報"},"geometry":{"type":"Point","coordinates":[131.885755,33.123308]}},{"type":"Feature","properties":{"layer_id":"public_facilities","name":"かじや・竹森老人憩の家","address":"臼杵市大字井村字高松3212ノ3","source":"国土交通省 国土数値情報"},"geometry":{"type":"Point","coordinates":[131.781717,33.13731]}},{"type":"Feature","properties":{"layer_id":"public_facilities","name":"臼杵図書館","address":"臼杵市大字臼杵6-16","source":"国土交通省 国土数値情報"},"geometry":{"type":"Point","coordinates":[131.798903,33.12167]}},{"type":"Feature","properties":{"layer_id":"public_facilities","name":"末広老人憩の家","address":"臼杵市大字末広字竹尾寺481","source":"国土交通省 国土数値情報"},"geometry":{"type":"Point","coordinates":[131.773566,33.135002]}},{"type":"Feature","properties":{"layer_id":"public_facilities","name":"臼杵市民会館","address":"臼杵市大字臼杵72-83","source":"国土交通省 国土数値情報"},"geometry":{"type":"Point","coordinates":[131.80638,33.125483]}},{"type":"Feature","properties":{"layer_id":"public_facilities","name":"諏訪山体育館","address":"臼杵市大字諏訪595-5","source":"国土交通省 国土数値情報"},"geometry":{"type":"Point","coordinates":[131.797373,33.132787]}},{"type":"Feature","properties":{"layer_id":"public_facilities","name":"北海添老人憩の家","address":"臼杵市大字海添字川下2501-3","source":"国土交通省 国土数値情報"},"geometry":{"type":"Point","coordinates":[131.804608,33.117565]}},{"type":"Feature","properties":{"layer_id":"public_facilities","name":"老人憩の家","address":"臼杵市大字臼杵2の107-498","source":"国土交通省 国土数値情報"},"geometry":{"type":"Point","coordinates":[131.805672,33.121898]}},{"type":"Feature","properties":{"layer_id":"public_facilities","name":"戸室老人憩の家","address":"大字市浜字竹ノ下594-1","source":"国土交通省 国土数値情報"},"geometry":{"type":"Point","coordinates":[131.790622,33.122126]}},{"type":"Feature","properties":{"layer_id":"public_facilities","name":"市浜地区コミュニティセンター","address":"臼杵市大字前田1851-8","source":"国土交通省 国土数値情報"},"geometry":{"type":"Point","coordinates":[131.780078,33.117441]}},{"type":"Feature","properties":{"layer_id":"public_facilities","name":"石上老人憩の家","address":"臼杵市野津町大字西畑2745","source":"国土交通省 国土数値情報"},"geometry":{"type":"Point","coordinates":[131.651558,33.015756]}},{"type":"Feature","properties":{"layer_id":"public_facilities","name":"熊崎・本村・友田老人憩の家","address":"臼杵市大字井村字小船戸1924","source":"国土交通省 国土数値情報"},"geometry":{"type":"Point","coordinates":[131.788969,33.138886]}},{"type":"Feature","properties":{"layer_id":"public_facilities","name":"四郎台老人憩の家","address":"臼杵市大字井村字四郎台214","source":"国土交通省 国土数値情報"},"geometry":{"type":"Point","coordinates":[131.784318,33.144601]}},{"type":"Feature","properties":{"layer_id":"public_facilities","name":"下ノ一老人憩の家","address":"臼杵市大字末広字園田3150-1","source":"国土交通省 国土数値情報"},"geometry":{"type":"Point","coordinates":[131.768209,33.139332]}},{"type":"Feature","properties":{"layer_id":"public_facilities","name":"大泊老人憩の家","address":"臼杵市大字大泊字西浜1064","source":"国土交通省 国土数値情報"},"geometry":{"type":"Point","coordinates":[131.840529,33.115425]}},{"type":"Feature","properties":{"layer_id":"public_facilities","name":"温井老人憩の家","address":"臼杵市大字福良字菅ケ迫2039-5","source":"国土交通省 国土数値情報"},"geometry":{"type":"Point","coordinates":[131.787811,33.111315]}},{"type":"Feature","properties":{"layer_id":"public_facilities","name":"社会福祉センター","address":"臼杵市大字臼杵字祗園洲4-1","source":"国土交通省 国土数値情報"},"geometry":{"type":"Point","coordinates":[131.798483,33.12165]}},{"type":"Feature","properties":{"layer_id":"public_facilities","name":"佐志生地区公民館","address":"臼杵市大字佐志生2057-3","source":"国土交通省 国土数値情報"},"geometry":{"type":"Point","coordinates":[131.827921,33.17714]}},{"type":"Feature","properties":{"layer_id":"public_facilities","name":"臼杵市役所","address":"臼杵市大字臼杵72-1","source":"国土交通省 国土数値情報"},"geometry":{"type":"Point","coordinates":[131.804638,33.125948]}},{"type":"Feature","properties":{"layer_id":"public_facilities","name":"上北地区コミュニティセンター","address":"臼杵市大字末広2502","source":"国土交通省 国土数値情報"},"geometry":{"type":"Point","coordinates":[131.758904,33.139314]}},{"type":"Feature","properties":{"layer_id":"public_facilities","name":"下北地区公民館","address":"臼杵市大字井村1701","source":"国土交通省 国土数値情報"},"geometry":{"type":"Point","coordinates":[131.788001,33.139215]}},{"type":"Feature","properties":{"layer_id":"public_facilities","name":"臼杵中央公民館","address":"臼杵市大字臼杵2-107-562","source":"国土交通省 国土数値情報"},"geometry":{"type":"Point","coordinates":[131.807496,33.123266]}},{"type":"Feature","properties":{"layer_id":"public_facilities","name":"日当老人憩の家","address":"臼杵市野津町大字宮原3998","source":"国土交通省 国土数値情報"},"geometry":{"type":"Point","coordinates":[131.692438,33.051372]}},{"type":"Feature","properties":{"layer_id":"public_facilities","name":"藤田老人憩の家","address":"臼杵市大字佐志生字春田5974-2","source":"国土交通省 国土数値情報"},"geometry":{"type":"Point","coordinates":[131.826767,33.17357]}},{"type":"Feature","properties":{"layer_id":"public_facilities","name":"泊ヶ内ふれあいコミュニティセンター","address":"臼杵市大字深江2885-3","source":"国土交通省 国土数値情報"},"geometry":{"type":"Point","coordinates":[131.901643,33.126918]}},{"type":"Feature","properties":{"layer_id":"public_facilities","name":"荒瀬老人憩の家","address":"臼杵市野津町大字原1299","source":"国土交通省 国土数値情報"},"geometry":{"type":"Point","coordinates":[131.687298,33.042948]}},{"type":"Feature","properties":{"layer_id":"public_facilities","name":"野津中央公民館","address":"野津町大字野津市184","source":"国土交通省 国土数値情報"},"geometry":{"type":"Point","coordinates":[131.693936,33.045051]}},{"type":"Feature","properties":{"layer_id":"public_facilities","name":"中臼杵農村環境改善センター","address":"臼杵市大字武山1838","source":"国土交通省 国土数値情報"},"geometry":{"type":"Point","coordinates":[131.730527,33.104091]}},{"type":"Feature","properties":{"layer_id":"public_facilities","name":"海辺老人憩の家","address":"臼杵市大字諏訪字津留8-3","source":"国土交通省 国土数値情報"},"geometry":{"type":"Point","coordinates":[131.805716,33.132478]}},{"type":"Feature","properties":{"layer_id":"public_facilities","name":"南野津地区公民館","address":"臼杵市野津町大字吉田161","source":"国土交通省 国土数値情報"},"geometry":{"type":"Point","coordinates":[131.665151,33.015548]}},{"type":"Feature","properties":{"layer_id":"public_facilities","name":"都松地区ふれあいセンター","address":"臼杵市野津町大字都原1014","source":"国土交通省 国土数値情報"},"geometry":{"type":"Point","coordinates":[131.7119,33.06674]}},{"type":"Feature","properties":{"layer_id":"public_facilities","name":"乙見老人憩の家","address":"臼杵市大字乙見字宮の上740","source":"国土交通省 国土数値情報"},"geometry":{"type":"Point","coordinates":[131.744458,33.063929]}},{"type":"Feature","properties":{"layer_id":"public_facilities","name":"中央公民館","address":"臼杵市大字臼杵2-107-562","source":"国土交通省 国土数値情報"},"geometry":{"type":"Point","coordinates":[131.807513,33.123179]}},{"type":"Feature","properties":{"layer_id":"public_facilities","name":"田野地区公民館","address":"臼杵市野津町大字亀甲4010","source":"国土交通省 国土数値情報"},"geometry":{"type":"Point","coordinates":[131.721203,33.046466]}},{"type":"Feature","properties":{"layer_id":"public_facilities","name":"桑原老人憩の家","address":"臼杵市大字佐志生字田井2075ノ","source":"国土交通省 国土数値情報"},"geometry":{"type":"Point","coordinates":[131.827442,33.178409]}},{"type":"Feature","properties":{"layer_id":"public_facilities","name":"南津留地区コミュニティセンター","address":"臼杵市大字掻懐27-1","source":"国土交通省 国土数値情報"},"geometry":{"type":"Point","coordinates":[131.757278,33.093614]}},{"type":"Feature","properties":{"layer_id":"public_facilities","name":"野津庁舎","address":"野津町大字野津市326-1","source":"国土交通省 国土数値情報"},"geometry":{"type":"Point","coordinates":[131.692086,33.042888]}},{"type":"Feature","properties":{"layer_id":"public_facilities","name":"八熊老人憩の家","address":"臼杵市野津町大字山頭2883","source":"国土交通省 国土数値情報"},"geometry":{"type":"Point","coordinates":[131.696977,33.043386]}},{"type":"Feature","properties":{"layer_id":"public_facilities","name":"才原老人憩の家","address":"臼杵市野津町大字亀甲2546","source":"国土交通省 国土数値情報"},"geometry":{"type":"Point","coordinates":[131.714011,33.039775]}},{"type":"Feature","properties":{"layer_id":"public_facilities","name":"目明老人憩の家","address":"臼杵市大字佐志生字タブノ木128-1","source":"国土交通省 国土数値情報"},"geometry":{"type":"Point","coordinates":[131.822868,33.17865]}},{"type":"Feature","properties":{"layer_id":"public_facilities","name":"大分市立うすき少年自然の家","address":"臼杵市大字下ノ江1110-1","source":"国土交通省 国土数値情報"},"geometry":{"type":"Point","coordinates":[131.823388,33.150438]}},{"type":"Feature","properties":{"layer_id":"public_facilities","name":"門前老人憩の家","address":"臼杵市大字前田字ナゴヤ1731-3","source":"国土交通省 国土数値情報"},"geometry":{"type":"Point","coordinates":[131.778025,33.112989]}},{"type":"Feature","properties":{"layer_id":"scenic_nature_areas","name":"臼杵市","source":"国土交通省 国土数値情報"},"geometry":{"type":"MultiPolygon","coordinates":[[[[131.839209,33.177447],[131.839209,33.177452],[131.839202,33.177458],[131.839202,33.177464],[131.839209,33.177469],[131.839218,33.177447],[131.839209,33.177447]]],[[[131.836787,33.178335],[131.836777,33.178337],[131.836905,33.178241],[131.837005,33.178112],[131.837179,33.177909],[131.837313,33.177807],[131.837414,33.177751],[131.837661,33.177661],[131.837661,33.177661],[131.837661,33.177661],[131.837661,33.177661],[131.837775,33.177644],[131.837936,33.17765],[131.838016,33.177689],[131.838078,33.177748],[131.838981,33.177937],[131.838981,33.177937],[131.838988,33.177858],[131.839001,33.177841],[131.838972,33.177816],[131.838974,33.177813],[131.838994,33.1777],[131.839001,33.177486],[131.839021,33.177441],[131.839102,33.177374],[131.839107,33.177386],[131.839108,33.177385],[131.839155,33.177374],[131.839216,33.177317],[131.839216,33.177256],[131.839256,33.177216],[131.839319,33.177189],[131.839349,33.177112],[131.839349,33.177098],[131.839365,33.177072],[131.839396,33.176993],[131.83939,33.176946],[131.839376,33.176934],[131.839386,33.176896],[131.839403,33.176901],[131.83941,33.176647],[131.839413,33.176648],[131.839416,33.17663],[131.83945,33.176619],[131.839443,33.176574],[131.83943,33.176563],[131.839477,33.176484],[131.83945,33.176461],[131.83949,33.176394],[131.839481,33.176359],[131.839431,33.176307],[131.839396,33.176292],[131.839349,33.176259],[131.839329,33.176253],[131.839329,33.176242],[131.839318,33.176228],[131.839323,33.176225],[131.839251,33.176118],[131.838788,33.175634],[131.83878,33.175633],[131.838777,33.175624],[131.838573,33.175411],[131.838512,33.175391],[131.838512,33.175346],[131.838453,33.175285],[131.838412,33.17525],[131.838349,33.17525],[131.838176,33.175266],[131.838137,33.175284],[131.838119,33.175271],[131.837682,33.175312],[131.837682,33.175312],[131.837682,33.175312],[131.837671,33.175365],[131.837682,33.175459],[131.837655,33.175504],[131.837642,33.175549],[131.83763,33.175559],[131.837595,33.175724],[131.837601,33.175724],[131.837592,33.175738],[131.837585,33.175773],[131.837588,33.175786],[131.837595,33.175831],[131.837608,33.175847],[131.837628,33.175921],[131.837672,33.175944],[131.83773,33.175975],[131.837729,33.175977],[131.837762,33.176005],[131.837775,33.176118],[131.837755,33.176219],[131.837708,33.176304],[131.83742,33.176557],[131.836925,33.176867],[131.836671,33.176974],[131.836521,33.176993],[131.835284,33.177593],[131.835284,33.177593],[131.835284,33.177593],[131.835997,33.17812],[131.836028,33.178134],[131.836195,33.178286],[131.836242,33.178314],[131.836403,33.178382],[131.836408,33.178372],[131.836416,33.178376],[131.836436,33.17841],[131.836443,33.178466],[131.836556,33.178528],[131.836575,33.178557],[131.836734,33.17852],[131.836751,33.178506],[131.836757,33.178466],[131.836771,33.178449],[131.836778,33.178447],[131.836804,33.178438],[131.836787,33.178335]]]]}},{"type":"Feature","properties":{"layer_id":"scenic_nature_areas","name":"豊後水道県立自然公園地域","source":"国土交通省 国土数値情報","subarea_name":"自然公園地域"},"geometry":{"type":"Polygon","coordinates":[[[131.791149,33.041271],[131.791143,33.041482],[131.791146,33.041572],[131.79117,33.041637],[131.791373,33.041931],[131.792138,33.04279],[131.792386,33.042981],[131.79253,33.043043],[131.792601,33.043064],[131.792653,33.043111],[131.793,33.043473],[131.793059,33.043543],[131.79309,33.04362],[131.793102,33.043728],[131.793068,33.044131],[131.792999,33.044498],[131.79286,33.045997],[131.792885,33.047179],[131.793027,33.048249],[131.793004,33.04858],[131.792986,33.048839],[131.792949,33.049158],[131.792907,33.049339],[131.792706,33.049807],[131.792567,33.050046],[131.792434,33.050248],[131.792248,33.050397],[131.791973,33.05058],[131.791816,33.050672],[131.791733,33.05071],[131.791642,33.050743],[131.791494,33.050759],[131.791226,33.050779],[131.790555,33.050811],[131.790427,33.050797],[131.790255,33.05076],[131.789985,33.050726],[131.789766,33.050733],[131.789631,33.050737],[131.789582,33.050744],[131.789554,33.050757],[131.789541,33.050781],[131.789543,33.050823],[131.78956,33.050901],[131.789651,33.051222],[131.789701,33.051431],[131.789734,33.051538],[131.789737,33.051622],[131.789731,33.051988],[131.789721,33.052462],[131.789776,33.052791],[131.789892,33.053207],[131.79006,33.054055],[131.790221,33.054523],[131.790272,33.054738],[131.790307,33.054917],[131.79038,33.055503],[131.790416,33.056036],[131.790401,33.056185],[131.790387,33.056378],[131.790274,33.056921],[131.790115,33.05737],[131.789887,33.05787],[131.789887,33.05787],[131.79123,33.057211],[131.79852,33.056902],[131.800589,33.055964],[131.803783,33.057035],[131.806263,33.056433],[131.807109,33.054776],[131.806251,33.053928],[131.800057,33.054053],[131.798479,33.053022],[131.796629,33.049729],[131.797716,33.046479],[131.791196,33.041334],[131.791237,33.040932],[131.791149,33.041271]]]}},{"type":"Feature","properties":{"layer_id":"scenic_nature_areas","name":"自然公園特別地域","source":"国土交通省 国土数値情報"},"geometry":{"type":"MultiPolygon","coordinates":[[[[131.827987,33.154156],[131.827987,33.154173],[131.828001,33.154218],[131.828048,33.154275],[131.828068,33.154309],[131.828085,33.1543],[131.828091,33.154297],[131.828101,33.154259],[131.828101,33.154247],[131.828068,33.154218],[131.828068,33.154207],[131.828047,33.154181],[131.827997,33.154159],[131.827987,33.154156]]],[[[131.828629,33.160476],[131.828629,33.160437],[131.828649,33.160422],[131.828633,33.160352],[131.828569,33.160352],[131.828583,33.160313],[131.828583,33.160262],[131.828608,33.160241],[131.828594,33.160181],[131.828583,33.160183],[131.828476,33.160178],[131.828462,33.160161],[131.828476,33.160121],[131.828576,33.160099],[131.828552,33.159993],[131.828542,33.159992],[131.828548,33.159976],[131.828538,33.159932],[131.828529,33.15993],[131.828529,33.159924],[131.828516,33.159902],[131.828496,33.159896],[131.828516,33.159873],[131.828509,33.15984],[131.828476,33.159784],[131.828499,33.15976],[131.828496,33.159747],[131.828482,33.159727],[131.828462,33.159722],[131.828486,33.159702],[131.828477,33.159663],[131.828422,33.159643],[131.828362,33.159637],[131.828342,33.159615],[131.828342,33.159536],[131.828355,33.159479],[131.828321,33.159423],[131.828261,33.159378],[131.828248,33.159361],[131.828241,33.159339],[131.828214,33.15931],[131.828168,33.159299],[131.828141,33.159265],[131.828161,33.159232],[131.828194,33.159203],[131.828208,33.159198],[131.828228,33.159164],[131.828241,33.15913],[131.828241,33.159062],[131.828228,33.159023],[131.828208,33.159001],[131.828194,33.158978],[131.828161,33.158927],[131.828161,33.158877],[131.828141,33.15886],[131.828148,33.158843],[131.828134,33.158837],[131.828148,33.158798],[131.828148,33.15873],[131.828101,33.158685],[131.828101,33.158679],[131.828094,33.158617],[131.828081,33.158595],[131.828087,33.15855],[131.828101,33.158522],[131.828114,33.158488],[131.828148,33.158443],[131.828141,33.158364],[131.828128,33.158336],[131.828141,33.158324],[131.828159,33.158264],[131.828157,33.158253],[131.828114,33.158212],[131.828128,33.158201],[131.828128,33.158127],[131.828117,33.158079],[131.828081,33.158049],[131.828054,33.15802],[131.828041,33.157987],[131.828041,33.157975],[131.828034,33.157908],[131.828007,33.157857],[131.828007,33.157801],[131.827987,33.157767],[131.82798,33.157727],[131.827927,33.157677],[131.827947,33.157666],[131.827934,33.157649],[131.827947,33.157615],[131.827914,33.15757],[131.827853,33.157513],[131.827813,33.157468],[131.82778,33.15744],[131.82778,33.157423],[131.827773,33.157372],[131.82776,33.157361],[131.827646,33.157361],[131.827613,33.15735],[131.827566,33.157344],[131.827559,33.157356],[131.827499,33.157367],[131.827465,33.157367],[131.827385,33.157406],[131.827291,33.157417],[131.827131,33.157417],[131.82701,33.157372],[131.826963,33.157339],[131.826843,33.157237],[131.826816,33.157204],[131.826763,33.157069],[131.826743,33.156973],[131.826743,33.156871],[131.826756,33.156849],[131.826756,33.156838],[131.826796,33.156764],[131.826836,33.156708],[131.82687,33.15668],[131.82697,33.156596],[131.827024,33.156562],[131.827024,33.156545],[131.827124,33.15655],[131.827184,33.156562],[131.827284,33.156556],[131.827305,33.156539],[131.827318,33.156522],[131.827358,33.156511],[131.827412,33.156488],[131.827425,33.156477],[131.827439,33.156477],[131.827452,33.156432],[131.827472,33.156409],[131.827439,33.156359],[131.827425,33.156308],[131.827392,33.15628],[131.827378,33.156246],[131.827331,33.156207],[131.827264,33.156179],[131.827191,33.156184],[131.827151,33.156184],[131.827138,33.156167],[131.827144,33.155925],[131.827171,33.155767],[131.827184,33.155734],[131.827191,33.155688],[131.827231,33.155683],[131.827311,33.155649],[131.827365,33.155604],[131.827385,33.15557],[131.827392,33.155547],[131.827412,33.155502],[131.827405,33.155463],[131.827385,33.155452],[131.827405,33.155424],[131.827412,33.155407],[131.827398,33.155401],[131.827432,33.155384],[131.827452,33.155384],[131.827465,33.155379],[131.827465,33.155367],[131.827546,33.155317],[131.827532,33.15517],[131.827492,33.155136],[131.827485,33.155119],[131.827485,33.155108],[131.827559,33.155046],[131.827579,33.154979],[131.827579,33.154951],[131.827593,33.154928],[131.827593,33.15481],[131.827606,33.154787],[131.827599,33.154736],[131.827599,33.154725],[131.827639,33.154675],[131.827633,33.154624],[131.827579,33.154579],[131.827552,33.154568],[131.827566,33.154545],[131.827593,33.154539],[131.827626,33.154517],[131.827659,33.154506],[131.827639,33.154494],[131.827659,33.154477],[131.827659,33.154473],[131.827659,33.154461],[131.827733,33.154427],[131.827746,33.154387],[131.827753,33.154258],[131.827773,33.154224],[131.827766,33.154202],[131.827746,33.154185],[131.827733,33.154156],[131.827746,33.154128],[131.82774,33.154066],[131.827706,33.154044],[131.827599,33.154038],[131.827566,33.154021],[131.827505,33.154027],[131.827479,33.154044],[131.827452,33.154038],[131.827385,33.153965],[131.827365,33.153931],[131.827378,33.153875],[131.827331,33.153796],[131.827311,33.153773],[131.827338,33.153672],[131.827338,33.153672],[131.82724,33.15334],[131.827193,33.153281],[131.827198,33.153278],[131.827111,33.152923],[131.82711,33.152902],[131.826985,33.15248],[131.826977,33.152461],[131.82697,33.15243],[131.826866,33.15208],[131.826936,33.151997],[131.826937,33.151949],[131.826963,33.151796],[131.827071,33.151492],[131.827178,33.151289],[131.827278,33.151143],[131.827358,33.151075],[131.827619,33.151013],[131.827804,33.150967],[131.828295,33.150384],[131.828295,33.150382],[131.828297,33.150382],[131.828525,33.150112],[131.828496,33.150084],[131.828436,33.150089],[131.828389,33.150112],[131.828322,33.150123],[131.828262,33.150084],[131.828201,33.150016],[131.828181,33.149966],[131.828173,33.149957],[131.82464,33.149317],[131.824617,33.149292],[131.824287,33.149081],[131.824276,33.149071],[131.8241,33.148912],[131.823886,33.148653],[131.823752,33.148428],[131.823745,33.1484],[131.82373,33.14841],[131.823719,33.148394],[131.823712,33.148332],[131.823698,33.14831],[131.823698,33.148298],[131.823658,33.148259],[131.823625,33.148219],[131.82362,33.148208],[131.823614,33.148202],[131.823585,33.148191],[131.823518,33.148197],[131.823491,33.148197],[131.823478,33.148186],[131.823478,33.148107],[131.823424,33.148073],[131.823384,33.148056],[131.823344,33.148022],[131.823263,33.147994],[131.823249,33.148004],[131.823217,33.148028],[131.823176,33.148011],[131.823156,33.147989],[131.823121,33.147986],[131.822556,33.148212],[131.8224,33.148338],[131.822186,33.148501],[131.822173,33.148518],[131.822173,33.148546],[131.822119,33.148642],[131.822059,33.148653],[131.821818,33.148636],[131.821557,33.148631],[131.82152,33.148626],[131.821504,33.148632],[131.821491,33.148622],[131.821437,33.148614],[131.821396,33.148597],[131.821383,33.14858],[131.821356,33.148569],[131.821343,33.148549],[131.821356,33.14854],[131.821269,33.148447],[131.819195,33.146811],[131.819182,33.146834],[131.819162,33.146851],[131.819135,33.146839],[131.819122,33.146789],[131.819122,33.146755],[131.819124,33.146755],[131.819025,33.146677],[131.819007,33.146286],[131.818981,33.146169],[131.818968,33.146045],[131.818968,33.145724],[131.81898,33.145691],[131.81897,33.145483],[131.819717,33.145085],[131.819717,33.145082],[131.819731,33.145059],[131.819724,33.145014],[131.819664,33.144936],[131.819597,33.144851],[131.819577,33.144834],[131.819565,33.14482],[131.818002,33.144564],[131.817971,33.144614],[131.817971,33.144631],[131.817938,33.144682],[131.817871,33.144676],[131.817723,33.144609],[131.81771,33.144602],[131.817648,33.14474],[131.817517,33.145165],[131.817488,33.145311],[131.817458,33.145435],[131.817424,33.145669],[131.817438,33.145814],[131.81747,33.145987],[131.817547,33.146182],[131.817596,33.146355],[131.817736,33.146642],[131.817851,33.146945],[131.817972,33.147182],[131.818062,33.147318],[131.818193,33.147515],[131.818341,33.14776],[131.818472,33.147984],[131.818558,33.148107],[131.818735,33.148447],[131.818875,33.148693],[131.818973,33.148904],[131.819097,33.149177],[131.81918,33.149417],[131.819237,33.149636],[131.81939,33.150191],[131.819463,33.150417],[131.819515,33.150705],[131.819613,33.150951],[131.819658,33.151047],[131.81983,33.151284],[131.819995,33.15155],[131.820166,33.151766],[131.820319,33.151928],[131.820523,33.152094],[131.820684,33.15227],[131.820819,33.152391],[131.820895,33.152465],[131.821048,33.152634],[131.82123,33.152919],[131.821464,33.153328],[131.821597,33.15365],[131.821624,33.153704],[131.821666,33.153752],[131.8217,33.153792],[131.821767,33.153839],[131.822264,33.154055],[131.822338,33.154074],[131.82242,33.154086],[131.822477,33.154085],[131.822558,33.154069],[131.822671,33.154025],[131.823672,33.153719],[131.823955,33.153643],[131.824304,33.153594],[131.824572,33.153574],[131.824765,33.153603],[131.825019,33.153708],[131.825222,33.153805],[131.825401,33.153923],[131.825566,33.154083],[131.825687,33.154217],[131.825768,33.154365],[131.825814,33.154452],[131.825933,33.154365],[131.825993,33.154365],[131.826134,33.154331],[131.826207,33.154337],[131.826248,33.154348],[131.826254,33.154359],[131.826301,33.154359],[131.826328,33.154376],[131.826368,33.154382],[131.826475,33.154489],[131.826475,33.154528],[131.826508,33.154573],[131.826528,33.154635],[131.826562,33.154686],[131.826562,33.154714],[131.826602,33.154776],[131.826603,33.154789],[131.826609,33.154889],[131.826569,33.154939],[131.826495,33.155029],[131.826468,33.155069],[131.826455,33.155091],[131.826301,33.155238],[131.826013,33.155463],[131.825873,33.155587],[131.825799,33.155677],[131.825672,33.155835],[131.825598,33.155908],[131.825525,33.155998],[131.825324,33.156229],[131.82527,33.156302],[131.825257,33.156308],[131.82523,33.156415],[131.82523,33.156494],[131.825311,33.156607],[131.825391,33.156714],[131.825525,33.156854],[131.825638,33.156956],[131.825819,33.157159],[131.825906,33.157243],[131.82612,33.157468],[131.826127,33.157496],[131.826154,33.157508],[131.826308,33.157637],[131.826455,33.157761],[131.826662,33.157891],[131.826783,33.15797],[131.82685,33.158015],[131.826876,33.158026],[131.82689,33.158105],[131.826903,33.158127],[131.826917,33.158184],[131.826957,33.158279],[131.827017,33.158488],[131.82703,33.158533],[131.827024,33.15855],[131.82689,33.158601],[131.82693,33.158753],[131.826943,33.158837],[131.82697,33.158927],[131.827004,33.159034],[131.827037,33.159153],[131.827064,33.159226],[131.827084,33.159305],[131.827244,33.159294],[131.827264,33.159305],[131.827305,33.159307],[131.827305,33.159316],[131.827325,33.159327],[131.827532,33.159378],[131.827599,33.159417],[131.827652,33.159462],[131.827746,33.159626],[131.827766,33.15971],[131.827713,33.159879],[131.827706,33.159964],[131.827746,33.160014],[131.827799,33.160031],[131.827758,33.160045],[131.827766,33.160071],[131.827766,33.160127],[131.827779,33.160161],[131.827799,33.160144],[131.827826,33.160155],[131.82784,33.160183],[131.82786,33.160194],[131.8279,33.1602],[131.827933,33.1602],[131.82796,33.160166],[131.827967,33.160132],[131.828,33.160121],[131.828018,33.160124],[131.82802,33.160104],[131.828188,33.160228],[131.828201,33.160352],[131.828201,33.160375],[131.828188,33.160392],[131.828194,33.160459],[131.828194,33.160499],[131.828181,33.160493],[131.828181,33.160521],[131.828194,33.160538],[131.828208,33.160566],[131.828241,33.160532],[131.828275,33.160527],[131.828315,33.160527],[131.828348,33.160572],[131.828342,33.160594],[131.828275,33.160662],[131.828275,33.160696],[131.828295,33.160724],[131.828308,33.160758],[131.828368,33.160764],[131.828395,33.160809],[131.828429,33.160842],[131.828455,33.160854],[131.828482,33.160876],[131.828522,33.160893],[131.828623,33.160876],[131.828751,33.160871],[131.828663,33.160482],[131.828629,33.160476]]]]}},{"type":"Feature","properties":{"layer_id":"scenic_nature_areas","name":"日豊海岸国定自然公園地域","source":"国土交通省 国土数値情報","subarea_name":"自然公園地域"},"geometry":{"type":"MultiPolygon","coordinates":[[[[131.81136,33.139357],[131.811348,33.139392],[131.81135,33.139444],[131.811363,33.139501],[131.811367,33.139518],[131.81142,33.13966],[131.81147,33.139774],[131.811495,33.139831],[131.811539,33.13991],[131.811595,33.139955],[131.811644,33.139977],[131.811777,33.139993],[131.811369,33.139348],[131.81136,33.139357]]],[[[131.812636,33.14123],[131.812719,33.141265],[131.812788,33.141275],[131.812856,33.141274],[131.813002,33.141238],[131.813093,33.141214],[131.812631,33.141226],[131.812636,33.14123]]],[[[131.814659,33.141202],[131.814764,33.141275],[131.814842,33.141365],[131.814873,33.141439],[131.81489,33.14153],[131.814891,33.141578],[131.814894,33.141823],[131.81492,33.141949],[131.814936,33.142012],[131.814986,33.142074],[131.815108,33.142209],[131.815371,33.142501],[131.815539,33.142635],[131.815626,33.142678],[131.814803,33.141168],[131.814595,33.141174],[131.814659,33.141202]]],[[[131.81771,33.144602],[131.817648,33.14474],[131.817517,33.145165],[131.817488,33.145311],[131.817458,33.145435],[131.817424,33.145669],[131.817438,33.145814],[131.81747,33.145987],[131.817547,33.146182],[131.817596,33.146355],[131.817736,33.146642],[131.817851,33.146945],[131.817972,33.147182],[131.818062,33.147318],[131.818193,33.147515],[131.818341,33.14776],[131.818472,33.147984],[131.818558,33.148107],[131.818735,33.148447],[131.818875,33.148693],[131.818973,33.148904],[131.819097,33.149177],[131.81918,33.149417],[131.819237,33.149636],[131.81939,33.150191],[131.819463,33.150417],[131.819515,33.150705],[131.819613,33.150951],[131.819658,33.151047],[131.81983,33.151284],[131.819995,33.15155],[131.820166,33.151766],[131.820319,33.151928],[131.820523,33.152094],[131.820684,33.15227],[131.820819,33.152391],[131.820895,33.152465],[131.821048,33.152634],[131.82123,33.152919],[131.821464,33.153328],[131.821597,33.15365],[131.821624,33.153704],[131.821666,33.153752],[131.8217,33.153792],[131.821767,33.153839],[131.822264,33.154055],[131.822338,33.154074],[131.82242,33.154086],[131.822477,33.154085],[131.822558,33.154069],[131.822671,33.154025],[131.823672,33.153719],[131.823955,33.153643],[131.824304,33.153594],[131.824572,33.153574],[131.824765,33.153603],[131.825019,33.153708],[131.825222,33.153805],[131.825401,33.153923],[131.825566,33.154083],[131.825687,33.154217],[131.825768,33.154365],[131.825814,33.154452],[131.825933,33.154365],[131.825993,33.154365],[131.826134,33.154331],[131.826207,33.154337],[131.826248,33.154348],[131.826254,33.154359],[131.826301,33.154359],[131.826328,33.154376],[131.826368,33.154382],[131.826475,33.154489],[131.826475,33.154528],[131.826508,33.154573],[131.826528,33.154635],[131.826562,33.154686],[131.826562,33.154714],[131.826602,33.154776],[131.826603,33.154789],[131.826609,33.154889],[131.826569,33.154939],[131.826495,33.155029],[131.826468,33.155069],[131.826455,33.155091],[131.826301,33.155238],[131.826013,33.155463],[131.825873,33.155587],[131.825799,33.155677],[131.825672,33.155835],[131.825598,33.155908],[131.825525,33.155998],[131.825324,33.156229],[131.82527,33.156302],[131.825257,33.156308],[131.82523,33.156415],[131.82523,33.156494],[131.825311,33.156607],[131.825391,33.156714],[131.825525,33.156854],[131.825638,33.156956],[131.825819,33.157159],[131.825906,33.157243],[131.82612,33.157468],[131.826127,33.157496],[131.826154,33.157508],[131.826308,33.157637],[131.826455,33.157761],[131.826662,33.157891],[131.826783,33.15797],[131.82685,33.158015],[131.826876,33.158026],[131.82689,33.158105],[131.826903,33.158127],[131.826917,33.158184],[131.826957,33.158279],[131.827017,33.158488],[131.82703,33.158533],[131.827024,33.15855],[131.82689,33.158601],[131.82693,33.158753],[131.826943,33.158837],[131.82697,33.158927],[131.827004,33.159034],[131.827037,33.159153],[131.827064,33.159226],[131.827084,33.159305],[131.827244,33.159294],[131.827264,33.159305],[131.827305,33.159307],[131.827305,33.159316],[131.827325,33.159327],[131.827532,33.159378],[131.827599,33.159417],[131.827652,33.159462],[131.827746,33.159626],[131.827766,33.15971],[131.827713,33.159879],[131.827706,33.159964],[131.827746,33.160014],[131.827799,33.160031],[131.827758,33.160045],[131.827766,33.160071],[131.827766,33.160127],[131.827779,33.160161],[131.827799,33.160144],[131.827826,33.160155],[131.82784,33.160183],[131.82786,33.160194],[131.8279,33.1602],[131.827933,33.1602],[131.82796,33.160166],[131.827967,33.160132],[131.828,33.160121],[131.828018,33.160124],[131.82802,33.160104],[131.828188,33.160228],[131.828201,33.160352],[131.828201,33.160375],[131.828188,33.160392],[131.828194,33.160459],[131.828194,33.160499],[131.828181,33.160493],[131.828181,33.160521],[131.828194,33.160538],[131.828208,33.160566],[131.828241,33.160532],[131.828275,33.160527],[131.828315,33.160527],[131.828348,33.160572],[131.828342,33.160594],[131.828275,33.160662],[131.828275,33.160696],[131.828295,33.160724],[131.828308,33.160758],[131.828368,33.160764],[131.828395,33.160809],[131.828429,33.160842],[131.828455,33.160854],[131.828482,33.160876],[131.828522,33.160893],[131.828623,33.160876],[131.828751,33.160871],[131.828663,33.160482],[131.828629,33.160476],[131.828629,33.160437],[131.828649,33.160422],[131.828633,33.160352],[131.828569,33.160352],[131.828583,33.160313],[131.828583,33.160262],[131.828608,33.160241],[131.828594,33.160181],[131.828583,33.160183],[131.828476,33.160178],[131.828462,33.160161],[131.828476,33.160121],[131.828576,33.160099],[131.828552,33.159993],[131.828542,33.159992],[131.828548,33.159976],[131.828538,33.159932],[131.828529,33.15993],[131.828529,33.159924],[131.828516,33.159902],[131.828496,33.159896],[131.828516,33.159873],[131.828509,33.15984],[131.828476,33.159784],[131.828499,33.15976],[131.828496,33.159747],[131.828482,33.159727],[131.828462,33.159722],[131.828486,33.159702],[131.828477,33.159663],[131.828422,33.159643],[131.828362,33.159637],[131.828342,33.159615],[131.828342,33.159536],[131.828355,33.159479],[131.828321,33.159423],[131.828261,33.159378],[131.828248,33.159361],[131.828241,33.159339],[131.828214,33.15931],[131.828168,33.159299],[131.828141,33.159265],[131.828161,33.159232],[131.828194,33.159203],[131.828208,33.159198],[131.828228,33.159164],[131.828241,33.15913],[131.828241,33.159062],[131.828228,33.159023],[131.828208,33.159001],[131.828194,33.158978],[131.828161,33.158927],[131.828161,33.158877],[131.828141,33.15886],[131.828148,33.158843],[131.828134,33.158837],[131.828148,33.158798],[131.828148,33.15873],[131.828101,33.158685],[131.828101,33.158679],[131.828094,33.158617],[131.828081,33.158595],[131.828087,33.15855],[131.828101,33.158522],[131.828114,33.158488],[131.828148,33.158443],[131.828141,33.158364],[131.828128,33.158336],[131.828141,33.158324],[131.828159,33.158264],[131.828157,33.158253],[131.828114,33.158212],[131.828128,33.158201],[131.828128,33.158127],[131.828117,33.158079],[131.828081,33.158049],[131.828054,33.15802],[131.828041,33.157987],[131.828041,33.157975],[131.828034,33.157908],[131.828007,33.157857],[131.828007,33.157801],[131.827987,33.157767],[131.82798,33.157727],[131.827927,33.157677],[131.827947,33.157666],[131.827934,33.157649],[131.827947,33.157615],[131.827914,33.15757],[131.827853,33.157513],[131.827813,33.157468],[131.82778,33.15744],[131.82778,33.157423],[131.827773,33.157372],[131.82776,33.157361],[131.827646,33.157361],[131.827613,33.15735],[131.827566,33.157344],[131.827559,33.157356],[131.827499,33.157367],[131.827465,33.157367],[131.827385,33.157406],[131.827291,33.157417],[131.827131,33.157417],[131.82701,33.157372],[131.826963,33.157339],[131.826843,33.157237],[131.826816,33.157204],[131.826763,33.157069],[131.826743,33.156973],[131.826743,33.156871],[131.826756,33.156849],[131.826756,33.156838],[131.826796,33.156764],[131.826836,33.156708],[131.82687,33.15668],[131.82697,33.156596],[131.827024,33.156562],[131.827024,33.156545],[131.827124,33.15655],[131.827184,33.156562],[131.827284,33.156556],[131.827305,33.156539],[131.827318,33.156522],[131.827358,33.156511],[131.827412,33.156488],[131.827425,33.156477],[131.827439,33.156477],[131.827452,33.156432],[131.827472,33.156409],[131.827439,33.156359],[131.827425,33.156308],[131.827392,33.15628],[131.827378,33.156246],[131.827331,33.156207],[131.827264,33.156179],[131.827191,33.156184],[131.827151,33.156184],[131.827138,33.156167],[131.827144,33.155925],[131.827171,33.155767],[131.827184,33.155734],[131.827191,33.155688],[131.827231,33.155683],[131.827311,33.155649],[131.827365,33.155604],[131.827385,33.15557],[131.827392,33.155547],[131.827412,33.155502],[131.827405,33.155463],[131.827385,33.155452],[131.827405,33.155424],[131.827412,33.155407],[131.827398,33.155401],[131.827432,33.155384],[131.827452,33.155384],[131.827465,33.155379],[131.827465,33.155367],[131.827546,33.155317],[131.827532,33.15517],[131.827492,33.155136],[131.827485,33.155119],[131.827485,33.155108],[131.827559,33.155046],[131.827579,33.154979],[131.827579,33.154951],[131.827593,33.154928],[131.827593,33.15481],[131.827606,33.154787],[131.827599,33.154736],[131.827599,33.154725],[131.827639,33.154675],[131.827633,33.154624],[131.827579,33.154579],[131.827552,33.154568],[131.827566,33.154545],[131.827593,33.154539],[131.827626,33.154517],[131.827659,33.154506],[131.827639,33.154494],[131.827659,33.154477],[131.827659,33.154473],[131.827947,33.154417],[131.827997,33.154416],[131.82803,33.154415],[131.828057,33.154424],[131.828114,33.15421],[131.827407,33.153903],[131.826866,33.15208],[131.828591,33.150033],[131.82464,33.149317],[131.823337,33.1479],[131.821504,33.148632],[131.819025,33.146677],[131.81897,33.145483],[131.820063,33.144901],[131.817746,33.144522],[131.81771,33.144602]]],[[[131.826322,33.169846],[131.826499,33.170131],[131.826516,33.170166],[131.826534,33.170193],[131.826568,33.170212],[131.826609,33.170225],[131.826683,33.17023],[131.826806,33.17022],[131.826847,33.170212],[131.82688,33.170197],[131.826891,33.170181],[131.826903,33.170162],[131.827018,33.169982],[131.826609,33.170029],[131.826233,33.169717],[131.826322,33.169846]]],[[[131.828641,33.169828],[131.82865,33.169793],[131.828628,33.169796],[131.828641,33.169828]]],[[[131.828394,33.170754],[131.828373,33.170844],[131.828374,33.170857],[131.828374,33.17086],[131.828413,33.17071],[131.828394,33.170754]]],[[[131.828377,33.170941],[131.828389,33.171051],[131.828451,33.171166],[131.828696,33.171451],[131.828703,33.17146],[131.828888,33.171675],[131.82894,33.171736],[131.828995,33.1718],[131.829232,33.172155],[131.829287,33.172288],[131.829311,33.172389],[131.829316,33.172515],[131.829301,33.172625],[131.829244,33.172719],[131.829197,33.172772],[131.829158,33.172814],[131.828982,33.17292],[131.828722,33.173096],[131.828708,33.173105],[131.828651,33.173174],[131.828614,33.173267],[131.828591,33.17342],[131.828632,33.174194],[131.828668,33.174336],[131.828713,33.174461],[131.828766,33.174544],[131.828934,33.174716],[131.830088,33.175682],[131.830283,33.175921],[131.830431,33.176131],[131.830507,33.176276],[131.830569,33.176372],[131.830641,33.176429],[131.830747,33.176484],[131.830935,33.176528],[131.831052,33.176544],[131.831203,33.17653],[131.831539,33.176511],[131.831694,33.176502],[131.831829,33.176533],[131.831931,33.176613],[131.832412,33.17702],[131.83246,33.177067],[131.832485,33.177115],[131.832498,33.177154],[131.8325,33.177203],[131.832479,33.177252],[131.832435,33.177312],[131.832005,33.177598],[131.831926,33.177659],[131.831893,33.177708],[131.831872,33.177777],[131.831874,33.177826],[131.831913,33.177913],[131.832033,33.178017],[131.832282,33.178128],[131.832563,33.178188],[131.832865,33.178189],[131.832947,33.178197],[131.832983,33.178235],[131.83302,33.178283],[131.833023,33.178361],[131.833015,33.178459],[131.832581,33.17982],[131.832532,33.180309],[131.83254,33.18042],[131.832552,33.180524],[131.832619,33.180747],[131.832652,33.180827],[131.832565,33.180846],[131.832198,33.180974],[131.831814,33.181156],[131.831788,33.18118],[131.83178,33.181202],[131.831791,33.18124],[131.831819,33.181284],[131.831894,33.181357],[131.832684,33.182103],[131.833448,33.182865],[131.83408,33.183419],[131.834644,33.18387],[131.835167,33.184201],[131.835788,33.184508],[131.836407,33.184769],[131.836887,33.184921],[131.837105,33.185005],[131.837214,33.185047],[131.83726,33.185076],[131.837324,33.18512],[131.837384,33.185161],[131.837449,33.185227],[131.837526,33.185368],[131.837633,33.185583],[131.837696,33.185735],[131.837868,33.186089],[131.837984,33.186319],[131.838052,33.186445],[131.83817,33.18672],[131.838283,33.186957],[131.838345,33.187062],[131.838477,33.187246],[131.838691,33.187466],[131.83896,33.187707],[131.839203,33.187872],[131.839395,33.18798],[131.839613,33.188064],[131.839976,33.188174],[131.840201,33.188213],[131.840489,33.18825],[131.840883,33.188261],[131.841287,33.188295],[131.84171,33.188366],[131.842015,33.188387],[131.842171,33.188376],[131.842294,33.188335],[131.842427,33.188286],[131.842534,33.188275],[131.842656,33.188263],[131.84273,33.188277],[131.842812,33.188297],[131.842929,33.188332],[131.843047,33.188377],[131.843294,33.188509],[131.843781,33.188827],[131.844267,33.189129],[131.844578,33.189301],[131.844852,33.189436],[131.845026,33.189537],[131.845126,33.189587],[131.845244,33.189629],[131.845352,33.189656],[131.845694,33.189699],[131.846079,33.189703],[131.846361,33.189713],[131.846763,33.189693],[131.847092,33.189646],[131.847476,33.189628],[131.847647,33.189613],[131.848183,33.188521],[131.849056,33.188264],[131.848556,33.187847],[131.848021,33.187953],[131.845687,33.18881],[131.842082,33.186549],[131.841263,33.187324],[131.840126,33.187169],[131.838326,33.184473],[131.838369,33.1831],[131.837971,33.182773],[131.837184,33.18243],[131.835545,33.182967],[131.834504,33.181958],[131.832808,33.181087],[131.833726,33.176584],[131.832172,33.175644],[131.832901,33.17524],[131.832634,33.174754],[131.830921,33.175353],[131.829415,33.174462],[131.828816,33.17324],[131.829601,33.172821],[131.829427,33.172082],[131.828376,33.170917],[131.828377,33.170941]]],[[[131.843348,33.163287],[131.842665,33.163478],[131.843034,33.16391],[131.843348,33.163287]]],[[[131.841699,33.165721],[131.841704,33.16478],[131.841124,33.165256],[131.841699,33.165721]]],[[[131.839977,33.167281],[131.840158,33.168103],[131.840786,33.167779],[131.839977,33.167281]]],[[[131.839597,33.17648],[131.838414,33.175244],[131.837682,33.175312],[131.83742,33.176557],[131.835284,33.177593],[131.835998,33.178121],[131.835638,33.178585],[131.83642,33.178593],[131.837008,33.178456],[131.837661,33.177661],[131.838981,33.177937],[131.839207,33.177474],[131.839597,33.17648]]]]}},{"type":"Feature","properties":{"layer_id":"cultural_facilities","name":"荘田平五郎記念こども図書館","address":"臼杵5-1","source":"国土交通省 国土数値情報"},"geometry":{"type":"Point","coordinates":[131.798695,33.121646]}},{"type":"Feature","properties":{"layer_id":"cultural_facilities","name":"野津キリシタン記念資料館","address":"野津町宮原3676","source":"国土交通省 国土数値情報"},"geometry":{"type":"Point","coordinates":[131.691704,33.047222]}},{"type":"Feature","properties":{"layer_id":"cultural_facilities","name":"福良ヶ丘小学校運動場","address":"大字福良360-1","source":"国土交通省 国土数値情報"},"geometry":{"type":"Point","coordinates":[131.794217,33.11426]}},{"type":"Feature","properties":{"layer_id":"cultural_facilities","name":"東中学校運動場","address":"大字臼杵71-18","source":"国土交通省 国土数値情報"},"geometry":{"type":"Point","coordinates":[131.803528,33.125745]}},{"type":"Feature","properties":{"layer_id":"cultural_facilities","name":"吉四六ランド","address":"野津町大字原326","source":"国土交通省 国土数値情報"},"geometry":{"type":"Point","coordinates":[131.683043,33.039916]}},{"type":"Feature","properties":{"layer_id":"cultural_facilities","name":"臼杵市諏訪山体育館","address":"大字諏訪595-5","source":"国土交通省 国土数値情報"},"geometry":{"type":"Point","coordinates":[131.79761,33.133018]}},{"type":"Feature","properties":{"layer_id":"cultural_facilities","name":"臼杵市立臼杵図書館","address":"大字臼杵6-16","source":"国土交通省 国土数値情報"},"geometry":{"type":"Point","coordinates":[131.801372,33.123289]}},{"type":"Feature","properties":{"layer_id":"cultural_facilities","name":"吉四六ランド","address":"野津町大字原326","source":"国土交通省 国土数値情報"},"geometry":{"type":"Point","coordinates":[131.683602,33.03884]}},{"type":"Feature","properties":{"layer_id":"cultural_facilities","name":"臼杵市立臼杵図書館野津分館","address":"野津町大字野津市184","source":"国土交通省 国土数値情報"},"geometry":{"type":"Point","coordinates":[131.694179,33.045325]}},{"type":"Feature","properties":{"layer_id":"cultural_facilities","name":"西中学校運動場","address":"大字戸室535","source":"国土交通省 国土数値情報"},"geometry":{"type":"Point","coordinates":[131.786191,33.11851]}},{"type":"Feature","properties":{"layer_id":"cultural_facilities","name":"臼杵市柔剣道場","address":"臼杵81-95","source":"国土交通省 国土数値情報"},"geometry":{"type":"Point","coordinates":[131.80233,33.124545]}},{"type":"Feature","properties":{"layer_id":"cultural_facilities","name":"臼杵市営弓道場","address":"大字臼杵91","source":"国土交通省 国土数値情報"},"geometry":{"type":"Point","coordinates":[131.801344,33.121362]}},{"type":"Feature","properties":{"layer_id":"cultural_facilities","name":"川登グラウンド","address":"野津町大字清水原825","source":"国土交通省 国土数値情報"},"geometry":{"type":"Point","coordinates":[131.713446,33.006666]}},{"type":"Feature","properties":{"layer_id":"cultural_facilities","name":"戸上小学校グラウンド","address":"野津町大字西寒田215-2","source":"国土交通省 国土数値情報"},"geometry":{"type":"Point","coordinates":[131.659883,33.064284]}},{"type":"Feature","properties":{"layer_id":"cultural_facilities","name":"吉四六ランド","address":"野津町大字原326","source":"国土交通省 国土数値情報"},"geometry":{"type":"Point","coordinates":[131.681974,33.037934]}},{"type":"Feature","properties":{"layer_id":"cultural_facilities","name":"臼杵市諏訪山体育館","address":"大字諏訪595-5","source":"国土交通省 国土数値情報"},"geometry":{"type":"Point","coordinates":[131.797621,33.132879]}},{"type":"Feature","properties":{"layer_id":"cultural_facilities","name":"田野グラウンド","address":"野津町大字亀甲4010-1","source":"国土交通省 国土数値情報"},"geometry":{"type":"Point","coordinates":[131.722019,33.046844]}},{"type":"Feature","properties":{"layer_id":"cultural_facilities","name":"吉四六ランド","address":"野津町大字原326","source":"国土交通省 国土数値情報"},"geometry":{"type":"Point","coordinates":[131.682497,33.038791]}},{"type":"Feature","properties":{"layer_id":"cultural_facilities","name":"臼杵市民球場","address":"大字諏訪790","source":"国土交通省 国土数値情報"},"geometry":{"type":"Point","coordinates":[131.797658,33.134518]}},{"type":"Feature","properties":{"layer_id":"cultural_facilities","name":"臼杵市テニスコート","address":"大字諏訪784-7","source":"国土交通省 国土数値情報"},"geometry":{"type":"Point","coordinates":[131.795057,33.135589]}},{"type":"Feature","properties":{"layer_id":"cultural_facilities","name":"臼杵市民グラウンド","address":"大字臼杵81-118","source":"国土交通省 国土数値情報"},"geometry":{"type":"Point","coordinates":[131.803267,33.124319]}},{"type":"Feature","properties":{"layer_id":"cultural_facilities","name":"豊洋中学校運動場","address":"大字下ノ江5154-1","source":"国土交通省 国土数値情報"},"geometry":{"type":"Point","coordinates":[131.821384,33.165177]}},{"type":"Feature","properties":{"layer_id":"cultural_facilities","name":"ヤマコ臼杵美術博物館","address":"深田793","source":"国土交通省 国土数値情報"},"geometry":{"type":"Point","coordinates":[131.761861,33.091569]}},{"type":"Feature","properties":{"layer_id":"cultural_facilities","name":"臼杵市相撲場","address":"大字家野1546","source":"国土交通省 国土数値情報"},"geometry":{"type":"Point","coordinates":[131.767205,33.101696]}},{"type":"Feature","properties":{"layer_id":"cultural_facilities","name":"多目的グラウンド","address":"大字諏訪726-1","source":"国土交通省 国土数値情報"},"geometry":{"type":"Point","coordinates":[131.79669,33.136224]}},{"type":"Feature","properties":{"layer_id":"cultural_facilities","name":"南中学校運動場","address":"大字掻懐2227","source":"国土交通省 国土数値情報"},"geometry":{"type":"Point","coordinates":[131.74891,33.096729]}},{"type":"Feature","properties":{"layer_id":"parks_playgrounds","name":"仲よし子供公園","address":"臼杵市","source":"国土交通省 国土数値情報"},"geometry":{"type":"Point","coordinates":[131.799745,33.121251]}},{"type":"Feature","properties":{"layer_id":"parks_playgrounds","name":"市浜川添公園","address":"臼杵市","source":"国土交通省 国土数値情報"},"geometry":{"type":"Point","coordinates":[131.790569,33.116]}},{"type":"Feature","properties":{"layer_id":"parks_playgrounds","name":"臼杵市総合公園","address":"臼杵市","source":"国土交通省 国土数値情報"},"geometry":{"type":"Point","coordinates":[131.796312,33.135292]}},{"type":"Feature","properties":{"layer_id":"parks_playgrounds","name":"臼杵石仏公園","address":"臼杵市","source":"国土交通省 国土数値情報"},"geometry":{"type":"Point","coordinates":[131.763285,33.089305]}},{"type":"Feature","properties":{"layer_id":"parks_playgrounds","name":"臼杵公園","address":"臼杵市","source":"国土交通省 国土数値情報"},"geometry":{"type":"Point","coordinates":[131.803874,33.121823]}},{"type":"Feature","properties":{"layer_id":"tourism_resources","name":"風連鍾乳洞","address":"石灰岩景観 / 鍾乳洞","source":"国土交通省 国土数値情報"},"geometry":{"type":"Point","coordinates":[131.736084,33.011333]}},{"type":"Feature","properties":{"layer_id":"tourism_resources","name":"八戸台","address":"石灰岩景観 / カッレンフェルト・ドリーネ群","source":"国土交通省 国土数値情報"},"geometry":{"type":"Point","coordinates":[131.801727,33.05529]}},{"type":"Feature","properties":{"layer_id":"tourism_resources","name":"八戸台","address":"石灰岩景観 / カッレンフェルト・ドリーネ群","source":"国土交通省 国土数値情報"},"geometry":{"type":"Point","coordinates":[131.801727,33.05529]}}]}